{
  "meta": {
    "timestamp": "2022-07-27T06:52:56.721983Z",
    "stations_updated": "2022-07-17"
  },
  "altimeter": {
    "repr": "A2986",
    "value": 29.86,
    "spoken": "two nine point eight six"
  },
  "clouds": [],
  "flight_rules": "VFR",
  "other": [],
  "visibility": {
    "repr": "10",
    "value": 10,
    "spoken": "one zero"
  },
  "wind_direction": {
    "repr": "180",
    "value": 180,
    "spoken": "one eight zero"
  },
  "wind_gust": null,
  "wind_speed": {
    "repr": "05",
    "value": 5,
    "spoken": "five"
  },
  "wx_codes": [],
  "raw": "KBLI 270553Z AUTO 18005KT 10SM CLR 23/18 A2986 RMK AO2 RAB0458E05 SLP116 P0000 60000 T02330178 10317 20206 53008",
  "sanitized": "KBLI 270553Z 18005KT 10SM 23/18 A2986 RMK AO2 RAB0458E05 SLP116 P0000 60000 T02330178 10317 20206 53008",
  "station": "KBLI",
  "time": {
    "repr": "270553Z",
    "dt": "2022-07-27T05:53:00Z"
  },
  "remarks": "RMK AO2 RAB0458E05 SLP116 P0000 60000 T02330178 10317 20206 53008",
  "dewpoint": {
    "repr": "18",
    "value": 18,
    "spoken": "one eight"
  },
  "relative_humidity": 0.7121634868637057,
  "remarks_info": {
    "maximum_temperature_6": {
      "repr": "10317",
      "value": 31.7,
      "spoken": "three one point seven"
    },
    "minimum_temperature_6": {
      "repr": "20206",
      "value": 20.6,
      "spoken": "two zero point six"
    },
    "pressure_tendency": {
      "repr": "53008",
      "tendency": "Decreasing or steady, then increasing",
      "change": 0.8
    },
    "precip_36_hours": {
      "repr": "60000",
      "value": 0,
      "spoken": "zero"
    },
    "precip_24_hours": null,
    "sunshine_minutes": null,
    "codes": [
      {
        "repr": "AO2",
        "value": "Automated with precipitation sensor"
      },
      {
        "repr": "P0000",
        "value": "Trace amount of rain in the last hour"
      }
    ],
    "dewpoint_decimal": {
      "repr": "0178",
      "value": 17.8,
      "spoken": "one seven point eight"
    },
    "maximum_temperature_24": null,
    "minimum_temperature_24": null,
    "precip_hourly": null,
    "sea_level_pressure": {
      "repr": "SLP116",
      "value": 1011.6,
      "spoken": "one zero one one point six"
    },
    "snow_depth": null,
    "temperature_decimal": {
      "repr": "0233",
      "value": 23.3,
      "spoken": "two three point three"
    }
  },
  "runway_visibility": [],
  "temperature": {
    "repr": "23",
    "value": 23,
    "spoken": "two three"
  },
  "wind_variable_direction": [],
  "density_altitude": 1267,
  "pressure_altitude": 230,
  "units": {
    "accumulation": "in",
    "altimeter": "inHg",
    "altitude": "ft",
    "temperature": "C",
    "visibility": "sm",
    "wind_speed": "kt"
  }
}
