{
  "meta": {
    "timestamp": "2022-07-27T08:38:33.336583Z",
    "stations_updated": "2022-07-17",
    "cache-timestamp": "2022-07-27T08:38:00.851000Z"
  },
  "altimeter": {
    "repr": "A2989",
    "value": 29.89,
    "spoken": "two nine point eight nine"
  },
  "clouds": [],
  "flight_rules": "VFR",
  "other": [],
  "visibility": {
    "repr": "10",
    "value": 10,
    "spoken": "one zero"
  },
  "wind_direction": {
    "repr": "000",
    "value": 0,
    "spoken": "zero zero zero"
  },
  "wind_gust": null,
  "wind_speed": {
    "repr": "00",
    "value": 0,
    "spoken": "zero"
  },
  "wx_codes": [],
  "raw": "KBLI 270753Z AUTO 00000KT 10SM CLR 19/19 A2989 RMK AO2 SLP124 T01940189 403220156",
  "sanitized": "KBLI 270753Z 00000KT 10SM 19/19 A2989 RMK AO2 SLP124 T01940189 403220156",
  "station": "KBLI",
  "time": {
    "repr": "270753Z",
    "dt": "2022-07-27T07:53:00Z"
  },
  "remarks": "RMK AO2 SLP124 T01940189 403220156",
  "dewpoint": {
    "repr": "19",
    "value": 19,
    "spoken": "one nine"
  },
  "relative_humidity": 0.9692958640223609,
  "remarks_info": {
    "maximum_temperature_6": null,
    "minimum_temperature_6": null,
    "pressure_tendency": null,
    "precip_36_hours": null,
    "precip_24_hours": null,
    "sunshine_minutes": null,
    "codes": [
      {
        "repr": "AO2",
        "value": "Automated with precipitation sensor"
      }
    ],
    "dewpoint_decimal": {
      "repr": "0189",
      "value": 18.9,
      "spoken": "one eight point nine"
    },
    "maximum_temperature_24": {
      "repr": "0322",
      "value": 32.2,
      "spoken": "three two point two"
    },
    "minimum_temperature_24": {
      "repr": "0156",
      "value": 15.6,
      "spoken": "one five point six"
    },
    "precip_hourly": null,
    "sea_level_pressure": {
      "repr": "SLP124",
      "value": 1012.4,
      "spoken": "one zero one two point four"
    },
    "snow_depth": null,
    "temperature_decimal": {
      "repr": "0194",
      "value": 19.4,
      "spoken": "one nine point four"
    }
  },
  "runway_visibility": [],
  "temperature": {
    "repr": "19",
    "value": 19,
    "spoken": "one nine"
  },
  "wind_variable_direction": [],
  "density_altitude": 769,
  "pressure_altitude": 200,
  "units": {
    "accumulation": "in",
    "altimeter": "inHg",
    "altitude": "ft",
    "temperature": "C",
    "visibility": "sm",
    "wind_speed": "kt"
  }
}
