{
  "meta": {
    "timestamp": "2022-07-27T06:38:57.889258Z",
    "stations_updated": "2022-07-17"
  },
  "altimeter": {
    "repr": "A2992",
    "value": 29.92,
    "spoken": "two nine point nine two"
  },
  "clouds": [],
  "flight_rules": "VFR",
  "other": [],
  "visibility": {
    "repr": "10",
    "value": 10,
    "spoken": "one zero"
  },
  "wind_direction": {
    "repr": "000",
    "value": 0,
    "spoken": "zero zero zero"
  },
  "wind_gust": null,
  "wind_speed": {
    "repr": "00",
    "value": 0,
    "spoken": "zero"
  },
  "wx_codes": [],
  "raw": "KNUW 270553Z 00000KT 10SM SKC 18/13 A2992 SLP131 T01830128 10267 20172 51009",
  "sanitized": "KNUW 270553Z 00000KT 10SM 18/13 A2992 SLP131 T01830128 10267 20172 51009",
  "station": "KNUW",
  "time": {
    "repr": "270553Z",
    "dt": "2022-07-27T05:53:00Z"
  },
  "remarks": "SLP131 T01830128 10267 20172 51009",
  "dewpoint": {
    "repr": "13",
    "value": 13,
    "spoken": "one three"
  },
  "relative_humidity": 0.7028025539942158,
  "remarks_info": {
    "maximum_temperature_6": {
      "repr": "10267",
      "value": 26.7,
      "spoken": "two six point seven"
    },
    "minimum_temperature_6": {
      "repr": "20172",
      "value": 17.2,
      "spoken": "one seven point two"
    },
    "pressure_tendency": {
      "repr": "51009",
      "tendency": "Increasing, then steady",
      "change": 0.9
    },
    "precip_36_hours": null,
    "precip_24_hours": null,
    "sunshine_minutes": null,
    "codes": [],
    "dewpoint_decimal": {
      "repr": "0128",
      "value": 12.8,
      "spoken": "one two point eight"
    },
    "maximum_temperature_24": null,
    "minimum_temperature_24": null,
    "precip_hourly": null,
    "sea_level_pressure": {
      "repr": "SLP131",
      "value": 1013.1,
      "spoken": "one zero one three point one"
    },
    "snow_depth": null,
    "temperature_decimal": {
      "repr": "0183",
      "value": 18.3,
      "spoken": "one eight point three"
    }
  },
  "runway_visibility": [],
  "temperature": {
    "repr": "18",
    "value": 18,
    "spoken": "one eight"
  },
  "wind_variable_direction": [],
  "density_altitude": 454,
  "pressure_altitude": 47,
  "units": {
    "accumulation": "in",
    "altimeter": "inHg",
    "altitude": "ft",
    "temperature": "C",
    "visibility": "sm",
    "wind_speed": "kt"
  }
}
