{
  "meta": {
    "timestamp": "2022-12-07T06:07:12.987699Z",
    "stations_updated": "2022-09-05"
  },
  "altimeter": {
    "repr": "A3018",
    "value": 30.18,
    "spoken": "three zero point one eight"
  },
  "clouds": [
    {
      "repr": "OVC019",
      "type": "OVC",
      "altitude": 19,
      "modifier": null
    }
  ],
  "flight_rules": "MVFR",
  "other": [],
  "visibility": {
    "repr": "10",
    "value": 10,
    "spoken": "one zero"
  },
  "wind_direction": {
    "repr": "350",
    "value": 350,
    "spoken": "three five zero"
  },
  "wind_gust": null,
  "wind_speed": {
    "repr": "05",
    "value": 5,
    "spoken": "five"
  },
  "wx_codes": [],
  "raw": "KAWO 070556Z AUTO 35005KT 10SM OVC019 03/02 A3018 RMK AO2 SLP227 T00280017 10050 20028 53006",
  "sanitized": "KAWO 070556Z 35005KT 10SM OVC019 03/02 A3018 RMK AO2 SLP227 T00280017 10050 20028 53006",
  "station": "KAWO",
  "time": {
    "repr": "070556Z",
    "dt": "2022-12-07T05:56:00Z"
  },
  "remarks": "RMK AO2 SLP227 T00280017 10050 20028 53006",
  "dewpoint": {
    "repr": "02",
    "value": 2,
    "spoken": "two"
  },
  "relative_humidity": 0.9246233415824485,
  "remarks_info": {
    "maximum_temperature_6": {
      "repr": "10050",
      "value": 5,
      "spoken": "five point zero"
    },
    "minimum_temperature_6": {
      "repr": "20028",
      "value": 2.8,
      "spoken": "two point eight"
    },
    "pressure_tendency": {
      "repr": "53006",
      "tendency": "Decreasing or steady, then increasing",
      "change": 0.6
    },
    "precip_36_hours": null,
    "precip_24_hours": null,
    "sunshine_minutes": null,
    "codes": [
      {
        "repr": "AO2",
        "value": "Automated with precipitation sensor"
      }
    ],
    "dewpoint_decimal": {
      "repr": "0017",
      "value": 1.7,
      "spoken": "one point seven"
    },
    "maximum_temperature_24": null,
    "minimum_temperature_24": null,
    "precip_hourly": null,
    "sea_level_pressure": {
      "repr": "SLP227",
      "value": 1022.7,
      "spoken": "one zero two two point seven"
    },
    "snow_depth": null,
    "temperature_decimal": {
      "repr": "0028",
      "value": 2.8,
      "spoken": "two point eight"
    }
  },
  "runway_visibility": [],
  "temperature": {
    "repr": "03",
    "value": 3,
    "spoken": "three"
  },
  "wind_variable_direction": [],
  "density_altitude": -1548,
  "pressure_altitude": -118,
  "units": {
    "accumulation": "in",
    "altimeter": "inHg",
    "altitude": "ft",
    "temperature": "C",
    "visibility": "sm",
    "wind_speed": "kt"
  }
}
