{
  "meta": {
    "timestamp": "2023-10-20T17:01:43.781428Z",
    "stations_updated": "2023-10-01"
  },
  "altimeter": {
    "repr": "A3009",
    "value": 30.09,
    "spoken": "three zero point zero nine"
  },
  "clouds": [
    {
      "repr": "OVC016",
      "type": "OVC",
      "altitude": 16,
      "modifier": null
    }
  ],
  "flight_rules": "MVFR",
  "other": [],
  "visibility": {
    "repr": "10",
    "value": 10,
    "spoken": "one zero"
  },
  "wind_direction": {
    "repr": "300",
    "value": 300,
    "spoken": "three zero zero"
  },
  "wind_gust": null,
  "wind_speed": {
    "repr": "09",
    "value": 9,
    "spoken": "nine"
  },
  "wx_codes": [],
  "raw": "KAWO 201656Z AUTO 30009KT 10SM OVC016 13/11 A3009 RMK AO2 SLP193 T01330111 KAWO 201629Z AUTO 31005KT 10SM OVC016 13/11 A3009 RMK AO2 KAWO 201556Z AUTO 32006KT 10SM OVC010 13/12 A3009 RMK AO2 SLP192 T01280117 KAWO 201541Z AUTO 31008KT 9SM SCT003 OVC012 13/12 A3008 RMK AO2 KAWO 201525Z AUTO 31006KT 3SM BR BKN003 OVC008 12/12 A3008 RMK AO2",
  "sanitized": "KAWO 201656Z 30009KT 10SM OVC016 13/11 A3009 RMK AO2 SLP193 T01330111 KAWO 201629Z AUTO 31005KT 10SM OVC016 13/11 A3009 RMK AO2 KAWO 201556Z AUTO 32006KT 10SM OVC010 13/12 A3009 RMK AO2 SLP192 T01280117 KAWO 201541Z AUTO 31008KT 9SM SCT003 OVC012 13/12 A3008 RMK AO2 KAWO 201525Z AUTO 31006KT 3SM BR BKN003 OVC008 12/12 A3008 RMK AO2",
  "station": "KAWO",
  "time": {
    "repr": "201656Z",
    "dt": "2023-10-20T16:56:00Z"
  },
  "remarks": "RMK AO2 SLP193 T01330111 KAWO 201629Z AUTO 31005KT 10SM OVC016 13/11 A3009 RMK AO2 KAWO 201556Z AUTO 32006KT 10SM OVC010 13/12 A3009 RMK AO2 SLP192 T01280117 KAWO 201541Z AUTO 31008KT 9SM SCT003 OVC012 13/12 A3008 RMK AO2 KAWO 201525Z AUTO 31006KT 3SM BR BKN003 OVC008 12/12 A3008 RMK AO2",
  "dewpoint": {
    "repr": "11",
    "value": 11,
    "spoken": "one one"
  },
  "relative_humidity": 0.9301959082873248,
  "remarks_info": {
    "maximum_temperature_6": null,
    "minimum_temperature_6": null,
    "pressure_tendency": null,
    "precip_36_hours": null,
    "precip_24_hours": null,
    "sunshine_minutes": null,
    "codes": [
      {
        "repr": "AO2",
        "value": "Automated with precipitation sensor"
      },
      {
        "repr": "AO2",
        "value": "Automated with precipitation sensor"
      },
      {
        "repr": "AO2",
        "value": "Automated with precipitation sensor"
      },
      {
        "repr": "AO2",
        "value": "Automated with precipitation sensor"
      },
      {
        "repr": "AO2",
        "value": "Automated with precipitation sensor"
      }
    ],
    "dewpoint_decimal": {
      "repr": "0117",
      "value": 11.7,
      "spoken": "one one point seven"
    },
    "maximum_temperature_24": null,
    "minimum_temperature_24": null,
    "precip_hourly": null,
    "sea_level_pressure": {
      "repr": "SLP193",
      "value": 1019.3,
      "spoken": "one zero one nine point three"
    },
    "snow_depth": null,
    "temperature_decimal": {
      "repr": "0128",
      "value": 12.8,
      "spoken": "one two point eight"
    }
  },
  "runway_visibility": [],
  "temperature": {
    "repr": "13",
    "value": 13,
    "spoken": "one three"
  },
  "wind_variable_direction": [],
  "density_altitude": -258,
  "pressure_altitude": -28,
  "units": {
    "accumulation": "in",
    "altimeter": "inHg",
    "altitude": "ft",
    "temperature": "C",
    "visibility": "sm",
    "wind_speed": "kt"
  }
}
