{
  "altimeter": {
    "repr": "A2990",
    "spoken": "two nine point nine zero",
    "value": 29.9
  },
  "clouds": [],
  "density_altitude": 1600,
  "dewpoint": {
    "repr": "16",
    "spoken": "one six",
    "value": 16
  },
  "flight_rules": "VFR",
  "meta": {
    "stations_updated": "2024-06-12",
    "timestamp": "2024-07-17T03:29:05.355851Z"
  },
  "other": [],
  "pressure_altitude": 162,
  "raw": "KAWO 170256Z AUTO 30006KT 10SM CLR 27/16 A2990 RMK AO2 SLPNO T02670156 56011",
  "relative_humidity": 0.5055084076735773,
  "remarks": "RMK AO2 SLPNO T02670156 56011",
  "remarks_info": {
    "codes": [
      {
        "repr": "AO2",
        "value": "Automated with precipitation sensor"
      },
      {
        "repr": "SLPNO",
        "value": "Sea level pressure not available"
      }
    ],
    "dewpoint_decimal": {
      "repr": "0156",
      "spoken": "one five point six",
      "value": 15.6
    },
    "maximum_temperature_24": null,
    "maximum_temperature_6": null,
    "minimum_temperature_24": null,
    "minimum_temperature_6": null,
    "precip_24_hours": null,
    "precip_36_hours": null,
    "precip_hourly": null,
    "pressure_tendency": {
      "change": 1.1,
      "repr": "56011",
      "tendency": "Decreasing, then steady"
    },
    "sea_level_pressure": null,
    "snow_depth": null,
    "sunshine_minutes": null,
    "temperature_decimal": {
      "repr": "0267",
      "spoken": "two six point seven",
      "value": 26.7
    }
  },
  "runway_visibility": [],
  "sanitized": "KAWO 170256Z 30006KT 10SM 27/16 A2990 RMK AO2 SLPNO T02670156 56011",
  "station": "KAWO",
  "temperature": {
    "repr": "27",
    "spoken": "two seven",
    "value": 27
  },
  "time": {
    "dt": "2024-07-17T02:56:00Z",
    "repr": "170256Z"
  },
  "units": {
    "accumulation": "in",
    "altimeter": "inHg",
    "altitude": "ft",
    "temperature": "C",
    "visibility": "sm",
    "wind_speed": "kt"
  },
  "visibility": {
    "repr": "10",
    "spoken": "one zero",
    "value": 10
  },
  "wind_direction": {
    "repr": "300",
    "spoken": "three zero zero",
    "value": 300
  },
  "wind_gust": null,
  "wind_speed": {
    "repr": "06",
    "spoken": "six",
    "value": 6
  },
  "wind_variable_direction": [],
  "wx_codes": []
}
