{
  "altimeter": {
    "repr": "A3032",
    "spoken": "three zero point three two",
    "value": 30.32
  },
  "clouds": [],
  "density_altitude": -3428,
  "dewpoint": {
    "repr": "M17",
    "spoken": "minus one seven",
    "value": -17
  },
  "flight_rules": "VFR",
  "meta": {
    "stations_updated": "2023-10-28",
    "timestamp": "2024-01-13T06:27:52.750806Z"
  },
  "other": [],
  "pressure_altitude": -258,
  "raw": "KAWO 130556Z AUTO 01004KT 10SM CLR M12/M17 A3032 RMK AO2 SLP273 T11171172 11083 21117 58004 FZRANO",
  "relative_humidity": 0.6369090242212591,
  "remarks": "RMK AO2 SLP273 T11171172 11083 21117 58004 FZRANO",
  "remarks_info": {
    "codes": [
      {
        "repr": "AO2",
        "value": "Automated with precipitation sensor"
      },
      {
        "repr": "FZRANO",
        "value": "Freezing rain information not available"
      }
    ],
    "dewpoint_decimal": {
      "repr": "1172",
      "spoken": "minus one seven point two",
      "value": -17.2
    },
    "maximum_temperature_24": null,
    "maximum_temperature_6": {
      "repr": "11083",
      "spoken": "minus eight point three",
      "value": -8.3
    },
    "minimum_temperature_24": null,
    "minimum_temperature_6": {
      "repr": "21117",
      "spoken": "minus one one point seven",
      "value": -11.7
    },
    "precip_24_hours": null,
    "precip_36_hours": null,
    "precip_hourly": null,
    "pressure_tendency": {
      "change": 0.4,
      "repr": "58004",
      "tendency": "Steady or increasing, then decreasing"
    },
    "sea_level_pressure": {
      "repr": "SLP273",
      "spoken": "one zero two seven point three",
      "value": 1027.3
    },
    "snow_depth": null,
    "sunshine_minutes": null,
    "temperature_decimal": {
      "repr": "1117",
      "spoken": "minus one one point seven",
      "value": -11.7
    }
  },
  "runway_visibility": [],
  "sanitized": "KAWO 130556Z 01004KT 10SM M12/M17 A3032 RMK AO2 SLP273 T11171172 11083 21117 58004 FZRANO",
  "station": "KAWO",
  "temperature": {
    "repr": "M12",
    "spoken": "minus one two",
    "value": -12
  },
  "time": {
    "dt": "2024-01-13T05:56:00Z",
    "repr": "130556Z"
  },
  "units": {
    "accumulation": "in",
    "altimeter": "inHg",
    "altitude": "ft",
    "temperature": "C",
    "visibility": "sm",
    "wind_speed": "kt"
  },
  "visibility": {
    "repr": "10",
    "spoken": "one zero",
    "value": 10
  },
  "wind_direction": {
    "repr": "010",
    "spoken": "zero one zero",
    "value": 10
  },
  "wind_gust": null,
  "wind_speed": {
    "repr": "04",
    "spoken": "four",
    "value": 4
  },
  "wind_variable_direction": [],
  "wx_codes": []
}
