{
  "altimeter": {
    "repr": "A2983",
    "spoken": "two nine point eight three",
    "value": 29.83
  },
  "clouds": [
    {
      "altitude": 10,
      "modifier": null,
      "repr": "FEW010",
      "type": "FEW"
    },
    {
      "altitude": 14,
      "modifier": null,
      "repr": "OVC014",
      "type": "OVC"
    }
  ],
  "density_altitude": 146,
  "dewpoint": {
    "repr": "13",
    "spoken": "one three",
    "value": 13
  },
  "flight_rules": "MVFR",
  "meta": {
    "cache-timestamp": "2023-12-05T04:28:08.757000Z",
    "stations_updated": "2023-10-28",
    "timestamp": "2023-12-05T04:28:57.117074Z"
  },
  "other": [],
  "pressure_altitude": 232,
  "raw": "KAWO 050421Z AUTO 15015KT 10SM -RA FEW010 OVC014 14/13 A2983 RMK AO2 P0004",
  "relative_humidity": 0.9369330286066342,
  "remarks": "RMK AO2 P0004",
  "remarks_info": {
    "codes": [
      {
        "repr": "AO2",
        "value": "Automated with precipitation sensor"
      }
    ],
    "dewpoint_decimal": null,
    "maximum_temperature_24": null,
    "maximum_temperature_6": null,
    "minimum_temperature_24": null,
    "minimum_temperature_6": null,
    "precip_24_hours": null,
    "precip_36_hours": null,
    "precip_hourly": {
      "repr": "P0004",
      "spoken": "zero point zero four",
      "value": 0.04
    },
    "pressure_tendency": null,
    "sea_level_pressure": null,
    "snow_depth": null,
    "sunshine_minutes": null,
    "temperature_decimal": null
  },
  "runway_visibility": [],
  "sanitized": "KAWO 050421Z 15015KT 10SM -RA FEW010 OVC014 14/13 A2983 RMK AO2 P0004",
  "station": "KAWO",
  "temperature": {
    "repr": "14",
    "spoken": "one four",
    "value": 14
  },
  "time": {
    "dt": "2023-12-05T04:21:00Z",
    "repr": "050421Z"
  },
  "units": {
    "accumulation": "in",
    "altimeter": "inHg",
    "altitude": "ft",
    "temperature": "C",
    "visibility": "sm",
    "wind_speed": "kt"
  },
  "visibility": {
    "repr": "10",
    "spoken": "one zero",
    "value": 10
  },
  "wind_direction": {
    "repr": "150",
    "spoken": "one five zero",
    "value": 150
  },
  "wind_gust": null,
  "wind_speed": {
    "repr": "15",
    "spoken": "one five",
    "value": 15
  },
  "wind_variable_direction": [],
  "wx_codes": [
    {
      "repr": "-RA",
      "value": "Light Rain"
    }
  ]
}
