{
  "meta": {
    "timestamp": "2022-11-22T09:04:44.388187Z",
    "stations_updated": "2022-09-05"
  },
  "altimeter": {
    "repr": "A3012",
    "value": 30.12,
    "spoken": "three zero point one two"
  },
  "clouds": [
    {
      "repr": "OVC044",
      "type": "OVC",
      "altitude": 44,
      "modifier": null
    }
  ],
  "flight_rules": "VFR",
  "other": [],
  "visibility": {
    "repr": "10",
    "value": 10,
    "spoken": "one zero"
  },
  "wind_direction": {
    "repr": "100",
    "value": 100,
    "spoken": "one zero zero"
  },
  "wind_gust": null,
  "wind_speed": {
    "repr": "03",
    "value": 3,
    "spoken": "three"
  },
  "wx_codes": [],
  "raw": "KAWO 220856Z AUTO 10003KT 10SM OVC044 08/02 A3012 RMK AO2 SLP204 T00780017 58015",
  "sanitized": "KAWO 220856Z 10003KT 10SM OVC044 08/02 A3012 RMK AO2 SLP204 T00780017 58015",
  "station": "KAWO",
  "time": {
    "repr": "220856Z",
    "dt": "2022-11-22T08:56:00Z"
  },
  "remarks": "RMK AO2 SLP204 T00780017 58015",
  "dewpoint": {
    "repr": "02",
    "value": 2,
    "spoken": "two"
  },
  "relative_humidity": 0.6531529877193706,
  "remarks_info": {
    "maximum_temperature_6": null,
    "minimum_temperature_6": null,
    "pressure_tendency": {
      "repr": "58015",
      "tendency": "Steady or increasing, then decreasing",
      "change": 1.5
    },
    "precip_36_hours": null,
    "precip_24_hours": null,
    "sunshine_minutes": null,
    "codes": [
      {
        "repr": "AO2",
        "value": "Automated with precipitation sensor"
      }
    ],
    "dewpoint_decimal": {
      "repr": "0017",
      "value": 1.7,
      "spoken": "one point seven"
    },
    "maximum_temperature_24": null,
    "minimum_temperature_24": null,
    "precip_hourly": null,
    "sea_level_pressure": {
      "repr": "SLP204",
      "value": 1020.4,
      "spoken": "one zero two zero point four"
    },
    "snow_depth": null,
    "temperature_decimal": {
      "repr": "0078",
      "value": 7.8,
      "spoken": "seven point eight"
    }
  },
  "runway_visibility": [],
  "temperature": {
    "repr": "08",
    "value": 8,
    "spoken": "eight"
  },
  "wind_variable_direction": [],
  "density_altitude": -888,
  "pressure_altitude": -58,
  "units": {
    "accumulation": "in",
    "altimeter": "inHg",
    "altitude": "ft",
    "temperature": "C",
    "visibility": "sm",
    "wind_speed": "kt"
  }
}
