{
  "meta": {
    "timestamp": "2023-10-25T01:34:38.559527Z",
    "stations_updated": "2023-10-01",
    "cache-timestamp": "2023-10-25T01:34:03.821000Z"
  },
  "altimeter": {
    "repr": "A2970",
    "value": 29.7,
    "spoken": "two nine point seven zero"
  },
  "clouds": [
    {
      "repr": "OVC033",
      "type": "OVC",
      "altitude": 33,
      "modifier": null
    }
  ],
  "flight_rules": "VFR",
  "other": [],
  "visibility": {
    "repr": "8",
    "value": 8,
    "spoken": "eight"
  },
  "wind_direction": {
    "repr": "110",
    "value": 110,
    "spoken": "one one zero"
  },
  "wind_gust": null,
  "wind_speed": {
    "repr": "09",
    "value": 9,
    "spoken": "nine"
  },
  "wx_codes": [
    {
      "repr": "RA",
      "value": "Rain"
    }
  ],
  "raw": "KAWO 250056Z AUTO 11009KT 8SM RA OVC033 08/06 A2970 RMK AO2 SLP061 P0008 T00780061",
  "sanitized": "KAWO 250056Z 11009KT 8SM RA OVC033 08/06 A2970 RMK AO2 SLP061 P0008 T00780061",
  "station": "KAWO",
  "time": {
    "repr": "250056Z",
    "dt": "2023-10-25T00:56:00Z"
  },
  "remarks": "RMK AO2 SLP061 P0008 T00780061",
  "dewpoint": {
    "repr": "06",
    "value": 6,
    "spoken": "six"
  },
  "relative_humidity": 0.8899294340036578,
  "remarks_info": {
    "maximum_temperature_6": null,
    "minimum_temperature_6": null,
    "pressure_tendency": null,
    "precip_36_hours": null,
    "precip_24_hours": null,
    "sunshine_minutes": null,
    "codes": [
      {
        "repr": "AO2",
        "value": "Automated with precipitation sensor"
      }
    ],
    "dewpoint_decimal": {
      "repr": "0061",
      "value": 6.1,
      "spoken": "six point one"
    },
    "maximum_temperature_24": null,
    "minimum_temperature_24": null,
    "precip_hourly": {
      "repr": "P0008",
      "value": 0.08,
      "spoken": "zero point zero eight"
    },
    "sea_level_pressure": {
      "repr": "SLP061",
      "value": 1006.1,
      "spoken": "one zero zero six point one"
    },
    "snow_depth": null,
    "temperature_decimal": {
      "repr": "0078",
      "value": 7.8,
      "spoken": "seven point eight"
    }
  },
  "runway_visibility": [],
  "temperature": {
    "repr": "08",
    "value": 8,
    "spoken": "eight"
  },
  "wind_variable_direction": [],
  "density_altitude": -468,
  "pressure_altitude": 362,
  "units": {
    "accumulation": "in",
    "altimeter": "inHg",
    "altitude": "ft",
    "temperature": "C",
    "visibility": "sm",
    "wind_speed": "kt"
  }
}
