{
  "meta": {
    "timestamp": "2022-12-22T05:25:22.632007Z",
    "stations_updated": "2022-09-05"
  },
  "altimeter": {
    "repr": "A3057",
    "value": 30.57,
    "spoken": "three zero point five seven"
  },
  "clouds": [],
  "flight_rules": "VFR",
  "other": [],
  "visibility": {
    "repr": "10",
    "value": 10,
    "spoken": "one zero"
  },
  "wind_direction": {
    "repr": "350",
    "value": 350,
    "spoken": "three five zero"
  },
  "wind_gust": null,
  "wind_speed": {
    "repr": "07",
    "value": 7,
    "spoken": "seven"
  },
  "wx_codes": [],
  "raw": "KAWO 220456Z AUTO 35007KT 10SM CLR M14/M17 A3057 RMK AO2 SLP360 T11391172 FZRANO",
  "sanitized": "KAWO 220456Z 35007KT 10SM M14/M17 A3057 RMK AO2 SLP360 T11391172 FZRANO",
  "station": "KAWO",
  "time": {
    "repr": "220456Z",
    "dt": "2022-12-22T04:56:00Z"
  },
  "remarks": "RMK AO2 SLP360 T11391172 FZRANO",
  "dewpoint": {
    "repr": "M17",
    "value": -17,
    "spoken": "minus one seven"
  },
  "relative_humidity": 0.7608868125975445,
  "remarks_info": {
    "maximum_temperature_6": null,
    "minimum_temperature_6": null,
    "pressure_tendency": null,
    "precip_36_hours": null,
    "precip_24_hours": null,
    "sunshine_minutes": null,
    "codes": [
      {
        "repr": "AO2",
        "value": "Automated with precipitation sensor"
      },
      {
        "repr": "FZRANO",
        "value": "Freezing rain information not available"
      }
    ],
    "dewpoint_decimal": {
      "repr": "1172",
      "value": -17.2,
      "spoken": "minus one seven point two"
    },
    "maximum_temperature_24": null,
    "minimum_temperature_24": null,
    "precip_hourly": null,
    "sea_level_pressure": {
      "repr": "SLP360",
      "value": 1036,
      "spoken": "one zero three six point zero"
    },
    "snow_depth": null,
    "temperature_decimal": {
      "repr": "1139",
      "value": -13.9,
      "spoken": "minus one three point nine"
    }
  },
  "runway_visibility": [],
  "temperature": {
    "repr": "M14",
    "value": -14,
    "spoken": "minus one four"
  },
  "wind_variable_direction": [],
  "density_altitude": -3942,
  "pressure_altitude": -508,
  "units": {
    "accumulation": "in",
    "altimeter": "inHg",
    "altitude": "ft",
    "temperature": "C",
    "visibility": "sm",
    "wind_speed": "kt"
  }
}
