{
  "meta": {
    "timestamp": "2023-02-25T23:26:08.051268Z",
    "stations_updated": "2023-01-30",
    "cache-timestamp": "2023-02-25T23:26:05.617000Z"
  },
  "altimeter": {
    "repr": "A2978",
    "value": 29.78,
    "spoken": "two nine point seven eight"
  },
  "clouds": [],
  "flight_rules": "VFR",
  "other": [],
  "visibility": {
    "repr": "10",
    "value": 10,
    "spoken": "one zero"
  },
  "wind_direction": {
    "repr": "170",
    "value": 170,
    "spoken": "one seven zero"
  },
  "wind_gust": null,
  "wind_speed": {
    "repr": "04",
    "value": 4,
    "spoken": "four"
  },
  "wx_codes": [],
  "raw": "KAWO 252256Z AUTO 17004KT 10SM CLR 06/M06 A2978 RMK AO2 SLP090 T00561061",
  "sanitized": "KAWO 252256Z 17004KT 10SM 06/M06 A2978 RMK AO2 SLP090 T00561061",
  "station": "KAWO",
  "time": {
    "repr": "252256Z",
    "dt": "2023-02-25T22:56:00Z"
  },
  "remarks": "RMK AO2 SLP090 T00561061",
  "dewpoint": {
    "repr": "M06",
    "value": -6,
    "spoken": "minus six"
  },
  "relative_humidity": 0.42687278906321857,
  "remarks_info": {
    "maximum_temperature_6": null,
    "minimum_temperature_6": null,
    "pressure_tendency": null,
    "precip_36_hours": null,
    "precip_24_hours": null,
    "sunshine_minutes": null,
    "codes": [
      {
        "repr": "AO2",
        "value": "Automated with precipitation sensor"
      }
    ],
    "dewpoint_decimal": {
      "repr": "1061",
      "value": -6.1,
      "spoken": "minus six point one"
    },
    "maximum_temperature_24": null,
    "minimum_temperature_24": null,
    "precip_hourly": null,
    "sea_level_pressure": {
      "repr": "SLP090",
      "value": 1009,
      "spoken": "one zero zero nine point zero"
    },
    "snow_depth": null,
    "temperature_decimal": {
      "repr": "0056",
      "value": 5.6,
      "spoken": "five point six"
    }
  },
  "runway_visibility": [],
  "temperature": {
    "repr": "06",
    "value": 6,
    "spoken": "six"
  },
  "wind_variable_direction": [],
  "density_altitude": -812,
  "pressure_altitude": 282,
  "units": {
    "accumulation": "in",
    "altimeter": "inHg",
    "altitude": "ft",
    "temperature": "C",
    "visibility": "sm",
    "wind_speed": "kt"
  }
}
