{
  "meta": {
    "timestamp": "2023-05-16T00:27:20.457273Z",
    "stations_updated": "2023-03-11"
  },
  "altimeter": {
    "repr": "A2992",
    "value": 29.92,
    "spoken": "two nine point nine two"
  },
  "clouds": [],
  "flight_rules": "VFR",
  "other": [],
  "visibility": {
    "repr": "10",
    "value": 10,
    "spoken": "one zero"
  },
  "wind_direction": {
    "repr": "270",
    "value": 270,
    "spoken": "two seven zero"
  },
  "wind_gust": null,
  "wind_speed": {
    "repr": "03",
    "value": 3,
    "spoken": "three"
  },
  "wx_codes": [],
  "raw": "KAWO 152356Z AUTO 27003KT 10SM CLR 29/15 A2992 RMK AO2 SLP134 T02890150 10306 20261 58010",
  "sanitized": "KAWO 152356Z 27003KT 10SM 29/15 A2992 RMK AO2 SLP134 T02890150 10306 20261 58010",
  "station": "KAWO",
  "time": {
    "repr": "152356Z",
    "dt": "2023-05-15T23:56:00Z"
  },
  "remarks": "RMK AO2 SLP134 T02890150 10306 20261 58010",
  "dewpoint": {
    "repr": "15",
    "value": 15,
    "spoken": "one five"
  },
  "relative_humidity": 0.42769620986989515,
  "remarks_info": {
    "maximum_temperature_6": {
      "repr": "10306",
      "value": 30.6,
      "spoken": "three zero point six"
    },
    "minimum_temperature_6": {
      "repr": "20261",
      "value": 26.1,
      "spoken": "two six point one"
    },
    "pressure_tendency": {
      "repr": "58010",
      "tendency": "Steady or increasing, then decreasing",
      "change": 1
    },
    "precip_36_hours": null,
    "precip_24_hours": null,
    "sunshine_minutes": null,
    "codes": [
      {
        "repr": "AO2",
        "value": "Automated with precipitation sensor"
      }
    ],
    "dewpoint_decimal": {
      "repr": "0150",
      "value": 15,
      "spoken": "one five point zero"
    },
    "maximum_temperature_24": null,
    "minimum_temperature_24": null,
    "precip_hourly": null,
    "sea_level_pressure": {
      "repr": "SLP134",
      "value": 1013.4,
      "spoken": "one zero one three point four"
    },
    "snow_depth": null,
    "temperature_decimal": {
      "repr": "0289",
      "value": 28.9,
      "spoken": "two eight point nine"
    }
  },
  "runway_visibility": [],
  "temperature": {
    "repr": "29",
    "value": 29,
    "spoken": "two nine"
  },
  "wind_variable_direction": [],
  "density_altitude": 1844,
  "pressure_altitude": 142,
  "units": {
    "accumulation": "in",
    "altimeter": "inHg",
    "altitude": "ft",
    "temperature": "C",
    "visibility": "sm",
    "wind_speed": "kt"
  }
}
