{
  "meta": {
    "timestamp": "2023-09-18T18:40:40.562656Z",
    "stations_updated": "2023-08-05",
    "cache-timestamp": "2023-09-18T18:40:05.964000Z"
  },
  "altimeter": {
    "repr": "A3009",
    "value": 30.09,
    "spoken": "three zero point zero nine"
  },
  "clouds": [
    {
      "repr": "FEW044",
      "type": "FEW",
      "altitude": 44,
      "modifier": null
    },
    {
      "repr": "SCT075",
      "type": "SCT",
      "altitude": 75,
      "modifier": null
    }
  ],
  "flight_rules": "VFR",
  "other": [],
  "visibility": {
    "repr": "10",
    "value": 10,
    "spoken": "one zero"
  },
  "wind_direction": {
    "repr": "VRB",
    "value": null,
    "spoken": "variable"
  },
  "wind_gust": null,
  "wind_speed": {
    "repr": "03",
    "value": 3,
    "spoken": "three"
  },
  "wx_codes": [],
  "raw": "KAWO 181756Z AUTO VRB03KT 10SM FEW044 SCT075 16/08 A3009 RMK AO2 SLP195 T01560083 10161 20133 50008",
  "sanitized": "KAWO 181756Z VRB03KT 10SM FEW044 SCT075 16/08 A3009 RMK AO2 SLP195 T01560083 10161 20133 50008",
  "station": "KAWO",
  "time": {
    "repr": "181756Z",
    "dt": "2023-09-18T17:56:00Z"
  },
  "remarks": "RMK AO2 SLP195 T01560083 10161 20133 50008",
  "dewpoint": {
    "repr": "08",
    "value": 8,
    "spoken": "eight"
  },
  "relative_humidity": 0.6178977345097963,
  "remarks_info": {
    "maximum_temperature_6": {
      "repr": "10161",
      "value": 16.1,
      "spoken": "one six point one"
    },
    "minimum_temperature_6": {
      "repr": "20133",
      "value": 13.3,
      "spoken": "one three point three"
    },
    "pressure_tendency": {
      "repr": "50008",
      "tendency": "Increasing, then decreasing",
      "change": 0.8
    },
    "precip_36_hours": null,
    "precip_24_hours": null,
    "sunshine_minutes": null,
    "codes": [
      {
        "repr": "AO2",
        "value": "Automated with precipitation sensor"
      }
    ],
    "dewpoint_decimal": {
      "repr": "0083",
      "value": 8.3,
      "spoken": "eight point three"
    },
    "maximum_temperature_24": null,
    "minimum_temperature_24": null,
    "precip_hourly": null,
    "sea_level_pressure": {
      "repr": "SLP195",
      "value": 1019.5,
      "spoken": "one zero one nine point five"
    },
    "snow_depth": null,
    "temperature_decimal": {
      "repr": "0156",
      "value": 15.6,
      "spoken": "one five point six"
    }
  },
  "runway_visibility": [],
  "temperature": {
    "repr": "16",
    "value": 16,
    "spoken": "one six"
  },
  "wind_variable_direction": [],
  "density_altitude": 78,
  "pressure_altitude": -28,
  "units": {
    "accumulation": "in",
    "altimeter": "inHg",
    "altitude": "ft",
    "temperature": "C",
    "visibility": "sm",
    "wind_speed": "kt"
  }
}
