{
  "meta": {
    "timestamp": "2023-10-02T08:07:30.424782Z",
    "stations_updated": "2023-08-05"
  },
  "altimeter": {
    "repr": "A3009",
    "value": 30.09,
    "spoken": "three zero point zero nine"
  },
  "clouds": [
    {
      "repr": "OVC070",
      "type": "OVC",
      "altitude": 70,
      "modifier": null
    }
  ],
  "flight_rules": "VFR",
  "other": [],
  "visibility": {
    "repr": "10",
    "value": 10,
    "spoken": "one zero"
  },
  "wind_direction": {
    "repr": "000",
    "value": 0,
    "spoken": "zero zero zero"
  },
  "wind_gust": null,
  "wind_speed": {
    "repr": "00",
    "value": 0,
    "spoken": "zero"
  },
  "wx_codes": [],
  "raw": "KAWO 020756Z AUTO 00000KT 10SM OVC070 09/08 A3009 RMK AO2 SLP192 T00940083 401830017",
  "sanitized": "KAWO 020756Z 00000KT 10SM OVC070 09/08 A3009 RMK AO2 SLP192 T00940083 401830017",
  "station": "KAWO",
  "time": {
    "repr": "020756Z",
    "dt": "2023-10-02T07:56:00Z"
  },
  "remarks": "RMK AO2 SLP192 T00940083 401830017",
  "dewpoint": {
    "repr": "08",
    "value": 8,
    "spoken": "eight"
  },
  "relative_humidity": 0.9283717155883899,
  "remarks_info": {
    "maximum_temperature_6": null,
    "minimum_temperature_6": null,
    "pressure_tendency": null,
    "precip_36_hours": null,
    "precip_24_hours": null,
    "sunshine_minutes": null,
    "codes": [
      {
        "repr": "AO2",
        "value": "Automated with precipitation sensor"
      }
    ],
    "dewpoint_decimal": {
      "repr": "0083",
      "value": 8.3,
      "spoken": "eight point three"
    },
    "maximum_temperature_24": {
      "repr": "0183",
      "value": 18.3,
      "spoken": "one eight point three"
    },
    "minimum_temperature_24": {
      "repr": "0017",
      "value": 1.7,
      "spoken": "one point seven"
    },
    "precip_hourly": null,
    "sea_level_pressure": {
      "repr": "SLP192",
      "value": 1019.2,
      "spoken": "one zero one nine point two"
    },
    "snow_depth": null,
    "temperature_decimal": {
      "repr": "0094",
      "value": 9.4,
      "spoken": "nine point four"
    }
  },
  "runway_visibility": [],
  "temperature": {
    "repr": "09",
    "value": 9,
    "spoken": "nine"
  },
  "wind_variable_direction": [],
  "density_altitude": -666,
  "pressure_altitude": -28,
  "units": {
    "accumulation": "in",
    "altimeter": "inHg",
    "altitude": "ft",
    "temperature": "C",
    "visibility": "sm",
    "wind_speed": "kt"
  }
}
