{
  "altimeter": {
    "repr": "A3029",
    "spoken": "three zero point two nine",
    "value": 30.29
  },
  "clouds": [
    {
      "altitude": 48,
      "modifier": null,
      "repr": "SCT048",
      "type": "SCT"
    },
    {
      "altitude": 120,
      "modifier": null,
      "repr": "OVC120",
      "type": "OVC"
    }
  ],
  "density_altitude": -1790,
  "dewpoint": {
    "repr": "01",
    "spoken": "one",
    "value": 1
  },
  "flight_rules": "VFR",
  "meta": {
    "stations_updated": "2024-10-29",
    "timestamp": "2024-11-30T05:07:05.543291Z"
  },
  "other": [],
  "pressure_altitude": -228,
  "raw": "KAWO 300456Z AUTO 00000KT 10SM SCT048 OVC120 02/01 A3029 RMK AO2 SLP264 T00170006 FZRANO",
  "relative_humidity": 0.9239704971399328,
  "remarks": "RMK AO2 SLP264 T00170006 FZRANO",
  "remarks_info": {
    "codes": [
      {
        "repr": "AO2",
        "value": "Automated with precipitation sensor"
      },
      {
        "repr": "FZRANO",
        "value": "Freezing rain information not available"
      }
    ],
    "dewpoint_decimal": {
      "repr": "0006",
      "spoken": "zero point six",
      "value": 0.6
    },
    "maximum_temperature_24": null,
    "maximum_temperature_6": null,
    "minimum_temperature_24": null,
    "minimum_temperature_6": null,
    "precip_24_hours": null,
    "precip_36_hours": null,
    "precip_hourly": null,
    "pressure_tendency": null,
    "sea_level_pressure": {
      "repr": "SLP264",
      "spoken": "one zero two six point four",
      "value": 1026.4
    },
    "snow_depth": null,
    "sunshine_minutes": null,
    "temperature_decimal": {
      "repr": "0017",
      "spoken": "one point seven",
      "value": 1.7
    }
  },
  "runway_visibility": [],
  "sanitized": "KAWO 300456Z 00000KT 10SM SCT048 OVC120 02/01 A3029 RMK AO2 SLP264 T00170006 FZRANO",
  "station": "KAWO",
  "temperature": {
    "repr": "02",
    "spoken": "two",
    "value": 2
  },
  "time": {
    "dt": "2024-11-30T04:56:00Z",
    "repr": "300456Z"
  },
  "units": {
    "accumulation": "in",
    "altimeter": "inHg",
    "altitude": "ft",
    "temperature": "C",
    "visibility": "sm",
    "wind_speed": "kt"
  },
  "visibility": {
    "repr": "10",
    "spoken": "one zero",
    "value": 10
  },
  "wind_direction": {
    "repr": "000",
    "spoken": "zero zero zero",
    "value": 0
  },
  "wind_gust": null,
  "wind_speed": {
    "repr": "00",
    "spoken": "zero",
    "value": 0
  },
  "wind_variable_direction": [],
  "wx_codes": []
}
