{
  "altimeter": {
    "repr": "A3019",
    "spoken": "three zero point one nine",
    "value": 30.19
  },
  "clouds": [],
  "density_altitude": -3490,
  "dewpoint": {
    "repr": "M16",
    "spoken": "minus one six",
    "value": -16
  },
  "flight_rules": "VFR",
  "meta": {
    "stations_updated": "2023-10-28",
    "timestamp": "2024-01-13T12:39:55.268109Z"
  },
  "other": [],
  "pressure_altitude": -128,
  "raw": "KAWO 131156Z AUTO 31004KT 10SM CLR M13/M16 A3019 RMK AO2 SLP231 T11331161 11117 21133 58022 FZRANO",
  "relative_humidity": 0.7944199936818651,
  "remarks": "RMK AO2 SLP231 T11331161 11117 21133 58022 FZRANO",
  "remarks_info": {
    "codes": [
      {
        "repr": "AO2",
        "value": "Automated with precipitation sensor"
      },
      {
        "repr": "FZRANO",
        "value": "Freezing rain information not available"
      }
    ],
    "dewpoint_decimal": {
      "repr": "1161",
      "spoken": "minus one six point one",
      "value": -16.1
    },
    "maximum_temperature_24": null,
    "maximum_temperature_6": {
      "repr": "11117",
      "spoken": "minus one one point seven",
      "value": -11.7
    },
    "minimum_temperature_24": null,
    "minimum_temperature_6": {
      "repr": "21133",
      "spoken": "minus one three point three",
      "value": -13.3
    },
    "precip_24_hours": null,
    "precip_36_hours": null,
    "precip_hourly": null,
    "pressure_tendency": {
      "change": 2.2,
      "repr": "58022",
      "tendency": "Steady or increasing, then decreasing"
    },
    "sea_level_pressure": {
      "repr": "SLP231",
      "spoken": "one zero two three point one",
      "value": 1023.1
    },
    "snow_depth": null,
    "sunshine_minutes": null,
    "temperature_decimal": {
      "repr": "1133",
      "spoken": "minus one three point three",
      "value": -13.3
    }
  },
  "runway_visibility": [],
  "sanitized": "KAWO 131156Z 31004KT 10SM M13/M16 A3019 RMK AO2 SLP231 T11331161 11117 21133 58022 FZRANO",
  "station": "KAWO",
  "temperature": {
    "repr": "M13",
    "spoken": "minus one three",
    "value": -13
  },
  "time": {
    "dt": "2024-01-13T11:56:00Z",
    "repr": "131156Z"
  },
  "units": {
    "accumulation": "in",
    "altimeter": "inHg",
    "altitude": "ft",
    "temperature": "C",
    "visibility": "sm",
    "wind_speed": "kt"
  },
  "visibility": {
    "repr": "10",
    "spoken": "one zero",
    "value": 10
  },
  "wind_direction": {
    "repr": "310",
    "spoken": "three one zero",
    "value": 310
  },
  "wind_gust": null,
  "wind_speed": {
    "repr": "04",
    "spoken": "four",
    "value": 4
  },
  "wind_variable_direction": [],
  "wx_codes": []
}
