{
  "altimeter": {
    "repr": "A3004",
    "spoken": "three zero point zero four",
    "value": 30.04
  },
  "clouds": [],
  "density_altitude": -1612,
  "dewpoint": {
    "repr": "00",
    "spoken": "zero",
    "value": 0
  },
  "flight_rules": "VFR",
  "meta": {
    "stations_updated": "2024-12-02",
    "timestamp": "2025-01-02T05:30:23.533953Z"
  },
  "other": [],
  "pressure_altitude": 22,
  "raw": "KAWO 020456Z AUTO 04003KT 10SM CLR 01/00 A3004 RMK AO2 SLP179 T00110000 FZRANO",
  "relative_humidity": 0.9236108706295763,
  "remarks": "RMK AO2 SLP179 T00110000 FZRANO",
  "remarks_info": {
    "codes": [
      {
        "repr": "AO2",
        "value": "Automated with precipitation sensor"
      },
      {
        "repr": "FZRANO",
        "value": "Freezing rain information not available"
      }
    ],
    "dewpoint_decimal": {
      "repr": "0000",
      "spoken": "zero",
      "value": 0
    },
    "maximum_temperature_24": null,
    "maximum_temperature_6": null,
    "minimum_temperature_24": null,
    "minimum_temperature_6": null,
    "precip_24_hours": null,
    "precip_36_hours": null,
    "precip_hourly": null,
    "pressure_tendency": null,
    "sea_level_pressure": {
      "repr": "SLP179",
      "spoken": "one zero one seven point nine",
      "value": 1017.9
    },
    "snow_depth": null,
    "sunshine_minutes": null,
    "temperature_decimal": {
      "repr": "0011",
      "spoken": "one point one",
      "value": 1.1
    }
  },
  "runway_visibility": [],
  "sanitized": "KAWO 020456Z 04003KT 10SM 01/00 A3004 RMK AO2 SLP179 T00110000 FZRANO",
  "station": "KAWO",
  "temperature": {
    "repr": "01",
    "spoken": "one",
    "value": 1
  },
  "time": {
    "dt": "2025-01-02T04:56:00Z",
    "repr": "020456Z"
  },
  "units": {
    "accumulation": "in",
    "altimeter": "inHg",
    "altitude": "ft",
    "temperature": "C",
    "visibility": "sm",
    "wind_speed": "kt"
  },
  "visibility": {
    "repr": "10",
    "spoken": "one zero",
    "value": 10
  },
  "wind_direction": {
    "repr": "040",
    "spoken": "zero four zero",
    "value": 40
  },
  "wind_gust": null,
  "wind_speed": {
    "repr": "03",
    "spoken": "three",
    "value": 3
  },
  "wind_variable_direction": [],
  "wx_codes": []
}
