{
  "altimeter": {
    "repr": "A3010",
    "spoken": "three zero point one zero",
    "value": 30.1
  },
  "clouds": [],
  "density_altitude": -136,
  "dewpoint": {
    "repr": "12",
    "spoken": "one two",
    "value": 12
  },
  "flight_rules": "VFR",
  "meta": {
    "stations_updated": "2024-06-12",
    "timestamp": "2024-08-15T07:06:36.053295Z"
  },
  "other": [],
  "pressure_altitude": -38,
  "raw": "KAWO 150656Z AUTO 33003KT 10SM CLR 14/12 A3010 RMK AO2 SLP198 T01390122 402500139",
  "relative_humidity": 0.8948192427937025,
  "remarks": "RMK AO2 SLP198 T01390122 402500139",
  "remarks_info": {
    "codes": [
      {
        "repr": "AO2",
        "value": "Automated with precipitation sensor"
      }
    ],
    "dewpoint_decimal": {
      "repr": "0122",
      "spoken": "one two point two",
      "value": 12.2
    },
    "maximum_temperature_24": {
      "repr": "0250",
      "spoken": "two five point zero",
      "value": 25
    },
    "maximum_temperature_6": null,
    "minimum_temperature_24": {
      "repr": "0139",
      "spoken": "one three point nine",
      "value": 13.9
    },
    "minimum_temperature_6": null,
    "precip_24_hours": null,
    "precip_36_hours": null,
    "precip_hourly": null,
    "pressure_tendency": null,
    "sea_level_pressure": {
      "repr": "SLP198",
      "spoken": "one zero one nine point eight",
      "value": 1019.8
    },
    "snow_depth": null,
    "sunshine_minutes": null,
    "temperature_decimal": {
      "repr": "0139",
      "spoken": "one three point nine",
      "value": 13.9
    }
  },
  "runway_visibility": [],
  "sanitized": "KAWO 150656Z 33003KT 10SM 14/12 A3010 RMK AO2 SLP198 T01390122 402500139",
  "station": "KAWO",
  "temperature": {
    "repr": "14",
    "spoken": "one four",
    "value": 14
  },
  "time": {
    "dt": "2024-08-15T06:56:00Z",
    "repr": "150656Z"
  },
  "units": {
    "accumulation": "in",
    "altimeter": "inHg",
    "altitude": "ft",
    "temperature": "C",
    "visibility": "sm",
    "wind_speed": "kt"
  },
  "visibility": {
    "repr": "10",
    "spoken": "one zero",
    "value": 10
  },
  "wind_direction": {
    "repr": "330",
    "spoken": "three three zero",
    "value": 330
  },
  "wind_gust": null,
  "wind_speed": {
    "repr": "03",
    "spoken": "three",
    "value": 3
  },
  "wind_variable_direction": [],
  "wx_codes": []
}
