{
  "meta": {
    "timestamp": "2022-09-01T11:42:09.296256Z",
    "stations_updated": "2022-07-17"
  },
  "altimeter": {
    "repr": "A3002",
    "value": 30.02,
    "spoken": "three zero point zero two"
  },
  "clouds": [],
  "flight_rules": "VFR",
  "other": [],
  "visibility": {
    "repr": "10",
    "value": 10,
    "spoken": "one zero"
  },
  "wind_direction": {
    "repr": "150",
    "value": 150,
    "spoken": "one five zero"
  },
  "wind_gust": null,
  "wind_speed": {
    "repr": "03",
    "value": 3,
    "spoken": "three"
  },
  "wx_codes": [],
  "raw": "KAWO 011056Z AUTO 15003KT 10SM CLR 15/14 A3002 RMK AO2 SLP169 T01500139",
  "sanitized": "KAWO 011056Z 15003KT 10SM 15/14 A3002 RMK AO2 SLP169 T01500139",
  "station": "KAWO",
  "time": {
    "repr": "011056Z",
    "dt": "2022-09-01T10:56:00Z"
  },
  "remarks": "RMK AO2 SLP169 T01500139",
  "dewpoint": {
    "repr": "14",
    "value": 14,
    "spoken": "one four"
  },
  "relative_humidity": 0.9313398487265037,
  "remarks_info": {
    "maximum_temperature_6": null,
    "minimum_temperature_6": null,
    "pressure_tendency": null,
    "precip_36_hours": null,
    "precip_24_hours": null,
    "sunshine_minutes": null,
    "codes": [
      {
        "repr": "AO2",
        "value": "Automated with precipitation sensor"
      }
    ],
    "dewpoint_decimal": {
      "repr": "0139",
      "value": 13.9,
      "spoken": "one three point nine"
    },
    "maximum_temperature_24": null,
    "minimum_temperature_24": null,
    "precip_hourly": null,
    "sea_level_pressure": {
      "repr": "SLP169",
      "value": 1016.9,
      "spoken": "one zero one six point nine"
    },
    "snow_depth": null,
    "temperature_decimal": {
      "repr": "0150",
      "value": 15,
      "spoken": "one five point zero"
    }
  },
  "runway_visibility": [],
  "temperature": {
    "repr": "15",
    "value": 15,
    "spoken": "one five"
  },
  "wind_variable_direction": [],
  "density_altitude": 76,
  "pressure_altitude": 42,
  "units": {
    "accumulation": "in",
    "altimeter": "inHg",
    "altitude": "ft",
    "temperature": "C",
    "visibility": "sm",
    "wind_speed": "kt"
  }
}
