{
  "altimeter": {
    "repr": "A3044",
    "spoken": "three zero point four four",
    "value": 30.44
  },
  "clouds": [
    {
      "altitude": 32,
      "modifier": null,
      "repr": "OVC032",
      "type": "OVC"
    }
  ],
  "density_altitude": -2012,
  "dewpoint": {
    "repr": "00",
    "spoken": "zero",
    "value": 0
  },
  "flight_rules": "VFR",
  "meta": {
    "stations_updated": "2024-12-02",
    "timestamp": "2025-01-24T08:10:20.659097Z"
  },
  "other": [],
  "pressure_altitude": -378,
  "raw": "KAWO 240756Z AUTO 36004KT 10SM OVC032 01/00 A3044 RMK AO2 SLP315 T00110000 FZRANO",
  "relative_humidity": 0.9236108706295763,
  "remarks": "RMK AO2 SLP315 T00110000 FZRANO",
  "remarks_info": {
    "codes": [
      {
        "repr": "AO2",
        "value": "Automated with precipitation sensor"
      },
      {
        "repr": "FZRANO",
        "value": "Freezing rain information not available"
      }
    ],
    "dewpoint_decimal": {
      "repr": "0000",
      "spoken": "zero",
      "value": 0
    },
    "maximum_temperature_24": null,
    "maximum_temperature_6": null,
    "minimum_temperature_24": null,
    "minimum_temperature_6": null,
    "precip_24_hours": null,
    "precip_36_hours": null,
    "precip_hourly": null,
    "pressure_tendency": null,
    "sea_level_pressure": {
      "repr": "SLP315",
      "spoken": "one zero three one point five",
      "value": 1031.5
    },
    "snow_depth": null,
    "sunshine_minutes": null,
    "temperature_decimal": {
      "repr": "0011",
      "spoken": "one point one",
      "value": 1.1
    }
  },
  "runway_visibility": [],
  "sanitized": "KAWO 240756Z 36004KT 10SM OVC032 01/00 A3044 RMK AO2 SLP315 T00110000 FZRANO",
  "station": "KAWO",
  "temperature": {
    "repr": "01",
    "spoken": "one",
    "value": 1
  },
  "time": {
    "dt": "2025-01-24T07:56:00Z",
    "repr": "240756Z"
  },
  "units": {
    "accumulation": "in",
    "altimeter": "inHg",
    "altitude": "ft",
    "temperature": "C",
    "visibility": "sm",
    "wind_speed": "kt"
  },
  "visibility": {
    "repr": "10",
    "spoken": "one zero",
    "value": 10
  },
  "wind_direction": {
    "repr": "360",
    "spoken": "three six zero",
    "value": 360
  },
  "wind_gust": null,
  "wind_speed": {
    "repr": "04",
    "spoken": "four",
    "value": 4
  },
  "wind_variable_direction": [],
  "wx_codes": []
}
