{
  "altimeter": {
    "repr": "A2987",
    "spoken": "two nine point eight seven",
    "value": 29.87
  },
  "clouds": [
    {
      "altitude": 100,
      "modifier": null,
      "repr": "SCT100",
      "type": "SCT"
    },
    {
      "altitude": 120,
      "modifier": null,
      "repr": "BKN120",
      "type": "BKN"
    }
  ],
  "density_altitude": 226,
  "dewpoint": {
    "repr": "12",
    "spoken": "one two",
    "value": 12
  },
  "flight_rules": "VFR",
  "meta": {
    "stations_updated": "2024-06-12",
    "timestamp": "2024-10-08T09:29:28.488645Z"
  },
  "other": [],
  "pressure_altitude": 192,
  "raw": "KAWO 080856Z AUTO 18003KT 10SM SCT100 BKN120 15/12 A2987 RMK AO2 SLP119 T01500117 53003",
  "relative_humidity": 0.8063537863323292,
  "remarks": "RMK AO2 SLP119 T01500117 53003",
  "remarks_info": {
    "codes": [
      {
        "repr": "AO2",
        "value": "Automated with precipitation sensor"
      }
    ],
    "dewpoint_decimal": {
      "repr": "0117",
      "spoken": "one one point seven",
      "value": 11.7
    },
    "maximum_temperature_24": null,
    "maximum_temperature_6": null,
    "minimum_temperature_24": null,
    "minimum_temperature_6": null,
    "precip_24_hours": null,
    "precip_36_hours": null,
    "precip_hourly": null,
    "pressure_tendency": {
      "change": 0.3,
      "repr": "53003",
      "tendency": "Decreasing or steady, then increasing"
    },
    "sea_level_pressure": {
      "repr": "SLP119",
      "spoken": "one zero one one point nine",
      "value": 1011.9
    },
    "snow_depth": null,
    "sunshine_minutes": null,
    "temperature_decimal": {
      "repr": "0150",
      "spoken": "one five point zero",
      "value": 15
    }
  },
  "runway_visibility": [],
  "sanitized": "KAWO 080856Z 18003KT 10SM SCT100 BKN120 15/12 A2987 RMK AO2 SLP119 T01500117 53003",
  "station": "KAWO",
  "temperature": {
    "repr": "15",
    "spoken": "one five",
    "value": 15
  },
  "time": {
    "dt": "2024-10-08T08:56:00Z",
    "repr": "080856Z"
  },
  "units": {
    "accumulation": "in",
    "altimeter": "inHg",
    "altitude": "ft",
    "temperature": "C",
    "visibility": "sm",
    "wind_speed": "kt"
  },
  "visibility": {
    "repr": "10",
    "spoken": "one zero",
    "value": 10
  },
  "wind_direction": {
    "repr": "180",
    "spoken": "one eight zero",
    "value": 180
  },
  "wind_gust": null,
  "wind_speed": {
    "repr": "03",
    "spoken": "three",
    "value": 3
  },
  "wind_variable_direction": [],
  "wx_codes": []
}
