{
  "altimeter": {
    "repr": "A2980",
    "spoken": "two nine point eight zero",
    "value": 29.8
  },
  "clouds": [
    {
      "altitude": 12,
      "modifier": null,
      "repr": "FEW012",
      "type": "FEW"
    },
    {
      "altitude": 29,
      "modifier": null,
      "repr": "BKN029",
      "type": "BKN"
    },
    {
      "altitude": 44,
      "modifier": null,
      "repr": "OVC044",
      "type": "OVC"
    }
  ],
  "density_altitude": -640,
  "dewpoint": {
    "repr": "04",
    "spoken": "four",
    "value": 4
  },
  "flight_rules": "MVFR",
  "meta": {
    "cache-timestamp": "2024-04-05T18:40:05.136000Z",
    "stations_updated": "2024-01-01",
    "timestamp": "2024-04-05T18:40:32.700945Z"
  },
  "other": [],
  "pressure_altitude": 262,
  "raw": "KAWO 051756Z AUTO 00000KT 10SM FEW012 BKN029 OVC044 07/04 A2980 RMK AO2 SLP097 60000 T00720044 10072 20050 53007",
  "relative_humidity": 0.8237826093197136,
  "remarks": "RMK AO2 SLP097 60000 T00720044 10072 20050 53007",
  "remarks_info": {
    "codes": [
      {
        "repr": "AO2",
        "value": "Automated with precipitation sensor"
      }
    ],
    "dewpoint_decimal": {
      "repr": "0044",
      "spoken": "four point four",
      "value": 4.4
    },
    "maximum_temperature_24": null,
    "maximum_temperature_6": {
      "repr": "10072",
      "spoken": "seven point two",
      "value": 7.2
    },
    "minimum_temperature_24": null,
    "minimum_temperature_6": {
      "repr": "20050",
      "spoken": "five point zero",
      "value": 5
    },
    "precip_24_hours": null,
    "precip_36_hours": {
      "repr": "60000",
      "spoken": "zero",
      "value": 0
    },
    "precip_hourly": null,
    "pressure_tendency": {
      "change": 0.7,
      "repr": "53007",
      "tendency": "Decreasing or steady, then increasing"
    },
    "sea_level_pressure": {
      "repr": "SLP097",
      "spoken": "one zero zero nine point seven",
      "value": 1009.7
    },
    "snow_depth": null,
    "sunshine_minutes": null,
    "temperature_decimal": {
      "repr": "0072",
      "spoken": "seven point two",
      "value": 7.2
    }
  },
  "runway_visibility": [],
  "sanitized": "KAWO 051756Z 00000KT 10SM FEW012 BKN029 OVC044 07/04 A2980 RMK AO2 SLP097 60000 T00720044 10072 20050 53007",
  "station": "KAWO",
  "temperature": {
    "repr": "07",
    "spoken": "seven",
    "value": 7
  },
  "time": {
    "dt": "2024-04-05T17:56:00Z",
    "repr": "051756Z"
  },
  "units": {
    "accumulation": "in",
    "altimeter": "inHg",
    "altitude": "ft",
    "temperature": "C",
    "visibility": "sm",
    "wind_speed": "kt"
  },
  "visibility": {
    "repr": "10",
    "spoken": "one zero",
    "value": 10
  },
  "wind_direction": {
    "repr": "000",
    "spoken": "zero zero zero",
    "value": 0
  },
  "wind_gust": null,
  "wind_speed": {
    "repr": "00",
    "spoken": "zero",
    "value": 0
  },
  "wind_variable_direction": [],
  "wx_codes": []
}
