{
  "altimeter": {
    "repr": "A3035",
    "spoken": "three zero point three five",
    "value": 30.35
  },
  "clouds": [
    {
      "altitude": 37,
      "modifier": null,
      "repr": "FEW037",
      "type": "FEW"
    }
  ],
  "density_altitude": -458,
  "dewpoint": {
    "repr": "06",
    "spoken": "six",
    "value": 6
  },
  "flight_rules": "VFR",
  "meta": {
    "cache-timestamp": "2024-02-22T21:20:05.775000Z",
    "stations_updated": "2024-01-01",
    "timestamp": "2024-02-22T21:20:51.736519Z"
  },
  "other": [],
  "pressure_altitude": -288,
  "raw": "KAWO 222056Z AUTO 19008KT 10SM FEW037 13/06 A3035 RMK AO2 SLP281 T01330056 51001",
  "relative_humidity": 0.5957621241420324,
  "remarks": "RMK AO2 SLP281 T01330056 51001",
  "remarks_info": {
    "codes": [
      {
        "repr": "AO2",
        "value": "Automated with precipitation sensor"
      }
    ],
    "dewpoint_decimal": {
      "repr": "0056",
      "spoken": "five point six",
      "value": 5.6
    },
    "maximum_temperature_24": null,
    "maximum_temperature_6": null,
    "minimum_temperature_24": null,
    "minimum_temperature_6": null,
    "precip_24_hours": null,
    "precip_36_hours": null,
    "precip_hourly": null,
    "pressure_tendency": {
      "change": 0.1,
      "repr": "51001",
      "tendency": "Increasing, then steady"
    },
    "sea_level_pressure": {
      "repr": "SLP281",
      "spoken": "one zero two eight point one",
      "value": 1028.1
    },
    "snow_depth": null,
    "sunshine_minutes": null,
    "temperature_decimal": {
      "repr": "0133",
      "spoken": "one three point three",
      "value": 13.3
    }
  },
  "runway_visibility": [],
  "sanitized": "KAWO 222056Z 19008KT 10SM FEW037 13/06 A3035 RMK AO2 SLP281 T01330056 51001",
  "station": "KAWO",
  "temperature": {
    "repr": "13",
    "spoken": "one three",
    "value": 13
  },
  "time": {
    "dt": "2024-02-22T20:56:00Z",
    "repr": "222056Z"
  },
  "units": {
    "accumulation": "in",
    "altimeter": "inHg",
    "altitude": "ft",
    "temperature": "C",
    "visibility": "sm",
    "wind_speed": "kt"
  },
  "visibility": {
    "repr": "10",
    "spoken": "one zero",
    "value": 10
  },
  "wind_direction": {
    "repr": "190",
    "spoken": "one nine zero",
    "value": 190
  },
  "wind_gust": null,
  "wind_speed": {
    "repr": "08",
    "spoken": "eight",
    "value": 8
  },
  "wind_variable_direction": [],
  "wx_codes": []
}
