{
  "altimeter": {
    "repr": "A2995",
    "spoken": "two nine point nine five",
    "value": 29.95
  },
  "clouds": [
    {
      "altitude": 31,
      "modifier": null,
      "repr": "FEW031",
      "type": "FEW"
    },
    {
      "altitude": 90,
      "modifier": null,
      "repr": "SCT090",
      "type": "SCT"
    }
  ],
  "density_altitude": -250,
  "dewpoint": {
    "repr": "06",
    "spoken": "six",
    "value": 6
  },
  "flight_rules": "VFR",
  "meta": {
    "stations_updated": "2024-10-29",
    "timestamp": "2024-11-04T23:28:24.291686Z"
  },
  "other": [],
  "pressure_altitude": 112,
  "raw": "KAWO 042256Z AUTO 27016G33KT 10SM FEW031 SCT090 12/06 A2995 RMK AO2 PK WND 29035/2220 SLP147 P0006 T01170056",
  "relative_humidity": 0.661749798501857,
  "remarks": "RMK AO2 PK WND 29035/2220 SLP147 P0006 T01170056",
  "remarks_info": {
    "codes": [
      {
        "repr": "AO2",
        "value": "Automated with precipitation sensor"
      }
    ],
    "dewpoint_decimal": {
      "repr": "0056",
      "spoken": "five point six",
      "value": 5.6
    },
    "maximum_temperature_24": null,
    "maximum_temperature_6": null,
    "minimum_temperature_24": null,
    "minimum_temperature_6": null,
    "precip_24_hours": null,
    "precip_36_hours": null,
    "precip_hourly": {
      "repr": "P0006",
      "spoken": "zero point zero six",
      "value": 0.06
    },
    "pressure_tendency": null,
    "sea_level_pressure": {
      "repr": "SLP147",
      "spoken": "one zero one four point seven",
      "value": 1014.7
    },
    "snow_depth": null,
    "sunshine_minutes": null,
    "temperature_decimal": {
      "repr": "0117",
      "spoken": "one one point seven",
      "value": 11.7
    }
  },
  "runway_visibility": [],
  "sanitized": "KAWO 042256Z 27016G33KT 10SM FEW031 SCT090 12/06 A2995 RMK AO2 PK WND 29035/2220 SLP147 P0006 T01170056",
  "station": "KAWO",
  "temperature": {
    "repr": "12",
    "spoken": "one two",
    "value": 12
  },
  "time": {
    "dt": "2024-11-04T22:56:00Z",
    "repr": "042256Z"
  },
  "units": {
    "accumulation": "in",
    "altimeter": "inHg",
    "altitude": "ft",
    "temperature": "C",
    "visibility": "sm",
    "wind_speed": "kt"
  },
  "visibility": {
    "repr": "10",
    "spoken": "one zero",
    "value": 10
  },
  "wind_direction": {
    "repr": "270",
    "spoken": "two seven zero",
    "value": 270
  },
  "wind_gust": {
    "repr": "33",
    "spoken": "three three",
    "value": 33
  },
  "wind_speed": {
    "repr": "16",
    "spoken": "one six",
    "value": 16
  },
  "wind_variable_direction": [],
  "wx_codes": []
}
