{
  "meta": {
    "timestamp": "2022-12-30T03:26:55.965180Z",
    "stations_updated": "2022-12-27",
    "cache-timestamp": "2022-12-30T03:26:06.381000Z"
  },
  "altimeter": {
    "repr": "A2958",
    "value": 29.58,
    "spoken": "two nine point five eight"
  },
  "clouds": [
    {
      "repr": "OVC024",
      "type": "OVC",
      "altitude": 24,
      "modifier": null
    }
  ],
  "flight_rules": "MVFR",
  "other": [],
  "visibility": {
    "repr": "10",
    "value": 10,
    "spoken": "one zero"
  },
  "wind_direction": {
    "repr": "090",
    "value": 90,
    "spoken": "zero nine zero"
  },
  "wind_gust": null,
  "wind_speed": {
    "repr": "06",
    "value": 6,
    "spoken": "six"
  },
  "wx_codes": [],
  "raw": "KAWO 300256Z AUTO 09006KT 10SM OVC024 08/04 A2958 RMK AO2 SLP021 T00780044 58013",
  "sanitized": "KAWO 300256Z 09006KT 10SM OVC024 08/04 A2958 RMK AO2 SLP021 T00780044 58013",
  "station": "KAWO",
  "time": {
    "repr": "300256Z",
    "dt": "2022-12-30T02:56:00Z"
  },
  "remarks": "RMK AO2 SLP021 T00780044 58013",
  "dewpoint": {
    "repr": "04",
    "value": 4,
    "spoken": "four"
  },
  "relative_humidity": 0.790708747439943,
  "remarks_info": {
    "maximum_temperature_6": null,
    "minimum_temperature_6": null,
    "pressure_tendency": {
      "repr": "58013",
      "tendency": "Steady or increasing, then decreasing",
      "change": 1.3
    },
    "precip_36_hours": null,
    "precip_24_hours": null,
    "sunshine_minutes": null,
    "codes": [
      {
        "repr": "AO2",
        "value": "Automated with precipitation sensor"
      }
    ],
    "dewpoint_decimal": {
      "repr": "0044",
      "value": 4.4,
      "spoken": "four point four"
    },
    "maximum_temperature_24": null,
    "minimum_temperature_24": null,
    "precip_hourly": null,
    "sea_level_pressure": {
      "repr": "SLP021",
      "value": 1002.1,
      "spoken": "one zero zero two point one"
    },
    "snow_depth": null,
    "temperature_decimal": {
      "repr": "0078",
      "value": 7.8,
      "spoken": "seven point eight"
    }
  },
  "runway_visibility": [],
  "temperature": {
    "repr": "08",
    "value": 8,
    "spoken": "eight"
  },
  "wind_variable_direction": [],
  "density_altitude": -348,
  "pressure_altitude": 482,
  "units": {
    "accumulation": "in",
    "altimeter": "inHg",
    "altitude": "ft",
    "temperature": "C",
    "visibility": "sm",
    "wind_speed": "kt"
  }
}
