{
  "altimeter": {
    "repr": "A3011",
    "spoken": "three zero point one one",
    "value": 30.11
  },
  "clouds": [
    {
      "altitude": 65,
      "modifier": null,
      "repr": "OVC065",
      "type": "OVC"
    }
  ],
  "density_altitude": -1286,
  "dewpoint": {
    "repr": "M01",
    "spoken": "minus one",
    "value": -1
  },
  "flight_rules": "VFR",
  "meta": {
    "cache-timestamp": "2024-02-27T20:02:30.826000Z",
    "stations_updated": "2024-01-01",
    "timestamp": "2024-02-27T20:02:53.889796Z"
  },
  "other": [],
  "pressure_altitude": -48,
  "raw": "KAWO 271956Z AUTO 17009KT 10SM OVC065 04/M01 A3011 RMK AO2 SLP200 T00441011",
  "relative_humidity": 0.6744807753288178,
  "remarks": "RMK AO2 SLP200 T00441011",
  "remarks_info": {
    "codes": [
      {
        "repr": "AO2",
        "value": "Automated with precipitation sensor"
      }
    ],
    "dewpoint_decimal": {
      "repr": "1011",
      "spoken": "minus one point one",
      "value": -1.1
    },
    "maximum_temperature_24": null,
    "maximum_temperature_6": null,
    "minimum_temperature_24": null,
    "minimum_temperature_6": null,
    "precip_24_hours": null,
    "precip_36_hours": null,
    "precip_hourly": null,
    "pressure_tendency": null,
    "sea_level_pressure": {
      "repr": "SLP200",
      "spoken": "one zero two zero point zero",
      "value": 1020
    },
    "snow_depth": null,
    "sunshine_minutes": null,
    "temperature_decimal": {
      "repr": "0044",
      "spoken": "four point four",
      "value": 4.4
    }
  },
  "runway_visibility": [],
  "sanitized": "KAWO 271956Z 17009KT 10SM OVC065 04/M01 A3011 RMK AO2 SLP200 T00441011",
  "station": "KAWO",
  "temperature": {
    "repr": "04",
    "spoken": "four",
    "value": 4
  },
  "time": {
    "dt": "2024-02-27T19:56:00Z",
    "repr": "271956Z"
  },
  "units": {
    "accumulation": "in",
    "altimeter": "inHg",
    "altitude": "ft",
    "temperature": "C",
    "visibility": "sm",
    "wind_speed": "kt"
  },
  "visibility": {
    "repr": "10",
    "spoken": "one zero",
    "value": 10
  },
  "wind_direction": {
    "repr": "170",
    "spoken": "one seven zero",
    "value": 170
  },
  "wind_gust": null,
  "wind_speed": {
    "repr": "09",
    "spoken": "nine",
    "value": 9
  },
  "wind_variable_direction": [],
  "wx_codes": []
}
