{
  "meta": {
    "timestamp": "2023-01-24T03:03:52.704494Z",
    "stations_updated": "2023-01-16"
  },
  "altimeter": {
    "repr": "A3053",
    "value": 30.53,
    "spoken": "three zero point five three"
  },
  "clouds": [
    {
      "repr": "OVC038",
      "type": "OVC",
      "altitude": 38,
      "modifier": null
    }
  ],
  "flight_rules": "VFR",
  "other": [],
  "visibility": {
    "repr": "10",
    "value": 10,
    "spoken": "one zero"
  },
  "wind_direction": {
    "repr": "310",
    "value": 310,
    "spoken": "three one zero"
  },
  "wind_gust": null,
  "wind_speed": {
    "repr": "03",
    "value": 3,
    "spoken": "three"
  },
  "wx_codes": [],
  "raw": "KAWO 240256Z AUTO 31003KT 10SM OVC038 02/01 A3053 RMK AO2 SLP343 T00220011 53005 FZRANO",
  "sanitized": "KAWO 240256Z 31003KT 10SM OVC038 02/01 A3053 RMK AO2 SLP343 T00220011 53005 FZRANO",
  "station": "KAWO",
  "time": {
    "repr": "240256Z",
    "dt": "2023-01-24T02:56:00Z"
  },
  "remarks": "RMK AO2 SLP343 T00220011 53005 FZRANO",
  "dewpoint": {
    "repr": "01",
    "value": 1,
    "spoken": "one"
  },
  "relative_humidity": 0.9242682769225287,
  "remarks_info": {
    "maximum_temperature_6": null,
    "minimum_temperature_6": null,
    "pressure_tendency": {
      "repr": "53005",
      "tendency": "Decreasing or steady, then increasing",
      "change": 0.5
    },
    "precip_36_hours": null,
    "precip_24_hours": null,
    "sunshine_minutes": null,
    "codes": [
      {
        "repr": "AO2",
        "value": "Automated with precipitation sensor"
      },
      {
        "repr": "FZRANO",
        "value": "Freezing rain information not available"
      }
    ],
    "dewpoint_decimal": {
      "repr": "0011",
      "value": 1.1,
      "spoken": "one point one"
    },
    "maximum_temperature_24": null,
    "minimum_temperature_24": null,
    "precip_hourly": null,
    "sea_level_pressure": {
      "repr": "SLP343",
      "value": 1034.3,
      "spoken": "one zero three four point three"
    },
    "snow_depth": null,
    "temperature_decimal": {
      "repr": "0022",
      "value": 2.2,
      "spoken": "two point two"
    }
  },
  "runway_visibility": [],
  "temperature": {
    "repr": "02",
    "value": 2,
    "spoken": "two"
  },
  "wind_variable_direction": [],
  "density_altitude": -1970,
  "pressure_altitude": -468,
  "units": {
    "accumulation": "in",
    "altimeter": "inHg",
    "altitude": "ft",
    "temperature": "C",
    "visibility": "sm",
    "wind_speed": "kt"
  }
}
