{
  "meta": {
    "timestamp": "2022-12-10T06:31:14.254420Z",
    "stations_updated": "2022-09-05"
  },
  "altimeter": {
    "repr": "A2943",
    "value": 29.43,
    "spoken": "two nine point four three"
  },
  "clouds": [
    {
      "repr": "OVC033",
      "type": "OVC",
      "altitude": 33,
      "modifier": null
    }
  ],
  "flight_rules": "VFR",
  "other": [],
  "visibility": {
    "repr": "10",
    "value": 10,
    "spoken": "one zero"
  },
  "wind_direction": {
    "repr": "120",
    "value": 120,
    "spoken": "one two zero"
  },
  "wind_gust": null,
  "wind_speed": {
    "repr": "10",
    "value": 10,
    "spoken": "one zero"
  },
  "wx_codes": [
    {
      "repr": "RA",
      "value": "Rain"
    }
  ],
  "raw": "KAWO 100556Z AUTO 12010KT 10SM RA OVC033 04/02 A2943 RMK AO2 SLP971 P0007 60011 T00440022 10067 20044 56024",
  "sanitized": "KAWO 100556Z 12010KT 10SM RA OVC033 04/02 A2943 RMK AO2 SLP971 P0007 60011 T00440022 10067 20044 56024",
  "station": "KAWO",
  "time": {
    "repr": "100556Z",
    "dt": "2022-12-10T05:56:00Z"
  },
  "remarks": "RMK AO2 SLP971 P0007 60011 T00440022 10067 20044 56024",
  "dewpoint": {
    "repr": "02",
    "value": 2,
    "spoken": "two"
  },
  "relative_humidity": 0.8560648690888376,
  "remarks_info": {
    "maximum_temperature_6": {
      "repr": "10067",
      "value": 6.7,
      "spoken": "six point seven"
    },
    "minimum_temperature_6": {
      "repr": "20044",
      "value": 4.4,
      "spoken": "four point four"
    },
    "pressure_tendency": {
      "repr": "56024",
      "tendency": "Decreasing, then steady",
      "change": 2.4
    },
    "precip_36_hours": {
      "repr": "60011",
      "value": 0.11,
      "spoken": "zero point one one"
    },
    "precip_24_hours": null,
    "sunshine_minutes": null,
    "codes": [
      {
        "repr": "AO2",
        "value": "Automated with precipitation sensor"
      }
    ],
    "dewpoint_decimal": {
      "repr": "0022",
      "value": 2.2,
      "spoken": "two point two"
    },
    "maximum_temperature_24": null,
    "minimum_temperature_24": null,
    "precip_hourly": {
      "repr": "P0007",
      "value": 0.07,
      "spoken": "zero point zero seven"
    },
    "sea_level_pressure": {
      "repr": "SLP971",
      "value": 997.1,
      "spoken": "nine nine seven point one"
    },
    "snow_depth": null,
    "temperature_decimal": {
      "repr": "0044",
      "value": 4.4,
      "spoken": "four point four"
    }
  },
  "runway_visibility": [],
  "temperature": {
    "repr": "04",
    "value": 4,
    "spoken": "four"
  },
  "wind_variable_direction": [],
  "density_altitude": -606,
  "pressure_altitude": 632,
  "units": {
    "accumulation": "in",
    "altimeter": "inHg",
    "altitude": "ft",
    "temperature": "C",
    "visibility": "sm",
    "wind_speed": "kt"
  }
}
