{
  "altimeter": {
    "repr": "A3024",
    "spoken": "three zero point two four",
    "value": 30.24
  },
  "clouds": [
    {
      "altitude": 32,
      "modifier": null,
      "repr": "OVC032",
      "type": "OVC"
    }
  ],
  "density_altitude": -1008,
  "dewpoint": {
    "repr": "06",
    "spoken": "six",
    "value": 6
  },
  "flight_rules": "VFR",
  "meta": {
    "stations_updated": "2024-12-02",
    "timestamp": "2024-12-08T21:06:13.472032Z"
  },
  "other": [],
  "pressure_altitude": -178,
  "raw": "KAWO 082056Z AUTO 18008KT 8SM -RA OVC032 08/06 A3024 RMK AO2 SLP246 P0000 60002 T00780061 51012",
  "relative_humidity": 0.8899294340036578,
  "remarks": "RMK AO2 SLP246 P0000 60002 T00780061 51012",
  "remarks_info": {
    "codes": [
      {
        "repr": "AO2",
        "value": "Automated with precipitation sensor"
      },
      {
        "repr": "P0000",
        "value": "Trace amount of rain in the last hour"
      }
    ],
    "dewpoint_decimal": {
      "repr": "0061",
      "spoken": "six point one",
      "value": 6.1
    },
    "maximum_temperature_24": null,
    "maximum_temperature_6": null,
    "minimum_temperature_24": null,
    "minimum_temperature_6": null,
    "precip_24_hours": null,
    "precip_36_hours": {
      "repr": "60002",
      "spoken": "zero point zero two",
      "value": 0.02
    },
    "precip_hourly": null,
    "pressure_tendency": {
      "change": 1.2,
      "repr": "51012",
      "tendency": "Increasing, then steady"
    },
    "sea_level_pressure": {
      "repr": "SLP246",
      "spoken": "one zero two four point six",
      "value": 1024.6
    },
    "snow_depth": null,
    "sunshine_minutes": null,
    "temperature_decimal": {
      "repr": "0078",
      "spoken": "seven point eight",
      "value": 7.8
    }
  },
  "runway_visibility": [],
  "sanitized": "KAWO 082056Z 18008KT 8SM -RA OVC032 08/06 A3024 RMK AO2 SLP246 P0000 60002 T00780061 51012",
  "station": "KAWO",
  "temperature": {
    "repr": "08",
    "spoken": "eight",
    "value": 8
  },
  "time": {
    "dt": "2024-12-08T20:56:00Z",
    "repr": "082056Z"
  },
  "units": {
    "accumulation": "in",
    "altimeter": "inHg",
    "altitude": "ft",
    "temperature": "C",
    "visibility": "sm",
    "wind_speed": "kt"
  },
  "visibility": {
    "repr": "8",
    "spoken": "eight",
    "value": 8
  },
  "wind_direction": {
    "repr": "180",
    "spoken": "one eight zero",
    "value": 180
  },
  "wind_gust": null,
  "wind_speed": {
    "repr": "08",
    "spoken": "eight",
    "value": 8
  },
  "wind_variable_direction": [],
  "wx_codes": [
    {
      "repr": "-RA",
      "value": "Light Rain"
    }
  ]
}
