{
  "altimeter": {
    "repr": "A3055",
    "spoken": "three zero point five five",
    "value": 30.55
  },
  "clouds": [
    {
      "altitude": 6,
      "modifier": null,
      "repr": "OVC006",
      "type": "OVC"
    }
  ],
  "density_altitude": -1654,
  "dewpoint": {
    "repr": "04",
    "spoken": "four",
    "value": 4
  },
  "flight_rules": "IFR",
  "meta": {
    "stations_updated": "2024-12-02",
    "timestamp": "2025-01-07T04:09:15.606528Z"
  },
  "other": [],
  "pressure_altitude": -488,
  "raw": "KAWO 070356Z AUTO 11004KT 10SM OVC006 05/04 A3055 RMK AO2 SLP351 T00500044",
  "relative_humidity": 0.958959211899474,
  "remarks": "RMK AO2 SLP351 T00500044",
  "remarks_info": {
    "codes": [
      {
        "repr": "AO2",
        "value": "Automated with precipitation sensor"
      }
    ],
    "dewpoint_decimal": {
      "repr": "0044",
      "spoken": "four point four",
      "value": 4.4
    },
    "maximum_temperature_24": null,
    "maximum_temperature_6": null,
    "minimum_temperature_24": null,
    "minimum_temperature_6": null,
    "precip_24_hours": null,
    "precip_36_hours": null,
    "precip_hourly": null,
    "pressure_tendency": null,
    "sea_level_pressure": {
      "repr": "SLP351",
      "spoken": "one zero three five point one",
      "value": 1035.1
    },
    "snow_depth": null,
    "sunshine_minutes": null,
    "temperature_decimal": {
      "repr": "0050",
      "spoken": "five point zero",
      "value": 5
    }
  },
  "runway_visibility": [],
  "sanitized": "KAWO 070356Z 11004KT 10SM OVC006 05/04 A3055 RMK AO2 SLP351 T00500044",
  "station": "KAWO",
  "temperature": {
    "repr": "05",
    "spoken": "five",
    "value": 5
  },
  "time": {
    "dt": "2025-01-07T03:56:00Z",
    "repr": "070356Z"
  },
  "units": {
    "accumulation": "in",
    "altimeter": "inHg",
    "altitude": "ft",
    "temperature": "C",
    "visibility": "sm",
    "wind_speed": "kt"
  },
  "visibility": {
    "repr": "10",
    "spoken": "one zero",
    "value": 10
  },
  "wind_direction": {
    "repr": "110",
    "spoken": "one one zero",
    "value": 110
  },
  "wind_gust": null,
  "wind_speed": {
    "repr": "04",
    "spoken": "four",
    "value": 4
  },
  "wind_variable_direction": [],
  "wx_codes": []
}
