{
  "meta": {
    "timestamp": "2023-03-01T03:08:07.271349Z",
    "stations_updated": "2023-01-30",
    "cache-timestamp": "2023-03-01T03:08:04.149000Z"
  },
  "altimeter": {
    "repr": "A2974",
    "value": 29.74,
    "spoken": "two nine point seven four"
  },
  "clouds": [],
  "flight_rules": "LIFR",
  "other": [],
  "visibility": {
    "repr": "1/2",
    "value": 0.5,
    "spoken": "one half",
    "numerator": 1,
    "denominator": 2,
    "normalized": "1/2"
  },
  "wind_direction": {
    "repr": "000",
    "value": 0,
    "spoken": "zero zero zero"
  },
  "wind_gust": null,
  "wind_speed": {
    "repr": "00",
    "value": 0,
    "spoken": "zero"
  },
  "wx_codes": [
    {
      "repr": "FZFG",
      "value": "Freezing Fog"
    }
  ],
  "raw": "KAWO 010256Z AUTO 00000KT 1/2SM FZFG CLR M01/M02 A2974 RMK AO2 SLP076 T10111022 53029 FZRANO",
  "sanitized": "KAWO 010256Z 00000KT 1/2SM FZFG M01/M02 A2974 RMK AO2 SLP076 T10111022 53029 FZRANO",
  "station": "KAWO",
  "time": {
    "repr": "010256Z",
    "dt": "2023-03-01T02:56:00Z"
  },
  "remarks": "RMK AO2 SLP076 T10111022 53029 FZRANO",
  "dewpoint": {
    "repr": "M02",
    "value": -2,
    "spoken": "minus two"
  },
  "relative_humidity": 0.9222704961872329,
  "remarks_info": {
    "maximum_temperature_6": null,
    "minimum_temperature_6": null,
    "pressure_tendency": {
      "repr": "53029",
      "tendency": "Decreasing or steady, then increasing",
      "change": 2.9
    },
    "precip_36_hours": null,
    "precip_24_hours": null,
    "sunshine_minutes": null,
    "codes": [
      {
        "repr": "AO2",
        "value": "Automated with precipitation sensor"
      },
      {
        "repr": "FZRANO",
        "value": "Freezing rain information not available"
      }
    ],
    "dewpoint_decimal": {
      "repr": "1022",
      "value": -2.2,
      "spoken": "minus two point two"
    },
    "maximum_temperature_24": null,
    "minimum_temperature_24": null,
    "precip_hourly": null,
    "sea_level_pressure": {
      "repr": "SLP076",
      "value": 1007.6,
      "spoken": "one zero zero seven point six"
    },
    "snow_depth": null,
    "temperature_decimal": {
      "repr": "1011",
      "value": -1.1,
      "spoken": "minus one point one"
    }
  },
  "runway_visibility": [],
  "temperature": {
    "repr": "M01",
    "value": -1,
    "spoken": "minus one"
  },
  "wind_variable_direction": [],
  "density_altitude": -1576,
  "pressure_altitude": 322,
  "units": {
    "accumulation": "in",
    "altimeter": "inHg",
    "altitude": "ft",
    "temperature": "C",
    "visibility": "sm",
    "wind_speed": "kt"
  }
}
