{
  "meta": {
    "timestamp": "2023-02-09T12:58:25.819907Z",
    "stations_updated": "2023-01-30",
    "cache-timestamp": "2023-02-09T12:58:05.330000Z"
  },
  "altimeter": {
    "repr": "A3036",
    "value": 30.36,
    "spoken": "three zero point three six"
  },
  "clouds": [
    {
      "repr": "BKN070",
      "type": "BKN",
      "altitude": 70,
      "modifier": null
    }
  ],
  "flight_rules": "VFR",
  "other": [],
  "visibility": {
    "repr": "10",
    "value": 10,
    "spoken": "one zero"
  },
  "wind_direction": {
    "repr": "030",
    "value": 30,
    "spoken": "zero three zero"
  },
  "wind_gust": null,
  "wind_speed": {
    "repr": "03",
    "value": 3,
    "spoken": "three"
  },
  "wx_codes": [],
  "raw": "KAWO 091156Z AUTO 03003KT 10SM BKN070 04/02 A3036 RMK AO2 SLP285 70002 T00440017 10050 20039 56019",
  "sanitized": "KAWO 091156Z 03003KT 10SM BKN070 04/02 A3036 RMK AO2 SLP285 70002 T00440017 10050 20039 56019",
  "station": "KAWO",
  "time": {
    "repr": "091156Z",
    "dt": "2023-02-09T11:56:00Z"
  },
  "remarks": "RMK AO2 SLP285 70002 T00440017 10050 20039 56019",
  "dewpoint": {
    "repr": "02",
    "value": 2,
    "spoken": "two"
  },
  "relative_humidity": 0.8260348577577609,
  "remarks_info": {
    "maximum_temperature_6": {
      "repr": "10050",
      "value": 5,
      "spoken": "five point zero"
    },
    "minimum_temperature_6": {
      "repr": "20039",
      "value": 3.9,
      "spoken": "three point nine"
    },
    "pressure_tendency": {
      "repr": "56019",
      "tendency": "Decreasing, then steady",
      "change": 1.9
    },
    "precip_36_hours": null,
    "precip_24_hours": {
      "repr": "70002",
      "value": 0.02,
      "spoken": "zero point zero two"
    },
    "sunshine_minutes": null,
    "codes": [
      {
        "repr": "AO2",
        "value": "Automated with precipitation sensor"
      }
    ],
    "dewpoint_decimal": {
      "repr": "0017",
      "value": 1.7,
      "spoken": "one point seven"
    },
    "maximum_temperature_24": null,
    "minimum_temperature_24": null,
    "precip_hourly": null,
    "sea_level_pressure": {
      "repr": "SLP285",
      "value": 1028.5,
      "spoken": "one zero two eight point five"
    },
    "snow_depth": null,
    "temperature_decimal": {
      "repr": "0044",
      "value": 4.4,
      "spoken": "four point four"
    }
  },
  "runway_visibility": [],
  "temperature": {
    "repr": "04",
    "value": 4,
    "spoken": "four"
  },
  "wind_variable_direction": [],
  "density_altitude": -1536,
  "pressure_altitude": -298,
  "units": {
    "accumulation": "in",
    "altimeter": "inHg",
    "altitude": "ft",
    "temperature": "C",
    "visibility": "sm",
    "wind_speed": "kt"
  }
}
