{
  "meta": {
    "timestamp": "2023-01-15T03:40:47.404670Z",
    "stations_updated": "2022-12-27",
    "cache-timestamp": "2023-01-15T03:40:06.248000Z"
  },
  "altimeter": {
    "repr": "A2931",
    "value": 29.31,
    "spoken": "two nine point three one"
  },
  "clouds": [
    {
      "repr": "SCT090",
      "type": "SCT",
      "altitude": 90,
      "modifier": null
    }
  ],
  "flight_rules": "VFR",
  "other": [],
  "visibility": {
    "repr": "10",
    "value": 10,
    "spoken": "one zero"
  },
  "wind_direction": {
    "repr": "000",
    "value": 0,
    "spoken": "zero zero zero"
  },
  "wind_gust": null,
  "wind_speed": {
    "repr": "00",
    "value": 0,
    "spoken": "zero"
  },
  "wx_codes": [],
  "raw": "KAWO 150256Z AUTO 00000KT 10SM SCT090 08/05 A2931 RMK AO2 SLP930 T00780050 58003",
  "sanitized": "KAWO 150256Z 00000KT 10SM SCT090 08/05 A2931 RMK AO2 SLP930 T00780050 58003",
  "station": "KAWO",
  "time": {
    "repr": "150256Z",
    "dt": "2023-01-15T02:56:00Z"
  },
  "remarks": "RMK AO2 SLP930 T00780050 58003",
  "dewpoint": {
    "repr": "05",
    "value": 5,
    "spoken": "five"
  },
  "relative_humidity": 0.824548883443889,
  "remarks_info": {
    "maximum_temperature_6": null,
    "minimum_temperature_6": null,
    "pressure_tendency": {
      "repr": "58003",
      "tendency": "Steady or increasing, then decreasing",
      "change": 0.3
    },
    "precip_36_hours": null,
    "precip_24_hours": null,
    "sunshine_minutes": null,
    "codes": [
      {
        "repr": "AO2",
        "value": "Automated with precipitation sensor"
      }
    ],
    "dewpoint_decimal": {
      "repr": "0050",
      "value": 5,
      "spoken": "five point zero"
    },
    "maximum_temperature_24": null,
    "minimum_temperature_24": null,
    "precip_hourly": null,
    "sea_level_pressure": {
      "repr": "SLP930",
      "value": 993,
      "spoken": "nine nine three point zero"
    },
    "snow_depth": null,
    "temperature_decimal": {
      "repr": "0078",
      "value": 7.8,
      "spoken": "seven point eight"
    }
  },
  "runway_visibility": [],
  "temperature": {
    "repr": "08",
    "value": 8,
    "spoken": "eight"
  },
  "wind_variable_direction": [],
  "density_altitude": -78,
  "pressure_altitude": 752,
  "units": {
    "accumulation": "in",
    "altimeter": "inHg",
    "altitude": "ft",
    "temperature": "C",
    "visibility": "sm",
    "wind_speed": "kt"
  }
}
