{
  "meta": {
    "timestamp": "2023-06-21T12:44:32.986184Z",
    "stations_updated": "2023-06-06",
    "cache-timestamp": "2023-06-21T12:44:03.500000Z"
  },
  "altimeter": {
    "repr": "A3025",
    "value": 30.25,
    "spoken": "three zero point two five"
  },
  "clouds": [
    {
      "repr": "OVC016",
      "type": "OVC",
      "altitude": 16,
      "modifier": null
    }
  ],
  "flight_rules": "MVFR",
  "other": [],
  "visibility": {
    "repr": "10",
    "value": 10,
    "spoken": "one zero"
  },
  "wind_direction": {
    "repr": "000",
    "value": 0,
    "spoken": "zero zero zero"
  },
  "wind_gust": null,
  "wind_speed": {
    "repr": "00",
    "value": 0,
    "spoken": "zero"
  },
  "wx_codes": [],
  "raw": "KAWO 211156Z AUTO 00000KT 10SM OVC016 12/12 A3025 RMK AO2 SLP246 70052 T01220117 10128 20122 57001",
  "sanitized": "KAWO 211156Z 00000KT 10SM OVC016 12/12 A3025 RMK AO2 SLP246 70052 T01220117 10128 20122 57001",
  "station": "KAWO",
  "time": {
    "repr": "211156Z",
    "dt": "2023-06-21T11:56:00Z"
  },
  "remarks": "RMK AO2 SLP246 70052 T01220117 10128 20122 57001",
  "dewpoint": {
    "repr": "12",
    "value": 12,
    "spoken": "one two"
  },
  "relative_humidity": 0.9675694096890608,
  "remarks_info": {
    "maximum_temperature_6": {
      "repr": "10128",
      "value": 12.8,
      "spoken": "one two point eight"
    },
    "minimum_temperature_6": {
      "repr": "20122",
      "value": 12.2,
      "spoken": "one two point two"
    },
    "pressure_tendency": {
      "repr": "57001",
      "tendency": "Decreasing steadily or unsteadily",
      "change": 0.1
    },
    "precip_36_hours": null,
    "precip_24_hours": {
      "repr": "70052",
      "value": 0.52,
      "spoken": "zero point five two"
    },
    "sunshine_minutes": null,
    "codes": [
      {
        "repr": "AO2",
        "value": "Automated with precipitation sensor"
      }
    ],
    "dewpoint_decimal": {
      "repr": "0117",
      "value": 11.7,
      "spoken": "one one point seven"
    },
    "maximum_temperature_24": null,
    "minimum_temperature_24": null,
    "precip_hourly": null,
    "sea_level_pressure": {
      "repr": "SLP246",
      "value": 1024.6,
      "spoken": "one zero two four point six"
    },
    "snow_depth": null,
    "temperature_decimal": {
      "repr": "0122",
      "value": 12.2,
      "spoken": "one two point two"
    }
  },
  "runway_visibility": [],
  "temperature": {
    "repr": "12",
    "value": 12,
    "spoken": "one two"
  },
  "wind_variable_direction": [],
  "density_altitude": -490,
  "pressure_altitude": -188,
  "units": {
    "accumulation": "in",
    "altimeter": "inHg",
    "altitude": "ft",
    "temperature": "C",
    "visibility": "sm",
    "wind_speed": "kt"
  }
}
