{
  "altimeter": {
    "repr": "A3033",
    "spoken": "three zero point three three",
    "value": 30.33
  },
  "clouds": [],
  "density_altitude": -3366,
  "dewpoint": {
    "repr": "M18",
    "spoken": "minus one eight",
    "value": -18
  },
  "flight_rules": "VFR",
  "meta": {
    "cache-timestamp": "2024-01-13T03:40:05.816000Z",
    "stations_updated": "2023-10-28",
    "timestamp": "2024-01-13T03:40:32.871164Z"
  },
  "other": [],
  "pressure_altitude": -268,
  "raw": "KAWO 130256Z AUTO 02007KT 10SM CLR M11/M18 A3033 RMK AO2 SLP277 T11111178 51007 FZRANO",
  "relative_humidity": 0.5771836232234347,
  "remarks": "RMK AO2 SLP277 T11111178 51007 FZRANO",
  "remarks_info": {
    "codes": [
      {
        "repr": "AO2",
        "value": "Automated with precipitation sensor"
      },
      {
        "repr": "FZRANO",
        "value": "Freezing rain information not available"
      }
    ],
    "dewpoint_decimal": {
      "repr": "1178",
      "spoken": "minus one seven point eight",
      "value": -17.8
    },
    "maximum_temperature_24": null,
    "maximum_temperature_6": null,
    "minimum_temperature_24": null,
    "minimum_temperature_6": null,
    "precip_24_hours": null,
    "precip_36_hours": null,
    "precip_hourly": null,
    "pressure_tendency": {
      "change": 0.7,
      "repr": "51007",
      "tendency": "Increasing, then steady"
    },
    "sea_level_pressure": {
      "repr": "SLP277",
      "spoken": "one zero two seven point seven",
      "value": 1027.7
    },
    "snow_depth": null,
    "sunshine_minutes": null,
    "temperature_decimal": {
      "repr": "1111",
      "spoken": "minus one one point one",
      "value": -11.1
    }
  },
  "runway_visibility": [],
  "sanitized": "KAWO 130256Z 02007KT 10SM M11/M18 A3033 RMK AO2 SLP277 T11111178 51007 FZRANO",
  "station": "KAWO",
  "temperature": {
    "repr": "M11",
    "spoken": "minus one one",
    "value": -11
  },
  "time": {
    "dt": "2024-01-13T02:56:00Z",
    "repr": "130256Z"
  },
  "units": {
    "accumulation": "in",
    "altimeter": "inHg",
    "altitude": "ft",
    "temperature": "C",
    "visibility": "sm",
    "wind_speed": "kt"
  },
  "visibility": {
    "repr": "10",
    "spoken": "one zero",
    "value": 10
  },
  "wind_direction": {
    "repr": "020",
    "spoken": "zero two zero",
    "value": 20
  },
  "wind_gust": null,
  "wind_speed": {
    "repr": "07",
    "spoken": "seven",
    "value": 7
  },
  "wind_variable_direction": [],
  "wx_codes": []
}
