{
  "altimeter": {
    "repr": "A2961",
    "spoken": "two nine point six one",
    "value": 29.61
  },
  "clouds": [
    {
      "altitude": 12,
      "modifier": null,
      "repr": "FEW012",
      "type": "FEW"
    },
    {
      "altitude": 23,
      "modifier": null,
      "repr": "BKN023",
      "type": "BKN"
    },
    {
      "altitude": 29,
      "modifier": null,
      "repr": "OVC029",
      "type": "OVC"
    }
  ],
  "density_altitude": -114,
  "dewpoint": {
    "repr": "09",
    "spoken": "nine",
    "value": 9
  },
  "flight_rules": "IFR",
  "meta": {
    "cache-timestamp": "2024-06-03T14:28:07.789000Z",
    "stations_updated": "2024-05-13",
    "timestamp": "2024-06-03T14:28:27.766481Z"
  },
  "other": [],
  "pressure_altitude": 452,
  "raw": "KAWO 031356Z AUTO 15004KT 2SM +RA BR FEW012 BKN023 OVC029 10/09 A2961 RMK AO2 VIS 1 1/4V5 RAB02 SLP030 P0017 T01000089",
  "relative_humidity": 0.9286987212378438,
  "remarks": "RMK AO2 VIS 1 1/4V5 RAB02 SLP030 P0017 T01000089",
  "remarks_info": {
    "codes": [
      {
        "repr": "AO2",
        "value": "Automated with precipitation sensor"
      },
      {
        "repr": "RAB02",
        "value": "Rain began at :02"
      }
    ],
    "dewpoint_decimal": {
      "repr": "0089",
      "spoken": "eight point nine",
      "value": 8.9
    },
    "maximum_temperature_24": null,
    "maximum_temperature_6": null,
    "minimum_temperature_24": null,
    "minimum_temperature_6": null,
    "precip_24_hours": null,
    "precip_36_hours": null,
    "precip_hourly": {
      "repr": "P0017",
      "spoken": "zero point one seven",
      "value": 0.17
    },
    "pressure_tendency": null,
    "sea_level_pressure": {
      "repr": "SLP030",
      "spoken": "one zero zero three point zero",
      "value": 1003
    },
    "snow_depth": null,
    "sunshine_minutes": null,
    "temperature_decimal": {
      "repr": "0100",
      "spoken": "one zero point zero",
      "value": 10
    }
  },
  "runway_visibility": [],
  "sanitized": "KAWO 031356Z 15004KT 2SM +RA BR FEW012 BKN023 OVC029 10/09 A2961 RMK AO2 VIS 1 1/4V5 RAB02 SLP030 P0017 T01000089",
  "station": "KAWO",
  "temperature": {
    "repr": "10",
    "spoken": "one zero",
    "value": 10
  },
  "time": {
    "dt": "2024-06-03T13:56:00Z",
    "repr": "031356Z"
  },
  "units": {
    "accumulation": "in",
    "altimeter": "inHg",
    "altitude": "ft",
    "temperature": "C",
    "visibility": "sm",
    "wind_speed": "kt"
  },
  "visibility": {
    "repr": "2",
    "spoken": "two",
    "value": 2
  },
  "wind_direction": {
    "repr": "150",
    "spoken": "one five zero",
    "value": 150
  },
  "wind_gust": null,
  "wind_speed": {
    "repr": "04",
    "spoken": "four",
    "value": 4
  },
  "wind_variable_direction": [],
  "wx_codes": [
    {
      "repr": "+RA",
      "value": "Heavy Rain"
    },
    {
      "repr": "BR",
      "value": "Mist"
    }
  ]
}
