{
  "altimeter": {
    "repr": "A2922",
    "spoken": "two nine point two two",
    "value": 29.22
  },
  "clouds": [
    {
      "altitude": 46,
      "modifier": null,
      "repr": "OVC046",
      "type": "OVC"
    }
  ],
  "density_altitude": -120,
  "dewpoint": {
    "repr": "06",
    "spoken": "six",
    "value": 6
  },
  "flight_rules": "VFR",
  "meta": {
    "stations_updated": "2024-12-02",
    "timestamp": "2024-12-26T12:50:14.062063Z"
  },
  "other": [],
  "pressure_altitude": 842,
  "raw": "KAWO 261156Z AUTO 29005KT 10SM -RA OVC046 07/06 A2922 RMK AO2 RAE14B43 SLP899 P0000 60031 70042 T00670056 10083 20056 56026",
  "relative_humidity": 0.9268723723701822,
  "remarks": "RMK AO2 RAE14B43 SLP899 P0000 60031 70042 T00670056 10083 20056 56026",
  "remarks_info": {
    "codes": [
      {
        "repr": "AO2",
        "value": "Automated with precipitation sensor"
      },
      {
        "repr": "P0000",
        "value": "Trace amount of rain in the last hour"
      }
    ],
    "dewpoint_decimal": {
      "repr": "0056",
      "spoken": "five point six",
      "value": 5.6
    },
    "maximum_temperature_24": null,
    "maximum_temperature_6": {
      "repr": "10083",
      "spoken": "eight point three",
      "value": 8.3
    },
    "minimum_temperature_24": null,
    "minimum_temperature_6": {
      "repr": "20056",
      "spoken": "five point six",
      "value": 5.6
    },
    "precip_24_hours": {
      "repr": "70042",
      "spoken": "zero point four two",
      "value": 0.42
    },
    "precip_36_hours": {
      "repr": "60031",
      "spoken": "zero point three one",
      "value": 0.31
    },
    "precip_hourly": null,
    "pressure_tendency": {
      "change": 2.6,
      "repr": "56026",
      "tendency": "Decreasing, then steady"
    },
    "sea_level_pressure": {
      "repr": "SLP899",
      "spoken": "nine eight nine point nine",
      "value": 989.9
    },
    "snow_depth": null,
    "sunshine_minutes": null,
    "temperature_decimal": {
      "repr": "0067",
      "spoken": "six point seven",
      "value": 6.7
    }
  },
  "runway_visibility": [],
  "sanitized": "KAWO 261156Z 29005KT 10SM -RA OVC046 07/06 A2922 RMK AO2 RAE14B43 SLP899 P0000 60031 70042 T00670056 10083 20056 56026",
  "station": "KAWO",
  "temperature": {
    "repr": "07",
    "spoken": "seven",
    "value": 7
  },
  "time": {
    "dt": "2024-12-26T11:56:00Z",
    "repr": "261156Z"
  },
  "units": {
    "accumulation": "in",
    "altimeter": "inHg",
    "altitude": "ft",
    "temperature": "C",
    "visibility": "sm",
    "wind_speed": "kt"
  },
  "visibility": {
    "repr": "10",
    "spoken": "one zero",
    "value": 10
  },
  "wind_direction": {
    "repr": "290",
    "spoken": "two nine zero",
    "value": 290
  },
  "wind_gust": null,
  "wind_speed": {
    "repr": "05",
    "spoken": "five",
    "value": 5
  },
  "wind_variable_direction": [],
  "wx_codes": [
    {
      "repr": "-RA",
      "value": "Light Rain"
    }
  ]
}
