{
  "altimeter": {
    "repr": "A3015",
    "spoken": "three zero point one five",
    "value": 30.15
  },
  "clouds": [
    {
      "altitude": 9,
      "modifier": null,
      "repr": "OVC009",
      "type": "OVC"
    }
  ],
  "density_altitude": -534,
  "dewpoint": {
    "repr": "09",
    "spoken": "nine",
    "value": 9
  },
  "flight_rules": "IFR",
  "meta": {
    "cache-timestamp": "2024-06-10T11:40:06.215000Z",
    "stations_updated": "2024-05-13",
    "timestamp": "2024-06-10T11:40:30.732447Z"
  },
  "other": [],
  "pressure_altitude": -88,
  "raw": "KAWO 101137Z AUTO 32003KT 3SM -RA BR OVC009 11/09 A3015 RMK AO2 RAB16 CIG 007V013 P0000",
  "relative_humidity": 0.8746678827465182,
  "remarks": "RMK AO2 RAB16 CIG 007V013 P0000",
  "remarks_info": {
    "codes": [
      {
        "repr": "AO2",
        "value": "Automated with precipitation sensor"
      },
      {
        "repr": "P0000",
        "value": "Trace amount of rain in the last hour"
      },
      {
        "repr": "RAB16",
        "value": "Rain began at :16"
      }
    ],
    "dewpoint_decimal": null,
    "maximum_temperature_24": null,
    "maximum_temperature_6": null,
    "minimum_temperature_24": null,
    "minimum_temperature_6": null,
    "precip_24_hours": null,
    "precip_36_hours": null,
    "precip_hourly": null,
    "pressure_tendency": null,
    "sea_level_pressure": null,
    "snow_depth": null,
    "sunshine_minutes": null,
    "temperature_decimal": null
  },
  "runway_visibility": [],
  "sanitized": "KAWO 101137Z 32003KT 3SM -RA BR OVC009 11/09 A3015 RMK AO2 RAB16 CIG 007V013 P0000",
  "station": "KAWO",
  "temperature": {
    "repr": "11",
    "spoken": "one one",
    "value": 11
  },
  "time": {
    "dt": "2024-06-10T11:37:00Z",
    "repr": "101137Z"
  },
  "units": {
    "accumulation": "in",
    "altimeter": "inHg",
    "altitude": "ft",
    "temperature": "C",
    "visibility": "sm",
    "wind_speed": "kt"
  },
  "visibility": {
    "repr": "3",
    "spoken": "three",
    "value": 3
  },
  "wind_direction": {
    "repr": "320",
    "spoken": "three two zero",
    "value": 320
  },
  "wind_gust": null,
  "wind_speed": {
    "repr": "03",
    "spoken": "three",
    "value": 3
  },
  "wind_variable_direction": [],
  "wx_codes": [
    {
      "repr": "-RA",
      "value": "Light Rain"
    },
    {
      "repr": "BR",
      "value": "Mist"
    }
  ]
}
