{
  "meta": {
    "timestamp": "2023-02-06T11:01:48.896762Z",
    "stations_updated": "2023-01-30"
  },
  "altimeter": {
    "repr": "A3035",
    "value": 30.35,
    "spoken": "three zero point three five"
  },
  "clouds": [
    {
      "repr": "SCT010",
      "type": "SCT",
      "altitude": 10,
      "modifier": null
    },
    {
      "repr": "BKN019",
      "type": "BKN",
      "altitude": 19,
      "modifier": null
    },
    {
      "repr": "BKN026",
      "type": "BKN",
      "altitude": 26,
      "modifier": null
    }
  ],
  "flight_rules": "MVFR",
  "other": [],
  "visibility": {
    "repr": "10",
    "value": 10,
    "spoken": "one zero"
  },
  "wind_direction": {
    "repr": "160",
    "value": 160,
    "spoken": "one six zero"
  },
  "wind_gust": null,
  "wind_speed": {
    "repr": "09",
    "value": 9,
    "spoken": "nine"
  },
  "wx_codes": [],
  "raw": "KAWO 061056Z AUTO 16009KT 10SM SCT010 BKN019 BKN026 06/05 A3035 RMK AO2 SLP280 T00610050",
  "sanitized": "KAWO 061056Z 16009KT 10SM SCT010 BKN019 BKN026 06/05 A3035 RMK AO2 SLP280 T00610050",
  "station": "KAWO",
  "time": {
    "repr": "061056Z",
    "dt": "2023-02-06T10:56:00Z"
  },
  "remarks": "RMK AO2 SLP280 T00610050",
  "dewpoint": {
    "repr": "05",
    "value": 5,
    "spoken": "five"
  },
  "relative_humidity": 0.9265328822020961,
  "remarks_info": {
    "maximum_temperature_6": null,
    "minimum_temperature_6": null,
    "pressure_tendency": null,
    "precip_36_hours": null,
    "precip_24_hours": null,
    "sunshine_minutes": null,
    "codes": [
      {
        "repr": "AO2",
        "value": "Automated with precipitation sensor"
      }
    ],
    "dewpoint_decimal": {
      "repr": "0050",
      "value": 5,
      "spoken": "five point zero"
    },
    "maximum_temperature_24": null,
    "minimum_temperature_24": null,
    "precip_hourly": null,
    "sea_level_pressure": {
      "repr": "SLP280",
      "value": 1028,
      "spoken": "one zero two eight point zero"
    },
    "snow_depth": null,
    "temperature_decimal": {
      "repr": "0061",
      "value": 6.1,
      "spoken": "six point one"
    }
  },
  "runway_visibility": [],
  "temperature": {
    "repr": "06",
    "value": 6,
    "spoken": "six"
  },
  "wind_variable_direction": [],
  "density_altitude": -1322,
  "pressure_altitude": -288,
  "units": {
    "accumulation": "in",
    "altimeter": "inHg",
    "altitude": "ft",
    "temperature": "C",
    "visibility": "sm",
    "wind_speed": "kt"
  }
}
