{
  "meta": {
    "timestamp": "2023-01-13T12:09:14.631709Z",
    "stations_updated": "2022-12-27"
  },
  "altimeter": {
    "repr": "A2977",
    "value": 29.77,
    "spoken": "two nine point seven seven"
  },
  "clouds": [
    {
      "repr": "OVC070",
      "type": "OVC",
      "altitude": 70,
      "modifier": null
    }
  ],
  "flight_rules": "VFR",
  "other": [],
  "visibility": {
    "repr": "10",
    "value": 10,
    "spoken": "one zero"
  },
  "wind_direction": {
    "repr": "000",
    "value": 0,
    "spoken": "zero zero zero"
  },
  "wind_gust": null,
  "wind_speed": {
    "repr": "00",
    "value": 0,
    "spoken": "zero"
  },
  "wx_codes": [
    {
      "repr": "-RA",
      "value": "Light Rain"
    }
  ],
  "raw": "KAWO 131156Z AUTO 00000KT 10SM -RA OVC070 09/08 A2977 RMK AO2 SLP084 P0000 60006 70044 T00940083 10094 20078 58006",
  "sanitized": "KAWO 131156Z 00000KT 10SM -RA OVC070 09/08 A2977 RMK AO2 SLP084 P0000 60006 70044 T00940083 10094 20078 58006",
  "station": "KAWO",
  "time": {
    "repr": "131156Z",
    "dt": "2023-01-13T11:56:00Z"
  },
  "remarks": "RMK AO2 SLP084 P0000 60006 70044 T00940083 10094 20078 58006",
  "dewpoint": {
    "repr": "08",
    "value": 8,
    "spoken": "eight"
  },
  "relative_humidity": 0.9283717155883899,
  "remarks_info": {
    "maximum_temperature_6": {
      "repr": "10094",
      "value": 9.4,
      "spoken": "nine point four"
    },
    "minimum_temperature_6": {
      "repr": "20078",
      "value": 7.8,
      "spoken": "seven point eight"
    },
    "pressure_tendency": {
      "repr": "58006",
      "tendency": "Steady or increasing, then decreasing",
      "change": 0.6
    },
    "precip_36_hours": {
      "repr": "60006",
      "value": 0.06,
      "spoken": "zero point zero six"
    },
    "precip_24_hours": {
      "repr": "70044",
      "value": 0.44,
      "spoken": "zero point four four"
    },
    "sunshine_minutes": null,
    "codes": [
      {
        "repr": "AO2",
        "value": "Automated with precipitation sensor"
      },
      {
        "repr": "P0000",
        "value": "Trace amount of rain in the last hour"
      }
    ],
    "dewpoint_decimal": {
      "repr": "0083",
      "value": 8.3,
      "spoken": "eight point three"
    },
    "maximum_temperature_24": null,
    "minimum_temperature_24": null,
    "precip_hourly": null,
    "sea_level_pressure": {
      "repr": "SLP084",
      "value": 1008.4,
      "spoken": "one zero zero eight point four"
    },
    "snow_depth": null,
    "temperature_decimal": {
      "repr": "0094",
      "value": 9.4,
      "spoken": "nine point four"
    }
  },
  "runway_visibility": [],
  "temperature": {
    "repr": "09",
    "value": 9,
    "spoken": "nine"
  },
  "wind_variable_direction": [],
  "density_altitude": -346,
  "pressure_altitude": 292,
  "units": {
    "accumulation": "in",
    "altimeter": "inHg",
    "altitude": "ft",
    "temperature": "C",
    "visibility": "sm",
    "wind_speed": "kt"
  }
}
