{
  "altimeter": {
    "repr": "A2972",
    "spoken": "two nine point seven two",
    "value": 29.72
  },
  "clouds": [
    {
      "altitude": 22,
      "modifier": null,
      "repr": "BKN022",
      "type": "BKN"
    },
    {
      "altitude": 27,
      "modifier": null,
      "repr": "OVC027",
      "type": "OVC"
    }
  ],
  "density_altitude": -560,
  "dewpoint": {
    "repr": "04",
    "spoken": "four",
    "value": 4
  },
  "flight_rules": "MVFR",
  "meta": {
    "stations_updated": "2024-01-01",
    "timestamp": "2024-03-11T03:25:26.602427Z"
  },
  "other": [],
  "pressure_altitude": 342,
  "raw": "KAWO 110256Z AUTO 13013KT 10SM BKN022 OVC027 07/04 A2972 RMK AO2 SLP070 60001 T00720044 51018",
  "relative_humidity": 0.8237826093197136,
  "remarks": "RMK AO2 SLP070 60001 T00720044 51018",
  "remarks_info": {
    "codes": [
      {
        "repr": "AO2",
        "value": "Automated with precipitation sensor"
      }
    ],
    "dewpoint_decimal": {
      "repr": "0044",
      "spoken": "four point four",
      "value": 4.4
    },
    "maximum_temperature_24": null,
    "maximum_temperature_6": null,
    "minimum_temperature_24": null,
    "minimum_temperature_6": null,
    "precip_24_hours": null,
    "precip_36_hours": {
      "repr": "60001",
      "spoken": "zero point zero one",
      "value": 0.01
    },
    "precip_hourly": null,
    "pressure_tendency": {
      "change": 1.8,
      "repr": "51018",
      "tendency": "Increasing, then steady"
    },
    "sea_level_pressure": {
      "repr": "SLP070",
      "spoken": "one zero zero seven point zero",
      "value": 1007
    },
    "snow_depth": null,
    "sunshine_minutes": null,
    "temperature_decimal": {
      "repr": "0072",
      "spoken": "seven point two",
      "value": 7.2
    }
  },
  "runway_visibility": [],
  "sanitized": "KAWO 110256Z 13013KT 10SM BKN022 OVC027 07/04 A2972 RMK AO2 SLP070 60001 T00720044 51018",
  "station": "KAWO",
  "temperature": {
    "repr": "07",
    "spoken": "seven",
    "value": 7
  },
  "time": {
    "dt": "2024-03-11T02:56:00Z",
    "repr": "110256Z"
  },
  "units": {
    "accumulation": "in",
    "altimeter": "inHg",
    "altitude": "ft",
    "temperature": "C",
    "visibility": "sm",
    "wind_speed": "kt"
  },
  "visibility": {
    "repr": "10",
    "spoken": "one zero",
    "value": 10
  },
  "wind_direction": {
    "repr": "130",
    "spoken": "one three zero",
    "value": 130
  },
  "wind_gust": null,
  "wind_speed": {
    "repr": "13",
    "spoken": "one three",
    "value": 13
  },
  "wind_variable_direction": [],
  "wx_codes": []
}
