{
  "meta": {
    "timestamp": "2023-06-10T06:03:53.785984Z",
    "stations_updated": "2023-06-06"
  },
  "altimeter": {
    "repr": "A3006",
    "value": 30.06,
    "spoken": "three zero point zero six"
  },
  "clouds": [
    {
      "repr": "OVC011",
      "type": "OVC",
      "altitude": 11,
      "modifier": null
    }
  ],
  "flight_rules": "MVFR",
  "other": [],
  "visibility": {
    "repr": "8",
    "value": 8,
    "spoken": "eight"
  },
  "wind_direction": {
    "repr": "300",
    "value": 300,
    "spoken": "three zero zero"
  },
  "wind_gust": null,
  "wind_speed": {
    "repr": "04",
    "value": 4,
    "spoken": "four"
  },
  "wx_codes": [],
  "raw": "KAWO 100556Z AUTO 30004KT 8SM OVC011 12/12 A3006 RMK AO2 SLP183 60004 T01220117 10133 20122 51005",
  "sanitized": "KAWO 100556Z 30004KT 8SM OVC011 12/12 A3006 RMK AO2 SLP183 60004 T01220117 10133 20122 51005",
  "station": "KAWO",
  "time": {
    "repr": "100556Z",
    "dt": "2023-06-10T05:56:00Z"
  },
  "remarks": "RMK AO2 SLP183 60004 T01220117 10133 20122 51005",
  "dewpoint": {
    "repr": "12",
    "value": 12,
    "spoken": "one two"
  },
  "relative_humidity": 0.9675694096890608,
  "remarks_info": {
    "maximum_temperature_6": {
      "repr": "10133",
      "value": 13.3,
      "spoken": "one three point three"
    },
    "minimum_temperature_6": {
      "repr": "20122",
      "value": 12.2,
      "spoken": "one two point two"
    },
    "pressure_tendency": {
      "repr": "51005",
      "tendency": "Increasing, then steady",
      "change": 0.5
    },
    "precip_36_hours": {
      "repr": "60004",
      "value": 0.04,
      "spoken": "zero point zero four"
    },
    "precip_24_hours": null,
    "sunshine_minutes": null,
    "codes": [
      {
        "repr": "AO2",
        "value": "Automated with precipitation sensor"
      }
    ],
    "dewpoint_decimal": {
      "repr": "0117",
      "value": 11.7,
      "spoken": "one one point seven"
    },
    "maximum_temperature_24": null,
    "minimum_temperature_24": null,
    "precip_hourly": null,
    "sea_level_pressure": {
      "repr": "SLP183",
      "value": 1018.3,
      "spoken": "one zero one eight point three"
    },
    "snow_depth": null,
    "temperature_decimal": {
      "repr": "0122",
      "value": 12.2,
      "spoken": "one two point two"
    }
  },
  "runway_visibility": [],
  "temperature": {
    "repr": "12",
    "value": 12,
    "spoken": "one two"
  },
  "wind_variable_direction": [],
  "density_altitude": -300,
  "pressure_altitude": 2,
  "units": {
    "accumulation": "in",
    "altimeter": "inHg",
    "altitude": "ft",
    "temperature": "C",
    "visibility": "sm",
    "wind_speed": "kt"
  }
}
