{
  "meta": {
    "timestamp": "2023-01-12T06:42:59.179096Z",
    "stations_updated": "2022-12-27",
    "cache-timestamp": "2023-01-12T06:42:08.149000Z"
  },
  "altimeter": {
    "repr": "A2985",
    "value": 29.85,
    "spoken": "two nine point eight five"
  },
  "clouds": [
    {
      "repr": "BKN055",
      "type": "BKN",
      "altitude": 55,
      "modifier": null
    },
    {
      "repr": "OVC070",
      "type": "OVC",
      "altitude": 70,
      "modifier": null
    }
  ],
  "flight_rules": "VFR",
  "other": [],
  "visibility": {
    "repr": "10",
    "value": 10,
    "spoken": "one zero"
  },
  "wind_direction": {
    "repr": "170",
    "value": 170,
    "spoken": "one seven zero"
  },
  "wind_gust": null,
  "wind_speed": {
    "repr": "06",
    "value": 6,
    "spoken": "six"
  },
  "wx_codes": [],
  "raw": "KAWO 120556Z AUTO 17006KT 10SM BKN055 OVC070 11/02 A2985 RMK AO2 SLP111 T01110017 10122 20078 58002",
  "sanitized": "KAWO 120556Z 17006KT 10SM BKN055 OVC070 11/02 A2985 RMK AO2 SLP111 T01110017 10122 20078 58002",
  "station": "KAWO",
  "time": {
    "repr": "120556Z",
    "dt": "2023-01-12T05:56:00Z"
  },
  "remarks": "RMK AO2 SLP111 T01110017 10122 20078 58002",
  "dewpoint": {
    "repr": "02",
    "value": 2,
    "spoken": "two"
  },
  "relative_humidity": 0.5231615467979011,
  "remarks_info": {
    "maximum_temperature_6": {
      "repr": "10122",
      "value": 12.2,
      "spoken": "one two point two"
    },
    "minimum_temperature_6": {
      "repr": "20078",
      "value": 7.8,
      "spoken": "seven point eight"
    },
    "pressure_tendency": {
      "repr": "58002",
      "tendency": "Steady or increasing, then decreasing",
      "change": 0.2
    },
    "precip_36_hours": null,
    "precip_24_hours": null,
    "sunshine_minutes": null,
    "codes": [
      {
        "repr": "AO2",
        "value": "Automated with precipitation sensor"
      }
    ],
    "dewpoint_decimal": {
      "repr": "0017",
      "value": 1.7,
      "spoken": "one point seven"
    },
    "maximum_temperature_24": null,
    "minimum_temperature_24": null,
    "precip_hourly": null,
    "sea_level_pressure": {
      "repr": "SLP111",
      "value": 1011.1,
      "spoken": "one zero one one point one"
    },
    "snow_depth": null,
    "temperature_decimal": {
      "repr": "0111",
      "value": 11.1,
      "spoken": "one one point one"
    }
  },
  "runway_visibility": [],
  "temperature": {
    "repr": "11",
    "value": 11,
    "spoken": "one one"
  },
  "wind_variable_direction": [],
  "density_altitude": -222,
  "pressure_altitude": 212,
  "units": {
    "accumulation": "in",
    "altimeter": "inHg",
    "altitude": "ft",
    "temperature": "C",
    "visibility": "sm",
    "wind_speed": "kt"
  }
}
