{
  "altimeter": {
    "repr": "A2968",
    "spoken": "two nine point six eight",
    "value": 29.68
  },
  "clouds": [],
  "density_altitude": 944,
  "dewpoint": {
    "repr": "16",
    "spoken": "one six",
    "value": 16
  },
  "flight_rules": "VFR",
  "meta": {
    "stations_updated": "2024-06-12",
    "timestamp": "2024-09-25T02:05:57.437138Z"
  },
  "other": [],
  "pressure_altitude": 382,
  "raw": "KAWO 250156Z AUTO 28004KT 10SM CLR 19/16 A2968 RMK AO2 SLP056 T01940156",
  "relative_humidity": 0.786606180922979,
  "remarks": "RMK AO2 SLP056 T01940156",
  "remarks_info": {
    "codes": [
      {
        "repr": "AO2",
        "value": "Automated with precipitation sensor"
      }
    ],
    "dewpoint_decimal": {
      "repr": "0156",
      "spoken": "one five point six",
      "value": 15.6
    },
    "maximum_temperature_24": null,
    "maximum_temperature_6": null,
    "minimum_temperature_24": null,
    "minimum_temperature_6": null,
    "precip_24_hours": null,
    "precip_36_hours": null,
    "precip_hourly": null,
    "pressure_tendency": null,
    "sea_level_pressure": {
      "repr": "SLP056",
      "spoken": "one zero zero five point six",
      "value": 1005.6
    },
    "snow_depth": null,
    "sunshine_minutes": null,
    "temperature_decimal": {
      "repr": "0194",
      "spoken": "one nine point four",
      "value": 19.4
    }
  },
  "runway_visibility": [],
  "sanitized": "KAWO 250156Z 28004KT 10SM 19/16 A2968 RMK AO2 SLP056 T01940156",
  "station": "KAWO",
  "temperature": {
    "repr": "19",
    "spoken": "one nine",
    "value": 19
  },
  "time": {
    "dt": "2024-09-25T01:56:00Z",
    "repr": "250156Z"
  },
  "units": {
    "accumulation": "in",
    "altimeter": "inHg",
    "altitude": "ft",
    "temperature": "C",
    "visibility": "sm",
    "wind_speed": "kt"
  },
  "visibility": {
    "repr": "10",
    "spoken": "one zero",
    "value": 10
  },
  "wind_direction": {
    "repr": "280",
    "spoken": "two eight zero",
    "value": 280
  },
  "wind_gust": null,
  "wind_speed": {
    "repr": "04",
    "spoken": "four",
    "value": 4
  },
  "wind_variable_direction": [],
  "wx_codes": []
}
