{
  "altimeter": {
    "repr": "A2972",
    "spoken": "two nine point seven two",
    "value": 29.72
  },
  "clouds": [],
  "density_altitude": 1504,
  "dewpoint": {
    "repr": "17",
    "spoken": "one seven",
    "value": 17
  },
  "flight_rules": "VFR",
  "meta": {
    "stations_updated": "2024-06-12",
    "timestamp": "2024-09-24T23:40:30.973288Z"
  },
  "other": [],
  "pressure_altitude": 342,
  "raw": "KAWO 242256Z AUTO 30007KT 10SM CLR 24/17 A2972 RMK AO2 SLP068 T02440167",
  "relative_humidity": 0.6217132016689654,
  "remarks": "RMK AO2 SLP068 T02440167",
  "remarks_info": {
    "codes": [
      {
        "repr": "AO2",
        "value": "Automated with precipitation sensor"
      }
    ],
    "dewpoint_decimal": {
      "repr": "0167",
      "spoken": "one six point seven",
      "value": 16.7
    },
    "maximum_temperature_24": null,
    "maximum_temperature_6": null,
    "minimum_temperature_24": null,
    "minimum_temperature_6": null,
    "precip_24_hours": null,
    "precip_36_hours": null,
    "precip_hourly": null,
    "pressure_tendency": null,
    "sea_level_pressure": {
      "repr": "SLP068",
      "spoken": "one zero zero six point eight",
      "value": 1006.8
    },
    "snow_depth": null,
    "sunshine_minutes": null,
    "temperature_decimal": {
      "repr": "0244",
      "spoken": "two four point four",
      "value": 24.4
    }
  },
  "runway_visibility": [],
  "sanitized": "KAWO 242256Z 30007KT 10SM 24/17 A2972 RMK AO2 SLP068 T02440167",
  "station": "KAWO",
  "temperature": {
    "repr": "24",
    "spoken": "two four",
    "value": 24
  },
  "time": {
    "dt": "2024-09-24T22:56:00Z",
    "repr": "242256Z"
  },
  "units": {
    "accumulation": "in",
    "altimeter": "inHg",
    "altitude": "ft",
    "temperature": "C",
    "visibility": "sm",
    "wind_speed": "kt"
  },
  "visibility": {
    "repr": "10",
    "spoken": "one zero",
    "value": 10
  },
  "wind_direction": {
    "repr": "300",
    "spoken": "three zero zero",
    "value": 300
  },
  "wind_gust": null,
  "wind_speed": {
    "repr": "07",
    "spoken": "seven",
    "value": 7
  },
  "wind_variable_direction": [],
  "wx_codes": []
}
