{
  "meta": {
    "timestamp": "2023-10-22T23:01:41.739235Z",
    "stations_updated": "2023-10-01"
  },
  "altimeter": {
    "repr": "A2991",
    "value": 29.91,
    "spoken": "two nine point nine one"
  },
  "clouds": [
    {
      "repr": "OVC015",
      "type": "OVC",
      "altitude": 15,
      "modifier": null
    }
  ],
  "flight_rules": "MVFR",
  "other": [],
  "visibility": {
    "repr": "10",
    "value": 10,
    "spoken": "one zero"
  },
  "wind_direction": {
    "repr": "290",
    "value": 290,
    "spoken": "two nine zero"
  },
  "wind_gust": null,
  "wind_speed": {
    "repr": "06",
    "value": 6,
    "spoken": "six"
  },
  "wx_codes": [],
  "raw": "KAWO 222256Z AUTO 29006KT 10SM OVC015 12/11 A2991 RMK AO2 SLP134 T01220106 KAWO 222243Z AUTO 29009KT 10SM SCT009 OVC015 12/11 A2991 RMK AO2 KAWO 222156Z AUTO 30007KT 10SM OVC009 12/11 A2991 RMK AO2 SLP132 T01220106",
  "sanitized": "KAWO 222256Z 29006KT 10SM OVC015 12/11 A2991 RMK AO2 SLP134 T01220106 KAWO 222243Z AUTO 29009KT 10SM SCT009 OVC015 12/11 A2991 RMK AO2 KAWO 222156Z AUTO 30007KT 10SM OVC009 12/11 A2991 RMK AO2 SLP132 T01220106",
  "station": "KAWO",
  "time": {
    "repr": "222256Z",
    "dt": "2023-10-22T22:56:00Z"
  },
  "remarks": "RMK AO2 SLP134 T01220106 KAWO 222243Z AUTO 29009KT 10SM SCT009 OVC015 12/11 A2991 RMK AO2 KAWO 222156Z AUTO 30007KT 10SM OVC009 12/11 A2991 RMK AO2 SLP132 T01220106",
  "dewpoint": {
    "repr": "11",
    "value": 11,
    "spoken": "one one"
  },
  "relative_humidity": 0.8994654196028143,
  "remarks_info": {
    "maximum_temperature_6": null,
    "minimum_temperature_6": null,
    "pressure_tendency": null,
    "precip_36_hours": null,
    "precip_24_hours": null,
    "sunshine_minutes": null,
    "codes": [
      {
        "repr": "AO2",
        "value": "Automated with precipitation sensor"
      },
      {
        "repr": "AO2",
        "value": "Automated with precipitation sensor"
      },
      {
        "repr": "AO2",
        "value": "Automated with precipitation sensor"
      }
    ],
    "dewpoint_decimal": {
      "repr": "0106",
      "value": 10.6,
      "spoken": "one zero point six"
    },
    "maximum_temperature_24": null,
    "minimum_temperature_24": null,
    "precip_hourly": null,
    "sea_level_pressure": {
      "repr": "SLP134",
      "value": 1013.4,
      "spoken": "one zero one three point four"
    },
    "snow_depth": null,
    "temperature_decimal": {
      "repr": "0122",
      "value": 12.2,
      "spoken": "one two point two"
    }
  },
  "runway_visibility": [],
  "temperature": {
    "repr": "12",
    "value": 12,
    "spoken": "one two"
  },
  "wind_variable_direction": [],
  "density_altitude": -150,
  "pressure_altitude": 152,
  "units": {
    "accumulation": "in",
    "altimeter": "inHg",
    "altitude": "ft",
    "temperature": "C",
    "visibility": "sm",
    "wind_speed": "kt"
  }
}
