{
  "altimeter": {
    "repr": "A3027",
    "spoken": "three zero point two seven",
    "value": 30.27
  },
  "clouds": [
    {
      "altitude": 60,
      "modifier": null,
      "repr": "SCT060",
      "type": "SCT"
    }
  ],
  "density_altitude": -1302,
  "dewpoint": {
    "repr": "04",
    "spoken": "four",
    "value": 4
  },
  "flight_rules": "VFR",
  "meta": {
    "stations_updated": "2024-10-29",
    "timestamp": "2024-11-05T15:29:31.162664Z"
  },
  "other": [],
  "pressure_altitude": -208,
  "raw": "KAWO 051456Z AUTO 02003KT 10SM SCT060 06/04 A3027 RMK AO2 SLP258 60000 T00560044 51012",
  "relative_humidity": 0.9197884374087767,
  "remarks": "RMK AO2 SLP258 60000 T00560044 51012",
  "remarks_info": {
    "codes": [
      {
        "repr": "AO2",
        "value": "Automated with precipitation sensor"
      }
    ],
    "dewpoint_decimal": {
      "repr": "0044",
      "spoken": "four point four",
      "value": 4.4
    },
    "maximum_temperature_24": null,
    "maximum_temperature_6": null,
    "minimum_temperature_24": null,
    "minimum_temperature_6": null,
    "precip_24_hours": null,
    "precip_36_hours": {
      "repr": "60000",
      "spoken": "zero",
      "value": 0
    },
    "precip_hourly": null,
    "pressure_tendency": {
      "change": 1.2,
      "repr": "51012",
      "tendency": "Increasing, then steady"
    },
    "sea_level_pressure": {
      "repr": "SLP258",
      "spoken": "one zero two five point eight",
      "value": 1025.8
    },
    "snow_depth": null,
    "sunshine_minutes": null,
    "temperature_decimal": {
      "repr": "0056",
      "spoken": "five point six",
      "value": 5.6
    }
  },
  "runway_visibility": [],
  "sanitized": "KAWO 051456Z 02003KT 10SM SCT060 06/04 A3027 RMK AO2 SLP258 60000 T00560044 51012",
  "station": "KAWO",
  "temperature": {
    "repr": "06",
    "spoken": "six",
    "value": 6
  },
  "time": {
    "dt": "2024-11-05T14:56:00Z",
    "repr": "051456Z"
  },
  "units": {
    "accumulation": "in",
    "altimeter": "inHg",
    "altitude": "ft",
    "temperature": "C",
    "visibility": "sm",
    "wind_speed": "kt"
  },
  "visibility": {
    "repr": "10",
    "spoken": "one zero",
    "value": 10
  },
  "wind_direction": {
    "repr": "020",
    "spoken": "zero two zero",
    "value": 20
  },
  "wind_gust": null,
  "wind_speed": {
    "repr": "03",
    "spoken": "three",
    "value": 3
  },
  "wind_variable_direction": [],
  "wx_codes": []
}
