{
  "meta": {
    "timestamp": "2022-11-28T10:43:49.032355Z",
    "stations_updated": "2022-09-05"
  },
  "altimeter": {
    "repr": "A2983",
    "value": 29.83,
    "spoken": "two nine point eight three"
  },
  "clouds": [
    {
      "repr": "BKN006",
      "type": "BKN",
      "altitude": 6,
      "modifier": null
    },
    {
      "repr": "BKN014",
      "type": "BKN",
      "altitude": 14,
      "modifier": null
    },
    {
      "repr": "OVC022",
      "type": "OVC",
      "altitude": 22,
      "modifier": null
    }
  ],
  "flight_rules": "IFR",
  "other": [],
  "visibility": {
    "repr": "10",
    "value": 10,
    "spoken": "one zero"
  },
  "wind_direction": {
    "repr": "050",
    "value": 50,
    "spoken": "zero five zero"
  },
  "wind_gust": null,
  "wind_speed": {
    "repr": "05",
    "value": 5,
    "spoken": "five"
  },
  "wx_codes": [
    {
      "repr": "-RA",
      "value": "Light Rain"
    }
  ],
  "raw": "KAWO 281028Z AUTO 05005KT 10SM -RA BKN006 BKN014 OVC022 01/00 A2983 RMK AO2 UPB16E17RAB17SNE16 CIG 004V010 P0005 FZRANO",
  "sanitized": "KAWO 281028Z 05005KT 10SM -RA BKN006 BKN014 OVC022 01/00 A2983 RMK AO2 UPB16E17RAB17SNE16 CIG 004V010 P0005 FZRANO",
  "station": "KAWO",
  "time": {
    "repr": "281028Z",
    "dt": "2022-11-28T10:28:00Z"
  },
  "remarks": "RMK AO2 UPB16E17RAB17SNE16 CIG 004V010 P0005 FZRANO",
  "dewpoint": {
    "repr": "00",
    "value": 0,
    "spoken": "zero"
  },
  "relative_humidity": 0.9302797434565105,
  "remarks_info": {
    "maximum_temperature_6": null,
    "minimum_temperature_6": null,
    "pressure_tendency": null,
    "precip_36_hours": null,
    "precip_24_hours": null,
    "sunshine_minutes": null,
    "codes": [
      {
        "repr": "AO2",
        "value": "Automated with precipitation sensor"
      },
      {
        "repr": "FZRANO",
        "value": "Freezing rain information not available"
      }
    ],
    "dewpoint_decimal": null,
    "maximum_temperature_24": null,
    "minimum_temperature_24": null,
    "precip_hourly": {
      "repr": "P0005",
      "value": 0.05,
      "spoken": "zero point zero five"
    },
    "sea_level_pressure": null,
    "snow_depth": null,
    "temperature_decimal": null
  },
  "runway_visibility": [],
  "temperature": {
    "repr": "01",
    "value": 1,
    "spoken": "one"
  },
  "wind_variable_direction": [],
  "density_altitude": -1414,
  "pressure_altitude": 232,
  "units": {
    "accumulation": "in",
    "altimeter": "inHg",
    "altitude": "ft",
    "temperature": "C",
    "visibility": "sm",
    "wind_speed": "kt"
  }
}
