{
  "meta": {
    "timestamp": "2022-12-20T01:59:41.946084Z",
    "stations_updated": "2022-09-05"
  },
  "altimeter": {
    "repr": "A3029",
    "value": 30.29,
    "spoken": "three zero point two nine"
  },
  "clouds": [
    {
      "repr": "OVC035",
      "type": "OVC",
      "altitude": 35,
      "modifier": null
    }
  ],
  "flight_rules": "MVFR",
  "other": [],
  "visibility": {
    "repr": "4",
    "value": 4,
    "spoken": "four"
  },
  "wind_direction": {
    "repr": "310",
    "value": 310,
    "spoken": "three one zero"
  },
  "wind_gust": null,
  "wind_speed": {
    "repr": "05",
    "value": 5,
    "spoken": "five"
  },
  "wx_codes": [
    {
      "repr": "-SN",
      "value": "Light Snow"
    },
    {
      "repr": "BR",
      "value": "Mist"
    }
  ],
  "raw": "KAWO 200156Z AUTO 31005KT 4SM -SN BR OVC035 M04/M06 A3029 RMK AO2 SNB01 SLP263 P0000 T10391056 FZRANO",
  "sanitized": "KAWO 200156Z 31005KT 4SM -SN BR OVC035 M04/M06 A3029 RMK AO2 SNB01 SLP263 P0000 T10391056 FZRANO",
  "station": "KAWO",
  "time": {
    "repr": "200156Z",
    "dt": "2022-12-20T01:56:00Z"
  },
  "remarks": "RMK AO2 SNB01 SLP263 P0000 T10391056 FZRANO",
  "dewpoint": {
    "repr": "M06",
    "value": -6,
    "spoken": "minus six"
  },
  "relative_humidity": 0.8795695763685809,
  "remarks_info": {
    "maximum_temperature_6": null,
    "minimum_temperature_6": null,
    "pressure_tendency": null,
    "precip_36_hours": null,
    "precip_24_hours": null,
    "sunshine_minutes": null,
    "codes": [
      {
        "repr": "AO2",
        "value": "Automated with precipitation sensor"
      },
      {
        "repr": "FZRANO",
        "value": "Freezing rain information not available"
      },
      {
        "repr": "P0000",
        "value": "Trace amount of rain in the last hour"
      },
      {
        "repr": "SNB01",
        "value": "Snow began at :01"
      }
    ],
    "dewpoint_decimal": {
      "repr": "1056",
      "value": -5.6,
      "spoken": "minus five point six"
    },
    "maximum_temperature_24": null,
    "minimum_temperature_24": null,
    "precip_hourly": null,
    "sea_level_pressure": {
      "repr": "SLP263",
      "value": 1026.3,
      "spoken": "one zero two six point three"
    },
    "snow_depth": null,
    "temperature_decimal": {
      "repr": "1039",
      "value": -3.9,
      "spoken": "minus three point nine"
    }
  },
  "runway_visibility": [],
  "temperature": {
    "repr": "M04",
    "value": -4,
    "spoken": "minus four"
  },
  "wind_variable_direction": [],
  "density_altitude": -2462,
  "pressure_altitude": -228,
  "units": {
    "accumulation": "in",
    "altimeter": "inHg",
    "altitude": "ft",
    "temperature": "C",
    "visibility": "sm",
    "wind_speed": "kt"
  }
}
