{
  "meta": {
    "timestamp": "2022-12-12T02:06:59.389222Z",
    "stations_updated": "2022-09-05"
  },
  "altimeter": {
    "repr": "A2984",
    "value": 29.84,
    "spoken": "two nine point eight four"
  },
  "clouds": [
    {
      "repr": "OVC010",
      "type": "OVC",
      "altitude": 10,
      "modifier": null
    }
  ],
  "flight_rules": "MVFR",
  "other": [],
  "visibility": {
    "repr": "10",
    "value": 10,
    "spoken": "one zero"
  },
  "wind_direction": {
    "repr": "000",
    "value": 0,
    "spoken": "zero zero zero"
  },
  "wind_gust": null,
  "wind_speed": {
    "repr": "00",
    "value": 0,
    "spoken": "zero"
  },
  "wx_codes": [],
  "raw": "KAWO 120156Z AUTO 00000KT 10SM OVC010 06/04 A2984 RMK AO2 SLP111 T00610044",
  "sanitized": "KAWO 120156Z 00000KT 10SM OVC010 06/04 A2984 RMK AO2 SLP111 T00610044",
  "station": "KAWO",
  "time": {
    "repr": "120156Z",
    "dt": "2022-12-12T01:56:00Z"
  },
  "remarks": "RMK AO2 SLP111 T00610044",
  "dewpoint": {
    "repr": "04",
    "value": 4,
    "spoken": "four"
  },
  "relative_humidity": 0.8885072425154702,
  "remarks_info": {
    "maximum_temperature_6": null,
    "minimum_temperature_6": null,
    "pressure_tendency": null,
    "precip_36_hours": null,
    "precip_24_hours": null,
    "sunshine_minutes": null,
    "codes": [
      {
        "repr": "AO2",
        "value": "Automated with precipitation sensor"
      }
    ],
    "dewpoint_decimal": {
      "repr": "0044",
      "value": 4.4,
      "spoken": "four point four"
    },
    "maximum_temperature_24": null,
    "minimum_temperature_24": null,
    "precip_hourly": null,
    "sea_level_pressure": {
      "repr": "SLP111",
      "value": 1011.1,
      "spoken": "one zero one one point one"
    },
    "snow_depth": null,
    "temperature_decimal": {
      "repr": "0061",
      "value": 6.1,
      "spoken": "six point one"
    }
  },
  "runway_visibility": [],
  "temperature": {
    "repr": "06",
    "value": 6,
    "spoken": "six"
  },
  "wind_variable_direction": [],
  "density_altitude": -812,
  "pressure_altitude": 222,
  "units": {
    "accumulation": "in",
    "altimeter": "inHg",
    "altitude": "ft",
    "temperature": "C",
    "visibility": "sm",
    "wind_speed": "kt"
  }
}
