{
  "meta": {
    "timestamp": "2023-01-14T23:40:39.794161Z",
    "stations_updated": "2022-12-27",
    "cache-timestamp": "2023-01-14T23:40:13.700000Z"
  },
  "altimeter": {
    "repr": "A2933",
    "value": 29.33,
    "spoken": "two nine point three three"
  },
  "clouds": [],
  "flight_rules": "VFR",
  "other": [],
  "visibility": {
    "repr": "10",
    "value": 10,
    "spoken": "one zero"
  },
  "wind_direction": {
    "repr": "010",
    "value": 10,
    "spoken": "zero one zero"
  },
  "wind_gust": null,
  "wind_speed": {
    "repr": "06",
    "value": 6,
    "spoken": "six"
  },
  "wx_codes": [],
  "raw": "KAWO 142256Z AUTO 01006KT 10SM CLR 13/07 A2933 RMK AO2 SLP938 T01330067",
  "sanitized": "KAWO 142256Z 01006KT 10SM 13/07 A2933 RMK AO2 SLP938 T01330067",
  "station": "KAWO",
  "time": {
    "repr": "142256Z",
    "dt": "2023-01-14T22:56:00Z"
  },
  "remarks": "RMK AO2 SLP938 T01330067",
  "dewpoint": {
    "repr": "07",
    "value": 7,
    "spoken": "seven"
  },
  "relative_humidity": 0.6427660829058479,
  "remarks_info": {
    "maximum_temperature_6": null,
    "minimum_temperature_6": null,
    "pressure_tendency": null,
    "precip_36_hours": null,
    "precip_24_hours": null,
    "sunshine_minutes": null,
    "codes": [
      {
        "repr": "AO2",
        "value": "Automated with precipitation sensor"
      }
    ],
    "dewpoint_decimal": {
      "repr": "0067",
      "value": 6.7,
      "spoken": "six point seven"
    },
    "maximum_temperature_24": null,
    "minimum_temperature_24": null,
    "precip_hourly": null,
    "sea_level_pressure": {
      "repr": "SLP938",
      "value": 993.8,
      "spoken": "nine nine three point eight"
    },
    "snow_depth": null,
    "temperature_decimal": {
      "repr": "0133",
      "value": 13.3,
      "spoken": "one three point three"
    }
  },
  "runway_visibility": [],
  "temperature": {
    "repr": "13",
    "value": 13,
    "spoken": "one three"
  },
  "wind_variable_direction": [],
  "density_altitude": 562,
  "pressure_altitude": 732,
  "units": {
    "accumulation": "in",
    "altimeter": "inHg",
    "altitude": "ft",
    "temperature": "C",
    "visibility": "sm",
    "wind_speed": "kt"
  }
}
