{
  "meta": {
    "timestamp": "2023-02-23T09:26:58.845044Z",
    "stations_updated": "2023-01-30",
    "cache-timestamp": "2023-02-23T09:26:07.788000Z"
  },
  "altimeter": {
    "repr": "A2966",
    "value": 29.66,
    "spoken": "two nine point six six"
  },
  "clouds": [],
  "flight_rules": "VFR",
  "other": [],
  "visibility": {
    "repr": "10",
    "value": 10,
    "spoken": "one zero"
  },
  "wind_direction": {
    "repr": "110",
    "value": 110,
    "spoken": "one one zero"
  },
  "wind_gust": null,
  "wind_speed": {
    "repr": "04",
    "value": 4,
    "spoken": "four"
  },
  "wx_codes": [],
  "raw": "KAWO 230856Z AUTO 11004KT 10SM CLR M02/M05 A2966 RMK AO2 SLP051 T10171050 51007 FZRANO",
  "sanitized": "KAWO 230856Z 11004KT 10SM M02/M05 A2966 RMK AO2 SLP051 T10171050 51007 FZRANO",
  "station": "KAWO",
  "time": {
    "repr": "230856Z",
    "dt": "2023-02-23T08:56:00Z"
  },
  "remarks": "RMK AO2 SLP051 T10171050 51007 FZRANO",
  "dewpoint": {
    "repr": "M05",
    "value": -5,
    "spoken": "minus five"
  },
  "relative_humidity": 0.7817584431821742,
  "remarks_info": {
    "maximum_temperature_6": null,
    "minimum_temperature_6": null,
    "pressure_tendency": {
      "repr": "51007",
      "tendency": "Increasing, then steady",
      "change": 0.7
    },
    "precip_36_hours": null,
    "precip_24_hours": null,
    "sunshine_minutes": null,
    "codes": [
      {
        "repr": "AO2",
        "value": "Automated with precipitation sensor"
      },
      {
        "repr": "FZRANO",
        "value": "Freezing rain information not available"
      }
    ],
    "dewpoint_decimal": {
      "repr": "1050",
      "value": -5,
      "spoken": "minus five point zero"
    },
    "maximum_temperature_24": null,
    "minimum_temperature_24": null,
    "precip_hourly": null,
    "sea_level_pressure": {
      "repr": "SLP051",
      "value": 1005.1,
      "spoken": "one zero zero five point one"
    },
    "snow_depth": null,
    "temperature_decimal": {
      "repr": "1017",
      "value": -1.7,
      "spoken": "minus one point seven"
    }
  },
  "runway_visibility": [],
  "temperature": {
    "repr": "M02",
    "value": -2,
    "spoken": "minus two"
  },
  "wind_variable_direction": [],
  "density_altitude": -1568,
  "pressure_altitude": 402,
  "units": {
    "accumulation": "in",
    "altimeter": "inHg",
    "altitude": "ft",
    "temperature": "C",
    "visibility": "sm",
    "wind_speed": "kt"
  }
}
