{
  "meta": {
    "timestamp": "2023-03-04T18:31:53.255372Z",
    "stations_updated": "2023-01-30"
  },
  "altimeter": {
    "repr": "A2950",
    "value": 29.5,
    "spoken": "two nine point five zero"
  },
  "clouds": [],
  "flight_rules": "VFR",
  "other": [],
  "visibility": {
    "repr": "10",
    "value": 10,
    "spoken": "one zero"
  },
  "wind_direction": {
    "repr": "010",
    "value": 10,
    "spoken": "zero one zero"
  },
  "wind_gust": null,
  "wind_speed": {
    "repr": "10",
    "value": 10,
    "spoken": "one zero"
  },
  "wx_codes": [
    {
      "repr": "-RA",
      "value": "Light Rain"
    }
  ],
  "raw": "KAWO 041756Z AUTO 01010KT 10SM -RA CLR 03/02 A2950 RMK AO2 SLP994 P0001 60002 T00280017 10039 20022 58018",
  "sanitized": "KAWO 041756Z 01010KT 10SM -RA 03/02 A2950 RMK AO2 SLP994 P0001 60002 T00280017 10039 20022 58018",
  "station": "KAWO",
  "time": {
    "repr": "041756Z",
    "dt": "2023-03-04T17:56:00Z"
  },
  "remarks": "RMK AO2 SLP994 P0001 60002 T00280017 10039 20022 58018",
  "dewpoint": {
    "repr": "02",
    "value": 2,
    "spoken": "two"
  },
  "relative_humidity": 0.9246233415824485,
  "remarks_info": {
    "maximum_temperature_6": {
      "repr": "10039",
      "value": 3.9,
      "spoken": "three point nine"
    },
    "minimum_temperature_6": {
      "repr": "20022",
      "value": 2.2,
      "spoken": "two point two"
    },
    "pressure_tendency": {
      "repr": "58018",
      "tendency": "Steady or increasing, then decreasing",
      "change": 1.8
    },
    "precip_36_hours": {
      "repr": "60002",
      "value": 0.02,
      "spoken": "zero point zero two"
    },
    "precip_24_hours": null,
    "sunshine_minutes": null,
    "codes": [
      {
        "repr": "AO2",
        "value": "Automated with precipitation sensor"
      }
    ],
    "dewpoint_decimal": {
      "repr": "0017",
      "value": 1.7,
      "spoken": "one point seven"
    },
    "maximum_temperature_24": null,
    "minimum_temperature_24": null,
    "precip_hourly": {
      "repr": "P0001",
      "value": 0.01,
      "spoken": "zero point zero one"
    },
    "sea_level_pressure": {
      "repr": "SLP994",
      "value": 999.4,
      "spoken": "nine nine nine point four"
    },
    "snow_depth": null,
    "temperature_decimal": {
      "repr": "0028",
      "value": 2.8,
      "spoken": "two point eight"
    }
  },
  "runway_visibility": [],
  "temperature": {
    "repr": "03",
    "value": 3,
    "spoken": "three"
  },
  "wind_variable_direction": [],
  "density_altitude": -868,
  "pressure_altitude": 562,
  "units": {
    "accumulation": "in",
    "altimeter": "inHg",
    "altitude": "ft",
    "temperature": "C",
    "visibility": "sm",
    "wind_speed": "kt"
  }
}
