{
  "altimeter": {
    "repr": "A3010",
    "spoken": "three zero point one zero",
    "value": 30.1
  },
  "clouds": [
    {
      "altitude": 29,
      "modifier": null,
      "repr": "BKN029",
      "type": "BKN"
    }
  ],
  "density_altitude": -1132,
  "dewpoint": {
    "repr": "03",
    "spoken": "three",
    "value": 3
  },
  "flight_rules": "MVFR",
  "meta": {
    "cache-timestamp": "2024-04-30T09:40:03.043000Z",
    "stations_updated": "2024-01-01",
    "timestamp": "2024-04-30T09:40:28.754426Z"
  },
  "other": [],
  "pressure_altitude": -38,
  "raw": "KAWO 300856Z AUTO 13006KT 10SM BKN029 06/03 A3010 RMK AO2 SLP196 6//// T00560033 51001 PNO $",
  "relative_humidity": 0.8513177604096042,
  "remarks": "RMK AO2 SLP196 6//// T00560033 51001 PNO $",
  "remarks_info": {
    "codes": [
      {
        "repr": "$",
        "value": "ASOS requires maintenance"
      },
      {
        "repr": "AO2",
        "value": "Automated with precipitation sensor"
      },
      {
        "repr": "PNO",
        "value": "Precipitation amount not available"
      }
    ],
    "dewpoint_decimal": {
      "repr": "0033",
      "spoken": "three point three",
      "value": 3.3
    },
    "maximum_temperature_24": null,
    "maximum_temperature_6": null,
    "minimum_temperature_24": null,
    "minimum_temperature_6": null,
    "precip_24_hours": null,
    "precip_36_hours": null,
    "precip_hourly": null,
    "pressure_tendency": {
      "change": 0.1,
      "repr": "51001",
      "tendency": "Increasing, then steady"
    },
    "sea_level_pressure": {
      "repr": "SLP196",
      "spoken": "one zero one nine point six",
      "value": 1019.6
    },
    "snow_depth": null,
    "sunshine_minutes": null,
    "temperature_decimal": {
      "repr": "0056",
      "spoken": "five point six",
      "value": 5.6
    }
  },
  "runway_visibility": [],
  "sanitized": "KAWO 300856Z 13006KT 10SM BKN029 06/03 A3010 RMK AO2 SLP196 6//// T00560033 51001 PNO $",
  "station": "KAWO",
  "temperature": {
    "repr": "06",
    "spoken": "six",
    "value": 6
  },
  "time": {
    "dt": "2024-04-30T08:56:00Z",
    "repr": "300856Z"
  },
  "units": {
    "accumulation": "in",
    "altimeter": "inHg",
    "altitude": "ft",
    "temperature": "C",
    "visibility": "sm",
    "wind_speed": "kt"
  },
  "visibility": {
    "repr": "10",
    "spoken": "one zero",
    "value": 10
  },
  "wind_direction": {
    "repr": "130",
    "spoken": "one three zero",
    "value": 130
  },
  "wind_gust": null,
  "wind_speed": {
    "repr": "06",
    "spoken": "six",
    "value": 6
  },
  "wind_variable_direction": [],
  "wx_codes": []
}
