{
  "meta": {
    "timestamp": "2023-02-28T14:28:22.689711Z",
    "stations_updated": "2023-01-30",
    "cache-timestamp": "2023-02-28T14:28:07.197000Z"
  },
  "altimeter": {
    "repr": "A2941",
    "value": 29.41,
    "spoken": "two nine point four one"
  },
  "clouds": [
    {
      "repr": "OVC012",
      "type": "OVC",
      "altitude": 12,
      "modifier": null
    }
  ],
  "flight_rules": "MVFR",
  "other": [],
  "visibility": {
    "repr": "10",
    "value": 10,
    "spoken": "one zero"
  },
  "wind_direction": {
    "repr": "130",
    "value": 130,
    "spoken": "one three zero"
  },
  "wind_gust": null,
  "wind_speed": {
    "repr": "13",
    "value": 13,
    "spoken": "one three"
  },
  "wx_codes": [
    {
      "repr": "UP",
      "value": "Unknown Precip"
    }
  ],
  "raw": "KAWO 281356Z AUTO 13013KT 10SM UP OVC012 01/01 A2941 RMK AO2 RAE1259B28E54UPB54SNB1259E28 SLP965 P0003 T00110006 FZRANO",
  "sanitized": "KAWO 281356Z 13013KT 10SM UP OVC012 01/01 A2941 RMK AO2 RAE1259B28E54UPB54SNB1259E28 SLP965 P0003 T00110006 FZRANO",
  "station": "KAWO",
  "time": {
    "repr": "281356Z",
    "dt": "2023-02-28T13:56:00Z"
  },
  "remarks": "RMK AO2 RAE1259B28E54UPB54SNB1259E28 SLP965 P0003 T00110006 FZRANO",
  "dewpoint": {
    "repr": "01",
    "value": 1,
    "spoken": "one"
  },
  "relative_humidity": 0.9646099922239331,
  "remarks_info": {
    "maximum_temperature_6": null,
    "minimum_temperature_6": null,
    "pressure_tendency": null,
    "precip_36_hours": null,
    "precip_24_hours": null,
    "sunshine_minutes": null,
    "codes": [
      {
        "repr": "AO2",
        "value": "Automated with precipitation sensor"
      },
      {
        "repr": "FZRANO",
        "value": "Freezing rain information not available"
      }
    ],
    "dewpoint_decimal": {
      "repr": "0006",
      "value": 0.6,
      "spoken": "zero point six"
    },
    "maximum_temperature_24": null,
    "minimum_temperature_24": null,
    "precip_hourly": {
      "repr": "P0003",
      "value": 0.03,
      "spoken": "zero point zero three"
    },
    "sea_level_pressure": {
      "repr": "SLP965",
      "value": 996.5,
      "spoken": "nine nine six point five"
    },
    "snow_depth": null,
    "temperature_decimal": {
      "repr": "0011",
      "value": 1.1,
      "spoken": "one point one"
    }
  },
  "runway_visibility": [],
  "temperature": {
    "repr": "01",
    "value": 1,
    "spoken": "one"
  },
  "wind_variable_direction": [],
  "density_altitude": -982,
  "pressure_altitude": 652,
  "units": {
    "accumulation": "in",
    "altimeter": "inHg",
    "altitude": "ft",
    "temperature": "C",
    "visibility": "sm",
    "wind_speed": "kt"
  }
}
