{
  "meta": {
    "timestamp": "2022-11-16T00:33:03.696334Z",
    "stations_updated": "2022-09-05"
  },
  "altimeter": {
    "repr": "A3054",
    "value": 30.54,
    "spoken": "three zero point five four"
  },
  "clouds": [],
  "flight_rules": "VFR",
  "other": [],
  "visibility": {
    "repr": "10",
    "value": 10,
    "spoken": "one zero"
  },
  "wind_direction": {
    "repr": "310",
    "value": 310,
    "spoken": "three one zero"
  },
  "wind_gust": null,
  "wind_speed": {
    "repr": "04",
    "value": 4,
    "spoken": "four"
  },
  "wx_codes": [],
  "raw": "KAWO 152356Z AUTO 31004KT 10SM CLR 08/03 A3054 RMK AO2 SLP349 T00830028 10100 20028 53000",
  "sanitized": "KAWO 152356Z 31004KT 10SM 08/03 A3054 RMK AO2 SLP349 T00830028 10100 20028 53000",
  "station": "KAWO",
  "time": {
    "repr": "152356Z",
    "dt": "2022-11-15T23:56:00Z"
  },
  "remarks": "RMK AO2 SLP349 T00830028 10100 20028 53000",
  "dewpoint": {
    "repr": "03",
    "value": 3,
    "spoken": "three"
  },
  "relative_humidity": 0.6827862826372221,
  "remarks_info": {
    "maximum_temperature_6": {
      "repr": "10100",
      "value": 10,
      "spoken": "one zero point zero"
    },
    "minimum_temperature_6": {
      "repr": "20028",
      "value": 2.8,
      "spoken": "two point eight"
    },
    "pressure_tendency": {
      "repr": "53000",
      "tendency": "Decreasing or steady, then increasing",
      "change": 0
    },
    "precip_36_hours": null,
    "precip_24_hours": null,
    "sunshine_minutes": null,
    "codes": [
      {
        "repr": "AO2",
        "value": "Automated with precipitation sensor"
      }
    ],
    "dewpoint_decimal": {
      "repr": "0028",
      "value": 2.8,
      "spoken": "two point eight"
    },
    "maximum_temperature_24": null,
    "minimum_temperature_24": null,
    "precip_hourly": null,
    "sea_level_pressure": {
      "repr": "SLP349",
      "value": 1034.9,
      "spoken": "one zero three four point nine"
    },
    "snow_depth": null,
    "temperature_decimal": {
      "repr": "0083",
      "value": 8.3,
      "spoken": "eight point three"
    }
  },
  "runway_visibility": [],
  "temperature": {
    "repr": "08",
    "value": 8,
    "spoken": "eight"
  },
  "wind_variable_direction": [],
  "density_altitude": -1248,
  "pressure_altitude": -478,
  "units": {
    "accumulation": "in",
    "altimeter": "inHg",
    "altitude": "ft",
    "temperature": "C",
    "visibility": "sm",
    "wind_speed": "kt"
  }
}
