{
  "meta": {
    "timestamp": "2022-07-28T22:43:11.047419Z",
    "stations_updated": "2022-07-17"
  },
  "altimeter": {
    "repr": "A2993",
    "value": 29.93,
    "spoken": "two nine point nine three"
  },
  "clouds": [],
  "flight_rules": "VFR",
  "other": [],
  "visibility": {
    "repr": "10",
    "value": 10,
    "spoken": "one zero"
  },
  "wind_direction": {
    "repr": "310",
    "value": 310,
    "spoken": "three one zero"
  },
  "wind_gust": null,
  "wind_speed": {
    "repr": "12",
    "value": 12,
    "spoken": "one two"
  },
  "wx_codes": [],
  "raw": "KAWO 282156Z AUTO 31012KT 10SM CLR 31/18 A2993 RMK AO2 SLP138 T03060183",
  "sanitized": "KAWO 282156Z 31012KT 10SM 31/18 A2993 RMK AO2 SLP138 T03060183",
  "station": "KAWO",
  "time": {
    "repr": "282156Z",
    "dt": "2022-07-28T21:56:00Z"
  },
  "remarks": "RMK AO2 SLP138 T03060183",
  "dewpoint": {
    "repr": "18",
    "value": 18,
    "spoken": "one eight"
  },
  "relative_humidity": 0.4783082541894531,
  "remarks_info": {
    "maximum_temperature_6": null,
    "minimum_temperature_6": null,
    "pressure_tendency": null,
    "precip_36_hours": null,
    "precip_24_hours": null,
    "sunshine_minutes": null,
    "codes": [
      {
        "repr": "AO2",
        "value": "Automated with precipitation sensor"
      }
    ],
    "dewpoint_decimal": {
      "repr": "0183",
      "value": 18.3,
      "spoken": "one eight point three"
    },
    "maximum_temperature_24": null,
    "minimum_temperature_24": null,
    "precip_hourly": null,
    "sea_level_pressure": {
      "repr": "SLP138",
      "value": 1013.8,
      "spoken": "one zero one three point eight"
    },
    "snow_depth": null,
    "temperature_decimal": {
      "repr": "0306",
      "value": 30.6,
      "spoken": "three zero point six"
    }
  },
  "runway_visibility": [],
  "temperature": {
    "repr": "31",
    "value": 31,
    "spoken": "three one"
  },
  "wind_variable_direction": [],
  "density_altitude": 2038,
  "pressure_altitude": 132,
  "units": {
    "accumulation": "in",
    "altimeter": "inHg",
    "altitude": "ft",
    "temperature": "C",
    "visibility": "sm",
    "wind_speed": "kt"
  }
}
