{
  "meta": {
    "timestamp": "2023-08-04T06:27:22.874622Z",
    "stations_updated": "2023-06-06"
  },
  "altimeter": {
    "repr": "A3013",
    "value": 30.13,
    "spoken": "three zero point one three"
  },
  "clouds": [],
  "flight_rules": "VFR",
  "other": [],
  "visibility": {
    "repr": "10",
    "value": 10,
    "spoken": "one zero"
  },
  "wind_direction": {
    "repr": "020",
    "value": 20,
    "spoken": "zero two zero"
  },
  "wind_gust": null,
  "wind_speed": {
    "repr": "06",
    "value": 6,
    "spoken": "six"
  },
  "wx_codes": [],
  "raw": "KAWO 040556Z AUTO 02006KT 10SM 16/11 A3013 RMK AO2 SLP205 T01610111 10272 20161 51014 $",
  "sanitized": "KAWO 040556Z 02006KT 10SM 16/11 A3013 RMK AO2 SLP205 T01610111 10272 20161 51014 $",
  "station": "KAWO",
  "time": {
    "repr": "040556Z",
    "dt": "2023-08-04T05:56:00Z"
  },
  "remarks": "RMK AO2 SLP205 T01610111 10272 20161 51014 $",
  "dewpoint": {
    "repr": "11",
    "value": 11,
    "spoken": "one one"
  },
  "relative_humidity": 0.7221708139162972,
  "remarks_info": {
    "maximum_temperature_6": {
      "repr": "10272",
      "value": 27.2,
      "spoken": "two seven point two"
    },
    "minimum_temperature_6": {
      "repr": "20161",
      "value": 16.1,
      "spoken": "one six point one"
    },
    "pressure_tendency": {
      "repr": "51014",
      "tendency": "Increasing, then steady",
      "change": 1.4
    },
    "precip_36_hours": null,
    "precip_24_hours": null,
    "sunshine_minutes": null,
    "codes": [
      {
        "repr": "$",
        "value": "ASOS requires maintenance"
      },
      {
        "repr": "AO2",
        "value": "Automated with precipitation sensor"
      }
    ],
    "dewpoint_decimal": {
      "repr": "0111",
      "value": 11.1,
      "spoken": "one one point one"
    },
    "maximum_temperature_24": null,
    "minimum_temperature_24": null,
    "precip_hourly": null,
    "sea_level_pressure": {
      "repr": "SLP205",
      "value": 1020.5,
      "spoken": "one zero two zero point five"
    },
    "snow_depth": null,
    "temperature_decimal": {
      "repr": "0161",
      "value": 16.1,
      "spoken": "one six point one"
    }
  },
  "runway_visibility": [],
  "temperature": {
    "repr": "16",
    "value": 16,
    "spoken": "one six"
  },
  "wind_variable_direction": [],
  "density_altitude": 98,
  "pressure_altitude": -68,
  "units": {
    "accumulation": "in",
    "altimeter": "inHg",
    "altitude": "ft",
    "temperature": "C",
    "visibility": "sm",
    "wind_speed": "kt"
  }
}
