{
  "altimeter": {
    "repr": "A2984",
    "spoken": "two nine point eight four",
    "value": 29.84
  },
  "clouds": [
    {
      "altitude": 65,
      "modifier": null,
      "repr": "BKN065",
      "type": "BKN"
    },
    {
      "altitude": 80,
      "modifier": null,
      "repr": "OVC080",
      "type": "OVC"
    }
  ],
  "density_altitude": 2392,
  "dewpoint": {
    "repr": "13",
    "spoken": "one three",
    "value": 13
  },
  "flight_rules": "VFR",
  "meta": {
    "stations_updated": "2024-06-12",
    "timestamp": "2024-07-10T00:30:38.326067Z"
  },
  "other": [],
  "pressure_altitude": 222,
  "raw": "KAWO 092356Z AUTO 29011KT 10SM BKN065 OVC080 33/13 A2984 RMK AO2 SLP106 T03280133 10333 20272 58010",
  "relative_humidity": 0.3065172825400975,
  "remarks": "RMK AO2 SLP106 T03280133 10333 20272 58010",
  "remarks_info": {
    "codes": [
      {
        "repr": "AO2",
        "value": "Automated with precipitation sensor"
      }
    ],
    "dewpoint_decimal": {
      "repr": "0133",
      "spoken": "one three point three",
      "value": 13.3
    },
    "maximum_temperature_24": null,
    "maximum_temperature_6": {
      "repr": "10333",
      "spoken": "three three point three",
      "value": 33.3
    },
    "minimum_temperature_24": null,
    "minimum_temperature_6": {
      "repr": "20272",
      "spoken": "two seven point two",
      "value": 27.2
    },
    "precip_24_hours": null,
    "precip_36_hours": null,
    "precip_hourly": null,
    "pressure_tendency": {
      "change": 1,
      "repr": "58010",
      "tendency": "Steady or increasing, then decreasing"
    },
    "sea_level_pressure": {
      "repr": "SLP106",
      "spoken": "one zero one zero point six",
      "value": 1010.6
    },
    "snow_depth": null,
    "sunshine_minutes": null,
    "temperature_decimal": {
      "repr": "0328",
      "spoken": "three two point eight",
      "value": 32.8
    }
  },
  "runway_visibility": [],
  "sanitized": "KAWO 092356Z 29011KT 10SM BKN065 OVC080 33/13 A2984 RMK AO2 SLP106 T03280133 10333 20272 58010",
  "station": "KAWO",
  "temperature": {
    "repr": "33",
    "spoken": "three three",
    "value": 33
  },
  "time": {
    "dt": "2024-07-09T23:56:00Z",
    "repr": "092356Z"
  },
  "units": {
    "accumulation": "in",
    "altimeter": "inHg",
    "altitude": "ft",
    "temperature": "C",
    "visibility": "sm",
    "wind_speed": "kt"
  },
  "visibility": {
    "repr": "10",
    "spoken": "one zero",
    "value": 10
  },
  "wind_direction": {
    "repr": "290",
    "spoken": "two nine zero",
    "value": 290
  },
  "wind_gust": null,
  "wind_speed": {
    "repr": "11",
    "spoken": "one one",
    "value": 11
  },
  "wind_variable_direction": [],
  "wx_codes": []
}
