{
  "meta": {
    "timestamp": "2022-11-05T00:36:38.793536Z",
    "stations_updated": "2022-09-05"
  },
  "altimeter": {
    "repr": "A2949",
    "value": 29.49,
    "spoken": "two nine point four nine"
  },
  "clouds": [
    {
      "repr": "OVC012",
      "type": "OVC",
      "altitude": 12,
      "modifier": null
    }
  ],
  "flight_rules": "MVFR",
  "other": [],
  "visibility": {
    "repr": "10",
    "value": 10,
    "spoken": "one zero"
  },
  "wind_direction": {
    "repr": "010",
    "value": 10,
    "spoken": "zero one zero"
  },
  "wind_gust": null,
  "wind_speed": {
    "repr": "03",
    "value": 3,
    "spoken": "three"
  },
  "wx_codes": [],
  "raw": "KAWO 042356Z AUTO 01003KT 10SM OVC012 08/08 A2949 RMK AO2 RAE47 SLP989 P0000 60029 T00830078 10083 20072 58018",
  "sanitized": "KAWO 042356Z 01003KT 10SM OVC012 08/08 A2949 RMK AO2 RAE47 SLP989 P0000 60029 T00830078 10083 20072 58018",
  "station": "KAWO",
  "time": {
    "repr": "042356Z",
    "dt": "2022-11-04T23:56:00Z"
  },
  "remarks": "RMK AO2 RAE47 SLP989 P0000 60029 T00830078 10083 20072 58018",
  "dewpoint": {
    "repr": "08",
    "value": 8,
    "spoken": "eight"
  },
  "relative_humidity": 0.9665731399975396,
  "remarks_info": {
    "maximum_temperature_6": {
      "repr": "10083",
      "value": 8.3,
      "spoken": "eight point three"
    },
    "minimum_temperature_6": {
      "repr": "20072",
      "value": 7.2,
      "spoken": "seven point two"
    },
    "pressure_tendency": {
      "repr": "58018",
      "tendency": "Steady or increasing, then decreasing",
      "change": 1.8
    },
    "precip_36_hours": {
      "repr": "60029",
      "value": 0.29,
      "spoken": "zero point two nine"
    },
    "precip_24_hours": null,
    "sunshine_minutes": null,
    "codes": [
      {
        "repr": "AO2",
        "value": "Automated with precipitation sensor"
      },
      {
        "repr": "P0000",
        "value": "Trace amount of rain in the last hour"
      },
      {
        "repr": "RAE47",
        "value": "Rain ended at :47"
      }
    ],
    "dewpoint_decimal": {
      "repr": "0078",
      "value": 7.8,
      "spoken": "seven point eight"
    },
    "maximum_temperature_24": null,
    "minimum_temperature_24": null,
    "precip_hourly": null,
    "sea_level_pressure": {
      "repr": "SLP989",
      "value": 998.9,
      "spoken": "nine nine eight point nine"
    },
    "snow_depth": null,
    "temperature_decimal": {
      "repr": "0083",
      "value": 8.3,
      "spoken": "eight point three"
    }
  },
  "runway_visibility": [],
  "temperature": {
    "repr": "08",
    "value": 8,
    "spoken": "eight"
  },
  "wind_variable_direction": [],
  "density_altitude": -198,
  "pressure_altitude": 572,
  "units": {
    "accumulation": "in",
    "altimeter": "inHg",
    "altitude": "ft",
    "temperature": "C",
    "visibility": "sm",
    "wind_speed": "kt"
  }
}
