{
  "meta": {
    "timestamp": "2022-07-30T08:47:28.678714Z",
    "stations_updated": "2022-07-17"
  },
  "altimeter": {
    "repr": "A2988",
    "value": 29.88,
    "spoken": "two nine point eight eight"
  },
  "clouds": [],
  "flight_rules": "VFR",
  "other": [],
  "visibility": {
    "repr": "10",
    "value": 10,
    "spoken": "one zero"
  },
  "wind_direction": {
    "repr": "000",
    "value": 0,
    "spoken": "zero zero zero"
  },
  "wind_gust": null,
  "wind_speed": {
    "repr": "00",
    "value": 0,
    "spoken": "zero"
  },
  "wx_codes": [],
  "raw": "KAWO 300756Z AUTO 00000KT 10SM CLR 18/16 A2988 RMK AO2 SLP120 T01780156 403280150",
  "sanitized": "KAWO 300756Z 00000KT 10SM 18/16 A2988 RMK AO2 SLP120 T01780156 403280150",
  "station": "KAWO",
  "time": {
    "repr": "300756Z",
    "dt": "2022-07-30T07:56:00Z"
  },
  "remarks": "RMK AO2 SLP120 T01780156 403280150",
  "dewpoint": {
    "repr": "16",
    "value": 16,
    "spoken": "one six"
  },
  "relative_humidity": 0.8695197516615377,
  "remarks_info": {
    "maximum_temperature_6": null,
    "minimum_temperature_6": null,
    "pressure_tendency": null,
    "precip_36_hours": null,
    "precip_24_hours": null,
    "sunshine_minutes": null,
    "codes": [
      {
        "repr": "AO2",
        "value": "Automated with precipitation sensor"
      }
    ],
    "dewpoint_decimal": {
      "repr": "0156",
      "value": 15.6,
      "spoken": "one five point six"
    },
    "maximum_temperature_24": {
      "repr": "0328",
      "value": 32.8,
      "spoken": "three two point eight"
    },
    "minimum_temperature_24": {
      "repr": "0150",
      "value": 15,
      "spoken": "one five point zero"
    },
    "precip_hourly": null,
    "sea_level_pressure": {
      "repr": "SLP120",
      "value": 1012,
      "spoken": "one zero one two point zero"
    },
    "snow_depth": null,
    "temperature_decimal": {
      "repr": "0178",
      "value": 17.8,
      "spoken": "one seven point eight"
    }
  },
  "runway_visibility": [],
  "temperature": {
    "repr": "18",
    "value": 18,
    "spoken": "one eight"
  },
  "wind_variable_direction": [],
  "density_altitude": 552,
  "pressure_altitude": 182,
  "units": {
    "accumulation": "in",
    "altimeter": "inHg",
    "altitude": "ft",
    "temperature": "C",
    "visibility": "sm",
    "wind_speed": "kt"
  }
}
