{
  "meta": {
    "timestamp": "2023-02-22T23:40:37.788056Z",
    "stations_updated": "2023-01-30",
    "cache-timestamp": "2023-02-22T23:40:06.199000Z"
  },
  "altimeter": {
    "repr": "A2960",
    "value": 29.6,
    "spoken": "two nine point six zero"
  },
  "clouds": [
    {
      "repr": "FEW018",
      "type": "FEW",
      "altitude": 18,
      "modifier": null
    },
    {
      "repr": "BKN031",
      "type": "BKN",
      "altitude": 31,
      "modifier": null
    }
  ],
  "flight_rules": "VFR",
  "other": [],
  "visibility": {
    "repr": "10",
    "value": 10,
    "spoken": "one zero"
  },
  "wind_direction": {
    "repr": "300",
    "value": 300,
    "spoken": "three zero zero"
  },
  "wind_gust": null,
  "wind_speed": {
    "repr": "09",
    "value": 9,
    "spoken": "nine"
  },
  "wx_codes": [],
  "raw": "KAWO 222317Z AUTO 30009KT 10SM FEW018 BKN031 02/M01 A2960 RMK AO2 FZRANO",
  "sanitized": "KAWO 222317Z 30009KT 10SM FEW018 BKN031 02/M01 A2960 RMK AO2 FZRANO",
  "station": "KAWO",
  "time": {
    "repr": "222317Z",
    "dt": "2023-02-22T23:17:00Z"
  },
  "remarks": "RMK AO2 FZRANO",
  "dewpoint": {
    "repr": "M01",
    "value": -1,
    "spoken": "minus one"
  },
  "relative_humidity": 0.8050772048274443,
  "remarks_info": {
    "maximum_temperature_6": null,
    "minimum_temperature_6": null,
    "pressure_tendency": null,
    "precip_36_hours": null,
    "precip_24_hours": null,
    "sunshine_minutes": null,
    "codes": [
      {
        "repr": "AO2",
        "value": "Automated with precipitation sensor"
      },
      {
        "repr": "FZRANO",
        "value": "Freezing rain information not available"
      }
    ],
    "dewpoint_decimal": null,
    "maximum_temperature_24": null,
    "minimum_temperature_24": null,
    "precip_hourly": null,
    "sea_level_pressure": null,
    "snow_depth": null,
    "temperature_decimal": null
  },
  "runway_visibility": [],
  "temperature": {
    "repr": "02",
    "value": 2,
    "spoken": "two"
  },
  "wind_variable_direction": [],
  "density_altitude": -1064,
  "pressure_altitude": 462,
  "units": {
    "accumulation": "in",
    "altimeter": "inHg",
    "altitude": "ft",
    "temperature": "C",
    "visibility": "sm",
    "wind_speed": "kt"
  }
}
