{
  "meta": {
    "timestamp": "2023-03-13T21:24:12.230274Z",
    "stations_updated": "2023-03-11",
    "cache-timestamp": "2023-03-13T21:24:04.212000Z"
  },
  "altimeter": {
    "repr": "A2972",
    "value": 29.72,
    "spoken": "two nine point seven two"
  },
  "clouds": [
    {
      "repr": "BKN012",
      "type": "BKN",
      "altitude": 12,
      "modifier": null
    },
    {
      "repr": "OVC019",
      "type": "OVC",
      "altitude": 19,
      "modifier": null
    }
  ],
  "flight_rules": "MVFR",
  "other": [],
  "visibility": {
    "repr": "6",
    "value": 6,
    "spoken": "six"
  },
  "wind_direction": {
    "repr": "190",
    "value": 190,
    "spoken": "one nine zero"
  },
  "wind_gust": null,
  "wind_speed": {
    "repr": "08",
    "value": 8,
    "spoken": "eight"
  },
  "wx_codes": [
    {
      "repr": "-RA",
      "value": "Light Rain"
    },
    {
      "repr": "BR",
      "value": "Mist"
    }
  ],
  "raw": "KAWO 132108Z AUTO 19008KT 6SM -RA BR BKN012 OVC019 06/05 A2972 RMK AO2 P0000",
  "sanitized": "KAWO 132108Z 19008KT 6SM -RA BR BKN012 OVC019 06/05 A2972 RMK AO2 P0000",
  "station": "KAWO",
  "time": {
    "repr": "132108Z",
    "dt": "2023-03-13T21:08:00Z"
  },
  "remarks": "RMK AO2 P0000",
  "dewpoint": {
    "repr": "05",
    "value": 5,
    "spoken": "five"
  },
  "relative_humidity": 0.9329565396428716,
  "remarks_info": {
    "maximum_temperature_6": null,
    "minimum_temperature_6": null,
    "pressure_tendency": null,
    "precip_36_hours": null,
    "precip_24_hours": null,
    "sunshine_minutes": null,
    "codes": [
      {
        "repr": "AO2",
        "value": "Automated with precipitation sensor"
      },
      {
        "repr": "P0000",
        "value": "Trace amount of rain in the last hour"
      }
    ],
    "dewpoint_decimal": null,
    "maximum_temperature_24": null,
    "minimum_temperature_24": null,
    "precip_hourly": null,
    "sea_level_pressure": null,
    "snow_depth": null,
    "temperature_decimal": null
  },
  "runway_visibility": [],
  "temperature": {
    "repr": "06",
    "value": 6,
    "spoken": "six"
  },
  "wind_variable_direction": [],
  "density_altitude": -704,
  "pressure_altitude": 342,
  "units": {
    "accumulation": "in",
    "altimeter": "inHg",
    "altitude": "ft",
    "temperature": "C",
    "visibility": "sm",
    "wind_speed": "kt"
  }
}
