{
  "meta": {
    "timestamp": "2023-03-16T14:28:13.681566Z",
    "stations_updated": "2023-03-11",
    "cache-timestamp": "2023-03-16T14:28:05.124000Z"
  },
  "altimeter": {
    "repr": "A3032",
    "value": 30.32,
    "spoken": "three zero point three two"
  },
  "clouds": [],
  "flight_rules": "LIFR",
  "other": [],
  "visibility": {
    "repr": "3/4",
    "value": 0.75,
    "spoken": "three quarters",
    "numerator": 3,
    "denominator": 4,
    "normalized": "3/4"
  },
  "wind_direction": {
    "repr": "000",
    "value": 0,
    "spoken": "zero zero zero"
  },
  "wind_gust": null,
  "wind_speed": {
    "repr": "00",
    "value": 0,
    "spoken": "zero"
  },
  "wx_codes": [
    {
      "repr": "BR",
      "value": "Mist"
    }
  ],
  "raw": "KAWO 161417Z AUTO 00000KT 3/4SM BR CLR M04/M04 A3032 RMK AO2 VIS 1/4V5 FZRANO",
  "sanitized": "KAWO 161417Z 00000KT 3/4SM BR M04/M04 A3032 RMK AO2 VIS 1/4V5 FZRANO",
  "station": "KAWO",
  "time": {
    "repr": "161417Z",
    "dt": "2023-03-16T14:17:00Z"
  },
  "remarks": "RMK AO2 VIS 1/4V5 FZRANO",
  "dewpoint": {
    "repr": "M04",
    "value": -4,
    "spoken": "minus four"
  },
  "relative_humidity": 1,
  "remarks_info": {
    "maximum_temperature_6": null,
    "minimum_temperature_6": null,
    "pressure_tendency": null,
    "precip_36_hours": null,
    "precip_24_hours": null,
    "sunshine_minutes": null,
    "codes": [
      {
        "repr": "AO2",
        "value": "Automated with precipitation sensor"
      },
      {
        "repr": "FZRANO",
        "value": "Freezing rain information not available"
      }
    ],
    "dewpoint_decimal": null,
    "maximum_temperature_24": null,
    "minimum_temperature_24": null,
    "precip_hourly": null,
    "sea_level_pressure": null,
    "snow_depth": null,
    "temperature_decimal": null
  },
  "runway_visibility": [],
  "temperature": {
    "repr": "M04",
    "value": -4,
    "spoken": "minus four"
  },
  "wind_variable_direction": [],
  "density_altitude": -2504,
  "pressure_altitude": -258,
  "units": {
    "accumulation": "in",
    "altimeter": "inHg",
    "altitude": "ft",
    "temperature": "C",
    "visibility": "sm",
    "wind_speed": "kt"
  }
}
