{
  "meta": {
    "timestamp": "2022-08-05T12:09:49.192083Z",
    "stations_updated": "2022-07-17"
  },
  "altimeter": {
    "repr": "A3009",
    "value": 30.09,
    "spoken": "three zero point zero nine"
  },
  "clouds": [
    {
      "repr": "OVC002",
      "type": "OVC",
      "altitude": 2,
      "modifier": null
    }
  ],
  "flight_rules": "LIFR",
  "other": [],
  "visibility": {
    "repr": "1/4",
    "value": 0.25,
    "spoken": "one quarter",
    "numerator": 1,
    "denominator": 4,
    "normalized": "1/4"
  },
  "wind_direction": {
    "repr": "350",
    "value": 350,
    "spoken": "three five zero"
  },
  "wind_gust": null,
  "wind_speed": {
    "repr": "05",
    "value": 5,
    "spoken": "five"
  },
  "wx_codes": [
    {
      "repr": "FG",
      "value": "Fog"
    }
  ],
  "raw": "KAWO 051156Z AUTO 35005KT 1/4SM FG OVC002 08/08 A3009 RMK AO2 SLP193 70012 T00830078 10133 20078 58002",
  "sanitized": "KAWO 051156Z 35005KT 1/4SM FG OVC002 08/08 A3009 RMK AO2 SLP193 70012 T00830078 10133 20078 58002",
  "station": "KAWO",
  "time": {
    "repr": "051156Z",
    "dt": "2022-08-05T11:56:00Z"
  },
  "remarks": "RMK AO2 SLP193 70012 T00830078 10133 20078 58002",
  "dewpoint": {
    "repr": "08",
    "value": 8,
    "spoken": "eight"
  },
  "relative_humidity": 0.9665731399975396,
  "remarks_info": {
    "maximum_temperature_6": {
      "repr": "10133",
      "value": 13.3,
      "spoken": "one three point three"
    },
    "minimum_temperature_6": {
      "repr": "20078",
      "value": 7.8,
      "spoken": "seven point eight"
    },
    "pressure_tendency": {
      "repr": "58002",
      "tendency": "Steady or increasing, then decreasing",
      "change": 0.2
    },
    "precip_36_hours": null,
    "precip_24_hours": {
      "repr": "70012",
      "value": 0.12,
      "spoken": "zero point one two"
    },
    "sunshine_minutes": null,
    "codes": [
      {
        "repr": "AO2",
        "value": "Automated with precipitation sensor"
      }
    ],
    "dewpoint_decimal": {
      "repr": "0078",
      "value": 7.8,
      "spoken": "seven point eight"
    },
    "maximum_temperature_24": null,
    "minimum_temperature_24": null,
    "precip_hourly": null,
    "sea_level_pressure": {
      "repr": "SLP193",
      "value": 1019.3,
      "spoken": "one zero one nine point three"
    },
    "snow_depth": null,
    "temperature_decimal": {
      "repr": "0083",
      "value": 8.3,
      "spoken": "eight point three"
    }
  },
  "runway_visibility": [],
  "temperature": {
    "repr": "08",
    "value": 8,
    "spoken": "eight"
  },
  "wind_variable_direction": [],
  "density_altitude": -798,
  "pressure_altitude": -28,
  "units": {
    "accumulation": "in",
    "altimeter": "inHg",
    "altitude": "ft",
    "temperature": "C",
    "visibility": "sm",
    "wind_speed": "kt"
  }
}
