{
  "altimeter": {
    "repr": "A3004",
    "spoken": "three zero point zero four",
    "value": 30.04
  },
  "clouds": [
    {
      "altitude": 17,
      "modifier": null,
      "repr": "FEW017",
      "type": "FEW"
    },
    {
      "altitude": 36,
      "modifier": null,
      "repr": "OVC036",
      "type": "OVC"
    }
  ],
  "density_altitude": -280,
  "dewpoint": {
    "repr": "09",
    "spoken": "nine",
    "value": 9
  },
  "flight_rules": "VFR",
  "meta": {
    "stations_updated": "2024-06-12",
    "timestamp": "2024-09-20T09:08:25.883518Z"
  },
  "other": [],
  "pressure_altitude": 22,
  "raw": "KAWO 200856Z AUTO 29004KT 10SM FEW017 OVC036 12/09 A3004 RMK AO2 SLP177 T01220094 53002",
  "relative_humidity": 0.830024146445758,
  "remarks": "RMK AO2 SLP177 T01220094 53002",
  "remarks_info": {
    "codes": [
      {
        "repr": "AO2",
        "value": "Automated with precipitation sensor"
      }
    ],
    "dewpoint_decimal": {
      "repr": "0094",
      "spoken": "nine point four",
      "value": 9.4
    },
    "maximum_temperature_24": null,
    "maximum_temperature_6": null,
    "minimum_temperature_24": null,
    "minimum_temperature_6": null,
    "precip_24_hours": null,
    "precip_36_hours": null,
    "precip_hourly": null,
    "pressure_tendency": {
      "change": 0.2,
      "repr": "53002",
      "tendency": "Decreasing or steady, then increasing"
    },
    "sea_level_pressure": {
      "repr": "SLP177",
      "spoken": "one zero one seven point seven",
      "value": 1017.7
    },
    "snow_depth": null,
    "sunshine_minutes": null,
    "temperature_decimal": {
      "repr": "0122",
      "spoken": "one two point two",
      "value": 12.2
    }
  },
  "runway_visibility": [],
  "sanitized": "KAWO 200856Z 29004KT 10SM FEW017 OVC036 12/09 A3004 RMK AO2 SLP177 T01220094 53002",
  "station": "KAWO",
  "temperature": {
    "repr": "12",
    "spoken": "one two",
    "value": 12
  },
  "time": {
    "dt": "2024-09-20T08:56:00Z",
    "repr": "200856Z"
  },
  "units": {
    "accumulation": "in",
    "altimeter": "inHg",
    "altitude": "ft",
    "temperature": "C",
    "visibility": "sm",
    "wind_speed": "kt"
  },
  "visibility": {
    "repr": "10",
    "spoken": "one zero",
    "value": 10
  },
  "wind_direction": {
    "repr": "290",
    "spoken": "two nine zero",
    "value": 290
  },
  "wind_gust": null,
  "wind_speed": {
    "repr": "04",
    "spoken": "four",
    "value": 4
  },
  "wind_variable_direction": [],
  "wx_codes": []
}
