{
  "meta": {
    "timestamp": "2023-10-23T09:23:53.048566Z",
    "stations_updated": "2023-10-01"
  },
  "altimeter": {
    "repr": "A2998",
    "value": 29.98,
    "spoken": "two nine point nine eight"
  },
  "clouds": [
    {
      "repr": "FEW002",
      "type": "FEW",
      "altitude": 2,
      "modifier": null
    },
    {
      "repr": "BKN023",
      "type": "BKN",
      "altitude": 23,
      "modifier": null
    },
    {
      "repr": "OVC040",
      "type": "OVC",
      "altitude": 40,
      "modifier": null
    }
  ],
  "flight_rules": "MVFR",
  "other": [],
  "visibility": {
    "repr": "9",
    "value": 9,
    "spoken": "nine"
  },
  "wind_direction": {
    "repr": "000",
    "value": 0,
    "spoken": "zero zero zero"
  },
  "wind_gust": null,
  "wind_speed": {
    "repr": "00",
    "value": 0,
    "spoken": "zero"
  },
  "wx_codes": [],
  "raw": "KAWO 230920Z AUTO 00000KT 9SM FEW002 BKN023 OVC040 07/07 A2998 RMK AO2 KAWO 230909Z AUTO 00000KT 7SM SCT023 OVC040 07/07 A2998 RMK AO2 KAWO 230856Z AUTO 00000KT 2 1/2SM BR FEW023 OVC040 07/07 A2998 RMK AO2 SLP156 T00670067 50002 KAWO 230851Z AUTO 00000KT 3SM BR OVC040 07/07 A2998 RMK AO2 KAWO 230845Z AUTO 00000KT 1 1/2SM BR OVC040 07/07 A2998 RMK AO2 KAWO 230837Z AUTO 00000KT 1SM BR OVC040 07/06 A2998 RMK AO2 KAWO 230811Z AUTO 00000KT 1/2SM FG FEW010 OVC040 07/07 A2998 RMK AO2 KAWO 230802Z AUTO 00000KT 3/4SM BR FEW002 OVC040 07/07 A2998 RMK AO2 KAWO 230756Z AUTO 00000KT 1/4SM FG FEW002 OVC040 08/07 A2998 RMK AO2 SLP157 T00780072 401280067 KAWO 230742Z AUTO 00000KT 1/4SM FG SCT002 OVC038 08/08 A2998 RMK AO2 KAWO 230731Z AUTO 00000KT 1/2SM FG BKN002 OVC038 07/07 A2998 RMK AO2",
  "sanitized": "KAWO 230920Z 00000KT 9SM FEW002 BKN023 OVC040 07/07 A2998 RMK AO2 KAWO 230909Z AUTO 00000KT 7SM SCT023 OVC040 07/07 A2998 RMK AO2 KAWO 230856Z AUTO 00000KT 2 1/2SM BR FEW023 OVC040 07/07 A2998 RMK AO2 SLP156 T00670067 50002 KAWO 230851Z AUTO 00000KT 3SM BR OVC040 07/07 A2998 RMK AO2 KAWO 230845Z AUTO 00000KT 1 1/2SM BR OVC040 07/07 A2998 RMK AO2 KAWO 230837Z AUTO 00000KT 1SM BR OVC040 07/06 A2998 RMK AO2 KAWO 230811Z AUTO 00000KT 1/2SM FG FEW010 OVC040 07/07 A2998 RMK AO2 KAWO 230802Z AUTO 00000KT 3/4SM BR FEW002 OVC040 07/07 A2998 RMK AO2 KAWO 230756Z AUTO 00000KT 1/4SM FG FEW002 OVC040 08/07 A2998 RMK AO2 SLP157 T00780072 401280067 KAWO 230742Z AUTO 00000KT 1/4SM FG SCT002 OVC038 08/08 A2998 RMK AO2 KAWO 230731Z AUTO 00000KT 1/2SM FG BKN002 OVC038 07/07 A2998 RMK AO2",
  "station": "KAWO",
  "time": {
    "repr": "230920Z",
    "dt": "2023-10-23T09:20:00Z"
  },
  "remarks": "RMK AO2 KAWO 230909Z AUTO 00000KT 7SM SCT023 OVC040 07/07 A2998 RMK AO2 KAWO 230856Z AUTO 00000KT 2 1/2SM BR FEW023 OVC040 07/07 A2998 RMK AO2 SLP156 T00670067 50002 KAWO 230851Z AUTO 00000KT 3SM BR OVC040 07/07 A2998 RMK AO2 KAWO 230845Z AUTO 00000KT 1 1/2SM BR OVC040 07/07 A2998 RMK AO2 KAWO 230837Z AUTO 00000KT 1SM BR OVC040 07/06 A2998 RMK AO2 KAWO 230811Z AUTO 00000KT 1/2SM FG FEW010 OVC040 07/07 A2998 RMK AO2 KAWO 230802Z AUTO 00000KT 3/4SM BR FEW002 OVC040 07/07 A2998 RMK AO2 KAWO 230756Z AUTO 00000KT 1/4SM FG FEW002 OVC040 08/07 A2998 RMK AO2 SLP157 T00780072 401280067 KAWO 230742Z AUTO 00000KT 1/4SM FG SCT002 OVC038 08/08 A2998 RMK AO2 KAWO 230731Z AUTO 00000KT 1/2SM FG BKN002 OVC038 07/07 A2998 RMK AO2",
  "dewpoint": {
    "repr": "07",
    "value": 7,
    "spoken": "seven"
  },
  "relative_humidity": 0.9598512259113078,
  "remarks_info": {
    "maximum_temperature_6": null,
    "minimum_temperature_6": null,
    "pressure_tendency": {
      "repr": "50002",
      "tendency": "Increasing, then decreasing",
      "change": 0.2
    },
    "precip_36_hours": null,
    "precip_24_hours": null,
    "sunshine_minutes": null,
    "codes": [
      {
        "repr": "AO2",
        "value": "Automated with precipitation sensor"
      },
      {
        "repr": "AO2",
        "value": "Automated with precipitation sensor"
      },
      {
        "repr": "AO2",
        "value": "Automated with precipitation sensor"
      },
      {
        "repr": "AO2",
        "value": "Automated with precipitation sensor"
      },
      {
        "repr": "AO2",
        "value": "Automated with precipitation sensor"
      },
      {
        "repr": "AO2",
        "value": "Automated with precipitation sensor"
      },
      {
        "repr": "AO2",
        "value": "Automated with precipitation sensor"
      },
      {
        "repr": "AO2",
        "value": "Automated with precipitation sensor"
      },
      {
        "repr": "AO2",
        "value": "Automated with precipitation sensor"
      },
      {
        "repr": "AO2",
        "value": "Automated with precipitation sensor"
      },
      {
        "repr": "AO2",
        "value": "Automated with precipitation sensor"
      }
    ],
    "dewpoint_decimal": {
      "repr": "0072",
      "value": 7.2,
      "spoken": "seven point two"
    },
    "maximum_temperature_24": {
      "repr": "0128",
      "value": 12.8,
      "spoken": "one two point eight"
    },
    "minimum_temperature_24": {
      "repr": "0067",
      "value": 6.7,
      "spoken": "six point seven"
    },
    "precip_hourly": null,
    "sea_level_pressure": {
      "repr": "SLP156",
      "value": 1015.6,
      "spoken": "one zero one five point six"
    },
    "snow_depth": null,
    "temperature_decimal": {
      "repr": "0078",
      "value": 7.8,
      "spoken": "seven point eight"
    }
  },
  "runway_visibility": [],
  "temperature": {
    "repr": "07",
    "value": 7,
    "spoken": "seven"
  },
  "wind_variable_direction": [],
  "density_altitude": -748,
  "pressure_altitude": 82,
  "units": {
    "accumulation": "in",
    "altimeter": "inHg",
    "altitude": "ft",
    "temperature": "C",
    "visibility": "sm",
    "wind_speed": "kt"
  }
}
