{
  "meta": {
    "timestamp": "2023-04-07T21:40:33.651955Z",
    "stations_updated": "2023-03-11",
    "cache-timestamp": "2023-04-07T21:40:07.084000Z"
  },
  "altimeter": {
    "repr": "A2981",
    "value": 29.81,
    "spoken": "two nine point eight one"
  },
  "clouds": [],
  "flight_rules": "VFR",
  "other": [],
  "visibility": {
    "repr": "10",
    "value": 10,
    "spoken": "one zero"
  },
  "wind_direction": {
    "repr": "200",
    "value": 200,
    "spoken": "two zero zero"
  },
  "wind_gust": null,
  "wind_speed": {
    "repr": "09",
    "value": 9,
    "spoken": "nine"
  },
  "wx_codes": [],
  "raw": "KAWO 072056Z AUTO 20009KT 10SM CLR 13/09 A2981 RMK AO2 SLP100 60002 T01330094 58001",
  "sanitized": "KAWO 072056Z 20009KT 10SM 13/09 A2981 RMK AO2 SLP100 60002 T01330094 58001",
  "station": "KAWO",
  "time": {
    "repr": "072056Z",
    "dt": "2023-04-07T20:56:00Z"
  },
  "remarks": "RMK AO2 SLP100 60002 T01330094 58001",
  "dewpoint": {
    "repr": "09",
    "value": 9,
    "spoken": "nine"
  },
  "relative_humidity": 0.77230290576919,
  "remarks_info": {
    "maximum_temperature_6": null,
    "minimum_temperature_6": null,
    "pressure_tendency": {
      "repr": "58001",
      "tendency": "Steady or increasing, then decreasing",
      "change": 0.1
    },
    "precip_36_hours": {
      "repr": "60002",
      "value": 0.02,
      "spoken": "zero point zero two"
    },
    "precip_24_hours": null,
    "sunshine_minutes": null,
    "codes": [
      {
        "repr": "AO2",
        "value": "Automated with precipitation sensor"
      }
    ],
    "dewpoint_decimal": {
      "repr": "0094",
      "value": 9.4,
      "spoken": "nine point four"
    },
    "maximum_temperature_24": null,
    "minimum_temperature_24": null,
    "precip_hourly": null,
    "sea_level_pressure": {
      "repr": "SLP100",
      "value": 1010,
      "spoken": "one zero one zero point zero"
    },
    "snow_depth": null,
    "temperature_decimal": {
      "repr": "0133",
      "value": 13.3,
      "spoken": "one three point three"
    }
  },
  "runway_visibility": [],
  "temperature": {
    "repr": "13",
    "value": 13,
    "spoken": "one three"
  },
  "wind_variable_direction": [],
  "density_altitude": 82,
  "pressure_altitude": 252,
  "units": {
    "accumulation": "in",
    "altimeter": "inHg",
    "altitude": "ft",
    "temperature": "C",
    "visibility": "sm",
    "wind_speed": "kt"
  }
}
