{
  "meta": {
    "timestamp": "2022-12-13T21:24:57.675541Z",
    "stations_updated": "2022-09-05"
  },
  "altimeter": {
    "repr": "A3026",
    "value": 30.26,
    "spoken": "three zero point two six"
  },
  "clouds": [
    {
      "repr": "OVC031",
      "type": "OVC",
      "altitude": 31,
      "modifier": null
    }
  ],
  "flight_rules": "VFR",
  "other": [],
  "visibility": {
    "repr": "10",
    "value": 10,
    "spoken": "one zero"
  },
  "wind_direction": {
    "repr": "000",
    "value": 0,
    "spoken": "zero zero zero"
  },
  "wind_gust": null,
  "wind_speed": {
    "repr": "00",
    "value": 0,
    "spoken": "zero"
  },
  "wx_codes": [],
  "raw": "KAWO 132056Z AUTO 00000KT 10SM OVC031 03/03 A3026 RMK AO2 SLP253 T00330028 57003",
  "sanitized": "KAWO 132056Z 00000KT 10SM OVC031 03/03 A3026 RMK AO2 SLP253 T00330028 57003",
  "station": "KAWO",
  "time": {
    "repr": "132056Z",
    "dt": "2022-12-13T20:56:00Z"
  },
  "remarks": "RMK AO2 SLP253 T00330028 57003",
  "dewpoint": {
    "repr": "03",
    "value": 3,
    "spoken": "three"
  },
  "relative_humidity": 0.9652276930831346,
  "remarks_info": {
    "maximum_temperature_6": null,
    "minimum_temperature_6": null,
    "pressure_tendency": {
      "repr": "57003",
      "tendency": "Decreasing steadily or unsteadily",
      "change": 0.3
    },
    "precip_36_hours": null,
    "precip_24_hours": null,
    "sunshine_minutes": null,
    "codes": [
      {
        "repr": "AO2",
        "value": "Automated with precipitation sensor"
      }
    ],
    "dewpoint_decimal": {
      "repr": "0028",
      "value": 2.8,
      "spoken": "two point eight"
    },
    "maximum_temperature_24": null,
    "minimum_temperature_24": null,
    "precip_hourly": null,
    "sea_level_pressure": {
      "repr": "SLP253",
      "value": 1025.3,
      "spoken": "one zero two five point three"
    },
    "snow_depth": null,
    "temperature_decimal": {
      "repr": "0033",
      "value": 3.3,
      "spoken": "three point three"
    }
  },
  "runway_visibility": [],
  "temperature": {
    "repr": "03",
    "value": 3,
    "spoken": "three"
  },
  "wind_variable_direction": [],
  "density_altitude": -1568,
  "pressure_altitude": -198,
  "units": {
    "accumulation": "in",
    "altimeter": "inHg",
    "altitude": "ft",
    "temperature": "C",
    "visibility": "sm",
    "wind_speed": "kt"
  }
}
