{
  "altimeter": {
    "repr": "A3018",
    "spoken": "three zero point one eight",
    "value": 30.18
  },
  "clouds": [],
  "density_altitude": -3420,
  "dewpoint": {
    "repr": "M14",
    "spoken": "minus one four",
    "value": -14
  },
  "flight_rules": "VFR",
  "meta": {
    "cache-timestamp": "2024-01-14T16:02:30.110000Z",
    "stations_updated": "2023-10-28",
    "timestamp": "2024-01-14T16:03:27.455563Z"
  },
  "other": [],
  "pressure_altitude": -118,
  "raw": "KAWO 141556Z AUTO 00000KT 10SM CLR M13/M14 A3018 RMK AO2 SLP229 T11281139 FZRANO",
  "relative_humidity": 0.9145227684321258,
  "remarks": "RMK AO2 SLP229 T11281139 FZRANO",
  "remarks_info": {
    "codes": [
      {
        "repr": "AO2",
        "value": "Automated with precipitation sensor"
      },
      {
        "repr": "FZRANO",
        "value": "Freezing rain information not available"
      }
    ],
    "dewpoint_decimal": {
      "repr": "1139",
      "spoken": "minus one three point nine",
      "value": -13.9
    },
    "maximum_temperature_24": null,
    "maximum_temperature_6": null,
    "minimum_temperature_24": null,
    "minimum_temperature_6": null,
    "precip_24_hours": null,
    "precip_36_hours": null,
    "precip_hourly": null,
    "pressure_tendency": null,
    "sea_level_pressure": {
      "repr": "SLP229",
      "spoken": "one zero two two point nine",
      "value": 1022.9
    },
    "snow_depth": null,
    "sunshine_minutes": null,
    "temperature_decimal": {
      "repr": "1128",
      "spoken": "minus one two point eight",
      "value": -12.8
    }
  },
  "runway_visibility": [],
  "sanitized": "KAWO 141556Z 00000KT 10SM M13/M14 A3018 RMK AO2 SLP229 T11281139 FZRANO",
  "station": "KAWO",
  "temperature": {
    "repr": "M13",
    "spoken": "minus one three",
    "value": -13
  },
  "time": {
    "dt": "2024-01-14T15:56:00Z",
    "repr": "141556Z"
  },
  "units": {
    "accumulation": "in",
    "altimeter": "inHg",
    "altitude": "ft",
    "temperature": "C",
    "visibility": "sm",
    "wind_speed": "kt"
  },
  "visibility": {
    "repr": "10",
    "spoken": "one zero",
    "value": 10
  },
  "wind_direction": {
    "repr": "000",
    "spoken": "zero zero zero",
    "value": 0
  },
  "wind_gust": null,
  "wind_speed": {
    "repr": "00",
    "spoken": "zero",
    "value": 0
  },
  "wind_variable_direction": [],
  "wx_codes": []
}
