{
  "meta": {
    "timestamp": "2023-05-05T19:20:34.591495Z",
    "stations_updated": "2023-03-11",
    "cache-timestamp": "2023-05-05T19:20:06.503000Z"
  },
  "altimeter": {
    "repr": "A2987",
    "value": 29.87,
    "spoken": "two nine point eight seven"
  },
  "clouds": [
    {
      "repr": "BKN011",
      "type": "BKN",
      "altitude": 11,
      "modifier": null
    },
    {
      "repr": "OVC020",
      "type": "OVC",
      "altitude": 20,
      "modifier": null
    }
  ],
  "flight_rules": "MVFR",
  "other": [],
  "visibility": {
    "repr": "10",
    "value": 10,
    "spoken": "one zero"
  },
  "wind_direction": {
    "repr": "150",
    "value": 150,
    "spoken": "one five zero"
  },
  "wind_gust": {
    "repr": "16",
    "value": 16,
    "spoken": "one six"
  },
  "wind_speed": {
    "repr": "07",
    "value": 7,
    "spoken": "seven"
  },
  "wx_codes": [
    {
      "repr": "-RA",
      "value": "Light Rain"
    }
  ],
  "raw": "KAWO 051856Z AUTO 15007G16KT 10SM -RA BKN011 OVC020 11/09 A2987 RMK AO2 SLP118 P0002 T01060089",
  "sanitized": "KAWO 051856Z 15007G16KT 10SM -RA BKN011 OVC020 11/09 A2987 RMK AO2 SLP118 P0002 T01060089",
  "station": "KAWO",
  "time": {
    "repr": "051856Z",
    "dt": "2023-05-05T18:56:00Z"
  },
  "remarks": "RMK AO2 SLP118 P0002 T01060089",
  "dewpoint": {
    "repr": "09",
    "value": 9,
    "spoken": "nine"
  },
  "relative_humidity": 0.8922144848734106,
  "remarks_info": {
    "maximum_temperature_6": null,
    "minimum_temperature_6": null,
    "pressure_tendency": null,
    "precip_36_hours": null,
    "precip_24_hours": null,
    "sunshine_minutes": null,
    "codes": [
      {
        "repr": "AO2",
        "value": "Automated with precipitation sensor"
      }
    ],
    "dewpoint_decimal": {
      "repr": "0089",
      "value": 8.9,
      "spoken": "eight point nine"
    },
    "maximum_temperature_24": null,
    "minimum_temperature_24": null,
    "precip_hourly": {
      "repr": "P0002",
      "value": 0.02,
      "spoken": "zero point zero two"
    },
    "sea_level_pressure": {
      "repr": "SLP118",
      "value": 1011.8,
      "spoken": "one zero one one point eight"
    },
    "snow_depth": null,
    "temperature_decimal": {
      "repr": "0106",
      "value": 10.6,
      "spoken": "one zero point six"
    }
  },
  "runway_visibility": [],
  "temperature": {
    "repr": "11",
    "value": 11,
    "spoken": "one one"
  },
  "wind_variable_direction": [],
  "density_altitude": -302,
  "pressure_altitude": 192,
  "units": {
    "accumulation": "in",
    "altimeter": "inHg",
    "altitude": "ft",
    "temperature": "C",
    "visibility": "sm",
    "wind_speed": "kt"
  }
}
