{
  "meta": {
    "timestamp": "2023-08-14T23:40:37.346531Z",
    "stations_updated": "2023-08-05",
    "cache-timestamp": "2023-08-14T23:40:05.486000Z"
  },
  "altimeter": {
    "repr": "A2996",
    "value": 29.96,
    "spoken": "two nine point nine six"
  },
  "clouds": [],
  "flight_rules": "VFR",
  "other": [],
  "visibility": {
    "repr": "10",
    "value": 10,
    "spoken": "one zero"
  },
  "wind_direction": {
    "repr": "300",
    "value": 300,
    "spoken": "three zero zero"
  },
  "wind_gust": null,
  "wind_speed": {
    "repr": "13",
    "value": 13,
    "spoken": "one three"
  },
  "wx_codes": [],
  "raw": "KAWO 142256Z AUTO 30013KT 10SM CLR 32/15 A2996 RMK AO2 SLP147 T03220150",
  "sanitized": "KAWO 142256Z 30013KT 10SM 32/15 A2996 RMK AO2 SLP147 T03220150",
  "station": "KAWO",
  "time": {
    "repr": "142256Z",
    "dt": "2023-08-14T22:56:00Z"
  },
  "remarks": "RMK AO2 SLP147 T03220150",
  "dewpoint": {
    "repr": "15",
    "value": 15,
    "spoken": "one five"
  },
  "relative_humidity": 0.35401899544686766,
  "remarks_info": {
    "maximum_temperature_6": null,
    "minimum_temperature_6": null,
    "pressure_tendency": null,
    "precip_36_hours": null,
    "precip_24_hours": null,
    "sunshine_minutes": null,
    "codes": [
      {
        "repr": "AO2",
        "value": "Automated with precipitation sensor"
      }
    ],
    "dewpoint_decimal": {
      "repr": "0150",
      "value": 15,
      "spoken": "one five point zero"
    },
    "maximum_temperature_24": null,
    "minimum_temperature_24": null,
    "precip_hourly": null,
    "sea_level_pressure": {
      "repr": "SLP147",
      "value": 1014.7,
      "spoken": "one zero one four point seven"
    },
    "snow_depth": null,
    "temperature_decimal": {
      "repr": "0322",
      "value": 32.2,
      "spoken": "three two point two"
    }
  },
  "runway_visibility": [],
  "temperature": {
    "repr": "32",
    "value": 32,
    "spoken": "three two"
  },
  "wind_variable_direction": [],
  "density_altitude": 2200,
  "pressure_altitude": 102,
  "units": {
    "accumulation": "in",
    "altimeter": "inHg",
    "altitude": "ft",
    "temperature": "C",
    "visibility": "sm",
    "wind_speed": "kt"
  }
}
