{
  "meta": {
    "timestamp": "2022-12-16T18:42:16.036306Z",
    "stations_updated": "2022-09-05"
  },
  "altimeter": {
    "repr": "A3042",
    "value": 30.42,
    "spoken": "three zero point four two"
  },
  "clouds": [],
  "flight_rules": "VFR",
  "other": [],
  "visibility": {
    "repr": "10",
    "value": 10,
    "spoken": "one zero"
  },
  "wind_direction": {
    "repr": "000",
    "value": 0,
    "spoken": "zero zero zero"
  },
  "wind_gust": null,
  "wind_speed": {
    "repr": "00",
    "value": 0,
    "spoken": "zero"
  },
  "wx_codes": [],
  "raw": "KAWO 161756Z AUTO 00000KT 10SM CLR 00/M01 A3042 RMK AO2 SLP308 T00001006 10000 21050 53002 FZRANO",
  "sanitized": "KAWO 161756Z 00000KT 10SM 00/M01 A3042 RMK AO2 SLP308 T00001006 10000 21050 53002 FZRANO",
  "station": "KAWO",
  "time": {
    "repr": "161756Z",
    "dt": "2022-12-16T17:56:00Z"
  },
  "remarks": "RMK AO2 SLP308 T00001006 10000 21050 53002 FZRANO",
  "dewpoint": {
    "repr": "M01",
    "value": -1,
    "spoken": "minus one"
  },
  "relative_humidity": 0.9572912555144957,
  "remarks_info": {
    "maximum_temperature_6": {
      "repr": "10000",
      "value": 0,
      "spoken": "zero"
    },
    "minimum_temperature_6": {
      "repr": "21050",
      "value": -5,
      "spoken": "minus five point zero"
    },
    "pressure_tendency": {
      "repr": "53002",
      "tendency": "Decreasing or steady, then increasing",
      "change": 0.2
    },
    "precip_36_hours": null,
    "precip_24_hours": null,
    "sunshine_minutes": null,
    "codes": [
      {
        "repr": "AO2",
        "value": "Automated with precipitation sensor"
      },
      {
        "repr": "FZRANO",
        "value": "Freezing rain information not available"
      }
    ],
    "dewpoint_decimal": {
      "repr": "1006",
      "value": -0.6,
      "spoken": "minus zero point six"
    },
    "maximum_temperature_24": null,
    "minimum_temperature_24": null,
    "precip_hourly": null,
    "sea_level_pressure": {
      "repr": "SLP308",
      "value": 1030.8,
      "spoken": "one zero three zero point eight"
    },
    "snow_depth": null,
    "temperature_decimal": {
      "repr": "0000",
      "value": 0,
      "spoken": "zero"
    }
  },
  "runway_visibility": [],
  "temperature": {
    "repr": "00",
    "value": 0,
    "spoken": "zero"
  },
  "wind_variable_direction": [],
  "density_altitude": -2124,
  "pressure_altitude": -358,
  "units": {
    "accumulation": "in",
    "altimeter": "inHg",
    "altitude": "ft",
    "temperature": "C",
    "visibility": "sm",
    "wind_speed": "kt"
  }
}
