{
  "meta": {
    "timestamp": "2023-02-26T21:01:11.140832Z",
    "stations_updated": "2023-01-30"
  },
  "altimeter": {
    "repr": "A2961",
    "value": 29.61,
    "spoken": "two nine point six one"
  },
  "clouds": [
    {
      "repr": "FEW029",
      "type": "FEW",
      "altitude": 29,
      "modifier": null
    },
    {
      "repr": "BKN050",
      "type": "BKN",
      "altitude": 50,
      "modifier": null
    }
  ],
  "flight_rules": "VFR",
  "other": [],
  "visibility": {
    "repr": "10",
    "value": 10,
    "spoken": "one zero"
  },
  "wind_direction": {
    "repr": "270",
    "value": 270,
    "spoken": "two seven zero"
  },
  "wind_gust": {
    "repr": "21",
    "value": 21,
    "spoken": "two one"
  },
  "wind_speed": {
    "repr": "15",
    "value": 15,
    "spoken": "one five"
  },
  "wx_codes": [],
  "raw": "KAWO 262056Z AUTO 27015G21KT 240V320 10SM FEW029 BKN050 08/M03 A2961 RMK AO2 SLP033 T00781028 51019",
  "sanitized": "KAWO 262056Z 27015G21KT 240V320 10SM FEW029 BKN050 08/M03 A2961 RMK AO2 SLP033 T00781028 51019",
  "station": "KAWO",
  "time": {
    "repr": "262056Z",
    "dt": "2023-02-26T20:56:00Z"
  },
  "remarks": "RMK AO2 SLP033 T00781028 51019",
  "dewpoint": {
    "repr": "M03",
    "value": -3,
    "spoken": "minus three"
  },
  "relative_humidity": 0.47047967147045183,
  "remarks_info": {
    "maximum_temperature_6": null,
    "minimum_temperature_6": null,
    "pressure_tendency": {
      "repr": "51019",
      "tendency": "Increasing, then steady",
      "change": 1.9
    },
    "precip_36_hours": null,
    "precip_24_hours": null,
    "sunshine_minutes": null,
    "codes": [
      {
        "repr": "AO2",
        "value": "Automated with precipitation sensor"
      }
    ],
    "dewpoint_decimal": {
      "repr": "1028",
      "value": -2.8,
      "spoken": "minus two point eight"
    },
    "maximum_temperature_24": null,
    "minimum_temperature_24": null,
    "precip_hourly": null,
    "sea_level_pressure": {
      "repr": "SLP033",
      "value": 1003.3,
      "spoken": "one zero zero three point three"
    },
    "snow_depth": null,
    "temperature_decimal": {
      "repr": "0078",
      "value": 7.8,
      "spoken": "seven point eight"
    }
  },
  "runway_visibility": [],
  "temperature": {
    "repr": "08",
    "value": 8,
    "spoken": "eight"
  },
  "wind_variable_direction": [
    {
      "repr": "240",
      "value": 240,
      "spoken": "two four zero"
    },
    {
      "repr": "320",
      "value": 320,
      "spoken": "three two zero"
    }
  ],
  "density_altitude": -378,
  "pressure_altitude": 452,
  "units": {
    "accumulation": "in",
    "altimeter": "inHg",
    "altitude": "ft",
    "temperature": "C",
    "visibility": "sm",
    "wind_speed": "kt"
  }
}
