{
  "altimeter": {
    "repr": "A3009",
    "spoken": "three zero point zero nine",
    "value": 30.09
  },
  "clouds": [
    {
      "altitude": 21,
      "modifier": null,
      "repr": "OVC021",
      "type": "OVC"
    }
  ],
  "density_altitude": 138,
  "dewpoint": {
    "repr": "14",
    "spoken": "one four",
    "value": 14
  },
  "flight_rules": "MVFR",
  "meta": {
    "stations_updated": "2024-06-12",
    "timestamp": "2024-10-14T23:06:52.221470Z"
  },
  "other": [],
  "pressure_altitude": -28,
  "raw": "KAWO 142256Z AUTO 14008KT 10SM -RA OVC021 16/14 A3009 RMK AO2 SLP196 P0001 T01610144",
  "relative_humidity": 0.8965046931455897,
  "remarks": "RMK AO2 SLP196 P0001 T01610144",
  "remarks_info": {
    "codes": [
      {
        "repr": "AO2",
        "value": "Automated with precipitation sensor"
      }
    ],
    "dewpoint_decimal": {
      "repr": "0144",
      "spoken": "one four point four",
      "value": 14.4
    },
    "maximum_temperature_24": null,
    "maximum_temperature_6": null,
    "minimum_temperature_24": null,
    "minimum_temperature_6": null,
    "precip_24_hours": null,
    "precip_36_hours": null,
    "precip_hourly": {
      "repr": "P0001",
      "spoken": "zero point zero one",
      "value": 0.01
    },
    "pressure_tendency": null,
    "sea_level_pressure": {
      "repr": "SLP196",
      "spoken": "one zero one nine point six",
      "value": 1019.6
    },
    "snow_depth": null,
    "sunshine_minutes": null,
    "temperature_decimal": {
      "repr": "0161",
      "spoken": "one six point one",
      "value": 16.1
    }
  },
  "runway_visibility": [],
  "sanitized": "KAWO 142256Z 14008KT 10SM -RA OVC021 16/14 A3009 RMK AO2 SLP196 P0001 T01610144",
  "station": "KAWO",
  "temperature": {
    "repr": "16",
    "spoken": "one six",
    "value": 16
  },
  "time": {
    "dt": "2024-10-14T22:56:00Z",
    "repr": "142256Z"
  },
  "units": {
    "accumulation": "in",
    "altimeter": "inHg",
    "altitude": "ft",
    "temperature": "C",
    "visibility": "sm",
    "wind_speed": "kt"
  },
  "visibility": {
    "repr": "10",
    "spoken": "one zero",
    "value": 10
  },
  "wind_direction": {
    "repr": "140",
    "spoken": "one four zero",
    "value": 140
  },
  "wind_gust": null,
  "wind_speed": {
    "repr": "08",
    "spoken": "eight",
    "value": 8
  },
  "wind_variable_direction": [],
  "wx_codes": [
    {
      "repr": "-RA",
      "value": "Light Rain"
    }
  ]
}
