{
  "meta": {
    "timestamp": "2023-02-05T08:29:22.802621Z",
    "stations_updated": "2023-01-30"
  },
  "altimeter": {
    "repr": "A2973",
    "value": 29.73,
    "spoken": "two nine point seven three"
  },
  "clouds": [
    {
      "repr": "FEW080",
      "type": "FEW",
      "altitude": 80,
      "modifier": null
    },
    {
      "repr": "SCT100",
      "type": "SCT",
      "altitude": 100,
      "modifier": null
    }
  ],
  "flight_rules": "VFR",
  "other": [],
  "visibility": {
    "repr": "10",
    "value": 10,
    "spoken": "one zero"
  },
  "wind_direction": {
    "repr": "050",
    "value": 50,
    "spoken": "zero five zero"
  },
  "wind_gust": null,
  "wind_speed": {
    "repr": "08",
    "value": 8,
    "spoken": "eight"
  },
  "wx_codes": [],
  "raw": "KAWO 050756Z AUTO 05008KT 10SM FEW080 SCT100 07/06 A2973 RMK AO2 RAE29 SLP071 P0000 T00720056 401110067",
  "sanitized": "KAWO 050756Z 05008KT 10SM FEW080 SCT100 07/06 A2973 RMK AO2 RAE29 SLP071 P0000 T00720056 401110067",
  "station": "KAWO",
  "time": {
    "repr": "050756Z",
    "dt": "2023-02-05T07:56:00Z"
  },
  "remarks": "RMK AO2 RAE29 SLP071 P0000 T00720056 401110067",
  "dewpoint": {
    "repr": "06",
    "value": 6,
    "spoken": "six"
  },
  "relative_humidity": 0.8956218363001711,
  "remarks_info": {
    "maximum_temperature_6": null,
    "minimum_temperature_6": null,
    "pressure_tendency": null,
    "precip_36_hours": null,
    "precip_24_hours": null,
    "sunshine_minutes": null,
    "codes": [
      {
        "repr": "AO2",
        "value": "Automated with precipitation sensor"
      },
      {
        "repr": "P0000",
        "value": "Trace amount of rain in the last hour"
      },
      {
        "repr": "RAE29",
        "value": "Rain ended at :29"
      }
    ],
    "dewpoint_decimal": {
      "repr": "0056",
      "value": 5.6,
      "spoken": "five point six"
    },
    "maximum_temperature_24": {
      "repr": "0111",
      "value": 11.1,
      "spoken": "one one point one"
    },
    "minimum_temperature_24": {
      "repr": "0067",
      "value": 6.7,
      "spoken": "six point seven"
    },
    "precip_hourly": null,
    "sea_level_pressure": {
      "repr": "SLP071",
      "value": 1007.1,
      "spoken": "one zero zero seven point one"
    },
    "snow_depth": null,
    "temperature_decimal": {
      "repr": "0072",
      "value": 7.2,
      "spoken": "seven point two"
    }
  },
  "runway_visibility": [],
  "temperature": {
    "repr": "07",
    "value": 7,
    "spoken": "seven"
  },
  "wind_variable_direction": [],
  "density_altitude": -570,
  "pressure_altitude": 332,
  "units": {
    "accumulation": "in",
    "altimeter": "inHg",
    "altitude": "ft",
    "temperature": "C",
    "visibility": "sm",
    "wind_speed": "kt"
  }
}
