{
  "meta": {
    "timestamp": "2022-12-27T16:04:54.636100Z",
    "stations_updated": "2022-09-05"
  },
  "altimeter": {
    "repr": "A2892",
    "value": 28.92,
    "spoken": "two eight point nine two"
  },
  "clouds": [
    {
      "repr": "BKN042",
      "type": "BKN",
      "altitude": 42,
      "modifier": null
    },
    {
      "repr": "OVC049",
      "type": "OVC",
      "altitude": 49,
      "modifier": null
    }
  ],
  "flight_rules": "VFR",
  "other": [],
  "visibility": {
    "repr": "9",
    "value": 9,
    "spoken": "nine"
  },
  "wind_direction": {
    "repr": "190",
    "value": 190,
    "spoken": "one nine zero"
  },
  "wind_gust": null,
  "wind_speed": {
    "repr": "09",
    "value": 9,
    "spoken": "nine"
  },
  "wx_codes": [
    {
      "repr": "+RA",
      "value": "Heavy Rain"
    }
  ],
  "raw": "KAWO 271556Z AUTO 19009KT 9SM +RA BKN042 OVC049 09/08 A2892 RMK AO2 PK WND 14026/1501 WSHFT 1450 PRESRR SLP797 P0016 T00940078",
  "sanitized": "KAWO 271556Z 19009KT 9SM +RA BKN042 OVC049 09/08 A2892 RMK AO2 PK WND 14026/1501 WSHFT 1450 PRESRR SLP797 P0016 T00940078",
  "station": "KAWO",
  "time": {
    "repr": "271556Z",
    "dt": "2022-12-27T15:56:00Z"
  },
  "remarks": "RMK AO2 PK WND 14026/1501 WSHFT 1450 PRESRR SLP797 P0016 T00940078",
  "dewpoint": {
    "repr": "08",
    "value": 8,
    "spoken": "eight"
  },
  "relative_humidity": 0.8973391642211729,
  "remarks_info": {
    "maximum_temperature_6": null,
    "minimum_temperature_6": null,
    "pressure_tendency": null,
    "precip_36_hours": null,
    "precip_24_hours": null,
    "sunshine_minutes": null,
    "codes": [
      {
        "repr": "AO2",
        "value": "Automated with precipitation sensor"
      },
      {
        "repr": "PRESRR",
        "value": "Pressure Rising Rapidly"
      }
    ],
    "dewpoint_decimal": {
      "repr": "0078",
      "value": 7.8,
      "spoken": "seven point eight"
    },
    "maximum_temperature_24": null,
    "minimum_temperature_24": null,
    "precip_hourly": {
      "repr": "P0016",
      "value": 0.16,
      "spoken": "zero point one six"
    },
    "sea_level_pressure": {
      "repr": "SLP797",
      "value": 979.7,
      "spoken": "nine seven nine point seven"
    },
    "snow_depth": null,
    "temperature_decimal": {
      "repr": "0094",
      "value": 9.4,
      "spoken": "nine point four"
    }
  },
  "runway_visibility": [],
  "temperature": {
    "repr": "09",
    "value": 9,
    "spoken": "nine"
  },
  "wind_variable_direction": [],
  "density_altitude": 504,
  "pressure_altitude": 1142,
  "units": {
    "accumulation": "in",
    "altimeter": "inHg",
    "altitude": "ft",
    "temperature": "C",
    "visibility": "sm",
    "wind_speed": "kt"
  }
}
