{
  "meta": {
    "timestamp": "2022-07-31T20:43:40.218356Z",
    "stations_updated": "2022-07-17"
  },
  "altimeter": {
    "repr": "A2991",
    "value": 29.91,
    "spoken": "two nine point nine one"
  },
  "clouds": [],
  "flight_rules": "VFR",
  "other": [],
  "visibility": {
    "repr": "10",
    "value": 10,
    "spoken": "one zero"
  },
  "wind_direction": {
    "repr": "VRB",
    "value": null,
    "spoken": "variable"
  },
  "wind_gust": null,
  "wind_speed": {
    "repr": "06",
    "value": 6,
    "spoken": "six"
  },
  "wx_codes": [],
  "raw": "KAWO 311956Z AUTO VRB06KT 10SM CLR 31/14 A2991 RMK AO2 SLP131 T03110144",
  "sanitized": "KAWO 311956Z VRB06KT 10SM 31/14 A2991 RMK AO2 SLP131 T03110144",
  "station": "KAWO",
  "time": {
    "repr": "311956Z",
    "dt": "2022-07-31T19:56:00Z"
  },
  "remarks": "RMK AO2 SLP131 T03110144",
  "dewpoint": {
    "repr": "14",
    "value": 14,
    "spoken": "one four"
  },
  "relative_humidity": 0.3625429704356535,
  "remarks_info": {
    "maximum_temperature_6": null,
    "minimum_temperature_6": null,
    "pressure_tendency": null,
    "precip_36_hours": null,
    "precip_24_hours": null,
    "sunshine_minutes": null,
    "codes": [
      {
        "repr": "AO2",
        "value": "Automated with precipitation sensor"
      }
    ],
    "dewpoint_decimal": {
      "repr": "0144",
      "value": 14.4,
      "spoken": "one four point four"
    },
    "maximum_temperature_24": null,
    "minimum_temperature_24": null,
    "precip_hourly": null,
    "sea_level_pressure": {
      "repr": "SLP131",
      "value": 1013.1,
      "spoken": "one zero one three point one"
    },
    "snow_depth": null,
    "temperature_decimal": {
      "repr": "0311",
      "value": 31.1,
      "spoken": "three one point one"
    }
  },
  "runway_visibility": [],
  "temperature": {
    "repr": "31",
    "value": 31,
    "spoken": "three one"
  },
  "wind_variable_direction": [],
  "density_altitude": 2118,
  "pressure_altitude": 152,
  "units": {
    "accumulation": "in",
    "altimeter": "inHg",
    "altitude": "ft",
    "temperature": "C",
    "visibility": "sm",
    "wind_speed": "kt"
  }
}
