{
  "altimeter": {
    "repr": "A2988",
    "spoken": "two nine point eight eight",
    "value": 29.88
  },
  "clouds": [
    {
      "altitude": 16,
      "modifier": null,
      "repr": "OVC016",
      "type": "OVC"
    }
  ],
  "density_altitude": 144,
  "dewpoint": {
    "repr": "11",
    "spoken": "one one",
    "value": 11
  },
  "flight_rules": "MVFR",
  "meta": {
    "stations_updated": "2024-06-12",
    "timestamp": "2024-09-17T19:23:14.336126Z"
  },
  "other": [],
  "pressure_altitude": 182,
  "raw": "KAWO 171856Z AUTO 17006KT 10SM OVC016 14/11 A2988 RMK AO2 SLP125 T01440111",
  "relative_humidity": 0.8055404722783964,
  "remarks": "RMK AO2 SLP125 T01440111",
  "remarks_info": {
    "codes": [
      {
        "repr": "AO2",
        "value": "Automated with precipitation sensor"
      }
    ],
    "dewpoint_decimal": {
      "repr": "0111",
      "spoken": "one one point one",
      "value": 11.1
    },
    "maximum_temperature_24": null,
    "maximum_temperature_6": null,
    "minimum_temperature_24": null,
    "minimum_temperature_6": null,
    "precip_24_hours": null,
    "precip_36_hours": null,
    "precip_hourly": null,
    "pressure_tendency": null,
    "sea_level_pressure": {
      "repr": "SLP125",
      "spoken": "one zero one two point five",
      "value": 1012.5
    },
    "snow_depth": null,
    "sunshine_minutes": null,
    "temperature_decimal": {
      "repr": "0144",
      "spoken": "one four point four",
      "value": 14.4
    }
  },
  "runway_visibility": [],
  "sanitized": "KAWO 171856Z 17006KT 10SM OVC016 14/11 A2988 RMK AO2 SLP125 T01440111",
  "station": "KAWO",
  "temperature": {
    "repr": "14",
    "spoken": "one four",
    "value": 14
  },
  "time": {
    "dt": "2024-09-17T18:56:00Z",
    "repr": "171856Z"
  },
  "units": {
    "accumulation": "in",
    "altimeter": "inHg",
    "altitude": "ft",
    "temperature": "C",
    "visibility": "sm",
    "wind_speed": "kt"
  },
  "visibility": {
    "repr": "10",
    "spoken": "one zero",
    "value": 10
  },
  "wind_direction": {
    "repr": "170",
    "spoken": "one seven zero",
    "value": 170
  },
  "wind_gust": null,
  "wind_speed": {
    "repr": "06",
    "spoken": "six",
    "value": 6
  },
  "wind_variable_direction": [],
  "wx_codes": []
}
