{
  "altimeter": {
    "repr": "A2943",
    "spoken": "two nine point four three",
    "value": 29.43
  },
  "clouds": [
    {
      "altitude": 45,
      "modifier": null,
      "repr": "FEW045",
      "type": "FEW"
    },
    {
      "altitude": 60,
      "modifier": null,
      "repr": "OVC060",
      "type": "OVC"
    }
  ],
  "density_altitude": -534,
  "dewpoint": {
    "repr": "05",
    "spoken": "five",
    "value": 5
  },
  "flight_rules": "VFR",
  "meta": {
    "stations_updated": "2023-10-28",
    "timestamp": "2024-01-22T13:27:52.332126Z"
  },
  "other": [],
  "pressure_altitude": 632,
  "raw": "KAWO 221256Z AUTO 00000KT 7SM -RA FEW045 OVC060 05/05 A2943 RMK AO2 SLP972 P0004 T00500050",
  "relative_humidity": 1,
  "remarks": "RMK AO2 SLP972 P0004 T00500050",
  "remarks_info": {
    "codes": [
      {
        "repr": "AO2",
        "value": "Automated with precipitation sensor"
      }
    ],
    "dewpoint_decimal": {
      "repr": "0050",
      "spoken": "five point zero",
      "value": 5
    },
    "maximum_temperature_24": null,
    "maximum_temperature_6": null,
    "minimum_temperature_24": null,
    "minimum_temperature_6": null,
    "precip_24_hours": null,
    "precip_36_hours": null,
    "precip_hourly": {
      "repr": "P0004",
      "spoken": "zero point zero four",
      "value": 0.04
    },
    "pressure_tendency": null,
    "sea_level_pressure": {
      "repr": "SLP972",
      "spoken": "nine nine seven point two",
      "value": 997.2
    },
    "snow_depth": null,
    "sunshine_minutes": null,
    "temperature_decimal": {
      "repr": "0050",
      "spoken": "five point zero",
      "value": 5
    }
  },
  "runway_visibility": [],
  "sanitized": "KAWO 221256Z 00000KT 7SM -RA FEW045 OVC060 05/05 A2943 RMK AO2 SLP972 P0004 T00500050",
  "station": "KAWO",
  "temperature": {
    "repr": "05",
    "spoken": "five",
    "value": 5
  },
  "time": {
    "dt": "2024-01-22T12:56:00Z",
    "repr": "221256Z"
  },
  "units": {
    "accumulation": "in",
    "altimeter": "inHg",
    "altitude": "ft",
    "temperature": "C",
    "visibility": "sm",
    "wind_speed": "kt"
  },
  "visibility": {
    "repr": "7",
    "spoken": "seven",
    "value": 7
  },
  "wind_direction": {
    "repr": "000",
    "spoken": "zero zero zero",
    "value": 0
  },
  "wind_gust": null,
  "wind_speed": {
    "repr": "00",
    "spoken": "zero",
    "value": 0
  },
  "wind_variable_direction": [],
  "wx_codes": [
    {
      "repr": "-RA",
      "value": "Light Rain"
    }
  ]
}
