{
  "altimeter": {
    "repr": "A3008",
    "spoken": "three zero point zero eight",
    "value": 30.08
  },
  "clouds": [],
  "density_altitude": 1684,
  "dewpoint": {
    "repr": "19",
    "spoken": "one nine",
    "value": 19
  },
  "flight_rules": "VFR",
  "meta": {
    "stations_updated": "2024-06-12",
    "timestamp": "2024-09-05T21:25:54.026360Z"
  },
  "other": [],
  "pressure_altitude": -18,
  "raw": "KAWO 052056Z AUTO 31006KT 10SM CLR 29/19 A3008 RMK AO2 SLP190 T02890194 58017",
  "relative_humidity": 0.565089934321416,
  "remarks": "RMK AO2 SLP190 T02890194 58017",
  "remarks_info": {
    "codes": [
      {
        "repr": "AO2",
        "value": "Automated with precipitation sensor"
      }
    ],
    "dewpoint_decimal": {
      "repr": "0194",
      "spoken": "one nine point four",
      "value": 19.4
    },
    "maximum_temperature_24": null,
    "maximum_temperature_6": null,
    "minimum_temperature_24": null,
    "minimum_temperature_6": null,
    "precip_24_hours": null,
    "precip_36_hours": null,
    "precip_hourly": null,
    "pressure_tendency": {
      "change": 1.7,
      "repr": "58017",
      "tendency": "Steady or increasing, then decreasing"
    },
    "sea_level_pressure": {
      "repr": "SLP190",
      "spoken": "one zero one nine point zero",
      "value": 1019
    },
    "snow_depth": null,
    "sunshine_minutes": null,
    "temperature_decimal": {
      "repr": "0289",
      "spoken": "two eight point nine",
      "value": 28.9
    }
  },
  "runway_visibility": [],
  "sanitized": "KAWO 052056Z 31006KT 10SM 29/19 A3008 RMK AO2 SLP190 T02890194 58017",
  "station": "KAWO",
  "temperature": {
    "repr": "29",
    "spoken": "two nine",
    "value": 29
  },
  "time": {
    "dt": "2024-09-05T20:56:00Z",
    "repr": "052056Z"
  },
  "units": {
    "accumulation": "in",
    "altimeter": "inHg",
    "altitude": "ft",
    "temperature": "C",
    "visibility": "sm",
    "wind_speed": "kt"
  },
  "visibility": {
    "repr": "10",
    "spoken": "one zero",
    "value": 10
  },
  "wind_direction": {
    "repr": "310",
    "spoken": "three one zero",
    "value": 310
  },
  "wind_gust": null,
  "wind_speed": {
    "repr": "06",
    "spoken": "six",
    "value": 6
  },
  "wind_variable_direction": [],
  "wx_codes": []
}
