{
  "meta": {
    "timestamp": "2023-09-08T12:08:51.293024Z",
    "stations_updated": "2023-08-05",
    "cache-timestamp": "2023-09-08T12:08:03.287000Z"
  },
  "altimeter": {
    "repr": "A3011",
    "value": 30.11,
    "spoken": "three zero point one one"
  },
  "clouds": [
    {
      "repr": "BKN001",
      "type": "BKN",
      "altitude": 1,
      "modifier": null
    }
  ],
  "flight_rules": "LIFR",
  "other": [],
  "visibility": {
    "repr": "1/4",
    "value": 0.25,
    "spoken": "one quarter",
    "numerator": 1,
    "denominator": 4,
    "normalized": "1/4"
  },
  "wind_direction": {
    "repr": "350",
    "value": 350,
    "spoken": "three five zero"
  },
  "wind_gust": null,
  "wind_speed": {
    "repr": "06",
    "value": 6,
    "spoken": "six"
  },
  "wx_codes": [
    {
      "repr": "FG",
      "value": "Fog"
    }
  ],
  "raw": "KAWO 081156Z AUTO 35006KT 1/4SM FG BKN001 08/08 A3011 RMK AO2 SLP200 T00830078 10128 20078 53002",
  "sanitized": "KAWO 081156Z 35006KT 1/4SM FG BKN001 08/08 A3011 RMK AO2 SLP200 T00830078 10128 20078 53002",
  "station": "KAWO",
  "time": {
    "repr": "081156Z",
    "dt": "2023-09-08T11:56:00Z"
  },
  "remarks": "RMK AO2 SLP200 T00830078 10128 20078 53002",
  "dewpoint": {
    "repr": "08",
    "value": 8,
    "spoken": "eight"
  },
  "relative_humidity": 0.9665731399975396,
  "remarks_info": {
    "maximum_temperature_6": {
      "repr": "10128",
      "value": 12.8,
      "spoken": "one two point eight"
    },
    "minimum_temperature_6": {
      "repr": "20078",
      "value": 7.8,
      "spoken": "seven point eight"
    },
    "pressure_tendency": {
      "repr": "53002",
      "tendency": "Decreasing or steady, then increasing",
      "change": 0.2
    },
    "precip_36_hours": null,
    "precip_24_hours": null,
    "sunshine_minutes": null,
    "codes": [
      {
        "repr": "AO2",
        "value": "Automated with precipitation sensor"
      }
    ],
    "dewpoint_decimal": {
      "repr": "0078",
      "value": 7.8,
      "spoken": "seven point eight"
    },
    "maximum_temperature_24": null,
    "minimum_temperature_24": null,
    "precip_hourly": null,
    "sea_level_pressure": {
      "repr": "SLP200",
      "value": 1020,
      "spoken": "one zero two zero point zero"
    },
    "snow_depth": null,
    "temperature_decimal": {
      "repr": "0083",
      "value": 8.3,
      "spoken": "eight point three"
    }
  },
  "runway_visibility": [],
  "temperature": {
    "repr": "08",
    "value": 8,
    "spoken": "eight"
  },
  "wind_variable_direction": [],
  "density_altitude": -818,
  "pressure_altitude": -48,
  "units": {
    "accumulation": "in",
    "altimeter": "inHg",
    "altitude": "ft",
    "temperature": "C",
    "visibility": "sm",
    "wind_speed": "kt"
  }
}
