{
  "meta": {
    "timestamp": "2022-12-22T10:29:26.441478Z",
    "stations_updated": "2022-09-05"
  },
  "altimeter": {
    "repr": "A3058",
    "value": 30.58,
    "spoken": "three zero point five eight"
  },
  "clouds": [],
  "flight_rules": "VFR",
  "other": [],
  "visibility": {
    "repr": "10",
    "value": 10,
    "spoken": "one zero"
  },
  "wind_direction": {
    "repr": "340",
    "value": 340,
    "spoken": "three four zero"
  },
  "wind_gust": null,
  "wind_speed": {
    "repr": "06",
    "value": 6,
    "spoken": "six"
  },
  "wx_codes": [],
  "raw": "KAWO 220956Z AUTO 34006KT 10SM CLR M13/M16 A3058 RMK AO2 SLP363 T11331156 FZRANO",
  "sanitized": "KAWO 220956Z 34006KT 10SM M13/M16 A3058 RMK AO2 SLP363 T11331156 FZRANO",
  "station": "KAWO",
  "time": {
    "repr": "220956Z",
    "dt": "2022-12-22T09:56:00Z"
  },
  "remarks": "RMK AO2 SLP363 T11331156 FZRANO",
  "dewpoint": {
    "repr": "M16",
    "value": -16,
    "spoken": "minus one six"
  },
  "relative_humidity": 0.8280917862677317,
  "remarks_info": {
    "maximum_temperature_6": null,
    "minimum_temperature_6": null,
    "pressure_tendency": null,
    "precip_36_hours": null,
    "precip_24_hours": null,
    "sunshine_minutes": null,
    "codes": [
      {
        "repr": "AO2",
        "value": "Automated with precipitation sensor"
      },
      {
        "repr": "FZRANO",
        "value": "Freezing rain information not available"
      }
    ],
    "dewpoint_decimal": {
      "repr": "1156",
      "value": -15.6,
      "spoken": "minus one five point six"
    },
    "maximum_temperature_24": null,
    "minimum_temperature_24": null,
    "precip_hourly": null,
    "sea_level_pressure": {
      "repr": "SLP363",
      "value": 1036.3,
      "spoken": "one zero three six point three"
    },
    "snow_depth": null,
    "temperature_decimal": {
      "repr": "1133",
      "value": -13.3,
      "spoken": "minus one three point three"
    }
  },
  "runway_visibility": [],
  "temperature": {
    "repr": "M13",
    "value": -13,
    "spoken": "minus one three"
  },
  "wind_variable_direction": [],
  "density_altitude": -3880,
  "pressure_altitude": -518,
  "units": {
    "accumulation": "in",
    "altimeter": "inHg",
    "altitude": "ft",
    "temperature": "C",
    "visibility": "sm",
    "wind_speed": "kt"
  }
}
