{
  "meta": {
    "timestamp": "2022-12-01T05:03:08.970371Z",
    "stations_updated": "2022-09-05"
  },
  "altimeter": {
    "repr": "A2956",
    "value": 29.56,
    "spoken": "two nine point five six"
  },
  "clouds": [],
  "flight_rules": "IFR",
  "other": [],
  "visibility": {
    "repr": "3/2",
    "value": 1.5,
    "spoken": "one and one half",
    "numerator": 3,
    "denominator": 2,
    "normalized": "1 1/2"
  },
  "wind_direction": {
    "repr": "000",
    "value": 0,
    "spoken": "zero zero zero"
  },
  "wind_gust": null,
  "wind_speed": {
    "repr": "00",
    "value": 0,
    "spoken": "zero"
  },
  "wx_codes": [
    {
      "repr": "BR",
      "value": "Mist"
    }
  ],
  "raw": "KAWO 010458Z AUTO 00000KT 1 1/2SM BR CLR M01/M02 A2956 RMK AO2 FZRANO",
  "sanitized": "KAWO 010458Z 00000KT 1 1/2SM BR M01/M02 A2956 RMK AO2 FZRANO",
  "station": "KAWO",
  "time": {
    "repr": "010458Z",
    "dt": "2022-12-01T04:58:00Z"
  },
  "remarks": "RMK AO2 FZRANO",
  "dewpoint": {
    "repr": "M02",
    "value": -2,
    "spoken": "minus two"
  },
  "relative_humidity": 0.9291645551718306,
  "remarks_info": {
    "maximum_temperature_6": null,
    "minimum_temperature_6": null,
    "pressure_tendency": null,
    "precip_36_hours": null,
    "precip_24_hours": null,
    "sunshine_minutes": null,
    "codes": [
      {
        "repr": "AO2",
        "value": "Automated with precipitation sensor"
      },
      {
        "repr": "FZRANO",
        "value": "Freezing rain information not available"
      }
    ],
    "dewpoint_decimal": null,
    "maximum_temperature_24": null,
    "minimum_temperature_24": null,
    "precip_hourly": null,
    "sea_level_pressure": null,
    "snow_depth": null,
    "temperature_decimal": null
  },
  "runway_visibility": [],
  "temperature": {
    "repr": "M01",
    "value": -1,
    "spoken": "minus one"
  },
  "wind_variable_direction": [],
  "density_altitude": -1384,
  "pressure_altitude": 502,
  "units": {
    "accumulation": "in",
    "altimeter": "inHg",
    "altitude": "ft",
    "temperature": "C",
    "visibility": "sm",
    "wind_speed": "kt"
  }
}
