{
  "meta": {
    "timestamp": "2023-01-06T09:14:38.274173Z",
    "stations_updated": "2022-12-27",
    "cache-timestamp": "2023-01-06T09:14:07.244000Z"
  },
  "altimeter": {
    "repr": "A2989",
    "value": 29.89,
    "spoken": "two nine point eight nine"
  },
  "clouds": [
    {
      "repr": "SCT036",
      "type": "SCT",
      "altitude": 36,
      "modifier": null
    }
  ],
  "flight_rules": "VFR",
  "other": [],
  "visibility": {
    "repr": "10",
    "value": 10,
    "spoken": "one zero"
  },
  "wind_direction": {
    "repr": "140",
    "value": 140,
    "spoken": "one four zero"
  },
  "wind_gust": {
    "repr": "21",
    "value": 21,
    "spoken": "two one"
  },
  "wind_speed": {
    "repr": "15",
    "value": 15,
    "spoken": "one five"
  },
  "wx_codes": [],
  "raw": "KAWO 060856Z AUTO 14015G21KT 10SM SCT036 09/06 A2989 RMK AO2 SLP127 60000 T00890061 51034",
  "sanitized": "KAWO 060856Z 14015G21KT 10SM SCT036 09/06 A2989 RMK AO2 SLP127 60000 T00890061 51034",
  "station": "KAWO",
  "time": {
    "repr": "060856Z",
    "dt": "2023-01-06T08:56:00Z"
  },
  "remarks": "RMK AO2 SLP127 60000 T00890061 51034",
  "dewpoint": {
    "repr": "06",
    "value": 6,
    "spoken": "six"
  },
  "relative_humidity": 0.8259412939623852,
  "remarks_info": {
    "maximum_temperature_6": null,
    "minimum_temperature_6": null,
    "pressure_tendency": {
      "repr": "51034",
      "tendency": "Increasing, then steady",
      "change": 3.4
    },
    "precip_36_hours": {
      "repr": "60000",
      "value": 0,
      "spoken": "zero"
    },
    "precip_24_hours": null,
    "sunshine_minutes": null,
    "codes": [
      {
        "repr": "AO2",
        "value": "Automated with precipitation sensor"
      }
    ],
    "dewpoint_decimal": {
      "repr": "0061",
      "value": 6.1,
      "spoken": "six point one"
    },
    "maximum_temperature_24": null,
    "minimum_temperature_24": null,
    "precip_hourly": null,
    "sea_level_pressure": {
      "repr": "SLP127",
      "value": 1012.7,
      "spoken": "one zero one two point seven"
    },
    "snow_depth": null,
    "temperature_decimal": {
      "repr": "0089",
      "value": 8.9,
      "spoken": "eight point nine"
    }
  },
  "runway_visibility": [],
  "temperature": {
    "repr": "09",
    "value": 9,
    "spoken": "nine"
  },
  "wind_variable_direction": [],
  "density_altitude": -526,
  "pressure_altitude": 172,
  "units": {
    "accumulation": "in",
    "altimeter": "inHg",
    "altitude": "ft",
    "temperature": "C",
    "visibility": "sm",
    "wind_speed": "kt"
  }
}
