{
  "altimeter": {
    "repr": "A2990",
    "spoken": "two nine point nine zero",
    "value": 29.9
  },
  "clouds": [],
  "density_altitude": -1676,
  "dewpoint": {
    "repr": "M01",
    "spoken": "minus one",
    "value": -1
  },
  "flight_rules": "VFR",
  "meta": {
    "cache-timestamp": "2023-11-18T09:40:06.463000Z",
    "stations_updated": "2023-10-28",
    "timestamp": "2023-11-18T09:40:30.674673Z"
  },
  "other": [],
  "pressure_altitude": 162,
  "raw": "KAWO 180856Z AUTO 34003KT 10SM CLR M01/M01 A2990 RMK AO2 SLP132 T10061011 58008 FZRANO",
  "relative_humidity": 0.9641214064863484,
  "remarks": "RMK AO2 SLP132 T10061011 58008 FZRANO",
  "remarks_info": {
    "codes": [
      {
        "repr": "AO2",
        "value": "Automated with precipitation sensor"
      },
      {
        "repr": "FZRANO",
        "value": "Freezing rain information not available"
      }
    ],
    "dewpoint_decimal": {
      "repr": "1011",
      "spoken": "minus one point one",
      "value": -1.1
    },
    "maximum_temperature_24": null,
    "maximum_temperature_6": null,
    "minimum_temperature_24": null,
    "minimum_temperature_6": null,
    "precip_24_hours": null,
    "precip_36_hours": null,
    "precip_hourly": null,
    "pressure_tendency": {
      "change": 0.8,
      "repr": "58008",
      "tendency": "Steady or increasing, then decreasing"
    },
    "sea_level_pressure": {
      "repr": "SLP132",
      "spoken": "one zero one three point two",
      "value": 1013.2
    },
    "snow_depth": null,
    "sunshine_minutes": null,
    "temperature_decimal": {
      "repr": "1006",
      "spoken": "minus zero point six",
      "value": -0.6
    }
  },
  "runway_visibility": [],
  "sanitized": "KAWO 180856Z 34003KT 10SM M01/M01 A2990 RMK AO2 SLP132 T10061011 58008 FZRANO",
  "station": "KAWO",
  "temperature": {
    "repr": "M01",
    "spoken": "minus one",
    "value": -1
  },
  "time": {
    "dt": "2023-11-18T08:56:00Z",
    "repr": "180856Z"
  },
  "units": {
    "accumulation": "in",
    "altimeter": "inHg",
    "altitude": "ft",
    "temperature": "C",
    "visibility": "sm",
    "wind_speed": "kt"
  },
  "visibility": {
    "repr": "10",
    "spoken": "one zero",
    "value": 10
  },
  "wind_direction": {
    "repr": "340",
    "spoken": "three four zero",
    "value": 340
  },
  "wind_gust": null,
  "wind_speed": {
    "repr": "03",
    "spoken": "three",
    "value": 3
  },
  "wind_variable_direction": [],
  "wx_codes": []
}
