{
  "meta": {
    "timestamp": "2023-03-04T00:29:20.674457Z",
    "stations_updated": "2023-01-30"
  },
  "altimeter": {
    "repr": "A2986",
    "value": 29.86,
    "spoken": "two nine point eight six"
  },
  "clouds": [
    {
      "repr": "FEW031",
      "type": "FEW",
      "altitude": 31,
      "modifier": null
    }
  ],
  "flight_rules": "VFR",
  "other": [],
  "visibility": {
    "repr": "10",
    "value": 10,
    "spoken": "one zero"
  },
  "wind_direction": {
    "repr": "150",
    "value": 150,
    "spoken": "one five zero"
  },
  "wind_gust": null,
  "wind_speed": {
    "repr": "12",
    "value": 12,
    "spoken": "one two"
  },
  "wx_codes": [
    {
      "repr": "-RA",
      "value": "Light Rain"
    }
  ],
  "raw": "KAWO 032356Z AUTO 15012KT 10SM -RA FEW031 04/02 A2986 RMK AO2 RAB2258 SLP115 P0000 60000 T00440017 10061 20039 56021",
  "sanitized": "KAWO 032356Z 15012KT 10SM -RA FEW031 04/02 A2986 RMK AO2 RAB2258 SLP115 P0000 60000 T00440017 10061 20039 56021",
  "station": "KAWO",
  "time": {
    "repr": "032356Z",
    "dt": "2023-03-03T23:56:00Z"
  },
  "remarks": "RMK AO2 RAB2258 SLP115 P0000 60000 T00440017 10061 20039 56021",
  "dewpoint": {
    "repr": "02",
    "value": 2,
    "spoken": "two"
  },
  "relative_humidity": 0.8260348577577609,
  "remarks_info": {
    "maximum_temperature_6": {
      "repr": "10061",
      "value": 6.1,
      "spoken": "six point one"
    },
    "minimum_temperature_6": {
      "repr": "20039",
      "value": 3.9,
      "spoken": "three point nine"
    },
    "pressure_tendency": {
      "repr": "56021",
      "tendency": "Decreasing, then steady",
      "change": 2.1
    },
    "precip_36_hours": {
      "repr": "60000",
      "value": 0,
      "spoken": "zero"
    },
    "precip_24_hours": null,
    "sunshine_minutes": null,
    "codes": [
      {
        "repr": "AO2",
        "value": "Automated with precipitation sensor"
      },
      {
        "repr": "P0000",
        "value": "Trace amount of rain in the last hour"
      }
    ],
    "dewpoint_decimal": {
      "repr": "0017",
      "value": 1.7,
      "spoken": "one point seven"
    },
    "maximum_temperature_24": null,
    "minimum_temperature_24": null,
    "precip_hourly": null,
    "sea_level_pressure": {
      "repr": "SLP115",
      "value": 1011.5,
      "spoken": "one zero one one point five"
    },
    "snow_depth": null,
    "temperature_decimal": {
      "repr": "0044",
      "value": 4.4,
      "spoken": "four point four"
    }
  },
  "runway_visibility": [],
  "temperature": {
    "repr": "04",
    "value": 4,
    "spoken": "four"
  },
  "wind_variable_direction": [],
  "density_altitude": -1036,
  "pressure_altitude": 202,
  "units": {
    "accumulation": "in",
    "altimeter": "inHg",
    "altitude": "ft",
    "temperature": "C",
    "visibility": "sm",
    "wind_speed": "kt"
  }
}
