{
  "meta": {
    "timestamp": "2023-05-07T01:56:32.650118Z",
    "stations_updated": "2023-03-11",
    "cache-timestamp": "2023-05-07T01:56:05.047000Z"
  },
  "altimeter": {
    "repr": "A2997",
    "value": 29.97,
    "spoken": "two nine point nine seven"
  },
  "clouds": [
    {
      "repr": "BKN042",
      "type": "BKN",
      "altitude": 42,
      "modifier": null
    },
    {
      "repr": "OVC060",
      "type": "OVC",
      "altitude": 60,
      "modifier": null
    }
  ],
  "flight_rules": "VFR",
  "other": [],
  "visibility": {
    "repr": "10",
    "value": 10,
    "spoken": "one zero"
  },
  "wind_direction": {
    "repr": "340",
    "value": 340,
    "spoken": "three four zero"
  },
  "wind_gust": null,
  "wind_speed": {
    "repr": "04",
    "value": 4,
    "spoken": "four"
  },
  "wx_codes": [],
  "raw": "KAWO 070056Z AUTO 34004KT 10SM BKN042 OVC060 14/09 A2997 RMK AO2 SLP154 T01390089",
  "sanitized": "KAWO 070056Z 34004KT 10SM BKN042 OVC060 14/09 A2997 RMK AO2 SLP154 T01390089",
  "station": "KAWO",
  "time": {
    "repr": "070056Z",
    "dt": "2023-05-07T00:56:00Z"
  },
  "remarks": "RMK AO2 SLP154 T01390089",
  "dewpoint": {
    "repr": "09",
    "value": 9,
    "spoken": "nine"
  },
  "relative_humidity": 0.7181068274671634,
  "remarks_info": {
    "maximum_temperature_6": null,
    "minimum_temperature_6": null,
    "pressure_tendency": null,
    "precip_36_hours": null,
    "precip_24_hours": null,
    "sunshine_minutes": null,
    "codes": [
      {
        "repr": "AO2",
        "value": "Automated with precipitation sensor"
      }
    ],
    "dewpoint_decimal": {
      "repr": "0089",
      "value": 8.9,
      "spoken": "eight point nine"
    },
    "maximum_temperature_24": null,
    "minimum_temperature_24": null,
    "precip_hourly": null,
    "sea_level_pressure": {
      "repr": "SLP154",
      "value": 1015.4,
      "spoken": "one zero one five point four"
    },
    "snow_depth": null,
    "temperature_decimal": {
      "repr": "0139",
      "value": 13.9,
      "spoken": "one three point nine"
    }
  },
  "runway_visibility": [],
  "temperature": {
    "repr": "14",
    "value": 14,
    "spoken": "one four"
  },
  "wind_variable_direction": [],
  "density_altitude": -6,
  "pressure_altitude": 92,
  "units": {
    "accumulation": "in",
    "altimeter": "inHg",
    "altitude": "ft",
    "temperature": "C",
    "visibility": "sm",
    "wind_speed": "kt"
  }
}
