{
  "meta": {
    "timestamp": "2022-09-19T17:58:54.467923Z",
    "stations_updated": "2022-09-05"
  },
  "altimeter": {
    "repr": "A2988",
    "value": 29.88,
    "spoken": "two nine point eight eight"
  },
  "clouds": [],
  "flight_rules": "VFR",
  "other": [],
  "visibility": {
    "repr": "10",
    "value": 10,
    "spoken": "one zero"
  },
  "wind_direction": {
    "repr": "290",
    "value": 290,
    "spoken": "two nine zero"
  },
  "wind_gust": null,
  "wind_speed": {
    "repr": "03",
    "value": 3,
    "spoken": "three"
  },
  "wx_codes": [],
  "raw": "KAWO 191756Z AUTO 29003KT 10SM CLR 18/08 A2988 RMK AO2 SLP120 T01780083 10178 20044 53004",
  "sanitized": "KAWO 191756Z 29003KT 10SM 18/08 A2988 RMK AO2 SLP120 T01780083 10178 20044 53004",
  "station": "KAWO",
  "time": {
    "repr": "191756Z",
    "dt": "2022-09-19T17:56:00Z"
  },
  "remarks": "RMK AO2 SLP120 T01780083 10178 20044 53004",
  "dewpoint": {
    "repr": "08",
    "value": 8,
    "spoken": "eight"
  },
  "relative_humidity": 0.5372742846631848,
  "remarks_info": {
    "maximum_temperature_6": {
      "repr": "10178",
      "value": 17.8,
      "spoken": "one seven point eight"
    },
    "minimum_temperature_6": {
      "repr": "20044",
      "value": 4.4,
      "spoken": "four point four"
    },
    "pressure_tendency": {
      "repr": "53004",
      "tendency": "Decreasing or steady, then increasing",
      "change": 0.4
    },
    "precip_36_hours": null,
    "precip_24_hours": null,
    "sunshine_minutes": null,
    "codes": [
      {
        "repr": "AO2",
        "value": "Automated with precipitation sensor"
      }
    ],
    "dewpoint_decimal": {
      "repr": "0083",
      "value": 8.3,
      "spoken": "eight point three"
    },
    "maximum_temperature_24": null,
    "minimum_temperature_24": null,
    "precip_hourly": null,
    "sea_level_pressure": {
      "repr": "SLP120",
      "value": 1012,
      "spoken": "one zero one two point zero"
    },
    "snow_depth": null,
    "temperature_decimal": {
      "repr": "0178",
      "value": 17.8,
      "spoken": "one seven point eight"
    }
  },
  "runway_visibility": [],
  "temperature": {
    "repr": "18",
    "value": 18,
    "spoken": "one eight"
  },
  "wind_variable_direction": [],
  "density_altitude": 552,
  "pressure_altitude": 182,
  "units": {
    "accumulation": "in",
    "altimeter": "inHg",
    "altitude": "ft",
    "temperature": "C",
    "visibility": "sm",
    "wind_speed": "kt"
  }
}
