{
  "meta": {
    "timestamp": "2023-02-06T09:26:23.553328Z",
    "stations_updated": "2023-01-30",
    "cache-timestamp": "2023-02-06T09:26:06.921000Z"
  },
  "altimeter": {
    "repr": "A3028",
    "value": 30.28,
    "spoken": "three zero point two eight"
  },
  "clouds": [
    {
      "repr": "FEW027",
      "type": "FEW",
      "altitude": 27,
      "modifier": null
    },
    {
      "repr": "SCT055",
      "type": "SCT",
      "altitude": 55,
      "modifier": null
    },
    {
      "repr": "BKN110",
      "type": "BKN",
      "altitude": 110,
      "modifier": null
    }
  ],
  "flight_rules": "VFR",
  "other": [],
  "visibility": {
    "repr": "10",
    "value": 10,
    "spoken": "one zero"
  },
  "wind_direction": {
    "repr": "080",
    "value": 80,
    "spoken": "zero eight zero"
  },
  "wind_gust": null,
  "wind_speed": {
    "repr": "04",
    "value": 4,
    "spoken": "four"
  },
  "wx_codes": [],
  "raw": "KAWO 060856Z AUTO 08004KT 10SM FEW027 SCT055 BKN110 06/04 A3028 RMK AO2 RAE26 SLP260 P0000 60002 T00560044 51030",
  "sanitized": "KAWO 060856Z 08004KT 10SM FEW027 SCT055 BKN110 06/04 A3028 RMK AO2 RAE26 SLP260 P0000 60002 T00560044 51030",
  "station": "KAWO",
  "time": {
    "repr": "060856Z",
    "dt": "2023-02-06T08:56:00Z"
  },
  "remarks": "RMK AO2 RAE26 SLP260 P0000 60002 T00560044 51030",
  "dewpoint": {
    "repr": "04",
    "value": 4,
    "spoken": "four"
  },
  "relative_humidity": 0.9197884374087767,
  "remarks_info": {
    "maximum_temperature_6": null,
    "minimum_temperature_6": null,
    "pressure_tendency": {
      "repr": "51030",
      "tendency": "Increasing, then steady",
      "change": 3
    },
    "precip_36_hours": {
      "repr": "60002",
      "value": 0.02,
      "spoken": "zero point zero two"
    },
    "precip_24_hours": null,
    "sunshine_minutes": null,
    "codes": [
      {
        "repr": "AO2",
        "value": "Automated with precipitation sensor"
      },
      {
        "repr": "P0000",
        "value": "Trace amount of rain in the last hour"
      },
      {
        "repr": "RAE26",
        "value": "Rain ended at :26"
      }
    ],
    "dewpoint_decimal": {
      "repr": "0044",
      "value": 4.4,
      "spoken": "four point four"
    },
    "maximum_temperature_24": null,
    "minimum_temperature_24": null,
    "precip_hourly": null,
    "sea_level_pressure": {
      "repr": "SLP260",
      "value": 1026,
      "spoken": "one zero two six point zero"
    },
    "snow_depth": null,
    "temperature_decimal": {
      "repr": "0056",
      "value": 5.6,
      "spoken": "five point six"
    }
  },
  "runway_visibility": [],
  "temperature": {
    "repr": "06",
    "value": 6,
    "spoken": "six"
  },
  "wind_variable_direction": [],
  "density_altitude": -1312,
  "pressure_altitude": -218,
  "units": {
    "accumulation": "in",
    "altimeter": "inHg",
    "altitude": "ft",
    "temperature": "C",
    "visibility": "sm",
    "wind_speed": "kt"
  }
}
