{
  "altimeter": {
    "repr": "A3027",
    "spoken": "three zero point two seven",
    "value": 30.27
  },
  "clouds": [
    {
      "altitude": 3,
      "modifier": null,
      "repr": "OVC003",
      "type": "OVC"
    }
  ],
  "density_altitude": -1710,
  "dewpoint": {
    "repr": "02",
    "spoken": "two",
    "value": 2
  },
  "flight_rules": "LIFR",
  "meta": {
    "stations_updated": "2024-10-29",
    "timestamp": "2024-11-29T13:37:36.198881Z"
  },
  "other": [],
  "pressure_altitude": -208,
  "raw": "KAWO 291256Z AUTO 14005KT 6SM BR OVC003 02/02 A3027 RMK AO2 SLP257 T00220017 FZRANO",
  "relative_humidity": 0.9649208694160765,
  "remarks": "RMK AO2 SLP257 T00220017 FZRANO",
  "remarks_info": {
    "codes": [
      {
        "repr": "AO2",
        "value": "Automated with precipitation sensor"
      },
      {
        "repr": "FZRANO",
        "value": "Freezing rain information not available"
      }
    ],
    "dewpoint_decimal": {
      "repr": "0017",
      "spoken": "one point seven",
      "value": 1.7
    },
    "maximum_temperature_24": null,
    "maximum_temperature_6": null,
    "minimum_temperature_24": null,
    "minimum_temperature_6": null,
    "precip_24_hours": null,
    "precip_36_hours": null,
    "precip_hourly": null,
    "pressure_tendency": null,
    "sea_level_pressure": {
      "repr": "SLP257",
      "spoken": "one zero two five point seven",
      "value": 1025.7
    },
    "snow_depth": null,
    "sunshine_minutes": null,
    "temperature_decimal": {
      "repr": "0022",
      "spoken": "two point two",
      "value": 2.2
    }
  },
  "runway_visibility": [],
  "sanitized": "KAWO 291256Z 14005KT 6SM BR OVC003 02/02 A3027 RMK AO2 SLP257 T00220017 FZRANO",
  "station": "KAWO",
  "temperature": {
    "repr": "02",
    "spoken": "two",
    "value": 2
  },
  "time": {
    "dt": "2024-11-29T12:56:00Z",
    "repr": "291256Z"
  },
  "units": {
    "accumulation": "in",
    "altimeter": "inHg",
    "altitude": "ft",
    "temperature": "C",
    "visibility": "sm",
    "wind_speed": "kt"
  },
  "visibility": {
    "repr": "6",
    "spoken": "six",
    "value": 6
  },
  "wind_direction": {
    "repr": "140",
    "spoken": "one four zero",
    "value": 140
  },
  "wind_gust": null,
  "wind_speed": {
    "repr": "05",
    "spoken": "five",
    "value": 5
  },
  "wind_variable_direction": [],
  "wx_codes": [
    {
      "repr": "BR",
      "value": "Mist"
    }
  ]
}
