{
  "altimeter": {
    "repr": "A2981",
    "spoken": "two nine point eight one",
    "value": 29.81
  },
  "clouds": [
    {
      "altitude": 20,
      "modifier": null,
      "repr": "OVC020",
      "type": "OVC"
    }
  ],
  "density_altitude": -914,
  "dewpoint": {
    "repr": "04",
    "spoken": "four",
    "value": 4
  },
  "flight_rules": "MVFR",
  "meta": {
    "stations_updated": "2024-01-01",
    "timestamp": "2024-02-06T18:06:24.738276Z"
  },
  "other": [],
  "pressure_altitude": 252,
  "raw": "KAWO 061756Z AUTO 00000KT 8SM -RA OVC020 05/04 A2981 RMK AO2 SLP100 P0001 60006 T00500039 10050 20044 51007",
  "relative_humidity": 0.9259043989455392,
  "remarks": "RMK AO2 SLP100 P0001 60006 T00500039 10050 20044 51007",
  "remarks_info": {
    "codes": [
      {
        "repr": "AO2",
        "value": "Automated with precipitation sensor"
      }
    ],
    "dewpoint_decimal": {
      "repr": "0039",
      "spoken": "three point nine",
      "value": 3.9
    },
    "maximum_temperature_24": null,
    "maximum_temperature_6": {
      "repr": "10050",
      "spoken": "five point zero",
      "value": 5
    },
    "minimum_temperature_24": null,
    "minimum_temperature_6": {
      "repr": "20044",
      "spoken": "four point four",
      "value": 4.4
    },
    "precip_24_hours": null,
    "precip_36_hours": {
      "repr": "60006",
      "spoken": "zero point zero six",
      "value": 0.06
    },
    "precip_hourly": {
      "repr": "P0001",
      "spoken": "zero point zero one",
      "value": 0.01
    },
    "pressure_tendency": {
      "change": 0.7,
      "repr": "51007",
      "tendency": "Increasing, then steady"
    },
    "sea_level_pressure": {
      "repr": "SLP100",
      "spoken": "one zero one zero point zero",
      "value": 1010
    },
    "snow_depth": null,
    "sunshine_minutes": null,
    "temperature_decimal": {
      "repr": "0050",
      "spoken": "five point zero",
      "value": 5
    }
  },
  "runway_visibility": [],
  "sanitized": "KAWO 061756Z 00000KT 8SM -RA OVC020 05/04 A2981 RMK AO2 SLP100 P0001 60006 T00500039 10050 20044 51007",
  "station": "KAWO",
  "temperature": {
    "repr": "05",
    "spoken": "five",
    "value": 5
  },
  "time": {
    "dt": "2024-02-06T17:56:00Z",
    "repr": "061756Z"
  },
  "units": {
    "accumulation": "in",
    "altimeter": "inHg",
    "altitude": "ft",
    "temperature": "C",
    "visibility": "sm",
    "wind_speed": "kt"
  },
  "visibility": {
    "repr": "8",
    "spoken": "eight",
    "value": 8
  },
  "wind_direction": {
    "repr": "000",
    "spoken": "zero zero zero",
    "value": 0
  },
  "wind_gust": null,
  "wind_speed": {
    "repr": "00",
    "spoken": "zero",
    "value": 0
  },
  "wind_variable_direction": [],
  "wx_codes": [
    {
      "repr": "-RA",
      "value": "Light Rain"
    }
  ]
}
