{
  "meta": {
    "timestamp": "2022-07-29T00:32:19.753073Z",
    "stations_updated": "2022-07-17",
    "cache-timestamp": "2022-07-29T00:31:29.057000Z"
  },
  "altimeter": {
    "repr": "A2990",
    "value": 29.9,
    "spoken": "two nine point nine zero"
  },
  "clouds": [],
  "flight_rules": "VFR",
  "other": [],
  "visibility": {
    "repr": "10",
    "value": 10,
    "spoken": "one zero"
  },
  "wind_direction": {
    "repr": "320",
    "value": 320,
    "spoken": "three two zero"
  },
  "wind_gust": null,
  "wind_speed": {
    "repr": "09",
    "value": 9,
    "spoken": "nine"
  },
  "wx_codes": [],
  "raw": "KAWO 282356Z AUTO 32009KT 10SM CLR 31/18 A2990 RMK AO2 SLP130 T03060183 10311 20250 58013",
  "sanitized": "KAWO 282356Z 32009KT 10SM 31/18 A2990 RMK AO2 SLP130 T03060183 10311 20250 58013",
  "station": "KAWO",
  "time": {
    "repr": "282356Z",
    "dt": "2022-07-28T23:56:00Z"
  },
  "remarks": "RMK AO2 SLP130 T03060183 10311 20250 58013",
  "dewpoint": {
    "repr": "18",
    "value": 18,
    "spoken": "one eight"
  },
  "relative_humidity": 0.4783082541894531,
  "remarks_info": {
    "maximum_temperature_6": {
      "repr": "10311",
      "value": 31.1,
      "spoken": "three one point one"
    },
    "minimum_temperature_6": {
      "repr": "20250",
      "value": 25,
      "spoken": "two five point zero"
    },
    "pressure_tendency": {
      "repr": "58013",
      "tendency": "Steady or increasing, then decreasing",
      "change": 1.3
    },
    "precip_36_hours": null,
    "precip_24_hours": null,
    "sunshine_minutes": null,
    "codes": [
      {
        "repr": "AO2",
        "value": "Automated with precipitation sensor"
      }
    ],
    "dewpoint_decimal": {
      "repr": "0183",
      "value": 18.3,
      "spoken": "one eight point three"
    },
    "maximum_temperature_24": null,
    "minimum_temperature_24": null,
    "precip_hourly": null,
    "sea_level_pressure": {
      "repr": "SLP130",
      "value": 1013,
      "spoken": "one zero one three point zero"
    },
    "snow_depth": null,
    "temperature_decimal": {
      "repr": "0306",
      "value": 30.6,
      "spoken": "three zero point six"
    }
  },
  "runway_visibility": [],
  "temperature": {
    "repr": "31",
    "value": 31,
    "spoken": "three one"
  },
  "wind_variable_direction": [],
  "density_altitude": 2068,
  "pressure_altitude": 162,
  "units": {
    "accumulation": "in",
    "altimeter": "inHg",
    "altitude": "ft",
    "temperature": "C",
    "visibility": "sm",
    "wind_speed": "kt"
  }
}
