{
  "meta": {
    "timestamp": "2022-11-06T20:31:21.100263Z",
    "stations_updated": "2022-09-05"
  },
  "altimeter": {
    "repr": "A2953",
    "value": 29.53,
    "spoken": "two nine point five three"
  },
  "clouds": [
    {
      "repr": "FEW041",
      "type": "FEW",
      "altitude": 41,
      "modifier": null
    },
    {
      "repr": "SCT049",
      "type": "SCT",
      "altitude": 49,
      "modifier": null
    }
  ],
  "flight_rules": "VFR",
  "other": [],
  "visibility": {
    "repr": "10",
    "value": 10,
    "spoken": "one zero"
  },
  "wind_direction": {
    "repr": "100",
    "value": 100,
    "spoken": "one zero zero"
  },
  "wind_gust": null,
  "wind_speed": {
    "repr": "06",
    "value": 6,
    "spoken": "six"
  },
  "wx_codes": [],
  "raw": "KAWO 061956Z AUTO 10006KT 10SM FEW041 SCT049 06/03 A2953 RMK AO2 SLP006 T00610033",
  "sanitized": "KAWO 061956Z 10006KT 10SM FEW041 SCT049 06/03 A2953 RMK AO2 SLP006 T00610033",
  "station": "KAWO",
  "time": {
    "repr": "061956Z",
    "dt": "2022-11-06T19:56:00Z"
  },
  "remarks": "RMK AO2 SLP006 T00610033",
  "dewpoint": {
    "repr": "03",
    "value": 3,
    "spoken": "three"
  },
  "relative_humidity": 0.8223651929534089,
  "remarks_info": {
    "maximum_temperature_6": null,
    "minimum_temperature_6": null,
    "pressure_tendency": null,
    "precip_36_hours": null,
    "precip_24_hours": null,
    "sunshine_minutes": null,
    "codes": [
      {
        "repr": "AO2",
        "value": "Automated with precipitation sensor"
      }
    ],
    "dewpoint_decimal": {
      "repr": "0033",
      "value": 3.3,
      "spoken": "three point three"
    },
    "maximum_temperature_24": null,
    "minimum_temperature_24": null,
    "precip_hourly": null,
    "sea_level_pressure": {
      "repr": "SLP006",
      "value": 1000.6,
      "spoken": "one zero zero zero point six"
    },
    "snow_depth": null,
    "temperature_decimal": {
      "repr": "0061",
      "value": 6.1,
      "spoken": "six point one"
    }
  },
  "runway_visibility": [],
  "temperature": {
    "repr": "06",
    "value": 6,
    "spoken": "six"
  },
  "wind_variable_direction": [],
  "density_altitude": -502,
  "pressure_altitude": 532,
  "units": {
    "accumulation": "in",
    "altimeter": "inHg",
    "altitude": "ft",
    "temperature": "C",
    "visibility": "sm",
    "wind_speed": "kt"
  }
}
