{
  "meta": {
    "timestamp": "2022-12-22T06:43:05.311352Z",
    "stations_updated": "2022-09-05"
  },
  "altimeter": {
    "repr": "A3058",
    "value": 30.58,
    "spoken": "three zero point five eight"
  },
  "clouds": [],
  "flight_rules": "VFR",
  "other": [],
  "visibility": {
    "repr": "10",
    "value": 10,
    "spoken": "one zero"
  },
  "wind_direction": {
    "repr": "360",
    "value": 360,
    "spoken": "three six zero"
  },
  "wind_gust": null,
  "wind_speed": {
    "repr": "03",
    "value": 3,
    "spoken": "three"
  },
  "wx_codes": [],
  "raw": "KAWO 220556Z AUTO 36003KT 10SM CLR M14/M16 A3058 RMK AO2 SLP364 6//// T11391161 11083 21144 53005 FZRANO",
  "sanitized": "KAWO 220556Z 36003KT 10SM M14/M16 A3058 RMK AO2 SLP364 6//// T11391161 11083 21144 53005 FZRANO",
  "station": "KAWO",
  "time": {
    "repr": "220556Z",
    "dt": "2022-12-22T05:56:00Z"
  },
  "remarks": "RMK AO2 SLP364 6//// T11391161 11083 21144 53005 FZRANO",
  "dewpoint": {
    "repr": "M16",
    "value": -16,
    "spoken": "minus one six"
  },
  "relative_humidity": 0.8341857454951611,
  "remarks_info": {
    "maximum_temperature_6": {
      "repr": "11083",
      "value": -8.3,
      "spoken": "minus eight point three"
    },
    "minimum_temperature_6": {
      "repr": "21144",
      "value": -14.4,
      "spoken": "minus one four point four"
    },
    "pressure_tendency": {
      "repr": "53005",
      "tendency": "Decreasing or steady, then increasing",
      "change": 0.5
    },
    "precip_36_hours": null,
    "precip_24_hours": null,
    "sunshine_minutes": null,
    "codes": [
      {
        "repr": "AO2",
        "value": "Automated with precipitation sensor"
      },
      {
        "repr": "FZRANO",
        "value": "Freezing rain information not available"
      }
    ],
    "dewpoint_decimal": {
      "repr": "1161",
      "value": -16.1,
      "spoken": "minus one six point one"
    },
    "maximum_temperature_24": null,
    "minimum_temperature_24": null,
    "precip_hourly": null,
    "sea_level_pressure": {
      "repr": "SLP364",
      "value": 1036.4,
      "spoken": "one zero three six point four"
    },
    "snow_depth": null,
    "temperature_decimal": {
      "repr": "1139",
      "value": -13.9,
      "spoken": "minus one three point nine"
    }
  },
  "runway_visibility": [],
  "temperature": {
    "repr": "M14",
    "value": -14,
    "spoken": "minus one four"
  },
  "wind_variable_direction": [],
  "density_altitude": -3952,
  "pressure_altitude": -518,
  "units": {
    "accumulation": "in",
    "altimeter": "inHg",
    "altitude": "ft",
    "temperature": "C",
    "visibility": "sm",
    "wind_speed": "kt"
  }
}
