{
  "meta": {
    "timestamp": "2023-03-21T03:42:27.468562Z",
    "stations_updated": "2023-03-11",
    "cache-timestamp": "2023-03-21T03:42:05.223000Z"
  },
  "altimeter": {
    "repr": "A2978",
    "value": 29.78,
    "spoken": "two nine point seven eight"
  },
  "clouds": [],
  "flight_rules": "VFR",
  "other": [],
  "visibility": {
    "repr": "10",
    "value": 10,
    "spoken": "one zero"
  },
  "wind_direction": {
    "repr": "140",
    "value": 140,
    "spoken": "one four zero"
  },
  "wind_gust": null,
  "wind_speed": {
    "repr": "03",
    "value": 3,
    "spoken": "three"
  },
  "wx_codes": [],
  "raw": "KAWO 210256Z AUTO 14003KT 10SM CLR 09/08 A2978 RMK AO2 RAE14 SLP089 P0000 60012 T00890078 53009",
  "sanitized": "KAWO 210256Z 14003KT 10SM 09/08 A2978 RMK AO2 RAE14 SLP089 P0000 60012 T00890078 53009",
  "station": "KAWO",
  "time": {
    "repr": "210256Z",
    "dt": "2023-03-21T02:56:00Z"
  },
  "remarks": "RMK AO2 RAE14 SLP089 P0000 60012 T00890078 53009",
  "dewpoint": {
    "repr": "08",
    "value": 8,
    "spoken": "eight"
  },
  "relative_humidity": 0.9280975124584884,
  "remarks_info": {
    "maximum_temperature_6": null,
    "minimum_temperature_6": null,
    "pressure_tendency": {
      "repr": "53009",
      "tendency": "Decreasing or steady, then increasing",
      "change": 0.9
    },
    "precip_36_hours": {
      "repr": "60012",
      "value": 0.12,
      "spoken": "zero point one two"
    },
    "precip_24_hours": null,
    "sunshine_minutes": null,
    "codes": [
      {
        "repr": "AO2",
        "value": "Automated with precipitation sensor"
      },
      {
        "repr": "P0000",
        "value": "Trace amount of rain in the last hour"
      },
      {
        "repr": "RAE14",
        "value": "Rain ended at :14"
      }
    ],
    "dewpoint_decimal": {
      "repr": "0078",
      "value": 7.8,
      "spoken": "seven point eight"
    },
    "maximum_temperature_24": null,
    "minimum_temperature_24": null,
    "precip_hourly": null,
    "sea_level_pressure": {
      "repr": "SLP089",
      "value": 1008.9,
      "spoken": "one zero zero eight point nine"
    },
    "snow_depth": null,
    "temperature_decimal": {
      "repr": "0089",
      "value": 8.9,
      "spoken": "eight point nine"
    }
  },
  "runway_visibility": [],
  "temperature": {
    "repr": "09",
    "value": 9,
    "spoken": "nine"
  },
  "wind_variable_direction": [],
  "density_altitude": -416,
  "pressure_altitude": 282,
  "units": {
    "accumulation": "in",
    "altimeter": "inHg",
    "altitude": "ft",
    "temperature": "C",
    "visibility": "sm",
    "wind_speed": "kt"
  }
}
