{
  "altimeter": {
    "repr": "A2987",
    "spoken": "two nine point eight seven",
    "value": 29.87
  },
  "clouds": [
    {
      "altitude": 14,
      "modifier": null,
      "repr": "FEW014",
      "type": "FEW"
    },
    {
      "altitude": 21,
      "modifier": null,
      "repr": "SCT021",
      "type": "SCT"
    },
    {
      "altitude": 37,
      "modifier": null,
      "repr": "OVC037",
      "type": "OVC"
    }
  ],
  "density_altitude": -494,
  "dewpoint": {
    "repr": "08",
    "spoken": "eight",
    "value": 8
  },
  "flight_rules": "VFR",
  "meta": {
    "stations_updated": "2024-10-29",
    "timestamp": "2024-11-14T16:36:19.861979Z"
  },
  "other": [],
  "pressure_altitude": 192,
  "raw": "KAWO 141629Z AUTO 16005KT 10SM -RA FEW014 SCT021 OVC037 09/08 A2987 RMK AO2 RAB04 P0003",
  "relative_humidity": 0.9344901544791844,
  "remarks": "RMK AO2 RAB04 P0003",
  "remarks_info": {
    "codes": [
      {
        "repr": "AO2",
        "value": "Automated with precipitation sensor"
      },
      {
        "repr": "RAB04",
        "value": "Rain began at :04"
      }
    ],
    "dewpoint_decimal": null,
    "maximum_temperature_24": null,
    "maximum_temperature_6": null,
    "minimum_temperature_24": null,
    "minimum_temperature_6": null,
    "precip_24_hours": null,
    "precip_36_hours": null,
    "precip_hourly": {
      "repr": "P0003",
      "spoken": "zero point zero three",
      "value": 0.03
    },
    "pressure_tendency": null,
    "sea_level_pressure": null,
    "snow_depth": null,
    "sunshine_minutes": null,
    "temperature_decimal": null
  },
  "runway_visibility": [],
  "sanitized": "KAWO 141629Z 16005KT 10SM -RA FEW014 SCT021 OVC037 09/08 A2987 RMK AO2 RAB04 P0003",
  "station": "KAWO",
  "temperature": {
    "repr": "09",
    "spoken": "nine",
    "value": 9
  },
  "time": {
    "dt": "2024-11-14T16:29:00Z",
    "repr": "141629Z"
  },
  "units": {
    "accumulation": "in",
    "altimeter": "inHg",
    "altitude": "ft",
    "temperature": "C",
    "visibility": "sm",
    "wind_speed": "kt"
  },
  "visibility": {
    "repr": "10",
    "spoken": "one zero",
    "value": 10
  },
  "wind_direction": {
    "repr": "160",
    "spoken": "one six zero",
    "value": 160
  },
  "wind_gust": null,
  "wind_speed": {
    "repr": "05",
    "spoken": "five",
    "value": 5
  },
  "wind_variable_direction": [],
  "wx_codes": [
    {
      "repr": "-RA",
      "value": "Light Rain"
    }
  ]
}
