{
  "altimeter": {
    "repr": "A3014",
    "spoken": "three zero point one four",
    "value": 30.14
  },
  "clouds": [
    {
      "altitude": 44,
      "modifier": null,
      "repr": "SCT044",
      "type": "SCT"
    },
    {
      "altitude": 60,
      "modifier": null,
      "repr": "BKN060",
      "type": "BKN"
    }
  ],
  "density_altitude": -1844,
  "dewpoint": {
    "repr": "M01",
    "spoken": "minus one",
    "value": -1
  },
  "flight_rules": "IFR",
  "meta": {
    "cache-timestamp": "2024-01-08T07:22:04.150000Z",
    "stations_updated": "2023-10-28",
    "timestamp": "2024-01-08T07:22:15.717755Z"
  },
  "other": [],
  "pressure_altitude": -78,
  "raw": "KAWO 080719Z AUTO 00000KT 1 1/4SM BR SCT044 BKN060 00/M01 A3014 RMK AO2 FZRANO",
  "relative_humidity": 0.9297254240529413,
  "remarks": "RMK AO2 FZRANO",
  "remarks_info": {
    "codes": [
      {
        "repr": "AO2",
        "value": "Automated with precipitation sensor"
      },
      {
        "repr": "FZRANO",
        "value": "Freezing rain information not available"
      }
    ],
    "dewpoint_decimal": null,
    "maximum_temperature_24": null,
    "maximum_temperature_6": null,
    "minimum_temperature_24": null,
    "minimum_temperature_6": null,
    "precip_24_hours": null,
    "precip_36_hours": null,
    "precip_hourly": null,
    "pressure_tendency": null,
    "sea_level_pressure": null,
    "snow_depth": null,
    "sunshine_minutes": null,
    "temperature_decimal": null
  },
  "runway_visibility": [],
  "sanitized": "KAWO 080719Z 00000KT 1 1/4SM BR SCT044 BKN060 00/M01 A3014 RMK AO2 FZRANO",
  "station": "KAWO",
  "temperature": {
    "repr": "00",
    "spoken": "zero",
    "value": 0
  },
  "time": {
    "dt": "2024-01-08T07:19:00Z",
    "repr": "080719Z"
  },
  "units": {
    "accumulation": "in",
    "altimeter": "inHg",
    "altitude": "ft",
    "temperature": "C",
    "visibility": "sm",
    "wind_speed": "kt"
  },
  "visibility": {
    "denominator": 4,
    "normalized": "1 1/4",
    "numerator": 5,
    "repr": "5/4",
    "spoken": "one and one quarter",
    "value": 1.25
  },
  "wind_direction": {
    "repr": "000",
    "spoken": "zero zero zero",
    "value": 0
  },
  "wind_gust": null,
  "wind_speed": {
    "repr": "00",
    "spoken": "zero",
    "value": 0
  },
  "wind_variable_direction": [],
  "wx_codes": [
    {
      "repr": "BR",
      "value": "Mist"
    }
  ]
}
