{
  "meta": {
    "timestamp": "2022-11-11T05:45:38.940861Z",
    "stations_updated": "2022-09-05"
  },
  "altimeter": {
    "repr": "A3032",
    "value": 30.32,
    "spoken": "three zero point three two"
  },
  "clouds": [
    {
      "repr": "FEW050",
      "type": "FEW",
      "altitude": 50,
      "modifier": null
    }
  ],
  "flight_rules": "VFR",
  "other": [],
  "visibility": {
    "repr": "10",
    "value": 10,
    "spoken": "one zero"
  },
  "wind_direction": {
    "repr": "000",
    "value": 0,
    "spoken": "zero zero zero"
  },
  "wind_gust": null,
  "wind_speed": {
    "repr": "00",
    "value": 0,
    "spoken": "zero"
  },
  "wx_codes": [],
  "raw": "KAWO 110456Z AUTO 00000KT 10SM FEW050 02/M02 A3032 RMK AO2 SLP271 T00171017 FZRANO",
  "sanitized": "KAWO 110456Z 00000KT 10SM FEW050 02/M02 A3032 RMK AO2 SLP271 T00171017 FZRANO",
  "station": "KAWO",
  "time": {
    "repr": "110456Z",
    "dt": "2022-11-11T04:56:00Z"
  },
  "remarks": "RMK AO2 SLP271 T00171017 FZRANO",
  "dewpoint": {
    "repr": "M02",
    "value": -2,
    "spoken": "minus two"
  },
  "relative_humidity": 0.7813446558071221,
  "remarks_info": {
    "maximum_temperature_6": null,
    "minimum_temperature_6": null,
    "pressure_tendency": null,
    "precip_36_hours": null,
    "precip_24_hours": null,
    "sunshine_minutes": null,
    "codes": [
      {
        "repr": "AO2",
        "value": "Automated with precipitation sensor"
      },
      {
        "repr": "FZRANO",
        "value": "Freezing rain information not available"
      }
    ],
    "dewpoint_decimal": {
      "repr": "1017",
      "value": -1.7,
      "spoken": "minus one point seven"
    },
    "maximum_temperature_24": null,
    "minimum_temperature_24": null,
    "precip_hourly": null,
    "sea_level_pressure": {
      "repr": "SLP271",
      "value": 1027.1,
      "spoken": "one zero two seven point one"
    },
    "snow_depth": null,
    "temperature_decimal": {
      "repr": "0017",
      "value": 1.7,
      "spoken": "one point seven"
    }
  },
  "runway_visibility": [],
  "temperature": {
    "repr": "02",
    "value": 2,
    "spoken": "two"
  },
  "wind_variable_direction": [],
  "density_altitude": -1820,
  "pressure_altitude": -258,
  "units": {
    "accumulation": "in",
    "altimeter": "inHg",
    "altitude": "ft",
    "temperature": "C",
    "visibility": "sm",
    "wind_speed": "kt"
  }
}
