{
  "meta": {
    "timestamp": "2023-01-15T08:29:55.216568Z",
    "stations_updated": "2022-12-27"
  },
  "altimeter": {
    "repr": "A2935",
    "value": 29.35,
    "spoken": "two nine point three five"
  },
  "clouds": [
    {
      "repr": "OVC060",
      "type": "OVC",
      "altitude": 60,
      "modifier": null
    }
  ],
  "flight_rules": "VFR",
  "other": [],
  "visibility": {
    "repr": "10",
    "value": 10,
    "spoken": "one zero"
  },
  "wind_direction": {
    "repr": "020",
    "value": 20,
    "spoken": "zero two zero"
  },
  "wind_gust": null,
  "wind_speed": {
    "repr": "03",
    "value": 3,
    "spoken": "three"
  },
  "wx_codes": [
    {
      "repr": "-RA",
      "value": "Light Rain"
    }
  ],
  "raw": "KAWO 150756Z AUTO 02003KT 10SM -RA OVC060 07/06 A2935 RMK AO2 SLP944 P0001 T00670061 401330061",
  "sanitized": "KAWO 150756Z 02003KT 10SM -RA OVC060 07/06 A2935 RMK AO2 SLP944 P0001 T00670061 401330061",
  "station": "KAWO",
  "time": {
    "repr": "150756Z",
    "dt": "2023-01-15T07:56:00Z"
  },
  "remarks": "RMK AO2 SLP944 P0001 T00670061 401330061",
  "dewpoint": {
    "repr": "06",
    "value": 6,
    "spoken": "six"
  },
  "relative_humidity": 0.9595042676817481,
  "remarks_info": {
    "maximum_temperature_6": null,
    "minimum_temperature_6": null,
    "pressure_tendency": null,
    "precip_36_hours": null,
    "precip_24_hours": null,
    "sunshine_minutes": null,
    "codes": [
      {
        "repr": "AO2",
        "value": "Automated with precipitation sensor"
      }
    ],
    "dewpoint_decimal": {
      "repr": "0061",
      "value": 6.1,
      "spoken": "six point one"
    },
    "maximum_temperature_24": {
      "repr": "0133",
      "value": 13.3,
      "spoken": "one three point three"
    },
    "minimum_temperature_24": {
      "repr": "0061",
      "value": 6.1,
      "spoken": "six point one"
    },
    "precip_hourly": {
      "repr": "P0001",
      "value": 0.01,
      "spoken": "zero point zero one"
    },
    "sea_level_pressure": {
      "repr": "SLP944",
      "value": 994.4,
      "spoken": "nine nine four point four"
    },
    "snow_depth": null,
    "temperature_decimal": {
      "repr": "0067",
      "value": 6.7,
      "spoken": "six point seven"
    }
  },
  "runway_visibility": [],
  "temperature": {
    "repr": "07",
    "value": 7,
    "spoken": "seven"
  },
  "wind_variable_direction": [],
  "density_altitude": -250,
  "pressure_altitude": 712,
  "units": {
    "accumulation": "in",
    "altimeter": "inHg",
    "altitude": "ft",
    "temperature": "C",
    "visibility": "sm",
    "wind_speed": "kt"
  }
}
