{
  "altimeter": {
    "repr": "A2976",
    "spoken": "two nine point seven six",
    "value": 29.76
  },
  "clouds": [
    {
      "altitude": 43,
      "modifier": null,
      "repr": "OVC043",
      "type": "OVC"
    }
  ],
  "density_altitude": -1464,
  "dewpoint": {
    "repr": "M03",
    "spoken": "minus three",
    "value": -3
  },
  "flight_rules": "VFR",
  "meta": {
    "stations_updated": "2023-10-28",
    "timestamp": "2024-01-17T03:06:00.664804Z"
  },
  "other": [],
  "pressure_altitude": 302,
  "raw": "KAWO 170256Z AUTO 28003KT 10SM OVC043 00/M03 A2976 RMK AO2 SLP083 T00001033 58028 FZRANO",
  "relative_humidity": 0.7844596047623861,
  "remarks": "RMK AO2 SLP083 T00001033 58028 FZRANO",
  "remarks_info": {
    "codes": [
      {
        "repr": "AO2",
        "value": "Automated with precipitation sensor"
      },
      {
        "repr": "FZRANO",
        "value": "Freezing rain information not available"
      }
    ],
    "dewpoint_decimal": {
      "repr": "1033",
      "spoken": "minus three point three",
      "value": -3.3
    },
    "maximum_temperature_24": null,
    "maximum_temperature_6": null,
    "minimum_temperature_24": null,
    "minimum_temperature_6": null,
    "precip_24_hours": null,
    "precip_36_hours": null,
    "precip_hourly": null,
    "pressure_tendency": {
      "change": 2.8,
      "repr": "58028",
      "tendency": "Steady or increasing, then decreasing"
    },
    "sea_level_pressure": {
      "repr": "SLP083",
      "spoken": "one zero zero eight point three",
      "value": 1008.3
    },
    "snow_depth": null,
    "sunshine_minutes": null,
    "temperature_decimal": {
      "repr": "0000",
      "spoken": "zero",
      "value": 0
    }
  },
  "runway_visibility": [],
  "sanitized": "KAWO 170256Z 28003KT 10SM OVC043 00/M03 A2976 RMK AO2 SLP083 T00001033 58028 FZRANO",
  "station": "KAWO",
  "temperature": {
    "repr": "00",
    "spoken": "zero",
    "value": 0
  },
  "time": {
    "dt": "2024-01-17T02:56:00Z",
    "repr": "170256Z"
  },
  "units": {
    "accumulation": "in",
    "altimeter": "inHg",
    "altitude": "ft",
    "temperature": "C",
    "visibility": "sm",
    "wind_speed": "kt"
  },
  "visibility": {
    "repr": "10",
    "spoken": "one zero",
    "value": 10
  },
  "wind_direction": {
    "repr": "280",
    "spoken": "two eight zero",
    "value": 280
  },
  "wind_gust": null,
  "wind_speed": {
    "repr": "03",
    "spoken": "three",
    "value": 3
  },
  "wind_variable_direction": [],
  "wx_codes": []
}
