{
  "meta": {
    "timestamp": "2023-05-13T12:07:40.469677Z",
    "stations_updated": "2023-03-11"
  },
  "altimeter": {
    "repr": "A3026",
    "value": 30.26,
    "spoken": "three zero point two six"
  },
  "clouds": [],
  "flight_rules": "VFR",
  "other": [],
  "visibility": {
    "repr": "10",
    "value": 10,
    "spoken": "one zero"
  },
  "wind_direction": {
    "repr": "010",
    "value": 10,
    "spoken": "zero one zero"
  },
  "wind_gust": null,
  "wind_speed": {
    "repr": "03",
    "value": 3,
    "spoken": "three"
  },
  "wx_codes": [],
  "raw": "KAWO 131156Z AUTO 01003KT 10SM CLR 10/08 A3026 RMK AO2 SLP249 T01000083 10172 20094 53005",
  "sanitized": "KAWO 131156Z 01003KT 10SM 10/08 A3026 RMK AO2 SLP249 T01000083 10172 20094 53005",
  "station": "KAWO",
  "time": {
    "repr": "131156Z",
    "dt": "2023-05-13T11:56:00Z"
  },
  "remarks": "RMK AO2 SLP249 T01000083 10172 20094 53005",
  "dewpoint": {
    "repr": "08",
    "value": 8,
    "spoken": "eight"
  },
  "relative_humidity": 0.8917307313199454,
  "remarks_info": {
    "maximum_temperature_6": {
      "repr": "10172",
      "value": 17.2,
      "spoken": "one seven point two"
    },
    "minimum_temperature_6": {
      "repr": "20094",
      "value": 9.4,
      "spoken": "nine point four"
    },
    "pressure_tendency": {
      "repr": "53005",
      "tendency": "Decreasing or steady, then increasing",
      "change": 0.5
    },
    "precip_36_hours": null,
    "precip_24_hours": null,
    "sunshine_minutes": null,
    "codes": [
      {
        "repr": "AO2",
        "value": "Automated with precipitation sensor"
      }
    ],
    "dewpoint_decimal": {
      "repr": "0083",
      "value": 8.3,
      "spoken": "eight point three"
    },
    "maximum_temperature_24": null,
    "minimum_temperature_24": null,
    "precip_hourly": null,
    "sea_level_pressure": {
      "repr": "SLP249",
      "value": 1024.9,
      "spoken": "one zero two four point nine"
    },
    "snow_depth": null,
    "temperature_decimal": {
      "repr": "0100",
      "value": 10,
      "spoken": "one zero point zero"
    }
  },
  "runway_visibility": [],
  "temperature": {
    "repr": "10",
    "value": 10,
    "spoken": "one zero"
  },
  "wind_variable_direction": [],
  "density_altitude": -764,
  "pressure_altitude": -198,
  "units": {
    "accumulation": "in",
    "altimeter": "inHg",
    "altitude": "ft",
    "temperature": "C",
    "visibility": "sm",
    "wind_speed": "kt"
  }
}
