{
  "altimeter": {
    "repr": "A3000",
    "spoken": "three zero point zero zero",
    "value": 30
  },
  "clouds": [
    {
      "altitude": 27,
      "modifier": null,
      "repr": "BKN027",
      "type": "BKN"
    },
    {
      "altitude": 34,
      "modifier": null,
      "repr": "OVC034",
      "type": "OVC"
    }
  ],
  "density_altitude": -1368,
  "dewpoint": {
    "repr": "01",
    "spoken": "one",
    "value": 1
  },
  "flight_rules": "MVFR",
  "meta": {
    "cache-timestamp": "2024-02-28T02:04:05.191000Z",
    "stations_updated": "2024-01-01",
    "timestamp": "2024-02-28T02:04:16.307818Z"
  },
  "other": [],
  "pressure_altitude": 62,
  "raw": "KAWO 280056Z AUTO 11011KT 10SM -RA BKN027 OVC034 03/01 A3000 RMK AO2 SLP164 P0000 T00280006",
  "relative_humidity": 0.8543246885891209,
  "remarks": "RMK AO2 SLP164 P0000 T00280006",
  "remarks_info": {
    "codes": [
      {
        "repr": "AO2",
        "value": "Automated with precipitation sensor"
      },
      {
        "repr": "P0000",
        "value": "Trace amount of rain in the last hour"
      }
    ],
    "dewpoint_decimal": {
      "repr": "0006",
      "spoken": "zero point six",
      "value": 0.6
    },
    "maximum_temperature_24": null,
    "maximum_temperature_6": null,
    "minimum_temperature_24": null,
    "minimum_temperature_6": null,
    "precip_24_hours": null,
    "precip_36_hours": null,
    "precip_hourly": null,
    "pressure_tendency": null,
    "sea_level_pressure": {
      "repr": "SLP164",
      "spoken": "one zero one six point four",
      "value": 1016.4
    },
    "snow_depth": null,
    "sunshine_minutes": null,
    "temperature_decimal": {
      "repr": "0028",
      "spoken": "two point eight",
      "value": 2.8
    }
  },
  "runway_visibility": [],
  "sanitized": "KAWO 280056Z 11011KT 10SM -RA BKN027 OVC034 03/01 A3000 RMK AO2 SLP164 P0000 T00280006",
  "station": "KAWO",
  "temperature": {
    "repr": "03",
    "spoken": "three",
    "value": 3
  },
  "time": {
    "dt": "2024-02-28T00:56:00Z",
    "repr": "280056Z"
  },
  "units": {
    "accumulation": "in",
    "altimeter": "inHg",
    "altitude": "ft",
    "temperature": "C",
    "visibility": "sm",
    "wind_speed": "kt"
  },
  "visibility": {
    "repr": "10",
    "spoken": "one zero",
    "value": 10
  },
  "wind_direction": {
    "repr": "110",
    "spoken": "one one zero",
    "value": 110
  },
  "wind_gust": null,
  "wind_speed": {
    "repr": "11",
    "spoken": "one one",
    "value": 11
  },
  "wind_variable_direction": [],
  "wx_codes": [
    {
      "repr": "-RA",
      "value": "Light Rain"
    }
  ]
}
