{
  "altimeter": {
    "repr": "A3025",
    "spoken": "three zero point two five",
    "value": 30.25
  },
  "clouds": [
    {
      "altitude": 2,
      "modifier": null,
      "repr": "OVC002",
      "type": "OVC"
    }
  ],
  "density_altitude": -1018,
  "dewpoint": {
    "repr": "08",
    "spoken": "eight",
    "value": 8
  },
  "flight_rules": "LIFR",
  "meta": {
    "stations_updated": "2024-06-12",
    "timestamp": "2024-10-10T12:50:52.713397Z"
  },
  "other": [],
  "pressure_altitude": -188,
  "raw": "KAWO 101156Z AUTO 32004KT 1/4SM FG OVC002 08/08 A3025 RMK AO2 SLP249 60000 T00780078 10117 20072 50002",
  "relative_humidity": 1,
  "remarks": "RMK AO2 SLP249 60000 T00780078 10117 20072 50002",
  "remarks_info": {
    "codes": [
      {
        "repr": "AO2",
        "value": "Automated with precipitation sensor"
      }
    ],
    "dewpoint_decimal": {
      "repr": "0078",
      "spoken": "seven point eight",
      "value": 7.8
    },
    "maximum_temperature_24": null,
    "maximum_temperature_6": {
      "repr": "10117",
      "spoken": "one one point seven",
      "value": 11.7
    },
    "minimum_temperature_24": null,
    "minimum_temperature_6": {
      "repr": "20072",
      "spoken": "seven point two",
      "value": 7.2
    },
    "precip_24_hours": null,
    "precip_36_hours": {
      "repr": "60000",
      "spoken": "zero",
      "value": 0
    },
    "precip_hourly": null,
    "pressure_tendency": {
      "change": 0.2,
      "repr": "50002",
      "tendency": "Increasing, then decreasing"
    },
    "sea_level_pressure": {
      "repr": "SLP249",
      "spoken": "one zero two four point nine",
      "value": 1024.9
    },
    "snow_depth": null,
    "sunshine_minutes": null,
    "temperature_decimal": {
      "repr": "0078",
      "spoken": "seven point eight",
      "value": 7.8
    }
  },
  "runway_visibility": [],
  "sanitized": "KAWO 101156Z 32004KT 1/4SM FG OVC002 08/08 A3025 RMK AO2 SLP249 60000 T00780078 10117 20072 50002",
  "station": "KAWO",
  "temperature": {
    "repr": "08",
    "spoken": "eight",
    "value": 8
  },
  "time": {
    "dt": "2024-10-10T11:56:00Z",
    "repr": "101156Z"
  },
  "units": {
    "accumulation": "in",
    "altimeter": "inHg",
    "altitude": "ft",
    "temperature": "C",
    "visibility": "sm",
    "wind_speed": "kt"
  },
  "visibility": {
    "denominator": 4,
    "normalized": "1/4",
    "numerator": 1,
    "repr": "1/4",
    "spoken": "one quarter",
    "value": 0.25
  },
  "wind_direction": {
    "repr": "320",
    "spoken": "three two zero",
    "value": 320
  },
  "wind_gust": null,
  "wind_speed": {
    "repr": "04",
    "spoken": "four",
    "value": 4
  },
  "wind_variable_direction": [],
  "wx_codes": [
    {
      "repr": "FG",
      "value": "Fog"
    }
  ]
}
