{
  "meta": {
    "timestamp": "2023-01-11T00:28:56.310627Z",
    "stations_updated": "2022-12-27",
    "cache-timestamp": "2023-01-11T00:28:05.807000Z"
  },
  "altimeter": {
    "repr": "A2961",
    "value": 29.61,
    "spoken": "two nine point six one"
  },
  "clouds": [],
  "flight_rules": "VFR",
  "other": [],
  "visibility": {
    "repr": "10",
    "value": 10,
    "spoken": "one zero"
  },
  "wind_direction": {
    "repr": "000",
    "value": 0,
    "spoken": "zero zero zero"
  },
  "wind_gust": null,
  "wind_speed": {
    "repr": "00",
    "value": 0,
    "spoken": "zero"
  },
  "wx_codes": [],
  "raw": "KAWO 102356Z AUTO 00000KT 10SM CLR 11/04 A2961 RMK AO2 SLP030 T01060044 10122 20072 55002",
  "sanitized": "KAWO 102356Z 00000KT 10SM 11/04 A2961 RMK AO2 SLP030 T01060044 10122 20072 55002",
  "station": "KAWO",
  "time": {
    "repr": "102356Z",
    "dt": "2023-01-10T23:56:00Z"
  },
  "remarks": "RMK AO2 SLP030 T01060044 10122 20072 55002",
  "dewpoint": {
    "repr": "04",
    "value": 4,
    "spoken": "four"
  },
  "relative_humidity": 0.654755901606243,
  "remarks_info": {
    "maximum_temperature_6": {
      "repr": "10122",
      "value": 12.2,
      "spoken": "one two point two"
    },
    "minimum_temperature_6": {
      "repr": "20072",
      "value": 7.2,
      "spoken": "seven point two"
    },
    "pressure_tendency": {
      "repr": "55002",
      "tendency": "Decreasing, then increasing",
      "change": 0.2
    },
    "precip_36_hours": null,
    "precip_24_hours": null,
    "sunshine_minutes": null,
    "codes": [
      {
        "repr": "AO2",
        "value": "Automated with precipitation sensor"
      }
    ],
    "dewpoint_decimal": {
      "repr": "0044",
      "value": 4.4,
      "spoken": "four point four"
    },
    "maximum_temperature_24": null,
    "minimum_temperature_24": null,
    "precip_hourly": null,
    "sea_level_pressure": {
      "repr": "SLP030",
      "value": 1003,
      "spoken": "one zero zero three point zero"
    },
    "snow_depth": null,
    "temperature_decimal": {
      "repr": "0106",
      "value": 10.6,
      "spoken": "one zero point six"
    }
  },
  "runway_visibility": [],
  "temperature": {
    "repr": "11",
    "value": 11,
    "spoken": "one one"
  },
  "wind_variable_direction": [],
  "density_altitude": -42,
  "pressure_altitude": 452,
  "units": {
    "accumulation": "in",
    "altimeter": "inHg",
    "altitude": "ft",
    "temperature": "C",
    "visibility": "sm",
    "wind_speed": "kt"
  }
}
