{
  "altimeter": {
    "repr": "A2989",
    "spoken": "two nine point eight nine",
    "value": 29.89
  },
  "clouds": [
    {
      "altitude": 75,
      "modifier": null,
      "repr": "SCT075",
      "type": "SCT"
    },
    {
      "altitude": 95,
      "modifier": null,
      "repr": "BKN095",
      "type": "BKN"
    },
    {
      "altitude": 120,
      "modifier": null,
      "repr": "BKN120",
      "type": "BKN"
    }
  ],
  "density_altitude": 338,
  "dewpoint": {
    "repr": "09",
    "spoken": "nine",
    "value": 9
  },
  "flight_rules": "VFR",
  "meta": {
    "stations_updated": "2024-06-12",
    "timestamp": "2024-09-27T00:35:19.838207Z"
  },
  "other": [],
  "pressure_altitude": 172,
  "raw": "KAWO 262356Z AUTO 11009KT 10SM SCT075 BKN095 BKN120 16/09 A2989 RMK AO2 SLPNO 60003 T01610094 10161 20150 56028",
  "relative_humidity": 0.644620640297116,
  "remarks": "RMK AO2 SLPNO 60003 T01610094 10161 20150 56028",
  "remarks_info": {
    "codes": [
      {
        "repr": "AO2",
        "value": "Automated with precipitation sensor"
      },
      {
        "repr": "SLPNO",
        "value": "Sea level pressure not available"
      }
    ],
    "dewpoint_decimal": {
      "repr": "0094",
      "spoken": "nine point four",
      "value": 9.4
    },
    "maximum_temperature_24": null,
    "maximum_temperature_6": {
      "repr": "10161",
      "spoken": "one six point one",
      "value": 16.1
    },
    "minimum_temperature_24": null,
    "minimum_temperature_6": {
      "repr": "20150",
      "spoken": "one five point zero",
      "value": 15
    },
    "precip_24_hours": null,
    "precip_36_hours": {
      "repr": "60003",
      "spoken": "zero point zero three",
      "value": 0.03
    },
    "precip_hourly": null,
    "pressure_tendency": {
      "change": 2.8,
      "repr": "56028",
      "tendency": "Decreasing, then steady"
    },
    "sea_level_pressure": null,
    "snow_depth": null,
    "sunshine_minutes": null,
    "temperature_decimal": {
      "repr": "0161",
      "spoken": "one six point one",
      "value": 16.1
    }
  },
  "runway_visibility": [],
  "sanitized": "KAWO 262356Z 11009KT 10SM SCT075 BKN095 BKN120 16/09 A2989 RMK AO2 SLPNO 60003 T01610094 10161 20150 56028",
  "station": "KAWO",
  "temperature": {
    "repr": "16",
    "spoken": "one six",
    "value": 16
  },
  "time": {
    "dt": "2024-09-26T23:56:00Z",
    "repr": "262356Z"
  },
  "units": {
    "accumulation": "in",
    "altimeter": "inHg",
    "altitude": "ft",
    "temperature": "C",
    "visibility": "sm",
    "wind_speed": "kt"
  },
  "visibility": {
    "repr": "10",
    "spoken": "one zero",
    "value": 10
  },
  "wind_direction": {
    "repr": "110",
    "spoken": "one one zero",
    "value": 110
  },
  "wind_gust": null,
  "wind_speed": {
    "repr": "09",
    "spoken": "nine",
    "value": 9
  },
  "wind_variable_direction": [],
  "wx_codes": []
}
