{
  "meta": {
    "timestamp": "2023-02-27T03:15:32.772658Z",
    "stations_updated": "2023-01-30"
  },
  "altimeter": {
    "repr": "A2971",
    "value": 29.71,
    "spoken": "two nine point seven one"
  },
  "clouds": [
    {
      "repr": "BKN017",
      "type": "BKN",
      "altitude": 17,
      "modifier": null
    },
    {
      "repr": "BKN024",
      "type": "BKN",
      "altitude": 24,
      "modifier": null
    },
    {
      "repr": "OVC041",
      "type": "OVC",
      "altitude": 41,
      "modifier": null
    }
  ],
  "flight_rules": "MVFR",
  "other": [],
  "visibility": {
    "repr": "7",
    "value": 7,
    "spoken": "seven"
  },
  "wind_direction": {
    "repr": "130",
    "value": 130,
    "spoken": "one three zero"
  },
  "wind_gust": null,
  "wind_speed": {
    "repr": "07",
    "value": 7,
    "spoken": "seven"
  },
  "wx_codes": [
    {
      "repr": "UP",
      "value": "Unknown Precip"
    }
  ],
  "raw": "KAWO 270312Z AUTO 13007KT 7SM UP BKN017 BKN024 OVC041 02/00 A2971 RMK AO2 RAE09UPB09 P0000 FZRANO",
  "sanitized": "KAWO 270312Z 13007KT 7SM UP BKN017 BKN024 OVC041 02/00 A2971 RMK AO2 RAE09UPB09 P0000 FZRANO",
  "station": "KAWO",
  "time": {
    "repr": "270312Z",
    "dt": "2023-02-27T03:12:00Z"
  },
  "remarks": "RMK AO2 RAE09UPB09 P0000 FZRANO",
  "dewpoint": {
    "repr": "00",
    "value": 0,
    "spoken": "zero"
  },
  "relative_humidity": 0.8659300735456716,
  "remarks_info": {
    "maximum_temperature_6": null,
    "minimum_temperature_6": null,
    "pressure_tendency": null,
    "precip_36_hours": null,
    "precip_24_hours": null,
    "sunshine_minutes": null,
    "codes": [
      {
        "repr": "AO2",
        "value": "Automated with precipitation sensor"
      },
      {
        "repr": "FZRANO",
        "value": "Freezing rain information not available"
      },
      {
        "repr": "P0000",
        "value": "Trace amount of rain in the last hour"
      }
    ],
    "dewpoint_decimal": null,
    "maximum_temperature_24": null,
    "minimum_temperature_24": null,
    "precip_hourly": null,
    "sea_level_pressure": null,
    "snow_depth": null,
    "temperature_decimal": null
  },
  "runway_visibility": [],
  "temperature": {
    "repr": "02",
    "value": 2,
    "spoken": "two"
  },
  "wind_variable_direction": [],
  "density_altitude": -1174,
  "pressure_altitude": 352,
  "units": {
    "accumulation": "in",
    "altimeter": "inHg",
    "altitude": "ft",
    "temperature": "C",
    "visibility": "sm",
    "wind_speed": "kt"
  }
}
