{
  "altimeter": {
    "repr": "A3016",
    "spoken": "three zero point one six",
    "value": 30.16
  },
  "clouds": [
    {
      "altitude": 27,
      "modifier": null,
      "repr": "FEW027",
      "type": "FEW"
    },
    {
      "altitude": 47,
      "modifier": null,
      "repr": "OVC047",
      "type": "OVC"
    }
  ],
  "density_altitude": 776,
  "dewpoint": {
    "repr": "16",
    "spoken": "one six",
    "value": 16
  },
  "flight_rules": "VFR",
  "meta": {
    "cache-timestamp": "2024-09-23T21:25:58.050000Z",
    "stations_updated": "2024-06-12",
    "timestamp": "2024-09-23T21:26:32.487124Z"
  },
  "other": [],
  "pressure_altitude": -98,
  "raw": "KAWO 232124Z AUTO 19008KT 10SM FEW027 OVC047 22/16 A3016 RMK AO2",
  "relative_humidity": 0.6874947937658342,
  "remarks": "RMK AO2",
  "remarks_info": {
    "codes": [
      {
        "repr": "AO2",
        "value": "Automated with precipitation sensor"
      }
    ],
    "dewpoint_decimal": null,
    "maximum_temperature_24": null,
    "maximum_temperature_6": null,
    "minimum_temperature_24": null,
    "minimum_temperature_6": null,
    "precip_24_hours": null,
    "precip_36_hours": null,
    "precip_hourly": null,
    "pressure_tendency": null,
    "sea_level_pressure": null,
    "snow_depth": null,
    "sunshine_minutes": null,
    "temperature_decimal": null
  },
  "runway_visibility": [],
  "sanitized": "KAWO 232124Z 19008KT 10SM FEW027 OVC047 22/16 A3016 RMK AO2",
  "station": "KAWO",
  "temperature": {
    "repr": "22",
    "spoken": "two two",
    "value": 22
  },
  "time": {
    "dt": "2024-09-23T21:24:00Z",
    "repr": "232124Z"
  },
  "units": {
    "accumulation": "in",
    "altimeter": "inHg",
    "altitude": "ft",
    "temperature": "C",
    "visibility": "sm",
    "wind_speed": "kt"
  },
  "visibility": {
    "repr": "10",
    "spoken": "one zero",
    "value": 10
  },
  "wind_direction": {
    "repr": "190",
    "spoken": "one nine zero",
    "value": 190
  },
  "wind_gust": null,
  "wind_speed": {
    "repr": "08",
    "spoken": "eight",
    "value": 8
  },
  "wind_variable_direction": [],
  "wx_codes": []
}
