{
  "meta": {
    "timestamp": "2023-08-21T04:04:08.140660Z",
    "stations_updated": "2023-08-05",
    "cache-timestamp": "2023-08-21T04:04:04.329000Z"
  },
  "altimeter": {
    "repr": "A2984",
    "value": 29.84,
    "spoken": "two nine point eight four"
  },
  "clouds": [
    {
      "repr": "FEW002",
      "type": "FEW",
      "altitude": 2,
      "modifier": null
    }
  ],
  "flight_rules": "VFR",
  "other": [],
  "visibility": {
    "repr": "10",
    "value": 10,
    "spoken": "one zero"
  },
  "wind_direction": {
    "repr": "280",
    "value": 280,
    "spoken": "two eight zero"
  },
  "wind_gust": null,
  "wind_speed": {
    "repr": "03",
    "value": 3,
    "spoken": "three"
  },
  "wx_codes": [],
  "raw": "KAWO 210356Z AUTO 28003KT 10SM FEW002 17/09 A2984 RMK AO2 SLP110 T01720094",
  "sanitized": "KAWO 210356Z 28003KT 10SM FEW002 17/09 A2984 RMK AO2 SLP110 T01720094",
  "station": "KAWO",
  "time": {
    "repr": "210356Z",
    "dt": "2023-08-21T03:56:00Z"
  },
  "remarks": "RMK AO2 SLP110 T01720094",
  "dewpoint": {
    "repr": "09",
    "value": 9,
    "spoken": "nine"
  },
  "relative_humidity": 0.6010805410964936,
  "remarks_info": {
    "maximum_temperature_6": null,
    "minimum_temperature_6": null,
    "pressure_tendency": null,
    "precip_36_hours": null,
    "precip_24_hours": null,
    "sunshine_minutes": null,
    "codes": [
      {
        "repr": "AO2",
        "value": "Automated with precipitation sensor"
      }
    ],
    "dewpoint_decimal": {
      "repr": "0094",
      "value": 9.4,
      "spoken": "nine point four"
    },
    "maximum_temperature_24": null,
    "minimum_temperature_24": null,
    "precip_hourly": null,
    "sea_level_pressure": {
      "repr": "SLP110",
      "value": 1011,
      "spoken": "one zero one one point zero"
    },
    "snow_depth": null,
    "temperature_decimal": {
      "repr": "0172",
      "value": 17.2,
      "spoken": "one seven point two"
    }
  },
  "runway_visibility": [],
  "temperature": {
    "repr": "17",
    "value": 17,
    "spoken": "one seven"
  },
  "wind_variable_direction": [],
  "density_altitude": 520,
  "pressure_altitude": 222,
  "units": {
    "accumulation": "in",
    "altimeter": "inHg",
    "altitude": "ft",
    "temperature": "C",
    "visibility": "sm",
    "wind_speed": "kt"
  }
}
