{
  "altimeter": {
    "repr": "A2978",
    "spoken": "two nine point seven eight",
    "value": 29.78
  },
  "clouds": [
    {
      "altitude": 35,
      "modifier": null,
      "repr": "FEW035",
      "type": "FEW"
    },
    {
      "altitude": 45,
      "modifier": null,
      "repr": "OVC045",
      "type": "OVC"
    }
  ],
  "density_altitude": -1280,
  "dewpoint": {
    "repr": "M04",
    "spoken": "minus four",
    "value": -4
  },
  "flight_rules": "VFR",
  "meta": {
    "cache-timestamp": "2024-01-11T23:02:11.016000Z",
    "stations_updated": "2023-10-28",
    "timestamp": "2024-01-11T23:02:17.909574Z"
  },
  "other": [],
  "pressure_altitude": 282,
  "raw": "KAWO 112256Z AUTO 35008KT 10SM -SN FEW035 OVC045 02/M04 A2978 RMK AO2 RAB2157E11B51E54UPB11E21SNB54 SLP090 P0000 T00171039 FZRANO",
  "relative_humidity": 0.6635672870671393,
  "remarks": "RMK AO2 RAB2157E11B51E54UPB11E21SNB54 SLP090 P0000 T00171039 FZRANO",
  "remarks_info": {
    "codes": [
      {
        "repr": "AO2",
        "value": "Automated with precipitation sensor"
      },
      {
        "repr": "FZRANO",
        "value": "Freezing rain information not available"
      },
      {
        "repr": "P0000",
        "value": "Trace amount of rain in the last hour"
      }
    ],
    "dewpoint_decimal": {
      "repr": "1039",
      "spoken": "minus three point nine",
      "value": -3.9
    },
    "maximum_temperature_24": null,
    "maximum_temperature_6": null,
    "minimum_temperature_24": null,
    "minimum_temperature_6": null,
    "precip_24_hours": null,
    "precip_36_hours": null,
    "precip_hourly": null,
    "pressure_tendency": null,
    "sea_level_pressure": {
      "repr": "SLP090",
      "spoken": "one zero zero nine point zero",
      "value": 1009
    },
    "snow_depth": null,
    "sunshine_minutes": null,
    "temperature_decimal": {
      "repr": "0017",
      "spoken": "one point seven",
      "value": 1.7
    }
  },
  "runway_visibility": [],
  "sanitized": "KAWO 112256Z 35008KT 10SM -SN FEW035 OVC045 02/M04 A2978 RMK AO2 RAB2157E11B51E54UPB11E21SNB54 SLP090 P0000 T00171039 FZRANO",
  "station": "KAWO",
  "temperature": {
    "repr": "02",
    "spoken": "two",
    "value": 2
  },
  "time": {
    "dt": "2024-01-11T22:56:00Z",
    "repr": "112256Z"
  },
  "units": {
    "accumulation": "in",
    "altimeter": "inHg",
    "altitude": "ft",
    "temperature": "C",
    "visibility": "sm",
    "wind_speed": "kt"
  },
  "visibility": {
    "repr": "10",
    "spoken": "one zero",
    "value": 10
  },
  "wind_direction": {
    "repr": "350",
    "spoken": "three five zero",
    "value": 350
  },
  "wind_gust": null,
  "wind_speed": {
    "repr": "08",
    "spoken": "eight",
    "value": 8
  },
  "wind_variable_direction": [],
  "wx_codes": [
    {
      "repr": "-SN",
      "value": "Light Snow"
    }
  ]
}
