{
  "altimeter": {
    "repr": "A3014",
    "spoken": "three zero point one four",
    "value": 30.14
  },
  "clouds": [],
  "density_altitude": 1492,
  "dewpoint": {
    "repr": "16",
    "spoken": "one six",
    "value": 16
  },
  "flight_rules": "VFR",
  "meta": {
    "stations_updated": "2024-06-12",
    "timestamp": "2024-07-05T23:06:41.100182Z"
  },
  "other": [],
  "pressure_altitude": -78,
  "raw": "KAWO 052256Z AUTO 28011KT 10SM CLR 28/16 A3014 RMK AO2 SLP208 T02780156",
  "relative_humidity": 0.47390187205872836,
  "remarks": "RMK AO2 SLP208 T02780156",
  "remarks_info": {
    "codes": [
      {
        "repr": "AO2",
        "value": "Automated with precipitation sensor"
      }
    ],
    "dewpoint_decimal": {
      "repr": "0156",
      "spoken": "one five point six",
      "value": 15.6
    },
    "maximum_temperature_24": null,
    "maximum_temperature_6": null,
    "minimum_temperature_24": null,
    "minimum_temperature_6": null,
    "precip_24_hours": null,
    "precip_36_hours": null,
    "precip_hourly": null,
    "pressure_tendency": null,
    "sea_level_pressure": {
      "repr": "SLP208",
      "spoken": "one zero two zero point eight",
      "value": 1020.8
    },
    "snow_depth": null,
    "sunshine_minutes": null,
    "temperature_decimal": {
      "repr": "0278",
      "spoken": "two seven point eight",
      "value": 27.8
    }
  },
  "runway_visibility": [],
  "sanitized": "KAWO 052256Z 28011KT 10SM 28/16 A3014 RMK AO2 SLP208 T02780156",
  "station": "KAWO",
  "temperature": {
    "repr": "28",
    "spoken": "two eight",
    "value": 28
  },
  "time": {
    "dt": "2024-07-05T22:56:00Z",
    "repr": "052256Z"
  },
  "units": {
    "accumulation": "in",
    "altimeter": "inHg",
    "altitude": "ft",
    "temperature": "C",
    "visibility": "sm",
    "wind_speed": "kt"
  },
  "visibility": {
    "repr": "10",
    "spoken": "one zero",
    "value": 10
  },
  "wind_direction": {
    "repr": "280",
    "spoken": "two eight zero",
    "value": 280
  },
  "wind_gust": null,
  "wind_speed": {
    "repr": "11",
    "spoken": "one one",
    "value": 11
  },
  "wind_variable_direction": [],
  "wx_codes": []
}
