{
  "meta": {
    "timestamp": "2022-12-27T14:24:52.569831Z",
    "stations_updated": "2022-09-05"
  },
  "altimeter": {
    "repr": "A2886",
    "value": 28.86,
    "spoken": "two eight point eight six"
  },
  "clouds": [
    {
      "repr": "BKN050",
      "type": "BKN",
      "altitude": 50,
      "modifier": null
    },
    {
      "repr": "OVC065",
      "type": "OVC",
      "altitude": 65,
      "modifier": null
    }
  ],
  "flight_rules": "VFR",
  "other": [],
  "visibility": {
    "repr": "9",
    "value": 9,
    "spoken": "nine"
  },
  "wind_direction": {
    "repr": "100",
    "value": 100,
    "spoken": "one zero zero"
  },
  "wind_gust": null,
  "wind_speed": {
    "repr": "10",
    "value": 10,
    "spoken": "one zero"
  },
  "wx_codes": [
    {
      "repr": "RA",
      "value": "Rain"
    }
  ],
  "raw": "KAWO 271356Z AUTO 10010KT 9SM RA BKN050 OVC065 12/09 A2886 RMK AO2 WSHFT 1245 RAE02B35 SLP776 P0003 T01170089",
  "sanitized": "KAWO 271356Z 10010KT 9SM RA BKN050 OVC065 12/09 A2886 RMK AO2 WSHFT 1245 RAE02B35 SLP776 P0003 T01170089",
  "station": "KAWO",
  "time": {
    "repr": "271356Z",
    "dt": "2022-12-27T13:56:00Z"
  },
  "remarks": "RMK AO2 WSHFT 1245 RAE02B35 SLP776 P0003 T01170089",
  "dewpoint": {
    "repr": "09",
    "value": 9,
    "spoken": "nine"
  },
  "relative_humidity": 0.8294144771177383,
  "remarks_info": {
    "maximum_temperature_6": null,
    "minimum_temperature_6": null,
    "pressure_tendency": null,
    "precip_36_hours": null,
    "precip_24_hours": null,
    "sunshine_minutes": null,
    "codes": [
      {
        "repr": "AO2",
        "value": "Automated with precipitation sensor"
      }
    ],
    "dewpoint_decimal": {
      "repr": "0089",
      "value": 8.9,
      "spoken": "eight point nine"
    },
    "maximum_temperature_24": null,
    "minimum_temperature_24": null,
    "precip_hourly": {
      "repr": "P0003",
      "value": 0.03,
      "spoken": "zero point zero three"
    },
    "sea_level_pressure": {
      "repr": "SLP776",
      "value": 977.6,
      "spoken": "nine seven seven point six"
    },
    "snow_depth": null,
    "temperature_decimal": {
      "repr": "0117",
      "value": 11.7,
      "spoken": "one one point seven"
    }
  },
  "runway_visibility": [],
  "temperature": {
    "repr": "12",
    "value": 12,
    "spoken": "one two"
  },
  "wind_variable_direction": [],
  "density_altitude": 840,
  "pressure_altitude": 1202,
  "units": {
    "accumulation": "in",
    "altimeter": "inHg",
    "altitude": "ft",
    "temperature": "C",
    "visibility": "sm",
    "wind_speed": "kt"
  }
}
