{
  "meta": {
    "timestamp": "2023-04-21T13:07:27.939117Z",
    "stations_updated": "2023-03-11"
  },
  "altimeter": {
    "repr": "A3032",
    "value": 30.32,
    "spoken": "three zero point three two"
  },
  "clouds": [
    {
      "repr": "BKN015",
      "type": "BKN",
      "altitude": 15,
      "modifier": null
    },
    {
      "repr": "OVC023",
      "type": "OVC",
      "altitude": 23,
      "modifier": null
    }
  ],
  "flight_rules": "MVFR",
  "other": [],
  "visibility": {
    "repr": "10",
    "value": 10,
    "spoken": "one zero"
  },
  "wind_direction": {
    "repr": "120",
    "value": 120,
    "spoken": "one two zero"
  },
  "wind_gust": null,
  "wind_speed": {
    "repr": "04",
    "value": 4,
    "spoken": "four"
  },
  "wx_codes": [],
  "raw": "KAWO 211256Z AUTO 12004KT 10SM BKN015 OVC023 06/04 A3032 RMK AO2 SLP273 T00610044",
  "sanitized": "KAWO 211256Z 12004KT 10SM BKN015 OVC023 06/04 A3032 RMK AO2 SLP273 T00610044",
  "station": "KAWO",
  "time": {
    "repr": "211256Z",
    "dt": "2023-04-21T12:56:00Z"
  },
  "remarks": "RMK AO2 SLP273 T00610044",
  "dewpoint": {
    "repr": "04",
    "value": 4,
    "spoken": "four"
  },
  "relative_humidity": 0.8885072425154702,
  "remarks_info": {
    "maximum_temperature_6": null,
    "minimum_temperature_6": null,
    "pressure_tendency": null,
    "precip_36_hours": null,
    "precip_24_hours": null,
    "sunshine_minutes": null,
    "codes": [
      {
        "repr": "AO2",
        "value": "Automated with precipitation sensor"
      }
    ],
    "dewpoint_decimal": {
      "repr": "0044",
      "value": 4.4,
      "spoken": "four point four"
    },
    "maximum_temperature_24": null,
    "minimum_temperature_24": null,
    "precip_hourly": null,
    "sea_level_pressure": {
      "repr": "SLP273",
      "value": 1027.3,
      "spoken": "one zero two seven point three"
    },
    "snow_depth": null,
    "temperature_decimal": {
      "repr": "0061",
      "value": 6.1,
      "spoken": "six point one"
    }
  },
  "runway_visibility": [],
  "temperature": {
    "repr": "06",
    "value": 6,
    "spoken": "six"
  },
  "wind_variable_direction": [],
  "density_altitude": -1292,
  "pressure_altitude": -258,
  "units": {
    "accumulation": "in",
    "altimeter": "inHg",
    "altitude": "ft",
    "temperature": "C",
    "visibility": "sm",
    "wind_speed": "kt"
  }
}
