{
  "meta": {
    "timestamp": "2022-12-24T22:01:40.353658Z",
    "stations_updated": "2022-09-05"
  },
  "altimeter": {
    "repr": "A2995",
    "value": 29.95,
    "spoken": "two nine point nine five"
  },
  "clouds": [
    {
      "repr": "BKN017",
      "type": "BKN",
      "altitude": 17,
      "modifier": null
    },
    {
      "repr": "OVC024",
      "type": "OVC",
      "altitude": 24,
      "modifier": null
    }
  ],
  "flight_rules": "MVFR",
  "other": [],
  "visibility": {
    "repr": "10",
    "value": 10,
    "spoken": "one zero"
  },
  "wind_direction": {
    "repr": "160",
    "value": 160,
    "spoken": "one six zero"
  },
  "wind_gust": null,
  "wind_speed": {
    "repr": "20",
    "value": 20,
    "spoken": "two zero"
  },
  "wx_codes": [],
  "raw": "KAWO 242156Z AUTO 16020KT 10SM BKN017 OVC024 11/09 A2995 RMK AO2 PK WND 16026/2115 RAE54 SLP147 P0001 T01060094",
  "sanitized": "KAWO 242156Z 16020KT 10SM BKN017 OVC024 11/09 A2995 RMK AO2 PK WND 16026/2115 RAE54 SLP147 P0001 T01060094",
  "station": "KAWO",
  "time": {
    "repr": "242156Z",
    "dt": "2022-12-24T21:56:00Z"
  },
  "remarks": "RMK AO2 PK WND 16026/2115 RAE54 SLP147 P0001 T01060094",
  "dewpoint": {
    "repr": "09",
    "value": 9,
    "spoken": "nine"
  },
  "relative_humidity": 0.9227971730278188,
  "remarks_info": {
    "maximum_temperature_6": null,
    "minimum_temperature_6": null,
    "pressure_tendency": null,
    "precip_36_hours": null,
    "precip_24_hours": null,
    "sunshine_minutes": null,
    "codes": [
      {
        "repr": "AO2",
        "value": "Automated with precipitation sensor"
      },
      {
        "repr": "RAE54",
        "value": "Rain ended at :54"
      }
    ],
    "dewpoint_decimal": {
      "repr": "0094",
      "value": 9.4,
      "spoken": "nine point four"
    },
    "maximum_temperature_24": null,
    "minimum_temperature_24": null,
    "precip_hourly": {
      "repr": "P0001",
      "value": 0.01,
      "spoken": "zero point zero one"
    },
    "sea_level_pressure": {
      "repr": "SLP147",
      "value": 1014.7,
      "spoken": "one zero one four point seven"
    },
    "snow_depth": null,
    "temperature_decimal": {
      "repr": "0106",
      "value": 10.6,
      "spoken": "one zero point six"
    }
  },
  "runway_visibility": [],
  "temperature": {
    "repr": "11",
    "value": 11,
    "spoken": "one one"
  },
  "wind_variable_direction": [],
  "density_altitude": -382,
  "pressure_altitude": 112,
  "units": {
    "accumulation": "in",
    "altimeter": "inHg",
    "altitude": "ft",
    "temperature": "C",
    "visibility": "sm",
    "wind_speed": "kt"
  }
}
