{
  "meta": {
    "timestamp": "2023-04-26T06:40:44.513536Z",
    "stations_updated": "2023-03-11",
    "cache-timestamp": "2023-04-26T06:40:04.998000Z"
  },
  "altimeter": {
    "repr": "A3025",
    "value": 30.25,
    "spoken": "three zero point two five"
  },
  "clouds": [],
  "flight_rules": "VFR",
  "other": [],
  "visibility": {
    "repr": "10",
    "value": 10,
    "spoken": "one zero"
  },
  "wind_direction": {
    "repr": "000",
    "value": 0,
    "spoken": "zero zero zero"
  },
  "wind_gust": null,
  "wind_speed": {
    "repr": "00",
    "value": 0,
    "spoken": "zero"
  },
  "wx_codes": [],
  "raw": "KAWO 260556Z AUTO 00000KT 10SM CLR 08/05 A3025 RMK AO2 SLP247 T00830050 10144 20072 50005",
  "sanitized": "KAWO 260556Z 00000KT 10SM 08/05 A3025 RMK AO2 SLP247 T00830050 10144 20072 50005",
  "station": "KAWO",
  "time": {
    "repr": "260556Z",
    "dt": "2023-04-26T05:56:00Z"
  },
  "remarks": "RMK AO2 SLP247 T00830050 10144 20072 50005",
  "dewpoint": {
    "repr": "05",
    "value": 5,
    "spoken": "five"
  },
  "relative_humidity": 0.7969868033518251,
  "remarks_info": {
    "maximum_temperature_6": {
      "repr": "10144",
      "value": 14.4,
      "spoken": "one four point four"
    },
    "minimum_temperature_6": {
      "repr": "20072",
      "value": 7.2,
      "spoken": "seven point two"
    },
    "pressure_tendency": {
      "repr": "50005",
      "tendency": "Increasing, then decreasing",
      "change": 0.5
    },
    "precip_36_hours": null,
    "precip_24_hours": null,
    "sunshine_minutes": null,
    "codes": [
      {
        "repr": "AO2",
        "value": "Automated with precipitation sensor"
      }
    ],
    "dewpoint_decimal": {
      "repr": "0050",
      "value": 5,
      "spoken": "five point zero"
    },
    "maximum_temperature_24": null,
    "minimum_temperature_24": null,
    "precip_hourly": null,
    "sea_level_pressure": {
      "repr": "SLP247",
      "value": 1024.7,
      "spoken": "one zero two four point seven"
    },
    "snow_depth": null,
    "temperature_decimal": {
      "repr": "0083",
      "value": 8.3,
      "spoken": "eight point three"
    }
  },
  "runway_visibility": [],
  "temperature": {
    "repr": "08",
    "value": 8,
    "spoken": "eight"
  },
  "wind_variable_direction": [],
  "density_altitude": -958,
  "pressure_altitude": -188,
  "units": {
    "accumulation": "in",
    "altimeter": "inHg",
    "altitude": "ft",
    "temperature": "C",
    "visibility": "sm",
    "wind_speed": "kt"
  }
}
