{
  "altimeter": {
    "repr": "A3022",
    "spoken": "three zero point two two",
    "value": 30.22
  },
  "clouds": [],
  "density_altitude": -1120,
  "dewpoint": {
    "repr": "00",
    "spoken": "zero",
    "value": 0
  },
  "flight_rules": "VFR",
  "meta": {
    "stations_updated": "2024-01-01",
    "timestamp": "2024-04-19T06:41:36.608945Z"
  },
  "other": [],
  "pressure_altitude": -158,
  "raw": "KAWO 190556Z AUTO 00000KT 10SM CLR 07/00 A3022 RMK AO2 SLP238 T00670000 10167 20061 53006",
  "relative_humidity": 0.6230195015515907,
  "remarks": "RMK AO2 SLP238 T00670000 10167 20061 53006",
  "remarks_info": {
    "codes": [
      {
        "repr": "AO2",
        "value": "Automated with precipitation sensor"
      }
    ],
    "dewpoint_decimal": {
      "repr": "0000",
      "spoken": "zero",
      "value": 0
    },
    "maximum_temperature_24": null,
    "maximum_temperature_6": {
      "repr": "10167",
      "spoken": "one six point seven",
      "value": 16.7
    },
    "minimum_temperature_24": null,
    "minimum_temperature_6": {
      "repr": "20061",
      "spoken": "six point one",
      "value": 6.1
    },
    "precip_24_hours": null,
    "precip_36_hours": null,
    "precip_hourly": null,
    "pressure_tendency": {
      "change": 0.6,
      "repr": "53006",
      "tendency": "Decreasing or steady, then increasing"
    },
    "sea_level_pressure": {
      "repr": "SLP238",
      "spoken": "one zero two three point eight",
      "value": 1023.8
    },
    "snow_depth": null,
    "sunshine_minutes": null,
    "temperature_decimal": {
      "repr": "0067",
      "spoken": "six point seven",
      "value": 6.7
    }
  },
  "runway_visibility": [],
  "sanitized": "KAWO 190556Z 00000KT 10SM 07/00 A3022 RMK AO2 SLP238 T00670000 10167 20061 53006",
  "station": "KAWO",
  "temperature": {
    "repr": "07",
    "spoken": "seven",
    "value": 7
  },
  "time": {
    "dt": "2024-04-19T05:56:00Z",
    "repr": "190556Z"
  },
  "units": {
    "accumulation": "in",
    "altimeter": "inHg",
    "altitude": "ft",
    "temperature": "C",
    "visibility": "sm",
    "wind_speed": "kt"
  },
  "visibility": {
    "repr": "10",
    "spoken": "one zero",
    "value": 10
  },
  "wind_direction": {
    "repr": "000",
    "spoken": "zero zero zero",
    "value": 0
  },
  "wind_gust": null,
  "wind_speed": {
    "repr": "00",
    "spoken": "zero",
    "value": 0
  },
  "wind_variable_direction": [],
  "wx_codes": []
}
