{
  "altimeter": {
    "repr": "A3008",
    "spoken": "three zero point zero eight",
    "value": 30.08
  },
  "clouds": [
    {
      "altitude": 90,
      "modifier": null,
      "repr": "OVC090",
      "type": "OVC"
    }
  ],
  "density_altitude": -2648,
  "dewpoint": {
    "repr": "M13",
    "spoken": "minus one three",
    "value": -13
  },
  "flight_rules": "VFR",
  "meta": {
    "cache-timestamp": "2024-01-12T11:40:03.742000Z",
    "stations_updated": "2023-10-28",
    "timestamp": "2024-01-12T11:40:31.434708Z"
  },
  "other": [],
  "pressure_altitude": -18,
  "raw": "KAWO 121056Z AUTO 32008KT 10SM OVC090 M07/M13 A3008 RMK AO2 SLP193 T10721128 FZRANO",
  "relative_humidity": 0.6427562053658045,
  "remarks": "RMK AO2 SLP193 T10721128 FZRANO",
  "remarks_info": {
    "codes": [
      {
        "repr": "AO2",
        "value": "Automated with precipitation sensor"
      },
      {
        "repr": "FZRANO",
        "value": "Freezing rain information not available"
      }
    ],
    "dewpoint_decimal": {
      "repr": "1128",
      "spoken": "minus one two point eight",
      "value": -12.8
    },
    "maximum_temperature_24": null,
    "maximum_temperature_6": null,
    "minimum_temperature_24": null,
    "minimum_temperature_6": null,
    "precip_24_hours": null,
    "precip_36_hours": null,
    "precip_hourly": null,
    "pressure_tendency": null,
    "sea_level_pressure": {
      "repr": "SLP193",
      "spoken": "one zero one nine point three",
      "value": 1019.3
    },
    "snow_depth": null,
    "sunshine_minutes": null,
    "temperature_decimal": {
      "repr": "1072",
      "spoken": "minus seven point two",
      "value": -7.2
    }
  },
  "runway_visibility": [],
  "sanitized": "KAWO 121056Z 32008KT 10SM OVC090 M07/M13 A3008 RMK AO2 SLP193 T10721128 FZRANO",
  "station": "KAWO",
  "temperature": {
    "repr": "M07",
    "spoken": "minus seven",
    "value": -7
  },
  "time": {
    "dt": "2024-01-12T10:56:00Z",
    "repr": "121056Z"
  },
  "units": {
    "accumulation": "in",
    "altimeter": "inHg",
    "altitude": "ft",
    "temperature": "C",
    "visibility": "sm",
    "wind_speed": "kt"
  },
  "visibility": {
    "repr": "10",
    "spoken": "one zero",
    "value": 10
  },
  "wind_direction": {
    "repr": "320",
    "spoken": "three two zero",
    "value": 320
  },
  "wind_gust": null,
  "wind_speed": {
    "repr": "08",
    "spoken": "eight",
    "value": 8
  },
  "wind_variable_direction": [],
  "wx_codes": []
}
