{
  "altimeter": {
    "repr": "A2947",
    "spoken": "two nine point four seven",
    "value": 29.47
  },
  "clouds": [
    {
      "altitude": 5,
      "modifier": null,
      "repr": "FEW005",
      "type": "FEW"
    },
    {
      "altitude": 11,
      "modifier": null,
      "repr": "OVC011",
      "type": "OVC"
    }
  ],
  "density_altitude": -970,
  "dewpoint": {
    "repr": "01",
    "spoken": "one",
    "value": 1
  },
  "flight_rules": "IFR",
  "meta": {
    "stations_updated": "2024-01-01",
    "timestamp": "2024-02-29T17:01:36.207458Z"
  },
  "other": [],
  "pressure_altitude": 592,
  "raw": "KAWO 291656Z AUTO 35005KT 1 3/4SM -SN BR FEW005 OVC011 02/01 A2947 RMK AO2 UPE44SNB44 CIG 008V014 SLP985 P0007 T00170011 FZRANO",
  "relative_humidity": 0.9578695064206159,
  "remarks": "RMK AO2 UPE44SNB44 CIG 008V014 SLP985 P0007 T00170011 FZRANO",
  "remarks_info": {
    "codes": [
      {
        "repr": "AO2",
        "value": "Automated with precipitation sensor"
      },
      {
        "repr": "FZRANO",
        "value": "Freezing rain information not available"
      }
    ],
    "dewpoint_decimal": {
      "repr": "0011",
      "spoken": "one point one",
      "value": 1.1
    },
    "maximum_temperature_24": null,
    "maximum_temperature_6": null,
    "minimum_temperature_24": null,
    "minimum_temperature_6": null,
    "precip_24_hours": null,
    "precip_36_hours": null,
    "precip_hourly": {
      "repr": "P0007",
      "spoken": "zero point zero seven",
      "value": 0.07
    },
    "pressure_tendency": null,
    "sea_level_pressure": {
      "repr": "SLP985",
      "spoken": "nine nine eight point five",
      "value": 998.5
    },
    "snow_depth": null,
    "sunshine_minutes": null,
    "temperature_decimal": {
      "repr": "0017",
      "spoken": "one point seven",
      "value": 1.7
    }
  },
  "runway_visibility": [],
  "sanitized": "KAWO 291656Z 35005KT 1 3/4SM -SN BR FEW005 OVC011 02/01 A2947 RMK AO2 UPE44SNB44 CIG 008V014 SLP985 P0007 T00170011 FZRANO",
  "station": "KAWO",
  "temperature": {
    "repr": "02",
    "spoken": "two",
    "value": 2
  },
  "time": {
    "dt": "2024-02-29T16:56:00Z",
    "repr": "291656Z"
  },
  "units": {
    "accumulation": "in",
    "altimeter": "inHg",
    "altitude": "ft",
    "temperature": "C",
    "visibility": "sm",
    "wind_speed": "kt"
  },
  "visibility": {
    "denominator": 4,
    "normalized": "1 3/4",
    "numerator": 7,
    "repr": "7/4",
    "spoken": "one and three quarters",
    "value": 1.75
  },
  "wind_direction": {
    "repr": "350",
    "spoken": "three five zero",
    "value": 350
  },
  "wind_gust": null,
  "wind_speed": {
    "repr": "05",
    "spoken": "five",
    "value": 5
  },
  "wind_variable_direction": [],
  "wx_codes": [
    {
      "repr": "-SN",
      "value": "Light Snow"
    },
    {
      "repr": "BR",
      "value": "Mist"
    }
  ]
}
