{
  "meta": {
    "timestamp": "2023-01-11T10:44:07.001917Z",
    "stations_updated": "2022-12-27"
  },
  "altimeter": {
    "repr": "A2977",
    "value": 29.77,
    "spoken": "two nine point seven seven"
  },
  "clouds": [
    {
      "repr": "BKN080",
      "type": "BKN",
      "altitude": 80,
      "modifier": null
    },
    {
      "repr": "OVC110",
      "type": "OVC",
      "altitude": 110,
      "modifier": null
    }
  ],
  "flight_rules": "VFR",
  "other": [],
  "visibility": {
    "repr": "10",
    "value": 10,
    "spoken": "one zero"
  },
  "wind_direction": {
    "repr": "240",
    "value": 240,
    "spoken": "two four zero"
  },
  "wind_gust": null,
  "wind_speed": {
    "repr": "03",
    "value": 3,
    "spoken": "three"
  },
  "wx_codes": [],
  "raw": "KAWO 110956Z AUTO 24003KT 10SM BKN080 OVC110 02/02 A2977 RMK AO2 SLP084 T00220017 FZRANO",
  "sanitized": "KAWO 110956Z 24003KT 10SM BKN080 OVC110 02/02 A2977 RMK AO2 SLP084 T00220017 FZRANO",
  "station": "KAWO",
  "time": {
    "repr": "110956Z",
    "dt": "2023-01-11T09:56:00Z"
  },
  "remarks": "RMK AO2 SLP084 T00220017 FZRANO",
  "dewpoint": {
    "repr": "02",
    "value": 2,
    "spoken": "two"
  },
  "relative_humidity": 0.9649208694160765,
  "remarks_info": {
    "maximum_temperature_6": null,
    "minimum_temperature_6": null,
    "pressure_tendency": null,
    "precip_36_hours": null,
    "precip_24_hours": null,
    "sunshine_minutes": null,
    "codes": [
      {
        "repr": "AO2",
        "value": "Automated with precipitation sensor"
      },
      {
        "repr": "FZRANO",
        "value": "Freezing rain information not available"
      }
    ],
    "dewpoint_decimal": {
      "repr": "0017",
      "value": 1.7,
      "spoken": "one point seven"
    },
    "maximum_temperature_24": null,
    "minimum_temperature_24": null,
    "precip_hourly": null,
    "sea_level_pressure": {
      "repr": "SLP084",
      "value": 1008.4,
      "spoken": "one zero zero eight point four"
    },
    "snow_depth": null,
    "temperature_decimal": {
      "repr": "0022",
      "value": 2.2,
      "spoken": "two point two"
    }
  },
  "runway_visibility": [],
  "temperature": {
    "repr": "02",
    "value": 2,
    "spoken": "two"
  },
  "wind_variable_direction": [],
  "density_altitude": -1210,
  "pressure_altitude": 292,
  "units": {
    "accumulation": "in",
    "altimeter": "inHg",
    "altitude": "ft",
    "temperature": "C",
    "visibility": "sm",
    "wind_speed": "kt"
  }
}
