{
  "meta": {
    "timestamp": "2022-11-30T17:04:09.744624Z",
    "stations_updated": "2022-09-05"
  },
  "altimeter": {
    "repr": "A2952",
    "value": 29.52,
    "spoken": "two nine point five two"
  },
  "clouds": [
    {
      "repr": "FEW024",
      "type": "FEW",
      "altitude": 24,
      "modifier": null
    },
    {
      "repr": "BKN032",
      "type": "BKN",
      "altitude": 32,
      "modifier": null
    },
    {
      "repr": "OVC038",
      "type": "OVC",
      "altitude": 38,
      "modifier": null
    }
  ],
  "flight_rules": "VFR",
  "other": [],
  "visibility": {
    "repr": "10",
    "value": 10,
    "spoken": "one zero"
  },
  "wind_direction": {
    "repr": "280",
    "value": 280,
    "spoken": "two eight zero"
  },
  "wind_gust": null,
  "wind_speed": {
    "repr": "03",
    "value": 3,
    "spoken": "three"
  },
  "wx_codes": [
    {
      "repr": "UP",
      "value": "Unknown Precip"
    }
  ],
  "raw": "KAWO 301656Z AUTO 28003KT 10SM UP FEW024 BKN032 OVC038 03/02 A2952 RMK AO2 RAE54UPB13E16B54 SLP002 P0002 T00280017",
  "sanitized": "KAWO 301656Z 28003KT 10SM UP FEW024 BKN032 OVC038 03/02 A2952 RMK AO2 RAE54UPB13E16B54 SLP002 P0002 T00280017",
  "station": "KAWO",
  "time": {
    "repr": "301656Z",
    "dt": "2022-11-30T16:56:00Z"
  },
  "remarks": "RMK AO2 RAE54UPB13E16B54 SLP002 P0002 T00280017",
  "dewpoint": {
    "repr": "02",
    "value": 2,
    "spoken": "two"
  },
  "relative_humidity": 0.9246233415824485,
  "remarks_info": {
    "maximum_temperature_6": null,
    "minimum_temperature_6": null,
    "pressure_tendency": null,
    "precip_36_hours": null,
    "precip_24_hours": null,
    "sunshine_minutes": null,
    "codes": [
      {
        "repr": "AO2",
        "value": "Automated with precipitation sensor"
      }
    ],
    "dewpoint_decimal": {
      "repr": "0017",
      "value": 1.7,
      "spoken": "one point seven"
    },
    "maximum_temperature_24": null,
    "minimum_temperature_24": null,
    "precip_hourly": {
      "repr": "P0002",
      "value": 0.02,
      "spoken": "zero point zero two"
    },
    "sea_level_pressure": {
      "repr": "SLP002",
      "value": 1000.2,
      "spoken": "one zero zero zero point two"
    },
    "snow_depth": null,
    "temperature_decimal": {
      "repr": "0028",
      "value": 2.8,
      "spoken": "two point eight"
    }
  },
  "runway_visibility": [],
  "temperature": {
    "repr": "03",
    "value": 3,
    "spoken": "three"
  },
  "wind_variable_direction": [],
  "density_altitude": -888,
  "pressure_altitude": 542,
  "units": {
    "accumulation": "in",
    "altimeter": "inHg",
    "altitude": "ft",
    "temperature": "C",
    "visibility": "sm",
    "wind_speed": "kt"
  }
}
