{
  "meta": {
    "timestamp": "2022-12-22T18:06:25.993521Z",
    "stations_updated": "2022-09-05"
  },
  "altimeter": {
    "repr": "A3048",
    "value": 30.48,
    "spoken": "three zero point four eight"
  },
  "clouds": [],
  "flight_rules": "VFR",
  "other": [],
  "visibility": {
    "repr": "10",
    "value": 10,
    "spoken": "one zero"
  },
  "wind_direction": {
    "repr": "000",
    "value": 0,
    "spoken": "zero zero zero"
  },
  "wind_gust": null,
  "wind_speed": {
    "repr": "00",
    "value": 0,
    "spoken": "zero"
  },
  "wx_codes": [],
  "raw": "KAWO 221756Z AUTO 00000KT 10SM CLR M11/M13 A3048 RMK AO2 SLP329 T11111128 11111 21172 58014 FZRANO",
  "sanitized": "KAWO 221756Z 00000KT 10SM M11/M13 A3048 RMK AO2 SLP329 T11111128 11111 21172 58014 FZRANO",
  "station": "KAWO",
  "time": {
    "repr": "221756Z",
    "dt": "2022-12-22T17:56:00Z"
  },
  "remarks": "RMK AO2 SLP329 T11111128 11111 21172 58014 FZRANO",
  "dewpoint": {
    "repr": "M13",
    "value": -13,
    "spoken": "minus one three"
  },
  "relative_humidity": 0.8724699016309581,
  "remarks_info": {
    "maximum_temperature_6": {
      "repr": "11111",
      "value": -11.1,
      "spoken": "minus one one point one"
    },
    "minimum_temperature_6": {
      "repr": "21172",
      "value": -17.2,
      "spoken": "minus one seven point two"
    },
    "pressure_tendency": {
      "repr": "58014",
      "tendency": "Steady or increasing, then decreasing",
      "change": 1.4
    },
    "precip_36_hours": null,
    "precip_24_hours": null,
    "sunshine_minutes": null,
    "codes": [
      {
        "repr": "AO2",
        "value": "Automated with precipitation sensor"
      },
      {
        "repr": "FZRANO",
        "value": "Freezing rain information not available"
      }
    ],
    "dewpoint_decimal": {
      "repr": "1128",
      "value": -12.8,
      "spoken": "minus one two point eight"
    },
    "maximum_temperature_24": null,
    "minimum_temperature_24": null,
    "precip_hourly": null,
    "sea_level_pressure": {
      "repr": "SLP329",
      "value": 1032.9,
      "spoken": "one zero three two point nine"
    },
    "snow_depth": null,
    "temperature_decimal": {
      "repr": "1111",
      "value": -11.1,
      "spoken": "minus one one point one"
    }
  },
  "runway_visibility": [],
  "temperature": {
    "repr": "M11",
    "value": -11,
    "spoken": "minus one one"
  },
  "wind_variable_direction": [],
  "density_altitude": -3516,
  "pressure_altitude": -418,
  "units": {
    "accumulation": "in",
    "altimeter": "inHg",
    "altitude": "ft",
    "temperature": "C",
    "visibility": "sm",
    "wind_speed": "kt"
  }
}
