{
  "meta": {
    "timestamp": "2023-02-04T01:59:14.290684Z",
    "stations_updated": "2023-01-30"
  },
  "altimeter": {
    "repr": "A2993",
    "value": 29.93,
    "spoken": "two nine point nine three"
  },
  "clouds": [
    {
      "repr": "OVC021",
      "type": "OVC",
      "altitude": 21,
      "modifier": null
    }
  ],
  "flight_rules": "MVFR",
  "other": [],
  "visibility": {
    "repr": "10",
    "value": 10,
    "spoken": "one zero"
  },
  "wind_direction": {
    "repr": "150",
    "value": 150,
    "spoken": "one five zero"
  },
  "wind_gust": {
    "repr": "25",
    "value": 25,
    "spoken": "two five"
  },
  "wind_speed": {
    "repr": "17",
    "value": 17,
    "spoken": "one seven"
  },
  "wx_codes": [],
  "raw": "KAWO 040156Z AUTO 15017G25KT 10SM OVC021 08/06 A2993 RMK AO2 RAE49 SLP139 P0000 T00780056",
  "sanitized": "KAWO 040156Z 15017G25KT 10SM OVC021 08/06 A2993 RMK AO2 RAE49 SLP139 P0000 T00780056",
  "station": "KAWO",
  "time": {
    "repr": "040156Z",
    "dt": "2023-02-04T01:56:00Z"
  },
  "remarks": "RMK AO2 RAE49 SLP139 P0000 T00780056",
  "dewpoint": {
    "repr": "06",
    "value": 6,
    "spoken": "six"
  },
  "relative_humidity": 0.859663717525656,
  "remarks_info": {
    "maximum_temperature_6": null,
    "minimum_temperature_6": null,
    "pressure_tendency": null,
    "precip_36_hours": null,
    "precip_24_hours": null,
    "sunshine_minutes": null,
    "codes": [
      {
        "repr": "AO2",
        "value": "Automated with precipitation sensor"
      },
      {
        "repr": "P0000",
        "value": "Trace amount of rain in the last hour"
      },
      {
        "repr": "RAE49",
        "value": "Rain ended at :49"
      }
    ],
    "dewpoint_decimal": {
      "repr": "0056",
      "value": 5.6,
      "spoken": "five point six"
    },
    "maximum_temperature_24": null,
    "minimum_temperature_24": null,
    "precip_hourly": null,
    "sea_level_pressure": {
      "repr": "SLP139",
      "value": 1013.9,
      "spoken": "one zero one three point nine"
    },
    "snow_depth": null,
    "temperature_decimal": {
      "repr": "0078",
      "value": 7.8,
      "spoken": "seven point eight"
    }
  },
  "runway_visibility": [],
  "temperature": {
    "repr": "08",
    "value": 8,
    "spoken": "eight"
  },
  "wind_variable_direction": [],
  "density_altitude": -698,
  "pressure_altitude": 132,
  "units": {
    "accumulation": "in",
    "altimeter": "inHg",
    "altitude": "ft",
    "temperature": "C",
    "visibility": "sm",
    "wind_speed": "kt"
  }
}
