{
  "meta": {
    "timestamp": "2023-06-16T02:47:09.542003Z",
    "stations_updated": "2023-06-06"
  },
  "altimeter": {
    "repr": "A3017",
    "value": 30.17,
    "spoken": "three zero point one seven"
  },
  "clouds": [
    {
      "repr": "BKN100",
      "type": "BKN",
      "altitude": 100,
      "modifier": null
    }
  ],
  "flight_rules": "VFR",
  "other": [],
  "visibility": {
    "repr": "10",
    "value": 10,
    "spoken": "one zero"
  },
  "wind_direction": {
    "repr": "310",
    "value": 310,
    "spoken": "three one zero"
  },
  "wind_gust": null,
  "wind_speed": {
    "repr": "07",
    "value": 7,
    "spoken": "seven"
  },
  "wx_codes": [],
  "raw": "KAWO 160156Z AUTO 31007KT 10SM BKN100 21/09 A3017 RMK AO2 SLP221 T02060094",
  "sanitized": "KAWO 160156Z 31007KT 10SM BKN100 21/09 A3017 RMK AO2 SLP221 T02060094",
  "station": "KAWO",
  "time": {
    "repr": "160156Z",
    "dt": "2023-06-16T01:56:00Z"
  },
  "remarks": "RMK AO2 SLP221 T02060094",
  "dewpoint": {
    "repr": "09",
    "value": 9,
    "spoken": "nine"
  },
  "relative_humidity": 0.48602269771133283,
  "remarks_info": {
    "maximum_temperature_6": null,
    "minimum_temperature_6": null,
    "pressure_tendency": null,
    "precip_36_hours": null,
    "precip_24_hours": null,
    "sunshine_minutes": null,
    "codes": [
      {
        "repr": "AO2",
        "value": "Automated with precipitation sensor"
      }
    ],
    "dewpoint_decimal": {
      "repr": "0094",
      "value": 9.4,
      "spoken": "nine point four"
    },
    "maximum_temperature_24": null,
    "minimum_temperature_24": null,
    "precip_hourly": null,
    "sea_level_pressure": {
      "repr": "SLP221",
      "value": 1022.1,
      "spoken": "one zero two two point one"
    },
    "snow_depth": null,
    "temperature_decimal": {
      "repr": "0206",
      "value": 20.6,
      "spoken": "two zero point six"
    }
  },
  "runway_visibility": [],
  "temperature": {
    "repr": "21",
    "value": 21,
    "spoken": "two one"
  },
  "wind_variable_direction": [],
  "density_altitude": 598,
  "pressure_altitude": -108,
  "units": {
    "accumulation": "in",
    "altimeter": "inHg",
    "altitude": "ft",
    "temperature": "C",
    "visibility": "sm",
    "wind_speed": "kt"
  }
}
