{
  "meta": {
    "timestamp": "2023-03-01T06:08:24.788560Z",
    "stations_updated": "2023-01-30",
    "cache-timestamp": "2023-03-01T06:08:05.964000Z"
  },
  "altimeter": {
    "repr": "A2981",
    "value": 29.81,
    "spoken": "two nine point eight one"
  },
  "clouds": [],
  "flight_rules": "LIFR",
  "other": [],
  "visibility": {
    "repr": "1/4",
    "value": 0.25,
    "spoken": "one quarter",
    "numerator": 1,
    "denominator": 4,
    "normalized": "1/4"
  },
  "wind_direction": {
    "repr": "000",
    "value": 0,
    "spoken": "zero zero zero"
  },
  "wind_gust": null,
  "wind_speed": {
    "repr": "00",
    "value": 0,
    "spoken": "zero"
  },
  "wx_codes": [
    {
      "repr": "FZFG",
      "value": "Freezing Fog"
    }
  ],
  "raw": "KAWO 010556Z AUTO 00000KT 1/4SM FZFG M02/M03 A2981 RMK AO2 SLP099 T10221028 10033 21028 52023 FZRANO $",
  "sanitized": "KAWO 010556Z 00000KT 1/4SM FZFG M02/M03 A2981 RMK AO2 SLP099 T10221028 10033 21028 52023 FZRANO $",
  "station": "KAWO",
  "time": {
    "repr": "010556Z",
    "dt": "2023-03-01T05:56:00Z"
  },
  "remarks": "RMK AO2 SLP099 T10221028 10033 21028 52023 FZRANO $",
  "dewpoint": {
    "repr": "M03",
    "value": -3,
    "spoken": "minus three"
  },
  "relative_humidity": 0.956525227573871,
  "remarks_info": {
    "maximum_temperature_6": {
      "repr": "10033",
      "value": 3.3,
      "spoken": "three point three"
    },
    "minimum_temperature_6": {
      "repr": "21028",
      "value": -2.8,
      "spoken": "minus two point eight"
    },
    "pressure_tendency": {
      "repr": "52023",
      "tendency": "Increasing steadily or unsteadily",
      "change": 2.3
    },
    "precip_36_hours": null,
    "precip_24_hours": null,
    "sunshine_minutes": null,
    "codes": [
      {
        "repr": "$",
        "value": "ASOS requires maintenance"
      },
      {
        "repr": "AO2",
        "value": "Automated with precipitation sensor"
      },
      {
        "repr": "FZRANO",
        "value": "Freezing rain information not available"
      }
    ],
    "dewpoint_decimal": {
      "repr": "1028",
      "value": -2.8,
      "spoken": "minus two point eight"
    },
    "maximum_temperature_24": null,
    "minimum_temperature_24": null,
    "precip_hourly": null,
    "sea_level_pressure": {
      "repr": "SLP099",
      "value": 1009.9,
      "spoken": "one zero zero nine point nine"
    },
    "snow_depth": null,
    "temperature_decimal": {
      "repr": "1022",
      "value": -2.2,
      "spoken": "minus two point two"
    }
  },
  "runway_visibility": [],
  "temperature": {
    "repr": "M02",
    "value": -2,
    "spoken": "minus two"
  },
  "wind_variable_direction": [],
  "density_altitude": -1778,
  "pressure_altitude": 252,
  "units": {
    "accumulation": "in",
    "altimeter": "inHg",
    "altitude": "ft",
    "temperature": "C",
    "visibility": "sm",
    "wind_speed": "kt"
  }
}
