{
  "meta": {
    "timestamp": "2022-12-02T08:43:22.020768Z",
    "stations_updated": "2022-09-05"
  },
  "altimeter": {
    "repr": "A2997",
    "value": 29.97,
    "spoken": "two nine point nine seven"
  },
  "clouds": [
    {
      "repr": "FEW049",
      "type": "FEW",
      "altitude": 49,
      "modifier": null
    }
  ],
  "flight_rules": "VFR",
  "other": [],
  "visibility": {
    "repr": "10",
    "value": 10,
    "spoken": "one zero"
  },
  "wind_direction": {
    "repr": "000",
    "value": 0,
    "spoken": "zero zero zero"
  },
  "wind_gust": null,
  "wind_speed": {
    "repr": "00",
    "value": 0,
    "spoken": "zero"
  },
  "wx_codes": [],
  "raw": "KAWO 020656Z AUTO 00000KT 10SM FEW049 M07/M08 A2997 RMK AO2 SLP156 T10671078 FZRANO",
  "sanitized": "KAWO 020656Z 00000KT 10SM FEW049 M07/M08 A2997 RMK AO2 SLP156 T10671078 FZRANO",
  "station": "KAWO",
  "time": {
    "repr": "020656Z",
    "dt": "2022-12-02T06:56:00Z"
  },
  "remarks": "RMK AO2 SLP156 T10671078 FZRANO",
  "dewpoint": {
    "repr": "M08",
    "value": -8,
    "spoken": "minus eight"
  },
  "relative_humidity": 0.918697607581929,
  "remarks_info": {
    "maximum_temperature_6": null,
    "minimum_temperature_6": null,
    "pressure_tendency": null,
    "precip_36_hours": null,
    "precip_24_hours": null,
    "sunshine_minutes": null,
    "codes": [
      {
        "repr": "AO2",
        "value": "Automated with precipitation sensor"
      },
      {
        "repr": "FZRANO",
        "value": "Freezing rain information not available"
      }
    ],
    "dewpoint_decimal": {
      "repr": "1078",
      "value": -7.8,
      "spoken": "minus seven point eight"
    },
    "maximum_temperature_24": null,
    "minimum_temperature_24": null,
    "precip_hourly": null,
    "sea_level_pressure": {
      "repr": "SLP156",
      "value": 1015.6,
      "spoken": "one zero one five point six"
    },
    "snow_depth": null,
    "temperature_decimal": {
      "repr": "1067",
      "value": -6.7,
      "spoken": "minus six point seven"
    }
  },
  "runway_visibility": [],
  "temperature": {
    "repr": "M07",
    "value": -7,
    "spoken": "minus seven"
  },
  "wind_variable_direction": [],
  "density_altitude": -2478,
  "pressure_altitude": 92,
  "units": {
    "accumulation": "in",
    "altimeter": "inHg",
    "altitude": "ft",
    "temperature": "C",
    "visibility": "sm",
    "wind_speed": "kt"
  }
}
