{
  "altimeter": {
    "repr": "A3042",
    "spoken": "three zero point four two",
    "value": 30.42
  },
  "clouds": [],
  "density_altitude": -1860,
  "dewpoint": {
    "repr": "01",
    "spoken": "one",
    "value": 1
  },
  "flight_rules": "VFR",
  "meta": {
    "cache-timestamp": "2023-11-25T18:26:02.876000Z",
    "stations_updated": "2023-10-28",
    "timestamp": "2023-11-25T18:26:27.148508Z"
  },
  "other": [],
  "pressure_altitude": -358,
  "raw": "KAWO 251756Z AUTO 36004KT 10SM CLR 02/01 A3042 RMK AO2 SLP308 T00220006 10022 21044 53006 FZRANO",
  "relative_humidity": 0.8915584154150683,
  "remarks": "RMK AO2 SLP308 T00220006 10022 21044 53006 FZRANO",
  "remarks_info": {
    "codes": [
      {
        "repr": "AO2",
        "value": "Automated with precipitation sensor"
      },
      {
        "repr": "FZRANO",
        "value": "Freezing rain information not available"
      }
    ],
    "dewpoint_decimal": {
      "repr": "0006",
      "spoken": "zero point six",
      "value": 0.6
    },
    "maximum_temperature_24": null,
    "maximum_temperature_6": {
      "repr": "10022",
      "spoken": "two point two",
      "value": 2.2
    },
    "minimum_temperature_24": null,
    "minimum_temperature_6": {
      "repr": "21044",
      "spoken": "minus four point four",
      "value": -4.4
    },
    "precip_24_hours": null,
    "precip_36_hours": null,
    "precip_hourly": null,
    "pressure_tendency": {
      "change": 0.6,
      "repr": "53006",
      "tendency": "Decreasing or steady, then increasing"
    },
    "sea_level_pressure": {
      "repr": "SLP308",
      "spoken": "one zero three zero point eight",
      "value": 1030.8
    },
    "snow_depth": null,
    "sunshine_minutes": null,
    "temperature_decimal": {
      "repr": "0022",
      "spoken": "two point two",
      "value": 2.2
    }
  },
  "runway_visibility": [],
  "sanitized": "KAWO 251756Z 36004KT 10SM 02/01 A3042 RMK AO2 SLP308 T00220006 10022 21044 53006 FZRANO",
  "station": "KAWO",
  "temperature": {
    "repr": "02",
    "spoken": "two",
    "value": 2
  },
  "time": {
    "dt": "2023-11-25T17:56:00Z",
    "repr": "251756Z"
  },
  "units": {
    "accumulation": "in",
    "altimeter": "inHg",
    "altitude": "ft",
    "temperature": "C",
    "visibility": "sm",
    "wind_speed": "kt"
  },
  "visibility": {
    "repr": "10",
    "spoken": "one zero",
    "value": 10
  },
  "wind_direction": {
    "repr": "360",
    "spoken": "three six zero",
    "value": 360
  },
  "wind_gust": null,
  "wind_speed": {
    "repr": "04",
    "spoken": "four",
    "value": 4
  },
  "wind_variable_direction": [],
  "wx_codes": []
}
