{
  "meta": {
    "timestamp": "2023-03-05T00:33:45.518343Z",
    "stations_updated": "2023-01-30",
    "cache-timestamp": "2023-03-05T00:33:21.005000Z"
  },
  "altimeter": {
    "repr": "A2949",
    "value": 29.49,
    "spoken": "two nine point four nine"
  },
  "clouds": [],
  "flight_rules": "VFR",
  "other": [],
  "visibility": {
    "repr": "10",
    "value": 10,
    "spoken": "one zero"
  },
  "wind_direction": {
    "repr": "100",
    "value": 100,
    "spoken": "one zero zero"
  },
  "wind_gust": {
    "repr": "21",
    "value": 21,
    "spoken": "two one"
  },
  "wind_speed": {
    "repr": "14",
    "value": 14,
    "spoken": "one four"
  },
  "wx_codes": [],
  "raw": "KAWO 042356Z AUTO 10014G21KT 10SM CLR 05/01 A2949 RMK AO2 RAE43 SLP990 P0000 60008 T00500006 10072 20028 50007",
  "sanitized": "KAWO 042356Z 10014G21KT 10SM 05/01 A2949 RMK AO2 RAE43 SLP990 P0000 60008 T00500006 10072 20028 50007",
  "station": "KAWO",
  "time": {
    "repr": "042356Z",
    "dt": "2023-03-04T23:56:00Z"
  },
  "remarks": "RMK AO2 RAE43 SLP990 P0000 60008 T00500006 10072 20028 50007",
  "dewpoint": {
    "repr": "01",
    "value": 1,
    "spoken": "one"
  },
  "relative_humidity": 0.7319082020351403,
  "remarks_info": {
    "maximum_temperature_6": {
      "repr": "10072",
      "value": 7.2,
      "spoken": "seven point two"
    },
    "minimum_temperature_6": {
      "repr": "20028",
      "value": 2.8,
      "spoken": "two point eight"
    },
    "pressure_tendency": {
      "repr": "50007",
      "tendency": "Increasing, then decreasing",
      "change": 0.7
    },
    "precip_36_hours": {
      "repr": "60008",
      "value": 0.08,
      "spoken": "zero point zero eight"
    },
    "precip_24_hours": null,
    "sunshine_minutes": null,
    "codes": [
      {
        "repr": "AO2",
        "value": "Automated with precipitation sensor"
      },
      {
        "repr": "P0000",
        "value": "Trace amount of rain in the last hour"
      },
      {
        "repr": "RAE43",
        "value": "Rain ended at :43"
      }
    ],
    "dewpoint_decimal": {
      "repr": "0006",
      "value": 0.6,
      "spoken": "zero point six"
    },
    "maximum_temperature_24": null,
    "minimum_temperature_24": null,
    "precip_hourly": null,
    "sea_level_pressure": {
      "repr": "SLP990",
      "value": 999,
      "spoken": "nine nine nine point zero"
    },
    "snow_depth": null,
    "temperature_decimal": {
      "repr": "0050",
      "value": 5,
      "spoken": "five point zero"
    }
  },
  "runway_visibility": [],
  "temperature": {
    "repr": "05",
    "value": 5,
    "spoken": "five"
  },
  "wind_variable_direction": [],
  "density_altitude": -594,
  "pressure_altitude": 572,
  "units": {
    "accumulation": "in",
    "altimeter": "inHg",
    "altitude": "ft",
    "temperature": "C",
    "visibility": "sm",
    "wind_speed": "kt"
  }
}
