{
  "meta": {
    "timestamp": "2023-04-19T12:43:40.888520Z",
    "stations_updated": "2023-03-11"
  },
  "altimeter": {
    "repr": "A2999",
    "value": 29.99,
    "spoken": "two nine point nine nine"
  },
  "clouds": [
    {
      "repr": "BKN037",
      "type": "BKN",
      "altitude": 37,
      "modifier": null
    },
    {
      "repr": "OVC048",
      "type": "OVC",
      "altitude": 48,
      "modifier": null
    }
  ],
  "flight_rules": "VFR",
  "other": [],
  "visibility": {
    "repr": "10",
    "value": 10,
    "spoken": "one zero"
  },
  "wind_direction": {
    "repr": "000",
    "value": 0,
    "spoken": "zero zero zero"
  },
  "wind_gust": null,
  "wind_speed": {
    "repr": "00",
    "value": 0,
    "spoken": "zero"
  },
  "wx_codes": [],
  "raw": "KAWO 191156Z AUTO 00000KT 10SM BKN037 OVC048 04/02 A2999 RMK AO2 SLP161 T00440017 10056 20033 52008",
  "sanitized": "KAWO 191156Z 00000KT 10SM BKN037 OVC048 04/02 A2999 RMK AO2 SLP161 T00440017 10056 20033 52008",
  "station": "KAWO",
  "time": {
    "repr": "191156Z",
    "dt": "2023-04-19T11:56:00Z"
  },
  "remarks": "RMK AO2 SLP161 T00440017 10056 20033 52008",
  "dewpoint": {
    "repr": "02",
    "value": 2,
    "spoken": "two"
  },
  "relative_humidity": 0.8260348577577609,
  "remarks_info": {
    "maximum_temperature_6": {
      "repr": "10056",
      "value": 5.6,
      "spoken": "five point six"
    },
    "minimum_temperature_6": {
      "repr": "20033",
      "value": 3.3,
      "spoken": "three point three"
    },
    "pressure_tendency": {
      "repr": "52008",
      "tendency": "Increasing steadily or unsteadily",
      "change": 0.8
    },
    "precip_36_hours": null,
    "precip_24_hours": null,
    "sunshine_minutes": null,
    "codes": [
      {
        "repr": "AO2",
        "value": "Automated with precipitation sensor"
      }
    ],
    "dewpoint_decimal": {
      "repr": "0017",
      "value": 1.7,
      "spoken": "one point seven"
    },
    "maximum_temperature_24": null,
    "minimum_temperature_24": null,
    "precip_hourly": null,
    "sea_level_pressure": {
      "repr": "SLP161",
      "value": 1016.1,
      "spoken": "one zero one six point one"
    },
    "snow_depth": null,
    "temperature_decimal": {
      "repr": "0044",
      "value": 4.4,
      "spoken": "four point four"
    }
  },
  "runway_visibility": [],
  "temperature": {
    "repr": "04",
    "value": 4,
    "spoken": "four"
  },
  "wind_variable_direction": [],
  "density_altitude": -1166,
  "pressure_altitude": 72,
  "units": {
    "accumulation": "in",
    "altimeter": "inHg",
    "altitude": "ft",
    "temperature": "C",
    "visibility": "sm",
    "wind_speed": "kt"
  }
}
