{
  "altimeter": {
    "repr": "A3029",
    "spoken": "three zero point two nine",
    "value": 30.29
  },
  "clouds": [
    {
      "altitude": 6,
      "modifier": null,
      "repr": "BKN006",
      "type": "BKN"
    },
    {
      "altitude": 22,
      "modifier": null,
      "repr": "OVC022",
      "type": "OVC"
    }
  ],
  "density_altitude": -1274,
  "dewpoint": {
    "repr": "05",
    "spoken": "five",
    "value": 5
  },
  "flight_rules": "IFR",
  "meta": {
    "stations_updated": "2024-06-12",
    "timestamp": "2024-10-23T15:42:53.766404Z"
  },
  "other": [],
  "pressure_altitude": -228,
  "raw": "KAWO 231524Z AUTO 00000KT 10SM BKN006 OVC022 06/05 A3029 RMK AO2",
  "relative_humidity": 0.9329565396428716,
  "remarks": "RMK AO2",
  "remarks_info": {
    "codes": [
      {
        "repr": "AO2",
        "value": "Automated with precipitation sensor"
      }
    ],
    "dewpoint_decimal": null,
    "maximum_temperature_24": null,
    "maximum_temperature_6": null,
    "minimum_temperature_24": null,
    "minimum_temperature_6": null,
    "precip_24_hours": null,
    "precip_36_hours": null,
    "precip_hourly": null,
    "pressure_tendency": null,
    "sea_level_pressure": null,
    "snow_depth": null,
    "sunshine_minutes": null,
    "temperature_decimal": null
  },
  "runway_visibility": [],
  "sanitized": "KAWO 231524Z 00000KT 10SM BKN006 OVC022 06/05 A3029 RMK AO2",
  "station": "KAWO",
  "temperature": {
    "repr": "06",
    "spoken": "six",
    "value": 6
  },
  "time": {
    "dt": "2024-10-23T15:24:00Z",
    "repr": "231524Z"
  },
  "units": {
    "accumulation": "in",
    "altimeter": "inHg",
    "altitude": "ft",
    "temperature": "C",
    "visibility": "sm",
    "wind_speed": "kt"
  },
  "visibility": {
    "repr": "10",
    "spoken": "one zero",
    "value": 10
  },
  "wind_direction": {
    "repr": "000",
    "spoken": "zero zero zero",
    "value": 0
  },
  "wind_gust": null,
  "wind_speed": {
    "repr": "00",
    "spoken": "zero",
    "value": 0
  },
  "wind_variable_direction": [],
  "wx_codes": []
}
