{
  "altimeter": {
    "repr": "A2959",
    "spoken": "two nine point five nine",
    "value": 29.59
  },
  "clouds": [
    {
      "altitude": 22,
      "modifier": null,
      "repr": "SCT022",
      "type": "SCT"
    },
    {
      "altitude": 27,
      "modifier": null,
      "repr": "BKN027",
      "type": "BKN"
    },
    {
      "altitude": 48,
      "modifier": null,
      "repr": "OVC048",
      "type": "OVC"
    }
  ],
  "density_altitude": -94,
  "dewpoint": {
    "repr": "08",
    "spoken": "eight",
    "value": 8
  },
  "flight_rules": "MVFR",
  "meta": {
    "stations_updated": "2023-10-28",
    "timestamp": "2023-11-07T01:37:20.873772Z"
  },
  "other": [],
  "pressure_altitude": 472,
  "raw": "KAWO 070103Z AUTO 19003KT 10SM SCT022 BKN027 OVC048 10/08 A2959 RMK AO2",
  "relative_humidity": 0.8737387809028685,
  "remarks": "RMK AO2",
  "remarks_info": {
    "codes": [
      {
        "repr": "AO2",
        "value": "Automated with precipitation sensor"
      }
    ],
    "dewpoint_decimal": null,
    "maximum_temperature_24": null,
    "maximum_temperature_6": null,
    "minimum_temperature_24": null,
    "minimum_temperature_6": null,
    "precip_24_hours": null,
    "precip_36_hours": null,
    "precip_hourly": null,
    "pressure_tendency": null,
    "sea_level_pressure": null,
    "snow_depth": null,
    "sunshine_minutes": null,
    "temperature_decimal": null
  },
  "runway_visibility": [],
  "sanitized": "KAWO 070103Z 19003KT 10SM SCT022 BKN027 OVC048 10/08 A2959 RMK AO2",
  "station": "KAWO",
  "temperature": {
    "repr": "10",
    "spoken": "one zero",
    "value": 10
  },
  "time": {
    "dt": "2023-11-07T01:03:00Z",
    "repr": "070103Z"
  },
  "units": {
    "accumulation": "in",
    "altimeter": "inHg",
    "altitude": "ft",
    "temperature": "C",
    "visibility": "sm",
    "wind_speed": "kt"
  },
  "visibility": {
    "repr": "10",
    "spoken": "one zero",
    "value": 10
  },
  "wind_direction": {
    "repr": "190",
    "spoken": "one nine zero",
    "value": 190
  },
  "wind_gust": null,
  "wind_speed": {
    "repr": "03",
    "spoken": "three",
    "value": 3
  },
  "wind_variable_direction": [],
  "wx_codes": []
}
