{
  "altimeter": {
    "repr": "A3068",
    "spoken": "three zero point six eight",
    "value": 30.68
  },
  "clouds": [],
  "density_altitude": -2780,
  "dewpoint": {
    "repr": "M04",
    "spoken": "minus four",
    "value": -4
  },
  "flight_rules": "VFR",
  "meta": {
    "cache-timestamp": "2025-01-23T06:09:42.220000Z",
    "stations_updated": "2024-12-02",
    "timestamp": "2025-01-23T06:10:12.416473Z"
  },
  "other": [],
  "pressure_altitude": -618,
  "raw": "KAWO 230556Z AUTO 34004KT 10SM CLR M03/M04 A3068 RMK AO2 SLP398 T10331044 10039 21033 58002 FZRANO",
  "relative_humidity": 0.9208950648123322,
  "remarks": "RMK AO2 SLP398 T10331044 10039 21033 58002 FZRANO",
  "remarks_info": {
    "codes": [
      {
        "repr": "AO2",
        "value": "Automated with precipitation sensor"
      },
      {
        "repr": "FZRANO",
        "value": "Freezing rain information not available"
      }
    ],
    "dewpoint_decimal": {
      "repr": "1044",
      "spoken": "minus four point four",
      "value": -4.4
    },
    "maximum_temperature_24": null,
    "maximum_temperature_6": {
      "repr": "10039",
      "spoken": "three point nine",
      "value": 3.9
    },
    "minimum_temperature_24": null,
    "minimum_temperature_6": {
      "repr": "21033",
      "spoken": "minus three point three",
      "value": -3.3
    },
    "precip_24_hours": null,
    "precip_36_hours": null,
    "precip_hourly": null,
    "pressure_tendency": {
      "change": 0.2,
      "repr": "58002",
      "tendency": "Steady or increasing, then decreasing"
    },
    "sea_level_pressure": {
      "repr": "SLP398",
      "spoken": "one zero three nine point eight",
      "value": 1039.8
    },
    "snow_depth": null,
    "sunshine_minutes": null,
    "temperature_decimal": {
      "repr": "1033",
      "spoken": "minus three point three",
      "value": -3.3
    }
  },
  "runway_visibility": [],
  "sanitized": "KAWO 230556Z 34004KT 10SM M03/M04 A3068 RMK AO2 SLP398 T10331044 10039 21033 58002 FZRANO",
  "station": "KAWO",
  "temperature": {
    "repr": "M03",
    "spoken": "minus three",
    "value": -3
  },
  "time": {
    "dt": "2025-01-23T05:56:00Z",
    "repr": "230556Z"
  },
  "units": {
    "accumulation": "in",
    "altimeter": "inHg",
    "altitude": "ft",
    "temperature": "C",
    "visibility": "sm",
    "wind_speed": "kt"
  },
  "visibility": {
    "repr": "10",
    "spoken": "one zero",
    "value": 10
  },
  "wind_direction": {
    "repr": "340",
    "spoken": "three four zero",
    "value": 340
  },
  "wind_gust": null,
  "wind_speed": {
    "repr": "04",
    "spoken": "four",
    "value": 4
  },
  "wind_variable_direction": [],
  "wx_codes": []
}
