{
  "altimeter": {
    "repr": "A3010",
    "spoken": "three zero point one zero",
    "value": 30.1
  },
  "clouds": [
    {
      "altitude": 55,
      "modifier": null,
      "repr": "OVC055",
      "type": "OVC"
    }
  ],
  "density_altitude": -1132,
  "dewpoint": {
    "repr": "04",
    "spoken": "four",
    "value": 4
  },
  "flight_rules": "VFR",
  "meta": {
    "stations_updated": "2023-10-28",
    "timestamp": "2023-12-14T12:09:42.131495Z"
  },
  "other": [],
  "pressure_altitude": -38,
  "raw": "KAWO 141156Z AUTO 00000KT 10SM -RA OVC055 06/04 A3010 RMK AO2 SLP196 P0002 60002 70002 T00560044 10083 20050 51015",
  "relative_humidity": 0.9197884374087767,
  "remarks": "RMK AO2 SLP196 P0002 60002 70002 T00560044 10083 20050 51015",
  "remarks_info": {
    "codes": [
      {
        "repr": "AO2",
        "value": "Automated with precipitation sensor"
      }
    ],
    "dewpoint_decimal": {
      "repr": "0044",
      "spoken": "four point four",
      "value": 4.4
    },
    "maximum_temperature_24": null,
    "maximum_temperature_6": {
      "repr": "10083",
      "spoken": "eight point three",
      "value": 8.3
    },
    "minimum_temperature_24": null,
    "minimum_temperature_6": {
      "repr": "20050",
      "spoken": "five point zero",
      "value": 5
    },
    "precip_24_hours": {
      "repr": "70002",
      "spoken": "zero point zero two",
      "value": 0.02
    },
    "precip_36_hours": {
      "repr": "60002",
      "spoken": "zero point zero two",
      "value": 0.02
    },
    "precip_hourly": {
      "repr": "P0002",
      "spoken": "zero point zero two",
      "value": 0.02
    },
    "pressure_tendency": {
      "change": 1.5,
      "repr": "51015",
      "tendency": "Increasing, then steady"
    },
    "sea_level_pressure": {
      "repr": "SLP196",
      "spoken": "one zero one nine point six",
      "value": 1019.6
    },
    "snow_depth": null,
    "sunshine_minutes": null,
    "temperature_decimal": {
      "repr": "0056",
      "spoken": "five point six",
      "value": 5.6
    }
  },
  "runway_visibility": [],
  "sanitized": "KAWO 141156Z 00000KT 10SM -RA OVC055 06/04 A3010 RMK AO2 SLP196 P0002 60002 70002 T00560044 10083 20050 51015",
  "station": "KAWO",
  "temperature": {
    "repr": "06",
    "spoken": "six",
    "value": 6
  },
  "time": {
    "dt": "2023-12-14T11:56:00Z",
    "repr": "141156Z"
  },
  "units": {
    "accumulation": "in",
    "altimeter": "inHg",
    "altitude": "ft",
    "temperature": "C",
    "visibility": "sm",
    "wind_speed": "kt"
  },
  "visibility": {
    "repr": "10",
    "spoken": "one zero",
    "value": 10
  },
  "wind_direction": {
    "repr": "000",
    "spoken": "zero zero zero",
    "value": 0
  },
  "wind_gust": null,
  "wind_speed": {
    "repr": "00",
    "spoken": "zero",
    "value": 0
  },
  "wind_variable_direction": [],
  "wx_codes": [
    {
      "repr": "-RA",
      "value": "Light Rain"
    }
  ]
}
