{
  "meta": {
    "timestamp": "2023-04-07T06:07:24.051424Z",
    "stations_updated": "2023-03-11"
  },
  "altimeter": {
    "repr": "A2976",
    "value": 29.76,
    "spoken": "two nine point seven six"
  },
  "clouds": [],
  "flight_rules": "VFR",
  "other": [],
  "visibility": {
    "repr": "10",
    "value": 10,
    "spoken": "one zero"
  },
  "wind_direction": {
    "repr": "270",
    "value": 270,
    "spoken": "two seven zero"
  },
  "wind_gust": null,
  "wind_speed": {
    "repr": "04",
    "value": 4,
    "spoken": "four"
  },
  "wx_codes": [
    {
      "repr": "-RA",
      "value": "Light Rain"
    }
  ],
  "raw": "KAWO 070556Z AUTO 27004KT 10SM -RA CLR 09/08 A2976 RMK AO2 SLP080 P0000 60010 T00890083 10122 20089 58005",
  "sanitized": "KAWO 070556Z 27004KT 10SM -RA 09/08 A2976 RMK AO2 SLP080 P0000 60010 T00890083 10122 20089 58005",
  "station": "KAWO",
  "time": {
    "repr": "070556Z",
    "dt": "2023-04-07T05:56:00Z"
  },
  "remarks": "RMK AO2 SLP080 P0000 60010 T00890083 10122 20089 58005",
  "dewpoint": {
    "repr": "08",
    "value": 8,
    "spoken": "eight"
  },
  "relative_humidity": 0.9601937753627737,
  "remarks_info": {
    "maximum_temperature_6": {
      "repr": "10122",
      "value": 12.2,
      "spoken": "one two point two"
    },
    "minimum_temperature_6": {
      "repr": "20089",
      "value": 8.9,
      "spoken": "eight point nine"
    },
    "pressure_tendency": {
      "repr": "58005",
      "tendency": "Steady or increasing, then decreasing",
      "change": 0.5
    },
    "precip_36_hours": {
      "repr": "60010",
      "value": 0.1,
      "spoken": "zero point one"
    },
    "precip_24_hours": null,
    "sunshine_minutes": null,
    "codes": [
      {
        "repr": "AO2",
        "value": "Automated with precipitation sensor"
      },
      {
        "repr": "P0000",
        "value": "Trace amount of rain in the last hour"
      }
    ],
    "dewpoint_decimal": {
      "repr": "0083",
      "value": 8.3,
      "spoken": "eight point three"
    },
    "maximum_temperature_24": null,
    "minimum_temperature_24": null,
    "precip_hourly": null,
    "sea_level_pressure": {
      "repr": "SLP080",
      "value": 1008,
      "spoken": "one zero zero eight point zero"
    },
    "snow_depth": null,
    "temperature_decimal": {
      "repr": "0089",
      "value": 8.9,
      "spoken": "eight point nine"
    }
  },
  "runway_visibility": [],
  "temperature": {
    "repr": "09",
    "value": 9,
    "spoken": "nine"
  },
  "wind_variable_direction": [],
  "density_altitude": -396,
  "pressure_altitude": 302,
  "units": {
    "accumulation": "in",
    "altimeter": "inHg",
    "altitude": "ft",
    "temperature": "C",
    "visibility": "sm",
    "wind_speed": "kt"
  }
}
