{
  "meta": {
    "timestamp": "2023-10-28T19:03:02.736282Z",
    "stations_updated": "2023-10-01",
    "cache-timestamp": "2023-10-28T19:02:30.255000Z"
  },
  "altimeter": {
    "repr": "A3057",
    "value": 30.57,
    "spoken": "three zero point five seven"
  },
  "clouds": [],
  "flight_rules": "VFR",
  "other": [],
  "visibility": {
    "repr": "10",
    "value": 10,
    "spoken": "one zero"
  },
  "wind_direction": {
    "repr": "000",
    "value": 0,
    "spoken": "zero zero zero"
  },
  "wind_gust": null,
  "wind_speed": {
    "repr": "00",
    "value": 0,
    "spoken": "zero"
  },
  "wx_codes": [],
  "raw": "KAWO 281756Z AUTO 00000KT 10SM CLR 04/M02 A3057 RMK AO2 SLP357 T00441017 10044 21056 51006",
  "sanitized": "KAWO 281756Z 00000KT 10SM 04/M02 A3057 RMK AO2 SLP357 T00441017 10044 21056 51006",
  "station": "KAWO",
  "time": {
    "repr": "281756Z",
    "dt": "2023-10-28T17:56:00Z"
  },
  "remarks": "RMK AO2 SLP357 T00441017 10044 21056 51006",
  "dewpoint": {
    "repr": "M02",
    "value": -2,
    "spoken": "minus two"
  },
  "relative_humidity": 0.6454179216194228,
  "remarks_info": {
    "maximum_temperature_6": {
      "repr": "10044",
      "value": 4.4,
      "spoken": "four point four"
    },
    "minimum_temperature_6": {
      "repr": "21056",
      "value": -5.6,
      "spoken": "minus five point six"
    },
    "pressure_tendency": {
      "repr": "51006",
      "tendency": "Increasing, then steady",
      "change": 0.6
    },
    "precip_36_hours": null,
    "precip_24_hours": null,
    "sunshine_minutes": null,
    "codes": [
      {
        "repr": "AO2",
        "value": "Automated with precipitation sensor"
      }
    ],
    "dewpoint_decimal": {
      "repr": "1017",
      "value": -1.7,
      "spoken": "minus one point seven"
    },
    "maximum_temperature_24": null,
    "minimum_temperature_24": null,
    "precip_hourly": null,
    "sea_level_pressure": {
      "repr": "SLP357",
      "value": 1035.7,
      "spoken": "one zero three five point seven"
    },
    "snow_depth": null,
    "temperature_decimal": {
      "repr": "0044",
      "value": 4.4,
      "spoken": "four point four"
    }
  },
  "runway_visibility": [],
  "temperature": {
    "repr": "04",
    "value": 4,
    "spoken": "four"
  },
  "wind_variable_direction": [],
  "density_altitude": -1746,
  "pressure_altitude": -508,
  "units": {
    "accumulation": "in",
    "altimeter": "inHg",
    "altitude": "ft",
    "temperature": "C",
    "visibility": "sm",
    "wind_speed": "kt"
  }
}
