{
  "altimeter": {
    "repr": "A2986",
    "spoken": "two nine point eight six",
    "value": 29.86
  },
  "clouds": [
    {
      "altitude": 21,
      "modifier": null,
      "repr": "OVC021",
      "type": "OVC"
    }
  ],
  "density_altitude": -100,
  "dewpoint": {
    "repr": "09",
    "spoken": "nine",
    "value": 9
  },
  "flight_rules": "MVFR",
  "meta": {
    "cache-timestamp": "2023-11-05T12:38:37.366000Z",
    "stations_updated": "2023-10-28",
    "timestamp": "2023-11-05T12:38:45.493704Z"
  },
  "other": [],
  "pressure_altitude": 202,
  "raw": "KAWO 051156Z AUTO 14007KT 10SM OVC021 12/09 A2986 RMK AO2 SLP116 70007 T01220094 10133 20117 51007",
  "relative_humidity": 0.830024146445758,
  "remarks": "RMK AO2 SLP116 70007 T01220094 10133 20117 51007",
  "remarks_info": {
    "codes": [
      {
        "repr": "AO2",
        "value": "Automated with precipitation sensor"
      }
    ],
    "dewpoint_decimal": {
      "repr": "0094",
      "spoken": "nine point four",
      "value": 9.4
    },
    "maximum_temperature_24": null,
    "maximum_temperature_6": {
      "repr": "10133",
      "spoken": "one three point three",
      "value": 13.3
    },
    "minimum_temperature_24": null,
    "minimum_temperature_6": {
      "repr": "20117",
      "spoken": "one one point seven",
      "value": 11.7
    },
    "precip_24_hours": {
      "repr": "70007",
      "spoken": "zero point zero seven",
      "value": 0.07
    },
    "precip_36_hours": null,
    "precip_hourly": null,
    "pressure_tendency": {
      "change": 0.7,
      "repr": "51007",
      "tendency": "Increasing, then steady"
    },
    "sea_level_pressure": {
      "repr": "SLP116",
      "spoken": "one zero one one point six",
      "value": 1011.6
    },
    "snow_depth": null,
    "sunshine_minutes": null,
    "temperature_decimal": {
      "repr": "0122",
      "spoken": "one two point two",
      "value": 12.2
    }
  },
  "runway_visibility": [],
  "sanitized": "KAWO 051156Z 14007KT 10SM OVC021 12/09 A2986 RMK AO2 SLP116 70007 T01220094 10133 20117 51007",
  "station": "KAWO",
  "temperature": {
    "repr": "12",
    "spoken": "one two",
    "value": 12
  },
  "time": {
    "dt": "2023-11-05T11:56:00Z",
    "repr": "051156Z"
  },
  "units": {
    "accumulation": "in",
    "altimeter": "inHg",
    "altitude": "ft",
    "temperature": "C",
    "visibility": "sm",
    "wind_speed": "kt"
  },
  "visibility": {
    "repr": "10",
    "spoken": "one zero",
    "value": 10
  },
  "wind_direction": {
    "repr": "140",
    "spoken": "one four zero",
    "value": 140
  },
  "wind_gust": null,
  "wind_speed": {
    "repr": "07",
    "spoken": "seven",
    "value": 7
  },
  "wind_variable_direction": [],
  "wx_codes": []
}
