{
  "meta": {
    "timestamp": "2023-04-17T00:27:10.654590Z",
    "stations_updated": "2023-03-11"
  },
  "altimeter": {
    "repr": "A2990",
    "value": 29.9,
    "spoken": "two nine point nine zero"
  },
  "clouds": [],
  "flight_rules": "VFR",
  "other": [],
  "visibility": {
    "repr": "10",
    "value": 10,
    "spoken": "one zero"
  },
  "wind_direction": {
    "repr": "180",
    "value": 180,
    "spoken": "one eight zero"
  },
  "wind_gust": null,
  "wind_speed": {
    "repr": "15",
    "value": 15,
    "spoken": "one five"
  },
  "wx_codes": [],
  "raw": "KAWO 162356Z AUTO 18015KT 10SM 11/05 A2990 RMK AO2 SLP130 60016 T01110050 10111 20083 54000 $",
  "sanitized": "KAWO 162356Z 18015KT 10SM 11/05 A2990 RMK AO2 SLP130 60016 T01110050 10111 20083 54000 $",
  "station": "KAWO",
  "time": {
    "repr": "162356Z",
    "dt": "2023-04-16T23:56:00Z"
  },
  "remarks": "RMK AO2 SLP130 60016 T01110050 10111 20083 54000 $",
  "dewpoint": {
    "repr": "05",
    "value": 5,
    "spoken": "five"
  },
  "relative_humidity": 0.660445986443727,
  "remarks_info": {
    "maximum_temperature_6": {
      "repr": "10111",
      "value": 11.1,
      "spoken": "one one point one"
    },
    "minimum_temperature_6": {
      "repr": "20083",
      "value": 8.3,
      "spoken": "eight point three"
    },
    "pressure_tendency": {
      "repr": "54000",
      "tendency": "Steady",
      "change": 0
    },
    "precip_36_hours": {
      "repr": "60016",
      "value": 0.16,
      "spoken": "zero point one six"
    },
    "precip_24_hours": null,
    "sunshine_minutes": null,
    "codes": [
      {
        "repr": "$",
        "value": "ASOS requires maintenance"
      },
      {
        "repr": "AO2",
        "value": "Automated with precipitation sensor"
      }
    ],
    "dewpoint_decimal": {
      "repr": "0050",
      "value": 5,
      "spoken": "five point zero"
    },
    "maximum_temperature_24": null,
    "minimum_temperature_24": null,
    "precip_hourly": null,
    "sea_level_pressure": {
      "repr": "SLP130",
      "value": 1013,
      "spoken": "one zero one three point zero"
    },
    "snow_depth": null,
    "temperature_decimal": {
      "repr": "0111",
      "value": 11.1,
      "spoken": "one one point one"
    }
  },
  "runway_visibility": [],
  "temperature": {
    "repr": "11",
    "value": 11,
    "spoken": "one one"
  },
  "wind_variable_direction": [],
  "density_altitude": -272,
  "pressure_altitude": 162,
  "units": {
    "accumulation": "in",
    "altimeter": "inHg",
    "altitude": "ft",
    "temperature": "C",
    "visibility": "sm",
    "wind_speed": "kt"
  }
}
