{
  "altimeter": {
    "repr": "A2999",
    "spoken": "two nine point nine nine",
    "value": 29.99
  },
  "clouds": [],
  "density_altitude": 34,
  "dewpoint": {
    "repr": "13",
    "spoken": "one three",
    "value": 13
  },
  "flight_rules": "VFR",
  "meta": {
    "stations_updated": "2024-05-13",
    "timestamp": "2024-06-27T01:44:07.678485Z"
  },
  "other": [],
  "pressure_altitude": 72,
  "raw": "KAWO 270056Z AUTO 32004KT 7SM -RA 14/13 A2999 RMK AO2 SLP161 P0007 T01440133",
  "relative_humidity": 0.9310306339626941,
  "remarks": "RMK AO2 SLP161 P0007 T01440133",
  "remarks_info": {
    "codes": [
      {
        "repr": "AO2",
        "value": "Automated with precipitation sensor"
      }
    ],
    "dewpoint_decimal": {
      "repr": "0133",
      "spoken": "one three point three",
      "value": 13.3
    },
    "maximum_temperature_24": null,
    "maximum_temperature_6": null,
    "minimum_temperature_24": null,
    "minimum_temperature_6": null,
    "precip_24_hours": null,
    "precip_36_hours": null,
    "precip_hourly": {
      "repr": "P0007",
      "spoken": "zero point zero seven",
      "value": 0.07
    },
    "pressure_tendency": null,
    "sea_level_pressure": {
      "repr": "SLP161",
      "spoken": "one zero one six point one",
      "value": 1016.1
    },
    "snow_depth": null,
    "sunshine_minutes": null,
    "temperature_decimal": {
      "repr": "0144",
      "spoken": "one four point four",
      "value": 14.4
    }
  },
  "runway_visibility": [],
  "sanitized": "KAWO 270056Z 32004KT 7SM -RA 14/13 A2999 RMK AO2 SLP161 P0007 T01440133",
  "station": "KAWO",
  "temperature": {
    "repr": "14",
    "spoken": "one four",
    "value": 14
  },
  "time": {
    "dt": "2024-06-27T00:56:00Z",
    "repr": "270056Z"
  },
  "units": {
    "accumulation": "in",
    "altimeter": "inHg",
    "altitude": "ft",
    "temperature": "C",
    "visibility": "sm",
    "wind_speed": "kt"
  },
  "visibility": {
    "repr": "7",
    "spoken": "seven",
    "value": 7
  },
  "wind_direction": {
    "repr": "320",
    "spoken": "three two zero",
    "value": 320
  },
  "wind_gust": null,
  "wind_speed": {
    "repr": "04",
    "spoken": "four",
    "value": 4
  },
  "wind_variable_direction": [],
  "wx_codes": [
    {
      "repr": "-RA",
      "value": "Light Rain"
    }
  ]
}
