{
  "meta": {
    "timestamp": "2023-03-05T12:45:14.997332Z",
    "stations_updated": "2023-01-30",
    "cache-timestamp": "2023-03-05T12:44:34.224000Z"
  },
  "altimeter": {
    "repr": "A2968",
    "value": 29.68,
    "spoken": "two nine point six eight"
  },
  "clouds": [],
  "flight_rules": "VFR",
  "other": [],
  "visibility": {
    "repr": "10",
    "value": 10,
    "spoken": "one zero"
  },
  "wind_direction": {
    "repr": "010",
    "value": 10,
    "spoken": "zero one zero"
  },
  "wind_gust": null,
  "wind_speed": {
    "repr": "03",
    "value": 3,
    "spoken": "three"
  },
  "wx_codes": [],
  "raw": "KAWO 051156Z AUTO 01003KT 10SM CLR M03/M03 A2968 RMK AO2 SLP055 70010 T10281033 10044 21033 51002 FZRANO",
  "sanitized": "KAWO 051156Z 01003KT 10SM M03/M03 A2968 RMK AO2 SLP055 70010 T10281033 10044 21033 51002 FZRANO",
  "station": "KAWO",
  "time": {
    "repr": "051156Z",
    "dt": "2023-03-05T11:56:00Z"
  },
  "remarks": "RMK AO2 SLP055 70010 T10281033 10044 21033 51002 FZRANO",
  "dewpoint": {
    "repr": "M03",
    "value": -3,
    "spoken": "minus three"
  },
  "relative_humidity": 0.9634740523958434,
  "remarks_info": {
    "maximum_temperature_6": {
      "repr": "10044",
      "value": 4.4,
      "spoken": "four point four"
    },
    "minimum_temperature_6": {
      "repr": "21033",
      "value": -3.3,
      "spoken": "minus three point three"
    },
    "pressure_tendency": {
      "repr": "51002",
      "tendency": "Increasing, then steady",
      "change": 0.2
    },
    "precip_36_hours": null,
    "precip_24_hours": {
      "repr": "70010",
      "value": 0.1,
      "spoken": "zero point one"
    },
    "sunshine_minutes": null,
    "codes": [
      {
        "repr": "AO2",
        "value": "Automated with precipitation sensor"
      },
      {
        "repr": "FZRANO",
        "value": "Freezing rain information not available"
      }
    ],
    "dewpoint_decimal": {
      "repr": "1033",
      "value": -3.3,
      "spoken": "minus three point three"
    },
    "maximum_temperature_24": null,
    "minimum_temperature_24": null,
    "precip_hourly": null,
    "sea_level_pressure": {
      "repr": "SLP055",
      "value": 1005.5,
      "spoken": "one zero zero five point five"
    },
    "snow_depth": null,
    "temperature_decimal": {
      "repr": "1028",
      "value": -2.8,
      "spoken": "minus two point eight"
    }
  },
  "runway_visibility": [],
  "temperature": {
    "repr": "M03",
    "value": -3,
    "spoken": "minus three"
  },
  "wind_variable_direction": [],
  "density_altitude": -1720,
  "pressure_altitude": 382,
  "units": {
    "accumulation": "in",
    "altimeter": "inHg",
    "altitude": "ft",
    "temperature": "C",
    "visibility": "sm",
    "wind_speed": "kt"
  }
}
