{
  "meta": {
    "timestamp": "2022-11-04T12:12:16.571606Z",
    "stations_updated": "2022-09-05"
  },
  "altimeter": {
    "repr": "A2975",
    "value": 29.75,
    "spoken": "two nine point seven five"
  },
  "clouds": [
    {
      "repr": "OVC015",
      "type": "OVC",
      "altitude": 15,
      "modifier": null
    }
  ],
  "flight_rules": "MVFR",
  "other": [],
  "visibility": {
    "repr": "10",
    "value": 10,
    "spoken": "one zero"
  },
  "wind_direction": {
    "repr": "120",
    "value": 120,
    "spoken": "one two zero"
  },
  "wind_gust": null,
  "wind_speed": {
    "repr": "08",
    "value": 8,
    "spoken": "eight"
  },
  "wx_codes": [
    {
      "repr": "RA",
      "value": "Rain"
    }
  ],
  "raw": "KAWO 041156Z AUTO 12008KT 10SM RA OVC015 08/07 A2975 RMK AO2 SLP078 P0010 60064 70119 T00780067 10078 20061 58034",
  "sanitized": "KAWO 041156Z 12008KT 10SM RA OVC015 08/07 A2975 RMK AO2 SLP078 P0010 60064 70119 T00780067 10078 20061 58034",
  "station": "KAWO",
  "time": {
    "repr": "041156Z",
    "dt": "2022-11-04T11:56:00Z"
  },
  "remarks": "RMK AO2 SLP078 P0010 60064 70119 T00780067 10078 20061 58034",
  "dewpoint": {
    "repr": "07",
    "value": 7,
    "spoken": "seven"
  },
  "relative_humidity": 0.9274887710023534,
  "remarks_info": {
    "maximum_temperature_6": {
      "repr": "10078",
      "value": 7.8,
      "spoken": "seven point eight"
    },
    "minimum_temperature_6": {
      "repr": "20061",
      "value": 6.1,
      "spoken": "six point one"
    },
    "pressure_tendency": {
      "repr": "58034",
      "tendency": "Steady or increasing, then decreasing",
      "change": 3.4
    },
    "precip_36_hours": {
      "repr": "60064",
      "value": 0.64,
      "spoken": "zero point six four"
    },
    "precip_24_hours": {
      "repr": "70119",
      "value": 1.19,
      "spoken": "one point one nine"
    },
    "sunshine_minutes": null,
    "codes": [
      {
        "repr": "AO2",
        "value": "Automated with precipitation sensor"
      }
    ],
    "dewpoint_decimal": {
      "repr": "0067",
      "value": 6.7,
      "spoken": "six point seven"
    },
    "maximum_temperature_24": null,
    "minimum_temperature_24": null,
    "precip_hourly": {
      "repr": "P0010",
      "value": 0.1,
      "spoken": "zero point one"
    },
    "sea_level_pressure": {
      "repr": "SLP078",
      "value": 1007.8,
      "spoken": "one zero zero seven point eight"
    },
    "snow_depth": null,
    "temperature_decimal": {
      "repr": "0078",
      "value": 7.8,
      "spoken": "seven point eight"
    }
  },
  "runway_visibility": [],
  "temperature": {
    "repr": "08",
    "value": 8,
    "spoken": "eight"
  },
  "wind_variable_direction": [],
  "density_altitude": -518,
  "pressure_altitude": 312,
  "units": {
    "accumulation": "in",
    "altimeter": "inHg",
    "altitude": "ft",
    "temperature": "C",
    "visibility": "sm",
    "wind_speed": "kt"
  }
}
