{
  "meta": {
    "timestamp": "2022-12-22T15:02:09.930100Z",
    "stations_updated": "2022-09-05"
  },
  "altimeter": {
    "repr": "A3052",
    "value": 30.52,
    "spoken": "three zero point five two"
  },
  "clouds": [],
  "flight_rules": "VFR",
  "other": [],
  "visibility": {
    "repr": "10",
    "value": 10,
    "spoken": "one zero"
  },
  "wind_direction": {
    "repr": "000",
    "value": 0,
    "spoken": "zero zero zero"
  },
  "wind_gust": null,
  "wind_speed": {
    "repr": "00",
    "value": 0,
    "spoken": "zero"
  },
  "wx_codes": [],
  "raw": "KAWO 221456Z AUTO 00000KT 10SM CLR M17/M18 A3052 RMK AO2 SLP343 T11671183 58017 FZRANO",
  "sanitized": "KAWO 221456Z 00000KT 10SM M17/M18 A3052 RMK AO2 SLP343 T11671183 58017 FZRANO",
  "station": "KAWO",
  "time": {
    "repr": "221456Z",
    "dt": "2022-12-22T14:56:00Z"
  },
  "remarks": "RMK AO2 SLP343 T11671183 58017 FZRANO",
  "dewpoint": {
    "repr": "M18",
    "value": -18,
    "spoken": "minus one eight"
  },
  "relative_humidity": 0.8739031032040625,
  "remarks_info": {
    "maximum_temperature_6": null,
    "minimum_temperature_6": null,
    "pressure_tendency": {
      "repr": "58017",
      "tendency": "Steady or increasing, then decreasing",
      "change": 1.7
    },
    "precip_36_hours": null,
    "precip_24_hours": null,
    "sunshine_minutes": null,
    "codes": [
      {
        "repr": "AO2",
        "value": "Automated with precipitation sensor"
      },
      {
        "repr": "FZRANO",
        "value": "Freezing rain information not available"
      }
    ],
    "dewpoint_decimal": {
      "repr": "1183",
      "value": -18.3,
      "spoken": "minus one eight point three"
    },
    "maximum_temperature_24": null,
    "minimum_temperature_24": null,
    "precip_hourly": null,
    "sea_level_pressure": {
      "repr": "SLP343",
      "value": 1034.3,
      "spoken": "one zero three four point three"
    },
    "snow_depth": null,
    "temperature_decimal": {
      "repr": "1167",
      "value": -16.7,
      "spoken": "minus one six point seven"
    }
  },
  "runway_visibility": [],
  "temperature": {
    "repr": "M17",
    "value": -17,
    "spoken": "minus one seven"
  },
  "wind_variable_direction": [],
  "density_altitude": -4228,
  "pressure_altitude": -458,
  "units": {
    "accumulation": "in",
    "altimeter": "inHg",
    "altitude": "ft",
    "temperature": "C",
    "visibility": "sm",
    "wind_speed": "kt"
  }
}
