{
  "meta": {
    "timestamp": "2023-09-23T00:23:50.277586Z",
    "stations_updated": "2023-08-05"
  },
  "altimeter": {
    "repr": "A2990",
    "value": 29.9,
    "spoken": "two nine point nine zero"
  },
  "clouds": [],
  "flight_rules": "VFR",
  "other": [],
  "visibility": {
    "repr": "10",
    "value": 10,
    "spoken": "one zero"
  },
  "wind_direction": {
    "repr": "170",
    "value": 170,
    "spoken": "one seven zero"
  },
  "wind_gust": null,
  "wind_speed": {
    "repr": "05",
    "value": 5,
    "spoken": "five"
  },
  "wx_codes": [],
  "raw": "KAWO 222356Z AUTO 17005KT 10SM CLR 24/08 A2990 RMK AO2 SLP130 T02390083 10244 20172 56019",
  "sanitized": "KAWO 222356Z 17005KT 10SM 24/08 A2990 RMK AO2 SLP130 T02390083 10244 20172 56019",
  "station": "KAWO",
  "time": {
    "repr": "222356Z",
    "dt": "2023-09-22T23:56:00Z"
  },
  "remarks": "RMK AO2 SLP130 T02390083 10244 20172 56019",
  "dewpoint": {
    "repr": "08",
    "value": 8,
    "spoken": "eight"
  },
  "relative_humidity": 0.3690289312850469,
  "remarks_info": {
    "maximum_temperature_6": {
      "repr": "10244",
      "value": 24.4,
      "spoken": "two four point four"
    },
    "minimum_temperature_6": {
      "repr": "20172",
      "value": 17.2,
      "spoken": "one seven point two"
    },
    "pressure_tendency": {
      "repr": "56019",
      "tendency": "Decreasing, then steady",
      "change": 1.9
    },
    "precip_36_hours": null,
    "precip_24_hours": null,
    "sunshine_minutes": null,
    "codes": [
      {
        "repr": "AO2",
        "value": "Automated with precipitation sensor"
      }
    ],
    "dewpoint_decimal": {
      "repr": "0083",
      "value": 8.3,
      "spoken": "eight point three"
    },
    "maximum_temperature_24": null,
    "minimum_temperature_24": null,
    "precip_hourly": null,
    "sea_level_pressure": {
      "repr": "SLP130",
      "value": 1013,
      "spoken": "one zero one three point zero"
    },
    "snow_depth": null,
    "temperature_decimal": {
      "repr": "0239",
      "value": 23.9,
      "spoken": "two three point nine"
    }
  },
  "runway_visibility": [],
  "temperature": {
    "repr": "24",
    "value": 24,
    "spoken": "two four"
  },
  "wind_variable_direction": [],
  "density_altitude": 1264,
  "pressure_altitude": 162,
  "units": {
    "accumulation": "in",
    "altimeter": "inHg",
    "altitude": "ft",
    "temperature": "C",
    "visibility": "sm",
    "wind_speed": "kt"
  }
}
