{
  "meta": {
    "timestamp": "2023-07-26T00:29:58.229964Z",
    "stations_updated": "2023-06-06"
  },
  "altimeter": {
    "repr": "A3019",
    "value": 30.19,
    "spoken": "three zero point one nine"
  },
  "clouds": [
    {
      "repr": "SCT046",
      "type": "SCT",
      "altitude": 46,
      "modifier": null
    },
    {
      "repr": "BKN085",
      "type": "BKN",
      "altitude": 85,
      "modifier": null
    }
  ],
  "flight_rules": "VFR",
  "other": [],
  "visibility": {
    "repr": "10",
    "value": 10,
    "spoken": "one zero"
  },
  "wind_direction": {
    "repr": "310",
    "value": 310,
    "spoken": "three one zero"
  },
  "wind_gust": null,
  "wind_speed": {
    "repr": "09",
    "value": 9,
    "spoken": "nine"
  },
  "wx_codes": [],
  "raw": "KAWO 252356Z AUTO 31009KT 10SM SCT046 BKN085 21/12 A3019 RMK AO2 SLP227 T02060122 10233 20172 55001",
  "sanitized": "KAWO 252356Z 31009KT 10SM SCT046 BKN085 21/12 A3019 RMK AO2 SLP227 T02060122 10233 20172 55001",
  "station": "KAWO",
  "time": {
    "repr": "252356Z",
    "dt": "2023-07-25T23:56:00Z"
  },
  "remarks": "RMK AO2 SLP227 T02060122 10233 20172 55001",
  "dewpoint": {
    "repr": "12",
    "value": 12,
    "spoken": "one two"
  },
  "relative_humidity": 0.5855524803615992,
  "remarks_info": {
    "maximum_temperature_6": {
      "repr": "10233",
      "value": 23.3,
      "spoken": "two three point three"
    },
    "minimum_temperature_6": {
      "repr": "20172",
      "value": 17.2,
      "spoken": "one seven point two"
    },
    "pressure_tendency": {
      "repr": "55001",
      "tendency": "Decreasing, then increasing",
      "change": 0.1
    },
    "precip_36_hours": null,
    "precip_24_hours": null,
    "sunshine_minutes": null,
    "codes": [
      {
        "repr": "AO2",
        "value": "Automated with precipitation sensor"
      }
    ],
    "dewpoint_decimal": {
      "repr": "0122",
      "value": 12.2,
      "spoken": "one two point two"
    },
    "maximum_temperature_24": null,
    "minimum_temperature_24": null,
    "precip_hourly": null,
    "sea_level_pressure": {
      "repr": "SLP227",
      "value": 1022.7,
      "spoken": "one zero two two point seven"
    },
    "snow_depth": null,
    "temperature_decimal": {
      "repr": "0206",
      "value": 20.6,
      "spoken": "two zero point six"
    }
  },
  "runway_visibility": [],
  "temperature": {
    "repr": "21",
    "value": 21,
    "spoken": "two one"
  },
  "wind_variable_direction": [],
  "density_altitude": 578,
  "pressure_altitude": -128,
  "units": {
    "accumulation": "in",
    "altimeter": "inHg",
    "altitude": "ft",
    "temperature": "C",
    "visibility": "sm",
    "wind_speed": "kt"
  }
}
