{
  "meta": {
    "timestamp": "2023-08-15T08:26:08.059081Z",
    "stations_updated": "2023-08-05",
    "cache-timestamp": "2023-08-15T08:26:04.327000Z"
  },
  "altimeter": {
    "repr": "A2997",
    "value": 29.97,
    "spoken": "two nine point nine seven"
  },
  "clouds": [],
  "flight_rules": "VFR",
  "other": [],
  "visibility": {
    "repr": "7",
    "value": 7,
    "spoken": "seven"
  },
  "wind_direction": {
    "repr": "010",
    "value": 10,
    "spoken": "zero one zero"
  },
  "wind_gust": null,
  "wind_speed": {
    "repr": "04",
    "value": 4,
    "spoken": "four"
  },
  "wx_codes": [],
  "raw": "KAWO 150756Z AUTO 01004KT 7SM CLR 18/14 A2997 RMK AO2 SLP150 T01830144 403280161",
  "sanitized": "KAWO 150756Z 01004KT 7SM 18/14 A2997 RMK AO2 SLP150 T01830144 403280161",
  "station": "KAWO",
  "time": {
    "repr": "150756Z",
    "dt": "2023-08-15T07:56:00Z"
  },
  "remarks": "RMK AO2 SLP150 T01830144 403280161",
  "dewpoint": {
    "repr": "14",
    "value": 14,
    "spoken": "one four"
  },
  "relative_humidity": 0.7799463201968359,
  "remarks_info": {
    "maximum_temperature_6": null,
    "minimum_temperature_6": null,
    "pressure_tendency": null,
    "precip_36_hours": null,
    "precip_24_hours": null,
    "sunshine_minutes": null,
    "codes": [
      {
        "repr": "AO2",
        "value": "Automated with precipitation sensor"
      }
    ],
    "dewpoint_decimal": {
      "repr": "0144",
      "value": 14.4,
      "spoken": "one four point four"
    },
    "maximum_temperature_24": {
      "repr": "0328",
      "value": 32.8,
      "spoken": "three two point eight"
    },
    "minimum_temperature_24": {
      "repr": "0161",
      "value": 16.1,
      "spoken": "one six point one"
    },
    "precip_hourly": null,
    "sea_level_pressure": {
      "repr": "SLP150",
      "value": 1015,
      "spoken": "one zero one five point zero"
    },
    "snow_depth": null,
    "temperature_decimal": {
      "repr": "0183",
      "value": 18.3,
      "spoken": "one eight point three"
    }
  },
  "runway_visibility": [],
  "temperature": {
    "repr": "18",
    "value": 18,
    "spoken": "one eight"
  },
  "wind_variable_direction": [],
  "density_altitude": 522,
  "pressure_altitude": 92,
  "units": {
    "accumulation": "in",
    "altimeter": "inHg",
    "altitude": "ft",
    "temperature": "C",
    "visibility": "sm",
    "wind_speed": "kt"
  }
}
