{
  "meta": {
    "timestamp": "2022-12-19T23:01:55.926134Z",
    "stations_updated": "2022-09-05"
  },
  "altimeter": {
    "repr": "A3030",
    "value": 30.3,
    "spoken": "three zero point three zero"
  },
  "clouds": [
    {
      "repr": "SCT034",
      "type": "SCT",
      "altitude": 34,
      "modifier": null
    },
    {
      "repr": "OVC055",
      "type": "OVC",
      "altitude": 55,
      "modifier": null
    }
  ],
  "flight_rules": "VFR",
  "other": [],
  "visibility": {
    "repr": "9",
    "value": 9,
    "spoken": "nine"
  },
  "wind_direction": {
    "repr": "330",
    "value": 330,
    "spoken": "three three zero"
  },
  "wind_gust": null,
  "wind_speed": {
    "repr": "05",
    "value": 5,
    "spoken": "five"
  },
  "wx_codes": [
    {
      "repr": "-SN",
      "value": "Light Snow"
    }
  ],
  "raw": "KAWO 192256Z AUTO 33005KT 9SM -SN SCT034 OVC055 M02/M03 A3030 RMK AO2 UPB18E35SNE11B35 SLP265 P0000 T10171033 FZRANO",
  "sanitized": "KAWO 192256Z 33005KT 9SM -SN SCT034 OVC055 M02/M03 A3030 RMK AO2 UPB18E35SNE11B35 SLP265 P0000 T10171033 FZRANO",
  "station": "KAWO",
  "time": {
    "repr": "192256Z",
    "dt": "2022-12-19T22:56:00Z"
  },
  "remarks": "RMK AO2 UPB18E35SNE11B35 SLP265 P0000 T10171033 FZRANO",
  "dewpoint": {
    "repr": "M03",
    "value": -3,
    "spoken": "minus three"
  },
  "relative_humidity": 0.8882256742551983,
  "remarks_info": {
    "maximum_temperature_6": null,
    "minimum_temperature_6": null,
    "pressure_tendency": null,
    "precip_36_hours": null,
    "precip_24_hours": null,
    "sunshine_minutes": null,
    "codes": [
      {
        "repr": "AO2",
        "value": "Automated with precipitation sensor"
      },
      {
        "repr": "FZRANO",
        "value": "Freezing rain information not available"
      },
      {
        "repr": "P0000",
        "value": "Trace amount of rain in the last hour"
      }
    ],
    "dewpoint_decimal": {
      "repr": "1033",
      "value": -3.3,
      "spoken": "minus three point three"
    },
    "maximum_temperature_24": null,
    "minimum_temperature_24": null,
    "precip_hourly": null,
    "sea_level_pressure": {
      "repr": "SLP265",
      "value": 1026.5,
      "spoken": "one zero two six point five"
    },
    "snow_depth": null,
    "temperature_decimal": {
      "repr": "1017",
      "value": -1.7,
      "spoken": "minus one point seven"
    }
  },
  "runway_visibility": [],
  "temperature": {
    "repr": "M02",
    "value": -2,
    "spoken": "minus two"
  },
  "wind_variable_direction": [],
  "density_altitude": -2208,
  "pressure_altitude": -238,
  "units": {
    "accumulation": "in",
    "altimeter": "inHg",
    "altitude": "ft",
    "temperature": "C",
    "visibility": "sm",
    "wind_speed": "kt"
  }
}
