{
  "altimeter": {
    "repr": "A3028",
    "spoken": "three zero point two eight",
    "value": 30.28
  },
  "clouds": [
    {
      "altitude": 46,
      "modifier": null,
      "repr": "SCT046",
      "type": "SCT"
    }
  ],
  "density_altitude": -2056,
  "dewpoint": {
    "repr": "M01",
    "spoken": "minus one",
    "value": -1
  },
  "flight_rules": "VFR",
  "meta": {
    "stations_updated": "2024-10-29",
    "timestamp": "2024-11-30T16:33:55.259722Z"
  },
  "other": [],
  "pressure_altitude": -218,
  "raw": "KAWO 301556Z AUTO 17004KT 9SM SCT046 M01/M01 A3028 RMK AO2 SLP259 T10061011 FZRANO",
  "relative_humidity": 0.9641214064863484,
  "remarks": "RMK AO2 SLP259 T10061011 FZRANO",
  "remarks_info": {
    "codes": [
      {
        "repr": "AO2",
        "value": "Automated with precipitation sensor"
      },
      {
        "repr": "FZRANO",
        "value": "Freezing rain information not available"
      }
    ],
    "dewpoint_decimal": {
      "repr": "1011",
      "spoken": "minus one point one",
      "value": -1.1
    },
    "maximum_temperature_24": null,
    "maximum_temperature_6": null,
    "minimum_temperature_24": null,
    "minimum_temperature_6": null,
    "precip_24_hours": null,
    "precip_36_hours": null,
    "precip_hourly": null,
    "pressure_tendency": null,
    "sea_level_pressure": {
      "repr": "SLP259",
      "spoken": "one zero two five point nine",
      "value": 1025.9
    },
    "snow_depth": null,
    "sunshine_minutes": null,
    "temperature_decimal": {
      "repr": "1006",
      "spoken": "minus zero point six",
      "value": -0.6
    }
  },
  "runway_visibility": [],
  "sanitized": "KAWO 301556Z 17004KT 9SM SCT046 M01/M01 A3028 RMK AO2 SLP259 T10061011 FZRANO",
  "station": "KAWO",
  "temperature": {
    "repr": "M01",
    "spoken": "minus one",
    "value": -1
  },
  "time": {
    "dt": "2024-11-30T15:56:00Z",
    "repr": "301556Z"
  },
  "units": {
    "accumulation": "in",
    "altimeter": "inHg",
    "altitude": "ft",
    "temperature": "C",
    "visibility": "sm",
    "wind_speed": "kt"
  },
  "visibility": {
    "repr": "9",
    "spoken": "nine",
    "value": 9
  },
  "wind_direction": {
    "repr": "170",
    "spoken": "one seven zero",
    "value": 170
  },
  "wind_gust": null,
  "wind_speed": {
    "repr": "04",
    "spoken": "four",
    "value": 4
  },
  "wind_variable_direction": [],
  "wx_codes": []
}
