{
  "meta": {
    "timestamp": "2023-01-16T03:27:14.777361Z",
    "stations_updated": "2022-12-27"
  },
  "altimeter": {
    "repr": "A2944",
    "value": 29.44,
    "spoken": "two nine point four four"
  },
  "clouds": [
    {
      "repr": "OVC034",
      "type": "OVC",
      "altitude": 34,
      "modifier": null
    }
  ],
  "flight_rules": "VFR",
  "other": [],
  "visibility": {
    "repr": "10",
    "value": 10,
    "spoken": "one zero"
  },
  "wind_direction": {
    "repr": "120",
    "value": 120,
    "spoken": "one two zero"
  },
  "wind_gust": null,
  "wind_speed": {
    "repr": "11",
    "value": 11,
    "spoken": "one one"
  },
  "wx_codes": [
    {
      "repr": "-RA",
      "value": "Light Rain"
    }
  ],
  "raw": "KAWO 160256Z AUTO 12011KT 10SM -RA OVC034 08/06 A2944 RMK AO2 SLP975 P0007 60015 T00780061 51017",
  "sanitized": "KAWO 160256Z 12011KT 10SM -RA OVC034 08/06 A2944 RMK AO2 SLP975 P0007 60015 T00780061 51017",
  "station": "KAWO",
  "time": {
    "repr": "160256Z",
    "dt": "2023-01-16T02:56:00Z"
  },
  "remarks": "RMK AO2 SLP975 P0007 60015 T00780061 51017",
  "dewpoint": {
    "repr": "06",
    "value": 6,
    "spoken": "six"
  },
  "relative_humidity": 0.8899294340036578,
  "remarks_info": {
    "maximum_temperature_6": null,
    "minimum_temperature_6": null,
    "pressure_tendency": {
      "repr": "51017",
      "tendency": "Increasing, then steady",
      "change": 1.7
    },
    "precip_36_hours": {
      "repr": "60015",
      "value": 0.15,
      "spoken": "zero point one five"
    },
    "precip_24_hours": null,
    "sunshine_minutes": null,
    "codes": [
      {
        "repr": "AO2",
        "value": "Automated with precipitation sensor"
      }
    ],
    "dewpoint_decimal": {
      "repr": "0061",
      "value": 6.1,
      "spoken": "six point one"
    },
    "maximum_temperature_24": null,
    "minimum_temperature_24": null,
    "precip_hourly": {
      "repr": "P0007",
      "value": 0.07,
      "spoken": "zero point zero seven"
    },
    "sea_level_pressure": {
      "repr": "SLP975",
      "value": 997.5,
      "spoken": "nine nine seven point five"
    },
    "snow_depth": null,
    "temperature_decimal": {
      "repr": "0078",
      "value": 7.8,
      "spoken": "seven point eight"
    }
  },
  "runway_visibility": [],
  "temperature": {
    "repr": "08",
    "value": 8,
    "spoken": "eight"
  },
  "wind_variable_direction": [],
  "density_altitude": -208,
  "pressure_altitude": 622,
  "units": {
    "accumulation": "in",
    "altimeter": "inHg",
    "altitude": "ft",
    "temperature": "C",
    "visibility": "sm",
    "wind_speed": "kt"
  }
}
