{
  "altimeter": {
    "repr": "A2997",
    "spoken": "two nine point nine seven",
    "value": 29.97
  },
  "clouds": [],
  "density_altitude": 990,
  "dewpoint": {
    "repr": "08",
    "spoken": "eight",
    "value": 8
  },
  "flight_rules": "VFR",
  "meta": {
    "stations_updated": "2024-01-01",
    "timestamp": "2024-05-12T22:01:34.902663Z"
  },
  "other": [],
  "pressure_altitude": 92,
  "raw": "KAWO 122156Z AUTO 33008KT 10SM CLR 22/08 A2997 RMK AO2 SLP151 T02220083",
  "relative_humidity": 0.4090454445229435,
  "remarks": "RMK AO2 SLP151 T02220083",
  "remarks_info": {
    "codes": [
      {
        "repr": "AO2",
        "value": "Automated with precipitation sensor"
      }
    ],
    "dewpoint_decimal": {
      "repr": "0083",
      "spoken": "eight point three",
      "value": 8.3
    },
    "maximum_temperature_24": null,
    "maximum_temperature_6": null,
    "minimum_temperature_24": null,
    "minimum_temperature_6": null,
    "precip_24_hours": null,
    "precip_36_hours": null,
    "precip_hourly": null,
    "pressure_tendency": null,
    "sea_level_pressure": {
      "repr": "SLP151",
      "spoken": "one zero one five point one",
      "value": 1015.1
    },
    "snow_depth": null,
    "sunshine_minutes": null,
    "temperature_decimal": {
      "repr": "0222",
      "spoken": "two two point two",
      "value": 22.2
    }
  },
  "runway_visibility": [],
  "sanitized": "KAWO 122156Z 33008KT 10SM 22/08 A2997 RMK AO2 SLP151 T02220083",
  "station": "KAWO",
  "temperature": {
    "repr": "22",
    "spoken": "two two",
    "value": 22
  },
  "time": {
    "dt": "2024-05-12T21:56:00Z",
    "repr": "122156Z"
  },
  "units": {
    "accumulation": "in",
    "altimeter": "inHg",
    "altitude": "ft",
    "temperature": "C",
    "visibility": "sm",
    "wind_speed": "kt"
  },
  "visibility": {
    "repr": "10",
    "spoken": "one zero",
    "value": 10
  },
  "wind_direction": {
    "repr": "330",
    "spoken": "three three zero",
    "value": 330
  },
  "wind_gust": null,
  "wind_speed": {
    "repr": "08",
    "spoken": "eight",
    "value": 8
  },
  "wind_variable_direction": [],
  "wx_codes": []
}
