{
  "meta": {
    "timestamp": "2022-12-20T21:01:29.846815Z",
    "stations_updated": "2022-09-05"
  },
  "altimeter": {
    "repr": "A3010",
    "value": 30.1,
    "spoken": "three zero point one zero"
  },
  "clouds": [
    {
      "repr": "OVC095",
      "type": "OVC",
      "altitude": 95,
      "modifier": null
    }
  ],
  "flight_rules": "VFR",
  "other": [],
  "visibility": {
    "repr": "10",
    "value": 10,
    "spoken": "one zero"
  },
  "wind_direction": {
    "repr": "300",
    "value": 300,
    "spoken": "three zero zero"
  },
  "wind_gust": null,
  "wind_speed": {
    "repr": "07",
    "value": 7,
    "spoken": "seven"
  },
  "wx_codes": [],
  "raw": "KAWO 202056Z AUTO 30007KT 10SM OVC095 M03/M06 A3010 RMK AO2 SLP199 60001 T10331056 51003 FZRANO",
  "sanitized": "KAWO 202056Z 30007KT 10SM OVC095 M03/M06 A3010 RMK AO2 SLP199 60001 T10331056 51003 FZRANO",
  "station": "KAWO",
  "time": {
    "repr": "202056Z",
    "dt": "2022-12-20T20:56:00Z"
  },
  "remarks": "RMK AO2 SLP199 60001 T10331056 51003 FZRANO",
  "dewpoint": {
    "repr": "M06",
    "value": -6,
    "spoken": "minus six"
  },
  "relative_humidity": 0.8409868371721338,
  "remarks_info": {
    "maximum_temperature_6": null,
    "minimum_temperature_6": null,
    "pressure_tendency": {
      "repr": "51003",
      "tendency": "Increasing, then steady",
      "change": 0.3
    },
    "precip_36_hours": {
      "repr": "60001",
      "value": 0.01,
      "spoken": "zero point zero one"
    },
    "precip_24_hours": null,
    "sunshine_minutes": null,
    "codes": [
      {
        "repr": "AO2",
        "value": "Automated with precipitation sensor"
      },
      {
        "repr": "FZRANO",
        "value": "Freezing rain information not available"
      }
    ],
    "dewpoint_decimal": {
      "repr": "1056",
      "value": -5.6,
      "spoken": "minus five point six"
    },
    "maximum_temperature_24": null,
    "minimum_temperature_24": null,
    "precip_hourly": null,
    "sea_level_pressure": {
      "repr": "SLP199",
      "value": 1019.9,
      "spoken": "one zero one nine point nine"
    },
    "snow_depth": null,
    "temperature_decimal": {
      "repr": "1033",
      "value": -3.3,
      "spoken": "minus three point three"
    }
  },
  "runway_visibility": [],
  "temperature": {
    "repr": "M03",
    "value": -3,
    "spoken": "minus three"
  },
  "wind_variable_direction": [],
  "density_altitude": -2200,
  "pressure_altitude": -38,
  "units": {
    "accumulation": "in",
    "altimeter": "inHg",
    "altitude": "ft",
    "temperature": "C",
    "visibility": "sm",
    "wind_speed": "kt"
  }
}
