{
  "meta": {
    "timestamp": "2022-12-26T18:04:45.671872Z",
    "stations_updated": "2022-09-05"
  },
  "altimeter": {
    "repr": "A2977",
    "value": 29.77,
    "spoken": "two nine point seven seven"
  },
  "clouds": [
    {
      "repr": "FEW030",
      "type": "FEW",
      "altitude": 30,
      "modifier": null
    }
  ],
  "flight_rules": "VFR",
  "other": [],
  "visibility": {
    "repr": "10",
    "value": 10,
    "spoken": "one zero"
  },
  "wind_direction": {
    "repr": "150",
    "value": 150,
    "spoken": "one five zero"
  },
  "wind_gust": null,
  "wind_speed": {
    "repr": "17",
    "value": 17,
    "spoken": "one seven"
  },
  "wx_codes": [],
  "raw": "KAWO 261756Z AUTO 15017KT 10SM FEW030 12/08 A2977 RMK AO2 PK WND 16026/1740 SLP087 60001 T01170078 10144 20117 51028",
  "sanitized": "KAWO 261756Z 15017KT 10SM FEW030 12/08 A2977 RMK AO2 PK WND 16026/1740 SLP087 60001 T01170078 10144 20117 51028",
  "station": "KAWO",
  "time": {
    "repr": "261756Z",
    "dt": "2022-12-26T17:56:00Z"
  },
  "remarks": "RMK AO2 PK WND 16026/1740 SLP087 60001 T01170078 10144 20117 51028",
  "dewpoint": {
    "repr": "08",
    "value": 8,
    "spoken": "eight"
  },
  "relative_humidity": 0.7697775130100308,
  "remarks_info": {
    "maximum_temperature_6": {
      "repr": "10144",
      "value": 14.4,
      "spoken": "one four point four"
    },
    "minimum_temperature_6": {
      "repr": "20117",
      "value": 11.7,
      "spoken": "one one point seven"
    },
    "pressure_tendency": {
      "repr": "51028",
      "tendency": "Increasing, then steady",
      "change": 2.8
    },
    "precip_36_hours": {
      "repr": "60001",
      "value": 0.01,
      "spoken": "zero point zero one"
    },
    "precip_24_hours": null,
    "sunshine_minutes": null,
    "codes": [
      {
        "repr": "AO2",
        "value": "Automated with precipitation sensor"
      }
    ],
    "dewpoint_decimal": {
      "repr": "0078",
      "value": 7.8,
      "spoken": "seven point eight"
    },
    "maximum_temperature_24": null,
    "minimum_temperature_24": null,
    "precip_hourly": null,
    "sea_level_pressure": {
      "repr": "SLP087",
      "value": 1008.7,
      "spoken": "one zero zero eight point seven"
    },
    "snow_depth": null,
    "temperature_decimal": {
      "repr": "0117",
      "value": 11.7,
      "spoken": "one one point seven"
    }
  },
  "runway_visibility": [],
  "temperature": {
    "repr": "12",
    "value": 12,
    "spoken": "one two"
  },
  "wind_variable_direction": [],
  "density_altitude": -70,
  "pressure_altitude": 292,
  "units": {
    "accumulation": "in",
    "altimeter": "inHg",
    "altitude": "ft",
    "temperature": "C",
    "visibility": "sm",
    "wind_speed": "kt"
  }
}
