{
  "altimeter": {
    "repr": "A2997",
    "spoken": "two nine point nine seven",
    "value": 29.97
  },
  "clouds": [],
  "density_altitude": -870,
  "dewpoint": {
    "repr": "04",
    "spoken": "four",
    "value": 4
  },
  "flight_rules": "VFR",
  "meta": {
    "stations_updated": "2024-06-12",
    "timestamp": "2024-10-25T18:45:40.036058Z"
  },
  "other": [],
  "pressure_altitude": 92,
  "raw": "KAWO 251756Z AUTO 00000KT 10SM CLR 07/04 A2997 RMK AO2 SLP157 T00670044 10067 20011 58008",
  "relative_humidity": 0.8525264910597357,
  "remarks": "RMK AO2 SLP157 T00670044 10067 20011 58008",
  "remarks_info": {
    "codes": [
      {
        "repr": "AO2",
        "value": "Automated with precipitation sensor"
      }
    ],
    "dewpoint_decimal": {
      "repr": "0044",
      "spoken": "four point four",
      "value": 4.4
    },
    "maximum_temperature_24": null,
    "maximum_temperature_6": {
      "repr": "10067",
      "spoken": "six point seven",
      "value": 6.7
    },
    "minimum_temperature_24": null,
    "minimum_temperature_6": {
      "repr": "20011",
      "spoken": "one point one",
      "value": 1.1
    },
    "precip_24_hours": null,
    "precip_36_hours": null,
    "precip_hourly": null,
    "pressure_tendency": {
      "change": 0.8,
      "repr": "58008",
      "tendency": "Steady or increasing, then decreasing"
    },
    "sea_level_pressure": {
      "repr": "SLP157",
      "spoken": "one zero one five point seven",
      "value": 1015.7
    },
    "snow_depth": null,
    "sunshine_minutes": null,
    "temperature_decimal": {
      "repr": "0067",
      "spoken": "six point seven",
      "value": 6.7
    }
  },
  "runway_visibility": [],
  "sanitized": "KAWO 251756Z 00000KT 10SM 07/04 A2997 RMK AO2 SLP157 T00670044 10067 20011 58008",
  "station": "KAWO",
  "temperature": {
    "repr": "07",
    "spoken": "seven",
    "value": 7
  },
  "time": {
    "dt": "2024-10-25T17:56:00Z",
    "repr": "251756Z"
  },
  "units": {
    "accumulation": "in",
    "altimeter": "inHg",
    "altitude": "ft",
    "temperature": "C",
    "visibility": "sm",
    "wind_speed": "kt"
  },
  "visibility": {
    "repr": "10",
    "spoken": "one zero",
    "value": 10
  },
  "wind_direction": {
    "repr": "000",
    "spoken": "zero zero zero",
    "value": 0
  },
  "wind_gust": null,
  "wind_speed": {
    "repr": "00",
    "spoken": "zero",
    "value": 0
  },
  "wind_variable_direction": [],
  "wx_codes": []
}
