{
  "meta": {
    "timestamp": "2022-10-14T18:14:06.526522Z",
    "stations_updated": "2022-09-05"
  },
  "altimeter": {
    "repr": "A3007",
    "value": 30.07,
    "spoken": "three zero point zero seven"
  },
  "clouds": [],
  "flight_rules": "MVFR",
  "other": [],
  "visibility": {
    "repr": "5",
    "value": 5,
    "spoken": "five"
  },
  "wind_direction": {
    "repr": "000",
    "value": 0,
    "spoken": "zero zero zero"
  },
  "wind_gust": null,
  "wind_speed": {
    "repr": "00",
    "value": 0,
    "spoken": "zero"
  },
  "wx_codes": [
    {
      "repr": "BR",
      "value": "Mist"
    }
  ],
  "raw": "KAWO 141756Z AUTO 00000KT 5SM BR CLR 13/11 A3007 RMK AO2 SLP188 60000 T01280106 10128 20039 58003",
  "sanitized": "KAWO 141756Z 00000KT 5SM BR 13/11 A3007 RMK AO2 SLP188 60000 T01280106 10128 20039 58003",
  "station": "KAWO",
  "time": {
    "repr": "141756Z",
    "dt": "2022-10-14T17:56:00Z"
  },
  "remarks": "RMK AO2 SLP188 60000 T01280106 10128 20039 58003",
  "dewpoint": {
    "repr": "11",
    "value": 11,
    "spoken": "one one"
  },
  "relative_humidity": 0.8647225145629146,
  "remarks_info": {
    "maximum_temperature_6": {
      "repr": "10128",
      "value": 12.8,
      "spoken": "one two point eight"
    },
    "minimum_temperature_6": {
      "repr": "20039",
      "value": 3.9,
      "spoken": "three point nine"
    },
    "pressure_tendency": {
      "repr": "58003",
      "tendency": "Steady or increasing, then decreasing",
      "change": 0.3
    },
    "precip_36_hours": {
      "repr": "60000",
      "value": 0,
      "spoken": "zero"
    },
    "precip_24_hours": null,
    "sunshine_minutes": null,
    "codes": [
      {
        "repr": "AO2",
        "value": "Automated with precipitation sensor"
      }
    ],
    "dewpoint_decimal": {
      "repr": "0106",
      "value": 10.6,
      "spoken": "one zero point six"
    },
    "maximum_temperature_24": null,
    "minimum_temperature_24": null,
    "precip_hourly": null,
    "sea_level_pressure": {
      "repr": "SLP188",
      "value": 1018.8,
      "spoken": "one zero one eight point eight"
    },
    "snow_depth": null,
    "temperature_decimal": {
      "repr": "0128",
      "value": 12.8,
      "spoken": "one two point eight"
    }
  },
  "runway_visibility": [],
  "temperature": {
    "repr": "13",
    "value": 13,
    "spoken": "one three"
  },
  "wind_variable_direction": [],
  "density_altitude": -238,
  "pressure_altitude": -8,
  "units": {
    "accumulation": "in",
    "altimeter": "inHg",
    "altitude": "ft",
    "temperature": "C",
    "visibility": "sm",
    "wind_speed": "kt"
  }
}
