{
  "meta": {
    "timestamp": "2023-03-06T14:02:10.259883Z",
    "stations_updated": "2023-01-30"
  },
  "altimeter": {
    "repr": "A2996",
    "value": 29.96,
    "spoken": "two nine point nine six"
  },
  "clouds": [
    {
      "repr": "VV001",
      "type": "VV",
      "altitude": 1,
      "modifier": null
    }
  ],
  "flight_rules": "LIFR",
  "other": [],
  "visibility": {
    "repr": "1/2",
    "value": 0.5,
    "spoken": "one half",
    "numerator": 1,
    "denominator": 2,
    "normalized": "1/2"
  },
  "wind_direction": {
    "repr": "280",
    "value": 280,
    "spoken": "two eight zero"
  },
  "wind_gust": null,
  "wind_speed": {
    "repr": "03",
    "value": 3,
    "spoken": "three"
  },
  "wx_codes": [
    {
      "repr": "FG",
      "value": "Fog"
    }
  ],
  "raw": "KAWO 061356Z AUTO 28003KT 1/2SM FG VV001 00/M01 A2996 RMK AO2 SLP150 T00001006 FZRANO",
  "sanitized": "KAWO 061356Z 28003KT 1/2SM FG VV001 00/M01 A2996 RMK AO2 SLP150 T00001006 FZRANO",
  "station": "KAWO",
  "time": {
    "repr": "061356Z",
    "dt": "2023-03-06T13:56:00Z"
  },
  "remarks": "RMK AO2 SLP150 T00001006 FZRANO",
  "dewpoint": {
    "repr": "M01",
    "value": -1,
    "spoken": "minus one"
  },
  "relative_humidity": 0.9572912555144957,
  "remarks_info": {
    "maximum_temperature_6": null,
    "minimum_temperature_6": null,
    "pressure_tendency": null,
    "precip_36_hours": null,
    "precip_24_hours": null,
    "sunshine_minutes": null,
    "codes": [
      {
        "repr": "AO2",
        "value": "Automated with precipitation sensor"
      },
      {
        "repr": "FZRANO",
        "value": "Freezing rain information not available"
      }
    ],
    "dewpoint_decimal": {
      "repr": "1006",
      "value": -0.6,
      "spoken": "minus zero point six"
    },
    "maximum_temperature_24": null,
    "minimum_temperature_24": null,
    "precip_hourly": null,
    "sea_level_pressure": {
      "repr": "SLP150",
      "value": 1015,
      "spoken": "one zero one five point zero"
    },
    "snow_depth": null,
    "temperature_decimal": {
      "repr": "0000",
      "value": 0,
      "spoken": "zero"
    }
  },
  "runway_visibility": [],
  "temperature": {
    "repr": "00",
    "value": 0,
    "spoken": "zero"
  },
  "wind_variable_direction": [],
  "density_altitude": -1664,
  "pressure_altitude": 102,
  "units": {
    "accumulation": "in",
    "altimeter": "inHg",
    "altitude": "ft",
    "temperature": "C",
    "visibility": "sm",
    "wind_speed": "kt"
  }
}
