{
  "altimeter": {
    "repr": "A3024",
    "spoken": "three zero point two four",
    "value": 30.24
  },
  "clouds": [],
  "density_altitude": -1344,
  "dewpoint": {
    "repr": "M01",
    "spoken": "minus one",
    "value": -1
  },
  "flight_rules": "VFR",
  "meta": {
    "cache-timestamp": "2024-03-07T18:40:05.459000Z",
    "stations_updated": "2024-01-01",
    "timestamp": "2024-03-07T18:40:36.434216Z"
  },
  "other": [],
  "pressure_altitude": -178,
  "raw": "KAWO 071756Z AUTO VRB04KT 10SM CLR 05/M01 A3024 RMK AO2 SLP243 T00501011 10050 21006 50007",
  "relative_humidity": 0.6467995527506692,
  "remarks": "RMK AO2 SLP243 T00501011 10050 21006 50007",
  "remarks_info": {
    "codes": [
      {
        "repr": "AO2",
        "value": "Automated with precipitation sensor"
      }
    ],
    "dewpoint_decimal": {
      "repr": "1011",
      "spoken": "minus one point one",
      "value": -1.1
    },
    "maximum_temperature_24": null,
    "maximum_temperature_6": {
      "repr": "10050",
      "spoken": "five point zero",
      "value": 5
    },
    "minimum_temperature_24": null,
    "minimum_temperature_6": {
      "repr": "21006",
      "spoken": "minus zero point six",
      "value": -0.6
    },
    "precip_24_hours": null,
    "precip_36_hours": null,
    "precip_hourly": null,
    "pressure_tendency": {
      "change": 0.7,
      "repr": "50007",
      "tendency": "Increasing, then decreasing"
    },
    "sea_level_pressure": {
      "repr": "SLP243",
      "spoken": "one zero two four point three",
      "value": 1024.3
    },
    "snow_depth": null,
    "sunshine_minutes": null,
    "temperature_decimal": {
      "repr": "0050",
      "spoken": "five point zero",
      "value": 5
    }
  },
  "runway_visibility": [],
  "sanitized": "KAWO 071756Z VRB04KT 10SM 05/M01 A3024 RMK AO2 SLP243 T00501011 10050 21006 50007",
  "station": "KAWO",
  "temperature": {
    "repr": "05",
    "spoken": "five",
    "value": 5
  },
  "time": {
    "dt": "2024-03-07T17:56:00Z",
    "repr": "071756Z"
  },
  "units": {
    "accumulation": "in",
    "altimeter": "inHg",
    "altitude": "ft",
    "temperature": "C",
    "visibility": "sm",
    "wind_speed": "kt"
  },
  "visibility": {
    "repr": "10",
    "spoken": "one zero",
    "value": 10
  },
  "wind_direction": {
    "repr": "VRB",
    "spoken": "variable",
    "value": null
  },
  "wind_gust": null,
  "wind_speed": {
    "repr": "04",
    "spoken": "four",
    "value": 4
  },
  "wind_variable_direction": [],
  "wx_codes": []
}
