{
  "altimeter": {
    "repr": "A2926",
    "spoken": "two nine point two six",
    "value": 29.26
  },
  "clouds": [
    {
      "altitude": 42,
      "modifier": null,
      "repr": "OVC042",
      "type": "OVC"
    }
  ],
  "density_altitude": -28,
  "dewpoint": {
    "repr": "06",
    "spoken": "six",
    "value": 6
  },
  "flight_rules": "VFR",
  "meta": {
    "stations_updated": "2024-12-02",
    "timestamp": "2024-12-26T10:32:28.414158Z"
  },
  "other": [],
  "pressure_altitude": 802,
  "raw": "KAWO 260956Z AUTO 10011G17KT 10SM -RA OVC042 08/06 A2926 RMK AO2 SLP915 P0003 T00780056",
  "relative_humidity": 0.859663717525656,
  "remarks": "RMK AO2 SLP915 P0003 T00780056",
  "remarks_info": {
    "codes": [
      {
        "repr": "AO2",
        "value": "Automated with precipitation sensor"
      }
    ],
    "dewpoint_decimal": {
      "repr": "0056",
      "spoken": "five point six",
      "value": 5.6
    },
    "maximum_temperature_24": null,
    "maximum_temperature_6": null,
    "minimum_temperature_24": null,
    "minimum_temperature_6": null,
    "precip_24_hours": null,
    "precip_36_hours": null,
    "precip_hourly": {
      "repr": "P0003",
      "spoken": "zero point zero three",
      "value": 0.03
    },
    "pressure_tendency": null,
    "sea_level_pressure": {
      "repr": "SLP915",
      "spoken": "nine nine one point five",
      "value": 991.5
    },
    "snow_depth": null,
    "sunshine_minutes": null,
    "temperature_decimal": {
      "repr": "0078",
      "spoken": "seven point eight",
      "value": 7.8
    }
  },
  "runway_visibility": [],
  "sanitized": "KAWO 260956Z 10011G17KT 10SM -RA OVC042 08/06 A2926 RMK AO2 SLP915 P0003 T00780056",
  "station": "KAWO",
  "temperature": {
    "repr": "08",
    "spoken": "eight",
    "value": 8
  },
  "time": {
    "dt": "2024-12-26T09:56:00Z",
    "repr": "260956Z"
  },
  "units": {
    "accumulation": "in",
    "altimeter": "inHg",
    "altitude": "ft",
    "temperature": "C",
    "visibility": "sm",
    "wind_speed": "kt"
  },
  "visibility": {
    "repr": "10",
    "spoken": "one zero",
    "value": 10
  },
  "wind_direction": {
    "repr": "100",
    "spoken": "one zero zero",
    "value": 100
  },
  "wind_gust": {
    "repr": "17",
    "spoken": "one seven",
    "value": 17
  },
  "wind_speed": {
    "repr": "11",
    "spoken": "one one",
    "value": 11
  },
  "wind_variable_direction": [],
  "wx_codes": [
    {
      "repr": "-RA",
      "value": "Light Rain"
    }
  ]
}
