{
  "meta": {
    "timestamp": "2022-09-21T18:45:45.097905Z",
    "stations_updated": "2022-09-05"
  },
  "altimeter": {
    "repr": "A2996",
    "value": 29.96,
    "spoken": "two nine point nine six"
  },
  "clouds": [],
  "flight_rules": "VFR",
  "other": [],
  "visibility": {
    "repr": "10",
    "value": 10,
    "spoken": "one zero"
  },
  "wind_direction": {
    "repr": "310",
    "value": 310,
    "spoken": "three one zero"
  },
  "wind_gust": null,
  "wind_speed": {
    "repr": "05",
    "value": 5,
    "spoken": "five"
  },
  "wx_codes": [],
  "raw": "KAWO 211756Z AUTO 31005KT 10SM CLR 19/05 A2996 RMK AO2 SLP147 T01890050 10189 20050 56012",
  "sanitized": "KAWO 211756Z 31005KT 10SM 19/05 A2996 RMK AO2 SLP147 T01890050 10189 20050 56012",
  "station": "KAWO",
  "time": {
    "repr": "211756Z",
    "dt": "2022-09-21T17:56:00Z"
  },
  "remarks": "RMK AO2 SLP147 T01890050 10189 20050 56012",
  "dewpoint": {
    "repr": "05",
    "value": 5,
    "spoken": "five"
  },
  "relative_humidity": 0.3996397956847074,
  "remarks_info": {
    "maximum_temperature_6": {
      "repr": "10189",
      "value": 18.9,
      "spoken": "one eight point nine"
    },
    "minimum_temperature_6": {
      "repr": "20050",
      "value": 5,
      "spoken": "five point zero"
    },
    "pressure_tendency": {
      "repr": "56012",
      "tendency": "Decreasing, then steady",
      "change": 1.2
    },
    "precip_36_hours": null,
    "precip_24_hours": null,
    "sunshine_minutes": null,
    "codes": [
      {
        "repr": "AO2",
        "value": "Automated with precipitation sensor"
      }
    ],
    "dewpoint_decimal": {
      "repr": "0050",
      "value": 5,
      "spoken": "five point zero"
    },
    "maximum_temperature_24": null,
    "minimum_temperature_24": null,
    "precip_hourly": null,
    "sea_level_pressure": {
      "repr": "SLP147",
      "value": 1014.7,
      "spoken": "one zero one four point seven"
    },
    "snow_depth": null,
    "temperature_decimal": {
      "repr": "0189",
      "value": 18.9,
      "spoken": "one eight point nine"
    }
  },
  "runway_visibility": [],
  "temperature": {
    "repr": "19",
    "value": 19,
    "spoken": "one nine"
  },
  "wind_variable_direction": [],
  "density_altitude": 604,
  "pressure_altitude": 102,
  "units": {
    "accumulation": "in",
    "altimeter": "inHg",
    "altitude": "ft",
    "temperature": "C",
    "visibility": "sm",
    "wind_speed": "kt"
  }
}
