{
  "meta": {
    "timestamp": "2023-05-16T20:40:46.175006Z",
    "stations_updated": "2023-03-11",
    "cache-timestamp": "2023-05-16T20:40:05.859000Z"
  },
  "altimeter": {
    "repr": "A3014",
    "value": 30.14,
    "spoken": "three zero point one four"
  },
  "clouds": [
    {
      "repr": "SCT020",
      "type": "SCT",
      "altitude": 20,
      "modifier": null
    }
  ],
  "flight_rules": "VFR",
  "other": [],
  "visibility": {
    "repr": "10",
    "value": 10,
    "spoken": "one zero"
  },
  "wind_direction": {
    "repr": "210",
    "value": 210,
    "spoken": "two one zero"
  },
  "wind_gust": null,
  "wind_speed": {
    "repr": "04",
    "value": 4,
    "spoken": "four"
  },
  "wx_codes": [],
  "raw": "KAWO 161956Z AUTO 21004KT 10SM SCT020 21/16 A3014 RMK AO2 SLP209 T02060156",
  "sanitized": "KAWO 161956Z 21004KT 10SM SCT020 21/16 A3014 RMK AO2 SLP209 T02060156",
  "station": "KAWO",
  "time": {
    "repr": "161956Z",
    "dt": "2023-05-16T19:56:00Z"
  },
  "remarks": "RMK AO2 SLP209 T02060156",
  "dewpoint": {
    "repr": "16",
    "value": 16,
    "spoken": "one six"
  },
  "relative_humidity": 0.7302336624476067,
  "remarks_info": {
    "maximum_temperature_6": null,
    "minimum_temperature_6": null,
    "pressure_tendency": null,
    "precip_36_hours": null,
    "precip_24_hours": null,
    "sunshine_minutes": null,
    "codes": [
      {
        "repr": "AO2",
        "value": "Automated with precipitation sensor"
      }
    ],
    "dewpoint_decimal": {
      "repr": "0156",
      "value": 15.6,
      "spoken": "one five point six"
    },
    "maximum_temperature_24": null,
    "minimum_temperature_24": null,
    "precip_hourly": null,
    "sea_level_pressure": {
      "repr": "SLP209",
      "value": 1020.9,
      "spoken": "one zero two zero point nine"
    },
    "snow_depth": null,
    "temperature_decimal": {
      "repr": "0206",
      "value": 20.6,
      "spoken": "two zero point six"
    }
  },
  "runway_visibility": [],
  "temperature": {
    "repr": "21",
    "value": 21,
    "spoken": "two one"
  },
  "wind_variable_direction": [],
  "density_altitude": 628,
  "pressure_altitude": -78,
  "units": {
    "accumulation": "in",
    "altimeter": "inHg",
    "altitude": "ft",
    "temperature": "C",
    "visibility": "sm",
    "wind_speed": "kt"
  }
}
