{
  "meta": {
    "timestamp": "2023-01-27T00:30:42.900901Z",
    "stations_updated": "2023-01-16",
    "cache-timestamp": "2023-01-27T00:30:06.431000Z"
  },
  "altimeter": {
    "repr": "A3055",
    "value": 30.55,
    "spoken": "three zero point five five"
  },
  "clouds": [
    {
      "repr": "FEW011",
      "type": "FEW",
      "altitude": 11,
      "modifier": null
    },
    {
      "repr": "OVC016",
      "type": "OVC",
      "altitude": 16,
      "modifier": null
    }
  ],
  "flight_rules": "MVFR",
  "other": [],
  "visibility": {
    "repr": "9",
    "value": 9,
    "spoken": "nine"
  },
  "wind_direction": {
    "repr": "150",
    "value": 150,
    "spoken": "one five zero"
  },
  "wind_gust": null,
  "wind_speed": {
    "repr": "06",
    "value": 6,
    "spoken": "six"
  },
  "wx_codes": [],
  "raw": "KAWO 270007Z AUTO 15006KT 9SM FEW011 OVC016 07/05 A3055 RMK AO2",
  "sanitized": "KAWO 270007Z 15006KT 9SM FEW011 OVC016 07/05 A3055 RMK AO2",
  "station": "KAWO",
  "time": {
    "repr": "270007Z",
    "dt": "2023-01-27T00:07:00Z"
  },
  "remarks": "RMK AO2",
  "dewpoint": {
    "repr": "05",
    "value": 5,
    "spoken": "five"
  },
  "relative_humidity": 0.8708903011793067,
  "remarks_info": {
    "maximum_temperature_6": null,
    "minimum_temperature_6": null,
    "pressure_tendency": null,
    "precip_36_hours": null,
    "precip_24_hours": null,
    "sunshine_minutes": null,
    "codes": [
      {
        "repr": "AO2",
        "value": "Automated with precipitation sensor"
      }
    ],
    "dewpoint_decimal": null,
    "maximum_temperature_24": null,
    "minimum_temperature_24": null,
    "precip_hourly": null,
    "sea_level_pressure": null,
    "snow_depth": null,
    "temperature_decimal": null
  },
  "runway_visibility": [],
  "temperature": {
    "repr": "07",
    "value": 7,
    "spoken": "seven"
  },
  "wind_variable_direction": [],
  "density_altitude": -1414,
  "pressure_altitude": -488,
  "units": {
    "accumulation": "in",
    "altimeter": "inHg",
    "altitude": "ft",
    "temperature": "C",
    "visibility": "sm",
    "wind_speed": "kt"
  }
}
