{
  "altimeter": {
    "repr": "A3019",
    "spoken": "three zero point one nine",
    "value": 30.19
  },
  "clouds": [
    {
      "altitude": 110,
      "modifier": null,
      "repr": "SCT110",
      "type": "SCT"
    }
  ],
  "density_altitude": -1030,
  "dewpoint": {
    "repr": "04",
    "spoken": "four",
    "value": 4
  },
  "flight_rules": "VFR",
  "meta": {
    "cache-timestamp": "2024-04-11T06:40:04.489000Z",
    "stations_updated": "2024-01-01",
    "timestamp": "2024-04-11T06:40:33.976336Z"
  },
  "other": [],
  "pressure_altitude": -128,
  "raw": "KAWO 110556Z AUTO 00000KT 10SM SCT110 07/04 A3019 RMK AO2 SLP227 T00720044 10144 20067 58006",
  "relative_humidity": 0.8237826093197136,
  "remarks": "RMK AO2 SLP227 T00720044 10144 20067 58006",
  "remarks_info": {
    "codes": [
      {
        "repr": "AO2",
        "value": "Automated with precipitation sensor"
      }
    ],
    "dewpoint_decimal": {
      "repr": "0044",
      "spoken": "four point four",
      "value": 4.4
    },
    "maximum_temperature_24": null,
    "maximum_temperature_6": {
      "repr": "10144",
      "spoken": "one four point four",
      "value": 14.4
    },
    "minimum_temperature_24": null,
    "minimum_temperature_6": {
      "repr": "20067",
      "spoken": "six point seven",
      "value": 6.7
    },
    "precip_24_hours": null,
    "precip_36_hours": null,
    "precip_hourly": null,
    "pressure_tendency": {
      "change": 0.6,
      "repr": "58006",
      "tendency": "Steady or increasing, then decreasing"
    },
    "sea_level_pressure": {
      "repr": "SLP227",
      "spoken": "one zero two two point seven",
      "value": 1022.7
    },
    "snow_depth": null,
    "sunshine_minutes": null,
    "temperature_decimal": {
      "repr": "0072",
      "spoken": "seven point two",
      "value": 7.2
    }
  },
  "runway_visibility": [],
  "sanitized": "KAWO 110556Z 00000KT 10SM SCT110 07/04 A3019 RMK AO2 SLP227 T00720044 10144 20067 58006",
  "station": "KAWO",
  "temperature": {
    "repr": "07",
    "spoken": "seven",
    "value": 7
  },
  "time": {
    "dt": "2024-04-11T05:56:00Z",
    "repr": "110556Z"
  },
  "units": {
    "accumulation": "in",
    "altimeter": "inHg",
    "altitude": "ft",
    "temperature": "C",
    "visibility": "sm",
    "wind_speed": "kt"
  },
  "visibility": {
    "repr": "10",
    "spoken": "one zero",
    "value": 10
  },
  "wind_direction": {
    "repr": "000",
    "spoken": "zero zero zero",
    "value": 0
  },
  "wind_gust": null,
  "wind_speed": {
    "repr": "00",
    "spoken": "zero",
    "value": 0
  },
  "wind_variable_direction": [],
  "wx_codes": []
}
