{
  "meta": {
    "timestamp": "2023-05-22T18:03:05.214774Z",
    "stations_updated": "2023-03-11"
  },
  "altimeter": {
    "repr": "A3018",
    "value": 30.18,
    "spoken": "three zero point one eight"
  },
  "clouds": [
    {
      "repr": "BKN010",
      "type": "BKN",
      "altitude": 10,
      "modifier": null
    },
    {
      "repr": "OVC015",
      "type": "OVC",
      "altitude": 15,
      "modifier": null
    }
  ],
  "flight_rules": "MVFR",
  "other": [],
  "visibility": {
    "repr": "10",
    "value": 10,
    "spoken": "one zero"
  },
  "wind_direction": {
    "repr": "150",
    "value": 150,
    "spoken": "one five zero"
  },
  "wind_gust": null,
  "wind_speed": {
    "repr": "05",
    "value": 5,
    "spoken": "five"
  },
  "wx_codes": [],
  "raw": "KAWO 221756Z AUTO 15005KT 10SM BKN010 OVC015 12/09 A3018 RMK AO2 SLP224 60000 T01170094 10117 20100 55001",
  "sanitized": "KAWO 221756Z 15005KT 10SM BKN010 OVC015 12/09 A3018 RMK AO2 SLP224 60000 T01170094 10117 20100 55001",
  "station": "KAWO",
  "time": {
    "repr": "221756Z",
    "dt": "2023-05-22T17:56:00Z"
  },
  "remarks": "RMK AO2 SLP224 60000 T01170094 10117 20100 55001",
  "dewpoint": {
    "repr": "09",
    "value": 9,
    "spoken": "nine"
  },
  "relative_humidity": 0.857844551650817,
  "remarks_info": {
    "maximum_temperature_6": {
      "repr": "10117",
      "value": 11.7,
      "spoken": "one one point seven"
    },
    "minimum_temperature_6": {
      "repr": "20100",
      "value": 10,
      "spoken": "one zero point zero"
    },
    "pressure_tendency": {
      "repr": "55001",
      "tendency": "Decreasing, then increasing",
      "change": 0.1
    },
    "precip_36_hours": {
      "repr": "60000",
      "value": 0,
      "spoken": "zero"
    },
    "precip_24_hours": null,
    "sunshine_minutes": null,
    "codes": [
      {
        "repr": "AO2",
        "value": "Automated with precipitation sensor"
      }
    ],
    "dewpoint_decimal": {
      "repr": "0094",
      "value": 9.4,
      "spoken": "nine point four"
    },
    "maximum_temperature_24": null,
    "minimum_temperature_24": null,
    "precip_hourly": null,
    "sea_level_pressure": {
      "repr": "SLP224",
      "value": 1022.4,
      "spoken": "one zero two two point four"
    },
    "snow_depth": null,
    "temperature_decimal": {
      "repr": "0117",
      "value": 11.7,
      "spoken": "one one point seven"
    }
  },
  "runway_visibility": [],
  "temperature": {
    "repr": "12",
    "value": 12,
    "spoken": "one two"
  },
  "wind_variable_direction": [],
  "density_altitude": -480,
  "pressure_altitude": -118,
  "units": {
    "accumulation": "in",
    "altimeter": "inHg",
    "altitude": "ft",
    "temperature": "C",
    "visibility": "sm",
    "wind_speed": "kt"
  }
}
