{
  "altimeter": {
    "repr": "A3014",
    "spoken": "three zero point one four",
    "value": 30.14
  },
  "clouds": [],
  "density_altitude": 1156,
  "dewpoint": {
    "repr": "18",
    "spoken": "one eight",
    "value": 18
  },
  "flight_rules": "VFR",
  "meta": {
    "stations_updated": "2024-06-12",
    "timestamp": "2024-09-05T00:33:16.315646Z"
  },
  "other": [],
  "pressure_altitude": -78,
  "raw": "KAWO 042356Z AUTO 29008KT 10SM CLR 25/18 A3014 RMK AO2 SLP211 T02500183 10256 20161 56015",
  "relative_humidity": 0.6635797425830297,
  "remarks": "RMK AO2 SLP211 T02500183 10256 20161 56015",
  "remarks_info": {
    "codes": [
      {
        "repr": "AO2",
        "value": "Automated with precipitation sensor"
      }
    ],
    "dewpoint_decimal": {
      "repr": "0183",
      "spoken": "one eight point three",
      "value": 18.3
    },
    "maximum_temperature_24": null,
    "maximum_temperature_6": {
      "repr": "10256",
      "spoken": "two five point six",
      "value": 25.6
    },
    "minimum_temperature_24": null,
    "minimum_temperature_6": {
      "repr": "20161",
      "spoken": "one six point one",
      "value": 16.1
    },
    "precip_24_hours": null,
    "precip_36_hours": null,
    "precip_hourly": null,
    "pressure_tendency": {
      "change": 1.5,
      "repr": "56015",
      "tendency": "Decreasing, then steady"
    },
    "sea_level_pressure": {
      "repr": "SLP211",
      "spoken": "one zero two one point one",
      "value": 1021.1
    },
    "snow_depth": null,
    "sunshine_minutes": null,
    "temperature_decimal": {
      "repr": "0250",
      "spoken": "two five point zero",
      "value": 25
    }
  },
  "runway_visibility": [],
  "sanitized": "KAWO 042356Z 29008KT 10SM 25/18 A3014 RMK AO2 SLP211 T02500183 10256 20161 56015",
  "station": "KAWO",
  "temperature": {
    "repr": "25",
    "spoken": "two five",
    "value": 25
  },
  "time": {
    "dt": "2024-09-04T23:56:00Z",
    "repr": "042356Z"
  },
  "units": {
    "accumulation": "in",
    "altimeter": "inHg",
    "altitude": "ft",
    "temperature": "C",
    "visibility": "sm",
    "wind_speed": "kt"
  },
  "visibility": {
    "repr": "10",
    "spoken": "one zero",
    "value": 10
  },
  "wind_direction": {
    "repr": "290",
    "spoken": "two nine zero",
    "value": 290
  },
  "wind_gust": null,
  "wind_speed": {
    "repr": "08",
    "spoken": "eight",
    "value": 8
  },
  "wind_variable_direction": [],
  "wx_codes": []
}
