{
  "altimeter": {
    "repr": "A2980",
    "spoken": "two nine point eight zero",
    "value": 29.8
  },
  "clouds": [
    {
      "altitude": 70,
      "modifier": null,
      "repr": "OVC070",
      "type": "OVC"
    }
  ],
  "density_altitude": -700,
  "dewpoint": {
    "repr": "03",
    "spoken": "three",
    "value": 3
  },
  "flight_rules": "VFR",
  "meta": {
    "cache-timestamp": "2024-02-08T01:32:02.704000Z",
    "stations_updated": "2024-01-01",
    "timestamp": "2024-02-08T01:32:04.282507Z"
  },
  "other": [],
  "pressure_altitude": 262,
  "raw": "KAWO 080056Z AUTO 32006KT 10SM OVC070 07/03 A2980 RMK AO2 SLP096 T00670033",
  "relative_humidity": 0.7890629122317202,
  "remarks": "RMK AO2 SLP096 T00670033",
  "remarks_info": {
    "codes": [
      {
        "repr": "AO2",
        "value": "Automated with precipitation sensor"
      }
    ],
    "dewpoint_decimal": {
      "repr": "0033",
      "spoken": "three point three",
      "value": 3.3
    },
    "maximum_temperature_24": null,
    "maximum_temperature_6": null,
    "minimum_temperature_24": null,
    "minimum_temperature_6": null,
    "precip_24_hours": null,
    "precip_36_hours": null,
    "precip_hourly": null,
    "pressure_tendency": null,
    "sea_level_pressure": {
      "repr": "SLP096",
      "spoken": "one zero zero nine point six",
      "value": 1009.6
    },
    "snow_depth": null,
    "sunshine_minutes": null,
    "temperature_decimal": {
      "repr": "0067",
      "spoken": "six point seven",
      "value": 6.7
    }
  },
  "runway_visibility": [],
  "sanitized": "KAWO 080056Z 32006KT 10SM OVC070 07/03 A2980 RMK AO2 SLP096 T00670033",
  "station": "KAWO",
  "temperature": {
    "repr": "07",
    "spoken": "seven",
    "value": 7
  },
  "time": {
    "dt": "2024-02-08T00:56:00Z",
    "repr": "080056Z"
  },
  "units": {
    "accumulation": "in",
    "altimeter": "inHg",
    "altitude": "ft",
    "temperature": "C",
    "visibility": "sm",
    "wind_speed": "kt"
  },
  "visibility": {
    "repr": "10",
    "spoken": "one zero",
    "value": 10
  },
  "wind_direction": {
    "repr": "320",
    "spoken": "three two zero",
    "value": 320
  },
  "wind_gust": null,
  "wind_speed": {
    "repr": "06",
    "spoken": "six",
    "value": 6
  },
  "wind_variable_direction": [],
  "wx_codes": []
}
