{
  "altimeter": {
    "repr": "A2965",
    "spoken": "two nine point six five",
    "value": 29.65
  },
  "clouds": [
    {
      "altitude": 3,
      "modifier": null,
      "repr": "BKN003",
      "type": "BKN"
    },
    {
      "altitude": 11,
      "modifier": null,
      "repr": "OVC011",
      "type": "OVC"
    }
  ],
  "density_altitude": -418,
  "dewpoint": {
    "repr": "07",
    "spoken": "seven",
    "value": 7
  },
  "flight_rules": "LIFR",
  "meta": {
    "stations_updated": "2024-01-01",
    "timestamp": "2024-03-24T08:25:18.829882Z"
  },
  "other": [],
  "pressure_altitude": 412,
  "raw": "KAWO 240756Z AUTO 32004KT 6SM BR BKN003 OVC011 08/07 A2965 RMK AO2 RAB18E40 SLP043 P0000 T00780072 400940078",
  "relative_humidity": 0.9598512259113078,
  "remarks": "RMK AO2 RAB18E40 SLP043 P0000 T00780072 400940078",
  "remarks_info": {
    "codes": [
      {
        "repr": "AO2",
        "value": "Automated with precipitation sensor"
      },
      {
        "repr": "P0000",
        "value": "Trace amount of rain in the last hour"
      }
    ],
    "dewpoint_decimal": {
      "repr": "0072",
      "spoken": "seven point two",
      "value": 7.2
    },
    "maximum_temperature_24": {
      "repr": "0094",
      "spoken": "nine point four",
      "value": 9.4
    },
    "maximum_temperature_6": null,
    "minimum_temperature_24": {
      "repr": "0078",
      "spoken": "seven point eight",
      "value": 7.8
    },
    "minimum_temperature_6": null,
    "precip_24_hours": null,
    "precip_36_hours": null,
    "precip_hourly": null,
    "pressure_tendency": null,
    "sea_level_pressure": {
      "repr": "SLP043",
      "spoken": "one zero zero four point three",
      "value": 1004.3
    },
    "snow_depth": null,
    "sunshine_minutes": null,
    "temperature_decimal": {
      "repr": "0078",
      "spoken": "seven point eight",
      "value": 7.8
    }
  },
  "runway_visibility": [],
  "sanitized": "KAWO 240756Z 32004KT 6SM BR BKN003 OVC011 08/07 A2965 RMK AO2 RAB18E40 SLP043 P0000 T00780072 400940078",
  "station": "KAWO",
  "temperature": {
    "repr": "08",
    "spoken": "eight",
    "value": 8
  },
  "time": {
    "dt": "2024-03-24T07:56:00Z",
    "repr": "240756Z"
  },
  "units": {
    "accumulation": "in",
    "altimeter": "inHg",
    "altitude": "ft",
    "temperature": "C",
    "visibility": "sm",
    "wind_speed": "kt"
  },
  "visibility": {
    "repr": "6",
    "spoken": "six",
    "value": 6
  },
  "wind_direction": {
    "repr": "320",
    "spoken": "three two zero",
    "value": 320
  },
  "wind_gust": null,
  "wind_speed": {
    "repr": "04",
    "spoken": "four",
    "value": 4
  },
  "wind_variable_direction": [],
  "wx_codes": [
    {
      "repr": "BR",
      "value": "Mist"
    }
  ]
}
