{
  "altimeter": {
    "repr": "A3039",
    "spoken": "three zero point three nine",
    "value": 30.39
  },
  "clouds": [],
  "density_altitude": -1758,
  "dewpoint": {
    "repr": "M01",
    "spoken": "minus one",
    "value": -1
  },
  "flight_rules": "VFR",
  "meta": {
    "cache-timestamp": "2024-04-18T08:40:02.516000Z",
    "stations_updated": "2024-01-01",
    "timestamp": "2024-04-18T08:40:31.989696Z"
  },
  "other": [],
  "pressure_altitude": -328,
  "raw": "KAWO 180756Z AUTO 35003KT 10SM CLR 03/M01 A3039 RMK AO2 SLP295 T00281006 401441022",
  "relative_humidity": 0.7830767472324259,
  "remarks": "RMK AO2 SLP295 T00281006 401441022",
  "remarks_info": {
    "codes": [
      {
        "repr": "AO2",
        "value": "Automated with precipitation sensor"
      }
    ],
    "dewpoint_decimal": {
      "repr": "1006",
      "spoken": "minus zero point six",
      "value": -0.6
    },
    "maximum_temperature_24": {
      "repr": "0144",
      "spoken": "one four point four",
      "value": 14.4
    },
    "maximum_temperature_6": null,
    "minimum_temperature_24": {
      "repr": "1022",
      "spoken": "minus two point two",
      "value": -2.2
    },
    "minimum_temperature_6": null,
    "precip_24_hours": null,
    "precip_36_hours": null,
    "precip_hourly": null,
    "pressure_tendency": null,
    "sea_level_pressure": {
      "repr": "SLP295",
      "spoken": "one zero two nine point five",
      "value": 1029.5
    },
    "snow_depth": null,
    "sunshine_minutes": null,
    "temperature_decimal": {
      "repr": "0028",
      "spoken": "two point eight",
      "value": 2.8
    }
  },
  "runway_visibility": [],
  "sanitized": "KAWO 180756Z 35003KT 10SM 03/M01 A3039 RMK AO2 SLP295 T00281006 401441022",
  "station": "KAWO",
  "temperature": {
    "repr": "03",
    "spoken": "three",
    "value": 3
  },
  "time": {
    "dt": "2024-04-18T07:56:00Z",
    "repr": "180756Z"
  },
  "units": {
    "accumulation": "in",
    "altimeter": "inHg",
    "altitude": "ft",
    "temperature": "C",
    "visibility": "sm",
    "wind_speed": "kt"
  },
  "visibility": {
    "repr": "10",
    "spoken": "one zero",
    "value": 10
  },
  "wind_direction": {
    "repr": "350",
    "spoken": "three five zero",
    "value": 350
  },
  "wind_gust": null,
  "wind_speed": {
    "repr": "03",
    "spoken": "three",
    "value": 3
  },
  "wind_variable_direction": [],
  "wx_codes": []
}
