{
  "altimeter": {
    "repr": "A2984",
    "spoken": "two nine point eight four",
    "value": 29.84
  },
  "clouds": [],
  "density_altitude": 1588,
  "dewpoint": {
    "repr": "18",
    "spoken": "one eight",
    "value": 18
  },
  "flight_rules": "VFR",
  "meta": {
    "stations_updated": "2024-06-12",
    "timestamp": "2024-09-01T23:25:19.037701Z"
  },
  "other": [],
  "pressure_altitude": 222,
  "raw": "KAWO 012256Z AUTO 30008KT 10SM CLR 26/18 A2984 RMK AO2 SLP111 T02610183",
  "relative_humidity": 0.6215809519195116,
  "remarks": "RMK AO2 SLP111 T02610183",
  "remarks_info": {
    "codes": [
      {
        "repr": "AO2",
        "value": "Automated with precipitation sensor"
      }
    ],
    "dewpoint_decimal": {
      "repr": "0183",
      "spoken": "one eight point three",
      "value": 18.3
    },
    "maximum_temperature_24": null,
    "maximum_temperature_6": null,
    "minimum_temperature_24": null,
    "minimum_temperature_6": null,
    "precip_24_hours": null,
    "precip_36_hours": null,
    "precip_hourly": null,
    "pressure_tendency": null,
    "sea_level_pressure": {
      "repr": "SLP111",
      "spoken": "one zero one one point one",
      "value": 1011.1
    },
    "snow_depth": null,
    "sunshine_minutes": null,
    "temperature_decimal": {
      "repr": "0261",
      "spoken": "two six point one",
      "value": 26.1
    }
  },
  "runway_visibility": [],
  "sanitized": "KAWO 012256Z 30008KT 10SM 26/18 A2984 RMK AO2 SLP111 T02610183",
  "station": "KAWO",
  "temperature": {
    "repr": "26",
    "spoken": "two six",
    "value": 26
  },
  "time": {
    "dt": "2024-09-01T22:56:00Z",
    "repr": "012256Z"
  },
  "units": {
    "accumulation": "in",
    "altimeter": "inHg",
    "altitude": "ft",
    "temperature": "C",
    "visibility": "sm",
    "wind_speed": "kt"
  },
  "visibility": {
    "repr": "10",
    "spoken": "one zero",
    "value": 10
  },
  "wind_direction": {
    "repr": "300",
    "spoken": "three zero zero",
    "value": 300
  },
  "wind_gust": null,
  "wind_speed": {
    "repr": "08",
    "spoken": "eight",
    "value": 8
  },
  "wind_variable_direction": [],
  "wx_codes": []
}
