{
  "altimeter": {
    "repr": "A2986",
    "spoken": "two nine point eight six",
    "value": 29.86
  },
  "clouds": [],
  "density_altitude": 1364,
  "dewpoint": {
    "repr": "12",
    "spoken": "one two",
    "value": 12
  },
  "flight_rules": "VFR",
  "meta": {
    "stations_updated": "2024-06-12",
    "timestamp": "2024-07-28T00:34:23.128071Z"
  },
  "other": [],
  "pressure_altitude": 202,
  "raw": "KAWO 272356Z AUTO 27007KT 10SM CLR 24/12 A2986 RMK AO2 SLP116 T02440117 10250 20200 56007",
  "relative_humidity": 0.4496634329849402,
  "remarks": "RMK AO2 SLP116 T02440117 10250 20200 56007",
  "remarks_info": {
    "codes": [
      {
        "repr": "AO2",
        "value": "Automated with precipitation sensor"
      }
    ],
    "dewpoint_decimal": {
      "repr": "0117",
      "spoken": "one one point seven",
      "value": 11.7
    },
    "maximum_temperature_24": null,
    "maximum_temperature_6": {
      "repr": "10250",
      "spoken": "two five point zero",
      "value": 25
    },
    "minimum_temperature_24": null,
    "minimum_temperature_6": {
      "repr": "20200",
      "spoken": "two zero point zero",
      "value": 20
    },
    "precip_24_hours": null,
    "precip_36_hours": null,
    "precip_hourly": null,
    "pressure_tendency": {
      "change": 0.7,
      "repr": "56007",
      "tendency": "Decreasing, then steady"
    },
    "sea_level_pressure": {
      "repr": "SLP116",
      "spoken": "one zero one one point six",
      "value": 1011.6
    },
    "snow_depth": null,
    "sunshine_minutes": null,
    "temperature_decimal": {
      "repr": "0244",
      "spoken": "two four point four",
      "value": 24.4
    }
  },
  "runway_visibility": [],
  "sanitized": "KAWO 272356Z 27007KT 10SM 24/12 A2986 RMK AO2 SLP116 T02440117 10250 20200 56007",
  "station": "KAWO",
  "temperature": {
    "repr": "24",
    "spoken": "two four",
    "value": 24
  },
  "time": {
    "dt": "2024-07-27T23:56:00Z",
    "repr": "272356Z"
  },
  "units": {
    "accumulation": "in",
    "altimeter": "inHg",
    "altitude": "ft",
    "temperature": "C",
    "visibility": "sm",
    "wind_speed": "kt"
  },
  "visibility": {
    "repr": "10",
    "spoken": "one zero",
    "value": 10
  },
  "wind_direction": {
    "repr": "270",
    "spoken": "two seven zero",
    "value": 270
  },
  "wind_gust": null,
  "wind_speed": {
    "repr": "07",
    "spoken": "seven",
    "value": 7
  },
  "wind_variable_direction": [],
  "wx_codes": []
}
