{
  "meta": {
    "timestamp": "2022-08-27T10:33:10.815695Z",
    "stations_updated": "2022-07-17"
  },
  "altimeter": {
    "repr": "A2995",
    "value": 29.95,
    "spoken": "two nine point nine five"
  },
  "clouds": [
    {
      "repr": "BKN016",
      "type": "BKN",
      "altitude": 16,
      "modifier": null
    },
    {
      "repr": "OVC043",
      "type": "OVC",
      "altitude": 43,
      "modifier": null
    }
  ],
  "flight_rules": "MVFR",
  "other": [],
  "visibility": {
    "repr": "10",
    "value": 10,
    "spoken": "one zero"
  },
  "wind_direction": {
    "repr": "000",
    "value": 0,
    "spoken": "zero zero zero"
  },
  "wind_gust": null,
  "wind_speed": {
    "repr": "00",
    "value": 0,
    "spoken": "zero"
  },
  "wx_codes": [],
  "raw": "KAWO 270956Z AUTO 00000KT 10SM BKN016 OVC043 14/12 A2995 RMK AO2 SLP144 T01440122",
  "sanitized": "KAWO 270956Z 00000KT 10SM BKN016 OVC043 14/12 A2995 RMK AO2 SLP144 T01440122",
  "station": "KAWO",
  "time": {
    "repr": "270956Z",
    "dt": "2022-08-27T09:56:00Z"
  },
  "remarks": "RMK AO2 SLP144 T01440122",
  "dewpoint": {
    "repr": "12",
    "value": 12,
    "spoken": "one two"
  },
  "relative_humidity": 0.8662852364578876,
  "remarks_info": {
    "maximum_temperature_6": null,
    "minimum_temperature_6": null,
    "pressure_tendency": null,
    "precip_36_hours": null,
    "precip_24_hours": null,
    "sunshine_minutes": null,
    "codes": [
      {
        "repr": "AO2",
        "value": "Automated with precipitation sensor"
      }
    ],
    "dewpoint_decimal": {
      "repr": "0122",
      "value": 12.2,
      "spoken": "one two point two"
    },
    "maximum_temperature_24": null,
    "minimum_temperature_24": null,
    "precip_hourly": null,
    "sea_level_pressure": {
      "repr": "SLP144",
      "value": 1014.4,
      "spoken": "one zero one four point four"
    },
    "snow_depth": null,
    "temperature_decimal": {
      "repr": "0144",
      "value": 14.4,
      "spoken": "one four point four"
    }
  },
  "runway_visibility": [],
  "temperature": {
    "repr": "14",
    "value": 14,
    "spoken": "one four"
  },
  "wind_variable_direction": [],
  "density_altitude": 74,
  "pressure_altitude": 112,
  "units": {
    "accumulation": "in",
    "altimeter": "inHg",
    "altitude": "ft",
    "temperature": "C",
    "visibility": "sm",
    "wind_speed": "kt"
  }
}
