{
  "meta": {
    "timestamp": "2023-08-16T23:01:32.552873Z",
    "stations_updated": "2023-08-05"
  },
  "altimeter": {
    "repr": "A2993",
    "value": 29.93,
    "spoken": "two nine point nine three"
  },
  "clouds": [],
  "flight_rules": "VFR",
  "other": [],
  "visibility": {
    "repr": "10",
    "value": 10,
    "spoken": "one zero"
  },
  "wind_direction": {
    "repr": "290",
    "value": 290,
    "spoken": "two nine zero"
  },
  "wind_gust": null,
  "wind_speed": {
    "repr": "10",
    "value": 10,
    "spoken": "one zero"
  },
  "wx_codes": [],
  "raw": "KAWO 162256Z AUTO 29010KT 10SM CLR 33/16 A2993 RMK AO2 SLP137 T03330156",
  "sanitized": "KAWO 162256Z 29010KT 10SM 33/16 A2993 RMK AO2 SLP137 T03330156",
  "station": "KAWO",
  "time": {
    "repr": "162256Z",
    "dt": "2023-08-16T22:56:00Z"
  },
  "remarks": "RMK AO2 SLP137 T03330156",
  "dewpoint": {
    "repr": "16",
    "value": 16,
    "spoken": "one six"
  },
  "relative_humidity": 0.34580521929541636,
  "remarks_info": {
    "maximum_temperature_6": null,
    "minimum_temperature_6": null,
    "pressure_tendency": null,
    "precip_36_hours": null,
    "precip_24_hours": null,
    "sunshine_minutes": null,
    "codes": [
      {
        "repr": "AO2",
        "value": "Automated with precipitation sensor"
      }
    ],
    "dewpoint_decimal": {
      "repr": "0156",
      "value": 15.6,
      "spoken": "one five point six"
    },
    "maximum_temperature_24": null,
    "minimum_temperature_24": null,
    "precip_hourly": null,
    "sea_level_pressure": {
      "repr": "SLP137",
      "value": 1013.7,
      "spoken": "one zero one three point seven"
    },
    "snow_depth": null,
    "temperature_decimal": {
      "repr": "0333",
      "value": 33.3,
      "spoken": "three three point three"
    }
  },
  "runway_visibility": [],
  "temperature": {
    "repr": "33",
    "value": 33,
    "spoken": "three three"
  },
  "wind_variable_direction": [],
  "density_altitude": 2362,
  "pressure_altitude": 132,
  "units": {
    "accumulation": "in",
    "altimeter": "inHg",
    "altitude": "ft",
    "temperature": "C",
    "visibility": "sm",
    "wind_speed": "kt"
  }
}
