{
  "altimeter": {
    "repr": "A3016",
    "spoken": "three zero point one six",
    "value": 30.16
  },
  "clouds": [
    {
      "altitude": 16,
      "modifier": null,
      "repr": "OVC016",
      "type": "OVC"
    }
  ],
  "density_altitude": -544,
  "dewpoint": {
    "repr": "09",
    "spoken": "nine",
    "value": 9
  },
  "flight_rules": "MVFR",
  "meta": {
    "stations_updated": "2024-06-12",
    "timestamp": "2024-10-22T05:31:13.335682Z"
  },
  "other": [],
  "pressure_altitude": -98,
  "raw": "KAWO 220522Z AUTO 15011KT 10SM -RA OVC016 11/09 A3016 RMK AO2 RAB0458 PNO $",
  "relative_humidity": 0.8746678827465182,
  "remarks": "RMK AO2 RAB0458 PNO $",
  "remarks_info": {
    "codes": [
      {
        "repr": "$",
        "value": "ASOS requires maintenance"
      },
      {
        "repr": "AO2",
        "value": "Automated with precipitation sensor"
      },
      {
        "repr": "PNO",
        "value": "Precipitation amount not available"
      }
    ],
    "dewpoint_decimal": null,
    "maximum_temperature_24": null,
    "maximum_temperature_6": null,
    "minimum_temperature_24": null,
    "minimum_temperature_6": null,
    "precip_24_hours": null,
    "precip_36_hours": null,
    "precip_hourly": null,
    "pressure_tendency": null,
    "sea_level_pressure": null,
    "snow_depth": null,
    "sunshine_minutes": null,
    "temperature_decimal": null
  },
  "runway_visibility": [],
  "sanitized": "KAWO 220522Z 15011KT 10SM -RA OVC016 11/09 A3016 RMK AO2 RAB0458 PNO $",
  "station": "KAWO",
  "temperature": {
    "repr": "11",
    "spoken": "one one",
    "value": 11
  },
  "time": {
    "dt": "2024-10-22T05:22:00Z",
    "repr": "220522Z"
  },
  "units": {
    "accumulation": "in",
    "altimeter": "inHg",
    "altitude": "ft",
    "temperature": "C",
    "visibility": "sm",
    "wind_speed": "kt"
  },
  "visibility": {
    "repr": "10",
    "spoken": "one zero",
    "value": 10
  },
  "wind_direction": {
    "repr": "150",
    "spoken": "one five zero",
    "value": 150
  },
  "wind_gust": null,
  "wind_speed": {
    "repr": "11",
    "spoken": "one one",
    "value": 11
  },
  "wind_variable_direction": [],
  "wx_codes": [
    {
      "repr": "-RA",
      "value": "Light Rain"
    }
  ]
}
