{
  "altimeter": {
    "repr": "A3019",
    "spoken": "three zero point one nine",
    "value": 30.19
  },
  "clouds": [],
  "density_altitude": 302,
  "dewpoint": {
    "repr": "12",
    "spoken": "one two",
    "value": 12
  },
  "flight_rules": "VFR",
  "meta": {
    "stations_updated": "2024-06-12",
    "timestamp": "2024-08-29T18:08:46.941079Z"
  },
  "other": [],
  "pressure_altitude": -128,
  "raw": "KAWO 291756Z AUTO 31003KT 10SM 18/12 A3019 RMK AO2 SLP228 T01830122 10183 20072 58009",
  "relative_humidity": 0.6756559824161753,
  "remarks": "RMK AO2 SLP228 T01830122 10183 20072 58009",
  "remarks_info": {
    "codes": [
      {
        "repr": "AO2",
        "value": "Automated with precipitation sensor"
      }
    ],
    "dewpoint_decimal": {
      "repr": "0122",
      "spoken": "one two point two",
      "value": 12.2
    },
    "maximum_temperature_24": null,
    "maximum_temperature_6": {
      "repr": "10183",
      "spoken": "one eight point three",
      "value": 18.3
    },
    "minimum_temperature_24": null,
    "minimum_temperature_6": {
      "repr": "20072",
      "spoken": "seven point two",
      "value": 7.2
    },
    "precip_24_hours": null,
    "precip_36_hours": null,
    "precip_hourly": null,
    "pressure_tendency": {
      "change": 0.9,
      "repr": "58009",
      "tendency": "Steady or increasing, then decreasing"
    },
    "sea_level_pressure": {
      "repr": "SLP228",
      "spoken": "one zero two two point eight",
      "value": 1022.8
    },
    "snow_depth": null,
    "sunshine_minutes": null,
    "temperature_decimal": {
      "repr": "0183",
      "spoken": "one eight point three",
      "value": 18.3
    }
  },
  "runway_visibility": [],
  "sanitized": "KAWO 291756Z 31003KT 10SM 18/12 A3019 RMK AO2 SLP228 T01830122 10183 20072 58009",
  "station": "KAWO",
  "temperature": {
    "repr": "18",
    "spoken": "one eight",
    "value": 18
  },
  "time": {
    "dt": "2024-08-29T17:56:00Z",
    "repr": "291756Z"
  },
  "units": {
    "accumulation": "in",
    "altimeter": "inHg",
    "altitude": "ft",
    "temperature": "C",
    "visibility": "sm",
    "wind_speed": "kt"
  },
  "visibility": {
    "repr": "10",
    "spoken": "one zero",
    "value": 10
  },
  "wind_direction": {
    "repr": "310",
    "spoken": "three one zero",
    "value": 310
  },
  "wind_gust": null,
  "wind_speed": {
    "repr": "03",
    "spoken": "three",
    "value": 3
  },
  "wind_variable_direction": [],
  "wx_codes": []
}
