{
  "meta": {
    "timestamp": "2023-02-18T15:26:17.636534Z",
    "stations_updated": "2023-01-30",
    "cache-timestamp": "2023-02-18T15:26:04.922000Z"
  },
  "altimeter": {
    "repr": "A3010",
    "value": 30.1,
    "spoken": "three zero point one zero"
  },
  "clouds": [
    {
      "repr": "OVC015",
      "type": "OVC",
      "altitude": 15,
      "modifier": null
    }
  ],
  "flight_rules": "MVFR",
  "other": [],
  "visibility": {
    "repr": "10",
    "value": 10,
    "spoken": "one zero"
  },
  "wind_direction": {
    "repr": "140",
    "value": 140,
    "spoken": "one four zero"
  },
  "wind_gust": null,
  "wind_speed": {
    "repr": "08",
    "value": 8,
    "spoken": "eight"
  },
  "wx_codes": [
    {
      "repr": "-RA",
      "value": "Light Rain"
    }
  ],
  "raw": "KAWO 181508Z AUTO 14008KT 10SM -RA OVC015 05/03 A3010 RMK AO2 RAB1457 P0000",
  "sanitized": "KAWO 181508Z 14008KT 10SM -RA OVC015 05/03 A3010 RMK AO2 RAB1457 P0000",
  "station": "KAWO",
  "time": {
    "repr": "181508Z",
    "dt": "2023-02-18T15:08:00Z"
  },
  "remarks": "RMK AO2 RAB1457 P0000",
  "dewpoint": {
    "repr": "03",
    "value": 3,
    "spoken": "three"
  },
  "relative_humidity": 0.8689388805658268,
  "remarks_info": {
    "maximum_temperature_6": null,
    "minimum_temperature_6": null,
    "pressure_tendency": null,
    "precip_36_hours": null,
    "precip_24_hours": null,
    "sunshine_minutes": null,
    "codes": [
      {
        "repr": "AO2",
        "value": "Automated with precipitation sensor"
      },
      {
        "repr": "P0000",
        "value": "Trace amount of rain in the last hour"
      }
    ],
    "dewpoint_decimal": null,
    "maximum_temperature_24": null,
    "minimum_temperature_24": null,
    "precip_hourly": null,
    "sea_level_pressure": null,
    "snow_depth": null,
    "temperature_decimal": null
  },
  "runway_visibility": [],
  "temperature": {
    "repr": "05",
    "value": 5,
    "spoken": "five"
  },
  "wind_variable_direction": [],
  "density_altitude": -1204,
  "pressure_altitude": -38,
  "units": {
    "accumulation": "in",
    "altimeter": "inHg",
    "altitude": "ft",
    "temperature": "C",
    "visibility": "sm",
    "wind_speed": "kt"
  }
}
