{
  "meta": {
    "timestamp": "2023-03-11T09:23:38.304468Z",
    "stations_updated": "2023-01-30"
  },
  "altimeter": {
    "repr": "A2983",
    "value": 29.83,
    "spoken": "two nine point eight three"
  },
  "clouds": [
    {
      "repr": "FEW018",
      "type": "FEW",
      "altitude": 18,
      "modifier": null
    },
    {
      "repr": "SCT025",
      "type": "SCT",
      "altitude": 25,
      "modifier": null
    }
  ],
  "flight_rules": "VFR",
  "other": [],
  "visibility": {
    "repr": "10",
    "value": 10,
    "spoken": "one zero"
  },
  "wind_direction": {
    "repr": "140",
    "value": 140,
    "spoken": "one four zero"
  },
  "wind_gust": null,
  "wind_speed": {
    "repr": "09",
    "value": 9,
    "spoken": "nine"
  },
  "wx_codes": [],
  "raw": "KAWO 110856Z AUTO 14009KT 10SM FEW018 SCT025 06/03 A2983 RMK AO2 SLP107 T00560033 53020",
  "sanitized": "KAWO 110856Z 14009KT 10SM FEW018 SCT025 06/03 A2983 RMK AO2 SLP107 T00560033 53020",
  "station": "KAWO",
  "time": {
    "repr": "110856Z",
    "dt": "2023-03-11T08:56:00Z"
  },
  "remarks": "RMK AO2 SLP107 T00560033 53020",
  "dewpoint": {
    "repr": "03",
    "value": 3,
    "spoken": "three"
  },
  "relative_humidity": 0.8513177604096042,
  "remarks_info": {
    "maximum_temperature_6": null,
    "minimum_temperature_6": null,
    "pressure_tendency": {
      "repr": "53020",
      "tendency": "Decreasing or steady, then increasing",
      "change": 2
    },
    "precip_36_hours": null,
    "precip_24_hours": null,
    "sunshine_minutes": null,
    "codes": [
      {
        "repr": "AO2",
        "value": "Automated with precipitation sensor"
      }
    ],
    "dewpoint_decimal": {
      "repr": "0033",
      "value": 3.3,
      "spoken": "three point three"
    },
    "maximum_temperature_24": null,
    "minimum_temperature_24": null,
    "precip_hourly": null,
    "sea_level_pressure": {
      "repr": "SLP107",
      "value": 1010.7,
      "spoken": "one zero one zero point seven"
    },
    "snow_depth": null,
    "temperature_decimal": {
      "repr": "0056",
      "value": 5.6,
      "spoken": "five point six"
    }
  },
  "runway_visibility": [],
  "temperature": {
    "repr": "06",
    "value": 6,
    "spoken": "six"
  },
  "wind_variable_direction": [],
  "density_altitude": -862,
  "pressure_altitude": 232,
  "units": {
    "accumulation": "in",
    "altimeter": "inHg",
    "altitude": "ft",
    "temperature": "C",
    "visibility": "sm",
    "wind_speed": "kt"
  }
}
