{
  "meta": {
    "timestamp": "2022-12-01T22:27:35.083622Z",
    "stations_updated": "2022-09-05",
    "cache-timestamp": "2022-12-01T22:27:31.347000Z"
  },
  "altimeter": {
    "repr": "A2978",
    "value": 29.78,
    "spoken": "two nine point seven eight"
  },
  "clouds": [
    {
      "repr": "OVC095",
      "type": "OVC",
      "altitude": 95,
      "modifier": null
    }
  ],
  "flight_rules": "VFR",
  "other": [],
  "visibility": {
    "repr": "10",
    "value": 10,
    "spoken": "one zero"
  },
  "wind_direction": {
    "repr": "300",
    "value": 300,
    "spoken": "three zero zero"
  },
  "wind_gust": null,
  "wind_speed": {
    "repr": "08",
    "value": 8,
    "spoken": "eight"
  },
  "wx_codes": [],
  "raw": "KAWO 012156Z AUTO 30008KT 10SM OVC095 00/M06 A2978 RMK AO2 SLP089 T00001061 FZRANO",
  "sanitized": "KAWO 012156Z 30008KT 10SM OVC095 00/M06 A2978 RMK AO2 SLP089 T00001061 FZRANO",
  "station": "KAWO",
  "time": {
    "repr": "012156Z",
    "dt": "2022-12-01T21:56:00Z"
  },
  "remarks": "RMK AO2 SLP089 T00001061 FZRANO",
  "dewpoint": {
    "repr": "M06",
    "value": -6,
    "spoken": "minus six"
  },
  "relative_humidity": 0.6350629373782747,
  "remarks_info": {
    "maximum_temperature_6": null,
    "minimum_temperature_6": null,
    "pressure_tendency": null,
    "precip_36_hours": null,
    "precip_24_hours": null,
    "sunshine_minutes": null,
    "codes": [
      {
        "repr": "AO2",
        "value": "Automated with precipitation sensor"
      },
      {
        "repr": "FZRANO",
        "value": "Freezing rain information not available"
      }
    ],
    "dewpoint_decimal": {
      "repr": "1061",
      "value": -6.1,
      "spoken": "minus six point one"
    },
    "maximum_temperature_24": null,
    "minimum_temperature_24": null,
    "precip_hourly": null,
    "sea_level_pressure": {
      "repr": "SLP089",
      "value": 1008.9,
      "spoken": "one zero zero eight point nine"
    },
    "snow_depth": null,
    "temperature_decimal": {
      "repr": "0000",
      "value": 0,
      "spoken": "zero"
    }
  },
  "runway_visibility": [],
  "temperature": {
    "repr": "00",
    "value": 0,
    "spoken": "zero"
  },
  "wind_variable_direction": [],
  "density_altitude": -1484,
  "pressure_altitude": 282,
  "units": {
    "accumulation": "in",
    "altimeter": "inHg",
    "altitude": "ft",
    "temperature": "C",
    "visibility": "sm",
    "wind_speed": "kt"
  }
}
