{
  "meta": {
    "timestamp": "2022-12-14T14:26:47.471100Z",
    "stations_updated": "2022-09-05"
  },
  "altimeter": {
    "repr": "A3039",
    "value": 30.39,
    "spoken": "three zero point three nine"
  },
  "clouds": [
    {
      "repr": "FEW030",
      "type": "FEW",
      "altitude": 30,
      "modifier": null
    }
  ],
  "flight_rules": "IFR",
  "other": [],
  "visibility": {
    "repr": "3/2",
    "value": 1.5,
    "spoken": "one and one half",
    "numerator": 3,
    "denominator": 2,
    "normalized": "1 1/2"
  },
  "wind_direction": {
    "repr": "350",
    "value": 350,
    "spoken": "three five zero"
  },
  "wind_gust": null,
  "wind_speed": {
    "repr": "03",
    "value": 3,
    "spoken": "three"
  },
  "wx_codes": [
    {
      "repr": "BR",
      "value": "Mist"
    }
  ],
  "raw": "KAWO 141416Z AUTO 35003KT 1 1/2SM BR FEW030 M01/M02 A3039 RMK AO2 FZRANO",
  "sanitized": "KAWO 141416Z 35003KT 1 1/2SM BR FEW030 M01/M02 A3039 RMK AO2 FZRANO",
  "station": "KAWO",
  "time": {
    "repr": "141416Z",
    "dt": "2022-12-14T14:16:00Z"
  },
  "remarks": "RMK AO2 FZRANO",
  "dewpoint": {
    "repr": "M02",
    "value": -2,
    "spoken": "minus two"
  },
  "relative_humidity": 0.9291645551718306,
  "remarks_info": {
    "maximum_temperature_6": null,
    "minimum_temperature_6": null,
    "pressure_tendency": null,
    "precip_36_hours": null,
    "precip_24_hours": null,
    "sunshine_minutes": null,
    "codes": [
      {
        "repr": "AO2",
        "value": "Automated with precipitation sensor"
      },
      {
        "repr": "FZRANO",
        "value": "Freezing rain information not available"
      }
    ],
    "dewpoint_decimal": null,
    "maximum_temperature_24": null,
    "minimum_temperature_24": null,
    "precip_hourly": null,
    "sea_level_pressure": null,
    "snow_depth": null,
    "temperature_decimal": null
  },
  "runway_visibility": [],
  "temperature": {
    "repr": "M01",
    "value": -1,
    "spoken": "minus one"
  },
  "wind_variable_direction": [],
  "density_altitude": -2214,
  "pressure_altitude": -328,
  "units": {
    "accumulation": "in",
    "altimeter": "inHg",
    "altitude": "ft",
    "temperature": "C",
    "visibility": "sm",
    "wind_speed": "kt"
  }
}
