{
  "meta": {
    "timestamp": "2023-01-08T07:22:24.190249Z",
    "stations_updated": "2022-12-27",
    "cache-timestamp": "2023-01-08T07:22:07.485000Z"
  },
  "altimeter": {
    "repr": "A2969",
    "value": 29.69,
    "spoken": "two nine point six nine"
  },
  "clouds": [],
  "flight_rules": "VFR",
  "other": [],
  "visibility": {
    "repr": "10",
    "value": 10,
    "spoken": "one zero"
  },
  "wind_direction": {
    "repr": "340",
    "value": 340,
    "spoken": "three four zero"
  },
  "wind_gust": null,
  "wind_speed": {
    "repr": "03",
    "value": 3,
    "spoken": "three"
  },
  "wx_codes": [],
  "raw": "KAWO 080656Z AUTO 34003KT 10SM CLR 04/04 A2969 RMK AO2 SLP057 T00440044",
  "sanitized": "KAWO 080656Z 34003KT 10SM 04/04 A2969 RMK AO2 SLP057 T00440044",
  "station": "KAWO",
  "time": {
    "repr": "080656Z",
    "dt": "2023-01-08T06:56:00Z"
  },
  "remarks": "RMK AO2 SLP057 T00440044",
  "dewpoint": {
    "repr": "04",
    "value": 4,
    "spoken": "four"
  },
  "relative_humidity": 1,
  "remarks_info": {
    "maximum_temperature_6": null,
    "minimum_temperature_6": null,
    "pressure_tendency": null,
    "precip_36_hours": null,
    "precip_24_hours": null,
    "sunshine_minutes": null,
    "codes": [
      {
        "repr": "AO2",
        "value": "Automated with precipitation sensor"
      }
    ],
    "dewpoint_decimal": {
      "repr": "0044",
      "value": 4.4,
      "spoken": "four point four"
    },
    "maximum_temperature_24": null,
    "minimum_temperature_24": null,
    "precip_hourly": null,
    "sea_level_pressure": {
      "repr": "SLP057",
      "value": 1005.7,
      "spoken": "one zero zero five point seven"
    },
    "snow_depth": null,
    "temperature_decimal": {
      "repr": "0044",
      "value": 4.4,
      "spoken": "four point four"
    }
  },
  "runway_visibility": [],
  "temperature": {
    "repr": "04",
    "value": 4,
    "spoken": "four"
  },
  "wind_variable_direction": [],
  "density_altitude": -866,
  "pressure_altitude": 372,
  "units": {
    "accumulation": "in",
    "altimeter": "inHg",
    "altitude": "ft",
    "temperature": "C",
    "visibility": "sm",
    "wind_speed": "kt"
  }
}
