{
  "meta": {
    "timestamp": "2023-01-08T17:40:39.455048Z",
    "stations_updated": "2022-12-27",
    "cache-timestamp": "2023-01-08T17:40:05.103000Z"
  },
  "altimeter": {
    "repr": "A2957",
    "value": 29.57,
    "spoken": "two nine point five seven"
  },
  "clouds": [
    {
      "repr": "OVC050",
      "type": "OVC",
      "altitude": 50,
      "modifier": null
    }
  ],
  "flight_rules": "VFR",
  "other": [],
  "visibility": {
    "repr": "6",
    "value": 6,
    "spoken": "six"
  },
  "wind_direction": {
    "repr": "000",
    "value": 0,
    "spoken": "zero zero zero"
  },
  "wind_gust": null,
  "wind_speed": {
    "repr": "00",
    "value": 0,
    "spoken": "zero"
  },
  "wx_codes": [
    {
      "repr": "-RA",
      "value": "Light Rain"
    },
    {
      "repr": "BR",
      "value": "Mist"
    }
  ],
  "raw": "KAWO 081656Z AUTO 00000KT 6SM -RA BR OVC050 04/04 A2957 RMK AO2 SLP019 P0002 T00440039",
  "sanitized": "KAWO 081656Z 00000KT 6SM -RA BR OVC050 04/04 A2957 RMK AO2 SLP019 P0002 T00440039",
  "station": "KAWO",
  "time": {
    "repr": "081656Z",
    "dt": "2023-01-08T16:56:00Z"
  },
  "remarks": "RMK AO2 SLP019 P0002 T00440039",
  "dewpoint": {
    "repr": "04",
    "value": 4,
    "spoken": "four"
  },
  "relative_humidity": 0.9655305329530535,
  "remarks_info": {
    "maximum_temperature_6": null,
    "minimum_temperature_6": null,
    "pressure_tendency": null,
    "precip_36_hours": null,
    "precip_24_hours": null,
    "sunshine_minutes": null,
    "codes": [
      {
        "repr": "AO2",
        "value": "Automated with precipitation sensor"
      }
    ],
    "dewpoint_decimal": {
      "repr": "0039",
      "value": 3.9,
      "spoken": "three point nine"
    },
    "maximum_temperature_24": null,
    "minimum_temperature_24": null,
    "precip_hourly": {
      "repr": "P0002",
      "value": 0.02,
      "spoken": "zero point zero two"
    },
    "sea_level_pressure": {
      "repr": "SLP019",
      "value": 1001.9,
      "spoken": "one zero zero one point nine"
    },
    "snow_depth": null,
    "temperature_decimal": {
      "repr": "0044",
      "value": 4.4,
      "spoken": "four point four"
    }
  },
  "runway_visibility": [],
  "temperature": {
    "repr": "04",
    "value": 4,
    "spoken": "four"
  },
  "wind_variable_direction": [],
  "density_altitude": -746,
  "pressure_altitude": 492,
  "units": {
    "accumulation": "in",
    "altimeter": "inHg",
    "altitude": "ft",
    "temperature": "C",
    "visibility": "sm",
    "wind_speed": "kt"
  }
}
