{
  "meta": {
    "timestamp": "2023-06-19T23:23:45.343117Z",
    "stations_updated": "2023-06-06"
  },
  "altimeter": {
    "repr": "A2994",
    "value": 29.94,
    "spoken": "two nine point nine four"
  },
  "clouds": [
    {
      "repr": "BKN033",
      "type": "BKN",
      "altitude": 33,
      "modifier": null
    },
    {
      "repr": "OVC042",
      "type": "OVC",
      "altitude": 42,
      "modifier": null
    }
  ],
  "flight_rules": "VFR",
  "other": [],
  "visibility": {
    "repr": "10",
    "value": 10,
    "spoken": "one zero"
  },
  "wind_direction": {
    "repr": "110",
    "value": 110,
    "spoken": "one one zero"
  },
  "wind_gust": null,
  "wind_speed": {
    "repr": "06",
    "value": 6,
    "spoken": "six"
  },
  "wx_codes": [
    {
      "repr": "-RA",
      "value": "Light Rain"
    }
  ],
  "raw": "KAWO 192256Z AUTO 11006KT 10SM -RA BKN033 OVC042 13/09 A2994 RMK AO2 RAB13 SLP143 P0000 T01330094",
  "sanitized": "KAWO 192256Z 11006KT 10SM -RA BKN033 OVC042 13/09 A2994 RMK AO2 RAB13 SLP143 P0000 T01330094",
  "station": "KAWO",
  "time": {
    "repr": "192256Z",
    "dt": "2023-06-19T22:56:00Z"
  },
  "remarks": "RMK AO2 RAB13 SLP143 P0000 T01330094",
  "dewpoint": {
    "repr": "09",
    "value": 9,
    "spoken": "nine"
  },
  "relative_humidity": 0.77230290576919,
  "remarks_info": {
    "maximum_temperature_6": null,
    "minimum_temperature_6": null,
    "pressure_tendency": null,
    "precip_36_hours": null,
    "precip_24_hours": null,
    "sunshine_minutes": null,
    "codes": [
      {
        "repr": "AO2",
        "value": "Automated with precipitation sensor"
      },
      {
        "repr": "P0000",
        "value": "Trace amount of rain in the last hour"
      },
      {
        "repr": "RAB13",
        "value": "Rain began at :13"
      }
    ],
    "dewpoint_decimal": {
      "repr": "0094",
      "value": 9.4,
      "spoken": "nine point four"
    },
    "maximum_temperature_24": null,
    "minimum_temperature_24": null,
    "precip_hourly": null,
    "sea_level_pressure": {
      "repr": "SLP143",
      "value": 1014.3,
      "spoken": "one zero one four point three"
    },
    "snow_depth": null,
    "temperature_decimal": {
      "repr": "0133",
      "value": 13.3,
      "spoken": "one three point three"
    }
  },
  "runway_visibility": [],
  "temperature": {
    "repr": "13",
    "value": 13,
    "spoken": "one three"
  },
  "wind_variable_direction": [],
  "density_altitude": -48,
  "pressure_altitude": 122,
  "units": {
    "accumulation": "in",
    "altimeter": "inHg",
    "altitude": "ft",
    "temperature": "C",
    "visibility": "sm",
    "wind_speed": "kt"
  }
}
