{
  "altimeter": {
    "repr": "A3014",
    "spoken": "three zero point one four",
    "value": 30.14
  },
  "clouds": [
    {
      "altitude": 27,
      "modifier": null,
      "repr": "BKN027",
      "type": "BKN"
    },
    {
      "altitude": 33,
      "modifier": null,
      "repr": "OVC033",
      "type": "OVC"
    }
  ],
  "density_altitude": -848,
  "dewpoint": {
    "repr": "07",
    "spoken": "seven",
    "value": 7
  },
  "flight_rules": "MVFR",
  "meta": {
    "stations_updated": "2024-01-01",
    "timestamp": "2024-02-22T06:40:31.882868Z"
  },
  "other": [],
  "pressure_altitude": -78,
  "raw": "KAWO 220556Z AUTO 13013KT 10SM -RA BKN027 OVC033 08/07 A3014 RMK AO2 SLP211 P0007 60022 T00830067 10094 20083 53024",
  "relative_humidity": 0.8964857337002037,
  "remarks": "RMK AO2 SLP211 P0007 60022 T00830067 10094 20083 53024",
  "remarks_info": {
    "codes": [
      {
        "repr": "AO2",
        "value": "Automated with precipitation sensor"
      }
    ],
    "dewpoint_decimal": {
      "repr": "0067",
      "spoken": "six point seven",
      "value": 6.7
    },
    "maximum_temperature_24": null,
    "maximum_temperature_6": {
      "repr": "10094",
      "spoken": "nine point four",
      "value": 9.4
    },
    "minimum_temperature_24": null,
    "minimum_temperature_6": {
      "repr": "20083",
      "spoken": "eight point three",
      "value": 8.3
    },
    "precip_24_hours": null,
    "precip_36_hours": {
      "repr": "60022",
      "spoken": "zero point two two",
      "value": 0.22
    },
    "precip_hourly": {
      "repr": "P0007",
      "spoken": "zero point zero seven",
      "value": 0.07
    },
    "pressure_tendency": {
      "change": 2.4,
      "repr": "53024",
      "tendency": "Decreasing or steady, then increasing"
    },
    "sea_level_pressure": {
      "repr": "SLP211",
      "spoken": "one zero two one point one",
      "value": 1021.1
    },
    "snow_depth": null,
    "sunshine_minutes": null,
    "temperature_decimal": {
      "repr": "0083",
      "spoken": "eight point three",
      "value": 8.3
    }
  },
  "runway_visibility": [],
  "sanitized": "KAWO 220556Z 13013KT 10SM -RA BKN027 OVC033 08/07 A3014 RMK AO2 SLP211 P0007 60022 T00830067 10094 20083 53024",
  "station": "KAWO",
  "temperature": {
    "repr": "08",
    "spoken": "eight",
    "value": 8
  },
  "time": {
    "dt": "2024-02-22T05:56:00Z",
    "repr": "220556Z"
  },
  "units": {
    "accumulation": "in",
    "altimeter": "inHg",
    "altitude": "ft",
    "temperature": "C",
    "visibility": "sm",
    "wind_speed": "kt"
  },
  "visibility": {
    "repr": "10",
    "spoken": "one zero",
    "value": 10
  },
  "wind_direction": {
    "repr": "130",
    "spoken": "one three zero",
    "value": 130
  },
  "wind_gust": null,
  "wind_speed": {
    "repr": "13",
    "spoken": "one three",
    "value": 13
  },
  "wind_variable_direction": [],
  "wx_codes": [
    {
      "repr": "-RA",
      "value": "Light Rain"
    }
  ]
}
