{
  "meta": {
    "timestamp": "2023-05-16T16:03:50.783018Z",
    "stations_updated": "2023-03-11"
  },
  "altimeter": {
    "repr": "A3016",
    "value": 30.16,
    "spoken": "three zero point one six"
  },
  "clouds": [
    {
      "repr": "OVC011",
      "type": "OVC",
      "altitude": 11,
      "modifier": null
    }
  ],
  "flight_rules": "MVFR",
  "other": [],
  "visibility": {
    "repr": "10",
    "value": 10,
    "spoken": "one zero"
  },
  "wind_direction": {
    "repr": "220",
    "value": 220,
    "spoken": "two two zero"
  },
  "wind_gust": null,
  "wind_speed": {
    "repr": "03",
    "value": 3,
    "spoken": "three"
  },
  "wx_codes": [],
  "raw": "KAWO 161556Z AUTO 22003KT 10SM OVC011 16/13 A3016 RMK AO2 SLP218 P0001 T01610133",
  "sanitized": "KAWO 161556Z 22003KT 10SM OVC011 16/13 A3016 RMK AO2 SLP218 P0001 T01610133",
  "station": "KAWO",
  "time": {
    "repr": "161556Z",
    "dt": "2023-05-16T15:56:00Z"
  },
  "remarks": "RMK AO2 SLP218 P0001 T01610133",
  "dewpoint": {
    "repr": "13",
    "value": 13,
    "spoken": "one three"
  },
  "relative_humidity": 0.8346733328098689,
  "remarks_info": {
    "maximum_temperature_6": null,
    "minimum_temperature_6": null,
    "pressure_tendency": null,
    "precip_36_hours": null,
    "precip_24_hours": null,
    "sunshine_minutes": null,
    "codes": [
      {
        "repr": "AO2",
        "value": "Automated with precipitation sensor"
      }
    ],
    "dewpoint_decimal": {
      "repr": "0133",
      "value": 13.3,
      "spoken": "one three point three"
    },
    "maximum_temperature_24": null,
    "minimum_temperature_24": null,
    "precip_hourly": {
      "repr": "P0001",
      "value": 0.01,
      "spoken": "zero point zero one"
    },
    "sea_level_pressure": {
      "repr": "SLP218",
      "value": 1021.8,
      "spoken": "one zero two one point eight"
    },
    "snow_depth": null,
    "temperature_decimal": {
      "repr": "0161",
      "value": 16.1,
      "spoken": "one six point one"
    }
  },
  "runway_visibility": [],
  "temperature": {
    "repr": "16",
    "value": 16,
    "spoken": "one six"
  },
  "wind_variable_direction": [],
  "density_altitude": 68,
  "pressure_altitude": -98,
  "units": {
    "accumulation": "in",
    "altimeter": "inHg",
    "altitude": "ft",
    "temperature": "C",
    "visibility": "sm",
    "wind_speed": "kt"
  }
}
