{
  "altimeter": {
    "repr": "A2961",
    "spoken": "two nine point six one",
    "value": 29.61
  },
  "clouds": [
    {
      "altitude": 26,
      "modifier": null,
      "repr": "SCT026",
      "type": "SCT"
    },
    {
      "altitude": 36,
      "modifier": null,
      "repr": "BKN036",
      "type": "BKN"
    },
    {
      "altitude": 48,
      "modifier": null,
      "repr": "OVC048",
      "type": "OVC"
    }
  ],
  "density_altitude": -378,
  "dewpoint": {
    "repr": "07",
    "spoken": "seven",
    "value": 7
  },
  "flight_rules": "VFR",
  "meta": {
    "stations_updated": "2024-12-02",
    "timestamp": "2024-12-28T05:06:44.045983Z"
  },
  "other": [],
  "pressure_altitude": 452,
  "raw": "KAWO 280456Z AUTO 13012KT 10SM -RA SCT026 BKN036 OVC048 08/07 A2961 RMK AO2 SLP034 P0002 T00780067",
  "relative_humidity": 0.9274887710023534,
  "remarks": "RMK AO2 SLP034 P0002 T00780067",
  "remarks_info": {
    "codes": [
      {
        "repr": "AO2",
        "value": "Automated with precipitation sensor"
      }
    ],
    "dewpoint_decimal": {
      "repr": "0067",
      "spoken": "six point seven",
      "value": 6.7
    },
    "maximum_temperature_24": null,
    "maximum_temperature_6": null,
    "minimum_temperature_24": null,
    "minimum_temperature_6": null,
    "precip_24_hours": null,
    "precip_36_hours": null,
    "precip_hourly": {
      "repr": "P0002",
      "spoken": "zero point zero two",
      "value": 0.02
    },
    "pressure_tendency": null,
    "sea_level_pressure": {
      "repr": "SLP034",
      "spoken": "one zero zero three point four",
      "value": 1003.4
    },
    "snow_depth": null,
    "sunshine_minutes": null,
    "temperature_decimal": {
      "repr": "0078",
      "spoken": "seven point eight",
      "value": 7.8
    }
  },
  "runway_visibility": [],
  "sanitized": "KAWO 280456Z 13012KT 10SM -RA SCT026 BKN036 OVC048 08/07 A2961 RMK AO2 SLP034 P0002 T00780067",
  "station": "KAWO",
  "temperature": {
    "repr": "08",
    "spoken": "eight",
    "value": 8
  },
  "time": {
    "dt": "2024-12-28T04:56:00Z",
    "repr": "280456Z"
  },
  "units": {
    "accumulation": "in",
    "altimeter": "inHg",
    "altitude": "ft",
    "temperature": "C",
    "visibility": "sm",
    "wind_speed": "kt"
  },
  "visibility": {
    "repr": "10",
    "spoken": "one zero",
    "value": 10
  },
  "wind_direction": {
    "repr": "130",
    "spoken": "one three zero",
    "value": 130
  },
  "wind_gust": null,
  "wind_speed": {
    "repr": "12",
    "spoken": "one two",
    "value": 12
  },
  "wind_variable_direction": [],
  "wx_codes": [
    {
      "repr": "-RA",
      "value": "Light Rain"
    }
  ]
}
