{
  "altimeter": {
    "repr": "A3025",
    "spoken": "three zero point two five",
    "value": 30.25
  },
  "clouds": [
    {
      "altitude": 29,
      "modifier": null,
      "repr": "SCT029",
      "type": "SCT"
    }
  ],
  "density_altitude": -82,
  "dewpoint": {
    "repr": "07",
    "spoken": "seven",
    "value": 7
  },
  "flight_rules": "VFR",
  "meta": {
    "stations_updated": "2024-05-13",
    "timestamp": "2024-06-05T18:30:20.921634Z"
  },
  "other": [],
  "pressure_altitude": -188,
  "raw": "KAWO 051756Z AUTO 26004KT 10SM SCT029 16/07 A3025 RMK AO2 SLP249 60004 T01560072 10156 20094 58001",
  "relative_humidity": 0.5732647649691641,
  "remarks": "RMK AO2 SLP249 60004 T01560072 10156 20094 58001",
  "remarks_info": {
    "codes": [
      {
        "repr": "AO2",
        "value": "Automated with precipitation sensor"
      }
    ],
    "dewpoint_decimal": {
      "repr": "0072",
      "spoken": "seven point two",
      "value": 7.2
    },
    "maximum_temperature_24": null,
    "maximum_temperature_6": {
      "repr": "10156",
      "spoken": "one five point six",
      "value": 15.6
    },
    "minimum_temperature_24": null,
    "minimum_temperature_6": {
      "repr": "20094",
      "spoken": "nine point four",
      "value": 9.4
    },
    "precip_24_hours": null,
    "precip_36_hours": {
      "repr": "60004",
      "spoken": "zero point zero four",
      "value": 0.04
    },
    "precip_hourly": null,
    "pressure_tendency": {
      "change": 0.1,
      "repr": "58001",
      "tendency": "Steady or increasing, then decreasing"
    },
    "sea_level_pressure": {
      "repr": "SLP249",
      "spoken": "one zero two four point nine",
      "value": 1024.9
    },
    "snow_depth": null,
    "sunshine_minutes": null,
    "temperature_decimal": {
      "repr": "0156",
      "spoken": "one five point six",
      "value": 15.6
    }
  },
  "runway_visibility": [],
  "sanitized": "KAWO 051756Z 26004KT 10SM SCT029 16/07 A3025 RMK AO2 SLP249 60004 T01560072 10156 20094 58001",
  "station": "KAWO",
  "temperature": {
    "repr": "16",
    "spoken": "one six",
    "value": 16
  },
  "time": {
    "dt": "2024-06-05T17:56:00Z",
    "repr": "051756Z"
  },
  "units": {
    "accumulation": "in",
    "altimeter": "inHg",
    "altitude": "ft",
    "temperature": "C",
    "visibility": "sm",
    "wind_speed": "kt"
  },
  "visibility": {
    "repr": "10",
    "spoken": "one zero",
    "value": 10
  },
  "wind_direction": {
    "repr": "260",
    "spoken": "two six zero",
    "value": 260
  },
  "wind_gust": null,
  "wind_speed": {
    "repr": "04",
    "spoken": "four",
    "value": 4
  },
  "wind_variable_direction": [],
  "wx_codes": []
}
