{
  "meta": {
    "timestamp": "2023-06-11T19:01:10.309458Z",
    "stations_updated": "2023-06-06"
  },
  "altimeter": {
    "repr": "A3006",
    "value": 30.06,
    "spoken": "three zero point zero six"
  },
  "clouds": [
    {
      "repr": "OVC015",
      "type": "OVC",
      "altitude": 15,
      "modifier": null
    }
  ],
  "flight_rules": "MVFR",
  "other": [],
  "visibility": {
    "repr": "10",
    "value": 10,
    "spoken": "one zero"
  },
  "wind_direction": {
    "repr": "320",
    "value": 320,
    "spoken": "three two zero"
  },
  "wind_gust": null,
  "wind_speed": {
    "repr": "10",
    "value": 10,
    "spoken": "one zero"
  },
  "wx_codes": [],
  "raw": "KAWO 111856Z AUTO 32010KT 10SM OVC015 16/13 A3006 RMK AO2 SLP182 T01610128",
  "sanitized": "KAWO 111856Z 32010KT 10SM OVC015 16/13 A3006 RMK AO2 SLP182 T01610128",
  "station": "KAWO",
  "time": {
    "repr": "111856Z",
    "dt": "2023-06-11T18:56:00Z"
  },
  "remarks": "RMK AO2 SLP182 T01610128",
  "dewpoint": {
    "repr": "13",
    "value": 13,
    "spoken": "one three"
  },
  "relative_humidity": 0.8078322465211591,
  "remarks_info": {
    "maximum_temperature_6": null,
    "minimum_temperature_6": null,
    "pressure_tendency": null,
    "precip_36_hours": null,
    "precip_24_hours": null,
    "sunshine_minutes": null,
    "codes": [
      {
        "repr": "AO2",
        "value": "Automated with precipitation sensor"
      }
    ],
    "dewpoint_decimal": {
      "repr": "0128",
      "value": 12.8,
      "spoken": "one two point eight"
    },
    "maximum_temperature_24": null,
    "minimum_temperature_24": null,
    "precip_hourly": null,
    "sea_level_pressure": {
      "repr": "SLP182",
      "value": 1018.2,
      "spoken": "one zero one eight point two"
    },
    "snow_depth": null,
    "temperature_decimal": {
      "repr": "0161",
      "value": 16.1,
      "spoken": "one six point one"
    }
  },
  "runway_visibility": [],
  "temperature": {
    "repr": "16",
    "value": 16,
    "spoken": "one six"
  },
  "wind_variable_direction": [],
  "density_altitude": 168,
  "pressure_altitude": 2,
  "units": {
    "accumulation": "in",
    "altimeter": "inHg",
    "altitude": "ft",
    "temperature": "C",
    "visibility": "sm",
    "wind_speed": "kt"
  }
}
