{
  "altimeter": {
    "repr": "A3034",
    "spoken": "three zero point three four",
    "value": 30.34
  },
  "clouds": [],
  "density_altitude": -112,
  "dewpoint": {
    "repr": "06",
    "spoken": "six",
    "value": 6
  },
  "flight_rules": "VFR",
  "meta": {
    "cache-timestamp": "2024-05-31T01:42:02.975000Z",
    "stations_updated": "2024-05-13",
    "timestamp": "2024-05-31T01:42:27.419204Z"
  },
  "other": [],
  "pressure_altitude": -278,
  "raw": "KAWO 310056Z AUTO 30008KT 10SM CLR 16/06 A3034 RMK AO2 SLP277 T01610056",
  "relative_humidity": 0.4972667577195171,
  "remarks": "RMK AO2 SLP277 T01610056",
  "remarks_info": {
    "codes": [
      {
        "repr": "AO2",
        "value": "Automated with precipitation sensor"
      }
    ],
    "dewpoint_decimal": {
      "repr": "0056",
      "spoken": "five point six",
      "value": 5.6
    },
    "maximum_temperature_24": null,
    "maximum_temperature_6": null,
    "minimum_temperature_24": null,
    "minimum_temperature_6": null,
    "precip_24_hours": null,
    "precip_36_hours": null,
    "precip_hourly": null,
    "pressure_tendency": null,
    "sea_level_pressure": {
      "repr": "SLP277",
      "spoken": "one zero two seven point seven",
      "value": 1027.7
    },
    "snow_depth": null,
    "sunshine_minutes": null,
    "temperature_decimal": {
      "repr": "0161",
      "spoken": "one six point one",
      "value": 16.1
    }
  },
  "runway_visibility": [],
  "sanitized": "KAWO 310056Z 30008KT 10SM 16/06 A3034 RMK AO2 SLP277 T01610056",
  "station": "KAWO",
  "temperature": {
    "repr": "16",
    "spoken": "one six",
    "value": 16
  },
  "time": {
    "dt": "2024-05-31T00:56:00Z",
    "repr": "310056Z"
  },
  "units": {
    "accumulation": "in",
    "altimeter": "inHg",
    "altitude": "ft",
    "temperature": "C",
    "visibility": "sm",
    "wind_speed": "kt"
  },
  "visibility": {
    "repr": "10",
    "spoken": "one zero",
    "value": 10
  },
  "wind_direction": {
    "repr": "300",
    "spoken": "three zero zero",
    "value": 300
  },
  "wind_gust": null,
  "wind_speed": {
    "repr": "08",
    "spoken": "eight",
    "value": 8
  },
  "wind_variable_direction": [],
  "wx_codes": []
}
