{
  "meta": {
    "timestamp": "2023-01-15T15:25:30.297830Z",
    "stations_updated": "2022-12-27"
  },
  "altimeter": {
    "repr": "A2930",
    "value": 29.3,
    "spoken": "two nine point three zero"
  },
  "clouds": [
    {
      "repr": "OVC085",
      "type": "OVC",
      "altitude": 85,
      "modifier": null
    }
  ],
  "flight_rules": "VFR",
  "other": [],
  "visibility": {
    "repr": "10",
    "value": 10,
    "spoken": "one zero"
  },
  "wind_direction": {
    "repr": "180",
    "value": 180,
    "spoken": "one eight zero"
  },
  "wind_gust": null,
  "wind_speed": {
    "repr": "03",
    "value": 3,
    "spoken": "three"
  },
  "wx_codes": [],
  "raw": "KAWO 151456Z AUTO 18003KT 10SM OVC085 03/02 A2930 RMK AO2 SLP926 T00280022 53001",
  "sanitized": "KAWO 151456Z 18003KT 10SM OVC085 03/02 A2930 RMK AO2 SLP926 T00280022 53001",
  "station": "KAWO",
  "time": {
    "repr": "151456Z",
    "dt": "2023-01-15T14:56:00Z"
  },
  "remarks": "RMK AO2 SLP926 T00280022 53001",
  "dewpoint": {
    "repr": "02",
    "value": 2,
    "spoken": "two"
  },
  "relative_humidity": 0.958237479247377,
  "remarks_info": {
    "maximum_temperature_6": null,
    "minimum_temperature_6": null,
    "pressure_tendency": {
      "repr": "53001",
      "tendency": "Decreasing or steady, then increasing",
      "change": 0.1
    },
    "precip_36_hours": null,
    "precip_24_hours": null,
    "sunshine_minutes": null,
    "codes": [
      {
        "repr": "AO2",
        "value": "Automated with precipitation sensor"
      }
    ],
    "dewpoint_decimal": {
      "repr": "0022",
      "value": 2.2,
      "spoken": "two point two"
    },
    "maximum_temperature_24": null,
    "minimum_temperature_24": null,
    "precip_hourly": null,
    "sea_level_pressure": {
      "repr": "SLP926",
      "value": 992.6,
      "spoken": "nine nine two point six"
    },
    "snow_depth": null,
    "temperature_decimal": {
      "repr": "0028",
      "value": 2.8,
      "spoken": "two point eight"
    }
  },
  "runway_visibility": [],
  "temperature": {
    "repr": "03",
    "value": 3,
    "spoken": "three"
  },
  "wind_variable_direction": [],
  "density_altitude": -668,
  "pressure_altitude": 762,
  "units": {
    "accumulation": "in",
    "altimeter": "inHg",
    "altitude": "ft",
    "temperature": "C",
    "visibility": "sm",
    "wind_speed": "kt"
  }
}
