{
  "meta": {
    "timestamp": "2023-05-28T06:40:43.789612Z",
    "stations_updated": "2023-03-11",
    "cache-timestamp": "2023-05-28T06:40:05.735000Z"
  },
  "altimeter": {
    "repr": "A3003",
    "value": 30.03,
    "spoken": "three zero point zero three"
  },
  "clouds": [],
  "flight_rules": "VFR",
  "other": [],
  "visibility": {
    "repr": "10",
    "value": 10,
    "spoken": "one zero"
  },
  "wind_direction": {
    "repr": "VRB",
    "value": null,
    "spoken": "variable"
  },
  "wind_gust": null,
  "wind_speed": {
    "repr": "05",
    "value": 5,
    "spoken": "five"
  },
  "wx_codes": [],
  "raw": "KAWO 280556Z AUTO VRB05KT 10SM CLR 12/09 A3003 RMK AO2 SLP173 T01170089 10217 20111 53018",
  "sanitized": "KAWO 280556Z VRB05KT 10SM 12/09 A3003 RMK AO2 SLP173 T01170089 10217 20111 53018",
  "station": "KAWO",
  "time": {
    "repr": "280556Z",
    "dt": "2023-05-28T05:56:00Z"
  },
  "remarks": "RMK AO2 SLP173 T01170089 10217 20111 53018",
  "dewpoint": {
    "repr": "09",
    "value": 9,
    "spoken": "nine"
  },
  "relative_humidity": 0.8294144771177383,
  "remarks_info": {
    "maximum_temperature_6": {
      "repr": "10217",
      "value": 21.7,
      "spoken": "two one point seven"
    },
    "minimum_temperature_6": {
      "repr": "20111",
      "value": 11.1,
      "spoken": "one one point one"
    },
    "pressure_tendency": {
      "repr": "53018",
      "tendency": "Decreasing or steady, then increasing",
      "change": 1.8
    },
    "precip_36_hours": null,
    "precip_24_hours": null,
    "sunshine_minutes": null,
    "codes": [
      {
        "repr": "AO2",
        "value": "Automated with precipitation sensor"
      }
    ],
    "dewpoint_decimal": {
      "repr": "0089",
      "value": 8.9,
      "spoken": "eight point nine"
    },
    "maximum_temperature_24": null,
    "minimum_temperature_24": null,
    "precip_hourly": null,
    "sea_level_pressure": {
      "repr": "SLP173",
      "value": 1017.3,
      "spoken": "one zero one seven point three"
    },
    "snow_depth": null,
    "temperature_decimal": {
      "repr": "0117",
      "value": 11.7,
      "spoken": "one one point seven"
    }
  },
  "runway_visibility": [],
  "temperature": {
    "repr": "12",
    "value": 12,
    "spoken": "one two"
  },
  "wind_variable_direction": [],
  "density_altitude": -330,
  "pressure_altitude": 32,
  "units": {
    "accumulation": "in",
    "altimeter": "inHg",
    "altitude": "ft",
    "temperature": "C",
    "visibility": "sm",
    "wind_speed": "kt"
  }
}
