{
  "altimeter": {
    "repr": "A3013",
    "spoken": "three zero point one three",
    "value": 30.13
  },
  "clouds": [],
  "density_altitude": -766,
  "dewpoint": {
    "repr": "09",
    "spoken": "nine",
    "value": 9
  },
  "flight_rules": "VFR",
  "meta": {
    "stations_updated": "2024-06-12",
    "timestamp": "2024-09-22T12:46:57.357433Z"
  },
  "other": [],
  "pressure_altitude": -68,
  "raw": "KAWO 221156Z AUTO 00000KT 10SM CLR 09/09 A3013 RMK AO2 SLP209 T00890089 10122 20083 57008",
  "relative_humidity": 1,
  "remarks": "RMK AO2 SLP209 T00890089 10122 20083 57008",
  "remarks_info": {
    "codes": [
      {
        "repr": "AO2",
        "value": "Automated with precipitation sensor"
      }
    ],
    "dewpoint_decimal": {
      "repr": "0089",
      "spoken": "eight point nine",
      "value": 8.9
    },
    "maximum_temperature_24": null,
    "maximum_temperature_6": {
      "repr": "10122",
      "spoken": "one two point two",
      "value": 12.2
    },
    "minimum_temperature_24": null,
    "minimum_temperature_6": {
      "repr": "20083",
      "spoken": "eight point three",
      "value": 8.3
    },
    "precip_24_hours": null,
    "precip_36_hours": null,
    "precip_hourly": null,
    "pressure_tendency": {
      "change": 0.8,
      "repr": "57008",
      "tendency": "Decreasing steadily or unsteadily"
    },
    "sea_level_pressure": {
      "repr": "SLP209",
      "spoken": "one zero two zero point nine",
      "value": 1020.9
    },
    "snow_depth": null,
    "sunshine_minutes": null,
    "temperature_decimal": {
      "repr": "0089",
      "spoken": "eight point nine",
      "value": 8.9
    }
  },
  "runway_visibility": [],
  "sanitized": "KAWO 221156Z 00000KT 10SM 09/09 A3013 RMK AO2 SLP209 T00890089 10122 20083 57008",
  "station": "KAWO",
  "temperature": {
    "repr": "09",
    "spoken": "nine",
    "value": 9
  },
  "time": {
    "dt": "2024-09-22T11:56:00Z",
    "repr": "221156Z"
  },
  "units": {
    "accumulation": "in",
    "altimeter": "inHg",
    "altitude": "ft",
    "temperature": "C",
    "visibility": "sm",
    "wind_speed": "kt"
  },
  "visibility": {
    "repr": "10",
    "spoken": "one zero",
    "value": 10
  },
  "wind_direction": {
    "repr": "000",
    "spoken": "zero zero zero",
    "value": 0
  },
  "wind_gust": null,
  "wind_speed": {
    "repr": "00",
    "spoken": "zero",
    "value": 0
  },
  "wind_variable_direction": [],
  "wx_codes": []
}
