{
  "meta": {
    "timestamp": "2023-06-01T22:25:48.096407Z",
    "stations_updated": "2023-05-30"
  },
  "altimeter": {
    "repr": "A3005",
    "value": 30.05,
    "spoken": "three zero point zero five"
  },
  "clouds": [],
  "flight_rules": "VFR",
  "other": [],
  "visibility": {
    "repr": "10",
    "value": 10,
    "spoken": "one zero"
  },
  "wind_direction": {
    "repr": "280",
    "value": 280,
    "spoken": "two eight zero"
  },
  "wind_gust": null,
  "wind_speed": {
    "repr": "07",
    "value": 7,
    "spoken": "seven"
  },
  "wx_codes": [],
  "raw": "KAWO 012156Z AUTO 28007KT 240V330 10SM CLR 19/08 A3005 RMK AO2 SLP180 T01890078",
  "sanitized": "KAWO 012156Z 28007KT 240V330 10SM 19/08 A3005 RMK AO2 SLP180 T01890078",
  "station": "KAWO",
  "time": {
    "repr": "012156Z",
    "dt": "2023-06-01T21:56:00Z"
  },
  "remarks": "RMK AO2 SLP180 T01890078",
  "dewpoint": {
    "repr": "08",
    "value": 8,
    "spoken": "eight"
  },
  "relative_humidity": 0.48467689873708153,
  "remarks_info": {
    "maximum_temperature_6": null,
    "minimum_temperature_6": null,
    "pressure_tendency": null,
    "precip_36_hours": null,
    "precip_24_hours": null,
    "sunshine_minutes": null,
    "codes": [
      {
        "repr": "AO2",
        "value": "Automated with precipitation sensor"
      }
    ],
    "dewpoint_decimal": {
      "repr": "0078",
      "value": 7.8,
      "spoken": "seven point eight"
    },
    "maximum_temperature_24": null,
    "minimum_temperature_24": null,
    "precip_hourly": null,
    "sea_level_pressure": {
      "repr": "SLP180",
      "value": 1018,
      "spoken": "one zero one eight point zero"
    },
    "snow_depth": null,
    "temperature_decimal": {
      "repr": "0189",
      "value": 18.9,
      "spoken": "one eight point nine"
    }
  },
  "runway_visibility": [],
  "temperature": {
    "repr": "19",
    "value": 19,
    "spoken": "one nine"
  },
  "wind_variable_direction": [
    {
      "repr": "240",
      "value": 240,
      "spoken": "two four zero"
    },
    {
      "repr": "330",
      "value": 330,
      "spoken": "three three zero"
    }
  ],
  "density_altitude": 514,
  "pressure_altitude": 12,
  "units": {
    "accumulation": "in",
    "altimeter": "inHg",
    "altitude": "ft",
    "temperature": "C",
    "visibility": "sm",
    "wind_speed": "kt"
  }
}
