{
  "altimeter": {
    "repr": "A3022",
    "spoken": "three zero point two two",
    "value": 30.22
  },
  "clouds": [
    {
      "altitude": 43,
      "modifier": null,
      "repr": "BKN043",
      "type": "BKN"
    },
    {
      "altitude": 55,
      "modifier": null,
      "repr": "BKN055",
      "type": "BKN"
    }
  ],
  "density_altitude": 344,
  "dewpoint": {
    "repr": "08",
    "spoken": "eight",
    "value": 8
  },
  "flight_rules": "VFR",
  "meta": {
    "stations_updated": "2024-06-12",
    "timestamp": "2024-08-27T23:25:48.399429Z"
  },
  "other": [],
  "pressure_altitude": -158,
  "raw": "KAWO 272256Z AUTO 26010G17KT 10SM BKN043 BKN055 19/08 A3022 RMK AO2 SLP239 T01890078",
  "relative_humidity": 0.48467689873708153,
  "remarks": "RMK AO2 SLP239 T01890078",
  "remarks_info": {
    "codes": [
      {
        "repr": "AO2",
        "value": "Automated with precipitation sensor"
      }
    ],
    "dewpoint_decimal": {
      "repr": "0078",
      "spoken": "seven point eight",
      "value": 7.8
    },
    "maximum_temperature_24": null,
    "maximum_temperature_6": null,
    "minimum_temperature_24": null,
    "minimum_temperature_6": null,
    "precip_24_hours": null,
    "precip_36_hours": null,
    "precip_hourly": null,
    "pressure_tendency": null,
    "sea_level_pressure": {
      "repr": "SLP239",
      "spoken": "one zero two three point nine",
      "value": 1023.9
    },
    "snow_depth": null,
    "sunshine_minutes": null,
    "temperature_decimal": {
      "repr": "0189",
      "spoken": "one eight point nine",
      "value": 18.9
    }
  },
  "runway_visibility": [],
  "sanitized": "KAWO 272256Z 26010G17KT 10SM BKN043 BKN055 19/08 A3022 RMK AO2 SLP239 T01890078",
  "station": "KAWO",
  "temperature": {
    "repr": "19",
    "spoken": "one nine",
    "value": 19
  },
  "time": {
    "dt": "2024-08-27T22:56:00Z",
    "repr": "272256Z"
  },
  "units": {
    "accumulation": "in",
    "altimeter": "inHg",
    "altitude": "ft",
    "temperature": "C",
    "visibility": "sm",
    "wind_speed": "kt"
  },
  "visibility": {
    "repr": "10",
    "spoken": "one zero",
    "value": 10
  },
  "wind_direction": {
    "repr": "260",
    "spoken": "two six zero",
    "value": 260
  },
  "wind_gust": {
    "repr": "17",
    "spoken": "one seven",
    "value": 17
  },
  "wind_speed": {
    "repr": "10",
    "spoken": "one zero",
    "value": 10
  },
  "wind_variable_direction": [],
  "wx_codes": []
}
