{
  "altimeter": {
    "repr": "A3038",
    "spoken": "three zero point three eight",
    "value": 30.38
  },
  "clouds": [
    {
      "altitude": 3,
      "modifier": null,
      "repr": "OVC003",
      "type": "OVC"
    }
  ],
  "density_altitude": -1364,
  "dewpoint": {
    "repr": "06",
    "spoken": "six",
    "value": 6
  },
  "flight_rules": "LIFR",
  "meta": {
    "stations_updated": "2024-12-02",
    "timestamp": "2025-01-06T09:29:44.502847Z"
  },
  "other": [],
  "pressure_altitude": -318,
  "raw": "KAWO 060928Z AUTO 32008KT 2 1/2SM BR OVC003 06/06 A3038 RMK AO2 VIS 2V5",
  "relative_humidity": 1,
  "remarks": "RMK AO2 VIS 2V5",
  "remarks_info": {
    "codes": [
      {
        "repr": "AO2",
        "value": "Automated with precipitation sensor"
      }
    ],
    "dewpoint_decimal": null,
    "maximum_temperature_24": null,
    "maximum_temperature_6": null,
    "minimum_temperature_24": null,
    "minimum_temperature_6": null,
    "precip_24_hours": null,
    "precip_36_hours": null,
    "precip_hourly": null,
    "pressure_tendency": null,
    "sea_level_pressure": null,
    "snow_depth": null,
    "sunshine_minutes": null,
    "temperature_decimal": null
  },
  "runway_visibility": [],
  "sanitized": "KAWO 060928Z 32008KT 2 1/2SM BR OVC003 06/06 A3038 RMK AO2 VIS 2V5",
  "station": "KAWO",
  "temperature": {
    "repr": "06",
    "spoken": "six",
    "value": 6
  },
  "time": {
    "dt": "2025-01-06T09:28:00Z",
    "repr": "060928Z"
  },
  "units": {
    "accumulation": "in",
    "altimeter": "inHg",
    "altitude": "ft",
    "temperature": "C",
    "visibility": "sm",
    "wind_speed": "kt"
  },
  "visibility": {
    "denominator": 2,
    "normalized": "2 1/2",
    "numerator": 5,
    "repr": "5/2",
    "spoken": "two and one half",
    "value": 2.5
  },
  "wind_direction": {
    "repr": "320",
    "spoken": "three two zero",
    "value": 320
  },
  "wind_gust": null,
  "wind_speed": {
    "repr": "08",
    "spoken": "eight",
    "value": 8
  },
  "wind_variable_direction": [],
  "wx_codes": [
    {
      "repr": "BR",
      "value": "Mist"
    }
  ]
}
