{
  "altimeter": {
    "repr": "A3023",
    "spoken": "three zero point two three",
    "value": 30.23
  },
  "clouds": [],
  "density_altitude": 262,
  "dewpoint": {
    "repr": "06",
    "spoken": "six",
    "value": 6
  },
  "flight_rules": "VFR",
  "meta": {
    "stations_updated": "2024-06-12",
    "timestamp": "2024-08-28T00:32:03.231121Z"
  },
  "other": [],
  "pressure_altitude": -168,
  "raw": "KAWO 272356Z AUTO 27012G18KT 10SM CLR 18/06 A3023 RMK AO2 WSHFT 2335 SLP242 T01830061 10189 20156 50002",
  "relative_humidity": 0.44784584280686096,
  "remarks": "RMK AO2 WSHFT 2335 SLP242 T01830061 10189 20156 50002",
  "remarks_info": {
    "codes": [
      {
        "repr": "AO2",
        "value": "Automated with precipitation sensor"
      }
    ],
    "dewpoint_decimal": {
      "repr": "0061",
      "spoken": "six point one",
      "value": 6.1
    },
    "maximum_temperature_24": null,
    "maximum_temperature_6": {
      "repr": "10189",
      "spoken": "one eight point nine",
      "value": 18.9
    },
    "minimum_temperature_24": null,
    "minimum_temperature_6": {
      "repr": "20156",
      "spoken": "one five point six",
      "value": 15.6
    },
    "precip_24_hours": null,
    "precip_36_hours": null,
    "precip_hourly": null,
    "pressure_tendency": {
      "change": 0.2,
      "repr": "50002",
      "tendency": "Increasing, then decreasing"
    },
    "sea_level_pressure": {
      "repr": "SLP242",
      "spoken": "one zero two four point two",
      "value": 1024.2
    },
    "snow_depth": null,
    "sunshine_minutes": null,
    "temperature_decimal": {
      "repr": "0183",
      "spoken": "one eight point three",
      "value": 18.3
    }
  },
  "runway_visibility": [],
  "sanitized": "KAWO 272356Z 27012G18KT 10SM 18/06 A3023 RMK AO2 WSHFT 2335 SLP242 T01830061 10189 20156 50002",
  "station": "KAWO",
  "temperature": {
    "repr": "18",
    "spoken": "one eight",
    "value": 18
  },
  "time": {
    "dt": "2024-08-27T23:56:00Z",
    "repr": "272356Z"
  },
  "units": {
    "accumulation": "in",
    "altimeter": "inHg",
    "altitude": "ft",
    "temperature": "C",
    "visibility": "sm",
    "wind_speed": "kt"
  },
  "visibility": {
    "repr": "10",
    "spoken": "one zero",
    "value": 10
  },
  "wind_direction": {
    "repr": "270",
    "spoken": "two seven zero",
    "value": 270
  },
  "wind_gust": {
    "repr": "18",
    "spoken": "one eight",
    "value": 18
  },
  "wind_speed": {
    "repr": "12",
    "spoken": "one two",
    "value": 12
  },
  "wind_variable_direction": [],
  "wx_codes": []
}
