{
  "meta": {
    "timestamp": "2023-10-23T10:03:14.058956Z",
    "stations_updated": "2023-10-01"
  },
  "altimeter": {
    "repr": "A2998",
    "value": 29.98,
    "spoken": "two nine point nine eight"
  },
  "clouds": [
    {
      "repr": "SCT002",
      "type": "SCT",
      "altitude": 2,
      "modifier": null
    },
    {
      "repr": "OVC019",
      "type": "OVC",
      "altitude": 19,
      "modifier": null
    }
  ],
  "flight_rules": "MVFR",
  "other": [],
  "visibility": {
    "repr": "7",
    "value": 7,
    "spoken": "seven"
  },
  "wind_direction": {
    "repr": "000",
    "value": 0,
    "spoken": "zero zero zero"
  },
  "wind_gust": null,
  "wind_speed": {
    "repr": "00",
    "value": 0,
    "spoken": "zero"
  },
  "wx_codes": [],
  "raw": "KAWO 230956Z AUTO 00000KT 7SM SCT002 OVC019 08/08 A2998 RMK AO2 SLP157 T00830078 KAWO 230920Z AUTO 00000KT 9SM FEW002 BKN023 OVC040 07/07 A2998 RMK AO2 KAWO 230909Z AUTO 00000KT 7SM SCT023 OVC040 07/07 A2998 RMK AO2 KAWO 230856Z AUTO 00000KT 2 1/2SM BR FEW023 OVC040 07/07 A2998 RMK AO2 SLP156 T00670067 50002 KAWO 230851Z AUTO 00000KT 3SM BR OVC040 07/07 A2998 RMK AO2 KAWO 230845Z AUTO 00000KT 1 1/2SM BR OVC040 07/07 A2998 RMK AO2 KAWO 230837Z AUTO 00000KT 1SM BR OVC040 07/06 A2998 RMK AO2 KAWO 230811Z AUTO 00000KT 1/2SM FG FEW010 OVC040 07/07 A2998 RMK AO2",
  "sanitized": "KAWO 230956Z 00000KT 7SM SCT002 OVC019 08/08 A2998 RMK AO2 SLP157 T00830078 KAWO 230920Z AUTO 00000KT 9SM FEW002 BKN023 OVC040 07/07 A2998 RMK AO2 KAWO 230909Z AUTO 00000KT 7SM SCT023 OVC040 07/07 A2998 RMK AO2 KAWO 230856Z AUTO 00000KT 2 1/2SM BR FEW023 OVC040 07/07 A2998 RMK AO2 SLP156 T00670067 50002 KAWO 230851Z AUTO 00000KT 3SM BR OVC040 07/07 A2998 RMK AO2 KAWO 230845Z AUTO 00000KT 1 1/2SM BR OVC040 07/07 A2998 RMK AO2 KAWO 230837Z AUTO 00000KT 1SM BR OVC040 07/06 A2998 RMK AO2 KAWO 230811Z AUTO 00000KT 1/2SM FG FEW010 OVC040 07/07 A2998 RMK AO2",
  "station": "KAWO",
  "time": {
    "repr": "230956Z",
    "dt": "2023-10-23T09:56:00Z"
  },
  "remarks": "RMK AO2 SLP157 T00830078 KAWO 230920Z AUTO 00000KT 9SM FEW002 BKN023 OVC040 07/07 A2998 RMK AO2 KAWO 230909Z AUTO 00000KT 7SM SCT023 OVC040 07/07 A2998 RMK AO2 KAWO 230856Z AUTO 00000KT 2 1/2SM BR FEW023 OVC040 07/07 A2998 RMK AO2 SLP156 T00670067 50002 KAWO 230851Z AUTO 00000KT 3SM BR OVC040 07/07 A2998 RMK AO2 KAWO 230845Z AUTO 00000KT 1 1/2SM BR OVC040 07/07 A2998 RMK AO2 KAWO 230837Z AUTO 00000KT 1SM BR OVC040 07/06 A2998 RMK AO2 KAWO 230811Z AUTO 00000KT 1/2SM FG FEW010 OVC040 07/07 A2998 RMK AO2",
  "dewpoint": {
    "repr": "08",
    "value": 8,
    "spoken": "eight"
  },
  "relative_humidity": 1,
  "remarks_info": {
    "maximum_temperature_6": null,
    "minimum_temperature_6": null,
    "pressure_tendency": {
      "repr": "50002",
      "tendency": "Increasing, then decreasing",
      "change": 0.2
    },
    "precip_36_hours": null,
    "precip_24_hours": null,
    "sunshine_minutes": null,
    "codes": [
      {
        "repr": "AO2",
        "value": "Automated with precipitation sensor"
      },
      {
        "repr": "AO2",
        "value": "Automated with precipitation sensor"
      },
      {
        "repr": "AO2",
        "value": "Automated with precipitation sensor"
      },
      {
        "repr": "AO2",
        "value": "Automated with precipitation sensor"
      },
      {
        "repr": "AO2",
        "value": "Automated with precipitation sensor"
      },
      {
        "repr": "AO2",
        "value": "Automated with precipitation sensor"
      },
      {
        "repr": "AO2",
        "value": "Automated with precipitation sensor"
      },
      {
        "repr": "AO2",
        "value": "Automated with precipitation sensor"
      }
    ],
    "dewpoint_decimal": {
      "repr": "0067",
      "value": 6.7,
      "spoken": "six point seven"
    },
    "maximum_temperature_24": null,
    "minimum_temperature_24": null,
    "precip_hourly": null,
    "sea_level_pressure": {
      "repr": "SLP157",
      "value": 1015.7,
      "spoken": "one zero one five point seven"
    },
    "snow_depth": null,
    "temperature_decimal": {
      "repr": "0067",
      "value": 6.7,
      "spoken": "six point seven"
    }
  },
  "runway_visibility": [],
  "temperature": {
    "repr": "08",
    "value": 8,
    "spoken": "eight"
  },
  "wind_variable_direction": [],
  "density_altitude": -880,
  "pressure_altitude": 82,
  "units": {
    "accumulation": "in",
    "altimeter": "inHg",
    "altitude": "ft",
    "temperature": "C",
    "visibility": "sm",
    "wind_speed": "kt"
  }
}
