{
  "meta": {
    "timestamp": "2023-01-05T02:48:11.097350Z",
    "stations_updated": "2022-12-27"
  },
  "altimeter": {
    "repr": "A2965",
    "value": 29.65,
    "spoken": "two nine point six five"
  },
  "clouds": [
    {
      "repr": "BKN100",
      "type": "BKN",
      "altitude": 100,
      "modifier": null
    }
  ],
  "flight_rules": "VFR",
  "other": [],
  "visibility": {
    "repr": "10",
    "value": 10,
    "spoken": "one zero"
  },
  "wind_direction": {
    "repr": "110",
    "value": 110,
    "spoken": "one one zero"
  },
  "wind_gust": null,
  "wind_speed": {
    "repr": "05",
    "value": 5,
    "spoken": "five"
  },
  "wx_codes": [],
  "raw": "KAWO 050156Z AUTO 11005KT 10SM BKN100 10/M01 A2965 RMK AO2 SLP044 T01001011",
  "sanitized": "KAWO 050156Z 11005KT 10SM BKN100 10/M01 A2965 RMK AO2 SLP044 T01001011",
  "station": "KAWO",
  "time": {
    "repr": "050156Z",
    "dt": "2023-01-05T01:56:00Z"
  },
  "remarks": "RMK AO2 SLP044 T01001011",
  "dewpoint": {
    "repr": "M01",
    "value": -1,
    "spoken": "minus one"
  },
  "relative_humidity": 0.45967890599437056,
  "remarks_info": {
    "maximum_temperature_6": null,
    "minimum_temperature_6": null,
    "pressure_tendency": null,
    "precip_36_hours": null,
    "precip_24_hours": null,
    "sunshine_minutes": null,
    "codes": [
      {
        "repr": "AO2",
        "value": "Automated with precipitation sensor"
      }
    ],
    "dewpoint_decimal": {
      "repr": "1011",
      "value": -1.1,
      "spoken": "minus one point one"
    },
    "maximum_temperature_24": null,
    "minimum_temperature_24": null,
    "precip_hourly": null,
    "sea_level_pressure": {
      "repr": "SLP044",
      "value": 1004.4,
      "spoken": "one zero zero four point four"
    },
    "snow_depth": null,
    "temperature_decimal": {
      "repr": "0100",
      "value": 10,
      "spoken": "one zero point zero"
    }
  },
  "runway_visibility": [],
  "temperature": {
    "repr": "10",
    "value": 10,
    "spoken": "one zero"
  },
  "wind_variable_direction": [],
  "density_altitude": -154,
  "pressure_altitude": 412,
  "units": {
    "accumulation": "in",
    "altimeter": "inHg",
    "altitude": "ft",
    "temperature": "C",
    "visibility": "sm",
    "wind_speed": "kt"
  }
}
