{
  "meta": {
    "timestamp": "2022-12-04T00:27:27.577136Z",
    "stations_updated": "2022-09-05"
  },
  "altimeter": {
    "repr": "A3015",
    "value": 30.15,
    "spoken": "three zero point one five"
  },
  "clouds": [],
  "flight_rules": "VFR",
  "other": [],
  "visibility": {
    "repr": "10",
    "value": 10,
    "spoken": "one zero"
  },
  "wind_direction": {
    "repr": "300",
    "value": 300,
    "spoken": "three zero zero"
  },
  "wind_gust": null,
  "wind_speed": {
    "repr": "10",
    "value": 10,
    "spoken": "one zero"
  },
  "wx_codes": [],
  "raw": "KAWO 032356Z AUTO 30010KT 10SM CLR 03/M01 A3015 RMK AO2 SLP216 T00281011 10067 20028 53001",
  "sanitized": "KAWO 032356Z 30010KT 10SM 03/M01 A3015 RMK AO2 SLP216 T00281011 10067 20028 53001",
  "station": "KAWO",
  "time": {
    "repr": "032356Z",
    "dt": "2022-12-03T23:56:00Z"
  },
  "remarks": "RMK AO2 SLP216 T00281011 10067 20028 53001",
  "dewpoint": {
    "repr": "M01",
    "value": -1,
    "spoken": "minus one"
  },
  "relative_humidity": 0.7549810549284812,
  "remarks_info": {
    "maximum_temperature_6": {
      "repr": "10067",
      "value": 6.7,
      "spoken": "six point seven"
    },
    "minimum_temperature_6": {
      "repr": "20028",
      "value": 2.8,
      "spoken": "two point eight"
    },
    "pressure_tendency": {
      "repr": "53001",
      "tendency": "Decreasing or steady, then increasing",
      "change": 0.1
    },
    "precip_36_hours": null,
    "precip_24_hours": null,
    "sunshine_minutes": null,
    "codes": [
      {
        "repr": "AO2",
        "value": "Automated with precipitation sensor"
      }
    ],
    "dewpoint_decimal": {
      "repr": "1011",
      "value": -1.1,
      "spoken": "minus one point one"
    },
    "maximum_temperature_24": null,
    "minimum_temperature_24": null,
    "precip_hourly": null,
    "sea_level_pressure": {
      "repr": "SLP216",
      "value": 1021.6,
      "spoken": "one zero two one point six"
    },
    "snow_depth": null,
    "temperature_decimal": {
      "repr": "0028",
      "value": 2.8,
      "spoken": "two point eight"
    }
  },
  "runway_visibility": [],
  "temperature": {
    "repr": "03",
    "value": 3,
    "spoken": "three"
  },
  "wind_variable_direction": [],
  "density_altitude": -1518,
  "pressure_altitude": -88,
  "units": {
    "accumulation": "in",
    "altimeter": "inHg",
    "altitude": "ft",
    "temperature": "C",
    "visibility": "sm",
    "wind_speed": "kt"
  }
}
