{
  "altimeter": {
    "repr": "A3015",
    "spoken": "three zero point one five",
    "value": 30.15
  },
  "clouds": [],
  "density_altitude": 150,
  "dewpoint": {
    "repr": "12",
    "spoken": "one two",
    "value": 12
  },
  "flight_rules": "VFR",
  "meta": {
    "stations_updated": "2024-06-12",
    "timestamp": "2024-09-22T18:32:41.849765Z"
  },
  "other": [],
  "pressure_altitude": -88,
  "raw": "KAWO 221756Z AUTO 30003KT 10SM CLR 17/12 A3015 RMK AO2 SLP214 T01670117 10167 20078 53004",
  "relative_humidity": 0.723265054976854,
  "remarks": "RMK AO2 SLP214 T01670117 10167 20078 53004",
  "remarks_info": {
    "codes": [
      {
        "repr": "AO2",
        "value": "Automated with precipitation sensor"
      }
    ],
    "dewpoint_decimal": {
      "repr": "0117",
      "spoken": "one one point seven",
      "value": 11.7
    },
    "maximum_temperature_24": null,
    "maximum_temperature_6": {
      "repr": "10167",
      "spoken": "one six point seven",
      "value": 16.7
    },
    "minimum_temperature_24": null,
    "minimum_temperature_6": {
      "repr": "20078",
      "spoken": "seven point eight",
      "value": 7.8
    },
    "precip_24_hours": null,
    "precip_36_hours": null,
    "precip_hourly": null,
    "pressure_tendency": {
      "change": 0.4,
      "repr": "53004",
      "tendency": "Decreasing or steady, then increasing"
    },
    "sea_level_pressure": {
      "repr": "SLP214",
      "spoken": "one zero two one point four",
      "value": 1021.4
    },
    "snow_depth": null,
    "sunshine_minutes": null,
    "temperature_decimal": {
      "repr": "0167",
      "spoken": "one six point seven",
      "value": 16.7
    }
  },
  "runway_visibility": [],
  "sanitized": "KAWO 221756Z 30003KT 10SM 17/12 A3015 RMK AO2 SLP214 T01670117 10167 20078 53004",
  "station": "KAWO",
  "temperature": {
    "repr": "17",
    "spoken": "one seven",
    "value": 17
  },
  "time": {
    "dt": "2024-09-22T17:56:00Z",
    "repr": "221756Z"
  },
  "units": {
    "accumulation": "in",
    "altimeter": "inHg",
    "altitude": "ft",
    "temperature": "C",
    "visibility": "sm",
    "wind_speed": "kt"
  },
  "visibility": {
    "repr": "10",
    "spoken": "one zero",
    "value": 10
  },
  "wind_direction": {
    "repr": "300",
    "spoken": "three zero zero",
    "value": 300
  },
  "wind_gust": null,
  "wind_speed": {
    "repr": "03",
    "spoken": "three",
    "value": 3
  },
  "wind_variable_direction": [],
  "wx_codes": []
}
