{
  "altimeter": {
    "repr": "A3074",
    "spoken": "three zero point seven four",
    "value": 30.74
  },
  "clouds": [],
  "density_altitude": -3176,
  "dewpoint": {
    "repr": "M07",
    "spoken": "minus seven",
    "value": -7
  },
  "flight_rules": "VFR",
  "meta": {
    "stations_updated": "2024-12-02",
    "timestamp": "2025-01-22T14:30:34.267706Z"
  },
  "other": [],
  "pressure_altitude": -678,
  "raw": "KAWO 221356Z AUTO 06003KT 10SM CLR M06/M07 A3074 RMK AO2 SLP416 T10611067 FZRANO",
  "relative_humidity": 0.9551160989799112,
  "remarks": "RMK AO2 SLP416 T10611067 FZRANO",
  "remarks_info": {
    "codes": [
      {
        "repr": "AO2",
        "value": "Automated with precipitation sensor"
      },
      {
        "repr": "FZRANO",
        "value": "Freezing rain information not available"
      }
    ],
    "dewpoint_decimal": {
      "repr": "1067",
      "spoken": "minus six point seven",
      "value": -6.7
    },
    "maximum_temperature_24": null,
    "maximum_temperature_6": null,
    "minimum_temperature_24": null,
    "minimum_temperature_6": null,
    "precip_24_hours": null,
    "precip_36_hours": null,
    "precip_hourly": null,
    "pressure_tendency": null,
    "sea_level_pressure": {
      "repr": "SLP416",
      "spoken": "one zero four one point six",
      "value": 1041.6
    },
    "snow_depth": null,
    "sunshine_minutes": null,
    "temperature_decimal": {
      "repr": "1061",
      "spoken": "minus six point one",
      "value": -6.1
    }
  },
  "runway_visibility": [],
  "sanitized": "KAWO 221356Z 06003KT 10SM M06/M07 A3074 RMK AO2 SLP416 T10611067 FZRANO",
  "station": "KAWO",
  "temperature": {
    "repr": "M06",
    "spoken": "minus six",
    "value": -6
  },
  "time": {
    "dt": "2025-01-22T13:56:00Z",
    "repr": "221356Z"
  },
  "units": {
    "accumulation": "in",
    "altimeter": "inHg",
    "altitude": "ft",
    "temperature": "C",
    "visibility": "sm",
    "wind_speed": "kt"
  },
  "visibility": {
    "repr": "10",
    "spoken": "one zero",
    "value": 10
  },
  "wind_direction": {
    "repr": "060",
    "spoken": "zero six zero",
    "value": 60
  },
  "wind_gust": null,
  "wind_speed": {
    "repr": "03",
    "spoken": "three",
    "value": 3
  },
  "wind_variable_direction": [],
  "wx_codes": []
}
