{
  "meta": {
    "timestamp": "2022-11-18T13:51:42.382531Z",
    "stations_updated": "2022-09-05"
  },
  "altimeter": {
    "repr": "A3052",
    "value": 30.52,
    "spoken": "three zero point five two"
  },
  "clouds": [],
  "flight_rules": "VFR",
  "other": [],
  "visibility": {
    "repr": "10",
    "value": 10,
    "spoken": "one zero"
  },
  "wind_direction": {
    "repr": "350",
    "value": 350,
    "spoken": "three five zero"
  },
  "wind_gust": null,
  "wind_speed": {
    "repr": "03",
    "value": 3,
    "spoken": "three"
  },
  "wx_codes": [],
  "raw": "KAWO 181256Z AUTO 35003KT 10SM CLR M06/M07 A3052 RMK AO2 SLP341 T10611072 FZRANO",
  "sanitized": "KAWO 181256Z 35003KT 10SM M06/M07 A3052 RMK AO2 SLP341 T10611072 FZRANO",
  "station": "KAWO",
  "time": {
    "repr": "181256Z",
    "dt": "2022-11-18T12:56:00Z"
  },
  "remarks": "RMK AO2 SLP341 T10611072 FZRANO",
  "dewpoint": {
    "repr": "M07",
    "value": -7,
    "spoken": "minus seven"
  },
  "relative_humidity": 0.9190918945707459,
  "remarks_info": {
    "maximum_temperature_6": null,
    "minimum_temperature_6": null,
    "pressure_tendency": null,
    "precip_36_hours": null,
    "precip_24_hours": null,
    "sunshine_minutes": null,
    "codes": [
      {
        "repr": "AO2",
        "value": "Automated with precipitation sensor"
      },
      {
        "repr": "FZRANO",
        "value": "Freezing rain information not available"
      }
    ],
    "dewpoint_decimal": {
      "repr": "1072",
      "value": -7.2,
      "spoken": "minus seven point two"
    },
    "maximum_temperature_24": null,
    "minimum_temperature_24": null,
    "precip_hourly": null,
    "sea_level_pressure": {
      "repr": "SLP341",
      "value": 1034.1,
      "spoken": "one zero three four point one"
    },
    "snow_depth": null,
    "temperature_decimal": {
      "repr": "1061",
      "value": -6.1,
      "spoken": "minus six point one"
    }
  },
  "runway_visibility": [],
  "temperature": {
    "repr": "M06",
    "value": -6,
    "spoken": "minus six"
  },
  "wind_variable_direction": [],
  "density_altitude": -2956,
  "pressure_altitude": -458,
  "units": {
    "accumulation": "in",
    "altimeter": "inHg",
    "altitude": "ft",
    "temperature": "C",
    "visibility": "sm",
    "wind_speed": "kt"
  }
}
