{
  "altimeter": {
    "repr": "A3004",
    "spoken": "three zero point zero four",
    "value": 30.04
  },
  "clouds": [],
  "density_altitude": -3208,
  "dewpoint": {
    "repr": "M14",
    "spoken": "minus one four",
    "value": -14
  },
  "flight_rules": "VFR",
  "meta": {
    "cache-timestamp": "2024-01-13T17:40:04.333000Z",
    "stations_updated": "2023-10-28",
    "timestamp": "2024-01-13T17:40:37.039587Z"
  },
  "other": [],
  "pressure_altitude": 22,
  "raw": "KAWO 131656Z AUTO 00000KT 10SM CLR M12/M14 A3004 RMK AO2 SLP182 T11221144 FZRANO",
  "relative_humidity": 0.8364142576952129,
  "remarks": "RMK AO2 SLP182 T11221144 FZRANO",
  "remarks_info": {
    "codes": [
      {
        "repr": "AO2",
        "value": "Automated with precipitation sensor"
      },
      {
        "repr": "FZRANO",
        "value": "Freezing rain information not available"
      }
    ],
    "dewpoint_decimal": {
      "repr": "1144",
      "spoken": "minus one four point four",
      "value": -14.4
    },
    "maximum_temperature_24": null,
    "maximum_temperature_6": null,
    "minimum_temperature_24": null,
    "minimum_temperature_6": null,
    "precip_24_hours": null,
    "precip_36_hours": null,
    "precip_hourly": null,
    "pressure_tendency": null,
    "sea_level_pressure": {
      "repr": "SLP182",
      "spoken": "one zero one eight point two",
      "value": 1018.2
    },
    "snow_depth": null,
    "sunshine_minutes": null,
    "temperature_decimal": {
      "repr": "1122",
      "spoken": "minus one two point two",
      "value": -12.2
    }
  },
  "runway_visibility": [],
  "sanitized": "KAWO 131656Z 00000KT 10SM M12/M14 A3004 RMK AO2 SLP182 T11221144 FZRANO",
  "station": "KAWO",
  "temperature": {
    "repr": "M12",
    "spoken": "minus one two",
    "value": -12
  },
  "time": {
    "dt": "2024-01-13T16:56:00Z",
    "repr": "131656Z"
  },
  "units": {
    "accumulation": "in",
    "altimeter": "inHg",
    "altitude": "ft",
    "temperature": "C",
    "visibility": "sm",
    "wind_speed": "kt"
  },
  "visibility": {
    "repr": "10",
    "spoken": "one zero",
    "value": 10
  },
  "wind_direction": {
    "repr": "000",
    "spoken": "zero zero zero",
    "value": 0
  },
  "wind_gust": null,
  "wind_speed": {
    "repr": "00",
    "spoken": "zero",
    "value": 0
  },
  "wind_variable_direction": [],
  "wx_codes": []
}
