{
  "meta": {
    "timestamp": "2023-07-04T03:36:21.325220Z",
    "stations_updated": "2023-06-06",
    "cache-timestamp": "2023-07-04T03:36:03.320000Z"
  },
  "altimeter": {
    "repr": "A3002",
    "value": 30.02,
    "spoken": "three zero point zero two"
  },
  "clouds": [],
  "flight_rules": "VFR",
  "other": [],
  "visibility": {
    "repr": "10",
    "value": 10,
    "spoken": "one zero"
  },
  "wind_direction": {
    "repr": "300",
    "value": 300,
    "spoken": "three zero zero"
  },
  "wind_gust": null,
  "wind_speed": {
    "repr": "10",
    "value": 10,
    "spoken": "one zero"
  },
  "wx_codes": [],
  "raw": "KAWO 040256Z AUTO 30010KT 10SM CLR 23/08 A3002 RMK AO2 SLP168 T02280083 56004",
  "sanitized": "KAWO 040256Z 30010KT 10SM 23/08 A3002 RMK AO2 SLP168 T02280083 56004",
  "station": "KAWO",
  "time": {
    "repr": "040256Z",
    "dt": "2023-07-04T02:56:00Z"
  },
  "remarks": "RMK AO2 SLP168 T02280083 56004",
  "dewpoint": {
    "repr": "08",
    "value": 8,
    "spoken": "eight"
  },
  "relative_humidity": 0.3943900707281157,
  "remarks_info": {
    "maximum_temperature_6": null,
    "minimum_temperature_6": null,
    "pressure_tendency": {
      "repr": "56004",
      "tendency": "Decreasing, then steady",
      "change": 0.4
    },
    "precip_36_hours": null,
    "precip_24_hours": null,
    "sunshine_minutes": null,
    "codes": [
      {
        "repr": "AO2",
        "value": "Automated with precipitation sensor"
      }
    ],
    "dewpoint_decimal": {
      "repr": "0083",
      "value": 8.3,
      "spoken": "eight point three"
    },
    "maximum_temperature_24": null,
    "minimum_temperature_24": null,
    "precip_hourly": null,
    "sea_level_pressure": {
      "repr": "SLP168",
      "value": 1016.8,
      "spoken": "one zero one six point eight"
    },
    "snow_depth": null,
    "temperature_decimal": {
      "repr": "0228",
      "value": 22.8,
      "spoken": "two two point eight"
    }
  },
  "runway_visibility": [],
  "temperature": {
    "repr": "23",
    "value": 23,
    "spoken": "two three"
  },
  "wind_variable_direction": [],
  "density_altitude": 1012,
  "pressure_altitude": 42,
  "units": {
    "accumulation": "in",
    "altimeter": "inHg",
    "altitude": "ft",
    "temperature": "C",
    "visibility": "sm",
    "wind_speed": "kt"
  }
}
