{
  "meta": {
    "timestamp": "2022-11-13T18:48:47.350978Z",
    "stations_updated": "2022-09-05"
  },
  "altimeter": {
    "repr": "A3043",
    "value": 30.43,
    "spoken": "three zero point four three"
  },
  "clouds": [],
  "flight_rules": "VFR",
  "other": [],
  "visibility": {
    "repr": "10",
    "value": 10,
    "spoken": "one zero"
  },
  "wind_direction": {
    "repr": "000",
    "value": 0,
    "spoken": "zero zero zero"
  },
  "wind_gust": null,
  "wind_speed": {
    "repr": "00",
    "value": 0,
    "spoken": "zero"
  },
  "wx_codes": [],
  "raw": "KAWO 131756Z AUTO 00000KT 10SM CLR 04/03 A3043 RMK AO2 SLP311 T00440028 10044 21017 51015",
  "sanitized": "KAWO 131756Z 00000KT 10SM 04/03 A3043 RMK AO2 SLP311 T00440028 10044 21017 51015",
  "station": "KAWO",
  "time": {
    "repr": "131756Z",
    "dt": "2022-11-13T17:56:00Z"
  },
  "remarks": "RMK AO2 SLP311 T00440028 10044 21017 51015",
  "dewpoint": {
    "repr": "03",
    "value": 3,
    "spoken": "three"
  },
  "relative_humidity": 0.893374437578054,
  "remarks_info": {
    "maximum_temperature_6": {
      "repr": "10044",
      "value": 4.4,
      "spoken": "four point four"
    },
    "minimum_temperature_6": {
      "repr": "21017",
      "value": -1.7,
      "spoken": "minus one point seven"
    },
    "pressure_tendency": {
      "repr": "51015",
      "tendency": "Increasing, then steady",
      "change": 1.5
    },
    "precip_36_hours": null,
    "precip_24_hours": null,
    "sunshine_minutes": null,
    "codes": [
      {
        "repr": "AO2",
        "value": "Automated with precipitation sensor"
      }
    ],
    "dewpoint_decimal": {
      "repr": "0028",
      "value": 2.8,
      "spoken": "two point eight"
    },
    "maximum_temperature_24": null,
    "minimum_temperature_24": null,
    "precip_hourly": null,
    "sea_level_pressure": {
      "repr": "SLP311",
      "value": 1031.1,
      "spoken": "one zero three one point one"
    },
    "snow_depth": null,
    "temperature_decimal": {
      "repr": "0044",
      "value": 4.4,
      "spoken": "four point four"
    }
  },
  "runway_visibility": [],
  "temperature": {
    "repr": "04",
    "value": 4,
    "spoken": "four"
  },
  "wind_variable_direction": [],
  "density_altitude": -1606,
  "pressure_altitude": -368,
  "units": {
    "accumulation": "in",
    "altimeter": "inHg",
    "altitude": "ft",
    "temperature": "C",
    "visibility": "sm",
    "wind_speed": "kt"
  }
}
