{
  "meta": {
    "timestamp": "2023-07-21T20:01:35.558039Z",
    "stations_updated": "2023-06-06"
  },
  "altimeter": {
    "repr": "A3013",
    "value": 30.13,
    "spoken": "three zero point one three"
  },
  "clouds": [],
  "flight_rules": "VFR",
  "other": [],
  "visibility": {
    "repr": "10",
    "value": 10,
    "spoken": "one zero"
  },
  "wind_direction": {
    "repr": "210",
    "value": 210,
    "spoken": "two one zero"
  },
  "wind_gust": null,
  "wind_speed": {
    "repr": "07",
    "value": 7,
    "spoken": "seven"
  },
  "wx_codes": [],
  "raw": "KAWO 211956Z AUTO 21007KT 10SM CLR 23/14 A3013 RMK AO2 SLP205 T02330144",
  "sanitized": "KAWO 211956Z 21007KT 10SM 23/14 A3013 RMK AO2 SLP205 T02330144",
  "station": "KAWO",
  "time": {
    "repr": "211956Z",
    "dt": "2023-07-21T19:56:00Z"
  },
  "remarks": "RMK AO2 SLP205 T02330144",
  "dewpoint": {
    "repr": "14",
    "value": 14,
    "spoken": "one four"
  },
  "relative_humidity": 0.5731947680883951,
  "remarks_info": {
    "maximum_temperature_6": null,
    "minimum_temperature_6": null,
    "pressure_tendency": null,
    "precip_36_hours": null,
    "precip_24_hours": null,
    "sunshine_minutes": null,
    "codes": [
      {
        "repr": "AO2",
        "value": "Automated with precipitation sensor"
      }
    ],
    "dewpoint_decimal": {
      "repr": "0144",
      "value": 14.4,
      "spoken": "one four point four"
    },
    "maximum_temperature_24": null,
    "minimum_temperature_24": null,
    "precip_hourly": null,
    "sea_level_pressure": {
      "repr": "SLP205",
      "value": 1020.5,
      "spoken": "one zero two zero point five"
    },
    "snow_depth": null,
    "temperature_decimal": {
      "repr": "0233",
      "value": 23.3,
      "spoken": "two three point three"
    }
  },
  "runway_visibility": [],
  "temperature": {
    "repr": "23",
    "value": 23,
    "spoken": "two three"
  },
  "wind_variable_direction": [],
  "density_altitude": 962,
  "pressure_altitude": -68,
  "units": {
    "accumulation": "in",
    "altimeter": "inHg",
    "altitude": "ft",
    "temperature": "C",
    "visibility": "sm",
    "wind_speed": "kt"
  }
}
