{
  "meta": {
    "timestamp": "2023-06-09T05:01:35.923287Z",
    "stations_updated": "2023-06-06"
  },
  "altimeter": {
    "repr": "A2995",
    "value": 29.95,
    "spoken": "two nine point nine five"
  },
  "clouds": [],
  "flight_rules": "VFR",
  "other": [],
  "visibility": {
    "repr": "10",
    "value": 10,
    "spoken": "one zero"
  },
  "wind_direction": {
    "repr": "300",
    "value": 300,
    "spoken": "three zero zero"
  },
  "wind_gust": null,
  "wind_speed": {
    "repr": "07",
    "value": 7,
    "spoken": "seven"
  },
  "wx_codes": [],
  "raw": "KAWO 090456Z AUTO 30007KT 10SM CLR 15/10 A2995 RMK AO2 SLP144 T01500100",
  "sanitized": "KAWO 090456Z 30007KT 10SM 15/10 A2995 RMK AO2 SLP144 T01500100",
  "station": "KAWO",
  "time": {
    "repr": "090456Z",
    "dt": "2023-06-09T04:56:00Z"
  },
  "remarks": "RMK AO2 SLP144 T01500100",
  "dewpoint": {
    "repr": "10",
    "value": 10,
    "spoken": "one zero"
  },
  "relative_humidity": 0.7201490523980751,
  "remarks_info": {
    "maximum_temperature_6": null,
    "minimum_temperature_6": null,
    "pressure_tendency": null,
    "precip_36_hours": null,
    "precip_24_hours": null,
    "sunshine_minutes": null,
    "codes": [
      {
        "repr": "AO2",
        "value": "Automated with precipitation sensor"
      }
    ],
    "dewpoint_decimal": {
      "repr": "0100",
      "value": 10,
      "spoken": "one zero point zero"
    },
    "maximum_temperature_24": null,
    "minimum_temperature_24": null,
    "precip_hourly": null,
    "sea_level_pressure": {
      "repr": "SLP144",
      "value": 1014.4,
      "spoken": "one zero one four point four"
    },
    "snow_depth": null,
    "temperature_decimal": {
      "repr": "0150",
      "value": 15,
      "spoken": "one five point zero"
    }
  },
  "runway_visibility": [],
  "temperature": {
    "repr": "15",
    "value": 15,
    "spoken": "one five"
  },
  "wind_variable_direction": [],
  "density_altitude": 146,
  "pressure_altitude": 112,
  "units": {
    "accumulation": "in",
    "altimeter": "inHg",
    "altitude": "ft",
    "temperature": "C",
    "visibility": "sm",
    "wind_speed": "kt"
  }
}
