{
  "meta": {
    "timestamp": "2023-08-27T01:35:22.412723Z",
    "stations_updated": "2023-08-05"
  },
  "altimeter": {
    "repr": "A2994",
    "value": 29.94,
    "spoken": "two nine point nine four"
  },
  "clouds": [],
  "flight_rules": "VFR",
  "other": [],
  "visibility": {
    "repr": "9",
    "value": 9,
    "spoken": "nine"
  },
  "wind_direction": {
    "repr": "300",
    "value": 300,
    "spoken": "three zero zero"
  },
  "wind_gust": null,
  "wind_speed": {
    "repr": "12",
    "value": 12,
    "spoken": "one two"
  },
  "wx_codes": [],
  "raw": "KAWO 270056Z AUTO 30012KT 9SM CLR 28/12 A2994 RMK AO2 SLP140 T02780117",
  "sanitized": "KAWO 270056Z 30012KT 9SM 28/12 A2994 RMK AO2 SLP140 T02780117",
  "station": "KAWO",
  "time": {
    "repr": "270056Z",
    "dt": "2023-08-27T00:56:00Z"
  },
  "remarks": "RMK AO2 SLP140 T02780117",
  "dewpoint": {
    "repr": "12",
    "value": 12,
    "spoken": "one two"
  },
  "relative_humidity": 0.3676838287524064,
  "remarks_info": {
    "maximum_temperature_6": null,
    "minimum_temperature_6": null,
    "pressure_tendency": null,
    "precip_36_hours": null,
    "precip_24_hours": null,
    "sunshine_minutes": null,
    "codes": [
      {
        "repr": "AO2",
        "value": "Automated with precipitation sensor"
      }
    ],
    "dewpoint_decimal": {
      "repr": "0117",
      "value": 11.7,
      "spoken": "one one point seven"
    },
    "maximum_temperature_24": null,
    "minimum_temperature_24": null,
    "precip_hourly": null,
    "sea_level_pressure": {
      "repr": "SLP140",
      "value": 1014,
      "spoken": "one zero one four point zero"
    },
    "snow_depth": null,
    "temperature_decimal": {
      "repr": "0278",
      "value": 27.8,
      "spoken": "two seven point eight"
    }
  },
  "runway_visibility": [],
  "temperature": {
    "repr": "28",
    "value": 28,
    "spoken": "two eight"
  },
  "wind_variable_direction": [],
  "density_altitude": 1692,
  "pressure_altitude": 122,
  "units": {
    "accumulation": "in",
    "altimeter": "inHg",
    "altitude": "ft",
    "temperature": "C",
    "visibility": "sm",
    "wind_speed": "kt"
  }
}
