{
  "meta": {
    "timestamp": "2022-11-24T08:33:45.651129Z",
    "stations_updated": "2022-09-05"
  },
  "altimeter": {
    "repr": "A3034",
    "value": 30.34,
    "spoken": "three zero point three four"
  },
  "clouds": [],
  "flight_rules": "VFR",
  "other": [],
  "visibility": {
    "repr": "10",
    "value": 10,
    "spoken": "one zero"
  },
  "wind_direction": {
    "repr": "VRB",
    "value": null,
    "spoken": "variable"
  },
  "wind_gust": null,
  "wind_speed": {
    "repr": "06",
    "value": 6,
    "spoken": "six"
  },
  "wx_codes": [],
  "raw": "KAWO 240756Z AUTO VRB06KT 10SM CLR 06/03 A3034 RMK AO2 SLP278 T00610028 401220011",
  "sanitized": "KAWO 240756Z VRB06KT 10SM 06/03 A3034 RMK AO2 SLP278 T00610028 401220011",
  "station": "KAWO",
  "time": {
    "repr": "240756Z",
    "dt": "2022-11-24T07:56:00Z"
  },
  "remarks": "RMK AO2 SLP278 T00610028 401220011",
  "dewpoint": {
    "repr": "03",
    "value": 3,
    "spoken": "three"
  },
  "relative_humidity": 0.7937696580662857,
  "remarks_info": {
    "maximum_temperature_6": null,
    "minimum_temperature_6": null,
    "pressure_tendency": null,
    "precip_36_hours": null,
    "precip_24_hours": null,
    "sunshine_minutes": null,
    "codes": [
      {
        "repr": "AO2",
        "value": "Automated with precipitation sensor"
      }
    ],
    "dewpoint_decimal": {
      "repr": "0028",
      "value": 2.8,
      "spoken": "two point eight"
    },
    "maximum_temperature_24": {
      "repr": "0122",
      "value": 12.2,
      "spoken": "one two point two"
    },
    "minimum_temperature_24": {
      "repr": "0011",
      "value": 1.1,
      "spoken": "one point one"
    },
    "precip_hourly": null,
    "sea_level_pressure": {
      "repr": "SLP278",
      "value": 1027.8,
      "spoken": "one zero two seven point eight"
    },
    "snow_depth": null,
    "temperature_decimal": {
      "repr": "0061",
      "value": 6.1,
      "spoken": "six point one"
    }
  },
  "runway_visibility": [],
  "temperature": {
    "repr": "06",
    "value": 6,
    "spoken": "six"
  },
  "wind_variable_direction": [],
  "density_altitude": -1312,
  "pressure_altitude": -278,
  "units": {
    "accumulation": "in",
    "altimeter": "inHg",
    "altitude": "ft",
    "temperature": "C",
    "visibility": "sm",
    "wind_speed": "kt"
  }
}
