{
  "altimeter": {
    "repr": "A2995",
    "spoken": "two nine point nine five",
    "value": 29.95
  },
  "clouds": [
    {
      "altitude": 95,
      "modifier": null,
      "repr": "OVC095",
      "type": "OVC"
    }
  ],
  "density_altitude": 386,
  "dewpoint": {
    "repr": "01",
    "spoken": "one",
    "value": 1
  },
  "flight_rules": "VFR",
  "meta": {
    "cache-timestamp": "2024-04-20T23:40:05.317000Z",
    "stations_updated": "2024-01-01",
    "timestamp": "2024-04-20T23:40:31.326199Z"
  },
  "other": [],
  "pressure_altitude": 112,
  "raw": "KAWO 202323Z AUTO 25011G17KT 10SM OVC095 17/01 A2995 RMK AO2 PK WND 21026/2302 WSHFT 2303",
  "relative_humidity": 0.3393040536392415,
  "remarks": "RMK AO2 PK WND 21026/2302 WSHFT 2303",
  "remarks_info": {
    "codes": [
      {
        "repr": "AO2",
        "value": "Automated with precipitation sensor"
      }
    ],
    "dewpoint_decimal": null,
    "maximum_temperature_24": null,
    "maximum_temperature_6": null,
    "minimum_temperature_24": null,
    "minimum_temperature_6": null,
    "precip_24_hours": null,
    "precip_36_hours": null,
    "precip_hourly": null,
    "pressure_tendency": null,
    "sea_level_pressure": null,
    "snow_depth": null,
    "sunshine_minutes": null,
    "temperature_decimal": null
  },
  "runway_visibility": [],
  "sanitized": "KAWO 202323Z 25011G17KT 10SM OVC095 17/01 A2995 RMK AO2 PK WND 21026/2302 WSHFT 2303",
  "station": "KAWO",
  "temperature": {
    "repr": "17",
    "spoken": "one seven",
    "value": 17
  },
  "time": {
    "dt": "2024-04-20T23:23:00Z",
    "repr": "202323Z"
  },
  "units": {
    "accumulation": "in",
    "altimeter": "inHg",
    "altitude": "ft",
    "temperature": "C",
    "visibility": "sm",
    "wind_speed": "kt"
  },
  "visibility": {
    "repr": "10",
    "spoken": "one zero",
    "value": 10
  },
  "wind_direction": {
    "repr": "250",
    "spoken": "two five zero",
    "value": 250
  },
  "wind_gust": {
    "repr": "17",
    "spoken": "one seven",
    "value": 17
  },
  "wind_speed": {
    "repr": "11",
    "spoken": "one one",
    "value": 11
  },
  "wind_variable_direction": [],
  "wx_codes": []
}
