{
  "meta": {
    "timestamp": "2022-10-21T19:46:46.886431Z",
    "stations_updated": "2022-09-05"
  },
  "altimeter": {
    "repr": "A2985",
    "value": 29.85,
    "spoken": "two nine point eight five"
  },
  "clouds": [
    {
      "repr": "FEW006",
      "type": "FEW",
      "altitude": 6,
      "modifier": null
    },
    {
      "repr": "BKN022",
      "type": "BKN",
      "altitude": 22,
      "modifier": null
    },
    {
      "repr": "OVC039",
      "type": "OVC",
      "altitude": 39,
      "modifier": null
    }
  ],
  "flight_rules": "MVFR",
  "other": [],
  "visibility": {
    "repr": "9",
    "value": 9,
    "spoken": "nine"
  },
  "wind_direction": {
    "repr": "040",
    "value": 40,
    "spoken": "zero four zero"
  },
  "wind_gust": null,
  "wind_speed": {
    "repr": "03",
    "value": 3,
    "spoken": "three"
  },
  "wx_codes": [
    {
      "repr": "-RA",
      "value": "Light Rain"
    }
  ],
  "raw": "KAWO 211943Z AUTO 04003KT 9SM -RA FEW006 BKN022 OVC039 09/08 A2985 RMK AO2 P0002",
  "sanitized": "KAWO 211943Z 04003KT 9SM -RA FEW006 BKN022 OVC039 09/08 A2985 RMK AO2 P0002",
  "station": "KAWO",
  "time": {
    "repr": "211943Z",
    "dt": "2022-10-21T19:43:00Z"
  },
  "remarks": "RMK AO2 P0002",
  "dewpoint": {
    "repr": "08",
    "value": 8,
    "spoken": "eight"
  },
  "relative_humidity": 0.9344901544791844,
  "remarks_info": {
    "maximum_temperature_6": null,
    "minimum_temperature_6": null,
    "pressure_tendency": null,
    "precip_36_hours": null,
    "precip_24_hours": null,
    "sunshine_minutes": null,
    "codes": [
      {
        "repr": "AO2",
        "value": "Automated with precipitation sensor"
      }
    ],
    "dewpoint_decimal": null,
    "maximum_temperature_24": null,
    "minimum_temperature_24": null,
    "precip_hourly": {
      "repr": "P0002",
      "value": 0.02,
      "spoken": "zero point zero two"
    },
    "sea_level_pressure": null,
    "snow_depth": null,
    "temperature_decimal": null
  },
  "runway_visibility": [],
  "temperature": {
    "repr": "09",
    "value": 9,
    "spoken": "nine"
  },
  "wind_variable_direction": [],
  "density_altitude": -474,
  "pressure_altitude": 212,
  "units": {
    "accumulation": "in",
    "altimeter": "inHg",
    "altitude": "ft",
    "temperature": "C",
    "visibility": "sm",
    "wind_speed": "kt"
  }
}
