{
  "meta": {
    "timestamp": "2023-10-28T23:40:38.567237Z",
    "stations_updated": "2023-10-01",
    "cache-timestamp": "2023-10-28T23:40:02.821000Z"
  },
  "altimeter": {
    "repr": "A3052",
    "value": 30.52,
    "spoken": "three zero point five two"
  },
  "clouds": [],
  "flight_rules": "VFR",
  "other": [],
  "visibility": {
    "repr": "10",
    "value": 10,
    "spoken": "one zero"
  },
  "wind_direction": {
    "repr": "300",
    "value": 300,
    "spoken": "three zero zero"
  },
  "wind_gust": null,
  "wind_speed": {
    "repr": "06",
    "value": 6,
    "spoken": "six"
  },
  "wx_codes": [],
  "raw": "KAWO 282256Z AUTO 30006KT 10SM CLR 09/M02 A3052 RMK AO2 SLP340 T00891017",
  "sanitized": "KAWO 282256Z 30006KT 10SM 09/M02 A3052 RMK AO2 SLP340 T00891017",
  "station": "KAWO",
  "time": {
    "repr": "282256Z",
    "dt": "2023-10-28T22:56:00Z"
  },
  "remarks": "RMK AO2 SLP340 T00891017",
  "dewpoint": {
    "repr": "M02",
    "value": -2,
    "spoken": "minus two"
  },
  "relative_humidity": 0.47364305371338017,
  "remarks_info": {
    "maximum_temperature_6": null,
    "minimum_temperature_6": null,
    "pressure_tendency": null,
    "precip_36_hours": null,
    "precip_24_hours": null,
    "sunshine_minutes": null,
    "codes": [
      {
        "repr": "AO2",
        "value": "Automated with precipitation sensor"
      }
    ],
    "dewpoint_decimal": {
      "repr": "1017",
      "value": -1.7,
      "spoken": "minus one point seven"
    },
    "maximum_temperature_24": null,
    "minimum_temperature_24": null,
    "precip_hourly": null,
    "sea_level_pressure": {
      "repr": "SLP340",
      "value": 1034,
      "spoken": "one zero three four point zero"
    },
    "snow_depth": null,
    "temperature_decimal": {
      "repr": "0089",
      "value": 8.9,
      "spoken": "eight point nine"
    }
  },
  "runway_visibility": [],
  "temperature": {
    "repr": "09",
    "value": 9,
    "spoken": "nine"
  },
  "wind_variable_direction": [],
  "density_altitude": -1156,
  "pressure_altitude": -458,
  "units": {
    "accumulation": "in",
    "altimeter": "inHg",
    "altitude": "ft",
    "temperature": "C",
    "visibility": "sm",
    "wind_speed": "kt"
  }
}
