{
  "meta": {
    "timestamp": "2023-10-19T11:01:36.778209Z",
    "stations_updated": "2023-10-01"
  },
  "altimeter": {
    "repr": "A3003",
    "value": 30.03,
    "spoken": "three zero point zero three"
  },
  "clouds": [],
  "flight_rules": "VFR",
  "other": [],
  "visibility": {
    "repr": "10",
    "value": 10,
    "spoken": "one zero"
  },
  "wind_direction": {
    "repr": "000",
    "value": 0,
    "spoken": "zero zero zero"
  },
  "wind_gust": null,
  "wind_speed": {
    "repr": "00",
    "value": 0,
    "spoken": "zero"
  },
  "wx_codes": [],
  "raw": "KAWO 191056Z AUTO 00000KT 10SM CLR 09/08 A3003 RMK AO2 SLP171 T00890083 KAWO 190956Z AUTO 00000KT 10SM CLR 08/08 A3003 RMK AO2 SLP174 T00830078",
  "sanitized": "KAWO 191056Z 00000KT 10SM 09/08 A3003 RMK AO2 SLP171 T00890083 KAWO 190956Z AUTO 00000KT 10SM CLR 08/08 A3003 RMK AO2 SLP174 T00830078",
  "station": "KAWO",
  "time": {
    "repr": "191056Z",
    "dt": "2023-10-19T10:56:00Z"
  },
  "remarks": "RMK AO2 SLP171 T00890083 KAWO 190956Z AUTO 00000KT 10SM CLR 08/08 A3003 RMK AO2 SLP174 T00830078",
  "dewpoint": {
    "repr": "08",
    "value": 8,
    "spoken": "eight"
  },
  "relative_humidity": 0.9665731399975396,
  "remarks_info": {
    "maximum_temperature_6": null,
    "minimum_temperature_6": null,
    "pressure_tendency": null,
    "precip_36_hours": null,
    "precip_24_hours": null,
    "sunshine_minutes": null,
    "codes": [
      {
        "repr": "AO2",
        "value": "Automated with precipitation sensor"
      },
      {
        "repr": "AO2",
        "value": "Automated with precipitation sensor"
      }
    ],
    "dewpoint_decimal": {
      "repr": "0078",
      "value": 7.8,
      "spoken": "seven point eight"
    },
    "maximum_temperature_24": null,
    "minimum_temperature_24": null,
    "precip_hourly": null,
    "sea_level_pressure": {
      "repr": "SLP171",
      "value": 1017.1,
      "spoken": "one zero one seven point one"
    },
    "snow_depth": null,
    "temperature_decimal": {
      "repr": "0083",
      "value": 8.3,
      "spoken": "eight point three"
    }
  },
  "runway_visibility": [],
  "temperature": {
    "repr": "09",
    "value": 9,
    "spoken": "nine"
  },
  "wind_variable_direction": [],
  "density_altitude": -738,
  "pressure_altitude": 32,
  "units": {
    "accumulation": "in",
    "altimeter": "inHg",
    "altitude": "ft",
    "temperature": "C",
    "visibility": "sm",
    "wind_speed": "kt"
  }
}
