{
  "altimeter": {
    "repr": "A3041",
    "spoken": "three zero point four one",
    "value": 30.41
  },
  "clouds": [
    {
      "altitude": 2,
      "modifier": null,
      "repr": "VV002",
      "type": "VV"
    }
  ],
  "density_altitude": -2594,
  "dewpoint": {
    "repr": "M05",
    "spoken": "minus five",
    "value": -5
  },
  "flight_rules": "LIFR",
  "meta": {
    "cache-timestamp": "2023-11-25T15:22:02.789000Z",
    "stations_updated": "2023-10-28",
    "timestamp": "2023-11-25T15:22:27.734426Z"
  },
  "other": [],
  "pressure_altitude": -348,
  "raw": "KAWO 251510Z AUTO 02003KT 1SM BR VV002 M04/M05 A3041 RMK AO2 FZRANO",
  "relative_humidity": 0.9274416207905862,
  "remarks": "RMK AO2 FZRANO",
  "remarks_info": {
    "codes": [
      {
        "repr": "AO2",
        "value": "Automated with precipitation sensor"
      },
      {
        "repr": "FZRANO",
        "value": "Freezing rain information not available"
      }
    ],
    "dewpoint_decimal": null,
    "maximum_temperature_24": null,
    "maximum_temperature_6": null,
    "minimum_temperature_24": null,
    "minimum_temperature_6": null,
    "precip_24_hours": null,
    "precip_36_hours": null,
    "precip_hourly": null,
    "pressure_tendency": null,
    "sea_level_pressure": null,
    "snow_depth": null,
    "sunshine_minutes": null,
    "temperature_decimal": null
  },
  "runway_visibility": [],
  "sanitized": "KAWO 251510Z 02003KT 1SM BR VV002 M04/M05 A3041 RMK AO2 FZRANO",
  "station": "KAWO",
  "temperature": {
    "repr": "M04",
    "spoken": "minus four",
    "value": -4
  },
  "time": {
    "dt": "2023-11-25T15:10:00Z",
    "repr": "251510Z"
  },
  "units": {
    "accumulation": "in",
    "altimeter": "inHg",
    "altitude": "ft",
    "temperature": "C",
    "visibility": "sm",
    "wind_speed": "kt"
  },
  "visibility": {
    "repr": "1",
    "spoken": "one",
    "value": 1
  },
  "wind_direction": {
    "repr": "020",
    "spoken": "zero two zero",
    "value": 20
  },
  "wind_gust": null,
  "wind_speed": {
    "repr": "03",
    "spoken": "three",
    "value": 3
  },
  "wind_variable_direction": [],
  "wx_codes": [
    {
      "repr": "BR",
      "value": "Mist"
    }
  ]
}
