{
  "meta": {
    "timestamp": "2023-01-24T16:04:51.377502Z",
    "stations_updated": "2023-01-16",
    "cache-timestamp": "2023-01-24T16:04:48.528000Z"
  },
  "altimeter": {
    "repr": "A3056",
    "value": 30.56,
    "spoken": "three zero point five six"
  },
  "clouds": [
    {
      "repr": "OVC022",
      "type": "OVC",
      "altitude": 22,
      "modifier": null
    }
  ],
  "flight_rules": "MVFR",
  "other": [],
  "visibility": {
    "repr": "10",
    "value": 10,
    "spoken": "one zero"
  },
  "wind_direction": {
    "repr": "000",
    "value": 0,
    "spoken": "zero zero zero"
  },
  "wind_gust": null,
  "wind_speed": {
    "repr": "00",
    "value": 0,
    "spoken": "zero"
  },
  "wx_codes": [
    {
      "repr": "-RA",
      "value": "Light Rain"
    }
  ],
  "raw": "KAWO 241456Z AUTO 00000KT 10SM -RA OVC022 03/03 A3056 RMK AO2 UPE13RAB13 SLP354 P0000 60000 T00330028 53002",
  "sanitized": "KAWO 241456Z 00000KT 10SM -RA OVC022 03/03 A3056 RMK AO2 UPE13RAB13 SLP354 P0000 60000 T00330028 53002",
  "station": "KAWO",
  "time": {
    "repr": "241456Z",
    "dt": "2023-01-24T14:56:00Z"
  },
  "remarks": "RMK AO2 UPE13RAB13 SLP354 P0000 60000 T00330028 53002",
  "dewpoint": {
    "repr": "03",
    "value": 3,
    "spoken": "three"
  },
  "relative_humidity": 0.9652276930831346,
  "remarks_info": {
    "maximum_temperature_6": null,
    "minimum_temperature_6": null,
    "pressure_tendency": {
      "repr": "53002",
      "tendency": "Decreasing or steady, then increasing",
      "change": 0.2
    },
    "precip_36_hours": {
      "repr": "60000",
      "value": 0,
      "spoken": "zero"
    },
    "precip_24_hours": null,
    "sunshine_minutes": null,
    "codes": [
      {
        "repr": "AO2",
        "value": "Automated with precipitation sensor"
      },
      {
        "repr": "P0000",
        "value": "Trace amount of rain in the last hour"
      }
    ],
    "dewpoint_decimal": {
      "repr": "0028",
      "value": 2.8,
      "spoken": "two point eight"
    },
    "maximum_temperature_24": null,
    "minimum_temperature_24": null,
    "precip_hourly": null,
    "sea_level_pressure": {
      "repr": "SLP354",
      "value": 1035.4,
      "spoken": "one zero three five point four"
    },
    "snow_depth": null,
    "temperature_decimal": {
      "repr": "0033",
      "value": 3.3,
      "spoken": "three point three"
    }
  },
  "runway_visibility": [],
  "temperature": {
    "repr": "03",
    "value": 3,
    "spoken": "three"
  },
  "wind_variable_direction": [],
  "density_altitude": -1868,
  "pressure_altitude": -498,
  "units": {
    "accumulation": "in",
    "altimeter": "inHg",
    "altitude": "ft",
    "temperature": "C",
    "visibility": "sm",
    "wind_speed": "kt"
  }
}
