{
  "meta": {
    "timestamp": "2023-02-19T00:29:45.518791Z",
    "stations_updated": "2023-01-30"
  },
  "altimeter": {
    "repr": "A3014",
    "value": 30.14,
    "spoken": "three zero point one four"
  },
  "clouds": [],
  "flight_rules": "VFR",
  "other": [],
  "visibility": {
    "repr": "10",
    "value": 10,
    "spoken": "one zero"
  },
  "wind_direction": {
    "repr": "340",
    "value": 340,
    "spoken": "three four zero"
  },
  "wind_gust": null,
  "wind_speed": {
    "repr": "05",
    "value": 5,
    "spoken": "five"
  },
  "wx_codes": [
    {
      "repr": "-RA",
      "value": "Light Rain"
    }
  ],
  "raw": "KAWO 182356Z AUTO 34005KT 10SM -RA 07/06 A3014 RMK AO2 RAE00B47 SLP210 P0000 60011 T00670056 10072 20056 53007 $",
  "sanitized": "KAWO 182356Z 34005KT 10SM -RA 07/06 A3014 RMK AO2 RAE00B47 SLP210 P0000 60011 T00670056 10072 20056 53007 $",
  "station": "KAWO",
  "time": {
    "repr": "182356Z",
    "dt": "2023-02-18T23:56:00Z"
  },
  "remarks": "RMK AO2 RAE00B47 SLP210 P0000 60011 T00670056 10072 20056 53007 $",
  "dewpoint": {
    "repr": "06",
    "value": 6,
    "spoken": "six"
  },
  "relative_humidity": 0.9268723723701822,
  "remarks_info": {
    "maximum_temperature_6": {
      "repr": "10072",
      "value": 7.2,
      "spoken": "seven point two"
    },
    "minimum_temperature_6": {
      "repr": "20056",
      "value": 5.6,
      "spoken": "five point six"
    },
    "pressure_tendency": {
      "repr": "53007",
      "tendency": "Decreasing or steady, then increasing",
      "change": 0.7
    },
    "precip_36_hours": {
      "repr": "60011",
      "value": 0.11,
      "spoken": "zero point one one"
    },
    "precip_24_hours": null,
    "sunshine_minutes": null,
    "codes": [
      {
        "repr": "$",
        "value": "ASOS requires maintenance"
      },
      {
        "repr": "AO2",
        "value": "Automated with precipitation sensor"
      },
      {
        "repr": "P0000",
        "value": "Trace amount of rain in the last hour"
      }
    ],
    "dewpoint_decimal": {
      "repr": "0056",
      "value": 5.6,
      "spoken": "five point six"
    },
    "maximum_temperature_24": null,
    "minimum_temperature_24": null,
    "precip_hourly": null,
    "sea_level_pressure": {
      "repr": "SLP210",
      "value": 1021,
      "spoken": "one zero two one point zero"
    },
    "snow_depth": null,
    "temperature_decimal": {
      "repr": "0067",
      "value": 6.7,
      "spoken": "six point seven"
    }
  },
  "runway_visibility": [],
  "temperature": {
    "repr": "07",
    "value": 7,
    "spoken": "seven"
  },
  "wind_variable_direction": [],
  "density_altitude": -1040,
  "pressure_altitude": -78,
  "units": {
    "accumulation": "in",
    "altimeter": "inHg",
    "altitude": "ft",
    "temperature": "C",
    "visibility": "sm",
    "wind_speed": "kt"
  }
}
