{
  "meta": {
    "timestamp": "2022-08-21T23:30:18.517358Z",
    "stations_updated": "2022-07-17"
  },
  "altimeter": {
    "repr": "A3001",
    "value": 30.01,
    "spoken": "three zero point zero one"
  },
  "clouds": [],
  "flight_rules": "VFR",
  "other": [],
  "visibility": {
    "repr": "10",
    "value": 10,
    "spoken": "one zero"
  },
  "wind_direction": {
    "repr": "320",
    "value": 320,
    "spoken": "three two zero"
  },
  "wind_gust": null,
  "wind_speed": {
    "repr": "07",
    "value": 7,
    "spoken": "seven"
  },
  "wx_codes": [],
  "raw": "KAWO 212256Z AUTO 32007KT 10SM CLR 26/17 A3001 RMK AO2 SLP165 T02610167",
  "sanitized": "KAWO 212256Z 32007KT 10SM 26/17 A3001 RMK AO2 SLP165 T02610167",
  "station": "KAWO",
  "time": {
    "repr": "212256Z",
    "dt": "2022-08-21T22:56:00Z"
  },
  "remarks": "RMK AO2 SLP165 T02610167",
  "dewpoint": {
    "repr": "17",
    "value": 17,
    "spoken": "one seven"
  },
  "relative_humidity": 0.5618339395318788,
  "remarks_info": {
    "maximum_temperature_6": null,
    "minimum_temperature_6": null,
    "pressure_tendency": null,
    "precip_36_hours": null,
    "precip_24_hours": null,
    "sunshine_minutes": null,
    "codes": [
      {
        "repr": "AO2",
        "value": "Automated with precipitation sensor"
      }
    ],
    "dewpoint_decimal": {
      "repr": "0167",
      "value": 16.7,
      "spoken": "one six point seven"
    },
    "maximum_temperature_24": null,
    "minimum_temperature_24": null,
    "precip_hourly": null,
    "sea_level_pressure": {
      "repr": "SLP165",
      "value": 1016.5,
      "spoken": "one zero one six point five"
    },
    "snow_depth": null,
    "temperature_decimal": {
      "repr": "0261",
      "value": 26.1,
      "spoken": "two six point one"
    }
  },
  "runway_visibility": [],
  "temperature": {
    "repr": "26",
    "value": 26,
    "spoken": "two six"
  },
  "wind_variable_direction": [],
  "density_altitude": 1418,
  "pressure_altitude": 52,
  "units": {
    "accumulation": "in",
    "altimeter": "inHg",
    "altitude": "ft",
    "temperature": "C",
    "visibility": "sm",
    "wind_speed": "kt"
  }
}
