{
  "meta": {
    "timestamp": "2023-08-17T22:01:36.283249Z",
    "stations_updated": "2023-08-05"
  },
  "altimeter": {
    "repr": "A2977",
    "value": 29.77,
    "spoken": "two nine point seven seven"
  },
  "clouds": [],
  "flight_rules": "VFR",
  "other": [],
  "visibility": {
    "repr": "10",
    "value": 10,
    "spoken": "one zero"
  },
  "wind_direction": {
    "repr": "120",
    "value": 120,
    "spoken": "one two zero"
  },
  "wind_gust": null,
  "wind_speed": {
    "repr": "05",
    "value": 5,
    "spoken": "five"
  },
  "wx_codes": [],
  "raw": "KAWO 172156Z AUTO 12005KT 10SM CLR 32/16 A2977 RMK AO2 SLP083 T03220161",
  "sanitized": "KAWO 172156Z 12005KT 10SM 32/16 A2977 RMK AO2 SLP083 T03220161",
  "station": "KAWO",
  "time": {
    "repr": "172156Z",
    "dt": "2023-08-17T21:56:00Z"
  },
  "remarks": "RMK AO2 SLP083 T03220161",
  "dewpoint": {
    "repr": "16",
    "value": 16,
    "spoken": "one six"
  },
  "relative_humidity": 0.3798888834098658,
  "remarks_info": {
    "maximum_temperature_6": null,
    "minimum_temperature_6": null,
    "pressure_tendency": null,
    "precip_36_hours": null,
    "precip_24_hours": null,
    "sunshine_minutes": null,
    "codes": [
      {
        "repr": "AO2",
        "value": "Automated with precipitation sensor"
      }
    ],
    "dewpoint_decimal": {
      "repr": "0161",
      "value": 16.1,
      "spoken": "one six point one"
    },
    "maximum_temperature_24": null,
    "minimum_temperature_24": null,
    "precip_hourly": null,
    "sea_level_pressure": {
      "repr": "SLP083",
      "value": 1008.3,
      "spoken": "one zero zero eight point three"
    },
    "snow_depth": null,
    "temperature_decimal": {
      "repr": "0322",
      "value": 32.2,
      "spoken": "three two point two"
    }
  },
  "runway_visibility": [],
  "temperature": {
    "repr": "32",
    "value": 32,
    "spoken": "three two"
  },
  "wind_variable_direction": [],
  "density_altitude": 2390,
  "pressure_altitude": 292,
  "units": {
    "accumulation": "in",
    "altimeter": "inHg",
    "altitude": "ft",
    "temperature": "C",
    "visibility": "sm",
    "wind_speed": "kt"
  }
}
