{
  "altimeter": {
    "repr": "A2997",
    "spoken": "two nine point nine seven",
    "value": 29.97
  },
  "clouds": [
    {
      "altitude": 12,
      "modifier": null,
      "repr": "OVC012",
      "type": "OVC"
    }
  ],
  "density_altitude": 258,
  "dewpoint": {
    "repr": "14",
    "spoken": "one four",
    "value": 14
  },
  "flight_rules": "MVFR",
  "meta": {
    "stations_updated": "2024-06-12",
    "timestamp": "2024-09-09T12:13:15.433804Z"
  },
  "other": [],
  "pressure_altitude": 92,
  "raw": "KAWO 091156Z AUTO 00000KT 10SM OVC012 16/14 A2997 RMK AO2 SLP155 T01610144 10161 20150 51006",
  "relative_humidity": 0.8965046931455897,
  "remarks": "RMK AO2 SLP155 T01610144 10161 20150 51006",
  "remarks_info": {
    "codes": [
      {
        "repr": "AO2",
        "value": "Automated with precipitation sensor"
      }
    ],
    "dewpoint_decimal": {
      "repr": "0144",
      "spoken": "one four point four",
      "value": 14.4
    },
    "maximum_temperature_24": null,
    "maximum_temperature_6": {
      "repr": "10161",
      "spoken": "one six point one",
      "value": 16.1
    },
    "minimum_temperature_24": null,
    "minimum_temperature_6": {
      "repr": "20150",
      "spoken": "one five point zero",
      "value": 15
    },
    "precip_24_hours": null,
    "precip_36_hours": null,
    "precip_hourly": null,
    "pressure_tendency": {
      "change": 0.6,
      "repr": "51006",
      "tendency": "Increasing, then steady"
    },
    "sea_level_pressure": {
      "repr": "SLP155",
      "spoken": "one zero one five point five",
      "value": 1015.5
    },
    "snow_depth": null,
    "sunshine_minutes": null,
    "temperature_decimal": {
      "repr": "0161",
      "spoken": "one six point one",
      "value": 16.1
    }
  },
  "runway_visibility": [],
  "sanitized": "KAWO 091156Z 00000KT 10SM OVC012 16/14 A2997 RMK AO2 SLP155 T01610144 10161 20150 51006",
  "station": "KAWO",
  "temperature": {
    "repr": "16",
    "spoken": "one six",
    "value": 16
  },
  "time": {
    "dt": "2024-09-09T11:56:00Z",
    "repr": "091156Z"
  },
  "units": {
    "accumulation": "in",
    "altimeter": "inHg",
    "altitude": "ft",
    "temperature": "C",
    "visibility": "sm",
    "wind_speed": "kt"
  },
  "visibility": {
    "repr": "10",
    "spoken": "one zero",
    "value": 10
  },
  "wind_direction": {
    "repr": "000",
    "spoken": "zero zero zero",
    "value": 0
  },
  "wind_gust": null,
  "wind_speed": {
    "repr": "00",
    "spoken": "zero",
    "value": 0
  },
  "wind_variable_direction": [],
  "wx_codes": []
}
