{
  "meta": {
    "timestamp": "2023-06-02T18:40:38.897225Z",
    "stations_updated": "2023-05-30",
    "cache-timestamp": "2023-06-02T18:40:06.323000Z"
  },
  "altimeter": {
    "repr": "A3012",
    "value": 30.12,
    "spoken": "three zero point one two"
  },
  "clouds": [],
  "flight_rules": "VFR",
  "other": [],
  "visibility": {
    "repr": "10",
    "value": 10,
    "spoken": "one zero"
  },
  "wind_direction": {
    "repr": "VRB",
    "value": null,
    "spoken": "variable"
  },
  "wind_gust": null,
  "wind_speed": {
    "repr": "03",
    "value": 3,
    "spoken": "three"
  },
  "wx_codes": [],
  "raw": "KAWO 021756Z AUTO VRB03KT 10SM CLR 16/08 A3012 RMK AO2 SLP205 T01610083 10161 20061 57005",
  "sanitized": "KAWO 021756Z VRB03KT 10SM 16/08 A3012 RMK AO2 SLP205 T01610083 10161 20061 57005",
  "station": "KAWO",
  "time": {
    "repr": "021756Z",
    "dt": "2023-06-02T17:56:00Z"
  },
  "remarks": "RMK AO2 SLP205 T01610083 10161 20061 57005",
  "dewpoint": {
    "repr": "08",
    "value": 8,
    "spoken": "eight"
  },
  "relative_humidity": 0.59844756973632,
  "remarks_info": {
    "maximum_temperature_6": {
      "repr": "10161",
      "value": 16.1,
      "spoken": "one six point one"
    },
    "minimum_temperature_6": {
      "repr": "20061",
      "value": 6.1,
      "spoken": "six point one"
    },
    "pressure_tendency": {
      "repr": "57005",
      "tendency": "Decreasing steadily or unsteadily",
      "change": 0.5
    },
    "precip_36_hours": null,
    "precip_24_hours": null,
    "sunshine_minutes": null,
    "codes": [
      {
        "repr": "AO2",
        "value": "Automated with precipitation sensor"
      }
    ],
    "dewpoint_decimal": {
      "repr": "0083",
      "value": 8.3,
      "spoken": "eight point three"
    },
    "maximum_temperature_24": null,
    "minimum_temperature_24": null,
    "precip_hourly": null,
    "sea_level_pressure": {
      "repr": "SLP205",
      "value": 1020.5,
      "spoken": "one zero two zero point five"
    },
    "snow_depth": null,
    "temperature_decimal": {
      "repr": "0161",
      "value": 16.1,
      "spoken": "one six point one"
    }
  },
  "runway_visibility": [],
  "temperature": {
    "repr": "16",
    "value": 16,
    "spoken": "one six"
  },
  "wind_variable_direction": [],
  "density_altitude": 108,
  "pressure_altitude": -58,
  "units": {
    "accumulation": "in",
    "altimeter": "inHg",
    "altitude": "ft",
    "temperature": "C",
    "visibility": "sm",
    "wind_speed": "kt"
  }
}
