{
  "meta": {
    "timestamp": "2022-09-05T23:04:12.130923Z",
    "stations_updated": "2022-07-17"
  },
  "altimeter": {
    "repr": "A3016",
    "value": 30.16,
    "spoken": "three zero point one six"
  },
  "clouds": [],
  "flight_rules": "VFR",
  "other": [],
  "visibility": {
    "repr": "10",
    "value": 10,
    "spoken": "one zero"
  },
  "wind_direction": {
    "repr": "330",
    "value": 330,
    "spoken": "three three zero"
  },
  "wind_gust": null,
  "wind_speed": {
    "repr": "09",
    "value": 9,
    "spoken": "nine"
  },
  "wx_codes": [],
  "raw": "KAWO 052256Z AUTO 33009KT 10SM CLR 23/08 A3016 RMK AO2 SLP217 T02280083",
  "sanitized": "KAWO 052256Z 33009KT 10SM 23/08 A3016 RMK AO2 SLP217 T02280083",
  "station": "KAWO",
  "time": {
    "repr": "052256Z",
    "dt": "2022-09-05T22:56:00Z"
  },
  "remarks": "RMK AO2 SLP217 T02280083",
  "dewpoint": {
    "repr": "08",
    "value": 8,
    "spoken": "eight"
  },
  "relative_humidity": 0.3943900707281157,
  "remarks_info": {
    "maximum_temperature_6": null,
    "minimum_temperature_6": null,
    "pressure_tendency": null,
    "precip_36_hours": null,
    "precip_24_hours": null,
    "sunshine_minutes": null,
    "codes": [
      {
        "repr": "AO2",
        "value": "Automated with precipitation sensor"
      }
    ],
    "dewpoint_decimal": {
      "repr": "0083",
      "value": 8.3,
      "spoken": "eight point three"
    },
    "maximum_temperature_24": null,
    "minimum_temperature_24": null,
    "precip_hourly": null,
    "sea_level_pressure": {
      "repr": "SLP217",
      "value": 1021.7,
      "spoken": "one zero two one point seven"
    },
    "snow_depth": null,
    "temperature_decimal": {
      "repr": "0228",
      "value": 22.8,
      "spoken": "two two point eight"
    }
  },
  "runway_visibility": [],
  "temperature": {
    "repr": "23",
    "value": 23,
    "spoken": "two three"
  },
  "wind_variable_direction": [],
  "density_altitude": 872,
  "pressure_altitude": -98,
  "units": {
    "accumulation": "in",
    "altimeter": "inHg",
    "altitude": "ft",
    "temperature": "C",
    "visibility": "sm",
    "wind_speed": "kt"
  }
}
