{
  "altimeter": {
    "repr": "A2974",
    "spoken": "two nine point seven four",
    "value": 29.74
  },
  "clouds": [
    {
      "altitude": 19,
      "modifier": null,
      "repr": "SCT019",
      "type": "SCT"
    },
    {
      "altitude": 26,
      "modifier": null,
      "repr": "BKN026",
      "type": "BKN"
    },
    {
      "altitude": 35,
      "modifier": null,
      "repr": "OVC035",
      "type": "OVC"
    }
  ],
  "density_altitude": -244,
  "dewpoint": {
    "repr": "09",
    "spoken": "nine",
    "value": 9
  },
  "flight_rules": "MVFR",
  "meta": {
    "cache-timestamp": "2024-04-26T05:26:05.433000Z",
    "stations_updated": "2024-01-01",
    "timestamp": "2024-04-26T05:26:13.706740Z"
  },
  "other": [],
  "pressure_altitude": 322,
  "raw": "KAWO 260456Z AUTO 12012KT 10SM -RA SCT019 BKN026 OVC035 10/09 A2974 RMK AO2 SLP075 P0004 T01000089",
  "relative_humidity": 0.9286987212378438,
  "remarks": "RMK AO2 SLP075 P0004 T01000089",
  "remarks_info": {
    "codes": [
      {
        "repr": "AO2",
        "value": "Automated with precipitation sensor"
      }
    ],
    "dewpoint_decimal": {
      "repr": "0089",
      "spoken": "eight point nine",
      "value": 8.9
    },
    "maximum_temperature_24": null,
    "maximum_temperature_6": null,
    "minimum_temperature_24": null,
    "minimum_temperature_6": null,
    "precip_24_hours": null,
    "precip_36_hours": null,
    "precip_hourly": {
      "repr": "P0004",
      "spoken": "zero point zero four",
      "value": 0.04
    },
    "pressure_tendency": null,
    "sea_level_pressure": {
      "repr": "SLP075",
      "spoken": "one zero zero seven point five",
      "value": 1007.5
    },
    "snow_depth": null,
    "sunshine_minutes": null,
    "temperature_decimal": {
      "repr": "0100",
      "spoken": "one zero point zero",
      "value": 10
    }
  },
  "runway_visibility": [],
  "sanitized": "KAWO 260456Z 12012KT 10SM -RA SCT019 BKN026 OVC035 10/09 A2974 RMK AO2 SLP075 P0004 T01000089",
  "station": "KAWO",
  "temperature": {
    "repr": "10",
    "spoken": "one zero",
    "value": 10
  },
  "time": {
    "dt": "2024-04-26T04:56:00Z",
    "repr": "260456Z"
  },
  "units": {
    "accumulation": "in",
    "altimeter": "inHg",
    "altitude": "ft",
    "temperature": "C",
    "visibility": "sm",
    "wind_speed": "kt"
  },
  "visibility": {
    "repr": "10",
    "spoken": "one zero",
    "value": 10
  },
  "wind_direction": {
    "repr": "120",
    "spoken": "one two zero",
    "value": 120
  },
  "wind_gust": null,
  "wind_speed": {
    "repr": "12",
    "spoken": "one two",
    "value": 12
  },
  "wind_variable_direction": [],
  "wx_codes": [
    {
      "repr": "-RA",
      "value": "Light Rain"
    }
  ]
}
