{
  "meta": {
    "timestamp": "2023-08-27T00:26:14.423452Z",
    "stations_updated": "2023-08-05",
    "cache-timestamp": "2023-08-27T00:26:03.360000Z"
  },
  "altimeter": {
    "repr": "A2994",
    "value": 29.94,
    "spoken": "two nine point nine four"
  },
  "clouds": [],
  "flight_rules": "VFR",
  "other": [],
  "visibility": {
    "repr": "8",
    "value": 8,
    "spoken": "eight"
  },
  "wind_direction": {
    "repr": "310",
    "value": 310,
    "spoken": "three one zero"
  },
  "wind_gust": null,
  "wind_speed": {
    "repr": "11",
    "value": 11,
    "spoken": "one one"
  },
  "wx_codes": [],
  "raw": "KAWO 262356Z AUTO 31011KT 8SM CLR 28/13 A2994 RMK AO2 SLP141 T02830133 10294 20228 58011",
  "sanitized": "KAWO 262356Z 31011KT 8SM 28/13 A2994 RMK AO2 SLP141 T02830133 10294 20228 58011",
  "station": "KAWO",
  "time": {
    "repr": "262356Z",
    "dt": "2023-08-26T23:56:00Z"
  },
  "remarks": "RMK AO2 SLP141 T02830133 10294 20228 58011",
  "dewpoint": {
    "repr": "13",
    "value": 13,
    "spoken": "one three"
  },
  "relative_humidity": 0.3966660671739356,
  "remarks_info": {
    "maximum_temperature_6": {
      "repr": "10294",
      "value": 29.4,
      "spoken": "two nine point four"
    },
    "minimum_temperature_6": {
      "repr": "20228",
      "value": 22.8,
      "spoken": "two two point eight"
    },
    "pressure_tendency": {
      "repr": "58011",
      "tendency": "Steady or increasing, then decreasing",
      "change": 1.1
    },
    "precip_36_hours": null,
    "precip_24_hours": null,
    "sunshine_minutes": null,
    "codes": [
      {
        "repr": "AO2",
        "value": "Automated with precipitation sensor"
      }
    ],
    "dewpoint_decimal": {
      "repr": "0133",
      "value": 13.3,
      "spoken": "one three point three"
    },
    "maximum_temperature_24": null,
    "minimum_temperature_24": null,
    "precip_hourly": null,
    "sea_level_pressure": {
      "repr": "SLP141",
      "value": 1014.1,
      "spoken": "one zero one four point one"
    },
    "snow_depth": null,
    "temperature_decimal": {
      "repr": "0283",
      "value": 28.3,
      "spoken": "two eight point three"
    }
  },
  "runway_visibility": [],
  "temperature": {
    "repr": "28",
    "value": 28,
    "spoken": "two eight"
  },
  "wind_variable_direction": [],
  "density_altitude": 1752,
  "pressure_altitude": 122,
  "units": {
    "accumulation": "in",
    "altimeter": "inHg",
    "altitude": "ft",
    "temperature": "C",
    "visibility": "sm",
    "wind_speed": "kt"
  }
}
