{
  "altimeter": {
    "repr": "A3002",
    "spoken": "three zero point zero two",
    "value": 30.02
  },
  "clouds": [
    {
      "altitude": 14,
      "modifier": null,
      "repr": "OVC014",
      "type": "OVC"
    }
  ],
  "density_altitude": -392,
  "dewpoint": {
    "repr": "09",
    "spoken": "nine",
    "value": 9
  },
  "flight_rules": "MVFR",
  "meta": {
    "cache-timestamp": "2024-05-16T10:28:02.722000Z",
    "stations_updated": "2024-05-13",
    "timestamp": "2024-05-16T10:28:57.942227Z"
  },
  "other": [],
  "pressure_altitude": 42,
  "raw": "KAWO 160956Z AUTO 00000KT 10SM OVC014 11/09 A3002 RMK AO2 SLP168 T01110089",
  "relative_humidity": 0.8630327743847583,
  "remarks": "RMK AO2 SLP168 T01110089",
  "remarks_info": {
    "codes": [
      {
        "repr": "AO2",
        "value": "Automated with precipitation sensor"
      }
    ],
    "dewpoint_decimal": {
      "repr": "0089",
      "spoken": "eight point nine",
      "value": 8.9
    },
    "maximum_temperature_24": null,
    "maximum_temperature_6": null,
    "minimum_temperature_24": null,
    "minimum_temperature_6": null,
    "precip_24_hours": null,
    "precip_36_hours": null,
    "precip_hourly": null,
    "pressure_tendency": null,
    "sea_level_pressure": {
      "repr": "SLP168",
      "spoken": "one zero one six point eight",
      "value": 1016.8
    },
    "snow_depth": null,
    "sunshine_minutes": null,
    "temperature_decimal": {
      "repr": "0111",
      "spoken": "one one point one",
      "value": 11.1
    }
  },
  "runway_visibility": [],
  "sanitized": "KAWO 160956Z 00000KT 10SM OVC014 11/09 A3002 RMK AO2 SLP168 T01110089",
  "station": "KAWO",
  "temperature": {
    "repr": "11",
    "spoken": "one one",
    "value": 11
  },
  "time": {
    "dt": "2024-05-16T09:56:00Z",
    "repr": "160956Z"
  },
  "units": {
    "accumulation": "in",
    "altimeter": "inHg",
    "altitude": "ft",
    "temperature": "C",
    "visibility": "sm",
    "wind_speed": "kt"
  },
  "visibility": {
    "repr": "10",
    "spoken": "one zero",
    "value": 10
  },
  "wind_direction": {
    "repr": "000",
    "spoken": "zero zero zero",
    "value": 0
  },
  "wind_gust": null,
  "wind_speed": {
    "repr": "00",
    "spoken": "zero",
    "value": 0
  },
  "wind_variable_direction": [],
  "wx_codes": []
}
