{
  "altimeter": {
    "repr": "A2975",
    "spoken": "two nine point seven five",
    "value": 29.75
  },
  "clouds": [
    {
      "altitude": 12,
      "modifier": null,
      "repr": "BKN012",
      "type": "BKN"
    },
    {
      "altitude": 16,
      "modifier": null,
      "repr": "OVC016",
      "type": "OVC"
    }
  ],
  "density_altitude": -614,
  "dewpoint": {
    "repr": "06",
    "spoken": "six",
    "value": 6
  },
  "flight_rules": "MVFR",
  "meta": {
    "cache-timestamp": "2023-12-03T20:40:03.301000Z",
    "stations_updated": "2023-10-28",
    "timestamp": "2023-12-03T20:40:37.073856Z"
  },
  "other": [],
  "pressure_altitude": 312,
  "raw": "KAWO 032016Z AUTO 00000KT 10SM BKN012 OVC016 07/06 A2975 RMK AO2 RAE1957 PRESRR",
  "relative_humidity": 0.9334736015813517,
  "remarks": "RMK AO2 RAE1957 PRESRR",
  "remarks_info": {
    "codes": [
      {
        "repr": "AO2",
        "value": "Automated with precipitation sensor"
      },
      {
        "repr": "PRESRR",
        "value": "Pressure Rising Rapidly"
      }
    ],
    "dewpoint_decimal": null,
    "maximum_temperature_24": null,
    "maximum_temperature_6": null,
    "minimum_temperature_24": null,
    "minimum_temperature_6": null,
    "precip_24_hours": null,
    "precip_36_hours": null,
    "precip_hourly": null,
    "pressure_tendency": null,
    "sea_level_pressure": null,
    "snow_depth": null,
    "sunshine_minutes": null,
    "temperature_decimal": null
  },
  "runway_visibility": [],
  "sanitized": "KAWO 032016Z 00000KT 10SM BKN012 OVC016 07/06 A2975 RMK AO2 RAE1957 PRESRR",
  "station": "KAWO",
  "temperature": {
    "repr": "07",
    "spoken": "seven",
    "value": 7
  },
  "time": {
    "dt": "2023-12-03T20:16:00Z",
    "repr": "032016Z"
  },
  "units": {
    "accumulation": "in",
    "altimeter": "inHg",
    "altitude": "ft",
    "temperature": "C",
    "visibility": "sm",
    "wind_speed": "kt"
  },
  "visibility": {
    "repr": "10",
    "spoken": "one zero",
    "value": 10
  },
  "wind_direction": {
    "repr": "000",
    "spoken": "zero zero zero",
    "value": 0
  },
  "wind_gust": null,
  "wind_speed": {
    "repr": "00",
    "spoken": "zero",
    "value": 0
  },
  "wind_variable_direction": [],
  "wx_codes": []
}
