{
  "altimeter": {
    "repr": "A2942",
    "spoken": "two nine point four two",
    "value": 29.42
  },
  "clouds": [
    {
      "altitude": 19,
      "modifier": null,
      "repr": "BKN019",
      "type": "BKN"
    },
    {
      "altitude": 26,
      "modifier": null,
      "repr": "BKN026",
      "type": "BKN"
    },
    {
      "altitude": 30,
      "modifier": null,
      "repr": "OVC030",
      "type": "OVC"
    }
  ],
  "density_altitude": -56,
  "dewpoint": {
    "repr": "07",
    "spoken": "seven",
    "value": 7
  },
  "flight_rules": "MVFR",
  "meta": {
    "cache-timestamp": "2024-02-29T04:06:05.389000Z",
    "stations_updated": "2024-01-01",
    "timestamp": "2024-02-29T04:06:53.885807Z"
  },
  "other": [],
  "pressure_altitude": 642,
  "raw": "KAWO 290356Z AUTO 16021KT 10SM -RA BKN019 BKN026 OVC030 09/07 A2942 RMK AO2 PK WND 16031/0328 SLP965 P0006 T00890072",
  "relative_humidity": 0.8908355350985154,
  "remarks": "RMK AO2 PK WND 16031/0328 SLP965 P0006 T00890072",
  "remarks_info": {
    "codes": [
      {
        "repr": "AO2",
        "value": "Automated with precipitation sensor"
      }
    ],
    "dewpoint_decimal": {
      "repr": "0072",
      "spoken": "seven point two",
      "value": 7.2
    },
    "maximum_temperature_24": null,
    "maximum_temperature_6": null,
    "minimum_temperature_24": null,
    "minimum_temperature_6": null,
    "precip_24_hours": null,
    "precip_36_hours": null,
    "precip_hourly": {
      "repr": "P0006",
      "spoken": "zero point zero six",
      "value": 0.06
    },
    "pressure_tendency": null,
    "sea_level_pressure": {
      "repr": "SLP965",
      "spoken": "nine nine six point five",
      "value": 996.5
    },
    "snow_depth": null,
    "sunshine_minutes": null,
    "temperature_decimal": {
      "repr": "0089",
      "spoken": "eight point nine",
      "value": 8.9
    }
  },
  "runway_visibility": [],
  "sanitized": "KAWO 290356Z 16021KT 10SM -RA BKN019 BKN026 OVC030 09/07 A2942 RMK AO2 PK WND 16031/0328 SLP965 P0006 T00890072",
  "station": "KAWO",
  "temperature": {
    "repr": "09",
    "spoken": "nine",
    "value": 9
  },
  "time": {
    "dt": "2024-02-29T03:56:00Z",
    "repr": "290356Z"
  },
  "units": {
    "accumulation": "in",
    "altimeter": "inHg",
    "altitude": "ft",
    "temperature": "C",
    "visibility": "sm",
    "wind_speed": "kt"
  },
  "visibility": {
    "repr": "10",
    "spoken": "one zero",
    "value": 10
  },
  "wind_direction": {
    "repr": "160",
    "spoken": "one six zero",
    "value": 160
  },
  "wind_gust": null,
  "wind_speed": {
    "repr": "21",
    "spoken": "two one",
    "value": 21
  },
  "wind_variable_direction": [],
  "wx_codes": [
    {
      "repr": "-RA",
      "value": "Light Rain"
    }
  ]
}
