{
  "altimeter": {
    "repr": "A2967",
    "spoken": "two nine point six seven",
    "value": 29.67
  },
  "clouds": [],
  "density_altitude": 690,
  "dewpoint": {
    "repr": "16",
    "spoken": "one six",
    "value": 16
  },
  "flight_rules": "VFR",
  "meta": {
    "stations_updated": "2024-06-12",
    "timestamp": "2024-09-25T04:44:37.386986Z"
  },
  "other": [],
  "pressure_altitude": 392,
  "raw": "KAWO 250356Z AUTO 00000KT 10SM CLR 17/16 A2967 RMK AO2 SLP050 T01720156",
  "relative_humidity": 0.9031044167644579,
  "remarks": "RMK AO2 SLP050 T01720156",
  "remarks_info": {
    "codes": [
      {
        "repr": "AO2",
        "value": "Automated with precipitation sensor"
      }
    ],
    "dewpoint_decimal": {
      "repr": "0156",
      "spoken": "one five point six",
      "value": 15.6
    },
    "maximum_temperature_24": null,
    "maximum_temperature_6": null,
    "minimum_temperature_24": null,
    "minimum_temperature_6": null,
    "precip_24_hours": null,
    "precip_36_hours": null,
    "precip_hourly": null,
    "pressure_tendency": null,
    "sea_level_pressure": {
      "repr": "SLP050",
      "spoken": "one zero zero five point zero",
      "value": 1005
    },
    "snow_depth": null,
    "sunshine_minutes": null,
    "temperature_decimal": {
      "repr": "0172",
      "spoken": "one seven point two",
      "value": 17.2
    }
  },
  "runway_visibility": [],
  "sanitized": "KAWO 250356Z 00000KT 10SM 17/16 A2967 RMK AO2 SLP050 T01720156",
  "station": "KAWO",
  "temperature": {
    "repr": "17",
    "spoken": "one seven",
    "value": 17
  },
  "time": {
    "dt": "2024-09-25T03:56:00Z",
    "repr": "250356Z"
  },
  "units": {
    "accumulation": "in",
    "altimeter": "inHg",
    "altitude": "ft",
    "temperature": "C",
    "visibility": "sm",
    "wind_speed": "kt"
  },
  "visibility": {
    "repr": "10",
    "spoken": "one zero",
    "value": 10
  },
  "wind_direction": {
    "repr": "000",
    "spoken": "zero zero zero",
    "value": 0
  },
  "wind_gust": null,
  "wind_speed": {
    "repr": "00",
    "spoken": "zero",
    "value": 0
  },
  "wind_variable_direction": [],
  "wx_codes": []
}
