{
  "altimeter": {
    "repr": "A2960",
    "spoken": "two nine point six zero",
    "value": 29.6
  },
  "clouds": [
    {
      "altitude": 5,
      "modifier": null,
      "repr": "BKN005",
      "type": "BKN"
    },
    {
      "altitude": 10,
      "modifier": null,
      "repr": "BKN010",
      "type": "BKN"
    },
    {
      "altitude": 30,
      "modifier": null,
      "repr": "OVC030",
      "type": "OVC"
    }
  ],
  "density_altitude": -344,
  "dewpoint": {
    "repr": "08",
    "spoken": "eight",
    "value": 8
  },
  "flight_rules": "IFR",
  "meta": {
    "stations_updated": "2024-10-29",
    "timestamp": "2024-11-17T11:24:58.696210Z"
  },
  "other": [],
  "pressure_altitude": 462,
  "raw": "KAWO 171115Z AUTO 19004KT 6SM -RA BR BKN005 BKN010 OVC030 08/08 A2960 RMK AO2 CIG 003V009 PNO $",
  "relative_humidity": 1,
  "remarks": "RMK AO2 CIG 003V009 PNO $",
  "remarks_info": {
    "codes": [
      {
        "repr": "$",
        "value": "ASOS requires maintenance"
      },
      {
        "repr": "AO2",
        "value": "Automated with precipitation sensor"
      },
      {
        "repr": "PNO",
        "value": "Precipitation amount not available"
      }
    ],
    "dewpoint_decimal": null,
    "maximum_temperature_24": null,
    "maximum_temperature_6": null,
    "minimum_temperature_24": null,
    "minimum_temperature_6": null,
    "precip_24_hours": null,
    "precip_36_hours": null,
    "precip_hourly": null,
    "pressure_tendency": null,
    "sea_level_pressure": null,
    "snow_depth": null,
    "sunshine_minutes": null,
    "temperature_decimal": null
  },
  "runway_visibility": [],
  "sanitized": "KAWO 171115Z 19004KT 6SM -RA BR BKN005 BKN010 OVC030 08/08 A2960 RMK AO2 CIG 003V009 PNO $",
  "station": "KAWO",
  "temperature": {
    "repr": "08",
    "spoken": "eight",
    "value": 8
  },
  "time": {
    "dt": "2024-11-17T11:15:00Z",
    "repr": "171115Z"
  },
  "units": {
    "accumulation": "in",
    "altimeter": "inHg",
    "altitude": "ft",
    "temperature": "C",
    "visibility": "sm",
    "wind_speed": "kt"
  },
  "visibility": {
    "repr": "6",
    "spoken": "six",
    "value": 6
  },
  "wind_direction": {
    "repr": "190",
    "spoken": "one nine zero",
    "value": 190
  },
  "wind_gust": null,
  "wind_speed": {
    "repr": "04",
    "spoken": "four",
    "value": 4
  },
  "wind_variable_direction": [],
  "wx_codes": [
    {
      "repr": "-RA",
      "value": "Light Rain"
    },
    {
      "repr": "BR",
      "value": "Mist"
    }
  ]
}
