{
  "meta": {
    "timestamp": "2022-12-07T00:28:06.896129Z",
    "stations_updated": "2022-09-05"
  },
  "altimeter": {
    "repr": "A3015",
    "value": 30.15,
    "spoken": "three zero point one five"
  },
  "clouds": [
    {
      "repr": "OVC019",
      "type": "OVC",
      "altitude": 19,
      "modifier": null
    }
  ],
  "flight_rules": "MVFR",
  "other": [],
  "visibility": {
    "repr": "10",
    "value": 10,
    "spoken": "one zero"
  },
  "wind_direction": {
    "repr": "110",
    "value": 110,
    "spoken": "one one zero"
  },
  "wind_gust": null,
  "wind_speed": {
    "repr": "04",
    "value": 4,
    "spoken": "four"
  },
  "wx_codes": [],
  "raw": "KAWO 062356Z AUTO 11004KT 10SM OVC019 04/02 A3015 RMK AO2 SLP214 60000 T00440022 10050 20022 53001",
  "sanitized": "KAWO 062356Z 11004KT 10SM OVC019 04/02 A3015 RMK AO2 SLP214 60000 T00440022 10050 20022 53001",
  "station": "KAWO",
  "time": {
    "repr": "062356Z",
    "dt": "2022-12-06T23:56:00Z"
  },
  "remarks": "RMK AO2 SLP214 60000 T00440022 10050 20022 53001",
  "dewpoint": {
    "repr": "02",
    "value": 2,
    "spoken": "two"
  },
  "relative_humidity": 0.8560648690888376,
  "remarks_info": {
    "maximum_temperature_6": {
      "repr": "10050",
      "value": 5,
      "spoken": "five point zero"
    },
    "minimum_temperature_6": {
      "repr": "20022",
      "value": 2.2,
      "spoken": "two point two"
    },
    "pressure_tendency": {
      "repr": "53001",
      "tendency": "Decreasing or steady, then increasing",
      "change": 0.1
    },
    "precip_36_hours": {
      "repr": "60000",
      "value": 0,
      "spoken": "zero"
    },
    "precip_24_hours": null,
    "sunshine_minutes": null,
    "codes": [
      {
        "repr": "AO2",
        "value": "Automated with precipitation sensor"
      }
    ],
    "dewpoint_decimal": {
      "repr": "0022",
      "value": 2.2,
      "spoken": "two point two"
    },
    "maximum_temperature_24": null,
    "minimum_temperature_24": null,
    "precip_hourly": null,
    "sea_level_pressure": {
      "repr": "SLP214",
      "value": 1021.4,
      "spoken": "one zero two one point four"
    },
    "snow_depth": null,
    "temperature_decimal": {
      "repr": "0044",
      "value": 4.4,
      "spoken": "four point four"
    }
  },
  "runway_visibility": [],
  "temperature": {
    "repr": "04",
    "value": 4,
    "spoken": "four"
  },
  "wind_variable_direction": [],
  "density_altitude": -1326,
  "pressure_altitude": -88,
  "units": {
    "accumulation": "in",
    "altimeter": "inHg",
    "altitude": "ft",
    "temperature": "C",
    "visibility": "sm",
    "wind_speed": "kt"
  }
}
