{
  "meta": {
    "timestamp": "2023-08-15T22:40:30.505864Z",
    "stations_updated": "2023-08-05",
    "cache-timestamp": "2023-08-15T22:40:04.637000Z"
  },
  "altimeter": {
    "repr": "A2998",
    "value": 29.98,
    "spoken": "two nine point nine eight"
  },
  "clouds": [],
  "flight_rules": "VFR",
  "other": [],
  "visibility": {
    "repr": "10",
    "value": 10,
    "spoken": "one zero"
  },
  "wind_direction": {
    "repr": "310",
    "value": 310,
    "spoken": "three one zero"
  },
  "wind_gust": null,
  "wind_speed": {
    "repr": "08",
    "value": 8,
    "spoken": "eight"
  },
  "wx_codes": [],
  "raw": "KAWO 152156Z AUTO 31008KT 10SM CLR 33/16 A2998 RMK AO2 SLP154 T03280156",
  "sanitized": "KAWO 152156Z 31008KT 10SM 33/16 A2998 RMK AO2 SLP154 T03280156",
  "station": "KAWO",
  "time": {
    "repr": "152156Z",
    "dt": "2023-08-15T21:56:00Z"
  },
  "remarks": "RMK AO2 SLP154 T03280156",
  "dewpoint": {
    "repr": "16",
    "value": 16,
    "spoken": "one six"
  },
  "relative_humidity": 0.3556705717414892,
  "remarks_info": {
    "maximum_temperature_6": null,
    "minimum_temperature_6": null,
    "pressure_tendency": null,
    "precip_36_hours": null,
    "precip_24_hours": null,
    "sunshine_minutes": null,
    "codes": [
      {
        "repr": "AO2",
        "value": "Automated with precipitation sensor"
      }
    ],
    "dewpoint_decimal": {
      "repr": "0156",
      "value": 15.6,
      "spoken": "one five point six"
    },
    "maximum_temperature_24": null,
    "minimum_temperature_24": null,
    "precip_hourly": null,
    "sea_level_pressure": {
      "repr": "SLP154",
      "value": 1015.4,
      "spoken": "one zero one five point four"
    },
    "snow_depth": null,
    "temperature_decimal": {
      "repr": "0328",
      "value": 32.8,
      "spoken": "three two point eight"
    }
  },
  "runway_visibility": [],
  "temperature": {
    "repr": "33",
    "value": 33,
    "spoken": "three three"
  },
  "wind_variable_direction": [],
  "density_altitude": 2252,
  "pressure_altitude": 82,
  "units": {
    "accumulation": "in",
    "altimeter": "inHg",
    "altitude": "ft",
    "temperature": "C",
    "visibility": "sm",
    "wind_speed": "kt"
  }
}
