{
  "meta": {
    "timestamp": "2023-01-27T18:06:08.749553Z",
    "stations_updated": "2023-01-16",
    "cache-timestamp": "2023-01-27T18:06:05.295000Z"
  },
  "altimeter": {
    "repr": "A3026",
    "value": 30.26,
    "spoken": "three zero point two six"
  },
  "clouds": [
    {
      "repr": "OVC004",
      "type": "OVC",
      "altitude": 4,
      "modifier": null
    }
  ],
  "flight_rules": "LIFR",
  "other": [],
  "visibility": {
    "repr": "10",
    "value": 10,
    "spoken": "one zero"
  },
  "wind_direction": {
    "repr": "000",
    "value": 0,
    "spoken": "zero zero zero"
  },
  "wind_gust": null,
  "wind_speed": {
    "repr": "00",
    "value": 0,
    "spoken": "zero"
  },
  "wx_codes": [],
  "raw": "KAWO 271756Z AUTO 00000KT 10SM OVC004 05/04 A3026 RMK AO2 RAE27 CIG 004V007 SLPNO P0000 60011 T00500044 10050 20039 51012",
  "sanitized": "KAWO 271756Z 00000KT 10SM OVC004 05/04 A3026 RMK AO2 RAE27 CIG 004V007 SLPNO P0000 60011 T00500044 10050 20039 51012",
  "station": "KAWO",
  "time": {
    "repr": "271756Z",
    "dt": "2023-01-27T17:56:00Z"
  },
  "remarks": "RMK AO2 RAE27 CIG 004V007 SLPNO P0000 60011 T00500044 10050 20039 51012",
  "dewpoint": {
    "repr": "04",
    "value": 4,
    "spoken": "four"
  },
  "relative_humidity": 0.958959211899474,
  "remarks_info": {
    "maximum_temperature_6": {
      "repr": "10050",
      "value": 5,
      "spoken": "five point zero"
    },
    "minimum_temperature_6": {
      "repr": "20039",
      "value": 3.9,
      "spoken": "three point nine"
    },
    "pressure_tendency": {
      "repr": "51012",
      "tendency": "Increasing, then steady",
      "change": 1.2
    },
    "precip_36_hours": {
      "repr": "60011",
      "value": 0.11,
      "spoken": "zero point one one"
    },
    "precip_24_hours": null,
    "sunshine_minutes": null,
    "codes": [
      {
        "repr": "AO2",
        "value": "Automated with precipitation sensor"
      },
      {
        "repr": "P0000",
        "value": "Trace amount of rain in the last hour"
      },
      {
        "repr": "RAE27",
        "value": "Rain ended at :27"
      },
      {
        "repr": "SLPNO",
        "value": "Sea level pressure not available"
      }
    ],
    "dewpoint_decimal": {
      "repr": "0044",
      "value": 4.4,
      "spoken": "four point four"
    },
    "maximum_temperature_24": null,
    "minimum_temperature_24": null,
    "precip_hourly": null,
    "sea_level_pressure": null,
    "snow_depth": null,
    "temperature_decimal": {
      "repr": "0050",
      "value": 5,
      "spoken": "five point zero"
    }
  },
  "runway_visibility": [],
  "temperature": {
    "repr": "05",
    "value": 5,
    "spoken": "five"
  },
  "wind_variable_direction": [],
  "density_altitude": -1364,
  "pressure_altitude": -198,
  "units": {
    "accumulation": "in",
    "altimeter": "inHg",
    "altitude": "ft",
    "temperature": "C",
    "visibility": "sm",
    "wind_speed": "kt"
  }
}
