{
  "meta": {
    "timestamp": "2023-05-22T08:40:34.216659Z",
    "stations_updated": "2023-03-11",
    "cache-timestamp": "2023-05-22T08:40:04.244000Z"
  },
  "altimeter": {
    "repr": "A3019",
    "value": 30.19,
    "spoken": "three zero point one nine"
  },
  "clouds": [
    {
      "repr": "BKN027",
      "type": "BKN",
      "altitude": 27,
      "modifier": null
    },
    {
      "repr": "OVC045",
      "type": "OVC",
      "altitude": 45,
      "modifier": null
    }
  ],
  "flight_rules": "MVFR",
  "other": [],
  "visibility": {
    "repr": "10",
    "value": 10,
    "spoken": "one zero"
  },
  "wind_direction": {
    "repr": "000",
    "value": 0,
    "spoken": "zero zero zero"
  },
  "wind_gust": null,
  "wind_speed": {
    "repr": "00",
    "value": 0,
    "spoken": "zero"
  },
  "wx_codes": [],
  "raw": "KAWO 220756Z AUTO 00000KT 10SM BKN027 OVC045 11/08 A3019 RMK AO2 SLP228 T01110083 401330106",
  "sanitized": "KAWO 220756Z 00000KT 10SM BKN027 OVC045 11/08 A3019 RMK AO2 SLP228 T01110083 401330106",
  "station": "KAWO",
  "time": {
    "repr": "220756Z",
    "dt": "2023-05-22T07:56:00Z"
  },
  "remarks": "RMK AO2 SLP228 T01110083 401330106",
  "dewpoint": {
    "repr": "08",
    "value": 8,
    "spoken": "eight"
  },
  "relative_humidity": 0.8286786978983101,
  "remarks_info": {
    "maximum_temperature_6": null,
    "minimum_temperature_6": null,
    "pressure_tendency": null,
    "precip_36_hours": null,
    "precip_24_hours": null,
    "sunshine_minutes": null,
    "codes": [
      {
        "repr": "AO2",
        "value": "Automated with precipitation sensor"
      }
    ],
    "dewpoint_decimal": {
      "repr": "0083",
      "value": 8.3,
      "spoken": "eight point three"
    },
    "maximum_temperature_24": {
      "repr": "0133",
      "value": 13.3,
      "spoken": "one three point three"
    },
    "minimum_temperature_24": {
      "repr": "0106",
      "value": 10.6,
      "spoken": "one zero point six"
    },
    "precip_hourly": null,
    "sea_level_pressure": {
      "repr": "SLP228",
      "value": 1022.8,
      "spoken": "one zero two two point eight"
    },
    "snow_depth": null,
    "temperature_decimal": {
      "repr": "0111",
      "value": 11.1,
      "spoken": "one one point one"
    }
  },
  "runway_visibility": [],
  "temperature": {
    "repr": "11",
    "value": 11,
    "spoken": "one one"
  },
  "wind_variable_direction": [],
  "density_altitude": -562,
  "pressure_altitude": -128,
  "units": {
    "accumulation": "in",
    "altimeter": "inHg",
    "altitude": "ft",
    "temperature": "C",
    "visibility": "sm",
    "wind_speed": "kt"
  }
}
