{
  "meta": {
    "timestamp": "2023-02-26T08:30:56.099837Z",
    "stations_updated": "2023-01-30"
  },
  "altimeter": {
    "repr": "A2955",
    "value": 29.55,
    "spoken": "two nine point five five"
  },
  "clouds": [
    {
      "repr": "SCT015",
      "type": "SCT",
      "altitude": 15,
      "modifier": null
    },
    {
      "repr": "SCT022",
      "type": "SCT",
      "altitude": 22,
      "modifier": null
    }
  ],
  "flight_rules": "VFR",
  "other": [],
  "visibility": {
    "repr": "10",
    "value": 10,
    "spoken": "one zero"
  },
  "wind_direction": {
    "repr": "130",
    "value": 130,
    "spoken": "one three zero"
  },
  "wind_gust": null,
  "wind_speed": {
    "repr": "12",
    "value": 12,
    "spoken": "one two"
  },
  "wx_codes": [
    {
      "repr": "-RA",
      "value": "Light Rain"
    }
  ],
  "raw": "KAWO 260756Z AUTO 13012KT 10SM -RA SCT015 SCT022 02/00 A2955 RMK AO2 PK WND 15027/0709 SLP012 P0002 T00170000 400561067 FZRANO",
  "sanitized": "KAWO 260756Z 13012KT 10SM -RA SCT015 SCT022 02/00 A2955 RMK AO2 PK WND 15027/0709 SLP012 P0002 T00170000 400561067 FZRANO",
  "station": "KAWO",
  "time": {
    "repr": "260756Z",
    "dt": "2023-02-26T07:56:00Z"
  },
  "remarks": "RMK AO2 PK WND 15027/0709 SLP012 P0002 T00170000 400561067 FZRANO",
  "dewpoint": {
    "repr": "00",
    "value": 0,
    "spoken": "zero"
  },
  "relative_humidity": 0.8846986887746675,
  "remarks_info": {
    "maximum_temperature_6": null,
    "minimum_temperature_6": null,
    "pressure_tendency": null,
    "precip_36_hours": null,
    "precip_24_hours": null,
    "sunshine_minutes": null,
    "codes": [
      {
        "repr": "AO2",
        "value": "Automated with precipitation sensor"
      },
      {
        "repr": "FZRANO",
        "value": "Freezing rain information not available"
      }
    ],
    "dewpoint_decimal": {
      "repr": "0000",
      "value": 0,
      "spoken": "zero"
    },
    "maximum_temperature_24": {
      "repr": "0056",
      "value": 5.6,
      "spoken": "five point six"
    },
    "minimum_temperature_24": {
      "repr": "1067",
      "value": -6.7,
      "spoken": "minus six point seven"
    },
    "precip_hourly": {
      "repr": "P0002",
      "value": 0.02,
      "spoken": "zero point zero two"
    },
    "sea_level_pressure": {
      "repr": "SLP012",
      "value": 1001.2,
      "spoken": "one zero zero one point two"
    },
    "snow_depth": null,
    "temperature_decimal": {
      "repr": "0017",
      "value": 1.7,
      "spoken": "one point seven"
    }
  },
  "runway_visibility": [],
  "temperature": {
    "repr": "02",
    "value": 2,
    "spoken": "two"
  },
  "wind_variable_direction": [],
  "density_altitude": -1050,
  "pressure_altitude": 512,
  "units": {
    "accumulation": "in",
    "altimeter": "inHg",
    "altitude": "ft",
    "temperature": "C",
    "visibility": "sm",
    "wind_speed": "kt"
  }
}
