{
  "meta": {
    "timestamp": "2022-11-28T20:28:05.491003Z",
    "stations_updated": "2022-09-05"
  },
  "altimeter": {
    "repr": "A2991",
    "value": 29.91,
    "spoken": "two nine point nine one"
  },
  "clouds": [
    {
      "repr": "SCT014",
      "type": "SCT",
      "altitude": 14,
      "modifier": null
    },
    {
      "repr": "BKN019",
      "type": "BKN",
      "altitude": 19,
      "modifier": null
    }
  ],
  "flight_rules": "MVFR",
  "other": [],
  "visibility": {
    "repr": "10",
    "value": 10,
    "spoken": "one zero"
  },
  "wind_direction": {
    "repr": "VRB",
    "value": null,
    "spoken": "variable"
  },
  "wind_gust": null,
  "wind_speed": {
    "repr": "04",
    "value": 4,
    "spoken": "four"
  },
  "wx_codes": [],
  "raw": "KAWO 282017Z AUTO VRB04KT 10SM SCT014 BKN019 03/01 A2991 RMK AO2",
  "sanitized": "KAWO 282017Z VRB04KT 10SM SCT014 BKN019 03/01 A2991 RMK AO2",
  "station": "KAWO",
  "time": {
    "repr": "282017Z",
    "dt": "2022-11-28T20:17:00Z"
  },
  "remarks": "RMK AO2",
  "dewpoint": {
    "repr": "01",
    "value": 1,
    "spoken": "one"
  },
  "relative_humidity": 0.866944107103059,
  "remarks_info": {
    "maximum_temperature_6": null,
    "minimum_temperature_6": null,
    "pressure_tendency": null,
    "precip_36_hours": null,
    "precip_24_hours": null,
    "sunshine_minutes": null,
    "codes": [
      {
        "repr": "AO2",
        "value": "Automated with precipitation sensor"
      }
    ],
    "dewpoint_decimal": null,
    "maximum_temperature_24": null,
    "minimum_temperature_24": null,
    "precip_hourly": null,
    "sea_level_pressure": null,
    "snow_depth": null,
    "temperature_decimal": null
  },
  "runway_visibility": [],
  "temperature": {
    "repr": "03",
    "value": 3,
    "spoken": "three"
  },
  "wind_variable_direction": [],
  "density_altitude": -1254,
  "pressure_altitude": 152,
  "units": {
    "accumulation": "in",
    "altimeter": "inHg",
    "altitude": "ft",
    "temperature": "C",
    "visibility": "sm",
    "wind_speed": "kt"
  }
}
