{
  "altimeter": {
    "repr": "A2942",
    "spoken": "two nine point four two",
    "value": 29.42
  },
  "clouds": [
    {
      "altitude": 13,
      "modifier": null,
      "repr": "OVC013",
      "type": "OVC"
    }
  ],
  "density_altitude": -596,
  "dewpoint": {
    "repr": "03",
    "spoken": "three",
    "value": 3
  },
  "flight_rules": "MVFR",
  "meta": {
    "cache-timestamp": "2024-02-29T12:38:04.520000Z",
    "stations_updated": "2024-01-01",
    "timestamp": "2024-02-29T12:38:13.482573Z"
  },
  "other": [],
  "pressure_altitude": 642,
  "raw": "KAWO 291156Z AUTO 15013KT 10SM -RA OVC013 04/03 A2942 RMK AO2 SLP967 P0002 60050 70089 T00440033 10061 20039 50003",
  "relative_humidity": 0.9255582325082627,
  "remarks": "RMK AO2 SLP967 P0002 60050 70089 T00440033 10061 20039 50003",
  "remarks_info": {
    "codes": [
      {
        "repr": "AO2",
        "value": "Automated with precipitation sensor"
      }
    ],
    "dewpoint_decimal": {
      "repr": "0033",
      "spoken": "three point three",
      "value": 3.3
    },
    "maximum_temperature_24": null,
    "maximum_temperature_6": {
      "repr": "10061",
      "spoken": "six point one",
      "value": 6.1
    },
    "minimum_temperature_24": null,
    "minimum_temperature_6": {
      "repr": "20039",
      "spoken": "three point nine",
      "value": 3.9
    },
    "precip_24_hours": {
      "repr": "70089",
      "spoken": "zero point eight nine",
      "value": 0.89
    },
    "precip_36_hours": {
      "repr": "60050",
      "spoken": "zero point five",
      "value": 0.5
    },
    "precip_hourly": {
      "repr": "P0002",
      "spoken": "zero point zero two",
      "value": 0.02
    },
    "pressure_tendency": {
      "change": 0.3,
      "repr": "50003",
      "tendency": "Increasing, then decreasing"
    },
    "sea_level_pressure": {
      "repr": "SLP967",
      "spoken": "nine nine six point seven",
      "value": 996.7
    },
    "snow_depth": null,
    "sunshine_minutes": null,
    "temperature_decimal": {
      "repr": "0044",
      "spoken": "four point four",
      "value": 4.4
    }
  },
  "runway_visibility": [],
  "sanitized": "KAWO 291156Z 15013KT 10SM -RA OVC013 04/03 A2942 RMK AO2 SLP967 P0002 60050 70089 T00440033 10061 20039 50003",
  "station": "KAWO",
  "temperature": {
    "repr": "04",
    "spoken": "four",
    "value": 4
  },
  "time": {
    "dt": "2024-02-29T11:56:00Z",
    "repr": "291156Z"
  },
  "units": {
    "accumulation": "in",
    "altimeter": "inHg",
    "altitude": "ft",
    "temperature": "C",
    "visibility": "sm",
    "wind_speed": "kt"
  },
  "visibility": {
    "repr": "10",
    "spoken": "one zero",
    "value": 10
  },
  "wind_direction": {
    "repr": "150",
    "spoken": "one five zero",
    "value": 150
  },
  "wind_gust": null,
  "wind_speed": {
    "repr": "13",
    "spoken": "one three",
    "value": 13
  },
  "wind_variable_direction": [],
  "wx_codes": [
    {
      "repr": "-RA",
      "value": "Light Rain"
    }
  ]
}
