{
  "meta": {
    "timestamp": "2023-07-02T18:28:28.829394Z",
    "stations_updated": "2023-06-06",
    "cache-timestamp": "2023-07-02T18:28:03.464000Z"
  },
  "altimeter": {
    "repr": "A3016",
    "value": 30.16,
    "spoken": "three zero point one six"
  },
  "clouds": [],
  "flight_rules": "VFR",
  "other": [],
  "visibility": {
    "repr": "10",
    "value": 10,
    "spoken": "one zero"
  },
  "wind_direction": {
    "repr": "300",
    "value": 300,
    "spoken": "three zero zero"
  },
  "wind_gust": null,
  "wind_speed": {
    "repr": "07",
    "value": 7,
    "spoken": "seven"
  },
  "wx_codes": [],
  "raw": "KAWO 021756Z AUTO 30007KT 10SM CLR 21/12 A3016 RMK AO2 SLP215 T02060117 10206 20083 56008",
  "sanitized": "KAWO 021756Z 30007KT 10SM 21/12 A3016 RMK AO2 SLP215 T02060117 10206 20083 56008",
  "station": "KAWO",
  "time": {
    "repr": "021756Z",
    "dt": "2023-07-02T17:56:00Z"
  },
  "remarks": "RMK AO2 SLP215 T02060117 10206 20083 56008",
  "dewpoint": {
    "repr": "12",
    "value": 12,
    "spoken": "one two"
  },
  "relative_humidity": 0.566562667765438,
  "remarks_info": {
    "maximum_temperature_6": {
      "repr": "10206",
      "value": 20.6,
      "spoken": "two zero point six"
    },
    "minimum_temperature_6": {
      "repr": "20083",
      "value": 8.3,
      "spoken": "eight point three"
    },
    "pressure_tendency": {
      "repr": "56008",
      "tendency": "Decreasing, then steady",
      "change": 0.8
    },
    "precip_36_hours": null,
    "precip_24_hours": null,
    "sunshine_minutes": null,
    "codes": [
      {
        "repr": "AO2",
        "value": "Automated with precipitation sensor"
      }
    ],
    "dewpoint_decimal": {
      "repr": "0117",
      "value": 11.7,
      "spoken": "one one point seven"
    },
    "maximum_temperature_24": null,
    "minimum_temperature_24": null,
    "precip_hourly": null,
    "sea_level_pressure": {
      "repr": "SLP215",
      "value": 1021.5,
      "spoken": "one zero two one point five"
    },
    "snow_depth": null,
    "temperature_decimal": {
      "repr": "0206",
      "value": 20.6,
      "spoken": "two zero point six"
    }
  },
  "runway_visibility": [],
  "temperature": {
    "repr": "21",
    "value": 21,
    "spoken": "two one"
  },
  "wind_variable_direction": [],
  "density_altitude": 608,
  "pressure_altitude": -98,
  "units": {
    "accumulation": "in",
    "altimeter": "inHg",
    "altitude": "ft",
    "temperature": "C",
    "visibility": "sm",
    "wind_speed": "kt"
  }
}
