{
  "meta": {
    "timestamp": "2023-07-29T15:21:21.978746Z",
    "stations_updated": "2023-06-06"
  },
  "altimeter": {
    "repr": "A3012",
    "value": 30.12,
    "spoken": "three zero point one two"
  },
  "clouds": [
    {
      "repr": "OVC075",
      "type": "OVC",
      "altitude": 75,
      "modifier": null
    }
  ],
  "flight_rules": "VFR",
  "other": [],
  "visibility": {
    "repr": "10",
    "value": 10,
    "spoken": "one zero"
  },
  "wind_direction": {
    "repr": "280",
    "value": 280,
    "spoken": "two eight zero"
  },
  "wind_gust": null,
  "wind_speed": {
    "repr": "04",
    "value": 4,
    "spoken": "four"
  },
  "wx_codes": [],
  "raw": "KAWO 291456Z AUTO 28004KT 10SM OVC075 16/12 A3012 RMK AO2 SLP201 T01560117 51010",
  "sanitized": "KAWO 291456Z 28004KT 10SM OVC075 16/12 A3012 RMK AO2 SLP201 T01560117 51010",
  "station": "KAWO",
  "time": {
    "repr": "291456Z",
    "dt": "2023-07-29T14:56:00Z"
  },
  "remarks": "RMK AO2 SLP201 T01560117 51010",
  "dewpoint": {
    "repr": "12",
    "value": 12,
    "spoken": "one two"
  },
  "relative_humidity": 0.7758649003750742,
  "remarks_info": {
    "maximum_temperature_6": null,
    "minimum_temperature_6": null,
    "pressure_tendency": {
      "repr": "51010",
      "tendency": "Increasing, then steady",
      "change": 1
    },
    "precip_36_hours": null,
    "precip_24_hours": null,
    "sunshine_minutes": null,
    "codes": [
      {
        "repr": "AO2",
        "value": "Automated with precipitation sensor"
      }
    ],
    "dewpoint_decimal": {
      "repr": "0117",
      "value": 11.7,
      "spoken": "one one point seven"
    },
    "maximum_temperature_24": null,
    "minimum_temperature_24": null,
    "precip_hourly": null,
    "sea_level_pressure": {
      "repr": "SLP201",
      "value": 1020.1,
      "spoken": "one zero two zero point one"
    },
    "snow_depth": null,
    "temperature_decimal": {
      "repr": "0156",
      "value": 15.6,
      "spoken": "one five point six"
    }
  },
  "runway_visibility": [],
  "temperature": {
    "repr": "16",
    "value": 16,
    "spoken": "one six"
  },
  "wind_variable_direction": [],
  "density_altitude": 48,
  "pressure_altitude": -58,
  "units": {
    "accumulation": "in",
    "altimeter": "inHg",
    "altitude": "ft",
    "temperature": "C",
    "visibility": "sm",
    "wind_speed": "kt"
  }
}
