{
  "altimeter": {
    "repr": "A2998",
    "spoken": "two nine point nine eight",
    "value": 29.98
  },
  "clouds": [],
  "density_altitude": 44,
  "dewpoint": {
    "repr": "12",
    "spoken": "one two",
    "value": 12
  },
  "flight_rules": "VFR",
  "meta": {
    "stations_updated": "2024-06-12",
    "timestamp": "2024-08-17T06:08:21.320912Z"
  },
  "other": [],
  "pressure_altitude": 82,
  "raw": "KAWO 170556Z AUTO 30006KT 10SM CLR 14/12 A2998 RMK AO2 SLP157 T01440122 10222 20144 58002",
  "relative_humidity": 0.8662852364578876,
  "remarks": "RMK AO2 SLP157 T01440122 10222 20144 58002",
  "remarks_info": {
    "codes": [
      {
        "repr": "AO2",
        "value": "Automated with precipitation sensor"
      }
    ],
    "dewpoint_decimal": {
      "repr": "0122",
      "spoken": "one two point two",
      "value": 12.2
    },
    "maximum_temperature_24": null,
    "maximum_temperature_6": {
      "repr": "10222",
      "spoken": "two two point two",
      "value": 22.2
    },
    "minimum_temperature_24": null,
    "minimum_temperature_6": {
      "repr": "20144",
      "spoken": "one four point four",
      "value": 14.4
    },
    "precip_24_hours": null,
    "precip_36_hours": null,
    "precip_hourly": null,
    "pressure_tendency": {
      "change": 0.2,
      "repr": "58002",
      "tendency": "Steady or increasing, then decreasing"
    },
    "sea_level_pressure": {
      "repr": "SLP157",
      "spoken": "one zero one five point seven",
      "value": 1015.7
    },
    "snow_depth": null,
    "sunshine_minutes": null,
    "temperature_decimal": {
      "repr": "0144",
      "spoken": "one four point four",
      "value": 14.4
    }
  },
  "runway_visibility": [],
  "sanitized": "KAWO 170556Z 30006KT 10SM 14/12 A2998 RMK AO2 SLP157 T01440122 10222 20144 58002",
  "station": "KAWO",
  "temperature": {
    "repr": "14",
    "spoken": "one four",
    "value": 14
  },
  "time": {
    "dt": "2024-08-17T05:56:00Z",
    "repr": "170556Z"
  },
  "units": {
    "accumulation": "in",
    "altimeter": "inHg",
    "altitude": "ft",
    "temperature": "C",
    "visibility": "sm",
    "wind_speed": "kt"
  },
  "visibility": {
    "repr": "10",
    "spoken": "one zero",
    "value": 10
  },
  "wind_direction": {
    "repr": "300",
    "spoken": "three zero zero",
    "value": 300
  },
  "wind_gust": null,
  "wind_speed": {
    "repr": "06",
    "spoken": "six",
    "value": 6
  },
  "wind_variable_direction": [],
  "wx_codes": []
}
