{
  "altimeter": {
    "repr": "A3010",
    "spoken": "three zero point one zero",
    "value": 30.1
  },
  "clouds": [
    {
      "altitude": 50,
      "modifier": null,
      "repr": "OVC050",
      "type": "OVC"
    }
  ],
  "density_altitude": 116,
  "dewpoint": {
    "repr": "09",
    "spoken": "nine",
    "value": 9
  },
  "flight_rules": "VFR",
  "meta": {
    "cache-timestamp": "2024-06-11T22:40:05.150000Z",
    "stations_updated": "2024-05-13",
    "timestamp": "2024-06-11T22:40:47.542111Z"
  },
  "other": [],
  "pressure_altitude": -38,
  "raw": "KAWO 112204Z AUTO 30012KT 10SM OVC050 16/09 A3010 RMK AO2 WSHFT 2144",
  "relative_humidity": 0.6314995898937283,
  "remarks": "RMK AO2 WSHFT 2144",
  "remarks_info": {
    "codes": [
      {
        "repr": "AO2",
        "value": "Automated with precipitation sensor"
      }
    ],
    "dewpoint_decimal": null,
    "maximum_temperature_24": null,
    "maximum_temperature_6": null,
    "minimum_temperature_24": null,
    "minimum_temperature_6": null,
    "precip_24_hours": null,
    "precip_36_hours": null,
    "precip_hourly": null,
    "pressure_tendency": null,
    "sea_level_pressure": null,
    "snow_depth": null,
    "sunshine_minutes": null,
    "temperature_decimal": null
  },
  "runway_visibility": [],
  "sanitized": "KAWO 112204Z 30012KT 10SM OVC050 16/09 A3010 RMK AO2 WSHFT 2144",
  "station": "KAWO",
  "temperature": {
    "repr": "16",
    "spoken": "one six",
    "value": 16
  },
  "time": {
    "dt": "2024-06-11T22:04:00Z",
    "repr": "112204Z"
  },
  "units": {
    "accumulation": "in",
    "altimeter": "inHg",
    "altitude": "ft",
    "temperature": "C",
    "visibility": "sm",
    "wind_speed": "kt"
  },
  "visibility": {
    "repr": "10",
    "spoken": "one zero",
    "value": 10
  },
  "wind_direction": {
    "repr": "300",
    "spoken": "three zero zero",
    "value": 300
  },
  "wind_gust": null,
  "wind_speed": {
    "repr": "12",
    "spoken": "one two",
    "value": 12
  },
  "wind_variable_direction": [],
  "wx_codes": []
}
