{
  "meta": {
    "timestamp": "2023-08-15T00:23:54.180119Z",
    "stations_updated": "2023-08-05"
  },
  "altimeter": {
    "repr": "A2994",
    "value": 29.94,
    "spoken": "two nine point nine four"
  },
  "clouds": [],
  "flight_rules": "VFR",
  "other": [],
  "visibility": {
    "repr": "10",
    "value": 10,
    "spoken": "one zero"
  },
  "wind_direction": {
    "repr": "290",
    "value": 290,
    "spoken": "two nine zero"
  },
  "wind_gust": null,
  "wind_speed": {
    "repr": "13",
    "value": 13,
    "spoken": "one three"
  },
  "wx_codes": [],
  "raw": "KAWO 142356Z AUTO 29013KT 10SM CLR 31/15 A2994 RMK AO2 SLP141 T03110150 10328 20261 56018",
  "sanitized": "KAWO 142356Z 29013KT 10SM 31/15 A2994 RMK AO2 SLP141 T03110150 10328 20261 56018",
  "station": "KAWO",
  "time": {
    "repr": "142356Z",
    "dt": "2023-08-14T23:56:00Z"
  },
  "remarks": "RMK AO2 SLP141 T03110150 10328 20261 56018",
  "dewpoint": {
    "repr": "15",
    "value": 15,
    "spoken": "one five"
  },
  "relative_humidity": 0.3768572734136175,
  "remarks_info": {
    "maximum_temperature_6": {
      "repr": "10328",
      "value": 32.8,
      "spoken": "three two point eight"
    },
    "minimum_temperature_6": {
      "repr": "20261",
      "value": 26.1,
      "spoken": "two six point one"
    },
    "pressure_tendency": {
      "repr": "56018",
      "tendency": "Decreasing, then steady",
      "change": 1.8
    },
    "precip_36_hours": null,
    "precip_24_hours": null,
    "sunshine_minutes": null,
    "codes": [
      {
        "repr": "AO2",
        "value": "Automated with precipitation sensor"
      }
    ],
    "dewpoint_decimal": {
      "repr": "0150",
      "value": 15,
      "spoken": "one five point zero"
    },
    "maximum_temperature_24": null,
    "minimum_temperature_24": null,
    "precip_hourly": null,
    "sea_level_pressure": {
      "repr": "SLP141",
      "value": 1014.1,
      "spoken": "one zero one four point one"
    },
    "snow_depth": null,
    "temperature_decimal": {
      "repr": "0311",
      "value": 31.1,
      "spoken": "three one point one"
    }
  },
  "runway_visibility": [],
  "temperature": {
    "repr": "31",
    "value": 31,
    "spoken": "three one"
  },
  "wind_variable_direction": [],
  "density_altitude": 2088,
  "pressure_altitude": 122,
  "units": {
    "accumulation": "in",
    "altimeter": "inHg",
    "altitude": "ft",
    "temperature": "C",
    "visibility": "sm",
    "wind_speed": "kt"
  }
}
