{
  "meta": {
    "timestamp": "2022-12-01T12:54:38.613918Z",
    "stations_updated": "2022-09-05"
  },
  "altimeter": {
    "repr": "A2958",
    "value": 29.58,
    "spoken": "two nine point five eight"
  },
  "clouds": [
    {
      "repr": "FEW015",
      "type": "FEW",
      "altitude": 15,
      "modifier": null
    },
    {
      "repr": "SCT021",
      "type": "SCT",
      "altitude": 21,
      "modifier": null
    }
  ],
  "flight_rules": "VFR",
  "other": [],
  "visibility": {
    "repr": "10",
    "value": 10,
    "spoken": "one zero"
  },
  "wind_direction": {
    "repr": "340",
    "value": 340,
    "spoken": "three four zero"
  },
  "wind_gust": null,
  "wind_speed": {
    "repr": "03",
    "value": 3,
    "spoken": "three"
  },
  "wx_codes": [],
  "raw": "KAWO 011236Z AUTO 34003KT 10SM FEW015 SCT021 M03/M03 A2958 RMK AO2 FZRANO",
  "sanitized": "KAWO 011236Z 34003KT 10SM FEW015 SCT021 M03/M03 A2958 RMK AO2 FZRANO",
  "station": "KAWO",
  "time": {
    "repr": "011236Z",
    "dt": "2022-12-01T12:36:00Z"
  },
  "remarks": "RMK AO2 FZRANO",
  "dewpoint": {
    "repr": "M03",
    "value": -3,
    "spoken": "minus three"
  },
  "relative_humidity": 1,
  "remarks_info": {
    "maximum_temperature_6": null,
    "minimum_temperature_6": null,
    "pressure_tendency": null,
    "precip_36_hours": null,
    "precip_24_hours": null,
    "sunshine_minutes": null,
    "codes": [
      {
        "repr": "AO2",
        "value": "Automated with precipitation sensor"
      },
      {
        "repr": "FZRANO",
        "value": "Freezing rain information not available"
      }
    ],
    "dewpoint_decimal": null,
    "maximum_temperature_24": null,
    "minimum_temperature_24": null,
    "precip_hourly": null,
    "sea_level_pressure": null,
    "snow_depth": null,
    "temperature_decimal": null
  },
  "runway_visibility": [],
  "temperature": {
    "repr": "M03",
    "value": -3,
    "spoken": "minus three"
  },
  "wind_variable_direction": [],
  "density_altitude": -1644,
  "pressure_altitude": 482,
  "units": {
    "accumulation": "in",
    "altimeter": "inHg",
    "altitude": "ft",
    "temperature": "C",
    "visibility": "sm",
    "wind_speed": "kt"
  }
}
