{
  "altimeter": {
    "repr": "A2997",
    "spoken": "two nine point nine seven",
    "value": 29.97
  },
  "clouds": [
    {
      "altitude": 50,
      "modifier": null,
      "repr": "BKN050",
      "type": "BKN"
    },
    {
      "altitude": 60,
      "modifier": null,
      "repr": "BKN060",
      "type": "BKN"
    }
  ],
  "density_altitude": 1254,
  "dewpoint": {
    "repr": "12",
    "spoken": "one two",
    "value": 12
  },
  "flight_rules": "VFR",
  "meta": {
    "stations_updated": "2024-06-12",
    "timestamp": "2024-08-18T22:40:36.512227Z"
  },
  "other": [],
  "pressure_altitude": 92,
  "raw": "KAWO 182156Z AUTO 17012G17KT 10SM BKN050 BKN060 24/12 A2997 RMK AO2 SLP154 T02440117",
  "relative_humidity": 0.4496634329849402,
  "remarks": "RMK AO2 SLP154 T02440117",
  "remarks_info": {
    "codes": [
      {
        "repr": "AO2",
        "value": "Automated with precipitation sensor"
      }
    ],
    "dewpoint_decimal": {
      "repr": "0117",
      "spoken": "one one point seven",
      "value": 11.7
    },
    "maximum_temperature_24": null,
    "maximum_temperature_6": null,
    "minimum_temperature_24": null,
    "minimum_temperature_6": null,
    "precip_24_hours": null,
    "precip_36_hours": null,
    "precip_hourly": null,
    "pressure_tendency": null,
    "sea_level_pressure": {
      "repr": "SLP154",
      "spoken": "one zero one five point four",
      "value": 1015.4
    },
    "snow_depth": null,
    "sunshine_minutes": null,
    "temperature_decimal": {
      "repr": "0244",
      "spoken": "two four point four",
      "value": 24.4
    }
  },
  "runway_visibility": [],
  "sanitized": "KAWO 182156Z 17012G17KT 10SM BKN050 BKN060 24/12 A2997 RMK AO2 SLP154 T02440117",
  "station": "KAWO",
  "temperature": {
    "repr": "24",
    "spoken": "two four",
    "value": 24
  },
  "time": {
    "dt": "2024-08-18T21:56:00Z",
    "repr": "182156Z"
  },
  "units": {
    "accumulation": "in",
    "altimeter": "inHg",
    "altitude": "ft",
    "temperature": "C",
    "visibility": "sm",
    "wind_speed": "kt"
  },
  "visibility": {
    "repr": "10",
    "spoken": "one zero",
    "value": 10
  },
  "wind_direction": {
    "repr": "170",
    "spoken": "one seven zero",
    "value": 170
  },
  "wind_gust": {
    "repr": "17",
    "spoken": "one seven",
    "value": 17
  },
  "wind_speed": {
    "repr": "12",
    "spoken": "one two",
    "value": 12
  },
  "wind_variable_direction": [],
  "wx_codes": []
}
