{
  "altimeter": {
    "repr": "A2994",
    "spoken": "two nine point nine four",
    "value": 29.94
  },
  "clouds": [
    {
      "altitude": 23,
      "modifier": null,
      "repr": "OVC023",
      "type": "OVC"
    }
  ],
  "density_altitude": -516,
  "dewpoint": {
    "repr": "07",
    "spoken": "seven",
    "value": 7
  },
  "flight_rules": "MVFR",
  "meta": {
    "stations_updated": "2024-10-29",
    "timestamp": "2024-11-12T15:28:29.429014Z"
  },
  "other": [],
  "pressure_altitude": 122,
  "raw": "KAWO 121456Z AUTO 16008KT 10SM OVC023 09/07 A2994 RMK AO2 SLP143 60000 T00940067 51025",
  "relative_humidity": 0.8322719985957746,
  "remarks": "RMK AO2 SLP143 60000 T00940067 51025",
  "remarks_info": {
    "codes": [
      {
        "repr": "AO2",
        "value": "Automated with precipitation sensor"
      }
    ],
    "dewpoint_decimal": {
      "repr": "0067",
      "spoken": "six point seven",
      "value": 6.7
    },
    "maximum_temperature_24": null,
    "maximum_temperature_6": null,
    "minimum_temperature_24": null,
    "minimum_temperature_6": null,
    "precip_24_hours": null,
    "precip_36_hours": {
      "repr": "60000",
      "spoken": "zero",
      "value": 0
    },
    "precip_hourly": null,
    "pressure_tendency": {
      "change": 2.5,
      "repr": "51025",
      "tendency": "Increasing, then steady"
    },
    "sea_level_pressure": {
      "repr": "SLP143",
      "spoken": "one zero one four point three",
      "value": 1014.3
    },
    "snow_depth": null,
    "sunshine_minutes": null,
    "temperature_decimal": {
      "repr": "0094",
      "spoken": "nine point four",
      "value": 9.4
    }
  },
  "runway_visibility": [],
  "sanitized": "KAWO 121456Z 16008KT 10SM OVC023 09/07 A2994 RMK AO2 SLP143 60000 T00940067 51025",
  "station": "KAWO",
  "temperature": {
    "repr": "09",
    "spoken": "nine",
    "value": 9
  },
  "time": {
    "dt": "2024-11-12T14:56:00Z",
    "repr": "121456Z"
  },
  "units": {
    "accumulation": "in",
    "altimeter": "inHg",
    "altitude": "ft",
    "temperature": "C",
    "visibility": "sm",
    "wind_speed": "kt"
  },
  "visibility": {
    "repr": "10",
    "spoken": "one zero",
    "value": 10
  },
  "wind_direction": {
    "repr": "160",
    "spoken": "one six zero",
    "value": 160
  },
  "wind_gust": null,
  "wind_speed": {
    "repr": "08",
    "spoken": "eight",
    "value": 8
  },
  "wind_variable_direction": [],
  "wx_codes": []
}
