{
  "altimeter": {
    "repr": "A3032",
    "spoken": "three zero point three two",
    "value": 30.32
  },
  "clouds": [
    {
      "altitude": 34,
      "modifier": null,
      "repr": "BKN034",
      "type": "BKN"
    }
  ],
  "density_altitude": -1628,
  "dewpoint": {
    "repr": "02",
    "spoken": "two",
    "value": 2
  },
  "flight_rules": "VFR",
  "meta": {
    "cache-timestamp": "2024-03-13T12:38:02.719000Z",
    "stations_updated": "2024-01-01",
    "timestamp": "2024-03-13T12:38:46.133302Z"
  },
  "other": [],
  "pressure_altitude": -258,
  "raw": "KAWO 131156Z AUTO 00000KT 10SM BKN034 03/02 A3032 RMK AO2 SLP274 60000 7//// T00330022 10050 20028 53014",
  "relative_humidity": 0.9249173515197439,
  "remarks": "RMK AO2 SLP274 60000 7//// T00330022 10050 20028 53014",
  "remarks_info": {
    "codes": [
      {
        "repr": "AO2",
        "value": "Automated with precipitation sensor"
      }
    ],
    "dewpoint_decimal": {
      "repr": "0022",
      "spoken": "two point two",
      "value": 2.2
    },
    "maximum_temperature_24": null,
    "maximum_temperature_6": {
      "repr": "10050",
      "spoken": "five point zero",
      "value": 5
    },
    "minimum_temperature_24": null,
    "minimum_temperature_6": {
      "repr": "20028",
      "spoken": "two point eight",
      "value": 2.8
    },
    "precip_24_hours": null,
    "precip_36_hours": {
      "repr": "60000",
      "spoken": "zero",
      "value": 0
    },
    "precip_hourly": null,
    "pressure_tendency": {
      "change": 1.4,
      "repr": "53014",
      "tendency": "Decreasing or steady, then increasing"
    },
    "sea_level_pressure": {
      "repr": "SLP274",
      "spoken": "one zero two seven point four",
      "value": 1027.4
    },
    "snow_depth": null,
    "sunshine_minutes": null,
    "temperature_decimal": {
      "repr": "0033",
      "spoken": "three point three",
      "value": 3.3
    }
  },
  "runway_visibility": [],
  "sanitized": "KAWO 131156Z 00000KT 10SM BKN034 03/02 A3032 RMK AO2 SLP274 60000 7//// T00330022 10050 20028 53014",
  "station": "KAWO",
  "temperature": {
    "repr": "03",
    "spoken": "three",
    "value": 3
  },
  "time": {
    "dt": "2024-03-13T11:56:00Z",
    "repr": "131156Z"
  },
  "units": {
    "accumulation": "in",
    "altimeter": "inHg",
    "altitude": "ft",
    "temperature": "C",
    "visibility": "sm",
    "wind_speed": "kt"
  },
  "visibility": {
    "repr": "10",
    "spoken": "one zero",
    "value": 10
  },
  "wind_direction": {
    "repr": "000",
    "spoken": "zero zero zero",
    "value": 0
  },
  "wind_gust": null,
  "wind_speed": {
    "repr": "00",
    "spoken": "zero",
    "value": 0
  },
  "wind_variable_direction": [],
  "wx_codes": []
}
