{
  "altimeter": {
    "repr": "A2991",
    "spoken": "two nine point nine one",
    "value": 29.91
  },
  "clouds": [
    {
      "altitude": 70,
      "modifier": null,
      "repr": "BKN070",
      "type": "BKN"
    }
  ],
  "density_altitude": 450,
  "dewpoint": {
    "repr": "12",
    "spoken": "one two",
    "value": 12
  },
  "flight_rules": "VFR",
  "meta": {
    "stations_updated": "2024-05-13",
    "timestamp": "2024-06-26T18:43:11.922234Z"
  },
  "other": [],
  "pressure_altitude": 152,
  "raw": "KAWO 261756Z AUTO 16004KT 10SM BKN070 17/12 A2991 RMK AO2 RAB12E24 SLP130 P0000 60000 T01720122 10172 20111 50007",
  "relative_humidity": 0.7241723553108393,
  "remarks": "RMK AO2 RAB12E24 SLP130 P0000 60000 T01720122 10172 20111 50007",
  "remarks_info": {
    "codes": [
      {
        "repr": "AO2",
        "value": "Automated with precipitation sensor"
      },
      {
        "repr": "P0000",
        "value": "Trace amount of rain in the last hour"
      }
    ],
    "dewpoint_decimal": {
      "repr": "0122",
      "spoken": "one two point two",
      "value": 12.2
    },
    "maximum_temperature_24": null,
    "maximum_temperature_6": {
      "repr": "10172",
      "spoken": "one seven point two",
      "value": 17.2
    },
    "minimum_temperature_24": null,
    "minimum_temperature_6": {
      "repr": "20111",
      "spoken": "one one point one",
      "value": 11.1
    },
    "precip_24_hours": null,
    "precip_36_hours": {
      "repr": "60000",
      "spoken": "zero",
      "value": 0
    },
    "precip_hourly": null,
    "pressure_tendency": {
      "change": 0.7,
      "repr": "50007",
      "tendency": "Increasing, then decreasing"
    },
    "sea_level_pressure": {
      "repr": "SLP130",
      "spoken": "one zero one three point zero",
      "value": 1013
    },
    "snow_depth": null,
    "sunshine_minutes": null,
    "temperature_decimal": {
      "repr": "0172",
      "spoken": "one seven point two",
      "value": 17.2
    }
  },
  "runway_visibility": [],
  "sanitized": "KAWO 261756Z 16004KT 10SM BKN070 17/12 A2991 RMK AO2 RAB12E24 SLP130 P0000 60000 T01720122 10172 20111 50007",
  "station": "KAWO",
  "temperature": {
    "repr": "17",
    "spoken": "one seven",
    "value": 17
  },
  "time": {
    "dt": "2024-06-26T17:56:00Z",
    "repr": "261756Z"
  },
  "units": {
    "accumulation": "in",
    "altimeter": "inHg",
    "altitude": "ft",
    "temperature": "C",
    "visibility": "sm",
    "wind_speed": "kt"
  },
  "visibility": {
    "repr": "10",
    "spoken": "one zero",
    "value": 10
  },
  "wind_direction": {
    "repr": "160",
    "spoken": "one six zero",
    "value": 160
  },
  "wind_gust": null,
  "wind_speed": {
    "repr": "04",
    "spoken": "four",
    "value": 4
  },
  "wind_variable_direction": [],
  "wx_codes": []
}
