{
  "meta": {
    "timestamp": "2023-01-31T16:48:31.233127Z",
    "stations_updated": "2023-01-30"
  },
  "altimeter": {
    "repr": "A3031",
    "value": 30.31,
    "spoken": "three zero point three one"
  },
  "clouds": [
    {
      "repr": "SCT024",
      "type": "SCT",
      "altitude": 24,
      "modifier": null
    },
    {
      "repr": "BKN036",
      "type": "BKN",
      "altitude": 36,
      "modifier": null
    }
  ],
  "flight_rules": "MVFR",
  "other": [],
  "visibility": {
    "repr": "3",
    "value": 3,
    "spoken": "three"
  },
  "wind_direction": {
    "repr": "110",
    "value": 110,
    "spoken": "one one zero"
  },
  "wind_gust": null,
  "wind_speed": {
    "repr": "04",
    "value": 4,
    "spoken": "four"
  },
  "wx_codes": [
    {
      "repr": "-SN",
      "value": "Light Snow"
    },
    {
      "repr": "BR",
      "value": "Mist"
    }
  ],
  "raw": "KAWO 311636Z AUTO 11004KT 3SM -SN BR SCT024 BKN036 00/M02 A3031 RMK AO2 P0000 FZRANO",
  "sanitized": "KAWO 311636Z 11004KT 3SM -SN BR SCT024 BKN036 00/M02 A3031 RMK AO2 P0000 FZRANO",
  "station": "KAWO",
  "time": {
    "repr": "311636Z",
    "dt": "2023-01-31T16:36:00Z"
  },
  "remarks": "RMK AO2 P0000 FZRANO",
  "dewpoint": {
    "repr": "M02",
    "value": -2,
    "spoken": "minus two"
  },
  "relative_humidity": 0.8638679100720928,
  "remarks_info": {
    "maximum_temperature_6": null,
    "minimum_temperature_6": null,
    "pressure_tendency": null,
    "precip_36_hours": null,
    "precip_24_hours": null,
    "sunshine_minutes": null,
    "codes": [
      {
        "repr": "AO2",
        "value": "Automated with precipitation sensor"
      },
      {
        "repr": "FZRANO",
        "value": "Freezing rain information not available"
      },
      {
        "repr": "P0000",
        "value": "Trace amount of rain in the last hour"
      }
    ],
    "dewpoint_decimal": null,
    "maximum_temperature_24": null,
    "minimum_temperature_24": null,
    "precip_hourly": null,
    "sea_level_pressure": null,
    "snow_depth": null,
    "temperature_decimal": null
  },
  "runway_visibility": [],
  "temperature": {
    "repr": "00",
    "value": 0,
    "spoken": "zero"
  },
  "wind_variable_direction": [],
  "density_altitude": -2014,
  "pressure_altitude": -248,
  "units": {
    "accumulation": "in",
    "altimeter": "inHg",
    "altitude": "ft",
    "temperature": "C",
    "visibility": "sm",
    "wind_speed": "kt"
  }
}
