{
  "altimeter": {
    "repr": "A3004",
    "spoken": "three zero point zero four",
    "value": 30.04
  },
  "clouds": [],
  "density_altitude": 188,
  "dewpoint": {
    "repr": "06",
    "spoken": "six",
    "value": 6
  },
  "flight_rules": "VFR",
  "meta": {
    "stations_updated": "2024-10-29",
    "timestamp": "2024-11-08T22:41:21.834560Z"
  },
  "other": [],
  "pressure_altitude": 22,
  "raw": "KAWO 082156Z AUTO 17011KT 10SM CLR 16/06 A3004 RMK AO2 SLP179 T01610056",
  "relative_humidity": 0.4972667577195171,
  "remarks": "RMK AO2 SLP179 T01610056",
  "remarks_info": {
    "codes": [
      {
        "repr": "AO2",
        "value": "Automated with precipitation sensor"
      }
    ],
    "dewpoint_decimal": {
      "repr": "0056",
      "spoken": "five point six",
      "value": 5.6
    },
    "maximum_temperature_24": null,
    "maximum_temperature_6": null,
    "minimum_temperature_24": null,
    "minimum_temperature_6": null,
    "precip_24_hours": null,
    "precip_36_hours": null,
    "precip_hourly": null,
    "pressure_tendency": null,
    "sea_level_pressure": {
      "repr": "SLP179",
      "spoken": "one zero one seven point nine",
      "value": 1017.9
    },
    "snow_depth": null,
    "sunshine_minutes": null,
    "temperature_decimal": {
      "repr": "0161",
      "spoken": "one six point one",
      "value": 16.1
    }
  },
  "runway_visibility": [],
  "sanitized": "KAWO 082156Z 17011KT 10SM 16/06 A3004 RMK AO2 SLP179 T01610056",
  "station": "KAWO",
  "temperature": {
    "repr": "16",
    "spoken": "one six",
    "value": 16
  },
  "time": {
    "dt": "2024-11-08T21:56:00Z",
    "repr": "082156Z"
  },
  "units": {
    "accumulation": "in",
    "altimeter": "inHg",
    "altitude": "ft",
    "temperature": "C",
    "visibility": "sm",
    "wind_speed": "kt"
  },
  "visibility": {
    "repr": "10",
    "spoken": "one zero",
    "value": 10
  },
  "wind_direction": {
    "repr": "170",
    "spoken": "one seven zero",
    "value": 170
  },
  "wind_gust": null,
  "wind_speed": {
    "repr": "11",
    "spoken": "one one",
    "value": 11
  },
  "wind_variable_direction": [],
  "wx_codes": []
}
