{
  "altimeter": {
    "repr": "A3003",
    "spoken": "three zero point zero three",
    "value": 30.03
  },
  "clouds": [
    {
      "altitude": 22,
      "modifier": null,
      "repr": "BKN022",
      "type": "BKN"
    },
    {
      "altitude": 26,
      "modifier": null,
      "repr": "BKN026",
      "type": "BKN"
    },
    {
      "altitude": 42,
      "modifier": null,
      "repr": "OVC042",
      "type": "OVC"
    }
  ],
  "density_altitude": -174,
  "dewpoint": {
    "repr": "08",
    "spoken": "eight",
    "value": 8
  },
  "flight_rules": "MVFR",
  "meta": {
    "stations_updated": "2024-06-12",
    "timestamp": "2024-10-21T20:41:44.445215Z"
  },
  "other": [],
  "pressure_altitude": 32,
  "raw": "KAWO 212032Z AUTO 14006KT 10SM BKN022 BKN026 OVC042 13/08 A3003 RMK AO2 PNO $",
  "relative_humidity": 0.7164205234872149,
  "remarks": "RMK AO2 PNO $",
  "remarks_info": {
    "codes": [
      {
        "repr": "$",
        "value": "ASOS requires maintenance"
      },
      {
        "repr": "AO2",
        "value": "Automated with precipitation sensor"
      },
      {
        "repr": "PNO",
        "value": "Precipitation amount not available"
      }
    ],
    "dewpoint_decimal": null,
    "maximum_temperature_24": null,
    "maximum_temperature_6": null,
    "minimum_temperature_24": null,
    "minimum_temperature_6": null,
    "precip_24_hours": null,
    "precip_36_hours": null,
    "precip_hourly": null,
    "pressure_tendency": null,
    "sea_level_pressure": null,
    "snow_depth": null,
    "sunshine_minutes": null,
    "temperature_decimal": null
  },
  "runway_visibility": [],
  "sanitized": "KAWO 212032Z 14006KT 10SM BKN022 BKN026 OVC042 13/08 A3003 RMK AO2 PNO $",
  "station": "KAWO",
  "temperature": {
    "repr": "13",
    "spoken": "one three",
    "value": 13
  },
  "time": {
    "dt": "2024-10-21T20:32:00Z",
    "repr": "212032Z"
  },
  "units": {
    "accumulation": "in",
    "altimeter": "inHg",
    "altitude": "ft",
    "temperature": "C",
    "visibility": "sm",
    "wind_speed": "kt"
  },
  "visibility": {
    "repr": "10",
    "spoken": "one zero",
    "value": 10
  },
  "wind_direction": {
    "repr": "140",
    "spoken": "one four zero",
    "value": 140
  },
  "wind_gust": null,
  "wind_speed": {
    "repr": "06",
    "spoken": "six",
    "value": 6
  },
  "wind_variable_direction": [],
  "wx_codes": []
}
