{
  "meta": {
    "timestamp": "2023-06-24T12:08:56.765849Z",
    "stations_updated": "2023-06-06",
    "cache-timestamp": "2023-06-24T12:08:03.670000Z"
  },
  "altimeter": {
    "repr": "A3012",
    "value": 30.12,
    "spoken": "three zero point one two"
  },
  "clouds": [],
  "flight_rules": "VFR",
  "other": [],
  "visibility": {
    "repr": "10",
    "value": 10,
    "spoken": "one zero"
  },
  "wind_direction": {
    "repr": "000",
    "value": 0,
    "spoken": "zero zero zero"
  },
  "wind_gust": null,
  "wind_speed": {
    "repr": "00",
    "value": 0,
    "spoken": "zero"
  },
  "wx_codes": [],
  "raw": "KAWO 241156Z AUTO 00000KT 10SM CLR 11/09 A3012 RMK AO2 SLP202 T01060094 10139 20106 53012",
  "sanitized": "KAWO 241156Z 00000KT 10SM 11/09 A3012 RMK AO2 SLP202 T01060094 10139 20106 53012",
  "station": "KAWO",
  "time": {
    "repr": "241156Z",
    "dt": "2023-06-24T11:56:00Z"
  },
  "remarks": "RMK AO2 SLP202 T01060094 10139 20106 53012",
  "dewpoint": {
    "repr": "09",
    "value": 9,
    "spoken": "nine"
  },
  "relative_humidity": 0.9227971730278188,
  "remarks_info": {
    "maximum_temperature_6": {
      "repr": "10139",
      "value": 13.9,
      "spoken": "one three point nine"
    },
    "minimum_temperature_6": {
      "repr": "20106",
      "value": 10.6,
      "spoken": "one zero point six"
    },
    "pressure_tendency": {
      "repr": "53012",
      "tendency": "Decreasing or steady, then increasing",
      "change": 1.2
    },
    "precip_36_hours": null,
    "precip_24_hours": null,
    "sunshine_minutes": null,
    "codes": [
      {
        "repr": "AO2",
        "value": "Automated with precipitation sensor"
      }
    ],
    "dewpoint_decimal": {
      "repr": "0094",
      "value": 9.4,
      "spoken": "nine point four"
    },
    "maximum_temperature_24": null,
    "minimum_temperature_24": null,
    "precip_hourly": null,
    "sea_level_pressure": {
      "repr": "SLP202",
      "value": 1020.2,
      "spoken": "one zero two zero point two"
    },
    "snow_depth": null,
    "temperature_decimal": {
      "repr": "0106",
      "value": 10.6,
      "spoken": "one zero point six"
    }
  },
  "runway_visibility": [],
  "temperature": {
    "repr": "11",
    "value": 11,
    "spoken": "one one"
  },
  "wind_variable_direction": [],
  "density_altitude": -552,
  "pressure_altitude": -58,
  "units": {
    "accumulation": "in",
    "altimeter": "inHg",
    "altitude": "ft",
    "temperature": "C",
    "visibility": "sm",
    "wind_speed": "kt"
  }
}
