{
  "meta": {
    "timestamp": "2022-12-19T20:40:48.056610Z",
    "stations_updated": "2022-09-05"
  },
  "altimeter": {
    "repr": "A3030",
    "value": 30.3,
    "spoken": "three zero point three zero"
  },
  "clouds": [
    {
      "repr": "OVC014",
      "type": "OVC",
      "altitude": 14,
      "modifier": null
    }
  ],
  "flight_rules": "MVFR",
  "other": [],
  "visibility": {
    "repr": "9",
    "value": 9,
    "spoken": "nine"
  },
  "wind_direction": {
    "repr": "320",
    "value": 320,
    "spoken": "three two zero"
  },
  "wind_gust": null,
  "wind_speed": {
    "repr": "04",
    "value": 4,
    "spoken": "four"
  },
  "wx_codes": [
    {
      "repr": "-SN",
      "value": "Light Snow"
    }
  ],
  "raw": "KAWO 191956Z AUTO 32004KT 9SM -SN OVC014 M02/M04 A3030 RMK AO2 SNB37 SLP268 P0000 T10221039 FZRANO",
  "sanitized": "KAWO 191956Z 32004KT 9SM -SN OVC014 M02/M04 A3030 RMK AO2 SNB37 SLP268 P0000 T10221039 FZRANO",
  "station": "KAWO",
  "time": {
    "repr": "191956Z",
    "dt": "2022-12-19T19:56:00Z"
  },
  "remarks": "RMK AO2 SNB37 SLP268 P0000 T10221039 FZRANO",
  "dewpoint": {
    "repr": "M04",
    "value": -4,
    "spoken": "minus four"
  },
  "relative_humidity": 0.8811613732885916,
  "remarks_info": {
    "maximum_temperature_6": null,
    "minimum_temperature_6": null,
    "pressure_tendency": null,
    "precip_36_hours": null,
    "precip_24_hours": null,
    "sunshine_minutes": null,
    "codes": [
      {
        "repr": "AO2",
        "value": "Automated with precipitation sensor"
      },
      {
        "repr": "FZRANO",
        "value": "Freezing rain information not available"
      },
      {
        "repr": "P0000",
        "value": "Trace amount of rain in the last hour"
      },
      {
        "repr": "SNB37",
        "value": "Snow began at :37"
      }
    ],
    "dewpoint_decimal": {
      "repr": "1039",
      "value": -3.9,
      "spoken": "minus three point nine"
    },
    "maximum_temperature_24": null,
    "minimum_temperature_24": null,
    "precip_hourly": null,
    "sea_level_pressure": {
      "repr": "SLP268",
      "value": 1026.8,
      "spoken": "one zero two six point eight"
    },
    "snow_depth": null,
    "temperature_decimal": {
      "repr": "1022",
      "value": -2.2,
      "spoken": "minus two point two"
    }
  },
  "runway_visibility": [],
  "temperature": {
    "repr": "M02",
    "value": -2,
    "spoken": "minus two"
  },
  "wind_variable_direction": [],
  "density_altitude": -2268,
  "pressure_altitude": -238,
  "units": {
    "accumulation": "in",
    "altimeter": "inHg",
    "altitude": "ft",
    "temperature": "C",
    "visibility": "sm",
    "wind_speed": "kt"
  }
}
