{
  "altimeter": {
    "repr": "A3014",
    "spoken": "three zero point one four",
    "value": 30.14
  },
  "clouds": [],
  "density_altitude": -2312,
  "dewpoint": {
    "repr": "M04",
    "spoken": "minus four",
    "value": -4
  },
  "flight_rules": "VFR",
  "meta": {
    "cache-timestamp": "2023-11-16T16:32:03.663000Z",
    "stations_updated": "2023-10-28",
    "timestamp": "2023-11-16T16:32:16.474337Z"
  },
  "other": [],
  "pressure_altitude": -78,
  "raw": "KAWO 161556Z AUTO 00000KT 10SM CLR M04/M04 A3014 RMK AO2 SLP213 T10391044 FZRANO",
  "relative_humidity": 0.9631438284581738,
  "remarks": "RMK AO2 SLP213 T10391044 FZRANO",
  "remarks_info": {
    "codes": [
      {
        "repr": "AO2",
        "value": "Automated with precipitation sensor"
      },
      {
        "repr": "FZRANO",
        "value": "Freezing rain information not available"
      }
    ],
    "dewpoint_decimal": {
      "repr": "1044",
      "spoken": "minus four point four",
      "value": -4.4
    },
    "maximum_temperature_24": null,
    "maximum_temperature_6": null,
    "minimum_temperature_24": null,
    "minimum_temperature_6": null,
    "precip_24_hours": null,
    "precip_36_hours": null,
    "precip_hourly": null,
    "pressure_tendency": null,
    "sea_level_pressure": {
      "repr": "SLP213",
      "spoken": "one zero two one point three",
      "value": 1021.3
    },
    "snow_depth": null,
    "sunshine_minutes": null,
    "temperature_decimal": {
      "repr": "1039",
      "spoken": "minus three point nine",
      "value": -3.9
    }
  },
  "runway_visibility": [],
  "sanitized": "KAWO 161556Z 00000KT 10SM M04/M04 A3014 RMK AO2 SLP213 T10391044 FZRANO",
  "station": "KAWO",
  "temperature": {
    "repr": "M04",
    "spoken": "minus four",
    "value": -4
  },
  "time": {
    "dt": "2023-11-16T15:56:00Z",
    "repr": "161556Z"
  },
  "units": {
    "accumulation": "in",
    "altimeter": "inHg",
    "altitude": "ft",
    "temperature": "C",
    "visibility": "sm",
    "wind_speed": "kt"
  },
  "visibility": {
    "repr": "10",
    "spoken": "one zero",
    "value": 10
  },
  "wind_direction": {
    "repr": "000",
    "spoken": "zero zero zero",
    "value": 0
  },
  "wind_gust": null,
  "wind_speed": {
    "repr": "00",
    "spoken": "zero",
    "value": 0
  },
  "wind_variable_direction": [],
  "wx_codes": []
}
