{
  "altimeter": {
    "repr": "A3024",
    "spoken": "three zero point two four",
    "value": 30.24
  },
  "clouds": [],
  "density_altitude": -2616,
  "dewpoint": {
    "repr": "M08",
    "spoken": "minus eight",
    "value": -8
  },
  "flight_rules": "VFR",
  "meta": {
    "stations_updated": "2023-10-28",
    "timestamp": "2024-01-14T18:27:18.889874Z"
  },
  "other": [],
  "pressure_altitude": -178,
  "raw": "KAWO 141756Z AUTO 00000KT 10SM CLR M06/M08 A3024 RMK AO2 SLP248 T10561083 11056 21128 53025 FZRANO",
  "relative_humidity": 0.812516381525716,
  "remarks": "RMK AO2 SLP248 T10561083 11056 21128 53025 FZRANO",
  "remarks_info": {
    "codes": [
      {
        "repr": "AO2",
        "value": "Automated with precipitation sensor"
      },
      {
        "repr": "FZRANO",
        "value": "Freezing rain information not available"
      }
    ],
    "dewpoint_decimal": {
      "repr": "1083",
      "spoken": "minus eight point three",
      "value": -8.3
    },
    "maximum_temperature_24": null,
    "maximum_temperature_6": {
      "repr": "11056",
      "spoken": "minus five point six",
      "value": -5.6
    },
    "minimum_temperature_24": null,
    "minimum_temperature_6": {
      "repr": "21128",
      "spoken": "minus one two point eight",
      "value": -12.8
    },
    "precip_24_hours": null,
    "precip_36_hours": null,
    "precip_hourly": null,
    "pressure_tendency": {
      "change": 2.5,
      "repr": "53025",
      "tendency": "Decreasing or steady, then increasing"
    },
    "sea_level_pressure": {
      "repr": "SLP248",
      "spoken": "one zero two four point eight",
      "value": 1024.8
    },
    "snow_depth": null,
    "sunshine_minutes": null,
    "temperature_decimal": {
      "repr": "1056",
      "spoken": "minus five point six",
      "value": -5.6
    }
  },
  "runway_visibility": [],
  "sanitized": "KAWO 141756Z 00000KT 10SM M06/M08 A3024 RMK AO2 SLP248 T10561083 11056 21128 53025 FZRANO",
  "station": "KAWO",
  "temperature": {
    "repr": "M06",
    "spoken": "minus six",
    "value": -6
  },
  "time": {
    "dt": "2024-01-14T17:56:00Z",
    "repr": "141756Z"
  },
  "units": {
    "accumulation": "in",
    "altimeter": "inHg",
    "altitude": "ft",
    "temperature": "C",
    "visibility": "sm",
    "wind_speed": "kt"
  },
  "visibility": {
    "repr": "10",
    "spoken": "one zero",
    "value": 10
  },
  "wind_direction": {
    "repr": "000",
    "spoken": "zero zero zero",
    "value": 0
  },
  "wind_gust": null,
  "wind_speed": {
    "repr": "00",
    "spoken": "zero",
    "value": 0
  },
  "wind_variable_direction": [],
  "wx_codes": []
}
