{
  "meta": {
    "timestamp": "2023-03-13T00:29:58.527373Z",
    "stations_updated": "2023-03-11"
  },
  "altimeter": {
    "repr": "A2972",
    "value": 29.72,
    "spoken": "two nine point seven two"
  },
  "clouds": [
    {
      "repr": "BKN032",
      "type": "BKN",
      "altitude": 32,
      "modifier": null
    }
  ],
  "flight_rules": "VFR",
  "other": [],
  "visibility": {
    "repr": "10",
    "value": 10,
    "spoken": "one zero"
  },
  "wind_direction": {
    "repr": "100",
    "value": 100,
    "spoken": "one zero zero"
  },
  "wind_gust": null,
  "wind_speed": {
    "repr": "05",
    "value": 5,
    "spoken": "five"
  },
  "wx_codes": [
    {
      "repr": "-RA",
      "value": "Light Rain"
    }
  ],
  "raw": "KAWO 122356Z AUTO 10005KT 10SM -RA BKN032 08/06 A2972 RMK AO2 SLP068 P0003 60004 T00780056 10111 20067 58014",
  "sanitized": "KAWO 122356Z 10005KT 10SM -RA BKN032 08/06 A2972 RMK AO2 SLP068 P0003 60004 T00780056 10111 20067 58014",
  "station": "KAWO",
  "time": {
    "repr": "122356Z",
    "dt": "2023-03-12T23:56:00Z"
  },
  "remarks": "RMK AO2 SLP068 P0003 60004 T00780056 10111 20067 58014",
  "dewpoint": {
    "repr": "06",
    "value": 6,
    "spoken": "six"
  },
  "relative_humidity": 0.859663717525656,
  "remarks_info": {
    "maximum_temperature_6": {
      "repr": "10111",
      "value": 11.1,
      "spoken": "one one point one"
    },
    "minimum_temperature_6": {
      "repr": "20067",
      "value": 6.7,
      "spoken": "six point seven"
    },
    "pressure_tendency": {
      "repr": "58014",
      "tendency": "Steady or increasing, then decreasing",
      "change": 1.4
    },
    "precip_36_hours": {
      "repr": "60004",
      "value": 0.04,
      "spoken": "zero point zero four"
    },
    "precip_24_hours": null,
    "sunshine_minutes": null,
    "codes": [
      {
        "repr": "AO2",
        "value": "Automated with precipitation sensor"
      }
    ],
    "dewpoint_decimal": {
      "repr": "0056",
      "value": 5.6,
      "spoken": "five point six"
    },
    "maximum_temperature_24": null,
    "minimum_temperature_24": null,
    "precip_hourly": {
      "repr": "P0003",
      "value": 0.03,
      "spoken": "zero point zero three"
    },
    "sea_level_pressure": {
      "repr": "SLP068",
      "value": 1006.8,
      "spoken": "one zero zero six point eight"
    },
    "snow_depth": null,
    "temperature_decimal": {
      "repr": "0078",
      "value": 7.8,
      "spoken": "seven point eight"
    }
  },
  "runway_visibility": [],
  "temperature": {
    "repr": "08",
    "value": 8,
    "spoken": "eight"
  },
  "wind_variable_direction": [],
  "density_altitude": -488,
  "pressure_altitude": 342,
  "units": {
    "accumulation": "in",
    "altimeter": "inHg",
    "altitude": "ft",
    "temperature": "C",
    "visibility": "sm",
    "wind_speed": "kt"
  }
}
