{
  "meta": {
    "timestamp": "2022-10-28T09:09:20.184582Z",
    "stations_updated": "2022-09-05"
  },
  "altimeter": {
    "repr": "A2999",
    "value": 29.99,
    "spoken": "two nine point nine nine"
  },
  "clouds": [
    {
      "repr": "FEW006",
      "type": "FEW",
      "altitude": 6,
      "modifier": null
    },
    {
      "repr": "BKN011",
      "type": "BKN",
      "altitude": 11,
      "modifier": null
    },
    {
      "repr": "OVC016",
      "type": "OVC",
      "altitude": 16,
      "modifier": null
    }
  ],
  "flight_rules": "MVFR",
  "other": [],
  "visibility": {
    "repr": "5",
    "value": 5,
    "spoken": "five"
  },
  "wind_direction": {
    "repr": "000",
    "value": 0,
    "spoken": "zero zero zero"
  },
  "wind_gust": null,
  "wind_speed": {
    "repr": "00",
    "value": 0,
    "spoken": "zero"
  },
  "wx_codes": [
    {
      "repr": "RA",
      "value": "Rain"
    },
    {
      "repr": "BR",
      "value": "Mist"
    }
  ],
  "raw": "KAWO 280856Z AUTO 00000KT 5SM RA BR FEW006 BKN011 OVC016 10/09 A2999 RMK AO2 SLP159 P0013 60037 T01000094 53016",
  "sanitized": "KAWO 280856Z 00000KT 5SM RA BR FEW006 BKN011 OVC016 10/09 A2999 RMK AO2 SLP159 P0013 60037 T01000094 53016",
  "station": "KAWO",
  "time": {
    "repr": "280856Z",
    "dt": "2022-10-28T08:56:00Z"
  },
  "remarks": "RMK AO2 SLP159 P0013 60037 T01000094 53016",
  "dewpoint": {
    "repr": "09",
    "value": 9,
    "spoken": "nine"
  },
  "relative_humidity": 0.9605319898773285,
  "remarks_info": {
    "maximum_temperature_6": null,
    "minimum_temperature_6": null,
    "pressure_tendency": {
      "repr": "53016",
      "tendency": "Decreasing or steady, then increasing",
      "change": 1.6
    },
    "precip_36_hours": {
      "repr": "60037",
      "value": 0.37,
      "spoken": "zero point three seven"
    },
    "precip_24_hours": null,
    "sunshine_minutes": null,
    "codes": [
      {
        "repr": "AO2",
        "value": "Automated with precipitation sensor"
      }
    ],
    "dewpoint_decimal": {
      "repr": "0094",
      "value": 9.4,
      "spoken": "nine point four"
    },
    "maximum_temperature_24": null,
    "minimum_temperature_24": null,
    "precip_hourly": {
      "repr": "P0013",
      "value": 0.13,
      "spoken": "zero point one three"
    },
    "sea_level_pressure": {
      "repr": "SLP159",
      "value": 1015.9,
      "spoken": "one zero one five point nine"
    },
    "snow_depth": null,
    "temperature_decimal": {
      "repr": "0100",
      "value": 10,
      "spoken": "one zero point zero"
    }
  },
  "runway_visibility": [],
  "temperature": {
    "repr": "10",
    "value": 10,
    "spoken": "one zero"
  },
  "wind_variable_direction": [],
  "density_altitude": -494,
  "pressure_altitude": 72,
  "units": {
    "accumulation": "in",
    "altimeter": "inHg",
    "altitude": "ft",
    "temperature": "C",
    "visibility": "sm",
    "wind_speed": "kt"
  }
}
