{
  "altimeter": {
    "repr": "A2988",
    "spoken": "two nine point eight eight",
    "value": 29.88
  },
  "clouds": [
    {
      "altitude": 80,
      "modifier": null,
      "repr": "SCT080",
      "type": "SCT"
    },
    {
      "altitude": 100,
      "modifier": null,
      "repr": "OVC100",
      "type": "OVC"
    }
  ],
  "density_altitude": -720,
  "dewpoint": {
    "repr": "03",
    "spoken": "three",
    "value": 3
  },
  "flight_rules": "VFR",
  "meta": {
    "cache-timestamp": "2023-12-27T08:26:03.813000Z",
    "stations_updated": "2023-10-28",
    "timestamp": "2023-12-27T08:26:48.953799Z"
  },
  "other": [],
  "pressure_altitude": 182,
  "raw": "KAWO 270756Z AUTO 00000KT 10SM SCT080 OVC100 07/03 A2988 RMK AO2 SLP122 T00720033 401280056",
  "relative_humidity": 0.7624587758529988,
  "remarks": "RMK AO2 SLP122 T00720033 401280056",
  "remarks_info": {
    "codes": [
      {
        "repr": "AO2",
        "value": "Automated with precipitation sensor"
      }
    ],
    "dewpoint_decimal": {
      "repr": "0033",
      "spoken": "three point three",
      "value": 3.3
    },
    "maximum_temperature_24": {
      "repr": "0128",
      "spoken": "one two point eight",
      "value": 12.8
    },
    "maximum_temperature_6": null,
    "minimum_temperature_24": {
      "repr": "0056",
      "spoken": "five point six",
      "value": 5.6
    },
    "minimum_temperature_6": null,
    "precip_24_hours": null,
    "precip_36_hours": null,
    "precip_hourly": null,
    "pressure_tendency": null,
    "sea_level_pressure": {
      "repr": "SLP122",
      "spoken": "one zero one two point two",
      "value": 1012.2
    },
    "snow_depth": null,
    "sunshine_minutes": null,
    "temperature_decimal": {
      "repr": "0072",
      "spoken": "seven point two",
      "value": 7.2
    }
  },
  "runway_visibility": [],
  "sanitized": "KAWO 270756Z 00000KT 10SM SCT080 OVC100 07/03 A2988 RMK AO2 SLP122 T00720033 401280056",
  "station": "KAWO",
  "temperature": {
    "repr": "07",
    "spoken": "seven",
    "value": 7
  },
  "time": {
    "dt": "2023-12-27T07:56:00Z",
    "repr": "270756Z"
  },
  "units": {
    "accumulation": "in",
    "altimeter": "inHg",
    "altitude": "ft",
    "temperature": "C",
    "visibility": "sm",
    "wind_speed": "kt"
  },
  "visibility": {
    "repr": "10",
    "spoken": "one zero",
    "value": 10
  },
  "wind_direction": {
    "repr": "000",
    "spoken": "zero zero zero",
    "value": 0
  },
  "wind_gust": null,
  "wind_speed": {
    "repr": "00",
    "spoken": "zero",
    "value": 0
  },
  "wind_variable_direction": [],
  "wx_codes": []
}
