{
  "altimeter": {
    "repr": "A3014",
    "spoken": "three zero point one four",
    "value": 30.14
  },
  "clouds": [
    {
      "altitude": 36,
      "modifier": null,
      "repr": "FEW036",
      "type": "FEW"
    },
    {
      "altitude": 75,
      "modifier": null,
      "repr": "BKN075",
      "type": "BKN"
    },
    {
      "altitude": 90,
      "modifier": null,
      "repr": "OVC090",
      "type": "OVC"
    }
  ],
  "density_altitude": -380,
  "dewpoint": {
    "repr": "07",
    "spoken": "seven",
    "value": 7
  },
  "flight_rules": "VFR",
  "meta": {
    "cache-timestamp": "2023-12-28T19:40:05.078000Z",
    "stations_updated": "2023-10-28",
    "timestamp": "2023-12-28T19:40:36.171258Z"
  },
  "other": [],
  "pressure_altitude": -78,
  "raw": "KAWO 281856Z AUTO 11010KT 10SM -RA FEW036 BKN075 OVC090 12/07 A3014 RMK AO2 RAB51 SLP211 P0000 T01220072",
  "relative_humidity": 0.7149098379996415,
  "remarks": "RMK AO2 RAB51 SLP211 P0000 T01220072",
  "remarks_info": {
    "codes": [
      {
        "repr": "AO2",
        "value": "Automated with precipitation sensor"
      },
      {
        "repr": "P0000",
        "value": "Trace amount of rain in the last hour"
      },
      {
        "repr": "RAB51",
        "value": "Rain began at :51"
      }
    ],
    "dewpoint_decimal": {
      "repr": "0072",
      "spoken": "seven point two",
      "value": 7.2
    },
    "maximum_temperature_24": null,
    "maximum_temperature_6": null,
    "minimum_temperature_24": null,
    "minimum_temperature_6": null,
    "precip_24_hours": null,
    "precip_36_hours": null,
    "precip_hourly": null,
    "pressure_tendency": null,
    "sea_level_pressure": {
      "repr": "SLP211",
      "spoken": "one zero two one point one",
      "value": 1021.1
    },
    "snow_depth": null,
    "sunshine_minutes": null,
    "temperature_decimal": {
      "repr": "0122",
      "spoken": "one two point two",
      "value": 12.2
    }
  },
  "runway_visibility": [],
  "sanitized": "KAWO 281856Z 11010KT 10SM -RA FEW036 BKN075 OVC090 12/07 A3014 RMK AO2 RAB51 SLP211 P0000 T01220072",
  "station": "KAWO",
  "temperature": {
    "repr": "12",
    "spoken": "one two",
    "value": 12
  },
  "time": {
    "dt": "2023-12-28T18:56:00Z",
    "repr": "281856Z"
  },
  "units": {
    "accumulation": "in",
    "altimeter": "inHg",
    "altitude": "ft",
    "temperature": "C",
    "visibility": "sm",
    "wind_speed": "kt"
  },
  "visibility": {
    "repr": "10",
    "spoken": "one zero",
    "value": 10
  },
  "wind_direction": {
    "repr": "110",
    "spoken": "one one zero",
    "value": 110
  },
  "wind_gust": null,
  "wind_speed": {
    "repr": "10",
    "spoken": "one zero",
    "value": 10
  },
  "wind_variable_direction": [],
  "wx_codes": [
    {
      "repr": "-RA",
      "value": "Light Rain"
    }
  ]
}
