{
  "meta": {
    "timestamp": "2022-11-17T09:04:18.133620Z",
    "stations_updated": "2022-09-05"
  },
  "altimeter": {
    "repr": "A3045",
    "value": 30.45,
    "spoken": "three zero point four five"
  },
  "clouds": [],
  "flight_rules": "LIFR",
  "other": [],
  "visibility": {
    "repr": "1/4",
    "value": 0.25,
    "spoken": "one quarter",
    "numerator": 1,
    "denominator": 4,
    "normalized": "1/4"
  },
  "wind_direction": {
    "repr": "020",
    "value": 20,
    "spoken": "zero two zero"
  },
  "wind_gust": null,
  "wind_speed": {
    "repr": "03",
    "value": 3,
    "spoken": "three"
  },
  "wx_codes": [
    {
      "repr": "FZFG",
      "value": "Freezing Fog"
    }
  ],
  "raw": "KAWO 170856Z AUTO 02003KT 1/4SM FZFG M02/M02 A3045 RMK AO2 SLP315 T10171022 53003 FZRANO",
  "sanitized": "KAWO 170856Z 02003KT 1/4SM FZFG M02/M02 A3045 RMK AO2 SLP315 T10171022 53003 FZRANO",
  "station": "KAWO",
  "time": {
    "repr": "170856Z",
    "dt": "2022-11-17T08:56:00Z"
  },
  "remarks": "RMK AO2 SLP315 T10171022 53003 FZRANO",
  "dewpoint": {
    "repr": "M02",
    "value": -2,
    "spoken": "minus two"
  },
  "relative_humidity": 0.9637998860807256,
  "remarks_info": {
    "maximum_temperature_6": null,
    "minimum_temperature_6": null,
    "pressure_tendency": {
      "repr": "53003",
      "tendency": "Decreasing or steady, then increasing",
      "change": 0.3
    },
    "precip_36_hours": null,
    "precip_24_hours": null,
    "sunshine_minutes": null,
    "codes": [
      {
        "repr": "AO2",
        "value": "Automated with precipitation sensor"
      },
      {
        "repr": "FZRANO",
        "value": "Freezing rain information not available"
      }
    ],
    "dewpoint_decimal": {
      "repr": "1022",
      "value": -2.2,
      "spoken": "minus two point two"
    },
    "maximum_temperature_24": null,
    "minimum_temperature_24": null,
    "precip_hourly": null,
    "sea_level_pressure": {
      "repr": "SLP315",
      "value": 1031.5,
      "spoken": "one zero three one point five"
    },
    "snow_depth": null,
    "temperature_decimal": {
      "repr": "1017",
      "value": -1.7,
      "spoken": "minus one point seven"
    }
  },
  "runway_visibility": [],
  "temperature": {
    "repr": "M02",
    "value": -2,
    "spoken": "minus two"
  },
  "wind_variable_direction": [],
  "density_altitude": -2358,
  "pressure_altitude": -388,
  "units": {
    "accumulation": "in",
    "altimeter": "inHg",
    "altitude": "ft",
    "temperature": "C",
    "visibility": "sm",
    "wind_speed": "kt"
  }
}
