{
  "altimeter": {
    "repr": "A3028",
    "spoken": "three zero point two eight",
    "value": 30.28
  },
  "clouds": [
    {
      "altitude": 18,
      "modifier": null,
      "repr": "FEW018",
      "type": "FEW"
    },
    {
      "altitude": 28,
      "modifier": null,
      "repr": "OVC028",
      "type": "OVC"
    }
  ],
  "density_altitude": -1024,
  "dewpoint": {
    "repr": "07",
    "spoken": "seven",
    "value": 7
  },
  "flight_rules": "MVFR",
  "meta": {
    "cache-timestamp": "2023-11-22T06:40:04.781000Z",
    "stations_updated": "2023-10-28",
    "timestamp": "2023-11-22T06:40:51.951544Z"
  },
  "other": [],
  "pressure_altitude": -218,
  "raw": "KAWO 220612Z AUTO 14009KT 10SM -RA FEW018 OVC028 08/07 A3028 RMK AO2 P0002",
  "relative_humidity": 0.933984777240729,
  "remarks": "RMK AO2 P0002",
  "remarks_info": {
    "codes": [
      {
        "repr": "AO2",
        "value": "Automated with precipitation sensor"
      }
    ],
    "dewpoint_decimal": null,
    "maximum_temperature_24": null,
    "maximum_temperature_6": null,
    "minimum_temperature_24": null,
    "minimum_temperature_6": null,
    "precip_24_hours": null,
    "precip_36_hours": null,
    "precip_hourly": {
      "repr": "P0002",
      "spoken": "zero point zero two",
      "value": 0.02
    },
    "pressure_tendency": null,
    "sea_level_pressure": null,
    "snow_depth": null,
    "sunshine_minutes": null,
    "temperature_decimal": null
  },
  "runway_visibility": [],
  "sanitized": "KAWO 220612Z 14009KT 10SM -RA FEW018 OVC028 08/07 A3028 RMK AO2 P0002",
  "station": "KAWO",
  "temperature": {
    "repr": "08",
    "spoken": "eight",
    "value": 8
  },
  "time": {
    "dt": "2023-11-22T06:12:00Z",
    "repr": "220612Z"
  },
  "units": {
    "accumulation": "in",
    "altimeter": "inHg",
    "altitude": "ft",
    "temperature": "C",
    "visibility": "sm",
    "wind_speed": "kt"
  },
  "visibility": {
    "repr": "10",
    "spoken": "one zero",
    "value": 10
  },
  "wind_direction": {
    "repr": "140",
    "spoken": "one four zero",
    "value": 140
  },
  "wind_gust": null,
  "wind_speed": {
    "repr": "09",
    "spoken": "nine",
    "value": 9
  },
  "wind_variable_direction": [],
  "wx_codes": [
    {
      "repr": "-RA",
      "value": "Light Rain"
    }
  ]
}
