{
  "altimeter": {
    "repr": "A3005",
    "spoken": "three zero point zero five",
    "value": 30.05
  },
  "clouds": [
    {
      "altitude": 6,
      "modifier": null,
      "repr": "OVC006",
      "type": "OVC"
    }
  ],
  "density_altitude": -1154,
  "dewpoint": {
    "repr": "04",
    "spoken": "four",
    "value": 4
  },
  "flight_rules": "IFR",
  "meta": {
    "stations_updated": "2024-10-29",
    "timestamp": "2024-11-26T09:08:10.774199Z"
  },
  "other": [],
  "pressure_altitude": 12,
  "raw": "KAWO 260856Z AUTO 00000KT 6SM -RA BR OVC006 05/04 A3005 RMK AO2 RAE02B50 SLP181 P0000 60000 T00500044 51006",
  "relative_humidity": 0.958959211899474,
  "remarks": "RMK AO2 RAE02B50 SLP181 P0000 60000 T00500044 51006",
  "remarks_info": {
    "codes": [
      {
        "repr": "AO2",
        "value": "Automated with precipitation sensor"
      },
      {
        "repr": "P0000",
        "value": "Trace amount of rain in the last hour"
      }
    ],
    "dewpoint_decimal": {
      "repr": "0044",
      "spoken": "four point four",
      "value": 4.4
    },
    "maximum_temperature_24": null,
    "maximum_temperature_6": null,
    "minimum_temperature_24": null,
    "minimum_temperature_6": null,
    "precip_24_hours": null,
    "precip_36_hours": {
      "repr": "60000",
      "spoken": "zero",
      "value": 0
    },
    "precip_hourly": null,
    "pressure_tendency": {
      "change": 0.6,
      "repr": "51006",
      "tendency": "Increasing, then steady"
    },
    "sea_level_pressure": {
      "repr": "SLP181",
      "spoken": "one zero one eight point one",
      "value": 1018.1
    },
    "snow_depth": null,
    "sunshine_minutes": null,
    "temperature_decimal": {
      "repr": "0050",
      "spoken": "five point zero",
      "value": 5
    }
  },
  "runway_visibility": [],
  "sanitized": "KAWO 260856Z 00000KT 6SM -RA BR OVC006 05/04 A3005 RMK AO2 RAE02B50 SLP181 P0000 60000 T00500044 51006",
  "station": "KAWO",
  "temperature": {
    "repr": "05",
    "spoken": "five",
    "value": 5
  },
  "time": {
    "dt": "2024-11-26T08:56:00Z",
    "repr": "260856Z"
  },
  "units": {
    "accumulation": "in",
    "altimeter": "inHg",
    "altitude": "ft",
    "temperature": "C",
    "visibility": "sm",
    "wind_speed": "kt"
  },
  "visibility": {
    "repr": "6",
    "spoken": "six",
    "value": 6
  },
  "wind_direction": {
    "repr": "000",
    "spoken": "zero zero zero",
    "value": 0
  },
  "wind_gust": null,
  "wind_speed": {
    "repr": "00",
    "spoken": "zero",
    "value": 0
  },
  "wind_variable_direction": [],
  "wx_codes": [
    {
      "repr": "-RA",
      "value": "Light Rain"
    },
    {
      "repr": "BR",
      "value": "Mist"
    }
  ]
}
