{
  "meta": {
    "timestamp": "2023-05-21T08:40:39.855403Z",
    "stations_updated": "2023-03-11",
    "cache-timestamp": "2023-05-21T08:40:04.194000Z"
  },
  "altimeter": {
    "repr": "A3016",
    "value": 30.16,
    "spoken": "three zero point one six"
  },
  "clouds": [],
  "flight_rules": "VFR",
  "other": [],
  "visibility": {
    "repr": "10",
    "value": 10,
    "spoken": "one zero"
  },
  "wind_direction": {
    "repr": "360",
    "value": 360,
    "spoken": "three six zero"
  },
  "wind_gust": null,
  "wind_speed": {
    "repr": "07",
    "value": 7,
    "spoken": "seven"
  },
  "wx_codes": [],
  "raw": "KAWO 210756Z AUTO 36007KT 10SM CLR 11/09 A3016 RMK AO2 SLP217 T01060089 402170100",
  "sanitized": "KAWO 210756Z 36007KT 10SM 11/09 A3016 RMK AO2 SLP217 T01060089 402170100",
  "station": "KAWO",
  "time": {
    "repr": "210756Z",
    "dt": "2023-05-21T07:56:00Z"
  },
  "remarks": "RMK AO2 SLP217 T01060089 402170100",
  "dewpoint": {
    "repr": "09",
    "value": 9,
    "spoken": "nine"
  },
  "relative_humidity": 0.8922144848734106,
  "remarks_info": {
    "maximum_temperature_6": null,
    "minimum_temperature_6": null,
    "pressure_tendency": null,
    "precip_36_hours": null,
    "precip_24_hours": null,
    "sunshine_minutes": null,
    "codes": [
      {
        "repr": "AO2",
        "value": "Automated with precipitation sensor"
      }
    ],
    "dewpoint_decimal": {
      "repr": "0089",
      "value": 8.9,
      "spoken": "eight point nine"
    },
    "maximum_temperature_24": {
      "repr": "0217",
      "value": 21.7,
      "spoken": "two one point seven"
    },
    "minimum_temperature_24": {
      "repr": "0100",
      "value": 10,
      "spoken": "one zero point zero"
    },
    "precip_hourly": null,
    "sea_level_pressure": {
      "repr": "SLP217",
      "value": 1021.7,
      "spoken": "one zero two one point seven"
    },
    "snow_depth": null,
    "temperature_decimal": {
      "repr": "0106",
      "value": 10.6,
      "spoken": "one zero point six"
    }
  },
  "runway_visibility": [],
  "temperature": {
    "repr": "11",
    "value": 11,
    "spoken": "one one"
  },
  "wind_variable_direction": [],
  "density_altitude": -592,
  "pressure_altitude": -98,
  "units": {
    "accumulation": "in",
    "altimeter": "inHg",
    "altitude": "ft",
    "temperature": "C",
    "visibility": "sm",
    "wind_speed": "kt"
  }
}
