{
  "meta": {
    "timestamp": "2022-08-01T00:38:54.848696Z",
    "stations_updated": "2022-07-17"
  },
  "altimeter": {
    "repr": "A2987",
    "value": 29.87,
    "spoken": "two nine point eight seven"
  },
  "clouds": [],
  "flight_rules": "VFR",
  "other": [],
  "visibility": {
    "repr": "10",
    "value": 10,
    "spoken": "one zero"
  },
  "wind_direction": {
    "repr": "310",
    "value": 310,
    "spoken": "three one zero"
  },
  "wind_gust": null,
  "wind_speed": {
    "repr": "12",
    "value": 12,
    "spoken": "one two"
  },
  "wx_codes": [],
  "raw": "KAWO 312356Z AUTO 31012KT 10SM CLR 33/16 A2987 RMK AO2 SLP117 T03280156 10339 20272 56012",
  "sanitized": "KAWO 312356Z 31012KT 10SM 33/16 A2987 RMK AO2 SLP117 T03280156 10339 20272 56012",
  "station": "KAWO",
  "time": {
    "repr": "312356Z",
    "dt": "2022-07-31T23:56:00Z"
  },
  "remarks": "RMK AO2 SLP117 T03280156 10339 20272 56012",
  "dewpoint": {
    "repr": "16",
    "value": 16,
    "spoken": "one six"
  },
  "relative_humidity": 0.3556705717414892,
  "remarks_info": {
    "maximum_temperature_6": {
      "repr": "10339",
      "value": 33.9,
      "spoken": "three three point nine"
    },
    "minimum_temperature_6": {
      "repr": "20272",
      "value": 27.2,
      "spoken": "two seven point two"
    },
    "pressure_tendency": {
      "repr": "56012",
      "tendency": "Decreasing, then steady",
      "change": 1.2
    },
    "precip_36_hours": null,
    "precip_24_hours": null,
    "sunshine_minutes": null,
    "codes": [
      {
        "repr": "AO2",
        "value": "Automated with precipitation sensor"
      }
    ],
    "dewpoint_decimal": {
      "repr": "0156",
      "value": 15.6,
      "spoken": "one five point six"
    },
    "maximum_temperature_24": null,
    "minimum_temperature_24": null,
    "precip_hourly": null,
    "sea_level_pressure": {
      "repr": "SLP117",
      "value": 1011.7,
      "spoken": "one zero one one point seven"
    },
    "snow_depth": null,
    "temperature_decimal": {
      "repr": "0328",
      "value": 32.8,
      "spoken": "three two point eight"
    }
  },
  "runway_visibility": [],
  "temperature": {
    "repr": "33",
    "value": 33,
    "spoken": "three three"
  },
  "wind_variable_direction": [],
  "density_altitude": 2362,
  "pressure_altitude": 192,
  "units": {
    "accumulation": "in",
    "altimeter": "inHg",
    "altitude": "ft",
    "temperature": "C",
    "visibility": "sm",
    "wind_speed": "kt"
  }
}
