{
  "altimeter": {
    "repr": "A3003",
    "spoken": "three zero point zero three",
    "value": 30.03
  },
  "clouds": [
    {
      "altitude": 32,
      "modifier": null,
      "repr": "FEW032",
      "type": "FEW"
    },
    {
      "altitude": 40,
      "modifier": null,
      "repr": "SCT040",
      "type": "SCT"
    }
  ],
  "density_altitude": 666,
  "dewpoint": {
    "repr": "13",
    "spoken": "one three",
    "value": 13
  },
  "flight_rules": "VFR",
  "meta": {
    "stations_updated": "2024-06-12",
    "timestamp": "2024-09-18T23:41:04.162379Z"
  },
  "other": [],
  "pressure_altitude": 32,
  "raw": "KAWO 182256Z AUTO 31008KT 10SM FEW032 SCT040 20/13 A3003 RMK AO2 SLP173 T02000128",
  "relative_humidity": 0.6320981411455473,
  "remarks": "RMK AO2 SLP173 T02000128",
  "remarks_info": {
    "codes": [
      {
        "repr": "AO2",
        "value": "Automated with precipitation sensor"
      }
    ],
    "dewpoint_decimal": {
      "repr": "0128",
      "spoken": "one two point eight",
      "value": 12.8
    },
    "maximum_temperature_24": null,
    "maximum_temperature_6": null,
    "minimum_temperature_24": null,
    "minimum_temperature_6": null,
    "precip_24_hours": null,
    "precip_36_hours": null,
    "precip_hourly": null,
    "pressure_tendency": null,
    "sea_level_pressure": {
      "repr": "SLP173",
      "spoken": "one zero one seven point three",
      "value": 1017.3
    },
    "snow_depth": null,
    "sunshine_minutes": null,
    "temperature_decimal": {
      "repr": "0200",
      "spoken": "two zero point zero",
      "value": 20
    }
  },
  "runway_visibility": [],
  "sanitized": "KAWO 182256Z 31008KT 10SM FEW032 SCT040 20/13 A3003 RMK AO2 SLP173 T02000128",
  "station": "KAWO",
  "temperature": {
    "repr": "20",
    "spoken": "two zero",
    "value": 20
  },
  "time": {
    "dt": "2024-09-18T22:56:00Z",
    "repr": "182256Z"
  },
  "units": {
    "accumulation": "in",
    "altimeter": "inHg",
    "altitude": "ft",
    "temperature": "C",
    "visibility": "sm",
    "wind_speed": "kt"
  },
  "visibility": {
    "repr": "10",
    "spoken": "one zero",
    "value": 10
  },
  "wind_direction": {
    "repr": "310",
    "spoken": "three one zero",
    "value": 310
  },
  "wind_gust": null,
  "wind_speed": {
    "repr": "08",
    "spoken": "eight",
    "value": 8
  },
  "wind_variable_direction": [],
  "wx_codes": []
}
