{
  "meta": {
    "timestamp": "2023-06-19T00:31:21.296677Z",
    "stations_updated": "2023-06-06"
  },
  "altimeter": {
    "repr": "A2987",
    "value": 29.87,
    "spoken": "two nine point eight seven"
  },
  "clouds": [
    {
      "repr": "OVC038",
      "type": "OVC",
      "altitude": 38,
      "modifier": null
    }
  ],
  "flight_rules": "VFR",
  "other": [],
  "visibility": {
    "repr": "10",
    "value": 10,
    "spoken": "one zero"
  },
  "wind_direction": {
    "repr": "350",
    "value": 350,
    "spoken": "three five zero"
  },
  "wind_gust": null,
  "wind_speed": {
    "repr": "06",
    "value": 6,
    "spoken": "six"
  },
  "wx_codes": [
    {
      "repr": "-RA",
      "value": "Light Rain"
    }
  ],
  "raw": "KAWO 182356Z AUTO 35006KT 10SM -RA OVC038 11/07 A2987 RMK AO2 RAB28 SLP118 P0000 60001 T01110072 10150 20106 55001",
  "sanitized": "KAWO 182356Z 35006KT 10SM -RA OVC038 11/07 A2987 RMK AO2 RAB28 SLP118 P0000 60001 T01110072 10150 20106 55001",
  "station": "KAWO",
  "time": {
    "repr": "182356Z",
    "dt": "2023-06-18T23:56:00Z"
  },
  "remarks": "RMK AO2 RAB28 SLP118 P0000 60001 T01110072 10150 20106 55001",
  "dewpoint": {
    "repr": "07",
    "value": 7,
    "spoken": "seven"
  },
  "relative_humidity": 0.7688202633766026,
  "remarks_info": {
    "maximum_temperature_6": {
      "repr": "10150",
      "value": 15,
      "spoken": "one five point zero"
    },
    "minimum_temperature_6": {
      "repr": "20106",
      "value": 10.6,
      "spoken": "one zero point six"
    },
    "pressure_tendency": {
      "repr": "55001",
      "tendency": "Decreasing, then increasing",
      "change": 0.1
    },
    "precip_36_hours": {
      "repr": "60001",
      "value": 0.01,
      "spoken": "zero point zero one"
    },
    "precip_24_hours": null,
    "sunshine_minutes": null,
    "codes": [
      {
        "repr": "AO2",
        "value": "Automated with precipitation sensor"
      },
      {
        "repr": "P0000",
        "value": "Trace amount of rain in the last hour"
      },
      {
        "repr": "RAB28",
        "value": "Rain began at :28"
      }
    ],
    "dewpoint_decimal": {
      "repr": "0072",
      "value": 7.2,
      "spoken": "seven point two"
    },
    "maximum_temperature_24": null,
    "minimum_temperature_24": null,
    "precip_hourly": null,
    "sea_level_pressure": {
      "repr": "SLP118",
      "value": 1011.8,
      "spoken": "one zero one one point eight"
    },
    "snow_depth": null,
    "temperature_decimal": {
      "repr": "0111",
      "value": 11.1,
      "spoken": "one one point one"
    }
  },
  "runway_visibility": [],
  "temperature": {
    "repr": "11",
    "value": 11,
    "spoken": "one one"
  },
  "wind_variable_direction": [],
  "density_altitude": -242,
  "pressure_altitude": 192,
  "units": {
    "accumulation": "in",
    "altimeter": "inHg",
    "altitude": "ft",
    "temperature": "C",
    "visibility": "sm",
    "wind_speed": "kt"
  }
}
