{
  "altimeter": {
    "repr": "A3007",
    "spoken": "three zero point zero seven",
    "value": 30.07
  },
  "clouds": [],
  "density_altitude": -106,
  "dewpoint": {
    "repr": "12",
    "spoken": "one two",
    "value": 12
  },
  "flight_rules": "VFR",
  "meta": {
    "stations_updated": "2024-06-12",
    "timestamp": "2024-07-21T12:10:50.532365Z"
  },
  "other": [],
  "pressure_altitude": -8,
  "raw": "KAWO 211156Z AUTO 00000KT 10SM CLR 14/12 A3007 RMK AO2 SLP186 T01390122 10161 20133 53009",
  "relative_humidity": 0.8948192427937025,
  "remarks": "RMK AO2 SLP186 T01390122 10161 20133 53009",
  "remarks_info": {
    "codes": [
      {
        "repr": "AO2",
        "value": "Automated with precipitation sensor"
      }
    ],
    "dewpoint_decimal": {
      "repr": "0122",
      "spoken": "one two point two",
      "value": 12.2
    },
    "maximum_temperature_24": null,
    "maximum_temperature_6": {
      "repr": "10161",
      "spoken": "one six point one",
      "value": 16.1
    },
    "minimum_temperature_24": null,
    "minimum_temperature_6": {
      "repr": "20133",
      "spoken": "one three point three",
      "value": 13.3
    },
    "precip_24_hours": null,
    "precip_36_hours": null,
    "precip_hourly": null,
    "pressure_tendency": {
      "change": 0.9,
      "repr": "53009",
      "tendency": "Decreasing or steady, then increasing"
    },
    "sea_level_pressure": {
      "repr": "SLP186",
      "spoken": "one zero one eight point six",
      "value": 1018.6
    },
    "snow_depth": null,
    "sunshine_minutes": null,
    "temperature_decimal": {
      "repr": "0139",
      "spoken": "one three point nine",
      "value": 13.9
    }
  },
  "runway_visibility": [],
  "sanitized": "KAWO 211156Z 00000KT 10SM 14/12 A3007 RMK AO2 SLP186 T01390122 10161 20133 53009",
  "station": "KAWO",
  "temperature": {
    "repr": "14",
    "spoken": "one four",
    "value": 14
  },
  "time": {
    "dt": "2024-07-21T11:56:00Z",
    "repr": "211156Z"
  },
  "units": {
    "accumulation": "in",
    "altimeter": "inHg",
    "altitude": "ft",
    "temperature": "C",
    "visibility": "sm",
    "wind_speed": "kt"
  },
  "visibility": {
    "repr": "10",
    "spoken": "one zero",
    "value": 10
  },
  "wind_direction": {
    "repr": "000",
    "spoken": "zero zero zero",
    "value": 0
  },
  "wind_gust": null,
  "wind_speed": {
    "repr": "00",
    "spoken": "zero",
    "value": 0
  },
  "wind_variable_direction": [],
  "wx_codes": []
}
