{
  "altimeter": {
    "repr": "A3008",
    "spoken": "three zero point zero eight",
    "value": 30.08
  },
  "clouds": [],
  "density_altitude": 688,
  "dewpoint": {
    "repr": "08",
    "spoken": "eight",
    "value": 8
  },
  "flight_rules": "VFR",
  "meta": {
    "stations_updated": "2024-06-12",
    "timestamp": "2024-10-12T22:41:52.666866Z"
  },
  "other": [],
  "pressure_altitude": -18,
  "raw": "KAWO 122156Z AUTO 31003KT 10SM CLR 21/08 A3008 RMK AO2 SLP190 T02060078",
  "relative_humidity": 0.4361272013568071,
  "remarks": "RMK AO2 SLP190 T02060078",
  "remarks_info": {
    "codes": [
      {
        "repr": "AO2",
        "value": "Automated with precipitation sensor"
      }
    ],
    "dewpoint_decimal": {
      "repr": "0078",
      "spoken": "seven point eight",
      "value": 7.8
    },
    "maximum_temperature_24": null,
    "maximum_temperature_6": null,
    "minimum_temperature_24": null,
    "minimum_temperature_6": null,
    "precip_24_hours": null,
    "precip_36_hours": null,
    "precip_hourly": null,
    "pressure_tendency": null,
    "sea_level_pressure": {
      "repr": "SLP190",
      "spoken": "one zero one nine point zero",
      "value": 1019
    },
    "snow_depth": null,
    "sunshine_minutes": null,
    "temperature_decimal": {
      "repr": "0206",
      "spoken": "two zero point six",
      "value": 20.6
    }
  },
  "runway_visibility": [],
  "sanitized": "KAWO 122156Z 31003KT 10SM 21/08 A3008 RMK AO2 SLP190 T02060078",
  "station": "KAWO",
  "temperature": {
    "repr": "21",
    "spoken": "two one",
    "value": 21
  },
  "time": {
    "dt": "2024-10-12T21:56:00Z",
    "repr": "122156Z"
  },
  "units": {
    "accumulation": "in",
    "altimeter": "inHg",
    "altitude": "ft",
    "temperature": "C",
    "visibility": "sm",
    "wind_speed": "kt"
  },
  "visibility": {
    "repr": "10",
    "spoken": "one zero",
    "value": 10
  },
  "wind_direction": {
    "repr": "310",
    "spoken": "three one zero",
    "value": 310
  },
  "wind_gust": null,
  "wind_speed": {
    "repr": "03",
    "spoken": "three",
    "value": 3
  },
  "wind_variable_direction": [],
  "wx_codes": []
}
