{
  "altimeter": {
    "repr": "A3017",
    "spoken": "three zero point one seven",
    "value": 30.17
  },
  "clouds": [
    {
      "altitude": 19,
      "modifier": null,
      "repr": "OVC019",
      "type": "OVC"
    }
  ],
  "density_altitude": -2,
  "dewpoint": {
    "repr": "14",
    "spoken": "one four",
    "value": 14
  },
  "flight_rules": "MVFR",
  "meta": {
    "stations_updated": "2024-06-12",
    "timestamp": "2024-09-23T16:33:57.478756Z"
  },
  "other": [],
  "pressure_altitude": -108,
  "raw": "KAWO 231556Z AUTO 00000KT 10SM OVC019 16/14 A3017 RMK AO2 SLP222 T01560144",
  "relative_humidity": 0.9256420226021359,
  "remarks": "RMK AO2 SLP222 T01560144",
  "remarks_info": {
    "codes": [
      {
        "repr": "AO2",
        "value": "Automated with precipitation sensor"
      }
    ],
    "dewpoint_decimal": {
      "repr": "0144",
      "spoken": "one four point four",
      "value": 14.4
    },
    "maximum_temperature_24": null,
    "maximum_temperature_6": null,
    "minimum_temperature_24": null,
    "minimum_temperature_6": null,
    "precip_24_hours": null,
    "precip_36_hours": null,
    "precip_hourly": null,
    "pressure_tendency": null,
    "sea_level_pressure": {
      "repr": "SLP222",
      "spoken": "one zero two two point two",
      "value": 1022.2
    },
    "snow_depth": null,
    "sunshine_minutes": null,
    "temperature_decimal": {
      "repr": "0156",
      "spoken": "one five point six",
      "value": 15.6
    }
  },
  "runway_visibility": [],
  "sanitized": "KAWO 231556Z 00000KT 10SM OVC019 16/14 A3017 RMK AO2 SLP222 T01560144",
  "station": "KAWO",
  "temperature": {
    "repr": "16",
    "spoken": "one six",
    "value": 16
  },
  "time": {
    "dt": "2024-09-23T15:56:00Z",
    "repr": "231556Z"
  },
  "units": {
    "accumulation": "in",
    "altimeter": "inHg",
    "altitude": "ft",
    "temperature": "C",
    "visibility": "sm",
    "wind_speed": "kt"
  },
  "visibility": {
    "repr": "10",
    "spoken": "one zero",
    "value": 10
  },
  "wind_direction": {
    "repr": "000",
    "spoken": "zero zero zero",
    "value": 0
  },
  "wind_gust": null,
  "wind_speed": {
    "repr": "00",
    "spoken": "zero",
    "value": 0
  },
  "wind_variable_direction": [],
  "wx_codes": []
}
