{
  "altimeter": {
    "repr": "A3014",
    "spoken": "three zero point one four",
    "value": 30.14
  },
  "clouds": [
    {
      "altitude": 80,
      "modifier": null,
      "repr": "FEW080",
      "type": "FEW"
    }
  ],
  "density_altitude": -2912,
  "dewpoint": {
    "repr": "M16",
    "spoken": "minus one six",
    "value": -16
  },
  "flight_rules": "VFR",
  "meta": {
    "cache-timestamp": "2024-01-12T13:40:04.828000Z",
    "stations_updated": "2023-10-28",
    "timestamp": "2024-01-12T13:40:31.765188Z"
  },
  "other": [],
  "pressure_altitude": -78,
  "raw": "KAWO 121256Z AUTO 36010KT 10SM FEW080 M09/M16 A3014 RMK AO2 SLP213 T10891156 FZRANO",
  "relative_humidity": 0.5832232532298187,
  "remarks": "RMK AO2 SLP213 T10891156 FZRANO",
  "remarks_info": {
    "codes": [
      {
        "repr": "AO2",
        "value": "Automated with precipitation sensor"
      },
      {
        "repr": "FZRANO",
        "value": "Freezing rain information not available"
      }
    ],
    "dewpoint_decimal": {
      "repr": "1156",
      "spoken": "minus one five point six",
      "value": -15.6
    },
    "maximum_temperature_24": null,
    "maximum_temperature_6": null,
    "minimum_temperature_24": null,
    "minimum_temperature_6": null,
    "precip_24_hours": null,
    "precip_36_hours": null,
    "precip_hourly": null,
    "pressure_tendency": null,
    "sea_level_pressure": {
      "repr": "SLP213",
      "spoken": "one zero two one point three",
      "value": 1021.3
    },
    "snow_depth": null,
    "sunshine_minutes": null,
    "temperature_decimal": {
      "repr": "1089",
      "spoken": "minus eight point nine",
      "value": -8.9
    }
  },
  "runway_visibility": [],
  "sanitized": "KAWO 121256Z 36010KT 10SM FEW080 M09/M16 A3014 RMK AO2 SLP213 T10891156 FZRANO",
  "station": "KAWO",
  "temperature": {
    "repr": "M09",
    "spoken": "minus nine",
    "value": -9
  },
  "time": {
    "dt": "2024-01-12T12:56:00Z",
    "repr": "121256Z"
  },
  "units": {
    "accumulation": "in",
    "altimeter": "inHg",
    "altitude": "ft",
    "temperature": "C",
    "visibility": "sm",
    "wind_speed": "kt"
  },
  "visibility": {
    "repr": "10",
    "spoken": "one zero",
    "value": 10
  },
  "wind_direction": {
    "repr": "360",
    "spoken": "three six zero",
    "value": 360
  },
  "wind_gust": null,
  "wind_speed": {
    "repr": "10",
    "spoken": "one zero",
    "value": 10
  },
  "wind_variable_direction": [],
  "wx_codes": []
}
