{
  "altimeter": {
    "repr": "A2966",
    "spoken": "two nine point six six",
    "value": 29.66
  },
  "clouds": [
    {
      "altitude": 21,
      "modifier": null,
      "repr": "SCT021",
      "type": "SCT"
    },
    {
      "altitude": 33,
      "modifier": null,
      "repr": "SCT033",
      "type": "SCT"
    },
    {
      "altitude": 44,
      "modifier": null,
      "repr": "OVC044",
      "type": "OVC"
    }
  ],
  "density_altitude": -404,
  "dewpoint": {
    "repr": "06",
    "spoken": "six",
    "value": 6
  },
  "flight_rules": "VFR",
  "meta": {
    "cache-timestamp": "2024-03-10T22:04:03.750000Z",
    "stations_updated": "2024-01-01",
    "timestamp": "2024-03-10T22:04:05.628958Z"
  },
  "other": [],
  "pressure_altitude": 402,
  "raw": "KAWO 102103Z AUTO 15013KT 10SM SCT021 SCT033 OVC044 08/06 A2966 RMK AO2",
  "relative_humidity": 0.87185013383306,
  "remarks": "RMK AO2",
  "remarks_info": {
    "codes": [
      {
        "repr": "AO2",
        "value": "Automated with precipitation sensor"
      }
    ],
    "dewpoint_decimal": null,
    "maximum_temperature_24": null,
    "maximum_temperature_6": null,
    "minimum_temperature_24": null,
    "minimum_temperature_6": null,
    "precip_24_hours": null,
    "precip_36_hours": null,
    "precip_hourly": null,
    "pressure_tendency": null,
    "sea_level_pressure": null,
    "snow_depth": null,
    "sunshine_minutes": null,
    "temperature_decimal": null
  },
  "runway_visibility": [],
  "sanitized": "KAWO 102103Z 15013KT 10SM SCT021 SCT033 OVC044 08/06 A2966 RMK AO2",
  "station": "KAWO",
  "temperature": {
    "repr": "08",
    "spoken": "eight",
    "value": 8
  },
  "time": {
    "dt": "2024-03-10T21:03:00Z",
    "repr": "102103Z"
  },
  "units": {
    "accumulation": "in",
    "altimeter": "inHg",
    "altitude": "ft",
    "temperature": "C",
    "visibility": "sm",
    "wind_speed": "kt"
  },
  "visibility": {
    "repr": "10",
    "spoken": "one zero",
    "value": 10
  },
  "wind_direction": {
    "repr": "150",
    "spoken": "one five zero",
    "value": 150
  },
  "wind_gust": null,
  "wind_speed": {
    "repr": "13",
    "spoken": "one three",
    "value": 13
  },
  "wind_variable_direction": [],
  "wx_codes": []
}
