{
  "meta": {
    "timestamp": "2022-11-01T09:51:56.598771Z",
    "stations_updated": "2022-09-05"
  },
  "altimeter": {
    "repr": "A2979",
    "value": 29.79,
    "spoken": "two nine point seven nine"
  },
  "clouds": [
    {
      "repr": "FEW075",
      "type": "FEW",
      "altitude": 75,
      "modifier": null
    }
  ],
  "flight_rules": "IFR",
  "other": [],
  "visibility": {
    "repr": "3/2",
    "value": 1.5,
    "spoken": "one and one half",
    "numerator": 3,
    "denominator": 2,
    "normalized": "1 1/2"
  },
  "wind_direction": {
    "repr": "000",
    "value": 0,
    "spoken": "zero zero zero"
  },
  "wind_gust": null,
  "wind_speed": {
    "repr": "00",
    "value": 0,
    "spoken": "zero"
  },
  "wx_codes": [
    {
      "repr": "BR",
      "value": "Mist"
    }
  ],
  "raw": "KAWO 010947Z AUTO 00000KT 1 1/2SM BR FEW075 04/04 A2979 RMK AO2",
  "sanitized": "KAWO 010947Z 00000KT 1 1/2SM BR FEW075 04/04 A2979 RMK AO2",
  "station": "KAWO",
  "time": {
    "repr": "010947Z",
    "dt": "2022-11-01T09:47:00Z"
  },
  "remarks": "RMK AO2",
  "dewpoint": {
    "repr": "04",
    "value": 4,
    "spoken": "four"
  },
  "relative_humidity": 1,
  "remarks_info": {
    "maximum_temperature_6": null,
    "minimum_temperature_6": null,
    "pressure_tendency": null,
    "precip_36_hours": null,
    "precip_24_hours": null,
    "sunshine_minutes": null,
    "codes": [
      {
        "repr": "AO2",
        "value": "Automated with precipitation sensor"
      }
    ],
    "dewpoint_decimal": null,
    "maximum_temperature_24": null,
    "minimum_temperature_24": null,
    "precip_hourly": null,
    "sea_level_pressure": null,
    "snow_depth": null,
    "temperature_decimal": null
  },
  "runway_visibility": [],
  "temperature": {
    "repr": "04",
    "value": 4,
    "spoken": "four"
  },
  "wind_variable_direction": [],
  "density_altitude": -1014,
  "pressure_altitude": 272,
  "units": {
    "accumulation": "in",
    "altimeter": "inHg",
    "altitude": "ft",
    "temperature": "C",
    "visibility": "sm",
    "wind_speed": "kt"
  }
}
