{
  "meta": {
    "timestamp": "2022-11-16T10:05:04.092911Z",
    "stations_updated": "2022-09-05"
  },
  "altimeter": {
    "repr": "A3060",
    "value": 30.6,
    "spoken": "three zero point six zero"
  },
  "clouds": [],
  "flight_rules": "LIFR",
  "other": [],
  "visibility": {
    "repr": "3/4",
    "value": 0.75,
    "spoken": "three quarters",
    "numerator": 3,
    "denominator": 4,
    "normalized": "3/4"
  },
  "wind_direction": {
    "repr": "000",
    "value": 0,
    "spoken": "zero zero zero"
  },
  "wind_gust": null,
  "wind_speed": {
    "repr": "00",
    "value": 0,
    "spoken": "zero"
  },
  "wx_codes": [
    {
      "repr": "BR",
      "value": "Mist"
    }
  ],
  "raw": "KAWO 160956Z AUTO 00000KT 3/4SM BR CLR M04/M04 A3060 RMK AO2 VIS 1/4V5 SLP370 T10391044 FZRANO",
  "sanitized": "KAWO 160956Z 00000KT 3/4SM BR M04/M04 A3060 RMK AO2 VIS 1/4V5 SLP370 T10391044 FZRANO",
  "station": "KAWO",
  "time": {
    "repr": "160956Z",
    "dt": "2022-11-16T09:56:00Z"
  },
  "remarks": "RMK AO2 VIS 1/4V5 SLP370 T10391044 FZRANO",
  "dewpoint": {
    "repr": "M04",
    "value": -4,
    "spoken": "minus four"
  },
  "relative_humidity": 0.9631438284581738,
  "remarks_info": {
    "maximum_temperature_6": null,
    "minimum_temperature_6": null,
    "pressure_tendency": null,
    "precip_36_hours": null,
    "precip_24_hours": null,
    "sunshine_minutes": null,
    "codes": [
      {
        "repr": "AO2",
        "value": "Automated with precipitation sensor"
      },
      {
        "repr": "FZRANO",
        "value": "Freezing rain information not available"
      }
    ],
    "dewpoint_decimal": {
      "repr": "1044",
      "value": -4.4,
      "spoken": "minus four point four"
    },
    "maximum_temperature_24": null,
    "minimum_temperature_24": null,
    "precip_hourly": null,
    "sea_level_pressure": {
      "repr": "SLP370",
      "value": 1037,
      "spoken": "one zero three seven point zero"
    },
    "snow_depth": null,
    "temperature_decimal": {
      "repr": "1039",
      "value": -3.9,
      "spoken": "minus three point nine"
    }
  },
  "runway_visibility": [],
  "temperature": {
    "repr": "M04",
    "value": -4,
    "spoken": "minus four"
  },
  "wind_variable_direction": [],
  "density_altitude": -2772,
  "pressure_altitude": -538,
  "units": {
    "accumulation": "in",
    "altimeter": "inHg",
    "altitude": "ft",
    "temperature": "C",
    "visibility": "sm",
    "wind_speed": "kt"
  }
}
