{
  "altimeter": {
    "repr": "A3006",
    "spoken": "three zero point zero six",
    "value": 30.06
  },
  "clouds": [],
  "density_altitude": 1908,
  "dewpoint": {
    "repr": "20",
    "spoken": "two zero",
    "value": 20
  },
  "flight_rules": "VFR",
  "meta": {
    "stations_updated": "2024-06-12",
    "timestamp": "2024-09-05T22:40:47.842916Z"
  },
  "other": [],
  "pressure_altitude": 2,
  "raw": "KAWO 052156Z AUTO 30006KT 10SM CLR 31/20 A3006 RMK AO2 SLP184 T03060200",
  "relative_humidity": 0.5318102376185578,
  "remarks": "RMK AO2 SLP184 T03060200",
  "remarks_info": {
    "codes": [
      {
        "repr": "AO2",
        "value": "Automated with precipitation sensor"
      }
    ],
    "dewpoint_decimal": {
      "repr": "0200",
      "spoken": "two zero point zero",
      "value": 20
    },
    "maximum_temperature_24": null,
    "maximum_temperature_6": null,
    "minimum_temperature_24": null,
    "minimum_temperature_6": null,
    "precip_24_hours": null,
    "precip_36_hours": null,
    "precip_hourly": null,
    "pressure_tendency": null,
    "sea_level_pressure": {
      "repr": "SLP184",
      "spoken": "one zero one eight point four",
      "value": 1018.4
    },
    "snow_depth": null,
    "sunshine_minutes": null,
    "temperature_decimal": {
      "repr": "0306",
      "spoken": "three zero point six",
      "value": 30.6
    }
  },
  "runway_visibility": [],
  "sanitized": "KAWO 052156Z 30006KT 10SM 31/20 A3006 RMK AO2 SLP184 T03060200",
  "station": "KAWO",
  "temperature": {
    "repr": "31",
    "spoken": "three one",
    "value": 31
  },
  "time": {
    "dt": "2024-09-05T21:56:00Z",
    "repr": "052156Z"
  },
  "units": {
    "accumulation": "in",
    "altimeter": "inHg",
    "altitude": "ft",
    "temperature": "C",
    "visibility": "sm",
    "wind_speed": "kt"
  },
  "visibility": {
    "repr": "10",
    "spoken": "one zero",
    "value": 10
  },
  "wind_direction": {
    "repr": "300",
    "spoken": "three zero zero",
    "value": 300
  },
  "wind_gust": null,
  "wind_speed": {
    "repr": "06",
    "spoken": "six",
    "value": 6
  },
  "wind_variable_direction": [],
  "wx_codes": []
}
