{
  "meta": {
    "timestamp": "2022-11-29T16:06:49.276261Z",
    "stations_updated": "2022-09-05"
  },
  "altimeter": {
    "repr": "A3002",
    "value": 30.02,
    "spoken": "three zero point zero two"
  },
  "clouds": [
    {
      "repr": "BKN080",
      "type": "BKN",
      "altitude": 80,
      "modifier": null
    },
    {
      "repr": "OVC090",
      "type": "OVC",
      "altitude": 90,
      "modifier": null
    }
  ],
  "flight_rules": "VFR",
  "other": [],
  "visibility": {
    "repr": "10",
    "value": 10,
    "spoken": "one zero"
  },
  "wind_direction": {
    "repr": "030",
    "value": 30,
    "spoken": "zero three zero"
  },
  "wind_gust": null,
  "wind_speed": {
    "repr": "03",
    "value": 3,
    "spoken": "three"
  },
  "wx_codes": [],
  "raw": "KAWO 291556Z AUTO 03003KT 10SM BKN080 OVC090 M02/M05 A3002 RMK AO2 SLP171 T10221050 FZRANO",
  "sanitized": "KAWO 291556Z 03003KT 10SM BKN080 OVC090 M02/M05 A3002 RMK AO2 SLP171 T10221050 FZRANO",
  "station": "KAWO",
  "time": {
    "repr": "291556Z",
    "dt": "2022-11-29T15:56:00Z"
  },
  "remarks": "RMK AO2 SLP171 T10221050 FZRANO",
  "dewpoint": {
    "repr": "M05",
    "value": -5,
    "spoken": "minus five"
  },
  "relative_humidity": 0.8111211201333303,
  "remarks_info": {
    "maximum_temperature_6": null,
    "minimum_temperature_6": null,
    "pressure_tendency": null,
    "precip_36_hours": null,
    "precip_24_hours": null,
    "sunshine_minutes": null,
    "codes": [
      {
        "repr": "AO2",
        "value": "Automated with precipitation sensor"
      },
      {
        "repr": "FZRANO",
        "value": "Freezing rain information not available"
      }
    ],
    "dewpoint_decimal": {
      "repr": "1050",
      "value": -5,
      "spoken": "minus five point zero"
    },
    "maximum_temperature_24": null,
    "minimum_temperature_24": null,
    "precip_hourly": null,
    "sea_level_pressure": {
      "repr": "SLP171",
      "value": 1017.1,
      "spoken": "one zero one seven point one"
    },
    "snow_depth": null,
    "temperature_decimal": {
      "repr": "1022",
      "value": -2.2,
      "spoken": "minus two point two"
    }
  },
  "runway_visibility": [],
  "temperature": {
    "repr": "M02",
    "value": -2,
    "spoken": "minus two"
  },
  "wind_variable_direction": [],
  "density_altitude": -1988,
  "pressure_altitude": 42,
  "units": {
    "accumulation": "in",
    "altimeter": "inHg",
    "altitude": "ft",
    "temperature": "C",
    "visibility": "sm",
    "wind_speed": "kt"
  }
}
