{
  "meta": {
    "timestamp": "2022-09-27T21:04:27.436268Z",
    "stations_updated": "2022-09-05"
  },
  "altimeter": {
    "repr": "A2986",
    "value": 29.86,
    "spoken": "two nine point eight six"
  },
  "clouds": [],
  "flight_rules": "VFR",
  "other": [],
  "visibility": {
    "repr": "9",
    "value": 9,
    "spoken": "nine"
  },
  "wind_direction": {
    "repr": "VRB",
    "value": null,
    "spoken": "variable"
  },
  "wind_gust": null,
  "wind_speed": {
    "repr": "04",
    "value": 4,
    "spoken": "four"
  },
  "wx_codes": [],
  "raw": "KAWO 272056Z AUTO VRB04KT 9SM CLR 24/13 A2986 RMK AO2 SLP114 T02440128 56008",
  "sanitized": "KAWO 272056Z VRB04KT 9SM 24/13 A2986 RMK AO2 SLP114 T02440128 56008",
  "station": "KAWO",
  "time": {
    "repr": "272056Z",
    "dt": "2022-09-27T20:56:00Z"
  },
  "remarks": "RMK AO2 SLP114 T02440128 56008",
  "dewpoint": {
    "repr": "13",
    "value": 13,
    "spoken": "one three"
  },
  "relative_humidity": 0.4834072360228501,
  "remarks_info": {
    "maximum_temperature_6": null,
    "minimum_temperature_6": null,
    "pressure_tendency": {
      "repr": "56008",
      "tendency": "Decreasing, then steady",
      "change": 0.8
    },
    "precip_36_hours": null,
    "precip_24_hours": null,
    "sunshine_minutes": null,
    "codes": [
      {
        "repr": "AO2",
        "value": "Automated with precipitation sensor"
      }
    ],
    "dewpoint_decimal": {
      "repr": "0128",
      "value": 12.8,
      "spoken": "one two point eight"
    },
    "maximum_temperature_24": null,
    "minimum_temperature_24": null,
    "precip_hourly": null,
    "sea_level_pressure": {
      "repr": "SLP114",
      "value": 1011.4,
      "spoken": "one zero one one point four"
    },
    "snow_depth": null,
    "temperature_decimal": {
      "repr": "0244",
      "value": 24.4,
      "spoken": "two four point four"
    }
  },
  "runway_visibility": [],
  "temperature": {
    "repr": "24",
    "value": 24,
    "spoken": "two four"
  },
  "wind_variable_direction": [],
  "density_altitude": 1364,
  "pressure_altitude": 202,
  "units": {
    "accumulation": "in",
    "altimeter": "inHg",
    "altitude": "ft",
    "temperature": "C",
    "visibility": "sm",
    "wind_speed": "kt"
  }
}
