{
  "meta": {
    "timestamp": "2023-03-07T08:32:41.021250Z",
    "stations_updated": "2023-01-30"
  },
  "altimeter": {
    "repr": "A3006",
    "value": 30.06,
    "spoken": "three zero point zero six"
  },
  "clouds": [
    {
      "repr": "FEW060",
      "type": "FEW",
      "altitude": 60,
      "modifier": null
    },
    {
      "repr": "SCT075",
      "type": "SCT",
      "altitude": 75,
      "modifier": null
    }
  ],
  "flight_rules": "VFR",
  "other": [],
  "visibility": {
    "repr": "10",
    "value": 10,
    "spoken": "one zero"
  },
  "wind_direction": {
    "repr": "000",
    "value": 0,
    "spoken": "zero zero zero"
  },
  "wind_gust": null,
  "wind_speed": {
    "repr": "00",
    "value": 0,
    "spoken": "zero"
  },
  "wx_codes": [],
  "raw": "KAWO 070756Z AUTO 00000KT 10SM FEW060 SCT075 03/01 A3006 RMK AO2 SLP183 T00330011 401061011",
  "sanitized": "KAWO 070756Z 00000KT 10SM FEW060 SCT075 03/01 A3006 RMK AO2 SLP183 T00330011 401061011",
  "station": "KAWO",
  "time": {
    "repr": "070756Z",
    "dt": "2023-03-07T07:56:00Z"
  },
  "remarks": "RMK AO2 SLP183 T00330011 401061011",
  "dewpoint": {
    "repr": "01",
    "value": 1,
    "spoken": "one"
  },
  "relative_humidity": 0.8548717667849024,
  "remarks_info": {
    "maximum_temperature_6": null,
    "minimum_temperature_6": null,
    "pressure_tendency": null,
    "precip_36_hours": null,
    "precip_24_hours": null,
    "sunshine_minutes": null,
    "codes": [
      {
        "repr": "AO2",
        "value": "Automated with precipitation sensor"
      }
    ],
    "dewpoint_decimal": {
      "repr": "0011",
      "value": 1.1,
      "spoken": "one point one"
    },
    "maximum_temperature_24": {
      "repr": "0106",
      "value": 10.6,
      "spoken": "one zero point six"
    },
    "minimum_temperature_24": {
      "repr": "1011",
      "value": -1.1,
      "spoken": "minus one point one"
    },
    "precip_hourly": null,
    "sea_level_pressure": {
      "repr": "SLP183",
      "value": 1018.3,
      "spoken": "one zero one eight point three"
    },
    "snow_depth": null,
    "temperature_decimal": {
      "repr": "0033",
      "value": 3.3,
      "spoken": "three point three"
    }
  },
  "runway_visibility": [],
  "temperature": {
    "repr": "03",
    "value": 3,
    "spoken": "three"
  },
  "wind_variable_direction": [],
  "density_altitude": -1368,
  "pressure_altitude": 2,
  "units": {
    "accumulation": "in",
    "altimeter": "inHg",
    "altitude": "ft",
    "temperature": "C",
    "visibility": "sm",
    "wind_speed": "kt"
  }
}
