{
  "altimeter": {
    "repr": "A3010",
    "spoken": "three zero point one zero",
    "value": 30.1
  },
  "clouds": [
    {
      "altitude": 40,
      "modifier": null,
      "repr": "BKN040",
      "type": "BKN"
    }
  ],
  "density_altitude": 860,
  "dewpoint": {
    "repr": "11",
    "spoken": "one one",
    "value": 11
  },
  "flight_rules": "VFR",
  "meta": {
    "stations_updated": "2024-06-12",
    "timestamp": "2024-07-24T19:01:41.201411Z"
  },
  "other": [],
  "pressure_altitude": -38,
  "raw": "KAWO 241856Z AUTO VRB06KT 10SM BKN040 22/11 A3010 RMK AO2 SLP199 T02220111",
  "relative_humidity": 0.49361163206000364,
  "remarks": "RMK AO2 SLP199 T02220111",
  "remarks_info": {
    "codes": [
      {
        "repr": "AO2",
        "value": "Automated with precipitation sensor"
      }
    ],
    "dewpoint_decimal": {
      "repr": "0111",
      "spoken": "one one point one",
      "value": 11.1
    },
    "maximum_temperature_24": null,
    "maximum_temperature_6": null,
    "minimum_temperature_24": null,
    "minimum_temperature_6": null,
    "precip_24_hours": null,
    "precip_36_hours": null,
    "precip_hourly": null,
    "pressure_tendency": null,
    "sea_level_pressure": {
      "repr": "SLP199",
      "spoken": "one zero one nine point nine",
      "value": 1019.9
    },
    "snow_depth": null,
    "sunshine_minutes": null,
    "temperature_decimal": {
      "repr": "0222",
      "spoken": "two two point two",
      "value": 22.2
    }
  },
  "runway_visibility": [],
  "sanitized": "KAWO 241856Z VRB06KT 10SM BKN040 22/11 A3010 RMK AO2 SLP199 T02220111",
  "station": "KAWO",
  "temperature": {
    "repr": "22",
    "spoken": "two two",
    "value": 22
  },
  "time": {
    "dt": "2024-07-24T18:56:00Z",
    "repr": "241856Z"
  },
  "units": {
    "accumulation": "in",
    "altimeter": "inHg",
    "altitude": "ft",
    "temperature": "C",
    "visibility": "sm",
    "wind_speed": "kt"
  },
  "visibility": {
    "repr": "10",
    "spoken": "one zero",
    "value": 10
  },
  "wind_direction": {
    "repr": "VRB",
    "spoken": "variable",
    "value": null
  },
  "wind_gust": null,
  "wind_speed": {
    "repr": "06",
    "spoken": "six",
    "value": 6
  },
  "wind_variable_direction": [],
  "wx_codes": []
}
