{
  "meta": {
    "timestamp": "2023-08-22T08:26:46.299866Z",
    "stations_updated": "2023-08-05",
    "cache-timestamp": "2023-08-22T08:26:04.208000Z"
  },
  "altimeter": {
    "repr": "A2999",
    "value": 29.99,
    "spoken": "two nine point nine nine"
  },
  "clouds": [
    {
      "repr": "FEW002",
      "type": "FEW",
      "altitude": 2,
      "modifier": null
    }
  ],
  "flight_rules": "VFR",
  "other": [],
  "visibility": {
    "repr": "10",
    "value": 10,
    "spoken": "one zero"
  },
  "wind_direction": {
    "repr": "000",
    "value": 0,
    "spoken": "zero zero zero"
  },
  "wind_gust": null,
  "wind_speed": {
    "repr": "00",
    "value": 0,
    "spoken": "zero"
  },
  "wx_codes": [],
  "raw": "KAWO 220756Z AUTO 00000KT 10SM FEW002 11/08 A2999 RMK AO2 SLP158 T01110083 402280083",
  "sanitized": "KAWO 220756Z 00000KT 10SM FEW002 11/08 A2999 RMK AO2 SLP158 T01110083 402280083",
  "station": "KAWO",
  "time": {
    "repr": "220756Z",
    "dt": "2023-08-22T07:56:00Z"
  },
  "remarks": "RMK AO2 SLP158 T01110083 402280083",
  "dewpoint": {
    "repr": "08",
    "value": 8,
    "spoken": "eight"
  },
  "relative_humidity": 0.8286786978983101,
  "remarks_info": {
    "maximum_temperature_6": null,
    "minimum_temperature_6": null,
    "pressure_tendency": null,
    "precip_36_hours": null,
    "precip_24_hours": null,
    "sunshine_minutes": null,
    "codes": [
      {
        "repr": "AO2",
        "value": "Automated with precipitation sensor"
      }
    ],
    "dewpoint_decimal": {
      "repr": "0083",
      "value": 8.3,
      "spoken": "eight point three"
    },
    "maximum_temperature_24": {
      "repr": "0228",
      "value": 22.8,
      "spoken": "two two point eight"
    },
    "minimum_temperature_24": {
      "repr": "0083",
      "value": 8.3,
      "spoken": "eight point three"
    },
    "precip_hourly": null,
    "sea_level_pressure": {
      "repr": "SLP158",
      "value": 1015.8,
      "spoken": "one zero one five point eight"
    },
    "snow_depth": null,
    "temperature_decimal": {
      "repr": "0111",
      "value": 11.1,
      "spoken": "one one point one"
    }
  },
  "runway_visibility": [],
  "temperature": {
    "repr": "11",
    "value": 11,
    "spoken": "one one"
  },
  "wind_variable_direction": [],
  "density_altitude": -362,
  "pressure_altitude": 72,
  "units": {
    "accumulation": "in",
    "altimeter": "inHg",
    "altitude": "ft",
    "temperature": "C",
    "visibility": "sm",
    "wind_speed": "kt"
  }
}
