{
  "altimeter": {
    "repr": "A3046",
    "spoken": "three zero point four six",
    "value": 30.46
  },
  "clouds": [
    {
      "altitude": 1,
      "modifier": null,
      "repr": "VV001",
      "type": "VV"
    }
  ],
  "density_altitude": -2968,
  "dewpoint": {
    "repr": "M08",
    "spoken": "minus eight",
    "value": -8
  },
  "flight_rules": "LIFR",
  "meta": {
    "stations_updated": "2024-12-02",
    "timestamp": "2025-01-25T11:01:22.550098Z"
  },
  "other": [],
  "pressure_altitude": -398,
  "raw": "KAWO 251056Z AUTO 00000KT 1/4SM FZFG VV001 M07/M08 A3046 RMK AO2 SLP324 T10671078 FZRANO",
  "relative_humidity": 0.918697607581929,
  "remarks": "RMK AO2 SLP324 T10671078 FZRANO",
  "remarks_info": {
    "codes": [
      {
        "repr": "AO2",
        "value": "Automated with precipitation sensor"
      },
      {
        "repr": "FZRANO",
        "value": "Freezing rain information not available"
      }
    ],
    "dewpoint_decimal": {
      "repr": "1078",
      "spoken": "minus seven point eight",
      "value": -7.8
    },
    "maximum_temperature_24": null,
    "maximum_temperature_6": null,
    "minimum_temperature_24": null,
    "minimum_temperature_6": null,
    "precip_24_hours": null,
    "precip_36_hours": null,
    "precip_hourly": null,
    "pressure_tendency": null,
    "sea_level_pressure": {
      "repr": "SLP324",
      "spoken": "one zero three two point four",
      "value": 1032.4
    },
    "snow_depth": null,
    "sunshine_minutes": null,
    "temperature_decimal": {
      "repr": "1067",
      "spoken": "minus six point seven",
      "value": -6.7
    }
  },
  "runway_visibility": [],
  "sanitized": "KAWO 251056Z 00000KT 1/4SM FZFG VV001 M07/M08 A3046 RMK AO2 SLP324 T10671078 FZRANO",
  "station": "KAWO",
  "temperature": {
    "repr": "M07",
    "spoken": "minus seven",
    "value": -7
  },
  "time": {
    "dt": "2025-01-25T10:56:00Z",
    "repr": "251056Z"
  },
  "units": {
    "accumulation": "in",
    "altimeter": "inHg",
    "altitude": "ft",
    "temperature": "C",
    "visibility": "sm",
    "wind_speed": "kt"
  },
  "visibility": {
    "denominator": 4,
    "normalized": "1/4",
    "numerator": 1,
    "repr": "1/4",
    "spoken": "one quarter",
    "value": 0.25
  },
  "wind_direction": {
    "repr": "000",
    "spoken": "zero zero zero",
    "value": 0
  },
  "wind_gust": null,
  "wind_speed": {
    "repr": "00",
    "spoken": "zero",
    "value": 0
  },
  "wind_variable_direction": [],
  "wx_codes": [
    {
      "repr": "FZFG",
      "value": "Freezing Fog"
    }
  ]
}
