{
  "altimeter": {
    "repr": "A3036",
    "spoken": "three zero point three six",
    "value": 30.36
  },
  "clouds": [
    {
      "altitude": 9,
      "modifier": null,
      "repr": "FEW009",
      "type": "FEW"
    },
    {
      "altitude": 32,
      "modifier": null,
      "repr": "SCT032",
      "type": "SCT"
    },
    {
      "altitude": 41,
      "modifier": null,
      "repr": "OVC041",
      "type": "OVC"
    }
  ],
  "density_altitude": -1332,
  "dewpoint": {
    "repr": "06",
    "spoken": "six",
    "value": 6
  },
  "flight_rules": "MVFR",
  "meta": {
    "stations_updated": "2024-12-02",
    "timestamp": "2024-12-09T03:25:56.703814Z"
  },
  "other": [],
  "pressure_altitude": -298,
  "raw": "KAWO 090256Z AUTO 36003KT 5SM BR FEW009 SCT032 OVC041 06/06 A3036 RMK AO2 SLP286 60000 T00610056 53020",
  "relative_humidity": 0.9659908804883092,
  "remarks": "RMK AO2 SLP286 60000 T00610056 53020",
  "remarks_info": {
    "codes": [
      {
        "repr": "AO2",
        "value": "Automated with precipitation sensor"
      }
    ],
    "dewpoint_decimal": {
      "repr": "0056",
      "spoken": "five point six",
      "value": 5.6
    },
    "maximum_temperature_24": null,
    "maximum_temperature_6": null,
    "minimum_temperature_24": null,
    "minimum_temperature_6": null,
    "precip_24_hours": null,
    "precip_36_hours": {
      "repr": "60000",
      "spoken": "zero",
      "value": 0
    },
    "precip_hourly": null,
    "pressure_tendency": {
      "change": 2,
      "repr": "53020",
      "tendency": "Decreasing or steady, then increasing"
    },
    "sea_level_pressure": {
      "repr": "SLP286",
      "spoken": "one zero two eight point six",
      "value": 1028.6
    },
    "snow_depth": null,
    "sunshine_minutes": null,
    "temperature_decimal": {
      "repr": "0061",
      "spoken": "six point one",
      "value": 6.1
    }
  },
  "runway_visibility": [],
  "sanitized": "KAWO 090256Z 36003KT 5SM BR FEW009 SCT032 OVC041 06/06 A3036 RMK AO2 SLP286 60000 T00610056 53020",
  "station": "KAWO",
  "temperature": {
    "repr": "06",
    "spoken": "six",
    "value": 6
  },
  "time": {
    "dt": "2024-12-09T02:56:00Z",
    "repr": "090256Z"
  },
  "units": {
    "accumulation": "in",
    "altimeter": "inHg",
    "altitude": "ft",
    "temperature": "C",
    "visibility": "sm",
    "wind_speed": "kt"
  },
  "visibility": {
    "repr": "5",
    "spoken": "five",
    "value": 5
  },
  "wind_direction": {
    "repr": "360",
    "spoken": "three six zero",
    "value": 360
  },
  "wind_gust": null,
  "wind_speed": {
    "repr": "03",
    "spoken": "three",
    "value": 3
  },
  "wind_variable_direction": [],
  "wx_codes": [
    {
      "repr": "BR",
      "value": "Mist"
    }
  ]
}
