{
  "altimeter": {
    "repr": "A3041",
    "spoken": "three zero point four one",
    "value": 30.41
  },
  "clouds": [],
  "density_altitude": -2642,
  "dewpoint": {
    "repr": "M05",
    "spoken": "minus five",
    "value": -5
  },
  "flight_rules": "VFR",
  "meta": {
    "cache-timestamp": "2023-11-25T16:40:03.739000Z",
    "stations_updated": "2023-10-28",
    "timestamp": "2023-11-25T16:40:31.912845Z"
  },
  "other": [],
  "pressure_altitude": -348,
  "raw": "KAWO 251556Z AUTO 00000KT 10SM CLR M04/M05 A3041 RMK AO2 SLP304 T10441050 FZRANO",
  "relative_humidity": 0.955738569324894,
  "remarks": "RMK AO2 SLP304 T10441050 FZRANO",
  "remarks_info": {
    "codes": [
      {
        "repr": "AO2",
        "value": "Automated with precipitation sensor"
      },
      {
        "repr": "FZRANO",
        "value": "Freezing rain information not available"
      }
    ],
    "dewpoint_decimal": {
      "repr": "1050",
      "spoken": "minus five point zero",
      "value": -5
    },
    "maximum_temperature_24": null,
    "maximum_temperature_6": null,
    "minimum_temperature_24": null,
    "minimum_temperature_6": null,
    "precip_24_hours": null,
    "precip_36_hours": null,
    "precip_hourly": null,
    "pressure_tendency": null,
    "sea_level_pressure": {
      "repr": "SLP304",
      "spoken": "one zero three zero point four",
      "value": 1030.4
    },
    "snow_depth": null,
    "sunshine_minutes": null,
    "temperature_decimal": {
      "repr": "1044",
      "spoken": "minus four point four",
      "value": -4.4
    }
  },
  "runway_visibility": [],
  "sanitized": "KAWO 251556Z 00000KT 10SM M04/M05 A3041 RMK AO2 SLP304 T10441050 FZRANO",
  "station": "KAWO",
  "temperature": {
    "repr": "M04",
    "spoken": "minus four",
    "value": -4
  },
  "time": {
    "dt": "2023-11-25T15:56:00Z",
    "repr": "251556Z"
  },
  "units": {
    "accumulation": "in",
    "altimeter": "inHg",
    "altitude": "ft",
    "temperature": "C",
    "visibility": "sm",
    "wind_speed": "kt"
  },
  "visibility": {
    "repr": "10",
    "spoken": "one zero",
    "value": 10
  },
  "wind_direction": {
    "repr": "000",
    "spoken": "zero zero zero",
    "value": 0
  },
  "wind_gust": null,
  "wind_speed": {
    "repr": "00",
    "spoken": "zero",
    "value": 0
  },
  "wind_variable_direction": [],
  "wx_codes": []
}
