{
  "altimeter": {
    "repr": "A3006",
    "spoken": "three zero point zero six",
    "value": 30.06
  },
  "clouds": [
    {
      "altitude": 17,
      "modifier": null,
      "repr": "OVC017",
      "type": "OVC"
    }
  ],
  "density_altitude": -1692,
  "dewpoint": {
    "repr": "01",
    "spoken": "one",
    "value": 1
  },
  "flight_rules": "MVFR",
  "meta": {
    "cache-timestamp": "2024-01-18T09:24:03.789000Z",
    "stations_updated": "2023-10-28",
    "timestamp": "2024-01-18T09:24:30.366236Z"
  },
  "other": [],
  "pressure_altitude": 2,
  "raw": "KAWO 180856Z AUTO 01004KT 10SM OVC017 01/01 A3006 RMK AO2 RAE15 SLP186 P0000 60000 T00060006 53020 FZRANO",
  "relative_humidity": 1,
  "remarks": "RMK AO2 RAE15 SLP186 P0000 60000 T00060006 53020 FZRANO",
  "remarks_info": {
    "codes": [
      {
        "repr": "AO2",
        "value": "Automated with precipitation sensor"
      },
      {
        "repr": "FZRANO",
        "value": "Freezing rain information not available"
      },
      {
        "repr": "P0000",
        "value": "Trace amount of rain in the last hour"
      },
      {
        "repr": "RAE15",
        "value": "Rain ended at :15"
      }
    ],
    "dewpoint_decimal": {
      "repr": "0006",
      "spoken": "zero point six",
      "value": 0.6
    },
    "maximum_temperature_24": null,
    "maximum_temperature_6": null,
    "minimum_temperature_24": null,
    "minimum_temperature_6": null,
    "precip_24_hours": null,
    "precip_36_hours": {
      "repr": "60000",
      "spoken": "zero",
      "value": 0
    },
    "precip_hourly": null,
    "pressure_tendency": {
      "change": 2,
      "repr": "53020",
      "tendency": "Decreasing or steady, then increasing"
    },
    "sea_level_pressure": {
      "repr": "SLP186",
      "spoken": "one zero one eight point six",
      "value": 1018.6
    },
    "snow_depth": null,
    "sunshine_minutes": null,
    "temperature_decimal": {
      "repr": "0006",
      "spoken": "zero point six",
      "value": 0.6
    }
  },
  "runway_visibility": [],
  "sanitized": "KAWO 180856Z 01004KT 10SM OVC017 01/01 A3006 RMK AO2 RAE15 SLP186 P0000 60000 T00060006 53020 FZRANO",
  "station": "KAWO",
  "temperature": {
    "repr": "01",
    "spoken": "one",
    "value": 1
  },
  "time": {
    "dt": "2024-01-18T08:56:00Z",
    "repr": "180856Z"
  },
  "units": {
    "accumulation": "in",
    "altimeter": "inHg",
    "altitude": "ft",
    "temperature": "C",
    "visibility": "sm",
    "wind_speed": "kt"
  },
  "visibility": {
    "repr": "10",
    "spoken": "one zero",
    "value": 10
  },
  "wind_direction": {
    "repr": "010",
    "spoken": "zero one zero",
    "value": 10
  },
  "wind_gust": null,
  "wind_speed": {
    "repr": "04",
    "spoken": "four",
    "value": 4
  },
  "wind_variable_direction": [],
  "wx_codes": []
}
