{
  "meta": {
    "timestamp": "2022-11-26T16:03:44.877591Z",
    "stations_updated": "2022-09-05"
  },
  "altimeter": {
    "repr": "A3047",
    "value": 30.47,
    "spoken": "three zero point four seven"
  },
  "clouds": [
    {
      "repr": "FEW013",
      "type": "FEW",
      "altitude": 13,
      "modifier": null
    },
    {
      "repr": "OVC036",
      "type": "OVC",
      "altitude": 36,
      "modifier": null
    }
  ],
  "flight_rules": "VFR",
  "other": [],
  "visibility": {
    "repr": "10",
    "value": 10,
    "spoken": "one zero"
  },
  "wind_direction": {
    "repr": "140",
    "value": 140,
    "spoken": "one four zero"
  },
  "wind_gust": null,
  "wind_speed": {
    "repr": "04",
    "value": 4,
    "spoken": "four"
  },
  "wx_codes": [],
  "raw": "KAWO 261556Z AUTO 14004KT 10SM FEW013 OVC036 04/03 A3047 RMK AO2 RAB1459E50 SLP324 P0000 T00440033",
  "sanitized": "KAWO 261556Z 14004KT 10SM FEW013 OVC036 04/03 A3047 RMK AO2 RAB1459E50 SLP324 P0000 T00440033",
  "station": "KAWO",
  "time": {
    "repr": "261556Z",
    "dt": "2022-11-26T15:56:00Z"
  },
  "remarks": "RMK AO2 RAB1459E50 SLP324 P0000 T00440033",
  "dewpoint": {
    "repr": "03",
    "value": 3,
    "spoken": "three"
  },
  "relative_humidity": 0.9255582325082627,
  "remarks_info": {
    "maximum_temperature_6": null,
    "minimum_temperature_6": null,
    "pressure_tendency": null,
    "precip_36_hours": null,
    "precip_24_hours": null,
    "sunshine_minutes": null,
    "codes": [
      {
        "repr": "AO2",
        "value": "Automated with precipitation sensor"
      },
      {
        "repr": "P0000",
        "value": "Trace amount of rain in the last hour"
      }
    ],
    "dewpoint_decimal": {
      "repr": "0033",
      "value": 3.3,
      "spoken": "three point three"
    },
    "maximum_temperature_24": null,
    "minimum_temperature_24": null,
    "precip_hourly": null,
    "sea_level_pressure": {
      "repr": "SLP324",
      "value": 1032.4,
      "spoken": "one zero three two point four"
    },
    "snow_depth": null,
    "temperature_decimal": {
      "repr": "0044",
      "value": 4.4,
      "spoken": "four point four"
    }
  },
  "runway_visibility": [],
  "temperature": {
    "repr": "04",
    "value": 4,
    "spoken": "four"
  },
  "wind_variable_direction": [],
  "density_altitude": -1646,
  "pressure_altitude": -408,
  "units": {
    "accumulation": "in",
    "altimeter": "inHg",
    "altitude": "ft",
    "temperature": "C",
    "visibility": "sm",
    "wind_speed": "kt"
  }
}
