{
  "meta": {
    "timestamp": "2022-11-19T14:41:28.093586Z",
    "stations_updated": "2022-09-05"
  },
  "altimeter": {
    "repr": "A3036",
    "value": 30.36,
    "spoken": "three zero point three six"
  },
  "clouds": [],
  "flight_rules": "VFR",
  "other": [],
  "visibility": {
    "repr": "10",
    "value": 10,
    "spoken": "one zero"
  },
  "wind_direction": {
    "repr": "000",
    "value": 0,
    "spoken": "zero zero zero"
  },
  "wind_gust": null,
  "wind_speed": {
    "repr": "00",
    "value": 0,
    "spoken": "zero"
  },
  "wx_codes": [],
  "raw": "KAWO 191356Z AUTO 00000KT 10SM CLR M07/M08 A3036 RMK AO2 SLP287 T10671078 FZRANO",
  "sanitized": "KAWO 191356Z 00000KT 10SM M07/M08 A3036 RMK AO2 SLP287 T10671078 FZRANO",
  "station": "KAWO",
  "time": {
    "repr": "191356Z",
    "dt": "2022-11-19T13:56:00Z"
  },
  "remarks": "RMK AO2 SLP287 T10671078 FZRANO",
  "dewpoint": {
    "repr": "M08",
    "value": -8,
    "spoken": "minus eight"
  },
  "relative_humidity": 0.918697607581929,
  "remarks_info": {
    "maximum_temperature_6": null,
    "minimum_temperature_6": null,
    "pressure_tendency": null,
    "precip_36_hours": null,
    "precip_24_hours": null,
    "sunshine_minutes": null,
    "codes": [
      {
        "repr": "AO2",
        "value": "Automated with precipitation sensor"
      },
      {
        "repr": "FZRANO",
        "value": "Freezing rain information not available"
      }
    ],
    "dewpoint_decimal": {
      "repr": "1078",
      "value": -7.8,
      "spoken": "minus seven point eight"
    },
    "maximum_temperature_24": null,
    "minimum_temperature_24": null,
    "precip_hourly": null,
    "sea_level_pressure": {
      "repr": "SLP287",
      "value": 1028.7,
      "spoken": "one zero two eight point seven"
    },
    "snow_depth": null,
    "temperature_decimal": {
      "repr": "1067",
      "value": -6.7,
      "spoken": "minus six point seven"
    }
  },
  "runway_visibility": [],
  "temperature": {
    "repr": "M07",
    "value": -7,
    "spoken": "minus seven"
  },
  "wind_variable_direction": [],
  "density_altitude": -2868,
  "pressure_altitude": -298,
  "units": {
    "accumulation": "in",
    "altimeter": "inHg",
    "altitude": "ft",
    "temperature": "C",
    "visibility": "sm",
    "wind_speed": "kt"
  }
}
