{
  "meta": {
    "timestamp": "2023-02-21T05:02:04.842356Z",
    "stations_updated": "2023-01-30"
  },
  "altimeter": {
    "repr": "A2969",
    "value": 29.69,
    "spoken": "two nine point six nine"
  },
  "clouds": [
    {
      "repr": "OVC013",
      "type": "OVC",
      "altitude": 13,
      "modifier": null
    }
  ],
  "flight_rules": "MVFR",
  "other": [],
  "visibility": {
    "repr": "10",
    "value": 10,
    "spoken": "one zero"
  },
  "wind_direction": {
    "repr": "210",
    "value": 210,
    "spoken": "two one zero"
  },
  "wind_gust": {
    "repr": "15",
    "value": 15,
    "spoken": "one five"
  },
  "wind_speed": {
    "repr": "12",
    "value": 12,
    "spoken": "one two"
  },
  "wx_codes": [],
  "raw": "KAWO 210456Z AUTO 21012G15KT 10SM OVC013 08/06 A2969 RMK AO2 SLP060 T00830061",
  "sanitized": "KAWO 210456Z 21012G15KT 10SM OVC013 08/06 A2969 RMK AO2 SLP060 T00830061",
  "station": "KAWO",
  "time": {
    "repr": "210456Z",
    "dt": "2023-02-21T04:56:00Z"
  },
  "remarks": "RMK AO2 SLP060 T00830061",
  "dewpoint": {
    "repr": "06",
    "value": 6,
    "spoken": "six"
  },
  "relative_humidity": 0.8601818874011486,
  "remarks_info": {
    "maximum_temperature_6": null,
    "minimum_temperature_6": null,
    "pressure_tendency": null,
    "precip_36_hours": null,
    "precip_24_hours": null,
    "sunshine_minutes": null,
    "codes": [
      {
        "repr": "AO2",
        "value": "Automated with precipitation sensor"
      }
    ],
    "dewpoint_decimal": {
      "repr": "0061",
      "value": 6.1,
      "spoken": "six point one"
    },
    "maximum_temperature_24": null,
    "minimum_temperature_24": null,
    "precip_hourly": null,
    "sea_level_pressure": {
      "repr": "SLP060",
      "value": 1006,
      "spoken": "one zero zero six point zero"
    },
    "snow_depth": null,
    "temperature_decimal": {
      "repr": "0083",
      "value": 8.3,
      "spoken": "eight point three"
    }
  },
  "runway_visibility": [],
  "temperature": {
    "repr": "08",
    "value": 8,
    "spoken": "eight"
  },
  "wind_variable_direction": [],
  "density_altitude": -398,
  "pressure_altitude": 372,
  "units": {
    "accumulation": "in",
    "altimeter": "inHg",
    "altitude": "ft",
    "temperature": "C",
    "visibility": "sm",
    "wind_speed": "kt"
  }
}
