{
  "meta": {
    "timestamp": "2023-10-22T09:01:39.183998Z",
    "stations_updated": "2023-10-01"
  },
  "altimeter": {
    "repr": "A2990",
    "value": 29.9,
    "spoken": "two nine point nine zero"
  },
  "clouds": [
    {
      "repr": "BKN010",
      "type": "BKN",
      "altitude": 10,
      "modifier": null
    },
    {
      "repr": "OVC014",
      "type": "OVC",
      "altitude": 14,
      "modifier": null
    }
  ],
  "flight_rules": "MVFR",
  "other": [],
  "visibility": {
    "repr": "7",
    "value": 7,
    "spoken": "seven"
  },
  "wind_direction": {
    "repr": "310",
    "value": 310,
    "spoken": "three one zero"
  },
  "wind_gust": null,
  "wind_speed": {
    "repr": "04",
    "value": 4,
    "spoken": "four"
  },
  "wx_codes": [],
  "raw": "KAWO 220856Z AUTO 31004KT 7SM BKN010 OVC014 11/11 A2990 RMK AO2 CIG 008V013 SLP129 60000 T01110106 55000 KAWO 220840Z AUTO 30005KT 6SM BR BKN010 OVC014 11/11 A2990 RMK AO2 CIG 008V013 KAWO 220803Z AUTO 29005KT 5SM BR OVC008 11/11 A2989 RMK AO2 CIG 004V009 KAWO 220756Z AUTO 30003KT 5SM BR BKN004 OVC008 11/11 A2989 RMK AO2 RAB11E29 SLP126 P0000 T01110106 401330111 KAWO 220739Z AUTO 00000KT 5SM BR OVC004 11/11 A2989 RMK AO2 RAB11E29 P0000",
  "sanitized": "KAWO 220856Z 31004KT 7SM BKN010 OVC014 11/11 A2990 RMK AO2 CIG 008V013 SLP129 60000 T01110106 55000 KAWO 220840Z AUTO 30005KT 6SM BR BKN010 OVC014 11/11 A2990 RMK AO2 CIG 008V013 KAWO 220803Z AUTO 29005KT 5SM BR OVC008 11/11 A2989 RMK AO2 CIG 004V009 KAWO 220756Z AUTO 30003KT 5SM BR BKN004 OVC008 11/11 A2989 RMK AO2 RAB11E29 SLP126 P0000 T01110106 401330111 KAWO 220739Z AUTO 00000KT 5SM BR OVC004 11/11 A2989 RMK AO2 RAB11E29 P0000",
  "station": "KAWO",
  "time": {
    "repr": "220856Z",
    "dt": "2023-10-22T08:56:00Z"
  },
  "remarks": "RMK AO2 CIG 008V013 SLP129 60000 T01110106 55000 KAWO 220840Z AUTO 30005KT 6SM BR BKN010 OVC014 11/11 A2990 RMK AO2 CIG 008V013 KAWO 220803Z AUTO 29005KT 5SM BR OVC008 11/11 A2989 RMK AO2 CIG 004V009 KAWO 220756Z AUTO 30003KT 5SM BR BKN004 OVC008 11/11 A2989 RMK AO2 RAB11E29 SLP126 P0000 T01110106 401330111 KAWO 220739Z AUTO 00000KT 5SM BR OVC004 11/11 A2989 RMK AO2 RAB11E29 P0000",
  "dewpoint": {
    "repr": "11",
    "value": 11,
    "spoken": "one one"
  },
  "relative_humidity": 0.9672929424668637,
  "remarks_info": {
    "maximum_temperature_6": null,
    "minimum_temperature_6": null,
    "pressure_tendency": {
      "repr": "55000",
      "tendency": "Decreasing, then increasing",
      "change": 0
    },
    "precip_36_hours": {
      "repr": "60000",
      "value": 0,
      "spoken": "zero"
    },
    "precip_24_hours": null,
    "sunshine_minutes": null,
    "codes": [
      {
        "repr": "AO2",
        "value": "Automated with precipitation sensor"
      },
      {
        "repr": "AO2",
        "value": "Automated with precipitation sensor"
      },
      {
        "repr": "AO2",
        "value": "Automated with precipitation sensor"
      },
      {
        "repr": "AO2",
        "value": "Automated with precipitation sensor"
      },
      {
        "repr": "AO2",
        "value": "Automated with precipitation sensor"
      },
      {
        "repr": "P0000",
        "value": "Trace amount of rain in the last hour"
      },
      {
        "repr": "P0000",
        "value": "Trace amount of rain in the last hour"
      }
    ],
    "dewpoint_decimal": {
      "repr": "0106",
      "value": 10.6,
      "spoken": "one zero point six"
    },
    "maximum_temperature_24": {
      "repr": "0133",
      "value": 13.3,
      "spoken": "one three point three"
    },
    "minimum_temperature_24": {
      "repr": "0111",
      "value": 11.1,
      "spoken": "one one point one"
    },
    "precip_hourly": null,
    "sea_level_pressure": {
      "repr": "SLP129",
      "value": 1012.9,
      "spoken": "one zero one two point nine"
    },
    "snow_depth": null,
    "temperature_decimal": {
      "repr": "0111",
      "value": 11.1,
      "spoken": "one one point one"
    }
  },
  "runway_visibility": [],
  "temperature": {
    "repr": "11",
    "value": 11,
    "spoken": "one one"
  },
  "wind_variable_direction": [],
  "density_altitude": -272,
  "pressure_altitude": 162,
  "units": {
    "accumulation": "in",
    "altimeter": "inHg",
    "altitude": "ft",
    "temperature": "C",
    "visibility": "sm",
    "wind_speed": "kt"
  }
}
