{
  "altimeter": {
    "repr": "A3007",
    "spoken": "three zero point zero seven",
    "value": 30.07
  },
  "clouds": [
    {
      "altitude": 22,
      "modifier": null,
      "repr": "FEW022",
      "type": "FEW"
    },
    {
      "altitude": 29,
      "modifier": null,
      "repr": "BKN029",
      "type": "BKN"
    },
    {
      "altitude": 38,
      "modifier": null,
      "repr": "OVC038",
      "type": "OVC"
    }
  ],
  "density_altitude": -574,
  "dewpoint": {
    "repr": "08",
    "spoken": "eight",
    "value": 8
  },
  "flight_rules": "MVFR",
  "meta": {
    "cache-timestamp": "2023-12-31T05:26:04.901000Z",
    "stations_updated": "2023-10-28",
    "timestamp": "2023-12-31T05:26:17.306596Z"
  },
  "other": [],
  "pressure_altitude": -8,
  "raw": "KAWO 310456Z AUTO 16010KT 10SM FEW022 BKN029 OVC038 10/08 A3007 RMK AO2 SLP187 T01000083",
  "relative_humidity": 0.8917307313199454,
  "remarks": "RMK AO2 SLP187 T01000083",
  "remarks_info": {
    "codes": [
      {
        "repr": "AO2",
        "value": "Automated with precipitation sensor"
      }
    ],
    "dewpoint_decimal": {
      "repr": "0083",
      "spoken": "eight point three",
      "value": 8.3
    },
    "maximum_temperature_24": null,
    "maximum_temperature_6": null,
    "minimum_temperature_24": null,
    "minimum_temperature_6": null,
    "precip_24_hours": null,
    "precip_36_hours": null,
    "precip_hourly": null,
    "pressure_tendency": null,
    "sea_level_pressure": {
      "repr": "SLP187",
      "spoken": "one zero one eight point seven",
      "value": 1018.7
    },
    "snow_depth": null,
    "sunshine_minutes": null,
    "temperature_decimal": {
      "repr": "0100",
      "spoken": "one zero point zero",
      "value": 10
    }
  },
  "runway_visibility": [],
  "sanitized": "KAWO 310456Z 16010KT 10SM FEW022 BKN029 OVC038 10/08 A3007 RMK AO2 SLP187 T01000083",
  "station": "KAWO",
  "temperature": {
    "repr": "10",
    "spoken": "one zero",
    "value": 10
  },
  "time": {
    "dt": "2023-12-31T04:56:00Z",
    "repr": "310456Z"
  },
  "units": {
    "accumulation": "in",
    "altimeter": "inHg",
    "altitude": "ft",
    "temperature": "C",
    "visibility": "sm",
    "wind_speed": "kt"
  },
  "visibility": {
    "repr": "10",
    "spoken": "one zero",
    "value": 10
  },
  "wind_direction": {
    "repr": "160",
    "spoken": "one six zero",
    "value": 160
  },
  "wind_gust": null,
  "wind_speed": {
    "repr": "10",
    "spoken": "one zero",
    "value": 10
  },
  "wind_variable_direction": [],
  "wx_codes": []
}
