{
  "altimeter": {
    "repr": "A3007",
    "spoken": "three zero point zero seven",
    "value": 30.07
  },
  "clouds": [
    {
      "altitude": 31,
      "modifier": null,
      "repr": "OVC031",
      "type": "OVC"
    }
  ],
  "density_altitude": -178,
  "dewpoint": {
    "repr": "11",
    "spoken": "one one",
    "value": 11
  },
  "flight_rules": "VFR",
  "meta": {
    "stations_updated": "2024-05-13",
    "timestamp": "2024-06-28T03:08:04.063274Z"
  },
  "other": [],
  "pressure_altitude": -8,
  "raw": "KAWO 280256Z AUTO 05005KT 10SM OVC031 13/11 A3007 RMK AO2 SLP186 60000 T01330111 55001",
  "relative_humidity": 0.8652137135915917,
  "remarks": "RMK AO2 SLP186 60000 T01330111 55001",
  "remarks_info": {
    "codes": [
      {
        "repr": "AO2",
        "value": "Automated with precipitation sensor"
      }
    ],
    "dewpoint_decimal": {
      "repr": "0111",
      "spoken": "one one point one",
      "value": 11.1
    },
    "maximum_temperature_24": null,
    "maximum_temperature_6": null,
    "minimum_temperature_24": null,
    "minimum_temperature_6": null,
    "precip_24_hours": null,
    "precip_36_hours": {
      "repr": "60000",
      "spoken": "zero",
      "value": 0
    },
    "precip_hourly": null,
    "pressure_tendency": {
      "change": 0.1,
      "repr": "55001",
      "tendency": "Decreasing, then increasing"
    },
    "sea_level_pressure": {
      "repr": "SLP186",
      "spoken": "one zero one eight point six",
      "value": 1018.6
    },
    "snow_depth": null,
    "sunshine_minutes": null,
    "temperature_decimal": {
      "repr": "0133",
      "spoken": "one three point three",
      "value": 13.3
    }
  },
  "runway_visibility": [],
  "sanitized": "KAWO 280256Z 05005KT 10SM OVC031 13/11 A3007 RMK AO2 SLP186 60000 T01330111 55001",
  "station": "KAWO",
  "temperature": {
    "repr": "13",
    "spoken": "one three",
    "value": 13
  },
  "time": {
    "dt": "2024-06-28T02:56:00Z",
    "repr": "280256Z"
  },
  "units": {
    "accumulation": "in",
    "altimeter": "inHg",
    "altitude": "ft",
    "temperature": "C",
    "visibility": "sm",
    "wind_speed": "kt"
  },
  "visibility": {
    "repr": "10",
    "spoken": "one zero",
    "value": 10
  },
  "wind_direction": {
    "repr": "050",
    "spoken": "zero five zero",
    "value": 50
  },
  "wind_gust": null,
  "wind_speed": {
    "repr": "05",
    "spoken": "five",
    "value": 5
  },
  "wind_variable_direction": [],
  "wx_codes": []
}
