{
  "meta": {
    "timestamp": "2023-10-22T16:27:59.306924Z",
    "stations_updated": "2023-10-01"
  },
  "altimeter": {
    "repr": "A2990",
    "value": 29.9,
    "spoken": "two nine point nine zero"
  },
  "clouds": [
    {
      "repr": "OVC003",
      "type": "OVC",
      "altitude": 3,
      "modifier": null
    }
  ],
  "flight_rules": "LIFR",
  "other": [],
  "visibility": {
    "repr": "6",
    "value": 6,
    "spoken": "six"
  },
  "wind_direction": {
    "repr": "310",
    "value": 310,
    "spoken": "three one zero"
  },
  "wind_gust": null,
  "wind_speed": {
    "repr": "05",
    "value": 5,
    "spoken": "five"
  },
  "wx_codes": [
    {
      "repr": "BR",
      "value": "Mist"
    }
  ],
  "raw": "KAWO 221622Z AUTO 31005KT 6SM BR OVC003 11/11 A2990 RMK AO2 KAWO 221556Z AUTO 30005KT 7SM OVC005 11/11 A2990 RMK AO2 RAE35 SLP130 P0000 T01110106 KAWO 221456Z AUTO 30004KT 5SM -RA BR OVC005 11/11 A2989 RMK AO2 RAB50 SLP127 P0000 60000 T01110106 51000",
  "sanitized": "KAWO 221622Z 31005KT 6SM BR OVC003 11/11 A2990 RMK AO2 KAWO 221556Z AUTO 30005KT 7SM OVC005 11/11 A2990 RMK AO2 RAE35 SLP130 P0000 T01110106 KAWO 221456Z AUTO 30004KT 5SM -RA BR OVC005 11/11 A2989 RMK AO2 RAB50 SLP127 P0000 60000 T01110106 51000",
  "station": "KAWO",
  "time": {
    "repr": "221622Z",
    "dt": "2023-10-22T16:22:00Z"
  },
  "remarks": "RMK AO2 KAWO 221556Z AUTO 30005KT 7SM OVC005 11/11 A2990 RMK AO2 RAE35 SLP130 P0000 T01110106 KAWO 221456Z AUTO 30004KT 5SM -RA BR OVC005 11/11 A2989 RMK AO2 RAB50 SLP127 P0000 60000 T01110106 51000",
  "dewpoint": {
    "repr": "11",
    "value": 11,
    "spoken": "one one"
  },
  "relative_humidity": 0.9672929424668637,
  "remarks_info": {
    "maximum_temperature_6": null,
    "minimum_temperature_6": null,
    "pressure_tendency": {
      "repr": "51000",
      "tendency": "Increasing, then steady",
      "change": 0
    },
    "precip_36_hours": {
      "repr": "60000",
      "value": 0,
      "spoken": "zero"
    },
    "precip_24_hours": null,
    "sunshine_minutes": null,
    "codes": [
      {
        "repr": "AO2",
        "value": "Automated with precipitation sensor"
      },
      {
        "repr": "AO2",
        "value": "Automated with precipitation sensor"
      },
      {
        "repr": "AO2",
        "value": "Automated with precipitation sensor"
      },
      {
        "repr": "P0000",
        "value": "Trace amount of rain in the last hour"
      },
      {
        "repr": "P0000",
        "value": "Trace amount of rain in the last hour"
      },
      {
        "repr": "RAB50",
        "value": "Rain began at :50"
      },
      {
        "repr": "RAE35",
        "value": "Rain ended at :35"
      }
    ],
    "dewpoint_decimal": {
      "repr": "0106",
      "value": 10.6,
      "spoken": "one zero point six"
    },
    "maximum_temperature_24": null,
    "minimum_temperature_24": null,
    "precip_hourly": null,
    "sea_level_pressure": {
      "repr": "SLP130",
      "value": 1013,
      "spoken": "one zero one three point zero"
    },
    "snow_depth": null,
    "temperature_decimal": {
      "repr": "0111",
      "value": 11.1,
      "spoken": "one one point one"
    }
  },
  "runway_visibility": [],
  "temperature": {
    "repr": "11",
    "value": 11,
    "spoken": "one one"
  },
  "wind_variable_direction": [],
  "density_altitude": -272,
  "pressure_altitude": 162,
  "units": {
    "accumulation": "in",
    "altimeter": "inHg",
    "altitude": "ft",
    "temperature": "C",
    "visibility": "sm",
    "wind_speed": "kt"
  }
}
