{
  "meta": {
    "timestamp": "2023-06-08T00:32:46.832714Z",
    "stations_updated": "2023-06-06",
    "cache-timestamp": "2023-06-08T00:32:26.370000Z"
  },
  "altimeter": {
    "repr": "A2982",
    "value": 29.82,
    "spoken": "two nine point eight two"
  },
  "clouds": [],
  "flight_rules": "VFR",
  "other": [],
  "visibility": {
    "repr": "10",
    "value": 10,
    "spoken": "one zero"
  },
  "wind_direction": {
    "repr": "310",
    "value": 310,
    "spoken": "three one zero"
  },
  "wind_gust": null,
  "wind_speed": {
    "repr": "05",
    "value": 5,
    "spoken": "five"
  },
  "wx_codes": [],
  "raw": "KAWO 072356Z AUTO 31005KT 10SM CLR 29/08 A2982 RMK AO2 SLP099 T02940078 10294 20244 56004",
  "sanitized": "KAWO 072356Z 31005KT 10SM 29/08 A2982 RMK AO2 SLP099 T02940078 10294 20244 56004",
  "station": "KAWO",
  "time": {
    "repr": "072356Z",
    "dt": "2023-06-07T23:56:00Z"
  },
  "remarks": "RMK AO2 SLP099 T02940078 10294 20244 56004",
  "dewpoint": {
    "repr": "08",
    "value": 8,
    "spoken": "eight"
  },
  "relative_humidity": 0.2579038792771498,
  "remarks_info": {
    "maximum_temperature_6": {
      "repr": "10294",
      "value": 29.4,
      "spoken": "two nine point four"
    },
    "minimum_temperature_6": {
      "repr": "20244",
      "value": 24.4,
      "spoken": "two four point four"
    },
    "pressure_tendency": {
      "repr": "56004",
      "tendency": "Decreasing, then steady",
      "change": 0.4
    },
    "precip_36_hours": null,
    "precip_24_hours": null,
    "sunshine_minutes": null,
    "codes": [
      {
        "repr": "AO2",
        "value": "Automated with precipitation sensor"
      }
    ],
    "dewpoint_decimal": {
      "repr": "0078",
      "value": 7.8,
      "spoken": "seven point eight"
    },
    "maximum_temperature_24": null,
    "minimum_temperature_24": null,
    "precip_hourly": null,
    "sea_level_pressure": {
      "repr": "SLP099",
      "value": 1009.9,
      "spoken": "one zero zero nine point nine"
    },
    "snow_depth": null,
    "temperature_decimal": {
      "repr": "0294",
      "value": 29.4,
      "spoken": "two nine point four"
    }
  },
  "runway_visibility": [],
  "temperature": {
    "repr": "29",
    "value": 29,
    "spoken": "two nine"
  },
  "wind_variable_direction": [],
  "density_altitude": 2004,
  "pressure_altitude": 242,
  "units": {
    "accumulation": "in",
    "altimeter": "inHg",
    "altitude": "ft",
    "temperature": "C",
    "visibility": "sm",
    "wind_speed": "kt"
  }
}
