{
  "meta": {
    "timestamp": "2022-11-29T18:32:23.048691Z",
    "stations_updated": "2022-09-05"
  },
  "altimeter": {
    "repr": "A3001",
    "value": 30.01,
    "spoken": "three zero point zero one"
  },
  "clouds": [
    {
      "repr": "FEW010",
      "type": "FEW",
      "altitude": 10,
      "modifier": null
    },
    {
      "repr": "BKN020",
      "type": "BKN",
      "altitude": 20,
      "modifier": null
    },
    {
      "repr": "OVC028",
      "type": "OVC",
      "altitude": 28,
      "modifier": null
    }
  ],
  "flight_rules": "IFR",
  "other": [],
  "visibility": {
    "repr": "3/2",
    "value": 1.5,
    "spoken": "one and one half",
    "numerator": 3,
    "denominator": 2,
    "normalized": "1 1/2"
  },
  "wind_direction": {
    "repr": "040",
    "value": 40,
    "spoken": "zero four zero"
  },
  "wind_gust": null,
  "wind_speed": {
    "repr": "06",
    "value": 6,
    "spoken": "six"
  },
  "wx_codes": [
    {
      "repr": "-SN",
      "value": "Light Snow"
    },
    {
      "repr": "BR",
      "value": "Mist"
    }
  ],
  "raw": "KAWO 291829Z AUTO 04006KT 1 1/2SM -SN BR FEW010 BKN020 OVC028 M01/M03 A3001 RMK AO2 VIS 1V3 P0000 FZRANO",
  "sanitized": "KAWO 291829Z 04006KT 1 1/2SM -SN BR FEW010 BKN020 OVC028 M01/M03 A3001 RMK AO2 VIS 1V3 P0000 FZRANO",
  "station": "KAWO",
  "time": {
    "repr": "291829Z",
    "dt": "2022-11-29T18:29:00Z"
  },
  "remarks": "RMK AO2 VIS 1V3 P0000 FZRANO",
  "dewpoint": {
    "repr": "M03",
    "value": -3,
    "spoken": "minus three"
  },
  "relative_humidity": 0.8628194506930432,
  "remarks_info": {
    "maximum_temperature_6": null,
    "minimum_temperature_6": null,
    "pressure_tendency": null,
    "precip_36_hours": null,
    "precip_24_hours": null,
    "sunshine_minutes": null,
    "codes": [
      {
        "repr": "AO2",
        "value": "Automated with precipitation sensor"
      },
      {
        "repr": "FZRANO",
        "value": "Freezing rain information not available"
      },
      {
        "repr": "P0000",
        "value": "Trace amount of rain in the last hour"
      }
    ],
    "dewpoint_decimal": null,
    "maximum_temperature_24": null,
    "minimum_temperature_24": null,
    "precip_hourly": null,
    "sea_level_pressure": null,
    "snow_depth": null,
    "temperature_decimal": null
  },
  "runway_visibility": [],
  "temperature": {
    "repr": "M01",
    "value": -1,
    "spoken": "minus one"
  },
  "wind_variable_direction": [],
  "density_altitude": -1834,
  "pressure_altitude": 52,
  "units": {
    "accumulation": "in",
    "altimeter": "inHg",
    "altitude": "ft",
    "temperature": "C",
    "visibility": "sm",
    "wind_speed": "kt"
  }
}
