{
  "meta": {
    "timestamp": "2023-10-22T21:01:13.772247Z",
    "stations_updated": "2023-10-01"
  },
  "altimeter": {
    "repr": "A2990",
    "value": 29.9,
    "spoken": "two nine point nine zero"
  },
  "clouds": [
    {
      "repr": "OVC009",
      "type": "OVC",
      "altitude": 9,
      "modifier": null
    }
  ],
  "flight_rules": "IFR",
  "other": [],
  "visibility": {
    "repr": "10",
    "value": 10,
    "spoken": "one zero"
  },
  "wind_direction": {
    "repr": "290",
    "value": 290,
    "spoken": "two nine zero"
  },
  "wind_gust": null,
  "wind_speed": {
    "repr": "09",
    "value": 9,
    "spoken": "nine"
  },
  "wx_codes": [],
  "raw": "KAWO 222056Z AUTO 29009KT 10SM OVC009 13/11 A2990 RMK AO2 SLP131 T01280106 58003 KAWO 222013Z AUTO 31003KT 10SM OVC007 12/11 A2990 RMK AO2 KAWO 221956Z AUTO 00000KT 10SM OVC005 12/11 A2990 RMK AO2 SLP131 T01220111",
  "sanitized": "KAWO 222056Z 29009KT 10SM OVC009 13/11 A2990 RMK AO2 SLP131 T01280106 58003 KAWO 222013Z AUTO 31003KT 10SM OVC007 12/11 A2990 RMK AO2 KAWO 221956Z AUTO 00000KT 10SM OVC005 12/11 A2990 RMK AO2 SLP131 T01220111",
  "station": "KAWO",
  "time": {
    "repr": "222056Z",
    "dt": "2023-10-22T20:56:00Z"
  },
  "remarks": "RMK AO2 SLP131 T01280106 58003 KAWO 222013Z AUTO 31003KT 10SM OVC007 12/11 A2990 RMK AO2 KAWO 221956Z AUTO 00000KT 10SM OVC005 12/11 A2990 RMK AO2 SLP131 T01220111",
  "dewpoint": {
    "repr": "11",
    "value": 11,
    "spoken": "one one"
  },
  "relative_humidity": 0.9298790264187491,
  "remarks_info": {
    "maximum_temperature_6": null,
    "minimum_temperature_6": null,
    "pressure_tendency": {
      "repr": "58003",
      "tendency": "Steady or increasing, then decreasing",
      "change": 0.3
    },
    "precip_36_hours": null,
    "precip_24_hours": null,
    "sunshine_minutes": null,
    "codes": [
      {
        "repr": "AO2",
        "value": "Automated with precipitation sensor"
      },
      {
        "repr": "AO2",
        "value": "Automated with precipitation sensor"
      },
      {
        "repr": "AO2",
        "value": "Automated with precipitation sensor"
      }
    ],
    "dewpoint_decimal": {
      "repr": "0111",
      "value": 11.1,
      "spoken": "one one point one"
    },
    "maximum_temperature_24": null,
    "minimum_temperature_24": null,
    "precip_hourly": null,
    "sea_level_pressure": {
      "repr": "SLP131",
      "value": 1013.1,
      "spoken": "one zero one three point one"
    },
    "snow_depth": null,
    "temperature_decimal": {
      "repr": "0122",
      "value": 12.2,
      "spoken": "one two point two"
    }
  },
  "runway_visibility": [],
  "temperature": {
    "repr": "13",
    "value": 13,
    "spoken": "one three"
  },
  "wind_variable_direction": [],
  "density_altitude": -140,
  "pressure_altitude": 162,
  "units": {
    "accumulation": "in",
    "altimeter": "inHg",
    "altitude": "ft",
    "temperature": "C",
    "visibility": "sm",
    "wind_speed": "kt"
  }
}
