{
  "meta": {
    "timestamp": "2023-07-17T22:40:37.560136Z",
    "stations_updated": "2023-06-06",
    "cache-timestamp": "2023-07-17T22:40:03.494000Z"
  },
  "altimeter": {
    "repr": "A3014",
    "value": 30.14,
    "spoken": "three zero point one four"
  },
  "clouds": [
    {
      "repr": "FEW038",
      "type": "FEW",
      "altitude": 38,
      "modifier": null
    },
    {
      "repr": "SCT070",
      "type": "SCT",
      "altitude": 70,
      "modifier": null
    },
    {
      "repr": "SCT085",
      "type": "SCT",
      "altitude": 85,
      "modifier": null
    }
  ],
  "flight_rules": "VFR",
  "other": [],
  "visibility": {
    "repr": "10",
    "value": 10,
    "spoken": "one zero"
  },
  "wind_direction": {
    "repr": "310",
    "value": 310,
    "spoken": "three one zero"
  },
  "wind_gust": null,
  "wind_speed": {
    "repr": "11",
    "value": 11,
    "spoken": "one one"
  },
  "wx_codes": [],
  "raw": "KAWO 172156Z AUTO 31011KT 10SM FEW038 SCT070 SCT085 21/13 A3014 RMK AO2 SLP210 T02110128",
  "sanitized": "KAWO 172156Z 31011KT 10SM FEW038 SCT070 SCT085 21/13 A3014 RMK AO2 SLP210 T02110128",
  "station": "KAWO",
  "time": {
    "repr": "172156Z",
    "dt": "2023-07-17T21:56:00Z"
  },
  "remarks": "RMK AO2 SLP210 T02110128",
  "dewpoint": {
    "repr": "13",
    "value": 13,
    "spoken": "one three"
  },
  "relative_humidity": 0.5906137098018984,
  "remarks_info": {
    "maximum_temperature_6": null,
    "minimum_temperature_6": null,
    "pressure_tendency": null,
    "precip_36_hours": null,
    "precip_24_hours": null,
    "sunshine_minutes": null,
    "codes": [
      {
        "repr": "AO2",
        "value": "Automated with precipitation sensor"
      }
    ],
    "dewpoint_decimal": {
      "repr": "0128",
      "value": 12.8,
      "spoken": "one two point eight"
    },
    "maximum_temperature_24": null,
    "minimum_temperature_24": null,
    "precip_hourly": null,
    "sea_level_pressure": {
      "repr": "SLP210",
      "value": 1021,
      "spoken": "one zero two one point zero"
    },
    "snow_depth": null,
    "temperature_decimal": {
      "repr": "0211",
      "value": 21.1,
      "spoken": "two one point one"
    }
  },
  "runway_visibility": [],
  "temperature": {
    "repr": "21",
    "value": 21,
    "spoken": "two one"
  },
  "wind_variable_direction": [],
  "density_altitude": 688,
  "pressure_altitude": -78,
  "units": {
    "accumulation": "in",
    "altimeter": "inHg",
    "altitude": "ft",
    "temperature": "C",
    "visibility": "sm",
    "wind_speed": "kt"
  }
}
