{
  "meta": {
    "timestamp": "2022-12-28T10:28:54.376489Z",
    "stations_updated": "2022-09-05",
    "cache-timestamp": "2022-12-28T10:28:39.486000Z"
  },
  "altimeter": {
    "repr": "A2959",
    "value": 29.59,
    "spoken": "two nine point five nine"
  },
  "clouds": [
    {
      "repr": "BKN048",
      "type": "BKN",
      "altitude": 48,
      "modifier": null
    },
    {
      "repr": "OVC060",
      "type": "OVC",
      "altitude": 60,
      "modifier": null
    }
  ],
  "flight_rules": "VFR",
  "other": [],
  "visibility": {
    "repr": "10",
    "value": 10,
    "spoken": "one zero"
  },
  "wind_direction": {
    "repr": "160",
    "value": 160,
    "spoken": "one six zero"
  },
  "wind_gust": null,
  "wind_speed": {
    "repr": "09",
    "value": 9,
    "spoken": "nine"
  },
  "wx_codes": [
    {
      "repr": "-RA",
      "value": "Light Rain"
    }
  ],
  "raw": "KAWO 280956Z AUTO 16009KT 10SM -RA BKN048 OVC060 06/04 A2959 RMK AO2 SLP025 P0001 T00610044",
  "sanitized": "KAWO 280956Z 16009KT 10SM -RA BKN048 OVC060 06/04 A2959 RMK AO2 SLP025 P0001 T00610044",
  "station": "KAWO",
  "time": {
    "repr": "280956Z",
    "dt": "2022-12-28T09:56:00Z"
  },
  "remarks": "RMK AO2 SLP025 P0001 T00610044",
  "dewpoint": {
    "repr": "04",
    "value": 4,
    "spoken": "four"
  },
  "relative_humidity": 0.8885072425154702,
  "remarks_info": {
    "maximum_temperature_6": null,
    "minimum_temperature_6": null,
    "pressure_tendency": null,
    "precip_36_hours": null,
    "precip_24_hours": null,
    "sunshine_minutes": null,
    "codes": [
      {
        "repr": "AO2",
        "value": "Automated with precipitation sensor"
      }
    ],
    "dewpoint_decimal": {
      "repr": "0044",
      "value": 4.4,
      "spoken": "four point four"
    },
    "maximum_temperature_24": null,
    "minimum_temperature_24": null,
    "precip_hourly": {
      "repr": "P0001",
      "value": 0.01,
      "spoken": "zero point zero one"
    },
    "sea_level_pressure": {
      "repr": "SLP025",
      "value": 1002.5,
      "spoken": "one zero zero two point five"
    },
    "snow_depth": null,
    "temperature_decimal": {
      "repr": "0061",
      "value": 6.1,
      "spoken": "six point one"
    }
  },
  "runway_visibility": [],
  "temperature": {
    "repr": "06",
    "value": 6,
    "spoken": "six"
  },
  "wind_variable_direction": [],
  "density_altitude": -562,
  "pressure_altitude": 472,
  "units": {
    "accumulation": "in",
    "altimeter": "inHg",
    "altitude": "ft",
    "temperature": "C",
    "visibility": "sm",
    "wind_speed": "kt"
  }
}
