{
  "meta": {
    "timestamp": "2022-11-18T22:44:28.490912Z",
    "stations_updated": "2022-09-05"
  },
  "altimeter": {
    "repr": "A3046",
    "value": 30.46,
    "spoken": "three zero point four six"
  },
  "clouds": [],
  "flight_rules": "VFR",
  "other": [],
  "visibility": {
    "repr": "6",
    "value": 6,
    "spoken": "six"
  },
  "wind_direction": {
    "repr": "000",
    "value": 0,
    "spoken": "zero zero zero"
  },
  "wind_gust": null,
  "wind_speed": {
    "repr": "00",
    "value": 0,
    "spoken": "zero"
  },
  "wx_codes": [
    {
      "repr": "HZ",
      "value": "Haze"
    }
  ],
  "raw": "KAWO 182156Z AUTO 00000KT 6SM HZ CLR 09/M10 A3046 RMK AO2 SLP319 T00891100",
  "sanitized": "KAWO 182156Z 00000KT 6SM HZ 09/M10 A3046 RMK AO2 SLP319 T00891100",
  "station": "KAWO",
  "time": {
    "repr": "182156Z",
    "dt": "2022-11-18T21:56:00Z"
  },
  "remarks": "RMK AO2 SLP319 T00891100",
  "dewpoint": {
    "repr": "M10",
    "value": -10,
    "spoken": "minus one zero"
  },
  "relative_humidity": 0.2516249220037946,
  "remarks_info": {
    "maximum_temperature_6": null,
    "minimum_temperature_6": null,
    "pressure_tendency": null,
    "precip_36_hours": null,
    "precip_24_hours": null,
    "sunshine_minutes": null,
    "codes": [
      {
        "repr": "AO2",
        "value": "Automated with precipitation sensor"
      }
    ],
    "dewpoint_decimal": {
      "repr": "1100",
      "value": -10,
      "spoken": "minus one zero point zero"
    },
    "maximum_temperature_24": null,
    "minimum_temperature_24": null,
    "precip_hourly": null,
    "sea_level_pressure": {
      "repr": "SLP319",
      "value": 1031.9,
      "spoken": "one zero three one point nine"
    },
    "snow_depth": null,
    "temperature_decimal": {
      "repr": "0089",
      "value": 8.9,
      "spoken": "eight point nine"
    }
  },
  "runway_visibility": [],
  "temperature": {
    "repr": "09",
    "value": 9,
    "spoken": "nine"
  },
  "wind_variable_direction": [],
  "density_altitude": -1096,
  "pressure_altitude": -398,
  "units": {
    "accumulation": "in",
    "altimeter": "inHg",
    "altitude": "ft",
    "temperature": "C",
    "visibility": "sm",
    "wind_speed": "kt"
  }
}
