{
  "meta": {
    "timestamp": "2023-01-03T21:24:08.997388Z",
    "stations_updated": "2022-12-27",
    "cache-timestamp": "2023-01-03T21:24:06.336000Z"
  },
  "altimeter": {
    "repr": "A2987",
    "value": 29.87,
    "spoken": "two nine point eight seven"
  },
  "clouds": [
    {
      "repr": "OVC033",
      "type": "OVC",
      "altitude": 33,
      "modifier": null
    }
  ],
  "flight_rules": "VFR",
  "other": [],
  "visibility": {
    "repr": "10",
    "value": 10,
    "spoken": "one zero"
  },
  "wind_direction": {
    "repr": "040",
    "value": 40,
    "spoken": "zero four zero"
  },
  "wind_gust": null,
  "wind_speed": {
    "repr": "06",
    "value": 6,
    "spoken": "six"
  },
  "wx_codes": [],
  "raw": "KAWO 032056Z AUTO 04006KT 10SM OVC033 06/04 A2987 RMK AO2 RAE25 SLP119 P0000 60000 T00560039 58003",
  "sanitized": "KAWO 032056Z 04006KT 10SM OVC033 06/04 A2987 RMK AO2 RAE25 SLP119 P0000 60000 T00560039 58003",
  "station": "KAWO",
  "time": {
    "repr": "032056Z",
    "dt": "2023-01-03T20:56:00Z"
  },
  "remarks": "RMK AO2 RAE25 SLP119 P0000 60000 T00560039 58003",
  "dewpoint": {
    "repr": "04",
    "value": 4,
    "spoken": "four"
  },
  "relative_humidity": 0.8880838201753524,
  "remarks_info": {
    "maximum_temperature_6": null,
    "minimum_temperature_6": null,
    "pressure_tendency": {
      "repr": "58003",
      "tendency": "Steady or increasing, then decreasing",
      "change": 0.3
    },
    "precip_36_hours": {
      "repr": "60000",
      "value": 0,
      "spoken": "zero"
    },
    "precip_24_hours": null,
    "sunshine_minutes": null,
    "codes": [
      {
        "repr": "AO2",
        "value": "Automated with precipitation sensor"
      },
      {
        "repr": "P0000",
        "value": "Trace amount of rain in the last hour"
      },
      {
        "repr": "RAE25",
        "value": "Rain ended at :25"
      }
    ],
    "dewpoint_decimal": {
      "repr": "0039",
      "value": 3.9,
      "spoken": "three point nine"
    },
    "maximum_temperature_24": null,
    "minimum_temperature_24": null,
    "precip_hourly": null,
    "sea_level_pressure": {
      "repr": "SLP119",
      "value": 1011.9,
      "spoken": "one zero one one point nine"
    },
    "snow_depth": null,
    "temperature_decimal": {
      "repr": "0056",
      "value": 5.6,
      "spoken": "five point six"
    }
  },
  "runway_visibility": [],
  "temperature": {
    "repr": "06",
    "value": 6,
    "spoken": "six"
  },
  "wind_variable_direction": [],
  "density_altitude": -902,
  "pressure_altitude": 192,
  "units": {
    "accumulation": "in",
    "altimeter": "inHg",
    "altitude": "ft",
    "temperature": "C",
    "visibility": "sm",
    "wind_speed": "kt"
  }
}
