{
  "altimeter": {
    "repr": "A3003",
    "spoken": "three zero point zero three",
    "value": 30.03
  },
  "clouds": [
    {
      "altitude": 85,
      "modifier": null,
      "repr": "OVC085",
      "type": "OVC"
    }
  ],
  "density_altitude": -2406,
  "dewpoint": {
    "repr": "M12",
    "spoken": "minus one two",
    "value": -12
  },
  "flight_rules": "VFR",
  "meta": {
    "cache-timestamp": "2024-01-12T09:24:06.741000Z",
    "stations_updated": "2023-10-28",
    "timestamp": "2024-01-12T09:24:12.419011Z"
  },
  "other": [],
  "pressure_altitude": 32,
  "raw": "KAWO 120856Z AUTO 30008KT 10SM OVC085 M06/M12 A3003 RMK AO2 SLP175 T10561117 51029 FZRANO",
  "relative_humidity": 0.6212971708401915,
  "remarks": "RMK AO2 SLP175 T10561117 51029 FZRANO",
  "remarks_info": {
    "codes": [
      {
        "repr": "AO2",
        "value": "Automated with precipitation sensor"
      },
      {
        "repr": "FZRANO",
        "value": "Freezing rain information not available"
      }
    ],
    "dewpoint_decimal": {
      "repr": "1117",
      "spoken": "minus one one point seven",
      "value": -11.7
    },
    "maximum_temperature_24": null,
    "maximum_temperature_6": null,
    "minimum_temperature_24": null,
    "minimum_temperature_6": null,
    "precip_24_hours": null,
    "precip_36_hours": null,
    "precip_hourly": null,
    "pressure_tendency": {
      "change": 2.9,
      "repr": "51029",
      "tendency": "Increasing, then steady"
    },
    "sea_level_pressure": {
      "repr": "SLP175",
      "spoken": "one zero one seven point five",
      "value": 1017.5
    },
    "snow_depth": null,
    "sunshine_minutes": null,
    "temperature_decimal": {
      "repr": "1056",
      "spoken": "minus five point six",
      "value": -5.6
    }
  },
  "runway_visibility": [],
  "sanitized": "KAWO 120856Z 30008KT 10SM OVC085 M06/M12 A3003 RMK AO2 SLP175 T10561117 51029 FZRANO",
  "station": "KAWO",
  "temperature": {
    "repr": "M06",
    "spoken": "minus six",
    "value": -6
  },
  "time": {
    "dt": "2024-01-12T08:56:00Z",
    "repr": "120856Z"
  },
  "units": {
    "accumulation": "in",
    "altimeter": "inHg",
    "altitude": "ft",
    "temperature": "C",
    "visibility": "sm",
    "wind_speed": "kt"
  },
  "visibility": {
    "repr": "10",
    "spoken": "one zero",
    "value": 10
  },
  "wind_direction": {
    "repr": "300",
    "spoken": "three zero zero",
    "value": 300
  },
  "wind_gust": null,
  "wind_speed": {
    "repr": "08",
    "spoken": "eight",
    "value": 8
  },
  "wind_variable_direction": [],
  "wx_codes": []
}
