{
  "meta": {
    "timestamp": "2022-12-21T16:49:27.868847Z",
    "stations_updated": "2022-09-05"
  },
  "altimeter": {
    "repr": "A3047",
    "value": 30.47,
    "spoken": "three zero point four seven"
  },
  "clouds": [
    {
      "repr": "FEW008",
      "type": "FEW",
      "altitude": 8,
      "modifier": null
    }
  ],
  "flight_rules": "VFR",
  "other": [],
  "visibility": {
    "repr": "10",
    "value": 10,
    "spoken": "one zero"
  },
  "wind_direction": {
    "repr": "320",
    "value": 320,
    "spoken": "three two zero"
  },
  "wind_gust": null,
  "wind_speed": {
    "repr": "05",
    "value": 5,
    "spoken": "five"
  },
  "wx_codes": [],
  "raw": "KAWO 211556Z AUTO 32005KT 10SM FEW008 M09/M11 A3047 RMK AO2 SLP324 T10941111 FZRANO",
  "sanitized": "KAWO 211556Z 32005KT 10SM FEW008 M09/M11 A3047 RMK AO2 SLP324 T10941111 FZRANO",
  "station": "KAWO",
  "time": {
    "repr": "211556Z",
    "dt": "2022-12-21T15:56:00Z"
  },
  "remarks": "RMK AO2 SLP324 T10941111 FZRANO",
  "dewpoint": {
    "repr": "M11",
    "value": -11,
    "spoken": "minus one one"
  },
  "relative_humidity": 0.8742003514419785,
  "remarks_info": {
    "maximum_temperature_6": null,
    "minimum_temperature_6": null,
    "pressure_tendency": null,
    "precip_36_hours": null,
    "precip_24_hours": null,
    "sunshine_minutes": null,
    "codes": [
      {
        "repr": "AO2",
        "value": "Automated with precipitation sensor"
      },
      {
        "repr": "FZRANO",
        "value": "Freezing rain information not available"
      }
    ],
    "dewpoint_decimal": {
      "repr": "1111",
      "value": -11.1,
      "spoken": "minus one one point one"
    },
    "maximum_temperature_24": null,
    "minimum_temperature_24": null,
    "precip_hourly": null,
    "sea_level_pressure": {
      "repr": "SLP324",
      "value": 1032.4,
      "spoken": "one zero three two point four"
    },
    "snow_depth": null,
    "temperature_decimal": {
      "repr": "1094",
      "value": -9.4,
      "spoken": "minus nine point four"
    }
  },
  "runway_visibility": [],
  "temperature": {
    "repr": "M09",
    "value": -9,
    "spoken": "minus nine"
  },
  "wind_variable_direction": [],
  "density_altitude": -3302,
  "pressure_altitude": -408,
  "units": {
    "accumulation": "in",
    "altimeter": "inHg",
    "altitude": "ft",
    "temperature": "C",
    "visibility": "sm",
    "wind_speed": "kt"
  }
}
