{
  "meta": {
    "timestamp": "2023-10-19T20:01:39.692198Z",
    "stations_updated": "2023-10-01"
  },
  "altimeter": {
    "repr": "A3008",
    "value": 30.08,
    "spoken": "three zero point zero eight"
  },
  "clouds": [
    {
      "repr": "OVC027",
      "type": "OVC",
      "altitude": 27,
      "modifier": null
    }
  ],
  "flight_rules": "MVFR",
  "other": [],
  "visibility": {
    "repr": "10",
    "value": 10,
    "spoken": "one zero"
  },
  "wind_direction": {
    "repr": "210",
    "value": 210,
    "spoken": "two one zero"
  },
  "wind_gust": null,
  "wind_speed": {
    "repr": "08",
    "value": 8,
    "spoken": "eight"
  },
  "wx_codes": [],
  "raw": "KAWO 191956Z AUTO 21008KT 10SM OVC027 19/14 A3008 RMK AO2 SLP189 T01940139 KAWO 191903Z AUTO 18009KT 10SM OVC029 20/14 A3007 RMK AO2 KAWO 191856Z AUTO 18007KT 10SM BKN031 20/14 A3007 RMK AO2 SLP187 T02000144",
  "sanitized": "KAWO 191956Z 21008KT 10SM OVC027 19/14 A3008 RMK AO2 SLP189 T01940139 KAWO 191903Z AUTO 18009KT 10SM OVC029 20/14 A3007 RMK AO2 KAWO 191856Z AUTO 18007KT 10SM BKN031 20/14 A3007 RMK AO2 SLP187 T02000144",
  "station": "KAWO",
  "time": {
    "repr": "191956Z",
    "dt": "2023-10-19T19:56:00Z"
  },
  "remarks": "RMK AO2 SLP189 T01940139 KAWO 191903Z AUTO 18009KT 10SM OVC029 20/14 A3007 RMK AO2 KAWO 191856Z AUTO 18007KT 10SM BKN031 20/14 A3007 RMK AO2 SLP187 T02000144",
  "dewpoint": {
    "repr": "14",
    "value": 14,
    "spoken": "one four"
  },
  "relative_humidity": 0.7014809726969023,
  "remarks_info": {
    "maximum_temperature_6": null,
    "minimum_temperature_6": null,
    "pressure_tendency": null,
    "precip_36_hours": null,
    "precip_24_hours": null,
    "sunshine_minutes": null,
    "codes": [
      {
        "repr": "AO2",
        "value": "Automated with precipitation sensor"
      },
      {
        "repr": "AO2",
        "value": "Automated with precipitation sensor"
      },
      {
        "repr": "AO2",
        "value": "Automated with precipitation sensor"
      }
    ],
    "dewpoint_decimal": {
      "repr": "0144",
      "value": 14.4,
      "spoken": "one four point four"
    },
    "maximum_temperature_24": null,
    "minimum_temperature_24": null,
    "precip_hourly": null,
    "sea_level_pressure": {
      "repr": "SLP189",
      "value": 1018.9,
      "spoken": "one zero one eight point nine"
    },
    "snow_depth": null,
    "temperature_decimal": {
      "repr": "0200",
      "value": 20,
      "spoken": "two zero point zero"
    }
  },
  "runway_visibility": [],
  "temperature": {
    "repr": "19",
    "value": 19,
    "spoken": "one nine"
  },
  "wind_variable_direction": [],
  "density_altitude": 616,
  "pressure_altitude": -18,
  "units": {
    "accumulation": "in",
    "altimeter": "inHg",
    "altitude": "ft",
    "temperature": "C",
    "visibility": "sm",
    "wind_speed": "kt"
  }
}
