{
  "altimeter": {
    "repr": "A3033",
    "spoken": "three zero point three three",
    "value": 30.33
  },
  "clouds": [],
  "density_altitude": -3306,
  "dewpoint": {
    "repr": "M18",
    "spoken": "minus one eight",
    "value": -18
  },
  "flight_rules": "VFR",
  "meta": {
    "cache-timestamp": "2024-01-13T02:34:03.764000Z",
    "stations_updated": "2023-10-28",
    "timestamp": "2024-01-13T02:34:37.949939Z"
  },
  "other": [],
  "pressure_altitude": -268,
  "raw": "KAWO 130156Z AUTO 34006KT 10SM CLR M11/M18 A3033 RMK AO2 SLP277 T11061183 FZRANO",
  "relative_humidity": 0.5317045733794028,
  "remarks": "RMK AO2 SLP277 T11061183 FZRANO",
  "remarks_info": {
    "codes": [
      {
        "repr": "AO2",
        "value": "Automated with precipitation sensor"
      },
      {
        "repr": "FZRANO",
        "value": "Freezing rain information not available"
      }
    ],
    "dewpoint_decimal": {
      "repr": "1183",
      "spoken": "minus one eight point three",
      "value": -18.3
    },
    "maximum_temperature_24": null,
    "maximum_temperature_6": null,
    "minimum_temperature_24": null,
    "minimum_temperature_6": null,
    "precip_24_hours": null,
    "precip_36_hours": null,
    "precip_hourly": null,
    "pressure_tendency": null,
    "sea_level_pressure": {
      "repr": "SLP277",
      "spoken": "one zero two seven point seven",
      "value": 1027.7
    },
    "snow_depth": null,
    "sunshine_minutes": null,
    "temperature_decimal": {
      "repr": "1106",
      "spoken": "minus one zero point six",
      "value": -10.6
    }
  },
  "runway_visibility": [],
  "sanitized": "KAWO 130156Z 34006KT 10SM M11/M18 A3033 RMK AO2 SLP277 T11061183 FZRANO",
  "station": "KAWO",
  "temperature": {
    "repr": "M11",
    "spoken": "minus one one",
    "value": -11
  },
  "time": {
    "dt": "2024-01-13T01:56:00Z",
    "repr": "130156Z"
  },
  "units": {
    "accumulation": "in",
    "altimeter": "inHg",
    "altitude": "ft",
    "temperature": "C",
    "visibility": "sm",
    "wind_speed": "kt"
  },
  "visibility": {
    "repr": "10",
    "spoken": "one zero",
    "value": 10
  },
  "wind_direction": {
    "repr": "340",
    "spoken": "three four zero",
    "value": 340
  },
  "wind_gust": null,
  "wind_speed": {
    "repr": "06",
    "spoken": "six",
    "value": 6
  },
  "wind_variable_direction": [],
  "wx_codes": []
}
