{
  "meta": {
    "timestamp": "2022-12-23T06:43:10.057986Z",
    "stations_updated": "2022-09-05"
  },
  "altimeter": {
    "repr": "A3018",
    "value": 30.18,
    "spoken": "three zero point one eight"
  },
  "clouds": [
    {
      "repr": "FEW049",
      "type": "FEW",
      "altitude": 49,
      "modifier": null
    },
    {
      "repr": "BKN060",
      "type": "BKN",
      "altitude": 60,
      "modifier": null
    },
    {
      "repr": "OVC070",
      "type": "OVC",
      "altitude": 70,
      "modifier": null
    }
  ],
  "flight_rules": "VFR",
  "other": [],
  "visibility": {
    "repr": "10",
    "value": 10,
    "spoken": "one zero"
  },
  "wind_direction": {
    "repr": "000",
    "value": 0,
    "spoken": "zero zero zero"
  },
  "wind_gust": null,
  "wind_speed": {
    "repr": "00",
    "value": 0,
    "spoken": "zero"
  },
  "wx_codes": [],
  "raw": "KAWO 230556Z AUTO 00000KT 10SM FEW049 BKN060 OVC070 M05/M08 A3018 RMK AO2 SLP228 T10501083 11050 21056 56023 FZRANO",
  "sanitized": "KAWO 230556Z 00000KT 10SM FEW049 BKN060 OVC070 M05/M08 A3018 RMK AO2 SLP228 T10501083 11050 21056 56023 FZRANO",
  "station": "KAWO",
  "time": {
    "repr": "230556Z",
    "dt": "2022-12-23T05:56:00Z"
  },
  "remarks": "RMK AO2 SLP228 T10501083 11050 21056 56023 FZRANO",
  "dewpoint": {
    "repr": "M08",
    "value": -8,
    "spoken": "minus eight"
  },
  "relative_humidity": 0.7763759364684446,
  "remarks_info": {
    "maximum_temperature_6": {
      "repr": "11050",
      "value": -5,
      "spoken": "minus five point zero"
    },
    "minimum_temperature_6": {
      "repr": "21056",
      "value": -5.6,
      "spoken": "minus five point six"
    },
    "pressure_tendency": {
      "repr": "56023",
      "tendency": "Decreasing, then steady",
      "change": 2.3
    },
    "precip_36_hours": null,
    "precip_24_hours": null,
    "sunshine_minutes": null,
    "codes": [
      {
        "repr": "AO2",
        "value": "Automated with precipitation sensor"
      },
      {
        "repr": "FZRANO",
        "value": "Freezing rain information not available"
      }
    ],
    "dewpoint_decimal": {
      "repr": "1083",
      "value": -8.3,
      "spoken": "minus eight point three"
    },
    "maximum_temperature_24": null,
    "minimum_temperature_24": null,
    "precip_hourly": null,
    "sea_level_pressure": {
      "repr": "SLP228",
      "value": 1022.8,
      "spoken": "one zero two two point eight"
    },
    "snow_depth": null,
    "temperature_decimal": {
      "repr": "1050",
      "value": -5,
      "spoken": "minus five point zero"
    }
  },
  "runway_visibility": [],
  "temperature": {
    "repr": "M05",
    "value": -5,
    "spoken": "minus five"
  },
  "wind_variable_direction": [],
  "density_altitude": -2484,
  "pressure_altitude": -118,
  "units": {
    "accumulation": "in",
    "altimeter": "inHg",
    "altitude": "ft",
    "temperature": "C",
    "visibility": "sm",
    "wind_speed": "kt"
  }
}
