{
  "meta": {
    "timestamp": "2022-08-18T17:30:39.826240Z",
    "stations_updated": "2022-07-17"
  },
  "altimeter": {
    "repr": "A2994",
    "value": 29.94,
    "spoken": "two nine point nine four"
  },
  "clouds": [],
  "flight_rules": "VFR",
  "other": [],
  "visibility": {
    "repr": "10",
    "value": 10,
    "spoken": "one zero"
  },
  "wind_direction": {
    "repr": "000",
    "value": 0,
    "spoken": "zero zero zero"
  },
  "wind_gust": null,
  "wind_speed": {
    "repr": "00",
    "value": 0,
    "spoken": "zero"
  },
  "wx_codes": [],
  "raw": "KAWO 181656Z AUTO 00000KT 10SM CLR 23/17 A2994 RMK AO2 SLP142 T02330167",
  "sanitized": "KAWO 181656Z 00000KT 10SM 23/17 A2994 RMK AO2 SLP142 T02330167",
  "station": "KAWO",
  "time": {
    "repr": "181656Z",
    "dt": "2022-08-18T16:56:00Z"
  },
  "remarks": "RMK AO2 SLP142 T02330167",
  "dewpoint": {
    "repr": "17",
    "value": 17,
    "spoken": "one seven"
  },
  "relative_humidity": 0.664274800679405,
  "remarks_info": {
    "maximum_temperature_6": null,
    "minimum_temperature_6": null,
    "pressure_tendency": null,
    "precip_36_hours": null,
    "precip_24_hours": null,
    "sunshine_minutes": null,
    "codes": [
      {
        "repr": "AO2",
        "value": "Automated with precipitation sensor"
      }
    ],
    "dewpoint_decimal": {
      "repr": "0167",
      "value": 16.7,
      "spoken": "one six point seven"
    },
    "maximum_temperature_24": null,
    "minimum_temperature_24": null,
    "precip_hourly": null,
    "sea_level_pressure": {
      "repr": "SLP142",
      "value": 1014.2,
      "spoken": "one zero one four point two"
    },
    "snow_depth": null,
    "temperature_decimal": {
      "repr": "0233",
      "value": 23.3,
      "spoken": "two three point three"
    }
  },
  "runway_visibility": [],
  "temperature": {
    "repr": "23",
    "value": 23,
    "spoken": "two three"
  },
  "wind_variable_direction": [],
  "density_altitude": 1152,
  "pressure_altitude": 122,
  "units": {
    "accumulation": "in",
    "altimeter": "inHg",
    "altitude": "ft",
    "temperature": "C",
    "visibility": "sm",
    "wind_speed": "kt"
  }
}
