{
  "meta": {
    "timestamp": "2023-10-20T02:05:50.210410Z",
    "stations_updated": "2023-10-01"
  },
  "altimeter": {
    "repr": "A3006",
    "value": 30.06,
    "spoken": "three zero point zero six"
  },
  "clouds": [
    {
      "repr": "OVC030",
      "type": "OVC",
      "altitude": 30,
      "modifier": null
    }
  ],
  "flight_rules": "MVFR",
  "other": [],
  "visibility": {
    "repr": "10",
    "value": 10,
    "spoken": "one zero"
  },
  "wind_direction": {
    "repr": "000",
    "value": 0,
    "spoken": "zero zero zero"
  },
  "wind_gust": null,
  "wind_speed": {
    "repr": "00",
    "value": 0,
    "spoken": "zero"
  },
  "wx_codes": [],
  "raw": "KAWO 200156Z AUTO 00000KT 10SM OVC030 17/15 A3006 RMK AO2 SLP183 T01670150 KAWO 200119Z AUTO 00000KT 10SM SCT021 OVC034 17/16 A3005 RMK AO2 KAWO 200056Z AUTO 01003KT 10SM OVC019 17/16 A3005 RMK AO2 SLP181 T01670156",
  "sanitized": "KAWO 200156Z 00000KT 10SM OVC030 17/15 A3006 RMK AO2 SLP183 T01670150 KAWO 200119Z AUTO 00000KT 10SM SCT021 OVC034 17/16 A3005 RMK AO2 KAWO 200056Z AUTO 01003KT 10SM OVC019 17/16 A3005 RMK AO2 SLP181 T01670156",
  "station": "KAWO",
  "time": {
    "repr": "200156Z",
    "dt": "2023-10-20T01:56:00Z"
  },
  "remarks": "RMK AO2 SLP183 T01670150 KAWO 200119Z AUTO 00000KT 10SM SCT021 OVC034 17/16 A3005 RMK AO2 KAWO 200056Z AUTO 01003KT 10SM OVC019 17/16 A3005 RMK AO2 SLP181 T01670156",
  "dewpoint": {
    "repr": "15",
    "value": 15,
    "spoken": "one five"
  },
  "relative_humidity": 0.9322048911185543,
  "remarks_info": {
    "maximum_temperature_6": null,
    "minimum_temperature_6": null,
    "pressure_tendency": null,
    "precip_36_hours": null,
    "precip_24_hours": null,
    "sunshine_minutes": null,
    "codes": [
      {
        "repr": "AO2",
        "value": "Automated with precipitation sensor"
      },
      {
        "repr": "AO2",
        "value": "Automated with precipitation sensor"
      },
      {
        "repr": "AO2",
        "value": "Automated with precipitation sensor"
      }
    ],
    "dewpoint_decimal": {
      "repr": "0156",
      "value": 15.6,
      "spoken": "one five point six"
    },
    "maximum_temperature_24": null,
    "minimum_temperature_24": null,
    "precip_hourly": null,
    "sea_level_pressure": {
      "repr": "SLP183",
      "value": 1018.3,
      "spoken": "one zero one eight point three"
    },
    "snow_depth": null,
    "temperature_decimal": {
      "repr": "0167",
      "value": 16.7,
      "spoken": "one six point seven"
    }
  },
  "runway_visibility": [],
  "temperature": {
    "repr": "17",
    "value": 17,
    "spoken": "one seven"
  },
  "wind_variable_direction": [],
  "density_altitude": 240,
  "pressure_altitude": 2,
  "units": {
    "accumulation": "in",
    "altimeter": "inHg",
    "altitude": "ft",
    "temperature": "C",
    "visibility": "sm",
    "wind_speed": "kt"
  }
}
