{
  "meta": {
    "timestamp": "2022-10-17T23:42:55.218129Z",
    "stations_updated": "2022-09-05"
  },
  "altimeter": {
    "repr": "A3011",
    "value": 30.11,
    "spoken": "three zero point one one"
  },
  "clouds": [],
  "flight_rules": "VFR",
  "other": [],
  "visibility": {
    "repr": "10",
    "value": 10,
    "spoken": "one zero"
  },
  "wind_direction": {
    "repr": "200",
    "value": 200,
    "spoken": "two zero zero"
  },
  "wind_gust": null,
  "wind_speed": {
    "repr": "03",
    "value": 3,
    "spoken": "three"
  },
  "wx_codes": [],
  "raw": "KAWO 172256Z AUTO 20003KT 10SM CLR 19/11 A3011 RMK AO2 SLP198 T01940111",
  "sanitized": "KAWO 172256Z 20003KT 10SM 19/11 A3011 RMK AO2 SLP198 T01940111",
  "station": "KAWO",
  "time": {
    "repr": "172256Z",
    "dt": "2022-10-17T22:56:00Z"
  },
  "remarks": "RMK AO2 SLP198 T01940111",
  "dewpoint": {
    "repr": "11",
    "value": 11,
    "spoken": "one one"
  },
  "relative_humidity": 0.5865266940931496,
  "remarks_info": {
    "maximum_temperature_6": null,
    "minimum_temperature_6": null,
    "pressure_tendency": null,
    "precip_36_hours": null,
    "precip_24_hours": null,
    "sunshine_minutes": null,
    "codes": [
      {
        "repr": "AO2",
        "value": "Automated with precipitation sensor"
      }
    ],
    "dewpoint_decimal": {
      "repr": "0111",
      "value": 11.1,
      "spoken": "one one point one"
    },
    "maximum_temperature_24": null,
    "minimum_temperature_24": null,
    "precip_hourly": null,
    "sea_level_pressure": {
      "repr": "SLP198",
      "value": 1019.8,
      "spoken": "one zero one nine point eight"
    },
    "snow_depth": null,
    "temperature_decimal": {
      "repr": "0194",
      "value": 19.4,
      "spoken": "one nine point four"
    }
  },
  "runway_visibility": [],
  "temperature": {
    "repr": "19",
    "value": 19,
    "spoken": "one nine"
  },
  "wind_variable_direction": [],
  "density_altitude": 514,
  "pressure_altitude": -48,
  "units": {
    "accumulation": "in",
    "altimeter": "inHg",
    "altitude": "ft",
    "temperature": "C",
    "visibility": "sm",
    "wind_speed": "kt"
  }
}
