{
  "meta": {
    "timestamp": "2023-02-26T14:43:48.483639Z",
    "stations_updated": "2023-01-30"
  },
  "altimeter": {
    "repr": "A2946",
    "value": 29.46,
    "spoken": "two nine point four six"
  },
  "clouds": [
    {
      "repr": "SCT011",
      "type": "SCT",
      "altitude": 11,
      "modifier": null
    },
    {
      "repr": "SCT016",
      "type": "SCT",
      "altitude": 16,
      "modifier": null
    },
    {
      "repr": "BKN043",
      "type": "BKN",
      "altitude": 43,
      "modifier": null
    }
  ],
  "flight_rules": "VFR",
  "other": [],
  "visibility": {
    "repr": "10",
    "value": 10,
    "spoken": "one zero"
  },
  "wind_direction": {
    "repr": "170",
    "value": 170,
    "spoken": "one seven zero"
  },
  "wind_gust": null,
  "wind_speed": {
    "repr": "12",
    "value": 12,
    "spoken": "one two"
  },
  "wx_codes": [
    {
      "repr": "-RA",
      "value": "Light Rain"
    }
  ],
  "raw": "KAWO 261439Z AUTO 17012KT 10SM -RA SCT011 SCT016 BKN043 02/01 A2946 RMK AO2 RAB25 P0000 FZRANO",
  "sanitized": "KAWO 261439Z 17012KT 10SM -RA SCT011 SCT016 BKN043 02/01 A2946 RMK AO2 RAB25 P0000 FZRANO",
  "station": "KAWO",
  "time": {
    "repr": "261439Z",
    "dt": "2023-02-26T14:39:00Z"
  },
  "remarks": "RMK AO2 RAB25 P0000 FZRANO",
  "dewpoint": {
    "repr": "01",
    "value": 1,
    "spoken": "one"
  },
  "relative_humidity": 0.9308276135609017,
  "remarks_info": {
    "maximum_temperature_6": null,
    "minimum_temperature_6": null,
    "pressure_tendency": null,
    "precip_36_hours": null,
    "precip_24_hours": null,
    "sunshine_minutes": null,
    "codes": [
      {
        "repr": "AO2",
        "value": "Automated with precipitation sensor"
      },
      {
        "repr": "FZRANO",
        "value": "Freezing rain information not available"
      },
      {
        "repr": "P0000",
        "value": "Trace amount of rain in the last hour"
      },
      {
        "repr": "RAB25",
        "value": "Rain began at :25"
      }
    ],
    "dewpoint_decimal": null,
    "maximum_temperature_24": null,
    "minimum_temperature_24": null,
    "precip_hourly": null,
    "sea_level_pressure": null,
    "snow_depth": null,
    "temperature_decimal": null
  },
  "runway_visibility": [],
  "temperature": {
    "repr": "02",
    "value": 2,
    "spoken": "two"
  },
  "wind_variable_direction": [],
  "density_altitude": -924,
  "pressure_altitude": 602,
  "units": {
    "accumulation": "in",
    "altimeter": "inHg",
    "altitude": "ft",
    "temperature": "C",
    "visibility": "sm",
    "wind_speed": "kt"
  }
}
