{
  "altimeter": {
    "repr": "A2967",
    "spoken": "two nine point six seven",
    "value": 29.67
  },
  "clouds": [
    {
      "altitude": 95,
      "modifier": null,
      "repr": "BKN095",
      "type": "BKN"
    }
  ],
  "density_altitude": -102,
  "dewpoint": {
    "repr": "07",
    "spoken": "seven",
    "value": 7
  },
  "flight_rules": "VFR",
  "meta": {
    "cache-timestamp": "2024-05-04T08:40:02.899000Z",
    "stations_updated": "2024-01-01",
    "timestamp": "2024-05-04T08:40:47.826024Z"
  },
  "other": [],
  "pressure_altitude": 392,
  "raw": "KAWO 040756Z AUTO 00000KT 10SM BKN095 11/07 A2967 RMK AO2 SLP052 T01060072 402060033",
  "relative_humidity": 0.794816368054851,
  "remarks": "RMK AO2 SLP052 T01060072 402060033",
  "remarks_info": {
    "codes": [
      {
        "repr": "AO2",
        "value": "Automated with precipitation sensor"
      }
    ],
    "dewpoint_decimal": {
      "repr": "0072",
      "spoken": "seven point two",
      "value": 7.2
    },
    "maximum_temperature_24": {
      "repr": "0206",
      "spoken": "two zero point six",
      "value": 20.6
    },
    "maximum_temperature_6": null,
    "minimum_temperature_24": {
      "repr": "0033",
      "spoken": "three point three",
      "value": 3.3
    },
    "minimum_temperature_6": null,
    "precip_24_hours": null,
    "precip_36_hours": null,
    "precip_hourly": null,
    "pressure_tendency": null,
    "sea_level_pressure": {
      "repr": "SLP052",
      "spoken": "one zero zero five point two",
      "value": 1005.2
    },
    "snow_depth": null,
    "sunshine_minutes": null,
    "temperature_decimal": {
      "repr": "0106",
      "spoken": "one zero point six",
      "value": 10.6
    }
  },
  "runway_visibility": [],
  "sanitized": "KAWO 040756Z 00000KT 10SM BKN095 11/07 A2967 RMK AO2 SLP052 T01060072 402060033",
  "station": "KAWO",
  "temperature": {
    "repr": "11",
    "spoken": "one one",
    "value": 11
  },
  "time": {
    "dt": "2024-05-04T07:56:00Z",
    "repr": "040756Z"
  },
  "units": {
    "accumulation": "in",
    "altimeter": "inHg",
    "altitude": "ft",
    "temperature": "C",
    "visibility": "sm",
    "wind_speed": "kt"
  },
  "visibility": {
    "repr": "10",
    "spoken": "one zero",
    "value": 10
  },
  "wind_direction": {
    "repr": "000",
    "spoken": "zero zero zero",
    "value": 0
  },
  "wind_gust": null,
  "wind_speed": {
    "repr": "00",
    "spoken": "zero",
    "value": 0
  },
  "wind_variable_direction": [],
  "wx_codes": []
}
