{
  "meta": {
    "timestamp": "2023-05-24T23:40:42.304277Z",
    "stations_updated": "2023-03-11",
    "cache-timestamp": "2023-05-24T23:40:06.784000Z"
  },
  "altimeter": {
    "repr": "A3004",
    "value": 30.04,
    "spoken": "three zero point zero four"
  },
  "clouds": [],
  "flight_rules": "VFR",
  "other": [],
  "visibility": {
    "repr": "10",
    "value": 10,
    "spoken": "one zero"
  },
  "wind_direction": {
    "repr": "270",
    "value": 270,
    "spoken": "two seven zero"
  },
  "wind_gust": null,
  "wind_speed": {
    "repr": "06",
    "value": 6,
    "spoken": "six"
  },
  "wx_codes": [],
  "raw": "KAWO 242256Z AUTO 27006KT 10SM CLR 18/11 A3004 RMK AO2 SLP177 T01830106",
  "sanitized": "KAWO 242256Z 27006KT 10SM 18/11 A3004 RMK AO2 SLP177 T01830106",
  "station": "KAWO",
  "time": {
    "repr": "242256Z",
    "dt": "2023-05-24T22:56:00Z"
  },
  "remarks": "RMK AO2 SLP177 T01830106",
  "dewpoint": {
    "repr": "11",
    "value": 11,
    "spoken": "one one"
  },
  "relative_humidity": 0.6077291917311168,
  "remarks_info": {
    "maximum_temperature_6": null,
    "minimum_temperature_6": null,
    "pressure_tendency": null,
    "precip_36_hours": null,
    "precip_24_hours": null,
    "sunshine_minutes": null,
    "codes": [
      {
        "repr": "AO2",
        "value": "Automated with precipitation sensor"
      }
    ],
    "dewpoint_decimal": {
      "repr": "0106",
      "value": 10.6,
      "spoken": "one zero point six"
    },
    "maximum_temperature_24": null,
    "minimum_temperature_24": null,
    "precip_hourly": null,
    "sea_level_pressure": {
      "repr": "SLP177",
      "value": 1017.7,
      "spoken": "one zero one seven point seven"
    },
    "snow_depth": null,
    "temperature_decimal": {
      "repr": "0183",
      "value": 18.3,
      "spoken": "one eight point three"
    }
  },
  "runway_visibility": [],
  "temperature": {
    "repr": "18",
    "value": 18,
    "spoken": "one eight"
  },
  "wind_variable_direction": [],
  "density_altitude": 452,
  "pressure_altitude": 22,
  "units": {
    "accumulation": "in",
    "altimeter": "inHg",
    "altitude": "ft",
    "temperature": "C",
    "visibility": "sm",
    "wind_speed": "kt"
  }
}
