{
  "meta": {
    "timestamp": "2022-07-31T23:43:09.498355Z",
    "stations_updated": "2022-07-17"
  },
  "altimeter": {
    "repr": "A2988",
    "value": 29.88,
    "spoken": "two nine point eight eight"
  },
  "clouds": [],
  "flight_rules": "VFR",
  "other": [],
  "visibility": {
    "repr": "10",
    "value": 10,
    "spoken": "one zero"
  },
  "wind_direction": {
    "repr": "280",
    "value": 280,
    "spoken": "two eight zero"
  },
  "wind_gust": {
    "repr": "14",
    "value": 14,
    "spoken": "one four"
  },
  "wind_speed": {
    "repr": "09",
    "value": 9,
    "spoken": "nine"
  },
  "wx_codes": [],
  "raw": "KAWO 312256Z AUTO 28009G14KT 10SM CLR 33/16 A2988 RMK AO2 SLP121 T03330156",
  "sanitized": "KAWO 312256Z 28009G14KT 10SM 33/16 A2988 RMK AO2 SLP121 T03330156",
  "station": "KAWO",
  "time": {
    "repr": "312256Z",
    "dt": "2022-07-31T22:56:00Z"
  },
  "remarks": "RMK AO2 SLP121 T03330156",
  "dewpoint": {
    "repr": "16",
    "value": 16,
    "spoken": "one six"
  },
  "relative_humidity": 0.34580521929541636,
  "remarks_info": {
    "maximum_temperature_6": null,
    "minimum_temperature_6": null,
    "pressure_tendency": null,
    "precip_36_hours": null,
    "precip_24_hours": null,
    "sunshine_minutes": null,
    "codes": [
      {
        "repr": "AO2",
        "value": "Automated with precipitation sensor"
      }
    ],
    "dewpoint_decimal": {
      "repr": "0156",
      "value": 15.6,
      "spoken": "one five point six"
    },
    "maximum_temperature_24": null,
    "minimum_temperature_24": null,
    "precip_hourly": null,
    "sea_level_pressure": {
      "repr": "SLP121",
      "value": 1012.1,
      "spoken": "one zero one two point one"
    },
    "snow_depth": null,
    "temperature_decimal": {
      "repr": "0333",
      "value": 33.3,
      "spoken": "three three point three"
    }
  },
  "runway_visibility": [],
  "temperature": {
    "repr": "33",
    "value": 33,
    "spoken": "three three"
  },
  "wind_variable_direction": [],
  "density_altitude": 2412,
  "pressure_altitude": 182,
  "units": {
    "accumulation": "in",
    "altimeter": "inHg",
    "altitude": "ft",
    "temperature": "C",
    "visibility": "sm",
    "wind_speed": "kt"
  }
}
