{
  "altimeter": {
    "repr": "A2959",
    "spoken": "two nine point five nine",
    "value": 29.59
  },
  "clouds": [
    {
      "altitude": 25,
      "modifier": null,
      "repr": "OVC025",
      "type": "OVC"
    }
  ],
  "density_altitude": -430,
  "dewpoint": {
    "repr": "07",
    "spoken": "seven",
    "value": 7
  },
  "flight_rules": "MVFR",
  "meta": {
    "cache-timestamp": "2023-12-19T04:40:03.780000Z",
    "stations_updated": "2023-10-28",
    "timestamp": "2023-12-19T04:40:38.667973Z"
  },
  "other": [],
  "pressure_altitude": 472,
  "raw": "KAWO 190356Z AUTO 20003KT 9SM -RA OVC025 07/07 A2959 RMK AO2 RAE03B33 SLP026 P0000 T00720067",
  "relative_humidity": 0.9662838843819482,
  "remarks": "RMK AO2 RAE03B33 SLP026 P0000 T00720067",
  "remarks_info": {
    "codes": [
      {
        "repr": "AO2",
        "value": "Automated with precipitation sensor"
      },
      {
        "repr": "P0000",
        "value": "Trace amount of rain in the last hour"
      }
    ],
    "dewpoint_decimal": {
      "repr": "0067",
      "spoken": "six point seven",
      "value": 6.7
    },
    "maximum_temperature_24": null,
    "maximum_temperature_6": null,
    "minimum_temperature_24": null,
    "minimum_temperature_6": null,
    "precip_24_hours": null,
    "precip_36_hours": null,
    "precip_hourly": null,
    "pressure_tendency": null,
    "sea_level_pressure": {
      "repr": "SLP026",
      "spoken": "one zero zero two point six",
      "value": 1002.6
    },
    "snow_depth": null,
    "sunshine_minutes": null,
    "temperature_decimal": {
      "repr": "0072",
      "spoken": "seven point two",
      "value": 7.2
    }
  },
  "runway_visibility": [],
  "sanitized": "KAWO 190356Z 20003KT 9SM -RA OVC025 07/07 A2959 RMK AO2 RAE03B33 SLP026 P0000 T00720067",
  "station": "KAWO",
  "temperature": {
    "repr": "07",
    "spoken": "seven",
    "value": 7
  },
  "time": {
    "dt": "2023-12-19T03:56:00Z",
    "repr": "190356Z"
  },
  "units": {
    "accumulation": "in",
    "altimeter": "inHg",
    "altitude": "ft",
    "temperature": "C",
    "visibility": "sm",
    "wind_speed": "kt"
  },
  "visibility": {
    "repr": "9",
    "spoken": "nine",
    "value": 9
  },
  "wind_direction": {
    "repr": "200",
    "spoken": "two zero zero",
    "value": 200
  },
  "wind_gust": null,
  "wind_speed": {
    "repr": "03",
    "spoken": "three",
    "value": 3
  },
  "wind_variable_direction": [],
  "wx_codes": [
    {
      "repr": "-RA",
      "value": "Light Rain"
    }
  ]
}
