{
  "meta": {
    "timestamp": "2022-07-28T21:02:55.136739Z",
    "stations_updated": "2022-07-17"
  },
  "altimeter": {
    "repr": "A2994",
    "value": 29.94,
    "spoken": "two nine point nine four"
  },
  "clouds": [],
  "flight_rules": "VFR",
  "other": [],
  "visibility": {
    "repr": "10",
    "value": 10,
    "spoken": "one zero"
  },
  "wind_direction": {
    "repr": "310",
    "value": 310,
    "spoken": "three one zero"
  },
  "wind_gust": null,
  "wind_speed": {
    "repr": "08",
    "value": 8,
    "spoken": "eight"
  },
  "wx_codes": [],
  "raw": "KAWO 282056Z AUTO 31008KT 10SM CLR 30/19 A2994 RMK AO2 SLP143 T03000189 56014",
  "sanitized": "KAWO 282056Z 31008KT 10SM 30/19 A2994 RMK AO2 SLP143 T03000189 56014",
  "station": "KAWO",
  "time": {
    "repr": "282056Z",
    "dt": "2022-07-28T20:56:00Z"
  },
  "remarks": "RMK AO2 SLP143 T03000189 56014",
  "dewpoint": {
    "repr": "19",
    "value": 19,
    "spoken": "one nine"
  },
  "relative_humidity": 0.5140249047162478,
  "remarks_info": {
    "maximum_temperature_6": null,
    "minimum_temperature_6": null,
    "pressure_tendency": {
      "repr": "56014",
      "tendency": "Decreasing, then steady",
      "change": 1.4
    },
    "precip_36_hours": null,
    "precip_24_hours": null,
    "sunshine_minutes": null,
    "codes": [
      {
        "repr": "AO2",
        "value": "Automated with precipitation sensor"
      }
    ],
    "dewpoint_decimal": {
      "repr": "0189",
      "value": 18.9,
      "spoken": "one eight point nine"
    },
    "maximum_temperature_24": null,
    "minimum_temperature_24": null,
    "precip_hourly": null,
    "sea_level_pressure": {
      "repr": "SLP143",
      "value": 1014.3,
      "spoken": "one zero one four point three"
    },
    "snow_depth": null,
    "temperature_decimal": {
      "repr": "0300",
      "value": 30,
      "spoken": "three zero point zero"
    }
  },
  "runway_visibility": [],
  "temperature": {
    "repr": "30",
    "value": 30,
    "spoken": "three zero"
  },
  "wind_variable_direction": [],
  "density_altitude": 1956,
  "pressure_altitude": 122,
  "units": {
    "accumulation": "in",
    "altimeter": "inHg",
    "altitude": "ft",
    "temperature": "C",
    "visibility": "sm",
    "wind_speed": "kt"
  }
}
