{
  "altimeter": {
    "repr": "A2980",
    "spoken": "two nine point eight zero",
    "value": 29.8
  },
  "clouds": [
    {
      "altitude": 23,
      "modifier": null,
      "repr": "BKN023",
      "type": "BKN"
    },
    {
      "altitude": 29,
      "modifier": null,
      "repr": "BKN029",
      "type": "BKN"
    }
  ],
  "density_altitude": 56,
  "dewpoint": {
    "repr": "11",
    "spoken": "one one",
    "value": 11
  },
  "flight_rules": "MVFR",
  "meta": {
    "cache-timestamp": "2023-11-05T04:03:10.042000Z",
    "stations_updated": "2023-10-28",
    "timestamp": "2023-11-05T04:03:46.091428Z"
  },
  "other": [],
  "pressure_altitude": 262,
  "raw": "KAWO 050335Z AUTO 17012KT 10SM BKN023 BKN029 13/11 A2980 RMK AO2",
  "relative_humidity": 0.8764963436839737,
  "remarks": "RMK AO2",
  "remarks_info": {
    "codes": [
      {
        "repr": "AO2",
        "value": "Automated with precipitation sensor"
      }
    ],
    "dewpoint_decimal": null,
    "maximum_temperature_24": null,
    "maximum_temperature_6": null,
    "minimum_temperature_24": null,
    "minimum_temperature_6": null,
    "precip_24_hours": null,
    "precip_36_hours": null,
    "precip_hourly": null,
    "pressure_tendency": null,
    "sea_level_pressure": null,
    "snow_depth": null,
    "sunshine_minutes": null,
    "temperature_decimal": null
  },
  "runway_visibility": [],
  "sanitized": "KAWO 050335Z 17012KT 10SM BKN023 BKN029 13/11 A2980 RMK AO2",
  "station": "KAWO",
  "temperature": {
    "repr": "13",
    "spoken": "one three",
    "value": 13
  },
  "time": {
    "dt": "2023-11-05T03:35:00Z",
    "repr": "050335Z"
  },
  "units": {
    "accumulation": "in",
    "altimeter": "inHg",
    "altitude": "ft",
    "temperature": "C",
    "visibility": "sm",
    "wind_speed": "kt"
  },
  "visibility": {
    "repr": "10",
    "spoken": "one zero",
    "value": 10
  },
  "wind_direction": {
    "repr": "170",
    "spoken": "one seven zero",
    "value": 170
  },
  "wind_gust": null,
  "wind_speed": {
    "repr": "12",
    "spoken": "one two",
    "value": 12
  },
  "wind_variable_direction": [],
  "wx_codes": []
}
