{
  "meta": {
    "timestamp": "2022-08-22T08:40:05.789967Z",
    "stations_updated": "2022-07-17",
    "cache-timestamp": "2022-08-22T06:44:29.681000Z",
    "warning": "Unable to fetch report. This cached data might be out of date. To return an error instead, set ?onfail=error"
  },
  "altimeter": {
    "repr": "A3005",
    "value": 30.05,
    "spoken": "three zero point zero five"
  },
  "clouds": [],
  "flight_rules": "VFR",
  "other": [],
  "visibility": {
    "repr": "10",
    "value": 10,
    "spoken": "one zero"
  },
  "wind_direction": {
    "repr": "330",
    "value": 330,
    "spoken": "three three zero"
  },
  "wind_gust": null,
  "wind_speed": {
    "repr": "04",
    "value": 4,
    "spoken": "four"
  },
  "wx_codes": [],
  "raw": "KAWO 220456Z AUTO 33004KT 10SM 17/15 A3005 RMK AO2 SLP178 T01720150 $",
  "sanitized": "KAWO 220456Z 33004KT 10SM 17/15 A3005 RMK AO2 SLP178 T01720150 $",
  "station": "KAWO",
  "time": {
    "repr": "220456Z",
    "dt": "2022-08-22T04:56:00Z"
  },
  "remarks": "RMK AO2 SLP178 T01720150 $",
  "dewpoint": {
    "repr": "15",
    "value": 15,
    "spoken": "one five"
  },
  "relative_humidity": 0.8689573115645615,
  "remarks_info": {
    "maximum_temperature_6": null,
    "minimum_temperature_6": null,
    "pressure_tendency": null,
    "precip_36_hours": null,
    "precip_24_hours": null,
    "sunshine_minutes": null,
    "codes": [
      {
        "repr": "$",
        "value": "ASOS requires maintenance"
      },
      {
        "repr": "AO2",
        "value": "Automated with precipitation sensor"
      }
    ],
    "dewpoint_decimal": {
      "repr": "0150",
      "value": 15,
      "spoken": "one five point zero"
    },
    "maximum_temperature_24": null,
    "minimum_temperature_24": null,
    "precip_hourly": null,
    "sea_level_pressure": {
      "repr": "SLP178",
      "value": 1017.8,
      "spoken": "one zero one seven point eight"
    },
    "snow_depth": null,
    "temperature_decimal": {
      "repr": "0172",
      "value": 17.2,
      "spoken": "one seven point two"
    }
  },
  "runway_visibility": [],
  "temperature": {
    "repr": "17",
    "value": 17,
    "spoken": "one seven"
  },
  "wind_variable_direction": [],
  "density_altitude": 310,
  "pressure_altitude": 12,
  "units": {
    "accumulation": "in",
    "altimeter": "inHg",
    "altitude": "ft",
    "temperature": "C",
    "visibility": "sm",
    "wind_speed": "kt"
  }
}
