{
  "meta": {
    "timestamp": "2022-11-19T08:07:16.299561Z",
    "stations_updated": "2022-09-05"
  },
  "altimeter": {
    "repr": "A3042",
    "value": 30.42,
    "spoken": "three zero point four two"
  },
  "clouds": [],
  "flight_rules": "VFR",
  "other": [],
  "visibility": {
    "repr": "10",
    "value": 10,
    "spoken": "one zero"
  },
  "wind_direction": {
    "repr": "000",
    "value": 0,
    "spoken": "zero zero zero"
  },
  "wind_gust": null,
  "wind_speed": {
    "repr": "00",
    "value": 0,
    "spoken": "zero"
  },
  "wx_codes": [],
  "raw": "KAWO 190756Z AUTO 00000KT 10SM CLR M06/M07 A3042 RMK AO2 SLP306 T10561067 400941078 FZRANO",
  "sanitized": "KAWO 190756Z 00000KT 10SM M06/M07 A3042 RMK AO2 SLP306 T10561067 400941078 FZRANO",
  "station": "KAWO",
  "time": {
    "repr": "190756Z",
    "dt": "2022-11-19T07:56:00Z"
  },
  "remarks": "RMK AO2 SLP306 T10561067 400941078 FZRANO",
  "dewpoint": {
    "repr": "M07",
    "value": -7,
    "spoken": "minus seven"
  },
  "relative_humidity": 0.9194183134153208,
  "remarks_info": {
    "maximum_temperature_6": null,
    "minimum_temperature_6": null,
    "pressure_tendency": null,
    "precip_36_hours": null,
    "precip_24_hours": null,
    "sunshine_minutes": null,
    "codes": [
      {
        "repr": "AO2",
        "value": "Automated with precipitation sensor"
      },
      {
        "repr": "FZRANO",
        "value": "Freezing rain information not available"
      }
    ],
    "dewpoint_decimal": {
      "repr": "1067",
      "value": -6.7,
      "spoken": "minus six point seven"
    },
    "maximum_temperature_24": {
      "repr": "0094",
      "value": 9.4,
      "spoken": "nine point four"
    },
    "minimum_temperature_24": {
      "repr": "1078",
      "value": -7.8,
      "spoken": "minus seven point eight"
    },
    "precip_hourly": null,
    "sea_level_pressure": {
      "repr": "SLP306",
      "value": 1030.6,
      "spoken": "one zero three zero point six"
    },
    "snow_depth": null,
    "temperature_decimal": {
      "repr": "1056",
      "value": -5.6,
      "spoken": "minus five point six"
    }
  },
  "runway_visibility": [],
  "temperature": {
    "repr": "M06",
    "value": -6,
    "spoken": "minus six"
  },
  "wind_variable_direction": [],
  "density_altitude": -2796,
  "pressure_altitude": -358,
  "units": {
    "accumulation": "in",
    "altimeter": "inHg",
    "altitude": "ft",
    "temperature": "C",
    "visibility": "sm",
    "wind_speed": "kt"
  }
}
