{
  "meta": {
    "timestamp": "2022-08-01T17:49:31.471274Z",
    "stations_updated": "2022-07-17"
  },
  "altimeter": {
    "repr": "A2995",
    "value": 29.95,
    "spoken": "two nine point nine five"
  },
  "clouds": [],
  "flight_rules": "VFR",
  "other": [],
  "visibility": {
    "repr": "10",
    "value": 10,
    "spoken": "one zero"
  },
  "wind_direction": {
    "repr": "320",
    "value": 320,
    "spoken": "three two zero"
  },
  "wind_gust": null,
  "wind_speed": {
    "repr": "05",
    "value": 5,
    "spoken": "five"
  },
  "wx_codes": [],
  "raw": "KAWO 011656Z AUTO 32005KT 10SM CLR 21/15 A2995 RMK AO2 SLP146 T02110150",
  "sanitized": "KAWO 011656Z 32005KT 10SM 21/15 A2995 RMK AO2 SLP146 T02110150",
  "station": "KAWO",
  "time": {
    "repr": "011656Z",
    "dt": "2022-08-01T16:56:00Z"
  },
  "remarks": "RMK AO2 SLP146 T02110150",
  "dewpoint": {
    "repr": "15",
    "value": 15,
    "spoken": "one five"
  },
  "relative_humidity": 0.6813218534447363,
  "remarks_info": {
    "maximum_temperature_6": null,
    "minimum_temperature_6": null,
    "pressure_tendency": null,
    "precip_36_hours": null,
    "precip_24_hours": null,
    "sunshine_minutes": null,
    "codes": [
      {
        "repr": "AO2",
        "value": "Automated with precipitation sensor"
      }
    ],
    "dewpoint_decimal": {
      "repr": "0150",
      "value": 15,
      "spoken": "one five point zero"
    },
    "maximum_temperature_24": null,
    "minimum_temperature_24": null,
    "precip_hourly": null,
    "sea_level_pressure": {
      "repr": "SLP146",
      "value": 1014.6,
      "spoken": "one zero one four point six"
    },
    "snow_depth": null,
    "temperature_decimal": {
      "repr": "0211",
      "value": 21.1,
      "spoken": "two one point one"
    }
  },
  "runway_visibility": [],
  "temperature": {
    "repr": "21",
    "value": 21,
    "spoken": "two one"
  },
  "wind_variable_direction": [],
  "density_altitude": 878,
  "pressure_altitude": 112,
  "units": {
    "accumulation": "in",
    "altimeter": "inHg",
    "altitude": "ft",
    "temperature": "C",
    "visibility": "sm",
    "wind_speed": "kt"
  }
}
