{
  "altimeter": {
    "repr": "A2982",
    "spoken": "two nine point eight two",
    "value": 29.82
  },
  "clouds": [
    {
      "altitude": 12,
      "modifier": null,
      "repr": "BKN012",
      "type": "BKN"
    },
    {
      "altitude": 33,
      "modifier": null,
      "repr": "BKN033",
      "type": "BKN"
    }
  ],
  "density_altitude": -396,
  "dewpoint": {
    "repr": "07",
    "spoken": "seven",
    "value": 7
  },
  "flight_rules": "MVFR",
  "meta": {
    "stations_updated": "2024-10-29",
    "timestamp": "2024-11-02T19:25:37.955144Z"
  },
  "other": [],
  "pressure_altitude": 242,
  "raw": "KAWO 021856Z AUTO 18005KT 10SM BKN012 BKN033 09/07 A2982 RMK AO2 RAE20 SLP103 P0000 T00940072",
  "relative_humidity": 0.8613120968359211,
  "remarks": "RMK AO2 RAE20 SLP103 P0000 T00940072",
  "remarks_info": {
    "codes": [
      {
        "repr": "AO2",
        "value": "Automated with precipitation sensor"
      },
      {
        "repr": "P0000",
        "value": "Trace amount of rain in the last hour"
      },
      {
        "repr": "RAE20",
        "value": "Rain ended at :20"
      }
    ],
    "dewpoint_decimal": {
      "repr": "0072",
      "spoken": "seven point two",
      "value": 7.2
    },
    "maximum_temperature_24": null,
    "maximum_temperature_6": null,
    "minimum_temperature_24": null,
    "minimum_temperature_6": null,
    "precip_24_hours": null,
    "precip_36_hours": null,
    "precip_hourly": null,
    "pressure_tendency": null,
    "sea_level_pressure": {
      "repr": "SLP103",
      "spoken": "one zero one zero point three",
      "value": 1010.3
    },
    "snow_depth": null,
    "sunshine_minutes": null,
    "temperature_decimal": {
      "repr": "0094",
      "spoken": "nine point four",
      "value": 9.4
    }
  },
  "runway_visibility": [],
  "sanitized": "KAWO 021856Z 18005KT 10SM BKN012 BKN033 09/07 A2982 RMK AO2 RAE20 SLP103 P0000 T00940072",
  "station": "KAWO",
  "temperature": {
    "repr": "09",
    "spoken": "nine",
    "value": 9
  },
  "time": {
    "dt": "2024-11-02T18:56:00Z",
    "repr": "021856Z"
  },
  "units": {
    "accumulation": "in",
    "altimeter": "inHg",
    "altitude": "ft",
    "temperature": "C",
    "visibility": "sm",
    "wind_speed": "kt"
  },
  "visibility": {
    "repr": "10",
    "spoken": "one zero",
    "value": 10
  },
  "wind_direction": {
    "repr": "180",
    "spoken": "one eight zero",
    "value": 180
  },
  "wind_gust": null,
  "wind_speed": {
    "repr": "05",
    "spoken": "five",
    "value": 5
  },
  "wind_variable_direction": [],
  "wx_codes": []
}
