{
  "altimeter": {
    "repr": "A3057",
    "spoken": "three zero point five seven",
    "value": 30.57
  },
  "clouds": [],
  "density_altitude": -1674,
  "dewpoint": {
    "repr": "02",
    "spoken": "two",
    "value": 2
  },
  "flight_rules": "VFR",
  "meta": {
    "stations_updated": "2024-12-02",
    "timestamp": "2025-01-13T21:25:25.091217Z"
  },
  "other": [],
  "pressure_altitude": -508,
  "raw": "KAWO 132056Z AUTO 00000KT 10SM CLR 05/02 A3057 RMK AO2 SLP360 T00500017 56012",
  "relative_humidity": 0.7921337361968764,
  "remarks": "RMK AO2 SLP360 T00500017 56012",
  "remarks_info": {
    "codes": [
      {
        "repr": "AO2",
        "value": "Automated with precipitation sensor"
      }
    ],
    "dewpoint_decimal": {
      "repr": "0017",
      "spoken": "one point seven",
      "value": 1.7
    },
    "maximum_temperature_24": null,
    "maximum_temperature_6": null,
    "minimum_temperature_24": null,
    "minimum_temperature_6": null,
    "precip_24_hours": null,
    "precip_36_hours": null,
    "precip_hourly": null,
    "pressure_tendency": {
      "change": 1.2,
      "repr": "56012",
      "tendency": "Decreasing, then steady"
    },
    "sea_level_pressure": {
      "repr": "SLP360",
      "spoken": "one zero three six point zero",
      "value": 1036.0
    },
    "snow_depth": null,
    "sunshine_minutes": null,
    "temperature_decimal": {
      "repr": "0050",
      "spoken": "five point zero",
      "value": 5.0
    }
  },
  "runway_visibility": [],
  "sanitized": "KAWO 132056Z 00000KT 10SM 05/02 A3057 RMK AO2 SLP360 T00500017 56012",
  "station": "KAWO",
  "temperature": {
    "repr": "05",
    "spoken": "five",
    "value": 5
  },
  "time": {
    "dt": "2025-01-13T20:56:00Z",
    "repr": "132056Z"
  },
  "units": {
    "accumulation": "in",
    "altimeter": "inHg",
    "altitude": "ft",
    "temperature": "C",
    "visibility": "sm",
    "wind_speed": "kt"
  },
  "visibility": {
    "repr": "10",
    "spoken": "one zero",
    "value": 10
  },
  "wind_direction": {
    "repr": "000",
    "spoken": "zero zero zero",
    "value": 0
  },
  "wind_gust": null,
  "wind_speed": {
    "repr": "00",
    "spoken": "zero",
    "value": 0
  },
  "wind_variable_direction": [],
  "wx_codes": []
}
