{
  "meta": {
    "timestamp": "2022-10-19T23:08:11.671997Z",
    "stations_updated": "2022-09-05"
  },
  "altimeter": {
    "repr": "A3027",
    "value": 30.27,
    "spoken": "three zero point two seven"
  },
  "clouds": [],
  "flight_rules": "IFR",
  "other": [],
  "visibility": {
    "repr": "5/4",
    "value": 1.25,
    "spoken": "one and one quarter",
    "numerator": 5,
    "denominator": 4,
    "normalized": "1 1/4"
  },
  "wind_direction": {
    "repr": "290",
    "value": 290,
    "spoken": "two nine zero"
  },
  "wind_gust": null,
  "wind_speed": {
    "repr": "04",
    "value": 4,
    "spoken": "four"
  },
  "wx_codes": [
    {
      "repr": "HZ",
      "value": "Haze"
    }
  ],
  "raw": "KAWO 192256Z AUTO 29004KT 1 1/4SM HZ CLR 19/09 A3027 RMK AO2 TSB27E28 SLP253 T01890094",
  "sanitized": "KAWO 192256Z 29004KT 1 1/4SM HZ 19/09 A3027 RMK AO2 TSB27E28 SLP253 T01890094",
  "station": "KAWO",
  "time": {
    "repr": "192256Z",
    "dt": "2022-10-19T22:56:00Z"
  },
  "remarks": "RMK AO2 TSB27E28 SLP253 T01890094",
  "dewpoint": {
    "repr": "09",
    "value": 9,
    "spoken": "nine"
  },
  "relative_humidity": 0.5401267637279009,
  "remarks_info": {
    "maximum_temperature_6": null,
    "minimum_temperature_6": null,
    "pressure_tendency": null,
    "precip_36_hours": null,
    "precip_24_hours": null,
    "sunshine_minutes": null,
    "codes": [
      {
        "repr": "AO2",
        "value": "Automated with precipitation sensor"
      }
    ],
    "dewpoint_decimal": {
      "repr": "0094",
      "value": 9.4,
      "spoken": "nine point four"
    },
    "maximum_temperature_24": null,
    "minimum_temperature_24": null,
    "precip_hourly": null,
    "sea_level_pressure": {
      "repr": "SLP253",
      "value": 1025.3,
      "spoken": "one zero two five point three"
    },
    "snow_depth": null,
    "temperature_decimal": {
      "repr": "0189",
      "value": 18.9,
      "spoken": "one eight point nine"
    }
  },
  "runway_visibility": [],
  "temperature": {
    "repr": "19",
    "value": 19,
    "spoken": "one nine"
  },
  "wind_variable_direction": [],
  "density_altitude": 294,
  "pressure_altitude": -208,
  "units": {
    "accumulation": "in",
    "altimeter": "inHg",
    "altitude": "ft",
    "temperature": "C",
    "visibility": "sm",
    "wind_speed": "kt"
  }
}
