{
  "altimeter": {
    "repr": "A3011",
    "spoken": "three zero point one one",
    "value": 30.11
  },
  "clouds": [],
  "density_altitude": -1682,
  "dewpoint": {
    "repr": "01",
    "spoken": "one",
    "value": 1
  },
  "flight_rules": "VFR",
  "meta": {
    "cache-timestamp": "2024-01-02T10:02:03.635000Z",
    "stations_updated": "2023-10-28",
    "timestamp": "2024-01-02T10:03:02.466992Z"
  },
  "other": [],
  "pressure_altitude": -48,
  "raw": "KAWO 020856Z AUTO 00000KT 10SM CLR 01/01 A3011 RMK AO2 SLP201 T00110006 58007 FZRANO",
  "relative_humidity": 0.9646099922239331,
  "remarks": "RMK AO2 SLP201 T00110006 58007 FZRANO",
  "remarks_info": {
    "codes": [
      {
        "repr": "AO2",
        "value": "Automated with precipitation sensor"
      },
      {
        "repr": "FZRANO",
        "value": "Freezing rain information not available"
      }
    ],
    "dewpoint_decimal": {
      "repr": "0006",
      "spoken": "zero point six",
      "value": 0.6
    },
    "maximum_temperature_24": null,
    "maximum_temperature_6": null,
    "minimum_temperature_24": null,
    "minimum_temperature_6": null,
    "precip_24_hours": null,
    "precip_36_hours": null,
    "precip_hourly": null,
    "pressure_tendency": {
      "change": 0.7,
      "repr": "58007",
      "tendency": "Steady or increasing, then decreasing"
    },
    "sea_level_pressure": {
      "repr": "SLP201",
      "spoken": "one zero two zero point one",
      "value": 1020.1
    },
    "snow_depth": null,
    "sunshine_minutes": null,
    "temperature_decimal": {
      "repr": "0011",
      "spoken": "one point one",
      "value": 1.1
    }
  },
  "runway_visibility": [],
  "sanitized": "KAWO 020856Z 00000KT 10SM 01/01 A3011 RMK AO2 SLP201 T00110006 58007 FZRANO",
  "station": "KAWO",
  "temperature": {
    "repr": "01",
    "spoken": "one",
    "value": 1
  },
  "time": {
    "dt": "2024-01-02T08:56:00Z",
    "repr": "020856Z"
  },
  "units": {
    "accumulation": "in",
    "altimeter": "inHg",
    "altitude": "ft",
    "temperature": "C",
    "visibility": "sm",
    "wind_speed": "kt"
  },
  "visibility": {
    "repr": "10",
    "spoken": "one zero",
    "value": 10
  },
  "wind_direction": {
    "repr": "000",
    "spoken": "zero zero zero",
    "value": 0
  },
  "wind_gust": null,
  "wind_speed": {
    "repr": "00",
    "spoken": "zero",
    "value": 0
  },
  "wind_variable_direction": [],
  "wx_codes": []
}
