{
  "altimeter": {
    "repr": "A2980",
    "spoken": "two nine point eight zero",
    "value": 29.8
  },
  "clouds": [
    {
      "altitude": 70,
      "modifier": null,
      "repr": "OVC070",
      "type": "OVC"
    }
  ],
  "density_altitude": -1240,
  "dewpoint": {
    "repr": "01",
    "spoken": "one",
    "value": 1
  },
  "flight_rules": "VFR",
  "meta": {
    "cache-timestamp": "2024-02-18T12:48:02.983000Z",
    "stations_updated": "2024-01-01",
    "timestamp": "2024-02-18T12:48:04.523216Z"
  },
  "other": [],
  "pressure_altitude": 262,
  "raw": "KAWO 181156Z AUTO 36003KT 10SM OVC070 02/01 A2980 RMK AO2 SLP096 T00220006 10044 20006 58002 FZRANO",
  "relative_humidity": 0.8915584154150683,
  "remarks": "RMK AO2 SLP096 T00220006 10044 20006 58002 FZRANO",
  "remarks_info": {
    "codes": [
      {
        "repr": "AO2",
        "value": "Automated with precipitation sensor"
      },
      {
        "repr": "FZRANO",
        "value": "Freezing rain information not available"
      }
    ],
    "dewpoint_decimal": {
      "repr": "0006",
      "spoken": "zero point six",
      "value": 0.6
    },
    "maximum_temperature_24": null,
    "maximum_temperature_6": {
      "repr": "10044",
      "spoken": "four point four",
      "value": 4.4
    },
    "minimum_temperature_24": null,
    "minimum_temperature_6": {
      "repr": "20006",
      "spoken": "zero point six",
      "value": 0.6
    },
    "precip_24_hours": null,
    "precip_36_hours": null,
    "precip_hourly": null,
    "pressure_tendency": {
      "change": 0.2,
      "repr": "58002",
      "tendency": "Steady or increasing, then decreasing"
    },
    "sea_level_pressure": {
      "repr": "SLP096",
      "spoken": "one zero zero nine point six",
      "value": 1009.6
    },
    "snow_depth": null,
    "sunshine_minutes": null,
    "temperature_decimal": {
      "repr": "0022",
      "spoken": "two point two",
      "value": 2.2
    }
  },
  "runway_visibility": [],
  "sanitized": "KAWO 181156Z 36003KT 10SM OVC070 02/01 A2980 RMK AO2 SLP096 T00220006 10044 20006 58002 FZRANO",
  "station": "KAWO",
  "temperature": {
    "repr": "02",
    "spoken": "two",
    "value": 2
  },
  "time": {
    "dt": "2024-02-18T11:56:00Z",
    "repr": "181156Z"
  },
  "units": {
    "accumulation": "in",
    "altimeter": "inHg",
    "altitude": "ft",
    "temperature": "C",
    "visibility": "sm",
    "wind_speed": "kt"
  },
  "visibility": {
    "repr": "10",
    "spoken": "one zero",
    "value": 10
  },
  "wind_direction": {
    "repr": "360",
    "spoken": "three six zero",
    "value": 360
  },
  "wind_gust": null,
  "wind_speed": {
    "repr": "03",
    "spoken": "three",
    "value": 3
  },
  "wind_variable_direction": [],
  "wx_codes": []
}
