{
  "altimeter": {
    "repr": "A2986",
    "spoken": "two nine point eight six",
    "value": 29.86
  },
  "clouds": [
    {
      "altitude": 100,
      "modifier": null,
      "repr": "BKN100",
      "type": "BKN"
    }
  ],
  "density_altitude": 104,
  "dewpoint": {
    "repr": "12",
    "spoken": "one two",
    "value": 12
  },
  "flight_rules": "VFR",
  "meta": {
    "stations_updated": "2024-06-12",
    "timestamp": "2024-10-08T07:27:33.018455Z"
  },
  "other": [],
  "pressure_altitude": 202,
  "raw": "KAWO 080656Z AUTO 00000KT 10SM BKN100 14/12 A2986 RMK AO2 SLP117 T01390117 402440050",
  "relative_humidity": 0.8657997265283152,
  "remarks": "RMK AO2 SLP117 T01390117 402440050",
  "remarks_info": {
    "codes": [
      {
        "repr": "AO2",
        "value": "Automated with precipitation sensor"
      }
    ],
    "dewpoint_decimal": {
      "repr": "0117",
      "spoken": "one one point seven",
      "value": 11.7
    },
    "maximum_temperature_24": {
      "repr": "0244",
      "spoken": "two four point four",
      "value": 24.4
    },
    "maximum_temperature_6": null,
    "minimum_temperature_24": {
      "repr": "0050",
      "spoken": "five point zero",
      "value": 5
    },
    "minimum_temperature_6": null,
    "precip_24_hours": null,
    "precip_36_hours": null,
    "precip_hourly": null,
    "pressure_tendency": null,
    "sea_level_pressure": {
      "repr": "SLP117",
      "spoken": "one zero one one point seven",
      "value": 1011.7
    },
    "snow_depth": null,
    "sunshine_minutes": null,
    "temperature_decimal": {
      "repr": "0139",
      "spoken": "one three point nine",
      "value": 13.9
    }
  },
  "runway_visibility": [],
  "sanitized": "KAWO 080656Z 00000KT 10SM BKN100 14/12 A2986 RMK AO2 SLP117 T01390117 402440050",
  "station": "KAWO",
  "temperature": {
    "repr": "14",
    "spoken": "one four",
    "value": 14
  },
  "time": {
    "dt": "2024-10-08T06:56:00Z",
    "repr": "080656Z"
  },
  "units": {
    "accumulation": "in",
    "altimeter": "inHg",
    "altitude": "ft",
    "temperature": "C",
    "visibility": "sm",
    "wind_speed": "kt"
  },
  "visibility": {
    "repr": "10",
    "spoken": "one zero",
    "value": 10
  },
  "wind_direction": {
    "repr": "000",
    "spoken": "zero zero zero",
    "value": 0
  },
  "wind_gust": null,
  "wind_speed": {
    "repr": "00",
    "spoken": "zero",
    "value": 0
  },
  "wind_variable_direction": [],
  "wx_codes": []
}
