{
  "meta": {
    "timestamp": "2022-09-14T23:50:32.746988Z",
    "stations_updated": "2022-09-05"
  },
  "altimeter": {
    "repr": "A2992",
    "value": 29.92,
    "spoken": "two nine point nine two"
  },
  "clouds": [],
  "flight_rules": "VFR",
  "other": [],
  "visibility": {
    "repr": "10",
    "value": 10,
    "spoken": "one zero"
  },
  "wind_direction": {
    "repr": "270",
    "value": 270,
    "spoken": "two seven zero"
  },
  "wind_gust": null,
  "wind_speed": {
    "repr": "08",
    "value": 8,
    "spoken": "eight"
  },
  "wx_codes": [],
  "raw": "KAWO 142256Z AUTO 27008KT 250V320 10SM CLR 21/12 A2992 RMK AO2 SLP135 T02110117",
  "sanitized": "KAWO 142256Z 27008KT 250V320 10SM 21/12 A2992 RMK AO2 SLP135 T02110117",
  "station": "KAWO",
  "time": {
    "repr": "142256Z",
    "dt": "2022-09-14T22:56:00Z"
  },
  "remarks": "RMK AO2 SLP135 T02110117",
  "dewpoint": {
    "repr": "12",
    "value": 12,
    "spoken": "one two"
  },
  "relative_humidity": 0.5493864562361234,
  "remarks_info": {
    "maximum_temperature_6": null,
    "minimum_temperature_6": null,
    "pressure_tendency": null,
    "precip_36_hours": null,
    "precip_24_hours": null,
    "sunshine_minutes": null,
    "codes": [
      {
        "repr": "AO2",
        "value": "Automated with precipitation sensor"
      }
    ],
    "dewpoint_decimal": {
      "repr": "0117",
      "value": 11.7,
      "spoken": "one one point seven"
    },
    "maximum_temperature_24": null,
    "minimum_temperature_24": null,
    "precip_hourly": null,
    "sea_level_pressure": {
      "repr": "SLP135",
      "value": 1013.5,
      "spoken": "one zero one three point five"
    },
    "snow_depth": null,
    "temperature_decimal": {
      "repr": "0211",
      "value": 21.1,
      "spoken": "two one point one"
    }
  },
  "runway_visibility": [],
  "temperature": {
    "repr": "21",
    "value": 21,
    "spoken": "two one"
  },
  "wind_variable_direction": [
    {
      "repr": "250",
      "value": 250,
      "spoken": "two five zero"
    },
    {
      "repr": "320",
      "value": 320,
      "spoken": "three two zero"
    }
  ],
  "density_altitude": 908,
  "pressure_altitude": 142,
  "units": {
    "accumulation": "in",
    "altimeter": "inHg",
    "altitude": "ft",
    "temperature": "C",
    "visibility": "sm",
    "wind_speed": "kt"
  }
}
