{
  "meta": {
    "timestamp": "2023-01-22T20:01:53.786151Z",
    "stations_updated": "2023-01-16"
  },
  "altimeter": {
    "repr": "A3048",
    "value": 30.48,
    "spoken": "three zero point four eight"
  },
  "clouds": [
    {
      "repr": "OVC044",
      "type": "OVC",
      "altitude": 44,
      "modifier": null
    }
  ],
  "flight_rules": "VFR",
  "other": [],
  "visibility": {
    "repr": "10",
    "value": 10,
    "spoken": "one zero"
  },
  "wind_direction": {
    "repr": "000",
    "value": 0,
    "spoken": "zero zero zero"
  },
  "wind_gust": null,
  "wind_speed": {
    "repr": "00",
    "value": 0,
    "spoken": "zero"
  },
  "wx_codes": [],
  "raw": "KAWO 221956Z AUTO 00000KT 10SM OVC044 04/04 A3048 RMK AO2 RAE21 SLP326 P0000 T00440039",
  "sanitized": "KAWO 221956Z 00000KT 10SM OVC044 04/04 A3048 RMK AO2 RAE21 SLP326 P0000 T00440039",
  "station": "KAWO",
  "time": {
    "repr": "221956Z",
    "dt": "2023-01-22T19:56:00Z"
  },
  "remarks": "RMK AO2 RAE21 SLP326 P0000 T00440039",
  "dewpoint": {
    "repr": "04",
    "value": 4,
    "spoken": "four"
  },
  "relative_humidity": 0.9655305329530535,
  "remarks_info": {
    "maximum_temperature_6": null,
    "minimum_temperature_6": null,
    "pressure_tendency": null,
    "precip_36_hours": null,
    "precip_24_hours": null,
    "sunshine_minutes": null,
    "codes": [
      {
        "repr": "AO2",
        "value": "Automated with precipitation sensor"
      },
      {
        "repr": "P0000",
        "value": "Trace amount of rain in the last hour"
      },
      {
        "repr": "RAE21",
        "value": "Rain ended at :21"
      }
    ],
    "dewpoint_decimal": {
      "repr": "0039",
      "value": 3.9,
      "spoken": "three point nine"
    },
    "maximum_temperature_24": null,
    "minimum_temperature_24": null,
    "precip_hourly": null,
    "sea_level_pressure": {
      "repr": "SLP326",
      "value": 1032.6,
      "spoken": "one zero three two point six"
    },
    "snow_depth": null,
    "temperature_decimal": {
      "repr": "0044",
      "value": 4.4,
      "spoken": "four point four"
    }
  },
  "runway_visibility": [],
  "temperature": {
    "repr": "04",
    "value": 4,
    "spoken": "four"
  },
  "wind_variable_direction": [],
  "density_altitude": -1656,
  "pressure_altitude": -418,
  "units": {
    "accumulation": "in",
    "altimeter": "inHg",
    "altitude": "ft",
    "temperature": "C",
    "visibility": "sm",
    "wind_speed": "kt"
  }
}
