{
  "meta": {
    "timestamp": "2022-12-01T18:06:55.256790Z",
    "stations_updated": "2022-09-05"
  },
  "altimeter": {
    "repr": "A2971",
    "value": 29.71,
    "spoken": "two nine point seven one"
  },
  "clouds": [
    {
      "repr": "BKN010",
      "type": "BKN",
      "altitude": 10,
      "modifier": null
    },
    {
      "repr": "OVC022",
      "type": "OVC",
      "altitude": 22,
      "modifier": null
    }
  ],
  "flight_rules": "MVFR",
  "other": [],
  "visibility": {
    "repr": "10",
    "value": 10,
    "spoken": "one zero"
  },
  "wind_direction": {
    "repr": "310",
    "value": 310,
    "spoken": "three one zero"
  },
  "wind_gust": null,
  "wind_speed": {
    "repr": "06",
    "value": 6,
    "spoken": "six"
  },
  "wx_codes": [],
  "raw": "KAWO 011756Z AUTO 31006KT 10SM BKN010 OVC022 M01/M02 A2971 RMK AO2 SLP067 T10111017 11011 21039 51024 FZRANO",
  "sanitized": "KAWO 011756Z 31006KT 10SM BKN010 OVC022 M01/M02 A2971 RMK AO2 SLP067 T10111017 11011 21039 51024 FZRANO",
  "station": "KAWO",
  "time": {
    "repr": "011756Z",
    "dt": "2022-12-01T17:56:00Z"
  },
  "remarks": "RMK AO2 SLP067 T10111017 11011 21039 51024 FZRANO",
  "dewpoint": {
    "repr": "M02",
    "value": -2,
    "spoken": "minus two"
  },
  "relative_humidity": 0.9569107752623097,
  "remarks_info": {
    "maximum_temperature_6": {
      "repr": "11011",
      "value": -1.1,
      "spoken": "minus one point one"
    },
    "minimum_temperature_6": {
      "repr": "21039",
      "value": -3.9,
      "spoken": "minus three point nine"
    },
    "pressure_tendency": {
      "repr": "51024",
      "tendency": "Increasing, then steady",
      "change": 2.4
    },
    "precip_36_hours": null,
    "precip_24_hours": null,
    "sunshine_minutes": null,
    "codes": [
      {
        "repr": "AO2",
        "value": "Automated with precipitation sensor"
      },
      {
        "repr": "FZRANO",
        "value": "Freezing rain information not available"
      }
    ],
    "dewpoint_decimal": {
      "repr": "1017",
      "value": -1.7,
      "spoken": "minus one point seven"
    },
    "maximum_temperature_24": null,
    "minimum_temperature_24": null,
    "precip_hourly": null,
    "sea_level_pressure": {
      "repr": "SLP067",
      "value": 1006.7,
      "spoken": "one zero zero six point seven"
    },
    "snow_depth": null,
    "temperature_decimal": {
      "repr": "1011",
      "value": -1.1,
      "spoken": "minus one point one"
    }
  },
  "runway_visibility": [],
  "temperature": {
    "repr": "M01",
    "value": -1,
    "spoken": "minus one"
  },
  "wind_variable_direction": [],
  "density_altitude": -1546,
  "pressure_altitude": 352,
  "units": {
    "accumulation": "in",
    "altimeter": "inHg",
    "altitude": "ft",
    "temperature": "C",
    "visibility": "sm",
    "wind_speed": "kt"
  }
}
