{
  "altimeter": {
    "repr": "A2999",
    "spoken": "two nine point nine nine",
    "value": 29.99
  },
  "clouds": [
    {
      "altitude": 18,
      "modifier": null,
      "repr": "OVC018",
      "type": "OVC"
    }
  ],
  "density_altitude": 34,
  "dewpoint": {
    "repr": "12",
    "spoken": "one two",
    "value": 12
  },
  "flight_rules": "MVFR",
  "meta": {
    "stations_updated": "2024-06-12",
    "timestamp": "2024-09-27T08:33:26.007878Z"
  },
  "other": [],
  "pressure_altitude": 72,
  "raw": "KAWO 270756Z AUTO 14013G21KT 10SM OVC018 14/12 A2999 RMK AO2 SLP160 P0001 T01440117",
  "relative_humidity": 0.8381910948619068,
  "remarks": "RMK AO2 SLP160 P0001 T01440117",
  "remarks_info": {
    "codes": [
      {
        "repr": "AO2",
        "value": "Automated with precipitation sensor"
      }
    ],
    "dewpoint_decimal": {
      "repr": "0117",
      "spoken": "one one point seven",
      "value": 11.7
    },
    "maximum_temperature_24": null,
    "maximum_temperature_6": null,
    "minimum_temperature_24": null,
    "minimum_temperature_6": null,
    "precip_24_hours": null,
    "precip_36_hours": null,
    "precip_hourly": {
      "repr": "P0001",
      "spoken": "zero point zero one",
      "value": 0.01
    },
    "pressure_tendency": null,
    "sea_level_pressure": {
      "repr": "SLP160",
      "spoken": "one zero one six point zero",
      "value": 1016
    },
    "snow_depth": null,
    "sunshine_minutes": null,
    "temperature_decimal": {
      "repr": "0144",
      "spoken": "one four point four",
      "value": 14.4
    }
  },
  "runway_visibility": [],
  "sanitized": "KAWO 270756Z 14013G21KT 10SM OVC018 14/12 A2999 RMK AO2 SLP160 P0001 T01440117",
  "station": "KAWO",
  "temperature": {
    "repr": "14",
    "spoken": "one four",
    "value": 14
  },
  "time": {
    "dt": "2024-09-27T07:56:00Z",
    "repr": "270756Z"
  },
  "units": {
    "accumulation": "in",
    "altimeter": "inHg",
    "altitude": "ft",
    "temperature": "C",
    "visibility": "sm",
    "wind_speed": "kt"
  },
  "visibility": {
    "repr": "10",
    "spoken": "one zero",
    "value": 10
  },
  "wind_direction": {
    "repr": "140",
    "spoken": "one four zero",
    "value": 140
  },
  "wind_gust": {
    "repr": "21",
    "spoken": "two one",
    "value": 21
  },
  "wind_speed": {
    "repr": "13",
    "spoken": "one three",
    "value": 13
  },
  "wind_variable_direction": [],
  "wx_codes": []
}
