{
  "meta": {
    "timestamp": "2023-06-13T18:03:25.622070Z",
    "stations_updated": "2023-06-06"
  },
  "altimeter": {
    "repr": "A2997",
    "value": 29.97,
    "spoken": "two nine point nine seven"
  },
  "clouds": [
    {
      "repr": "BKN021",
      "type": "BKN",
      "altitude": 21,
      "modifier": null
    },
    {
      "repr": "OVC035",
      "type": "OVC",
      "altitude": 35,
      "modifier": null
    }
  ],
  "flight_rules": "MVFR",
  "other": [],
  "visibility": {
    "repr": "10",
    "value": 10,
    "spoken": "one zero"
  },
  "wind_direction": {
    "repr": "190",
    "value": 190,
    "spoken": "one nine zero"
  },
  "wind_gust": null,
  "wind_speed": {
    "repr": "12",
    "value": 12,
    "spoken": "one two"
  },
  "wx_codes": [],
  "raw": "KAWO 131756Z AUTO 19012KT 10SM BKN021 OVC035 16/12 A2997 RMK AO2 SLP154 T01610117 10161 20128 56008",
  "sanitized": "KAWO 131756Z 19012KT 10SM BKN021 OVC035 16/12 A2997 RMK AO2 SLP154 T01610117 10161 20128 56008",
  "station": "KAWO",
  "time": {
    "repr": "131756Z",
    "dt": "2023-06-13T17:56:00Z"
  },
  "remarks": "RMK AO2 SLP154 T01610117 10161 20128 56008",
  "dewpoint": {
    "repr": "12",
    "value": 12,
    "spoken": "one two"
  },
  "relative_humidity": 0.7514422502965397,
  "remarks_info": {
    "maximum_temperature_6": {
      "repr": "10161",
      "value": 16.1,
      "spoken": "one six point one"
    },
    "minimum_temperature_6": {
      "repr": "20128",
      "value": 12.8,
      "spoken": "one two point eight"
    },
    "pressure_tendency": {
      "repr": "56008",
      "tendency": "Decreasing, then steady",
      "change": 0.8
    },
    "precip_36_hours": null,
    "precip_24_hours": null,
    "sunshine_minutes": null,
    "codes": [
      {
        "repr": "AO2",
        "value": "Automated with precipitation sensor"
      }
    ],
    "dewpoint_decimal": {
      "repr": "0117",
      "value": 11.7,
      "spoken": "one one point seven"
    },
    "maximum_temperature_24": null,
    "minimum_temperature_24": null,
    "precip_hourly": null,
    "sea_level_pressure": {
      "repr": "SLP154",
      "value": 1015.4,
      "spoken": "one zero one five point four"
    },
    "snow_depth": null,
    "temperature_decimal": {
      "repr": "0161",
      "value": 16.1,
      "spoken": "one six point one"
    }
  },
  "runway_visibility": [],
  "temperature": {
    "repr": "16",
    "value": 16,
    "spoken": "one six"
  },
  "wind_variable_direction": [],
  "density_altitude": 258,
  "pressure_altitude": 92,
  "units": {
    "accumulation": "in",
    "altimeter": "inHg",
    "altitude": "ft",
    "temperature": "C",
    "visibility": "sm",
    "wind_speed": "kt"
  }
}
