{
  "meta": {
    "timestamp": "2022-11-25T04:46:24.697443Z",
    "stations_updated": "2022-09-05"
  },
  "altimeter": {
    "repr": "A3019",
    "value": 30.19,
    "spoken": "three zero point one nine"
  },
  "clouds": [],
  "flight_rules": "VFR",
  "other": [],
  "visibility": {
    "repr": "10",
    "value": 10,
    "spoken": "one zero"
  },
  "wind_direction": {
    "repr": "350",
    "value": 350,
    "spoken": "three five zero"
  },
  "wind_gust": null,
  "wind_speed": {
    "repr": "03",
    "value": 3,
    "spoken": "three"
  },
  "wx_codes": [],
  "raw": "KAWO 250356Z AUTO 35003KT 10SM CLR 05/04 A3019 RMK AO2 SLP227 T00500039",
  "sanitized": "KAWO 250356Z 35003KT 10SM 05/04 A3019 RMK AO2 SLP227 T00500039",
  "station": "KAWO",
  "time": {
    "repr": "250356Z",
    "dt": "2022-11-25T03:56:00Z"
  },
  "remarks": "RMK AO2 SLP227 T00500039",
  "dewpoint": {
    "repr": "04",
    "value": 4,
    "spoken": "four"
  },
  "relative_humidity": 0.9259043989455392,
  "remarks_info": {
    "maximum_temperature_6": null,
    "minimum_temperature_6": null,
    "pressure_tendency": null,
    "precip_36_hours": null,
    "precip_24_hours": null,
    "sunshine_minutes": null,
    "codes": [
      {
        "repr": "AO2",
        "value": "Automated with precipitation sensor"
      }
    ],
    "dewpoint_decimal": {
      "repr": "0039",
      "value": 3.9,
      "spoken": "three point nine"
    },
    "maximum_temperature_24": null,
    "minimum_temperature_24": null,
    "precip_hourly": null,
    "sea_level_pressure": {
      "repr": "SLP227",
      "value": 1022.7,
      "spoken": "one zero two two point seven"
    },
    "snow_depth": null,
    "temperature_decimal": {
      "repr": "0050",
      "value": 5,
      "spoken": "five point zero"
    }
  },
  "runway_visibility": [],
  "temperature": {
    "repr": "05",
    "value": 5,
    "spoken": "five"
  },
  "wind_variable_direction": [],
  "density_altitude": -1294,
  "pressure_altitude": -128,
  "units": {
    "accumulation": "in",
    "altimeter": "inHg",
    "altitude": "ft",
    "temperature": "C",
    "visibility": "sm",
    "wind_speed": "kt"
  }
}
