{
  "meta": {
    "timestamp": "2023-07-05T00:35:54.573195Z",
    "stations_updated": "2023-06-06"
  },
  "altimeter": {
    "repr": "A3001",
    "value": 30.01,
    "spoken": "three zero point zero one"
  },
  "clouds": [],
  "flight_rules": "VFR",
  "other": [],
  "visibility": {
    "repr": "10",
    "value": 10,
    "spoken": "one zero"
  },
  "wind_direction": {
    "repr": "300",
    "value": 300,
    "spoken": "three zero zero"
  },
  "wind_gust": null,
  "wind_speed": {
    "repr": "10",
    "value": 10,
    "spoken": "one zero"
  },
  "wx_codes": [],
  "raw": "KAWO 042356Z AUTO 30010KT 10SM CLR 28/10 A3001 RMK AO2 SLP166 T02780100 10289 20228 57014",
  "sanitized": "KAWO 042356Z 30010KT 10SM 28/10 A3001 RMK AO2 SLP166 T02780100 10289 20228 57014",
  "station": "KAWO",
  "time": {
    "repr": "042356Z",
    "dt": "2023-07-04T23:56:00Z"
  },
  "remarks": "RMK AO2 SLP166 T02780100 10289 20228 57014",
  "dewpoint": {
    "repr": "10",
    "value": 10,
    "spoken": "one zero"
  },
  "relative_humidity": 0.3283759130871281,
  "remarks_info": {
    "maximum_temperature_6": {
      "repr": "10289",
      "value": 28.9,
      "spoken": "two eight point nine"
    },
    "minimum_temperature_6": {
      "repr": "20228",
      "value": 22.8,
      "spoken": "two two point eight"
    },
    "pressure_tendency": {
      "repr": "57014",
      "tendency": "Decreasing steadily or unsteadily",
      "change": 1.4
    },
    "precip_36_hours": null,
    "precip_24_hours": null,
    "sunshine_minutes": null,
    "codes": [
      {
        "repr": "AO2",
        "value": "Automated with precipitation sensor"
      }
    ],
    "dewpoint_decimal": {
      "repr": "0100",
      "value": 10,
      "spoken": "one zero point zero"
    },
    "maximum_temperature_24": null,
    "minimum_temperature_24": null,
    "precip_hourly": null,
    "sea_level_pressure": {
      "repr": "SLP166",
      "value": 1016.6,
      "spoken": "one zero one six point six"
    },
    "snow_depth": null,
    "temperature_decimal": {
      "repr": "0278",
      "value": 27.8,
      "spoken": "two seven point eight"
    }
  },
  "runway_visibility": [],
  "temperature": {
    "repr": "28",
    "value": 28,
    "spoken": "two eight"
  },
  "wind_variable_direction": [],
  "density_altitude": 1622,
  "pressure_altitude": 52,
  "units": {
    "accumulation": "in",
    "altimeter": "inHg",
    "altitude": "ft",
    "temperature": "C",
    "visibility": "sm",
    "wind_speed": "kt"
  }
}
