{
  "meta": {
    "timestamp": "2023-08-14T00:24:36.752778Z",
    "stations_updated": "2023-08-05",
    "cache-timestamp": "2023-08-14T00:24:05.708000Z"
  },
  "altimeter": {
    "repr": "A3006",
    "value": 30.06,
    "spoken": "three zero point zero six"
  },
  "clouds": [],
  "flight_rules": "VFR",
  "other": [],
  "visibility": {
    "repr": "10",
    "value": 10,
    "spoken": "one zero"
  },
  "wind_direction": {
    "repr": "290",
    "value": 290,
    "spoken": "two nine zero"
  },
  "wind_gust": null,
  "wind_speed": {
    "repr": "13",
    "value": 13,
    "spoken": "one three"
  },
  "wx_codes": [],
  "raw": "KAWO 132356Z AUTO 29013KT 10SM CLR 30/16 A3006 RMK AO2 SLP183 T03000156 10306 20239 56019",
  "sanitized": "KAWO 132356Z 29013KT 10SM 30/16 A3006 RMK AO2 SLP183 T03000156 10306 20239 56019",
  "station": "KAWO",
  "time": {
    "repr": "132356Z",
    "dt": "2023-08-13T23:56:00Z"
  },
  "remarks": "RMK AO2 SLP183 T03000156 10306 20239 56019",
  "dewpoint": {
    "repr": "16",
    "value": 16,
    "spoken": "one six"
  },
  "relative_humidity": 0.4171431883761944,
  "remarks_info": {
    "maximum_temperature_6": {
      "repr": "10306",
      "value": 30.6,
      "spoken": "three zero point six"
    },
    "minimum_temperature_6": {
      "repr": "20239",
      "value": 23.9,
      "spoken": "two three point nine"
    },
    "pressure_tendency": {
      "repr": "56019",
      "tendency": "Decreasing, then steady",
      "change": 1.9
    },
    "precip_36_hours": null,
    "precip_24_hours": null,
    "sunshine_minutes": null,
    "codes": [
      {
        "repr": "AO2",
        "value": "Automated with precipitation sensor"
      }
    ],
    "dewpoint_decimal": {
      "repr": "0156",
      "value": 15.6,
      "spoken": "one five point six"
    },
    "maximum_temperature_24": null,
    "minimum_temperature_24": null,
    "precip_hourly": null,
    "sea_level_pressure": {
      "repr": "SLP183",
      "value": 1018.3,
      "spoken": "one zero one eight point three"
    },
    "snow_depth": null,
    "temperature_decimal": {
      "repr": "0300",
      "value": 30,
      "spoken": "three zero point zero"
    }
  },
  "runway_visibility": [],
  "temperature": {
    "repr": "30",
    "value": 30,
    "spoken": "three zero"
  },
  "wind_variable_direction": [],
  "density_altitude": 1836,
  "pressure_altitude": 2,
  "units": {
    "accumulation": "in",
    "altimeter": "inHg",
    "altitude": "ft",
    "temperature": "C",
    "visibility": "sm",
    "wind_speed": "kt"
  }
}
