{
  "meta": {
    "timestamp": "2023-09-16T00:23:52.453675Z",
    "stations_updated": "2023-08-05"
  },
  "altimeter": {
    "repr": "A2995",
    "value": 29.95,
    "spoken": "two nine point nine five"
  },
  "clouds": [],
  "flight_rules": "VFR",
  "other": [],
  "visibility": {
    "repr": "10",
    "value": 10,
    "spoken": "one zero"
  },
  "wind_direction": {
    "repr": "330",
    "value": 330,
    "spoken": "three three zero"
  },
  "wind_gust": null,
  "wind_speed": {
    "repr": "07",
    "value": 7,
    "spoken": "seven"
  },
  "wx_codes": [],
  "raw": "KAWO 152356Z AUTO 33007KT 10SM CLR 28/12 A2995 RMK AO2 SLP144 T02780117 10289 20211 56020",
  "sanitized": "KAWO 152356Z 33007KT 10SM 28/12 A2995 RMK AO2 SLP144 T02780117 10289 20211 56020",
  "station": "KAWO",
  "time": {
    "repr": "152356Z",
    "dt": "2023-09-15T23:56:00Z"
  },
  "remarks": "RMK AO2 SLP144 T02780117 10289 20211 56020",
  "dewpoint": {
    "repr": "12",
    "value": 12,
    "spoken": "one two"
  },
  "relative_humidity": 0.3676838287524064,
  "remarks_info": {
    "maximum_temperature_6": {
      "repr": "10289",
      "value": 28.9,
      "spoken": "two eight point nine"
    },
    "minimum_temperature_6": {
      "repr": "20211",
      "value": 21.1,
      "spoken": "two one point one"
    },
    "pressure_tendency": {
      "repr": "56020",
      "tendency": "Decreasing, then steady",
      "change": 2
    },
    "precip_36_hours": null,
    "precip_24_hours": null,
    "sunshine_minutes": null,
    "codes": [
      {
        "repr": "AO2",
        "value": "Automated with precipitation sensor"
      }
    ],
    "dewpoint_decimal": {
      "repr": "0117",
      "value": 11.7,
      "spoken": "one one point seven"
    },
    "maximum_temperature_24": null,
    "minimum_temperature_24": null,
    "precip_hourly": null,
    "sea_level_pressure": {
      "repr": "SLP144",
      "value": 1014.4,
      "spoken": "one zero one four point four"
    },
    "snow_depth": null,
    "temperature_decimal": {
      "repr": "0278",
      "value": 27.8,
      "spoken": "two seven point eight"
    }
  },
  "runway_visibility": [],
  "temperature": {
    "repr": "28",
    "value": 28,
    "spoken": "two eight"
  },
  "wind_variable_direction": [],
  "density_altitude": 1682,
  "pressure_altitude": 112,
  "units": {
    "accumulation": "in",
    "altimeter": "inHg",
    "altitude": "ft",
    "temperature": "C",
    "visibility": "sm",
    "wind_speed": "kt"
  }
}
