{
  "meta": {
    "timestamp": "2023-10-26T00:24:36.886968Z",
    "stations_updated": "2023-10-01",
    "cache-timestamp": "2023-10-26T00:24:04.533000Z"
  },
  "altimeter": {
    "repr": "A2996",
    "value": 29.96,
    "spoken": "two nine point nine six"
  },
  "clouds": [
    {
      "repr": "SCT029",
      "type": "SCT",
      "altitude": 29,
      "modifier": null
    }
  ],
  "flight_rules": "VFR",
  "other": [],
  "visibility": {
    "repr": "10",
    "value": 10,
    "spoken": "one zero"
  },
  "wind_direction": {
    "repr": "310",
    "value": 310,
    "spoken": "three one zero"
  },
  "wind_gust": null,
  "wind_speed": {
    "repr": "08",
    "value": 8,
    "spoken": "eight"
  },
  "wx_codes": [],
  "raw": "KAWO 252356Z AUTO 31008KT 10SM SCT029 09/04 A2996 RMK AO2 SLP151 60000 T00940039 10111 20067 53017",
  "sanitized": "KAWO 252356Z 31008KT 10SM SCT029 09/04 A2996 RMK AO2 SLP151 60000 T00940039 10111 20067 53017",
  "station": "KAWO",
  "time": {
    "repr": "252356Z",
    "dt": "2023-10-25T23:56:00Z"
  },
  "remarks": "RMK AO2 SLP151 60000 T00940039 10111 20067 53017",
  "dewpoint": {
    "repr": "04",
    "value": 4,
    "spoken": "four"
  },
  "relative_humidity": 0.6850766702695293,
  "remarks_info": {
    "maximum_temperature_6": {
      "repr": "10111",
      "value": 11.1,
      "spoken": "one one point one"
    },
    "minimum_temperature_6": {
      "repr": "20067",
      "value": 6.7,
      "spoken": "six point seven"
    },
    "pressure_tendency": {
      "repr": "53017",
      "tendency": "Decreasing or steady, then increasing",
      "change": 1.7
    },
    "precip_36_hours": {
      "repr": "60000",
      "value": 0,
      "spoken": "zero"
    },
    "precip_24_hours": null,
    "sunshine_minutes": null,
    "codes": [
      {
        "repr": "AO2",
        "value": "Automated with precipitation sensor"
      }
    ],
    "dewpoint_decimal": {
      "repr": "0039",
      "value": 3.9,
      "spoken": "three point nine"
    },
    "maximum_temperature_24": null,
    "minimum_temperature_24": null,
    "precip_hourly": null,
    "sea_level_pressure": {
      "repr": "SLP151",
      "value": 1015.1,
      "spoken": "one zero one five point one"
    },
    "snow_depth": null,
    "temperature_decimal": {
      "repr": "0094",
      "value": 9.4,
      "spoken": "nine point four"
    }
  },
  "runway_visibility": [],
  "temperature": {
    "repr": "09",
    "value": 9,
    "spoken": "nine"
  },
  "wind_variable_direction": [],
  "density_altitude": -536,
  "pressure_altitude": 102,
  "units": {
    "accumulation": "in",
    "altimeter": "inHg",
    "altitude": "ft",
    "temperature": "C",
    "visibility": "sm",
    "wind_speed": "kt"
  }
}
