{
  "altimeter": {
    "repr": "A2998",
    "spoken": "two nine point nine eight",
    "value": 29.98
  },
  "clouds": [
    {
      "altitude": 1,
      "modifier": null,
      "repr": "SCT001",
      "type": "SCT"
    }
  ],
  "density_altitude": -2044,
  "dewpoint": {
    "repr": "M04",
    "spoken": "minus four",
    "value": -4
  },
  "flight_rules": "IFR",
  "meta": {
    "cache-timestamp": "2023-11-15T11:40:04.868000Z",
    "stations_updated": "2023-10-28",
    "timestamp": "2023-11-15T11:40:38.616425Z"
  },
  "other": [],
  "pressure_altitude": 82,
  "raw": "KAWO 151129Z AUTO 00000KT 2 1/2SM BR SCT001 M03/M04 A2998 RMK AO2 VIS 3/4V5 FZRANO",
  "relative_humidity": 0.9280227586111668,
  "remarks": "RMK AO2 VIS 3/4V5 FZRANO",
  "remarks_info": {
    "codes": [
      {
        "repr": "AO2",
        "value": "Automated with precipitation sensor"
      },
      {
        "repr": "FZRANO",
        "value": "Freezing rain information not available"
      }
    ],
    "dewpoint_decimal": null,
    "maximum_temperature_24": null,
    "maximum_temperature_6": null,
    "minimum_temperature_24": null,
    "minimum_temperature_6": null,
    "precip_24_hours": null,
    "precip_36_hours": null,
    "precip_hourly": null,
    "pressure_tendency": null,
    "sea_level_pressure": null,
    "snow_depth": null,
    "sunshine_minutes": null,
    "temperature_decimal": null
  },
  "runway_visibility": [],
  "sanitized": "KAWO 151129Z 00000KT 2 1/2SM BR SCT001 M03/M04 A2998 RMK AO2 VIS 3/4V5 FZRANO",
  "station": "KAWO",
  "temperature": {
    "repr": "M03",
    "spoken": "minus three",
    "value": -3
  },
  "time": {
    "dt": "2023-11-15T11:29:00Z",
    "repr": "151129Z"
  },
  "units": {
    "accumulation": "in",
    "altimeter": "inHg",
    "altitude": "ft",
    "temperature": "C",
    "visibility": "sm",
    "wind_speed": "kt"
  },
  "visibility": {
    "denominator": 2,
    "normalized": "2 1/2",
    "numerator": 5,
    "repr": "5/2",
    "spoken": "two and one half",
    "value": 2.5
  },
  "wind_direction": {
    "repr": "000",
    "spoken": "zero zero zero",
    "value": 0
  },
  "wind_gust": null,
  "wind_speed": {
    "repr": "00",
    "spoken": "zero",
    "value": 0
  },
  "wind_variable_direction": [],
  "wx_codes": [
    {
      "repr": "BR",
      "value": "Mist"
    }
  ]
}
