{
  "altimeter": {
    "repr": "A3025",
    "spoken": "three zero point two five",
    "value": 30.25
  },
  "clouds": [
    {
      "altitude": 18,
      "modifier": null,
      "repr": "BKN018",
      "type": "BKN"
    },
    {
      "altitude": 26,
      "modifier": null,
      "repr": "OVC026",
      "type": "OVC"
    }
  ],
  "density_altitude": -682,
  "dewpoint": {
    "repr": "07",
    "spoken": "seven",
    "value": 7
  },
  "flight_rules": "MVFR",
  "meta": {
    "cache-timestamp": "2024-05-19T17:40:05.262000Z",
    "stations_updated": "2024-05-13",
    "timestamp": "2024-05-19T17:40:36.873567Z"
  },
  "other": [],
  "pressure_altitude": -188,
  "raw": "KAWO 191656Z AUTO 32004KT 10SM BKN018 OVC026 11/07 A3025 RMK AO2 RAE40 SLP249 P0000 T01060067",
  "relative_humidity": 0.7680182474943936,
  "remarks": "RMK AO2 RAE40 SLP249 P0000 T01060067",
  "remarks_info": {
    "codes": [
      {
        "repr": "AO2",
        "value": "Automated with precipitation sensor"
      },
      {
        "repr": "P0000",
        "value": "Trace amount of rain in the last hour"
      },
      {
        "repr": "RAE40",
        "value": "Rain ended at :40"
      }
    ],
    "dewpoint_decimal": {
      "repr": "0067",
      "spoken": "six point seven",
      "value": 6.7
    },
    "maximum_temperature_24": null,
    "maximum_temperature_6": null,
    "minimum_temperature_24": null,
    "minimum_temperature_6": null,
    "precip_24_hours": null,
    "precip_36_hours": null,
    "precip_hourly": null,
    "pressure_tendency": null,
    "sea_level_pressure": {
      "repr": "SLP249",
      "spoken": "one zero two four point nine",
      "value": 1024.9
    },
    "snow_depth": null,
    "sunshine_minutes": null,
    "temperature_decimal": {
      "repr": "0106",
      "spoken": "one zero point six",
      "value": 10.6
    }
  },
  "runway_visibility": [],
  "sanitized": "KAWO 191656Z 32004KT 10SM BKN018 OVC026 11/07 A3025 RMK AO2 RAE40 SLP249 P0000 T01060067",
  "station": "KAWO",
  "temperature": {
    "repr": "11",
    "spoken": "one one",
    "value": 11
  },
  "time": {
    "dt": "2024-05-19T16:56:00Z",
    "repr": "191656Z"
  },
  "units": {
    "accumulation": "in",
    "altimeter": "inHg",
    "altitude": "ft",
    "temperature": "C",
    "visibility": "sm",
    "wind_speed": "kt"
  },
  "visibility": {
    "repr": "10",
    "spoken": "one zero",
    "value": 10
  },
  "wind_direction": {
    "repr": "320",
    "spoken": "three two zero",
    "value": 320
  },
  "wind_gust": null,
  "wind_speed": {
    "repr": "04",
    "spoken": "four",
    "value": 4
  },
  "wind_variable_direction": [],
  "wx_codes": []
}
