{
  "altimeter": {
    "repr": "A3019",
    "spoken": "three zero point one nine",
    "value": 30.19
  },
  "clouds": [
    {
      "altitude": 20,
      "modifier": null,
      "repr": "SCT020",
      "type": "SCT"
    },
    {
      "altitude": 28,
      "modifier": null,
      "repr": "BKN028",
      "type": "BKN"
    },
    {
      "altitude": 33,
      "modifier": null,
      "repr": "OVC033",
      "type": "OVC"
    }
  ],
  "density_altitude": -958,
  "dewpoint": {
    "repr": "06",
    "spoken": "six",
    "value": 6
  },
  "flight_rules": "MVFR",
  "meta": {
    "cache-timestamp": "2024-04-21T05:26:02.504000Z",
    "stations_updated": "2024-01-01",
    "timestamp": "2024-04-21T05:26:19.242441Z"
  },
  "other": [],
  "pressure_altitude": -128,
  "raw": "KAWO 210456Z AUTO 36008KT 10SM -RA SCT020 BKN028 OVC033 08/06 A3019 RMK AO2 RAB0359 SLP229 P0000 T00780056",
  "relative_humidity": 0.859663717525656,
  "remarks": "RMK AO2 RAB0359 SLP229 P0000 T00780056",
  "remarks_info": {
    "codes": [
      {
        "repr": "AO2",
        "value": "Automated with precipitation sensor"
      },
      {
        "repr": "P0000",
        "value": "Trace amount of rain in the last hour"
      }
    ],
    "dewpoint_decimal": {
      "repr": "0056",
      "spoken": "five point six",
      "value": 5.6
    },
    "maximum_temperature_24": null,
    "maximum_temperature_6": null,
    "minimum_temperature_24": null,
    "minimum_temperature_6": null,
    "precip_24_hours": null,
    "precip_36_hours": null,
    "precip_hourly": null,
    "pressure_tendency": null,
    "sea_level_pressure": {
      "repr": "SLP229",
      "spoken": "one zero two two point nine",
      "value": 1022.9
    },
    "snow_depth": null,
    "sunshine_minutes": null,
    "temperature_decimal": {
      "repr": "0078",
      "spoken": "seven point eight",
      "value": 7.8
    }
  },
  "runway_visibility": [],
  "sanitized": "KAWO 210456Z 36008KT 10SM -RA SCT020 BKN028 OVC033 08/06 A3019 RMK AO2 RAB0359 SLP229 P0000 T00780056",
  "station": "KAWO",
  "temperature": {
    "repr": "08",
    "spoken": "eight",
    "value": 8
  },
  "time": {
    "dt": "2024-04-21T04:56:00Z",
    "repr": "210456Z"
  },
  "units": {
    "accumulation": "in",
    "altimeter": "inHg",
    "altitude": "ft",
    "temperature": "C",
    "visibility": "sm",
    "wind_speed": "kt"
  },
  "visibility": {
    "repr": "10",
    "spoken": "one zero",
    "value": 10
  },
  "wind_direction": {
    "repr": "360",
    "spoken": "three six zero",
    "value": 360
  },
  "wind_gust": null,
  "wind_speed": {
    "repr": "08",
    "spoken": "eight",
    "value": 8
  },
  "wind_variable_direction": [],
  "wx_codes": [
    {
      "repr": "-RA",
      "value": "Light Rain"
    }
  ]
}
