{
  "meta": {
    "timestamp": "2023-02-24T06:07:52.466669Z",
    "stations_updated": "2023-01-30"
  },
  "altimeter": {
    "repr": "A3002",
    "value": 30.02,
    "spoken": "three zero point zero two"
  },
  "clouds": [],
  "flight_rules": "VFR",
  "other": [],
  "visibility": {
    "repr": "10",
    "value": 10,
    "spoken": "one zero"
  },
  "wind_direction": {
    "repr": "240",
    "value": 240,
    "spoken": "two four zero"
  },
  "wind_gust": null,
  "wind_speed": {
    "repr": "03",
    "value": 3,
    "spoken": "three"
  },
  "wx_codes": [],
  "raw": "KAWO 240556Z AUTO 24003KT 10SM CLR M04/M09 A3002 RMK AO2 SLP171 T10391094 10017 21044 53028 FZRANO",
  "sanitized": "KAWO 240556Z 24003KT 10SM M04/M09 A3002 RMK AO2 SLP171 T10391094 10017 21044 53028 FZRANO",
  "station": "KAWO",
  "time": {
    "repr": "240556Z",
    "dt": "2023-02-24T05:56:00Z"
  },
  "remarks": "RMK AO2 SLP171 T10391094 10017 21044 53028 FZRANO",
  "dewpoint": {
    "repr": "M09",
    "value": -9,
    "spoken": "minus nine"
  },
  "relative_humidity": 0.6557993282698458,
  "remarks_info": {
    "maximum_temperature_6": {
      "repr": "10017",
      "value": 1.7,
      "spoken": "one point seven"
    },
    "minimum_temperature_6": {
      "repr": "21044",
      "value": -4.4,
      "spoken": "minus four point four"
    },
    "pressure_tendency": {
      "repr": "53028",
      "tendency": "Decreasing or steady, then increasing",
      "change": 2.8
    },
    "precip_36_hours": null,
    "precip_24_hours": null,
    "sunshine_minutes": null,
    "codes": [
      {
        "repr": "AO2",
        "value": "Automated with precipitation sensor"
      },
      {
        "repr": "FZRANO",
        "value": "Freezing rain information not available"
      }
    ],
    "dewpoint_decimal": {
      "repr": "1094",
      "value": -9.4,
      "spoken": "minus nine point four"
    },
    "maximum_temperature_24": null,
    "minimum_temperature_24": null,
    "precip_hourly": null,
    "sea_level_pressure": {
      "repr": "SLP171",
      "value": 1017.1,
      "spoken": "one zero one seven point one"
    },
    "snow_depth": null,
    "temperature_decimal": {
      "repr": "1039",
      "value": -3.9,
      "spoken": "minus three point nine"
    }
  },
  "runway_visibility": [],
  "temperature": {
    "repr": "M04",
    "value": -4,
    "spoken": "minus four"
  },
  "wind_variable_direction": [],
  "density_altitude": -2192,
  "pressure_altitude": 42,
  "units": {
    "accumulation": "in",
    "altimeter": "inHg",
    "altitude": "ft",
    "temperature": "C",
    "visibility": "sm",
    "wind_speed": "kt"
  }
}
