{
  "meta": {
    "timestamp": "2023-10-28T12:08:16.787074Z",
    "stations_updated": "2023-10-01",
    "cache-timestamp": "2023-10-28T12:08:06.066000Z"
  },
  "altimeter": {
    "repr": "A3054",
    "value": 30.54,
    "spoken": "three zero point five four"
  },
  "clouds": [],
  "flight_rules": "VFR",
  "other": [],
  "visibility": {
    "repr": "10",
    "value": 10,
    "spoken": "one zero"
  },
  "wind_direction": {
    "repr": "140",
    "value": 140,
    "spoken": "one four zero"
  },
  "wind_gust": null,
  "wind_speed": {
    "repr": "03",
    "value": 3,
    "spoken": "three"
  },
  "wx_codes": [],
  "raw": "KAWO 281156Z AUTO 14003KT 10SM CLR M04/M05 A3054 RMK AO2 SLP348 T10441050 11006 21044 53007 FZRANO",
  "sanitized": "KAWO 281156Z 14003KT 10SM M04/M05 A3054 RMK AO2 SLP348 T10441050 11006 21044 53007 FZRANO",
  "station": "KAWO",
  "time": {
    "repr": "281156Z",
    "dt": "2023-10-28T11:56:00Z"
  },
  "remarks": "RMK AO2 SLP348 T10441050 11006 21044 53007 FZRANO",
  "dewpoint": {
    "repr": "M05",
    "value": -5,
    "spoken": "minus five"
  },
  "relative_humidity": 0.955738569324894,
  "remarks_info": {
    "maximum_temperature_6": {
      "repr": "11006",
      "value": -0.6,
      "spoken": "minus zero point six"
    },
    "minimum_temperature_6": {
      "repr": "21044",
      "value": -4.4,
      "spoken": "minus four point four"
    },
    "pressure_tendency": {
      "repr": "53007",
      "tendency": "Decreasing or steady, then increasing",
      "change": 0.7
    },
    "precip_36_hours": null,
    "precip_24_hours": null,
    "sunshine_minutes": null,
    "codes": [
      {
        "repr": "AO2",
        "value": "Automated with precipitation sensor"
      },
      {
        "repr": "FZRANO",
        "value": "Freezing rain information not available"
      }
    ],
    "dewpoint_decimal": {
      "repr": "1050",
      "value": -5,
      "spoken": "minus five point zero"
    },
    "maximum_temperature_24": null,
    "minimum_temperature_24": null,
    "precip_hourly": null,
    "sea_level_pressure": {
      "repr": "SLP348",
      "value": 1034.8,
      "spoken": "one zero three four point eight"
    },
    "snow_depth": null,
    "temperature_decimal": {
      "repr": "1044",
      "value": -4.4,
      "spoken": "minus four point four"
    }
  },
  "runway_visibility": [],
  "temperature": {
    "repr": "M04",
    "value": -4,
    "spoken": "minus four"
  },
  "wind_variable_direction": [],
  "density_altitude": -2772,
  "pressure_altitude": -478,
  "units": {
    "accumulation": "in",
    "altimeter": "inHg",
    "altitude": "ft",
    "temperature": "C",
    "visibility": "sm",
    "wind_speed": "kt"
  }
}
