{
  "meta": {
    "timestamp": "2023-01-16T06:32:23.344827Z",
    "stations_updated": "2022-12-27"
  },
  "altimeter": {
    "repr": "A2951",
    "value": 29.51,
    "spoken": "two nine point five one"
  },
  "clouds": [
    {
      "repr": "OVC020",
      "type": "OVC",
      "altitude": 20,
      "modifier": null
    }
  ],
  "flight_rules": "MVFR",
  "other": [],
  "visibility": {
    "repr": "10",
    "value": 10,
    "spoken": "one zero"
  },
  "wind_direction": {
    "repr": "130",
    "value": 130,
    "spoken": "one three zero"
  },
  "wind_gust": null,
  "wind_speed": {
    "repr": "18",
    "value": 18,
    "spoken": "one eight"
  },
  "wx_codes": [
    {
      "repr": "-RA",
      "value": "Light Rain"
    }
  ],
  "raw": "KAWO 160556Z AUTO 13018KT 10SM -RA OVC020 07/06 A2951 RMK AO2 SLP996 P0009 60048 T00670061 10078 20067 51022",
  "sanitized": "KAWO 160556Z 13018KT 10SM -RA OVC020 07/06 A2951 RMK AO2 SLP996 P0009 60048 T00670061 10078 20067 51022",
  "station": "KAWO",
  "time": {
    "repr": "160556Z",
    "dt": "2023-01-16T05:56:00Z"
  },
  "remarks": "RMK AO2 SLP996 P0009 60048 T00670061 10078 20067 51022",
  "dewpoint": {
    "repr": "06",
    "value": 6,
    "spoken": "six"
  },
  "relative_humidity": 0.9595042676817481,
  "remarks_info": {
    "maximum_temperature_6": {
      "repr": "10078",
      "value": 7.8,
      "spoken": "seven point eight"
    },
    "minimum_temperature_6": {
      "repr": "20067",
      "value": 6.7,
      "spoken": "six point seven"
    },
    "pressure_tendency": {
      "repr": "51022",
      "tendency": "Increasing, then steady",
      "change": 2.2
    },
    "precip_36_hours": {
      "repr": "60048",
      "value": 0.48,
      "spoken": "zero point four eight"
    },
    "precip_24_hours": null,
    "sunshine_minutes": null,
    "codes": [
      {
        "repr": "AO2",
        "value": "Automated with precipitation sensor"
      }
    ],
    "dewpoint_decimal": {
      "repr": "0061",
      "value": 6.1,
      "spoken": "six point one"
    },
    "maximum_temperature_24": null,
    "minimum_temperature_24": null,
    "precip_hourly": {
      "repr": "P0009",
      "value": 0.09,
      "spoken": "zero point zero nine"
    },
    "sea_level_pressure": {
      "repr": "SLP996",
      "value": 999.6,
      "spoken": "nine nine nine point six"
    },
    "snow_depth": null,
    "temperature_decimal": {
      "repr": "0067",
      "value": 6.7,
      "spoken": "six point seven"
    }
  },
  "runway_visibility": [],
  "temperature": {
    "repr": "07",
    "value": 7,
    "spoken": "seven"
  },
  "wind_variable_direction": [],
  "density_altitude": -410,
  "pressure_altitude": 552,
  "units": {
    "accumulation": "in",
    "altimeter": "inHg",
    "altitude": "ft",
    "temperature": "C",
    "visibility": "sm",
    "wind_speed": "kt"
  }
}
