{
  "meta": {
    "timestamp": "2023-05-19T08:26:53.850061Z",
    "stations_updated": "2023-03-11",
    "cache-timestamp": "2023-05-19T08:26:05.303000Z"
  },
  "altimeter": {
    "repr": "A3009",
    "value": 30.09,
    "spoken": "three zero point zero nine"
  },
  "clouds": [],
  "flight_rules": "VFR",
  "other": [],
  "visibility": {
    "repr": "10",
    "value": 10,
    "spoken": "one zero"
  },
  "wind_direction": {
    "repr": "320",
    "value": 320,
    "spoken": "three two zero"
  },
  "wind_gust": null,
  "wind_speed": {
    "repr": "05",
    "value": 5,
    "spoken": "five"
  },
  "wx_codes": [],
  "raw": "KAWO 190756Z AUTO 32005KT 10SM CLR 12/11 A3009 RMK AO2 SLP194 T01220106 402390117",
  "sanitized": "KAWO 190756Z 32005KT 10SM 12/11 A3009 RMK AO2 SLP194 T01220106 402390117",
  "station": "KAWO",
  "time": {
    "repr": "190756Z",
    "dt": "2023-05-19T07:56:00Z"
  },
  "remarks": "RMK AO2 SLP194 T01220106 402390117",
  "dewpoint": {
    "repr": "11",
    "value": 11,
    "spoken": "one one"
  },
  "relative_humidity": 0.8994654196028143,
  "remarks_info": {
    "maximum_temperature_6": null,
    "minimum_temperature_6": null,
    "pressure_tendency": null,
    "precip_36_hours": null,
    "precip_24_hours": null,
    "sunshine_minutes": null,
    "codes": [
      {
        "repr": "AO2",
        "value": "Automated with precipitation sensor"
      }
    ],
    "dewpoint_decimal": {
      "repr": "0106",
      "value": 10.6,
      "spoken": "one zero point six"
    },
    "maximum_temperature_24": {
      "repr": "0239",
      "value": 23.9,
      "spoken": "two three point nine"
    },
    "minimum_temperature_24": {
      "repr": "0117",
      "value": 11.7,
      "spoken": "one one point seven"
    },
    "precip_hourly": null,
    "sea_level_pressure": {
      "repr": "SLP194",
      "value": 1019.4,
      "spoken": "one zero one nine point four"
    },
    "snow_depth": null,
    "temperature_decimal": {
      "repr": "0122",
      "value": 12.2,
      "spoken": "one two point two"
    }
  },
  "runway_visibility": [],
  "temperature": {
    "repr": "12",
    "value": 12,
    "spoken": "one two"
  },
  "wind_variable_direction": [],
  "density_altitude": -330,
  "pressure_altitude": -28,
  "units": {
    "accumulation": "in",
    "altimeter": "inHg",
    "altitude": "ft",
    "temperature": "C",
    "visibility": "sm",
    "wind_speed": "kt"
  }
}
