{
  "meta": {
    "timestamp": "2023-05-26T20:23:13.884820Z",
    "stations_updated": "2023-03-11"
  },
  "altimeter": {
    "repr": "A2991",
    "value": 29.91,
    "spoken": "two nine point nine one"
  },
  "clouds": [],
  "flight_rules": "VFR",
  "other": [],
  "visibility": {
    "repr": "10",
    "value": 10,
    "spoken": "one zero"
  },
  "wind_direction": {
    "repr": "300",
    "value": 300,
    "spoken": "three zero zero"
  },
  "wind_gust": null,
  "wind_speed": {
    "repr": "09",
    "value": 9,
    "spoken": "nine"
  },
  "wx_codes": [],
  "raw": "KAWO 261956Z AUTO 30009KT 10SM CLR 24/14 A2991 RMK AO2 SLP130 T02390139",
  "sanitized": "KAWO 261956Z 30009KT 10SM 24/14 A2991 RMK AO2 SLP130 T02390139",
  "station": "KAWO",
  "time": {
    "repr": "261956Z",
    "dt": "2023-05-26T19:56:00Z"
  },
  "remarks": "RMK AO2 SLP130 T02390139",
  "dewpoint": {
    "repr": "14",
    "value": 14,
    "spoken": "one four"
  },
  "relative_humidity": 0.5351955249441682,
  "remarks_info": {
    "maximum_temperature_6": null,
    "minimum_temperature_6": null,
    "pressure_tendency": null,
    "precip_36_hours": null,
    "precip_24_hours": null,
    "sunshine_minutes": null,
    "codes": [
      {
        "repr": "AO2",
        "value": "Automated with precipitation sensor"
      }
    ],
    "dewpoint_decimal": {
      "repr": "0139",
      "value": 13.9,
      "spoken": "one three point nine"
    },
    "maximum_temperature_24": null,
    "minimum_temperature_24": null,
    "precip_hourly": null,
    "sea_level_pressure": {
      "repr": "SLP130",
      "value": 1013,
      "spoken": "one zero one three point zero"
    },
    "snow_depth": null,
    "temperature_decimal": {
      "repr": "0239",
      "value": 23.9,
      "spoken": "two three point nine"
    }
  },
  "runway_visibility": [],
  "temperature": {
    "repr": "24",
    "value": 24,
    "spoken": "two four"
  },
  "wind_variable_direction": [],
  "density_altitude": 1254,
  "pressure_altitude": 152,
  "units": {
    "accumulation": "in",
    "altimeter": "inHg",
    "altitude": "ft",
    "temperature": "C",
    "visibility": "sm",
    "wind_speed": "kt"
  }
}
