{
  "meta": {
    "timestamp": "2023-10-10T05:40:31.131597Z",
    "stations_updated": "2023-10-01",
    "cache-timestamp": "2023-10-10T05:40:05.270000Z"
  },
  "altimeter": {
    "repr": "A2967",
    "value": 29.67,
    "spoken": "two nine point six seven"
  },
  "clouds": [
    {
      "repr": "FEW024",
      "type": "FEW",
      "altitude": 24,
      "modifier": null
    },
    {
      "repr": "SCT029",
      "type": "SCT",
      "altitude": 29,
      "modifier": null
    },
    {
      "repr": "OVC070",
      "type": "OVC",
      "altitude": 70,
      "modifier": null
    }
  ],
  "flight_rules": "VFR",
  "other": [],
  "visibility": {
    "repr": "10",
    "value": 10,
    "spoken": "one zero"
  },
  "wind_direction": {
    "repr": "160",
    "value": 160,
    "spoken": "one six zero"
  },
  "wind_gust": null,
  "wind_speed": {
    "repr": "07",
    "value": 7,
    "spoken": "seven"
  },
  "wx_codes": [],
  "raw": "KAWO 100523Z AUTO 16007KT 10SM FEW024 SCT029 OVC070 14/11 A2967 RMK AO2",
  "sanitized": "KAWO 100523Z 16007KT 10SM FEW024 SCT029 OVC070 14/11 A2967 RMK AO2",
  "station": "KAWO",
  "time": {
    "repr": "100523Z",
    "dt": "2023-10-10T05:23:00Z"
  },
  "remarks": "RMK AO2",
  "dewpoint": {
    "repr": "11",
    "value": 11,
    "spoken": "one one"
  },
  "relative_humidity": 0.8212183738504668,
  "remarks_info": {
    "maximum_temperature_6": null,
    "minimum_temperature_6": null,
    "pressure_tendency": null,
    "precip_36_hours": null,
    "precip_24_hours": null,
    "sunshine_minutes": null,
    "codes": [
      {
        "repr": "AO2",
        "value": "Automated with precipitation sensor"
      }
    ],
    "dewpoint_decimal": null,
    "maximum_temperature_24": null,
    "minimum_temperature_24": null,
    "precip_hourly": null,
    "sea_level_pressure": null,
    "snow_depth": null,
    "temperature_decimal": null
  },
  "runway_visibility": [],
  "temperature": {
    "repr": "14",
    "value": 14,
    "spoken": "one four"
  },
  "wind_variable_direction": [],
  "density_altitude": 306,
  "pressure_altitude": 392,
  "units": {
    "accumulation": "in",
    "altimeter": "inHg",
    "altitude": "ft",
    "temperature": "C",
    "visibility": "sm",
    "wind_speed": "kt"
  }
}
