{
  "meta": {
    "timestamp": "2022-09-19T22:47:32.914766Z",
    "stations_updated": "2022-09-05"
  },
  "altimeter": {
    "repr": "A2986",
    "value": 29.86,
    "spoken": "two nine point eight six"
  },
  "clouds": [],
  "flight_rules": "VFR",
  "other": [],
  "visibility": {
    "repr": "10",
    "value": 10,
    "spoken": "one zero"
  },
  "wind_direction": {
    "repr": "310",
    "value": 310,
    "spoken": "three one zero"
  },
  "wind_gust": null,
  "wind_speed": {
    "repr": "10",
    "value": 10,
    "spoken": "one zero"
  },
  "wx_codes": [],
  "raw": "KAWO 192156Z AUTO 31010KT 10SM CLR 24/09 A2986 RMK AO2 SLP113 T02440089",
  "sanitized": "KAWO 192156Z 31010KT 10SM 24/09 A2986 RMK AO2 SLP113 T02440089",
  "station": "KAWO",
  "time": {
    "repr": "192156Z",
    "dt": "2022-09-19T21:56:00Z"
  },
  "remarks": "RMK AO2 SLP113 T02440089",
  "dewpoint": {
    "repr": "09",
    "value": 9,
    "spoken": "nine"
  },
  "relative_humidity": 0.37295736114817135,
  "remarks_info": {
    "maximum_temperature_6": null,
    "minimum_temperature_6": null,
    "pressure_tendency": null,
    "precip_36_hours": null,
    "precip_24_hours": null,
    "sunshine_minutes": null,
    "codes": [
      {
        "repr": "AO2",
        "value": "Automated with precipitation sensor"
      }
    ],
    "dewpoint_decimal": {
      "repr": "0089",
      "value": 8.9,
      "spoken": "eight point nine"
    },
    "maximum_temperature_24": null,
    "minimum_temperature_24": null,
    "precip_hourly": null,
    "sea_level_pressure": {
      "repr": "SLP113",
      "value": 1011.3,
      "spoken": "one zero one one point three"
    },
    "snow_depth": null,
    "temperature_decimal": {
      "repr": "0244",
      "value": 24.4,
      "spoken": "two four point four"
    }
  },
  "runway_visibility": [],
  "temperature": {
    "repr": "24",
    "value": 24,
    "spoken": "two four"
  },
  "wind_variable_direction": [],
  "density_altitude": 1364,
  "pressure_altitude": 202,
  "units": {
    "accumulation": "in",
    "altimeter": "inHg",
    "altitude": "ft",
    "temperature": "C",
    "visibility": "sm",
    "wind_speed": "kt"
  }
}
