{
  "meta": {
    "timestamp": "2023-08-31T19:20:38.448592Z",
    "stations_updated": "2023-08-05",
    "cache-timestamp": "2023-08-31T19:20:03.453000Z"
  },
  "altimeter": {
    "repr": "A2990",
    "value": 29.9,
    "spoken": "two nine point nine zero"
  },
  "clouds": [
    {
      "repr": "FEW009",
      "type": "FEW",
      "altitude": 9,
      "modifier": null
    },
    {
      "repr": "OVC060",
      "type": "OVC",
      "altitude": 60,
      "modifier": null
    }
  ],
  "flight_rules": "VFR",
  "other": [],
  "visibility": {
    "repr": "10",
    "value": 10,
    "spoken": "one zero"
  },
  "wind_direction": {
    "repr": "310",
    "value": 310,
    "spoken": "three one zero"
  },
  "wind_gust": null,
  "wind_speed": {
    "repr": "06",
    "value": 6,
    "spoken": "six"
  },
  "wx_codes": [],
  "raw": "KAWO 311856Z AUTO 31006KT 10SM FEW009 OVC060 18/15 A2990 RMK AO2 RAE26 SLP127 P0000 T01780150",
  "sanitized": "KAWO 311856Z 31006KT 10SM FEW009 OVC060 18/15 A2990 RMK AO2 RAE26 SLP127 P0000 T01780150",
  "station": "KAWO",
  "time": {
    "repr": "311856Z",
    "dt": "2023-08-31T18:56:00Z"
  },
  "remarks": "RMK AO2 RAE26 SLP127 P0000 T01780150",
  "dewpoint": {
    "repr": "15",
    "value": 15,
    "spoken": "one five"
  },
  "relative_humidity": 0.8366425096923864,
  "remarks_info": {
    "maximum_temperature_6": null,
    "minimum_temperature_6": null,
    "pressure_tendency": null,
    "precip_36_hours": null,
    "precip_24_hours": null,
    "sunshine_minutes": null,
    "codes": [
      {
        "repr": "AO2",
        "value": "Automated with precipitation sensor"
      },
      {
        "repr": "P0000",
        "value": "Trace amount of rain in the last hour"
      },
      {
        "repr": "RAE26",
        "value": "Rain ended at :26"
      }
    ],
    "dewpoint_decimal": {
      "repr": "0150",
      "value": 15,
      "spoken": "one five point zero"
    },
    "maximum_temperature_24": null,
    "minimum_temperature_24": null,
    "precip_hourly": null,
    "sea_level_pressure": {
      "repr": "SLP127",
      "value": 1012.7,
      "spoken": "one zero one two point seven"
    },
    "snow_depth": null,
    "temperature_decimal": {
      "repr": "0178",
      "value": 17.8,
      "spoken": "one seven point eight"
    }
  },
  "runway_visibility": [],
  "temperature": {
    "repr": "18",
    "value": 18,
    "spoken": "one eight"
  },
  "wind_variable_direction": [],
  "density_altitude": 532,
  "pressure_altitude": 162,
  "units": {
    "accumulation": "in",
    "altimeter": "inHg",
    "altitude": "ft",
    "temperature": "C",
    "visibility": "sm",
    "wind_speed": "kt"
  }
}
