{
  "altimeter": {
    "repr": "A3076",
    "spoken": "three zero point seven six",
    "value": 30.76
  },
  "clouds": [],
  "density_altitude": -2068,
  "dewpoint": {
    "repr": "00",
    "spoken": "zero",
    "value": 0
  },
  "flight_rules": "VFR",
  "meta": {
    "cache-timestamp": "2025-01-22T19:00:55.198000Z",
    "stations_updated": "2024-12-02",
    "timestamp": "2025-01-22T19:01:30.797349Z"
  },
  "other": [],
  "pressure_altitude": -698,
  "raw": "KAWO 221856Z AUTO 00000KT 10SM CLR 03/00 A3076 RMK AO2 SLP425 T00330000 $",
  "relative_humidity": 0.7895688567968477,
  "remarks": "RMK AO2 SLP425 T00330000 $",
  "remarks_info": {
    "codes": [
      {
        "repr": "$",
        "value": "ASOS requires maintenance"
      },
      {
        "repr": "AO2",
        "value": "Automated with precipitation sensor"
      }
    ],
    "dewpoint_decimal": {
      "repr": "0000",
      "spoken": "zero",
      "value": 0
    },
    "maximum_temperature_24": null,
    "maximum_temperature_6": null,
    "minimum_temperature_24": null,
    "minimum_temperature_6": null,
    "precip_24_hours": null,
    "precip_36_hours": null,
    "precip_hourly": null,
    "pressure_tendency": null,
    "sea_level_pressure": {
      "repr": "SLP425",
      "spoken": "one zero four two point five",
      "value": 1042.5
    },
    "snow_depth": null,
    "sunshine_minutes": null,
    "temperature_decimal": {
      "repr": "0033",
      "spoken": "three point three",
      "value": 3.3
    }
  },
  "runway_visibility": [],
  "sanitized": "KAWO 221856Z 00000KT 10SM 03/00 A3076 RMK AO2 SLP425 T00330000 $",
  "station": "KAWO",
  "temperature": {
    "repr": "03",
    "spoken": "three",
    "value": 3
  },
  "time": {
    "dt": "2025-01-22T18:56:00Z",
    "repr": "221856Z"
  },
  "units": {
    "accumulation": "in",
    "altimeter": "inHg",
    "altitude": "ft",
    "temperature": "C",
    "visibility": "sm",
    "wind_speed": "kt"
  },
  "visibility": {
    "repr": "10",
    "spoken": "one zero",
    "value": 10
  },
  "wind_direction": {
    "repr": "000",
    "spoken": "zero zero zero",
    "value": 0
  },
  "wind_gust": null,
  "wind_speed": {
    "repr": "00",
    "spoken": "zero",
    "value": 0
  },
  "wind_variable_direction": [],
  "wx_codes": []
}
