{
  "altimeter": {
    "repr": "A2994",
    "spoken": "two nine point nine four",
    "value": 29.94
  },
  "clouds": [
    {
      "altitude": 80,
      "modifier": null,
      "repr": "OVC080",
      "type": "OVC"
    }
  ],
  "density_altitude": -2172,
  "dewpoint": {
    "repr": "M09",
    "spoken": "minus nine",
    "value": -9
  },
  "flight_rules": "VFR",
  "meta": {
    "stations_updated": "2023-10-28",
    "timestamp": "2024-01-12T06:07:39.206272Z"
  },
  "other": [],
  "pressure_altitude": 122,
  "raw": "KAWO 120556Z AUTO 31009KT 10SM OVC080 M04/M09 A2994 RMK AO2 SLP145 60000 T10441094 10006 21044 53025 FZRANO",
  "relative_humidity": 0.6808944924868249,
  "remarks": "RMK AO2 SLP145 60000 T10441094 10006 21044 53025 FZRANO",
  "remarks_info": {
    "codes": [
      {
        "repr": "AO2",
        "value": "Automated with precipitation sensor"
      },
      {
        "repr": "FZRANO",
        "value": "Freezing rain information not available"
      }
    ],
    "dewpoint_decimal": {
      "repr": "1094",
      "spoken": "minus nine point four",
      "value": -9.4
    },
    "maximum_temperature_24": null,
    "maximum_temperature_6": {
      "repr": "10006",
      "spoken": "zero point six",
      "value": 0.6
    },
    "minimum_temperature_24": null,
    "minimum_temperature_6": {
      "repr": "21044",
      "spoken": "minus four point four",
      "value": -4.4
    },
    "precip_24_hours": null,
    "precip_36_hours": {
      "repr": "60000",
      "spoken": "zero",
      "value": 0
    },
    "precip_hourly": null,
    "pressure_tendency": {
      "change": 2.5,
      "repr": "53025",
      "tendency": "Decreasing or steady, then increasing"
    },
    "sea_level_pressure": {
      "repr": "SLP145",
      "spoken": "one zero one four point five",
      "value": 1014.5
    },
    "snow_depth": null,
    "sunshine_minutes": null,
    "temperature_decimal": {
      "repr": "1044",
      "spoken": "minus four point four",
      "value": -4.4
    }
  },
  "runway_visibility": [],
  "sanitized": "KAWO 120556Z 31009KT 10SM OVC080 M04/M09 A2994 RMK AO2 SLP145 60000 T10441094 10006 21044 53025 FZRANO",
  "station": "KAWO",
  "temperature": {
    "repr": "M04",
    "spoken": "minus four",
    "value": -4
  },
  "time": {
    "dt": "2024-01-12T05:56:00Z",
    "repr": "120556Z"
  },
  "units": {
    "accumulation": "in",
    "altimeter": "inHg",
    "altitude": "ft",
    "temperature": "C",
    "visibility": "sm",
    "wind_speed": "kt"
  },
  "visibility": {
    "repr": "10",
    "spoken": "one zero",
    "value": 10
  },
  "wind_direction": {
    "repr": "310",
    "spoken": "three one zero",
    "value": 310
  },
  "wind_gust": null,
  "wind_speed": {
    "repr": "09",
    "spoken": "nine",
    "value": 9
  },
  "wind_variable_direction": [],
  "wx_codes": []
}
