{
  "altimeter": {
    "repr": "A2995",
    "spoken": "two nine point nine five",
    "value": 29.95
  },
  "clouds": [
    {
      "altitude": 16,
      "modifier": null,
      "repr": "SCT016",
      "type": "SCT"
    },
    {
      "altitude": 21,
      "modifier": null,
      "repr": "BKN021",
      "type": "BKN"
    },
    {
      "altitude": 35,
      "modifier": null,
      "repr": "OVC035",
      "type": "OVC"
    }
  ],
  "density_altitude": -814,
  "dewpoint": {
    "repr": "07",
    "spoken": "seven",
    "value": 7
  },
  "flight_rules": "MVFR",
  "meta": {
    "cache-timestamp": "2023-11-13T13:40:05.530000Z",
    "stations_updated": "2023-10-28",
    "timestamp": "2023-11-13T13:40:41.890949Z"
  },
  "other": [],
  "pressure_altitude": 112,
  "raw": "KAWO 131324Z AUTO 00000KT 6SM -RA BR SCT016 BKN021 OVC035 07/07 A2995 RMK AO2 P0001",
  "relative_humidity": 1,
  "remarks": "RMK AO2 P0001",
  "remarks_info": {
    "codes": [
      {
        "repr": "AO2",
        "value": "Automated with precipitation sensor"
      }
    ],
    "dewpoint_decimal": null,
    "maximum_temperature_24": null,
    "maximum_temperature_6": null,
    "minimum_temperature_24": null,
    "minimum_temperature_6": null,
    "precip_24_hours": null,
    "precip_36_hours": null,
    "precip_hourly": {
      "repr": "P0001",
      "spoken": "zero point zero one",
      "value": 0.01
    },
    "pressure_tendency": null,
    "sea_level_pressure": null,
    "snow_depth": null,
    "sunshine_minutes": null,
    "temperature_decimal": null
  },
  "runway_visibility": [],
  "sanitized": "KAWO 131324Z 00000KT 6SM -RA BR SCT016 BKN021 OVC035 07/07 A2995 RMK AO2 P0001",
  "station": "KAWO",
  "temperature": {
    "repr": "07",
    "spoken": "seven",
    "value": 7
  },
  "time": {
    "dt": "2023-11-13T13:24:00Z",
    "repr": "131324Z"
  },
  "units": {
    "accumulation": "in",
    "altimeter": "inHg",
    "altitude": "ft",
    "temperature": "C",
    "visibility": "sm",
    "wind_speed": "kt"
  },
  "visibility": {
    "repr": "6",
    "spoken": "six",
    "value": 6
  },
  "wind_direction": {
    "repr": "000",
    "spoken": "zero zero zero",
    "value": 0
  },
  "wind_gust": null,
  "wind_speed": {
    "repr": "00",
    "spoken": "zero",
    "value": 0
  },
  "wind_variable_direction": [],
  "wx_codes": [
    {
      "repr": "-RA",
      "value": "Light Rain"
    },
    {
      "repr": "BR",
      "value": "Mist"
    }
  ]
}
