{
  "meta": {
    "timestamp": "2022-09-02T23:04:08.616990Z",
    "stations_updated": "2022-07-17"
  },
  "altimeter": {
    "repr": "A2981",
    "value": 29.81,
    "spoken": "two nine point eight one"
  },
  "clouds": [],
  "flight_rules": "VFR",
  "other": [],
  "visibility": {
    "repr": "10",
    "value": 10,
    "spoken": "one zero"
  },
  "wind_direction": {
    "repr": "290",
    "value": 290,
    "spoken": "two nine zero"
  },
  "wind_gust": null,
  "wind_speed": {
    "repr": "10",
    "value": 10,
    "spoken": "one zero"
  },
  "wx_codes": [],
  "raw": "KAWO 022256Z AUTO 29010KT 10SM CLR 26/15 A2981 RMK AO2 SLP098 T02610150",
  "sanitized": "KAWO 022256Z 29010KT 10SM 26/15 A2981 RMK AO2 SLP098 T02610150",
  "station": "KAWO",
  "time": {
    "repr": "022256Z",
    "dt": "2022-09-02T22:56:00Z"
  },
  "remarks": "RMK AO2 SLP098 T02610150",
  "dewpoint": {
    "repr": "15",
    "value": 15,
    "spoken": "one five"
  },
  "relative_humidity": 0.5039411509576671,
  "remarks_info": {
    "maximum_temperature_6": null,
    "minimum_temperature_6": null,
    "pressure_tendency": null,
    "precip_36_hours": null,
    "precip_24_hours": null,
    "sunshine_minutes": null,
    "codes": [
      {
        "repr": "AO2",
        "value": "Automated with precipitation sensor"
      }
    ],
    "dewpoint_decimal": {
      "repr": "0150",
      "value": 15,
      "spoken": "one five point zero"
    },
    "maximum_temperature_24": null,
    "minimum_temperature_24": null,
    "precip_hourly": null,
    "sea_level_pressure": {
      "repr": "SLP098",
      "value": 1009.8,
      "spoken": "one zero zero nine point eight"
    },
    "snow_depth": null,
    "temperature_decimal": {
      "repr": "0261",
      "value": 26.1,
      "spoken": "two six point one"
    }
  },
  "runway_visibility": [],
  "temperature": {
    "repr": "26",
    "value": 26,
    "spoken": "two six"
  },
  "wind_variable_direction": [],
  "density_altitude": 1618,
  "pressure_altitude": 252,
  "units": {
    "accumulation": "in",
    "altimeter": "inHg",
    "altitude": "ft",
    "temperature": "C",
    "visibility": "sm",
    "wind_speed": "kt"
  }
}
