{
  "meta": {
    "timestamp": "2023-07-24T06:07:24.562007Z",
    "stations_updated": "2023-06-06"
  },
  "altimeter": {
    "repr": "A2996",
    "value": 29.96,
    "spoken": "two nine point nine six"
  },
  "clouds": [],
  "flight_rules": "VFR",
  "other": [],
  "visibility": {
    "repr": "10",
    "value": 10,
    "spoken": "one zero"
  },
  "wind_direction": {
    "repr": "000",
    "value": 0,
    "spoken": "zero zero zero"
  },
  "wind_gust": null,
  "wind_speed": {
    "repr": "00",
    "value": 0,
    "spoken": "zero"
  },
  "wx_codes": [],
  "raw": "KAWO 240556Z AUTO 00000KT 10SM CLR 16/12 A2996 RMK AO2 SLP150 T01610117 10272 20161 51017",
  "sanitized": "KAWO 240556Z 00000KT 10SM 16/12 A2996 RMK AO2 SLP150 T01610117 10272 20161 51017",
  "station": "KAWO",
  "time": {
    "repr": "240556Z",
    "dt": "2023-07-24T05:56:00Z"
  },
  "remarks": "RMK AO2 SLP150 T01610117 10272 20161 51017",
  "dewpoint": {
    "repr": "12",
    "value": 12,
    "spoken": "one two"
  },
  "relative_humidity": 0.7514422502965397,
  "remarks_info": {
    "maximum_temperature_6": {
      "repr": "10272",
      "value": 27.2,
      "spoken": "two seven point two"
    },
    "minimum_temperature_6": {
      "repr": "20161",
      "value": 16.1,
      "spoken": "one six point one"
    },
    "pressure_tendency": {
      "repr": "51017",
      "tendency": "Increasing, then steady",
      "change": 1.7
    },
    "precip_36_hours": null,
    "precip_24_hours": null,
    "sunshine_minutes": null,
    "codes": [
      {
        "repr": "AO2",
        "value": "Automated with precipitation sensor"
      }
    ],
    "dewpoint_decimal": {
      "repr": "0117",
      "value": 11.7,
      "spoken": "one one point seven"
    },
    "maximum_temperature_24": null,
    "minimum_temperature_24": null,
    "precip_hourly": null,
    "sea_level_pressure": {
      "repr": "SLP150",
      "value": 1015,
      "spoken": "one zero one five point zero"
    },
    "snow_depth": null,
    "temperature_decimal": {
      "repr": "0161",
      "value": 16.1,
      "spoken": "one six point one"
    }
  },
  "runway_visibility": [],
  "temperature": {
    "repr": "16",
    "value": 16,
    "spoken": "one six"
  },
  "wind_variable_direction": [],
  "density_altitude": 268,
  "pressure_altitude": 102,
  "units": {
    "accumulation": "in",
    "altimeter": "inHg",
    "altitude": "ft",
    "temperature": "C",
    "visibility": "sm",
    "wind_speed": "kt"
  }
}
