{
  "meta": {
    "timestamp": "2022-12-21T21:01:20.509798Z",
    "stations_updated": "2022-09-05"
  },
  "altimeter": {
    "repr": "A3053",
    "value": 30.53,
    "spoken": "three zero point five three"
  },
  "clouds": [],
  "flight_rules": "VFR",
  "other": [],
  "visibility": {
    "repr": "10",
    "value": 10,
    "spoken": "one zero"
  },
  "wind_direction": {
    "repr": "300",
    "value": 300,
    "spoken": "three zero zero"
  },
  "wind_gust": null,
  "wind_speed": {
    "repr": "09",
    "value": 9,
    "spoken": "nine"
  },
  "wx_codes": [],
  "raw": "KAWO 212056Z AUTO 30009KT 10SM CLR M06/M11 A3053 RMK AO2 SLP345 T10561111 51009 FZRANO",
  "sanitized": "KAWO 212056Z 30009KT 10SM M06/M11 A3053 RMK AO2 SLP345 T10561111 51009 FZRANO",
  "station": "KAWO",
  "time": {
    "repr": "212056Z",
    "dt": "2022-12-21T20:56:00Z"
  },
  "remarks": "RMK AO2 SLP345 T10561111 51009 FZRANO",
  "dewpoint": {
    "repr": "M11",
    "value": -11,
    "spoken": "minus one one"
  },
  "relative_humidity": 0.6517960814604996,
  "remarks_info": {
    "maximum_temperature_6": null,
    "minimum_temperature_6": null,
    "pressure_tendency": {
      "repr": "51009",
      "tendency": "Increasing, then steady",
      "change": 0.9
    },
    "precip_36_hours": null,
    "precip_24_hours": null,
    "sunshine_minutes": null,
    "codes": [
      {
        "repr": "AO2",
        "value": "Automated with precipitation sensor"
      },
      {
        "repr": "FZRANO",
        "value": "Freezing rain information not available"
      }
    ],
    "dewpoint_decimal": {
      "repr": "1111",
      "value": -11.1,
      "spoken": "minus one one point one"
    },
    "maximum_temperature_24": null,
    "minimum_temperature_24": null,
    "precip_hourly": null,
    "sea_level_pressure": {
      "repr": "SLP345",
      "value": 1034.5,
      "spoken": "one zero three four point five"
    },
    "snow_depth": null,
    "temperature_decimal": {
      "repr": "1056",
      "value": -5.6,
      "spoken": "minus five point six"
    }
  },
  "runway_visibility": [],
  "temperature": {
    "repr": "M06",
    "value": -6,
    "spoken": "minus six"
  },
  "wind_variable_direction": [],
  "density_altitude": -2906,
  "pressure_altitude": -468,
  "units": {
    "accumulation": "in",
    "altimeter": "inHg",
    "altitude": "ft",
    "temperature": "C",
    "visibility": "sm",
    "wind_speed": "kt"
  }
}
