{
  "meta": {
    "timestamp": "2022-11-08T06:08:14.738358Z",
    "stations_updated": "2022-09-05"
  },
  "altimeter": {
    "repr": "A2979",
    "value": 29.79,
    "spoken": "two nine point seven nine"
  },
  "clouds": [
    {
      "repr": "OVC005",
      "type": "OVC",
      "altitude": 5,
      "modifier": null
    }
  ],
  "flight_rules": "IFR",
  "other": [],
  "visibility": {
    "repr": "10",
    "value": 10,
    "spoken": "one zero"
  },
  "wind_direction": {
    "repr": "000",
    "value": 0,
    "spoken": "zero zero zero"
  },
  "wind_gust": null,
  "wind_speed": {
    "repr": "00",
    "value": 0,
    "spoken": "zero"
  },
  "wx_codes": [],
  "raw": "KAWO 080556Z AUTO 00000KT 10SM OVC005 02/01 A2979 RMK AO2 SLP091 60004 T00220011 10061 20017 53015 FZRANO",
  "sanitized": "KAWO 080556Z 00000KT 10SM OVC005 02/01 A2979 RMK AO2 SLP091 60004 T00220011 10061 20017 53015 FZRANO",
  "station": "KAWO",
  "time": {
    "repr": "080556Z",
    "dt": "2022-11-08T05:56:00Z"
  },
  "remarks": "RMK AO2 SLP091 60004 T00220011 10061 20017 53015 FZRANO",
  "dewpoint": {
    "repr": "01",
    "value": 1,
    "spoken": "one"
  },
  "relative_humidity": 0.9242682769225287,
  "remarks_info": {
    "maximum_temperature_6": {
      "repr": "10061",
      "value": 6.1,
      "spoken": "six point one"
    },
    "minimum_temperature_6": {
      "repr": "20017",
      "value": 1.7,
      "spoken": "one point seven"
    },
    "pressure_tendency": {
      "repr": "53015",
      "tendency": "Decreasing or steady, then increasing",
      "change": 1.5
    },
    "precip_36_hours": {
      "repr": "60004",
      "value": 0.04,
      "spoken": "zero point zero four"
    },
    "precip_24_hours": null,
    "sunshine_minutes": null,
    "codes": [
      {
        "repr": "AO2",
        "value": "Automated with precipitation sensor"
      },
      {
        "repr": "FZRANO",
        "value": "Freezing rain information not available"
      }
    ],
    "dewpoint_decimal": {
      "repr": "0011",
      "value": 1.1,
      "spoken": "one point one"
    },
    "maximum_temperature_24": null,
    "minimum_temperature_24": null,
    "precip_hourly": null,
    "sea_level_pressure": {
      "repr": "SLP091",
      "value": 1009.1,
      "spoken": "one zero zero nine point one"
    },
    "snow_depth": null,
    "temperature_decimal": {
      "repr": "0022",
      "value": 2.2,
      "spoken": "two point two"
    }
  },
  "runway_visibility": [],
  "temperature": {
    "repr": "02",
    "value": 2,
    "spoken": "two"
  },
  "wind_variable_direction": [],
  "density_altitude": -1230,
  "pressure_altitude": 272,
  "units": {
    "accumulation": "in",
    "altimeter": "inHg",
    "altitude": "ft",
    "temperature": "C",
    "visibility": "sm",
    "wind_speed": "kt"
  }
}
