{
  "altimeter": {
    "repr": "A2958",
    "spoken": "two nine point five eight",
    "value": 29.58
  },
  "clouds": [
    {
      "altitude": 12,
      "modifier": null,
      "repr": "OVC012",
      "type": "OVC"
    }
  ],
  "density_altitude": -888,
  "dewpoint": {
    "repr": "02",
    "spoken": "two",
    "value": 2
  },
  "flight_rules": "MVFR",
  "meta": {
    "stations_updated": "2023-10-28",
    "timestamp": "2024-01-10T11:01:35.811603Z"
  },
  "other": [],
  "pressure_altitude": 482,
  "raw": "KAWO 101056Z AUTO 16009KT 10SM -RA OVC012 03/02 A2958 RMK AO2 RAE02B46 SLP023 P0000 T00330022",
  "relative_humidity": 0.9249173515197439,
  "remarks": "RMK AO2 RAE02B46 SLP023 P0000 T00330022",
  "remarks_info": {
    "codes": [
      {
        "repr": "AO2",
        "value": "Automated with precipitation sensor"
      },
      {
        "repr": "P0000",
        "value": "Trace amount of rain in the last hour"
      }
    ],
    "dewpoint_decimal": {
      "repr": "0022",
      "spoken": "two point two",
      "value": 2.2
    },
    "maximum_temperature_24": null,
    "maximum_temperature_6": null,
    "minimum_temperature_24": null,
    "minimum_temperature_6": null,
    "precip_24_hours": null,
    "precip_36_hours": null,
    "precip_hourly": null,
    "pressure_tendency": null,
    "sea_level_pressure": {
      "repr": "SLP023",
      "spoken": "one zero zero two point three",
      "value": 1002.3
    },
    "snow_depth": null,
    "sunshine_minutes": null,
    "temperature_decimal": {
      "repr": "0033",
      "spoken": "three point three",
      "value": 3.3
    }
  },
  "runway_visibility": [],
  "sanitized": "KAWO 101056Z 16009KT 10SM -RA OVC012 03/02 A2958 RMK AO2 RAE02B46 SLP023 P0000 T00330022",
  "station": "KAWO",
  "temperature": {
    "repr": "03",
    "spoken": "three",
    "value": 3
  },
  "time": {
    "dt": "2024-01-10T10:56:00Z",
    "repr": "101056Z"
  },
  "units": {
    "accumulation": "in",
    "altimeter": "inHg",
    "altitude": "ft",
    "temperature": "C",
    "visibility": "sm",
    "wind_speed": "kt"
  },
  "visibility": {
    "repr": "10",
    "spoken": "one zero",
    "value": 10
  },
  "wind_direction": {
    "repr": "160",
    "spoken": "one six zero",
    "value": 160
  },
  "wind_gust": null,
  "wind_speed": {
    "repr": "09",
    "spoken": "nine",
    "value": 9
  },
  "wind_variable_direction": [],
  "wx_codes": [
    {
      "repr": "-RA",
      "value": "Light Rain"
    }
  ]
}
