{
  "meta": {
    "timestamp": "2023-06-02T22:40:49.120685Z",
    "stations_updated": "2023-05-30",
    "cache-timestamp": "2023-06-02T22:40:06.122000Z"
  },
  "altimeter": {
    "repr": "A3009",
    "value": 30.09,
    "spoken": "three zero point zero nine"
  },
  "clouds": [],
  "flight_rules": "VFR",
  "other": [],
  "visibility": {
    "repr": "10",
    "value": 10,
    "spoken": "one zero"
  },
  "wind_direction": {
    "repr": "290",
    "value": 290,
    "spoken": "two nine zero"
  },
  "wind_gust": {
    "repr": "15",
    "value": 15,
    "spoken": "one five"
  },
  "wind_speed": {
    "repr": "06",
    "value": 6,
    "spoken": "six"
  },
  "wx_codes": [],
  "raw": "KAWO 022156Z AUTO 29006G15KT 10SM CLR 21/09 A3009 RMK AO2 SLP193 T02110089",
  "sanitized": "KAWO 022156Z 29006G15KT 10SM 21/09 A3009 RMK AO2 SLP193 T02110089",
  "station": "KAWO",
  "time": {
    "repr": "022156Z",
    "dt": "2023-06-02T21:56:00Z"
  },
  "remarks": "RMK AO2 SLP193 T02110089",
  "dewpoint": {
    "repr": "09",
    "value": 9,
    "spoken": "nine"
  },
  "relative_humidity": 0.4556690803346515,
  "remarks_info": {
    "maximum_temperature_6": null,
    "minimum_temperature_6": null,
    "pressure_tendency": null,
    "precip_36_hours": null,
    "precip_24_hours": null,
    "sunshine_minutes": null,
    "codes": [
      {
        "repr": "AO2",
        "value": "Automated with precipitation sensor"
      }
    ],
    "dewpoint_decimal": {
      "repr": "0089",
      "value": 8.9,
      "spoken": "eight point nine"
    },
    "maximum_temperature_24": null,
    "minimum_temperature_24": null,
    "precip_hourly": null,
    "sea_level_pressure": {
      "repr": "SLP193",
      "value": 1019.3,
      "spoken": "one zero one nine point three"
    },
    "snow_depth": null,
    "temperature_decimal": {
      "repr": "0211",
      "value": 21.1,
      "spoken": "two one point one"
    }
  },
  "runway_visibility": [],
  "temperature": {
    "repr": "21",
    "value": 21,
    "spoken": "two one"
  },
  "wind_variable_direction": [],
  "density_altitude": 738,
  "pressure_altitude": -28,
  "units": {
    "accumulation": "in",
    "altimeter": "inHg",
    "altitude": "ft",
    "temperature": "C",
    "visibility": "sm",
    "wind_speed": "kt"
  }
}
