{
  "meta": {
    "timestamp": "2023-04-16T13:05:16.403660Z",
    "stations_updated": "2023-03-11"
  },
  "altimeter": {
    "repr": "A2994",
    "value": 29.94,
    "spoken": "two nine point nine four"
  },
  "clouds": [],
  "flight_rules": "VFR",
  "other": [],
  "visibility": {
    "repr": "10",
    "value": 10,
    "spoken": "one zero"
  },
  "wind_direction": {
    "repr": "160",
    "value": 160,
    "spoken": "one six zero"
  },
  "wind_gust": null,
  "wind_speed": {
    "repr": "03",
    "value": 3,
    "spoken": "three"
  },
  "wx_codes": [],
  "raw": "KAWO 161256Z AUTO 16003KT 10SM 08/04 A2994 RMK AO2 RAE08 SLP143 P0000 T00780044 $",
  "sanitized": "KAWO 161256Z 16003KT 10SM 08/04 A2994 RMK AO2 RAE08 SLP143 P0000 T00780044 $",
  "station": "KAWO",
  "time": {
    "repr": "161256Z",
    "dt": "2023-04-16T12:56:00Z"
  },
  "remarks": "RMK AO2 RAE08 SLP143 P0000 T00780044 $",
  "dewpoint": {
    "repr": "04",
    "value": 4,
    "spoken": "four"
  },
  "relative_humidity": 0.790708747439943,
  "remarks_info": {
    "maximum_temperature_6": null,
    "minimum_temperature_6": null,
    "pressure_tendency": null,
    "precip_36_hours": null,
    "precip_24_hours": null,
    "sunshine_minutes": null,
    "codes": [
      {
        "repr": "$",
        "value": "ASOS requires maintenance"
      },
      {
        "repr": "AO2",
        "value": "Automated with precipitation sensor"
      },
      {
        "repr": "P0000",
        "value": "Trace amount of rain in the last hour"
      },
      {
        "repr": "RAE08",
        "value": "Rain ended at :08"
      }
    ],
    "dewpoint_decimal": {
      "repr": "0044",
      "value": 4.4,
      "spoken": "four point four"
    },
    "maximum_temperature_24": null,
    "minimum_temperature_24": null,
    "precip_hourly": null,
    "sea_level_pressure": {
      "repr": "SLP143",
      "value": 1014.3,
      "spoken": "one zero one four point three"
    },
    "snow_depth": null,
    "temperature_decimal": {
      "repr": "0078",
      "value": 7.8,
      "spoken": "seven point eight"
    }
  },
  "runway_visibility": [],
  "temperature": {
    "repr": "08",
    "value": 8,
    "spoken": "eight"
  },
  "wind_variable_direction": [],
  "density_altitude": -708,
  "pressure_altitude": 122,
  "units": {
    "accumulation": "in",
    "altimeter": "inHg",
    "altitude": "ft",
    "temperature": "C",
    "visibility": "sm",
    "wind_speed": "kt"
  }
}
