{
  "meta": {
    "timestamp": "2023-06-29T00:34:21.940168Z",
    "stations_updated": "2023-06-06",
    "cache-timestamp": "2023-06-29T00:34:03.300000Z"
  },
  "altimeter": {
    "repr": "A2997",
    "value": 29.97,
    "spoken": "two nine point nine seven"
  },
  "clouds": [],
  "flight_rules": "VFR",
  "other": [],
  "visibility": {
    "repr": "10",
    "value": 10,
    "spoken": "one zero"
  },
  "wind_direction": {
    "repr": "330",
    "value": 330,
    "spoken": "three three zero"
  },
  "wind_gust": {
    "repr": "17",
    "value": 17,
    "spoken": "one seven"
  },
  "wind_speed": {
    "repr": "08",
    "value": 8,
    "spoken": "eight"
  },
  "wx_codes": [],
  "raw": "KAWO 282356Z AUTO 33008G17KT 10SM CLR 25/16 A2997 RMK AO2 SLP153 T02500156 10261 20211 56006",
  "sanitized": "KAWO 282356Z 33008G17KT 10SM 25/16 A2997 RMK AO2 SLP153 T02500156 10261 20211 56006",
  "station": "KAWO",
  "time": {
    "repr": "282356Z",
    "dt": "2023-06-28T23:56:00Z"
  },
  "remarks": "RMK AO2 SLP153 T02500156 10261 20211 56006",
  "dewpoint": {
    "repr": "16",
    "value": 16,
    "spoken": "one six"
  },
  "relative_humidity": 0.5591325434100957,
  "remarks_info": {
    "maximum_temperature_6": {
      "repr": "10261",
      "value": 26.1,
      "spoken": "two six point one"
    },
    "minimum_temperature_6": {
      "repr": "20211",
      "value": 21.1,
      "spoken": "two one point one"
    },
    "pressure_tendency": {
      "repr": "56006",
      "tendency": "Decreasing, then steady",
      "change": 0.6
    },
    "precip_36_hours": null,
    "precip_24_hours": null,
    "sunshine_minutes": null,
    "codes": [
      {
        "repr": "AO2",
        "value": "Automated with precipitation sensor"
      }
    ],
    "dewpoint_decimal": {
      "repr": "0156",
      "value": 15.6,
      "spoken": "one five point six"
    },
    "maximum_temperature_24": null,
    "minimum_temperature_24": null,
    "precip_hourly": null,
    "sea_level_pressure": {
      "repr": "SLP153",
      "value": 1015.3,
      "spoken": "one zero one five point three"
    },
    "snow_depth": null,
    "temperature_decimal": {
      "repr": "0250",
      "value": 25,
      "spoken": "two five point zero"
    }
  },
  "runway_visibility": [],
  "temperature": {
    "repr": "25",
    "value": 25,
    "spoken": "two five"
  },
  "wind_variable_direction": [],
  "density_altitude": 1326,
  "pressure_altitude": 92,
  "units": {
    "accumulation": "in",
    "altimeter": "inHg",
    "altitude": "ft",
    "temperature": "C",
    "visibility": "sm",
    "wind_speed": "kt"
  }
}
