{
  "meta": {
    "timestamp": "2022-10-22T05:29:17.500944Z",
    "stations_updated": "2022-09-05"
  },
  "altimeter": {
    "repr": "A2967",
    "value": 29.67,
    "spoken": "two nine point six seven"
  },
  "clouds": [
    {
      "repr": "BKN010",
      "type": "BKN",
      "altitude": 10,
      "modifier": null
    },
    {
      "repr": "OVC014",
      "type": "OVC",
      "altitude": 14,
      "modifier": null
    }
  ],
  "flight_rules": "MVFR",
  "other": [],
  "visibility": {
    "repr": "5",
    "value": 5,
    "spoken": "five"
  },
  "wind_direction": {
    "repr": "000",
    "value": 0,
    "spoken": "zero zero zero"
  },
  "wind_gust": null,
  "wind_speed": {
    "repr": "00",
    "value": 0,
    "spoken": "zero"
  },
  "wx_codes": [
    {
      "repr": "RA",
      "value": "Rain"
    },
    {
      "repr": "BR",
      "value": "Mist"
    }
  ],
  "raw": "KAWO 220456Z AUTO 00000KT 5SM RA BR BKN010 OVC014 08/07 A2967 RMK AO2 CIG 004V011 SLP051 P0003 T00780072",
  "sanitized": "KAWO 220456Z 00000KT 5SM RA BR BKN010 OVC014 08/07 A2967 RMK AO2 CIG 004V011 SLP051 P0003 T00780072",
  "station": "KAWO",
  "time": {
    "repr": "220456Z",
    "dt": "2022-10-22T04:56:00Z"
  },
  "remarks": "RMK AO2 CIG 004V011 SLP051 P0003 T00780072",
  "dewpoint": {
    "repr": "07",
    "value": 7,
    "spoken": "seven"
  },
  "relative_humidity": 0.9598512259113078,
  "remarks_info": {
    "maximum_temperature_6": null,
    "minimum_temperature_6": null,
    "pressure_tendency": null,
    "precip_36_hours": null,
    "precip_24_hours": null,
    "sunshine_minutes": null,
    "codes": [
      {
        "repr": "AO2",
        "value": "Automated with precipitation sensor"
      }
    ],
    "dewpoint_decimal": {
      "repr": "0072",
      "value": 7.2,
      "spoken": "seven point two"
    },
    "maximum_temperature_24": null,
    "minimum_temperature_24": null,
    "precip_hourly": {
      "repr": "P0003",
      "value": 0.03,
      "spoken": "zero point zero three"
    },
    "sea_level_pressure": {
      "repr": "SLP051",
      "value": 1005.1,
      "spoken": "one zero zero five point one"
    },
    "snow_depth": null,
    "temperature_decimal": {
      "repr": "0078",
      "value": 7.8,
      "spoken": "seven point eight"
    }
  },
  "runway_visibility": [],
  "temperature": {
    "repr": "08",
    "value": 8,
    "spoken": "eight"
  },
  "wind_variable_direction": [],
  "density_altitude": -438,
  "pressure_altitude": 392,
  "units": {
    "accumulation": "in",
    "altimeter": "inHg",
    "altitude": "ft",
    "temperature": "C",
    "visibility": "sm",
    "wind_speed": "kt"
  }
}
