{
  "meta": {
    "timestamp": "2023-01-01T18:03:38.390201Z",
    "stations_updated": "2022-12-27"
  },
  "altimeter": {
    "repr": "A3019",
    "value": 30.19,
    "spoken": "three zero point one nine"
  },
  "clouds": [
    {
      "repr": "OVC008",
      "type": "OVC",
      "altitude": 8,
      "modifier": null
    }
  ],
  "flight_rules": "IFR",
  "other": [],
  "visibility": {
    "repr": "10",
    "value": 10,
    "spoken": "one zero"
  },
  "wind_direction": {
    "repr": "000",
    "value": 0,
    "spoken": "zero zero zero"
  },
  "wind_gust": null,
  "wind_speed": {
    "repr": "00",
    "value": 0,
    "spoken": "zero"
  },
  "wx_codes": [],
  "raw": "KAWO 011756Z AUTO 00000KT 10SM OVC008 06/05 A3019 RMK AO2 CIG 007V012 SLP228 T00560050 10056 20044 53016",
  "sanitized": "KAWO 011756Z 00000KT 10SM OVC008 06/05 A3019 RMK AO2 CIG 007V012 SLP228 T00560050 10056 20044 53016",
  "station": "KAWO",
  "time": {
    "repr": "011756Z",
    "dt": "2023-01-01T17:56:00Z"
  },
  "remarks": "RMK AO2 CIG 007V012 SLP228 T00560050 10056 20044 53016",
  "dewpoint": {
    "repr": "05",
    "value": 5,
    "spoken": "five"
  },
  "relative_humidity": 0.9591528252665625,
  "remarks_info": {
    "maximum_temperature_6": {
      "repr": "10056",
      "value": 5.6,
      "spoken": "five point six"
    },
    "minimum_temperature_6": {
      "repr": "20044",
      "value": 4.4,
      "spoken": "four point four"
    },
    "pressure_tendency": {
      "repr": "53016",
      "tendency": "Decreasing or steady, then increasing",
      "change": 1.6
    },
    "precip_36_hours": null,
    "precip_24_hours": null,
    "sunshine_minutes": null,
    "codes": [
      {
        "repr": "AO2",
        "value": "Automated with precipitation sensor"
      }
    ],
    "dewpoint_decimal": {
      "repr": "0050",
      "value": 5,
      "spoken": "five point zero"
    },
    "maximum_temperature_24": null,
    "minimum_temperature_24": null,
    "precip_hourly": null,
    "sea_level_pressure": {
      "repr": "SLP228",
      "value": 1022.8,
      "spoken": "one zero two two point eight"
    },
    "snow_depth": null,
    "temperature_decimal": {
      "repr": "0056",
      "value": 5.6,
      "spoken": "five point six"
    }
  },
  "runway_visibility": [],
  "temperature": {
    "repr": "06",
    "value": 6,
    "spoken": "six"
  },
  "wind_variable_direction": [],
  "density_altitude": -1222,
  "pressure_altitude": -128,
  "units": {
    "accumulation": "in",
    "altimeter": "inHg",
    "altitude": "ft",
    "temperature": "C",
    "visibility": "sm",
    "wind_speed": "kt"
  }
}
