{
  "meta": {
    "timestamp": "2023-10-24T23:22:15.470490Z",
    "stations_updated": "2023-10-01",
    "cache-timestamp": "2023-10-24T23:22:04.445000Z"
  },
  "altimeter": {
    "repr": "A2975",
    "value": 29.75,
    "spoken": "two nine point seven five"
  },
  "clouds": [
    {
      "repr": "BKN027",
      "type": "BKN",
      "altitude": 27,
      "modifier": null
    },
    {
      "repr": "BKN034",
      "type": "BKN",
      "altitude": 34,
      "modifier": null
    },
    {
      "repr": "OVC041",
      "type": "OVC",
      "altitude": 41,
      "modifier": null
    }
  ],
  "flight_rules": "MVFR",
  "other": [],
  "visibility": {
    "repr": "10",
    "value": 10,
    "spoken": "one zero"
  },
  "wind_direction": {
    "repr": "130",
    "value": 130,
    "spoken": "one three zero"
  },
  "wind_gust": null,
  "wind_speed": {
    "repr": "12",
    "value": 12,
    "spoken": "one two"
  },
  "wx_codes": [
    {
      "repr": "-RA",
      "value": "Light Rain"
    }
  ],
  "raw": "KAWO 242310Z AUTO 13012KT 10SM -RA BKN027 BKN034 OVC041 08/07 A2975 RMK AO2 P0001",
  "sanitized": "KAWO 242310Z 13012KT 10SM -RA BKN027 BKN034 OVC041 08/07 A2975 RMK AO2 P0001",
  "station": "KAWO",
  "time": {
    "repr": "242310Z",
    "dt": "2023-10-24T23:10:00Z"
  },
  "remarks": "RMK AO2 P0001",
  "dewpoint": {
    "repr": "07",
    "value": 7,
    "spoken": "seven"
  },
  "relative_humidity": 0.933984777240729,
  "remarks_info": {
    "maximum_temperature_6": null,
    "minimum_temperature_6": null,
    "pressure_tendency": null,
    "precip_36_hours": null,
    "precip_24_hours": null,
    "sunshine_minutes": null,
    "codes": [
      {
        "repr": "AO2",
        "value": "Automated with precipitation sensor"
      }
    ],
    "dewpoint_decimal": null,
    "maximum_temperature_24": null,
    "minimum_temperature_24": null,
    "precip_hourly": {
      "repr": "P0001",
      "value": 0.01,
      "spoken": "zero point zero one"
    },
    "sea_level_pressure": null,
    "snow_depth": null,
    "temperature_decimal": null
  },
  "runway_visibility": [],
  "temperature": {
    "repr": "08",
    "value": 8,
    "spoken": "eight"
  },
  "wind_variable_direction": [],
  "density_altitude": -494,
  "pressure_altitude": 312,
  "units": {
    "accumulation": "in",
    "altimeter": "inHg",
    "altitude": "ft",
    "temperature": "C",
    "visibility": "sm",
    "wind_speed": "kt"
  }
}
