{
  "altimeter": {
    "repr": "A2990",
    "spoken": "two nine point nine zero",
    "value": 29.9
  },
  "clouds": [],
  "density_altitude": 1324,
  "dewpoint": {
    "repr": "12",
    "spoken": "one two",
    "value": 12
  },
  "flight_rules": "VFR",
  "meta": {
    "stations_updated": "2024-05-13",
    "timestamp": "2024-06-08T22:27:54.558414Z"
  },
  "other": [],
  "pressure_altitude": 162,
  "raw": "KAWO 082156Z AUTO 31006KT 10SM CLR 24/12 A2990 RMK AO2 SLP129 T02440117",
  "relative_humidity": 0.4496634329849402,
  "remarks": "RMK AO2 SLP129 T02440117",
  "remarks_info": {
    "codes": [
      {
        "repr": "AO2",
        "value": "Automated with precipitation sensor"
      }
    ],
    "dewpoint_decimal": {
      "repr": "0117",
      "spoken": "one one point seven",
      "value": 11.7
    },
    "maximum_temperature_24": null,
    "maximum_temperature_6": null,
    "minimum_temperature_24": null,
    "minimum_temperature_6": null,
    "precip_24_hours": null,
    "precip_36_hours": null,
    "precip_hourly": null,
    "pressure_tendency": null,
    "sea_level_pressure": {
      "repr": "SLP129",
      "spoken": "one zero one two point nine",
      "value": 1012.9
    },
    "snow_depth": null,
    "sunshine_minutes": null,
    "temperature_decimal": {
      "repr": "0244",
      "spoken": "two four point four",
      "value": 24.4
    }
  },
  "runway_visibility": [],
  "sanitized": "KAWO 082156Z 31006KT 10SM 24/12 A2990 RMK AO2 SLP129 T02440117",
  "station": "KAWO",
  "temperature": {
    "repr": "24",
    "spoken": "two four",
    "value": 24
  },
  "time": {
    "dt": "2024-06-08T21:56:00Z",
    "repr": "082156Z"
  },
  "units": {
    "accumulation": "in",
    "altimeter": "inHg",
    "altitude": "ft",
    "temperature": "C",
    "visibility": "sm",
    "wind_speed": "kt"
  },
  "visibility": {
    "repr": "10",
    "spoken": "one zero",
    "value": 10
  },
  "wind_direction": {
    "repr": "310",
    "spoken": "three one zero",
    "value": 310
  },
  "wind_gust": null,
  "wind_speed": {
    "repr": "06",
    "spoken": "six",
    "value": 6
  },
  "wind_variable_direction": [],
  "wx_codes": []
}
