{
  "meta": {
    "timestamp": "2022-07-28T03:57:01.043888Z",
    "stations_updated": "2022-07-17"
  },
  "altimeter": {
    "repr": "A2996",
    "value": 29.96,
    "spoken": "two nine point nine six"
  },
  "clouds": [],
  "flight_rules": "VFR",
  "other": [],
  "visibility": {
    "repr": "10",
    "value": 10,
    "spoken": "one zero"
  },
  "wind_direction": {
    "repr": "330",
    "value": 330,
    "spoken": "three three zero"
  },
  "wind_gust": null,
  "wind_speed": {
    "repr": "06",
    "value": 6,
    "spoken": "six"
  },
  "wx_codes": [],
  "raw": "KAWO 280256Z AUTO 33006KT 10SM CLR 24/17 A2996 RMK AO2 SLP149 T02390167 57002",
  "sanitized": "KAWO 280256Z 33006KT 10SM 24/17 A2996 RMK AO2 SLP149 T02390167 57002",
  "station": "KAWO",
  "time": {
    "repr": "280256Z",
    "dt": "2022-07-28T02:56:00Z"
  },
  "remarks": "RMK AO2 SLP149 T02390167 57002",
  "dewpoint": {
    "repr": "17",
    "value": 17,
    "spoken": "one seven"
  },
  "relative_humidity": 0.6406671191250457,
  "remarks_info": {
    "maximum_temperature_6": null,
    "minimum_temperature_6": null,
    "pressure_tendency": {
      "repr": "57002",
      "tendency": "Decreasing steadily or unsteadily",
      "change": 0.2
    },
    "precip_36_hours": null,
    "precip_24_hours": null,
    "sunshine_minutes": null,
    "codes": [
      {
        "repr": "AO2",
        "value": "Automated with precipitation sensor"
      }
    ],
    "dewpoint_decimal": {
      "repr": "0167",
      "value": 16.7,
      "spoken": "one six point seven"
    },
    "maximum_temperature_24": null,
    "minimum_temperature_24": null,
    "precip_hourly": null,
    "sea_level_pressure": {
      "repr": "SLP149",
      "value": 1014.9,
      "spoken": "one zero one four point nine"
    },
    "snow_depth": null,
    "temperature_decimal": {
      "repr": "0239",
      "value": 23.9,
      "spoken": "two three point nine"
    }
  },
  "runway_visibility": [],
  "temperature": {
    "repr": "24",
    "value": 24,
    "spoken": "two four"
  },
  "wind_variable_direction": [],
  "density_altitude": 1204,
  "pressure_altitude": 102,
  "units": {
    "accumulation": "in",
    "altimeter": "inHg",
    "altitude": "ft",
    "temperature": "C",
    "visibility": "sm",
    "wind_speed": "kt"
  }
}
