{
  "meta": {
    "timestamp": "2023-10-24T23:40:38.819687Z",
    "stations_updated": "2023-10-01",
    "cache-timestamp": "2023-10-24T23:40:02.745000Z"
  },
  "altimeter": {
    "repr": "A2974",
    "value": 29.74,
    "spoken": "two nine point seven four"
  },
  "clouds": [
    {
      "repr": "SCT027",
      "type": "SCT",
      "altitude": 27,
      "modifier": null
    },
    {
      "repr": "OVC037",
      "type": "OVC",
      "altitude": 37,
      "modifier": null
    }
  ],
  "flight_rules": "VFR",
  "other": [],
  "visibility": {
    "repr": "10",
    "value": 10,
    "spoken": "one zero"
  },
  "wind_direction": {
    "repr": "130",
    "value": 130,
    "spoken": "one three zero"
  },
  "wind_gust": null,
  "wind_speed": {
    "repr": "11",
    "value": 11,
    "spoken": "one one"
  },
  "wx_codes": [
    {
      "repr": "-RA",
      "value": "Light Rain"
    }
  ],
  "raw": "KAWO 242320Z AUTO 13011KT 10SM -RA SCT027 OVC037 08/07 A2974 RMK AO2 P0002",
  "sanitized": "KAWO 242320Z 13011KT 10SM -RA SCT027 OVC037 08/07 A2974 RMK AO2 P0002",
  "station": "KAWO",
  "time": {
    "repr": "242320Z",
    "dt": "2023-10-24T23:20:00Z"
  },
  "remarks": "RMK AO2 P0002",
  "dewpoint": {
    "repr": "07",
    "value": 7,
    "spoken": "seven"
  },
  "relative_humidity": 0.933984777240729,
  "remarks_info": {
    "maximum_temperature_6": null,
    "minimum_temperature_6": null,
    "pressure_tendency": null,
    "precip_36_hours": null,
    "precip_24_hours": null,
    "sunshine_minutes": null,
    "codes": [
      {
        "repr": "AO2",
        "value": "Automated with precipitation sensor"
      }
    ],
    "dewpoint_decimal": null,
    "maximum_temperature_24": null,
    "minimum_temperature_24": null,
    "precip_hourly": {
      "repr": "P0002",
      "value": 0.02,
      "spoken": "zero point zero two"
    },
    "sea_level_pressure": null,
    "snow_depth": null,
    "temperature_decimal": null
  },
  "runway_visibility": [],
  "temperature": {
    "repr": "08",
    "value": 8,
    "spoken": "eight"
  },
  "wind_variable_direction": [],
  "density_altitude": -484,
  "pressure_altitude": 322,
  "units": {
    "accumulation": "in",
    "altimeter": "inHg",
    "altitude": "ft",
    "temperature": "C",
    "visibility": "sm",
    "wind_speed": "kt"
  }
}
