{
  "meta": {
    "timestamp": "2022-11-24T10:43:17.368822Z",
    "stations_updated": "2022-09-05"
  },
  "altimeter": {
    "repr": "A3037",
    "value": 30.37,
    "spoken": "three zero point three seven"
  },
  "clouds": [],
  "flight_rules": "VFR",
  "other": [],
  "visibility": {
    "repr": "10",
    "value": 10,
    "spoken": "one zero"
  },
  "wind_direction": {
    "repr": "020",
    "value": 20,
    "spoken": "zero two zero"
  },
  "wind_gust": null,
  "wind_speed": {
    "repr": "04",
    "value": 4,
    "spoken": "four"
  },
  "wx_codes": [],
  "raw": "KAWO 240956Z AUTO 02004KT 10SM CLR 01/01 A3037 RMK AO2 SLP288 T00110006 FZRANO",
  "sanitized": "KAWO 240956Z 02004KT 10SM 01/01 A3037 RMK AO2 SLP288 T00110006 FZRANO",
  "station": "KAWO",
  "time": {
    "repr": "240956Z",
    "dt": "2022-11-24T09:56:00Z"
  },
  "remarks": "RMK AO2 SLP288 T00110006 FZRANO",
  "dewpoint": {
    "repr": "01",
    "value": 1,
    "spoken": "one"
  },
  "relative_humidity": 0.9646099922239331,
  "remarks_info": {
    "maximum_temperature_6": null,
    "minimum_temperature_6": null,
    "pressure_tendency": null,
    "precip_36_hours": null,
    "precip_24_hours": null,
    "sunshine_minutes": null,
    "codes": [
      {
        "repr": "AO2",
        "value": "Automated with precipitation sensor"
      },
      {
        "repr": "FZRANO",
        "value": "Freezing rain information not available"
      }
    ],
    "dewpoint_decimal": {
      "repr": "0006",
      "value": 0.6,
      "spoken": "zero point six"
    },
    "maximum_temperature_24": null,
    "minimum_temperature_24": null,
    "precip_hourly": null,
    "sea_level_pressure": {
      "repr": "SLP288",
      "value": 1028.8,
      "spoken": "one zero two eight point eight"
    },
    "snow_depth": null,
    "temperature_decimal": {
      "repr": "0011",
      "value": 1.1,
      "spoken": "one point one"
    }
  },
  "runway_visibility": [],
  "temperature": {
    "repr": "01",
    "value": 1,
    "spoken": "one"
  },
  "wind_variable_direction": [],
  "density_altitude": -1942,
  "pressure_altitude": -308,
  "units": {
    "accumulation": "in",
    "altimeter": "inHg",
    "altitude": "ft",
    "temperature": "C",
    "visibility": "sm",
    "wind_speed": "kt"
  }
}
