{
  "altimeter": {
    "repr": "A2984",
    "spoken": "two nine point eight four",
    "value": 29.84
  },
  "clouds": [],
  "density_altitude": -1340,
  "dewpoint": {
    "repr": "M07",
    "spoken": "minus seven",
    "value": -7
  },
  "flight_rules": "VFR",
  "meta": {
    "cache-timestamp": "2024-01-17T00:28:05.942000Z",
    "stations_updated": "2023-10-28",
    "timestamp": "2024-01-17T00:28:09.985011Z"
  },
  "other": [],
  "pressure_altitude": 222,
  "raw": "KAWO 162356Z AUTO 00000KT 10SM CLR 02/M07 A2984 RMK AO2 SLP111 T00171067 10033 21039 56035 FZRANO",
  "relative_humidity": 0.5366218063036661,
  "remarks": "RMK AO2 SLP111 T00171067 10033 21039 56035 FZRANO",
  "remarks_info": {
    "codes": [
      {
        "repr": "AO2",
        "value": "Automated with precipitation sensor"
      },
      {
        "repr": "FZRANO",
        "value": "Freezing rain information not available"
      }
    ],
    "dewpoint_decimal": {
      "repr": "1067",
      "spoken": "minus six point seven",
      "value": -6.7
    },
    "maximum_temperature_24": null,
    "maximum_temperature_6": {
      "repr": "10033",
      "spoken": "three point three",
      "value": 3.3
    },
    "minimum_temperature_24": null,
    "minimum_temperature_6": {
      "repr": "21039",
      "spoken": "minus three point nine",
      "value": -3.9
    },
    "precip_24_hours": null,
    "precip_36_hours": null,
    "precip_hourly": null,
    "pressure_tendency": {
      "change": 3.5,
      "repr": "56035",
      "tendency": "Decreasing, then steady"
    },
    "sea_level_pressure": {
      "repr": "SLP111",
      "spoken": "one zero one one point one",
      "value": 1011.1
    },
    "snow_depth": null,
    "sunshine_minutes": null,
    "temperature_decimal": {
      "repr": "0017",
      "spoken": "one point seven",
      "value": 1.7
    }
  },
  "runway_visibility": [],
  "sanitized": "KAWO 162356Z 00000KT 10SM 02/M07 A2984 RMK AO2 SLP111 T00171067 10033 21039 56035 FZRANO",
  "station": "KAWO",
  "temperature": {
    "repr": "02",
    "spoken": "two",
    "value": 2
  },
  "time": {
    "dt": "2024-01-16T23:56:00Z",
    "repr": "162356Z"
  },
  "units": {
    "accumulation": "in",
    "altimeter": "inHg",
    "altitude": "ft",
    "temperature": "C",
    "visibility": "sm",
    "wind_speed": "kt"
  },
  "visibility": {
    "repr": "10",
    "spoken": "one zero",
    "value": 10
  },
  "wind_direction": {
    "repr": "000",
    "spoken": "zero zero zero",
    "value": 0
  },
  "wind_gust": null,
  "wind_speed": {
    "repr": "00",
    "spoken": "zero",
    "value": 0
  },
  "wind_variable_direction": [],
  "wx_codes": []
}
