{
  "meta": {
    "timestamp": "2023-01-06T02:06:11.005345Z",
    "stations_updated": "2022-12-27",
    "cache-timestamp": "2023-01-06T02:06:05.928000Z"
  },
  "altimeter": {
    "repr": "A2960",
    "value": 29.6,
    "spoken": "two nine point six zero"
  },
  "clouds": [
    {
      "repr": "OVC060",
      "type": "OVC",
      "altitude": 60,
      "modifier": null
    }
  ],
  "flight_rules": "VFR",
  "other": [],
  "visibility": {
    "repr": "10",
    "value": 10,
    "spoken": "one zero"
  },
  "wind_direction": {
    "repr": "150",
    "value": 150,
    "spoken": "one five zero"
  },
  "wind_gust": null,
  "wind_speed": {
    "repr": "09",
    "value": 9,
    "spoken": "nine"
  },
  "wx_codes": [],
  "raw": "KAWO 060156Z AUTO 15009KT 10SM OVC060 12/03 A2960 RMK AO2 RAE29 SLP026 P0000 T01220028",
  "sanitized": "KAWO 060156Z 15009KT 10SM OVC060 12/03 A2960 RMK AO2 RAE29 SLP026 P0000 T01220028",
  "station": "KAWO",
  "time": {
    "repr": "060156Z",
    "dt": "2023-01-06T01:56:00Z"
  },
  "remarks": "RMK AO2 RAE29 SLP026 P0000 T01220028",
  "dewpoint": {
    "repr": "03",
    "value": 3,
    "spoken": "three"
  },
  "relative_humidity": 0.5261352681877759,
  "remarks_info": {
    "maximum_temperature_6": null,
    "minimum_temperature_6": null,
    "pressure_tendency": null,
    "precip_36_hours": null,
    "precip_24_hours": null,
    "sunshine_minutes": null,
    "codes": [
      {
        "repr": "AO2",
        "value": "Automated with precipitation sensor"
      },
      {
        "repr": "P0000",
        "value": "Trace amount of rain in the last hour"
      },
      {
        "repr": "RAE29",
        "value": "Rain ended at :29"
      }
    ],
    "dewpoint_decimal": {
      "repr": "0028",
      "value": 2.8,
      "spoken": "two point eight"
    },
    "maximum_temperature_24": null,
    "minimum_temperature_24": null,
    "precip_hourly": null,
    "sea_level_pressure": {
      "repr": "SLP026",
      "value": 1002.6,
      "spoken": "one zero zero two point six"
    },
    "snow_depth": null,
    "temperature_decimal": {
      "repr": "0122",
      "value": 12.2,
      "spoken": "one two point two"
    }
  },
  "runway_visibility": [],
  "temperature": {
    "repr": "12",
    "value": 12,
    "spoken": "one two"
  },
  "wind_variable_direction": [],
  "density_altitude": 160,
  "pressure_altitude": 462,
  "units": {
    "accumulation": "in",
    "altimeter": "inHg",
    "altitude": "ft",
    "temperature": "C",
    "visibility": "sm",
    "wind_speed": "kt"
  }
}
