{
  "altimeter": {
    "repr": "A2985",
    "spoken": "two nine point eight five",
    "value": 29.85
  },
  "clouds": [
    {
      "altitude": 85,
      "modifier": null,
      "repr": "BKN085",
      "type": "BKN"
    },
    {
      "altitude": 110,
      "modifier": null,
      "repr": "BKN110",
      "type": "BKN"
    }
  ],
  "density_altitude": -486,
  "dewpoint": {
    "repr": "06",
    "spoken": "six",
    "value": 6
  },
  "flight_rules": "VFR",
  "meta": {
    "cache-timestamp": "2024-04-06T00:26:04.967000Z",
    "stations_updated": "2024-01-01",
    "timestamp": "2024-04-06T00:26:12.857425Z"
  },
  "other": [],
  "pressure_altitude": 212,
  "raw": "KAWO 052356Z AUTO 14008KT 10SM BKN085 BKN110 09/06 A2985 RMK AO2 SLP114 60000 T00890056 10094 20072 51012",
  "relative_humidity": 0.797851757786378,
  "remarks": "RMK AO2 SLP114 60000 T00890056 10094 20072 51012",
  "remarks_info": {
    "codes": [
      {
        "repr": "AO2",
        "value": "Automated with precipitation sensor"
      }
    ],
    "dewpoint_decimal": {
      "repr": "0056",
      "spoken": "five point six",
      "value": 5.6
    },
    "maximum_temperature_24": null,
    "maximum_temperature_6": {
      "repr": "10094",
      "spoken": "nine point four",
      "value": 9.4
    },
    "minimum_temperature_24": null,
    "minimum_temperature_6": {
      "repr": "20072",
      "spoken": "seven point two",
      "value": 7.2
    },
    "precip_24_hours": null,
    "precip_36_hours": {
      "repr": "60000",
      "spoken": "zero",
      "value": 0
    },
    "precip_hourly": null,
    "pressure_tendency": {
      "change": 1.2,
      "repr": "51012",
      "tendency": "Increasing, then steady"
    },
    "sea_level_pressure": {
      "repr": "SLP114",
      "spoken": "one zero one one point four",
      "value": 1011.4
    },
    "snow_depth": null,
    "sunshine_minutes": null,
    "temperature_decimal": {
      "repr": "0089",
      "spoken": "eight point nine",
      "value": 8.9
    }
  },
  "runway_visibility": [],
  "sanitized": "KAWO 052356Z 14008KT 10SM BKN085 BKN110 09/06 A2985 RMK AO2 SLP114 60000 T00890056 10094 20072 51012",
  "station": "KAWO",
  "temperature": {
    "repr": "09",
    "spoken": "nine",
    "value": 9
  },
  "time": {
    "dt": "2024-04-05T23:56:00Z",
    "repr": "052356Z"
  },
  "units": {
    "accumulation": "in",
    "altimeter": "inHg",
    "altitude": "ft",
    "temperature": "C",
    "visibility": "sm",
    "wind_speed": "kt"
  },
  "visibility": {
    "repr": "10",
    "spoken": "one zero",
    "value": 10
  },
  "wind_direction": {
    "repr": "140",
    "spoken": "one four zero",
    "value": 140
  },
  "wind_gust": null,
  "wind_speed": {
    "repr": "08",
    "spoken": "eight",
    "value": 8
  },
  "wind_variable_direction": [],
  "wx_codes": []
}
