{
  "meta": {
    "timestamp": "2023-01-03T12:09:05.219292Z",
    "stations_updated": "2022-12-27",
    "cache-timestamp": "2023-01-03T12:08:45.552000Z"
  },
  "altimeter": {
    "repr": "A2980",
    "value": 29.8,
    "spoken": "two nine point eight zero"
  },
  "clouds": [
    {
      "repr": "OVC039",
      "type": "OVC",
      "altitude": 39,
      "modifier": null
    }
  ],
  "flight_rules": "VFR",
  "other": [],
  "visibility": {
    "repr": "10",
    "value": 10,
    "spoken": "one zero"
  },
  "wind_direction": {
    "repr": "150",
    "value": 150,
    "spoken": "one five zero"
  },
  "wind_gust": null,
  "wind_speed": {
    "repr": "08",
    "value": 8,
    "spoken": "eight"
  },
  "wx_codes": [
    {
      "repr": "-RA",
      "value": "Light Rain"
    }
  ],
  "raw": "KAWO 031156Z AUTO 15008KT 10SM -RA OVC039 04/M02 A2980 RMK AO2 RAE10B38 SLP096 P0000 60000 T00391022 10039 21033 51013",
  "sanitized": "KAWO 031156Z 15008KT 10SM -RA OVC039 04/M02 A2980 RMK AO2 RAE10B38 SLP096 P0000 60000 T00391022 10039 21033 51013",
  "station": "KAWO",
  "time": {
    "repr": "031156Z",
    "dt": "2023-01-03T11:56:00Z"
  },
  "remarks": "RMK AO2 RAE10B38 SLP096 P0000 60000 T00391022 10039 21033 51013",
  "dewpoint": {
    "repr": "M02",
    "value": -2,
    "spoken": "minus two"
  },
  "relative_humidity": 0.6442610545196545,
  "remarks_info": {
    "maximum_temperature_6": {
      "repr": "10039",
      "value": 3.9,
      "spoken": "three point nine"
    },
    "minimum_temperature_6": {
      "repr": "21033",
      "value": -3.3,
      "spoken": "minus three point three"
    },
    "pressure_tendency": {
      "repr": "51013",
      "tendency": "Increasing, then steady",
      "change": 1.3
    },
    "precip_36_hours": {
      "repr": "60000",
      "value": 0,
      "spoken": "zero"
    },
    "precip_24_hours": null,
    "sunshine_minutes": null,
    "codes": [
      {
        "repr": "AO2",
        "value": "Automated with precipitation sensor"
      },
      {
        "repr": "P0000",
        "value": "Trace amount of rain in the last hour"
      }
    ],
    "dewpoint_decimal": {
      "repr": "1022",
      "value": -2.2,
      "spoken": "minus two point two"
    },
    "maximum_temperature_24": null,
    "minimum_temperature_24": null,
    "precip_hourly": null,
    "sea_level_pressure": {
      "repr": "SLP096",
      "value": 1009.6,
      "spoken": "one zero zero nine point six"
    },
    "snow_depth": null,
    "temperature_decimal": {
      "repr": "0039",
      "value": 3.9,
      "spoken": "three point nine"
    }
  },
  "runway_visibility": [],
  "temperature": {
    "repr": "04",
    "value": 4,
    "spoken": "four"
  },
  "wind_variable_direction": [],
  "density_altitude": -1036,
  "pressure_altitude": 262,
  "units": {
    "accumulation": "in",
    "altimeter": "inHg",
    "altitude": "ft",
    "temperature": "C",
    "visibility": "sm",
    "wind_speed": "kt"
  }
}
