{
  "altimeter": {
    "repr": "A3013",
    "spoken": "three zero point one three",
    "value": 30.13
  },
  "clouds": [
    {
      "altitude": 29,
      "modifier": null,
      "repr": "FEW029",
      "type": "FEW"
    },
    {
      "altitude": 35,
      "modifier": null,
      "repr": "OVC035",
      "type": "OVC"
    }
  ],
  "density_altitude": -706,
  "dewpoint": {
    "repr": "07",
    "spoken": "seven",
    "value": 7
  },
  "flight_rules": "VFR",
  "meta": {
    "stations_updated": "2023-10-28",
    "timestamp": "2023-11-12T08:25:47.781211Z"
  },
  "other": [],
  "pressure_altitude": -68,
  "raw": "KAWO 120756Z AUTO 13007KT 10SM FEW029 OVC035 09/07 A3013 RMK AO2 SLP207 T00940067 401170078",
  "relative_humidity": 0.8322719985957746,
  "remarks": "RMK AO2 SLP207 T00940067 401170078",
  "remarks_info": {
    "codes": [
      {
        "repr": "AO2",
        "value": "Automated with precipitation sensor"
      }
    ],
    "dewpoint_decimal": {
      "repr": "0067",
      "spoken": "six point seven",
      "value": 6.7
    },
    "maximum_temperature_24": {
      "repr": "0117",
      "spoken": "one one point seven",
      "value": 11.7
    },
    "maximum_temperature_6": null,
    "minimum_temperature_24": {
      "repr": "0078",
      "spoken": "seven point eight",
      "value": 7.8
    },
    "minimum_temperature_6": null,
    "precip_24_hours": null,
    "precip_36_hours": null,
    "precip_hourly": null,
    "pressure_tendency": null,
    "sea_level_pressure": {
      "repr": "SLP207",
      "spoken": "one zero two zero point seven",
      "value": 1020.7
    },
    "snow_depth": null,
    "sunshine_minutes": null,
    "temperature_decimal": {
      "repr": "0094",
      "spoken": "nine point four",
      "value": 9.4
    }
  },
  "runway_visibility": [],
  "sanitized": "KAWO 120756Z 13007KT 10SM FEW029 OVC035 09/07 A3013 RMK AO2 SLP207 T00940067 401170078",
  "station": "KAWO",
  "temperature": {
    "repr": "09",
    "spoken": "nine",
    "value": 9
  },
  "time": {
    "dt": "2023-11-12T07:56:00Z",
    "repr": "120756Z"
  },
  "units": {
    "accumulation": "in",
    "altimeter": "inHg",
    "altitude": "ft",
    "temperature": "C",
    "visibility": "sm",
    "wind_speed": "kt"
  },
  "visibility": {
    "repr": "10",
    "spoken": "one zero",
    "value": 10
  },
  "wind_direction": {
    "repr": "130",
    "spoken": "one three zero",
    "value": 130
  },
  "wind_gust": null,
  "wind_speed": {
    "repr": "07",
    "spoken": "seven",
    "value": 7
  },
  "wind_variable_direction": [],
  "wx_codes": []
}
