{
  "altimeter": {
    "repr": "A3010",
    "spoken": "three zero point one zero",
    "value": 30.1
  },
  "clouds": [
    {
      "altitude": 18,
      "modifier": null,
      "repr": "OVC018",
      "type": "OVC"
    }
  ],
  "density_altitude": -940,
  "dewpoint": {
    "repr": "06",
    "spoken": "six",
    "value": 6
  },
  "flight_rules": "MVFR",
  "meta": {
    "cache-timestamp": "2024-02-12T16:40:06.098000Z",
    "stations_updated": "2024-01-01",
    "timestamp": "2024-02-12T16:40:30.411977Z"
  },
  "other": [],
  "pressure_altitude": -38,
  "raw": "KAWO 121556Z AUTO 00000KT 10SM OVC018 07/06 A3010 RMK AO2 RAE51 SLP197 P0000 T00720061",
  "relative_humidity": 0.9271535108565763,
  "remarks": "RMK AO2 RAE51 SLP197 P0000 T00720061",
  "remarks_info": {
    "codes": [
      {
        "repr": "AO2",
        "value": "Automated with precipitation sensor"
      },
      {
        "repr": "P0000",
        "value": "Trace amount of rain in the last hour"
      },
      {
        "repr": "RAE51",
        "value": "Rain ended at :51"
      }
    ],
    "dewpoint_decimal": {
      "repr": "0061",
      "spoken": "six point one",
      "value": 6.1
    },
    "maximum_temperature_24": null,
    "maximum_temperature_6": null,
    "minimum_temperature_24": null,
    "minimum_temperature_6": null,
    "precip_24_hours": null,
    "precip_36_hours": null,
    "precip_hourly": null,
    "pressure_tendency": null,
    "sea_level_pressure": {
      "repr": "SLP197",
      "spoken": "one zero one nine point seven",
      "value": 1019.7
    },
    "snow_depth": null,
    "sunshine_minutes": null,
    "temperature_decimal": {
      "repr": "0072",
      "spoken": "seven point two",
      "value": 7.2
    }
  },
  "runway_visibility": [],
  "sanitized": "KAWO 121556Z 00000KT 10SM OVC018 07/06 A3010 RMK AO2 RAE51 SLP197 P0000 T00720061",
  "station": "KAWO",
  "temperature": {
    "repr": "07",
    "spoken": "seven",
    "value": 7
  },
  "time": {
    "dt": "2024-02-12T15:56:00Z",
    "repr": "121556Z"
  },
  "units": {
    "accumulation": "in",
    "altimeter": "inHg",
    "altitude": "ft",
    "temperature": "C",
    "visibility": "sm",
    "wind_speed": "kt"
  },
  "visibility": {
    "repr": "10",
    "spoken": "one zero",
    "value": 10
  },
  "wind_direction": {
    "repr": "000",
    "spoken": "zero zero zero",
    "value": 0
  },
  "wind_gust": null,
  "wind_speed": {
    "repr": "00",
    "spoken": "zero",
    "value": 0
  },
  "wind_variable_direction": [],
  "wx_codes": []
}
