{
  "altimeter": {
    "repr": "A3006",
    "spoken": "three zero point zero six",
    "value": 30.06
  },
  "clouds": [
    {
      "altitude": 29,
      "modifier": null,
      "repr": "FEW029",
      "type": "FEW"
    },
    {
      "altitude": 37,
      "modifier": null,
      "repr": "OVC037",
      "type": "OVC"
    }
  ],
  "density_altitude": -684,
  "dewpoint": {
    "repr": "07",
    "spoken": "seven",
    "value": 7
  },
  "flight_rules": "VFR",
  "meta": {
    "cache-timestamp": "2024-02-22T03:06:06.093000Z",
    "stations_updated": "2024-01-01",
    "timestamp": "2024-02-22T03:06:30.873183Z"
  },
  "other": [],
  "pressure_altitude": 2,
  "raw": "KAWO 220240Z AUTO 13010KT 10SM FEW029 OVC037 09/07 A3006 RMK AO2 RAE24 P0001",
  "relative_humidity": 0.8727995787648956,
  "remarks": "RMK AO2 RAE24 P0001",
  "remarks_info": {
    "codes": [
      {
        "repr": "AO2",
        "value": "Automated with precipitation sensor"
      },
      {
        "repr": "RAE24",
        "value": "Rain ended at :24"
      }
    ],
    "dewpoint_decimal": null,
    "maximum_temperature_24": null,
    "maximum_temperature_6": null,
    "minimum_temperature_24": null,
    "minimum_temperature_6": null,
    "precip_24_hours": null,
    "precip_36_hours": null,
    "precip_hourly": {
      "repr": "P0001",
      "spoken": "zero point zero one",
      "value": 0.01
    },
    "pressure_tendency": null,
    "sea_level_pressure": null,
    "snow_depth": null,
    "sunshine_minutes": null,
    "temperature_decimal": null
  },
  "runway_visibility": [],
  "sanitized": "KAWO 220240Z 13010KT 10SM FEW029 OVC037 09/07 A3006 RMK AO2 RAE24 P0001",
  "station": "KAWO",
  "temperature": {
    "repr": "09",
    "spoken": "nine",
    "value": 9
  },
  "time": {
    "dt": "2024-02-22T02:40:00Z",
    "repr": "220240Z"
  },
  "units": {
    "accumulation": "in",
    "altimeter": "inHg",
    "altitude": "ft",
    "temperature": "C",
    "visibility": "sm",
    "wind_speed": "kt"
  },
  "visibility": {
    "repr": "10",
    "spoken": "one zero",
    "value": 10
  },
  "wind_direction": {
    "repr": "130",
    "spoken": "one three zero",
    "value": 130
  },
  "wind_gust": null,
  "wind_speed": {
    "repr": "10",
    "spoken": "one zero",
    "value": 10
  },
  "wind_variable_direction": [],
  "wx_codes": []
}
