{
  "altimeter": {
    "repr": "A3045",
    "spoken": "three zero point four five",
    "value": 30.45
  },
  "clouds": [
    {
      "altitude": 36,
      "modifier": null,
      "repr": "FEW036",
      "type": "FEW"
    },
    {
      "altitude": 55,
      "modifier": null,
      "repr": "SCT055",
      "type": "SCT"
    }
  ],
  "density_altitude": -882,
  "dewpoint": {
    "repr": "02",
    "spoken": "two",
    "value": 2
  },
  "flight_rules": "VFR",
  "meta": {
    "cache-timestamp": "2024-03-13T21:40:03.100000Z",
    "stations_updated": "2024-01-01",
    "timestamp": "2024-03-13T21:40:41.859231Z"
  },
  "other": [],
  "pressure_altitude": -388,
  "raw": "KAWO 132056Z AUTO 00000KT 10SM FEW036 SCT055 11/02 A3045 RMK AO2 SLP318 T01060017 50004",
  "relative_humidity": 0.5408511980493674,
  "remarks": "RMK AO2 SLP318 T01060017 50004",
  "remarks_info": {
    "codes": [
      {
        "repr": "AO2",
        "value": "Automated with precipitation sensor"
      }
    ],
    "dewpoint_decimal": {
      "repr": "0017",
      "spoken": "one point seven",
      "value": 1.7
    },
    "maximum_temperature_24": null,
    "maximum_temperature_6": null,
    "minimum_temperature_24": null,
    "minimum_temperature_6": null,
    "precip_24_hours": null,
    "precip_36_hours": null,
    "precip_hourly": null,
    "pressure_tendency": {
      "change": 0.4,
      "repr": "50004",
      "tendency": "Increasing, then decreasing"
    },
    "sea_level_pressure": {
      "repr": "SLP318",
      "spoken": "one zero three one point eight",
      "value": 1031.8
    },
    "snow_depth": null,
    "sunshine_minutes": null,
    "temperature_decimal": {
      "repr": "0106",
      "spoken": "one zero point six",
      "value": 10.6
    }
  },
  "runway_visibility": [],
  "sanitized": "KAWO 132056Z 00000KT 10SM FEW036 SCT055 11/02 A3045 RMK AO2 SLP318 T01060017 50004",
  "station": "KAWO",
  "temperature": {
    "repr": "11",
    "spoken": "one one",
    "value": 11
  },
  "time": {
    "dt": "2024-03-13T20:56:00Z",
    "repr": "132056Z"
  },
  "units": {
    "accumulation": "in",
    "altimeter": "inHg",
    "altitude": "ft",
    "temperature": "C",
    "visibility": "sm",
    "wind_speed": "kt"
  },
  "visibility": {
    "repr": "10",
    "spoken": "one zero",
    "value": 10
  },
  "wind_direction": {
    "repr": "000",
    "spoken": "zero zero zero",
    "value": 0
  },
  "wind_gust": null,
  "wind_speed": {
    "repr": "00",
    "spoken": "zero",
    "value": 0
  },
  "wind_variable_direction": [],
  "wx_codes": []
}
