{
  "meta": {
    "timestamp": "2022-11-05T19:40:46.344562Z",
    "stations_updated": "2022-09-05"
  },
  "altimeter": {
    "repr": "A2987",
    "value": 29.87,
    "spoken": "two nine point eight seven"
  },
  "clouds": [
    {
      "repr": "FEW035",
      "type": "FEW",
      "altitude": 35,
      "modifier": null
    },
    {
      "repr": "SCT110",
      "type": "SCT",
      "altitude": 110,
      "modifier": null
    }
  ],
  "flight_rules": "VFR",
  "other": [],
  "visibility": {
    "repr": "10",
    "value": 10,
    "spoken": "one zero"
  },
  "wind_direction": {
    "repr": "270",
    "value": 270,
    "spoken": "two seven zero"
  },
  "wind_gust": {
    "repr": "24",
    "value": 24,
    "spoken": "two four"
  },
  "wind_speed": {
    "repr": "17",
    "value": 17,
    "spoken": "one seven"
  },
  "wx_codes": [],
  "raw": "KAWO 051856Z AUTO 27017G24KT 10SM FEW035 SCT110 09/00 A2987 RMK AO2 SLPNO T00940000",
  "sanitized": "KAWO 051856Z 27017G24KT 10SM FEW035 SCT110 09/00 A2987 RMK AO2 SLPNO T00940000",
  "station": "KAWO",
  "time": {
    "repr": "051856Z",
    "dt": "2022-11-05T18:56:00Z"
  },
  "remarks": "RMK AO2 SLPNO T00940000",
  "dewpoint": {
    "repr": "00",
    "value": 0,
    "spoken": "zero"
  },
  "relative_humidity": 0.5185216857204856,
  "remarks_info": {
    "maximum_temperature_6": null,
    "minimum_temperature_6": null,
    "pressure_tendency": null,
    "precip_36_hours": null,
    "precip_24_hours": null,
    "sunshine_minutes": null,
    "codes": [
      {
        "repr": "AO2",
        "value": "Automated with precipitation sensor"
      },
      {
        "repr": "SLPNO",
        "value": "Sea level pressure not available"
      }
    ],
    "dewpoint_decimal": {
      "repr": "0000",
      "value": 0,
      "spoken": "zero"
    },
    "maximum_temperature_24": null,
    "minimum_temperature_24": null,
    "precip_hourly": null,
    "sea_level_pressure": null,
    "snow_depth": null,
    "temperature_decimal": {
      "repr": "0094",
      "value": 9.4,
      "spoken": "nine point four"
    }
  },
  "runway_visibility": [],
  "temperature": {
    "repr": "09",
    "value": 9,
    "spoken": "nine"
  },
  "wind_variable_direction": [],
  "density_altitude": -446,
  "pressure_altitude": 192,
  "units": {
    "accumulation": "in",
    "altimeter": "inHg",
    "altitude": "ft",
    "temperature": "C",
    "visibility": "sm",
    "wind_speed": "kt"
  }
}
