{
  "altimeter": {
    "repr": "A2997",
    "spoken": "two nine point nine seven",
    "value": 29.97
  },
  "clouds": [],
  "density_altitude": -2742,
  "dewpoint": {
    "repr": "M14",
    "spoken": "minus one four",
    "value": -14
  },
  "flight_rules": "VFR",
  "meta": {
    "cache-timestamp": "2024-01-13T19:40:02.704000Z",
    "stations_updated": "2023-10-28",
    "timestamp": "2024-01-13T19:40:39.216811Z"
  },
  "other": [],
  "pressure_altitude": 92,
  "raw": "KAWO 131856Z AUTO 00000KT 10SM CLR M09/M14 A2997 RMK AO2 SLP157 T10891139 FZRANO",
  "relative_humidity": 0.6707238592755522,
  "remarks": "RMK AO2 SLP157 T10891139 FZRANO",
  "remarks_info": {
    "codes": [
      {
        "repr": "AO2",
        "value": "Automated with precipitation sensor"
      },
      {
        "repr": "FZRANO",
        "value": "Freezing rain information not available"
      }
    ],
    "dewpoint_decimal": {
      "repr": "1139",
      "spoken": "minus one three point nine",
      "value": -13.9
    },
    "maximum_temperature_24": null,
    "maximum_temperature_6": null,
    "minimum_temperature_24": null,
    "minimum_temperature_6": null,
    "precip_24_hours": null,
    "precip_36_hours": null,
    "precip_hourly": null,
    "pressure_tendency": null,
    "sea_level_pressure": {
      "repr": "SLP157",
      "spoken": "one zero one five point seven",
      "value": 1015.7
    },
    "snow_depth": null,
    "sunshine_minutes": null,
    "temperature_decimal": {
      "repr": "1089",
      "spoken": "minus eight point nine",
      "value": -8.9
    }
  },
  "runway_visibility": [],
  "sanitized": "KAWO 131856Z 00000KT 10SM M09/M14 A2997 RMK AO2 SLP157 T10891139 FZRANO",
  "station": "KAWO",
  "temperature": {
    "repr": "M09",
    "spoken": "minus nine",
    "value": -9
  },
  "time": {
    "dt": "2024-01-13T18:56:00Z",
    "repr": "131856Z"
  },
  "units": {
    "accumulation": "in",
    "altimeter": "inHg",
    "altitude": "ft",
    "temperature": "C",
    "visibility": "sm",
    "wind_speed": "kt"
  },
  "visibility": {
    "repr": "10",
    "spoken": "one zero",
    "value": 10
  },
  "wind_direction": {
    "repr": "000",
    "spoken": "zero zero zero",
    "value": 0
  },
  "wind_gust": null,
  "wind_speed": {
    "repr": "00",
    "spoken": "zero",
    "value": 0
  },
  "wind_variable_direction": [],
  "wx_codes": []
}
