{
  "meta": {
    "timestamp": "2022-12-27T08:07:02.480866Z",
    "stations_updated": "2022-09-05"
  },
  "altimeter": {
    "repr": "A2907",
    "value": 29.07,
    "spoken": "two nine point zero seven"
  },
  "clouds": [
    {
      "repr": "OVC039",
      "type": "OVC",
      "altitude": 39,
      "modifier": null
    }
  ],
  "flight_rules": "VFR",
  "other": [],
  "visibility": {
    "repr": "9",
    "value": 9,
    "spoken": "nine"
  },
  "wind_direction": {
    "repr": "VRB",
    "value": null,
    "spoken": "variable"
  },
  "wind_gust": null,
  "wind_speed": {
    "repr": "03",
    "value": 3,
    "spoken": "three"
  },
  "wx_codes": [
    {
      "repr": "RA",
      "value": "Rain"
    }
  ],
  "raw": "KAWO 270756Z AUTO VRB03KT 9SM RA OVC039 09/08 A2907 RMK AO2 SLP849 P0008 T00890083 401440067",
  "sanitized": "KAWO 270756Z VRB03KT 9SM RA OVC039 09/08 A2907 RMK AO2 SLP849 P0008 T00890083 401440067",
  "station": "KAWO",
  "time": {
    "repr": "270756Z",
    "dt": "2022-12-27T07:56:00Z"
  },
  "remarks": "RMK AO2 SLP849 P0008 T00890083 401440067",
  "dewpoint": {
    "repr": "08",
    "value": 8,
    "spoken": "eight"
  },
  "relative_humidity": 0.9601937753627737,
  "remarks_info": {
    "maximum_temperature_6": null,
    "minimum_temperature_6": null,
    "pressure_tendency": null,
    "precip_36_hours": null,
    "precip_24_hours": null,
    "sunshine_minutes": null,
    "codes": [
      {
        "repr": "AO2",
        "value": "Automated with precipitation sensor"
      }
    ],
    "dewpoint_decimal": {
      "repr": "0083",
      "value": 8.3,
      "spoken": "eight point three"
    },
    "maximum_temperature_24": {
      "repr": "0144",
      "value": 14.4,
      "spoken": "one four point four"
    },
    "minimum_temperature_24": {
      "repr": "0067",
      "value": 6.7,
      "spoken": "six point seven"
    },
    "precip_hourly": {
      "repr": "P0008",
      "value": 0.08,
      "spoken": "zero point zero eight"
    },
    "sea_level_pressure": {
      "repr": "SLP849",
      "value": 984.9,
      "spoken": "nine eight four point nine"
    },
    "snow_depth": null,
    "temperature_decimal": {
      "repr": "0089",
      "value": 8.9,
      "spoken": "eight point nine"
    }
  },
  "runway_visibility": [],
  "temperature": {
    "repr": "09",
    "value": 9,
    "spoken": "nine"
  },
  "wind_variable_direction": [],
  "density_altitude": 294,
  "pressure_altitude": 992,
  "units": {
    "accumulation": "in",
    "altimeter": "inHg",
    "altitude": "ft",
    "temperature": "C",
    "visibility": "sm",
    "wind_speed": "kt"
  }
}
