{
  "meta": {
    "timestamp": "2023-06-23T04:32:48.108675Z",
    "stations_updated": "2023-06-06",
    "cache-timestamp": "2023-06-23T04:32:13.021000Z"
  },
  "altimeter": {
    "repr": "A2992",
    "value": 29.92,
    "spoken": "two nine point nine two"
  },
  "clouds": [],
  "flight_rules": "VFR",
  "other": [],
  "visibility": {
    "repr": "10",
    "value": 10,
    "spoken": "one zero"
  },
  "wind_direction": {
    "repr": "320",
    "value": 320,
    "spoken": "three two zero"
  },
  "wind_gust": null,
  "wind_speed": {
    "repr": "04",
    "value": 4,
    "spoken": "four"
  },
  "wx_codes": [
    {
      "repr": "VCTS",
      "value": "Vicinity Thunderstorm"
    }
  ],
  "raw": "KAWO 230415Z AUTO 32004KT 10SM VCTS CLR 19/12 A2992 RMK AO2 LTG DSNT NE AND E TSB09",
  "sanitized": "KAWO 230415Z 32004KT 10SM VCTS 19/12 A2992 RMK AO2 LTG DSNT NE AND E TSB09",
  "station": "KAWO",
  "time": {
    "repr": "230415Z",
    "dt": "2023-06-23T04:15:00Z"
  },
  "remarks": "RMK AO2 LTG DSNT NE AND E TSB09",
  "dewpoint": {
    "repr": "12",
    "value": 12,
    "spoken": "one two"
  },
  "relative_humidity": 0.6382218837480149,
  "remarks_info": {
    "maximum_temperature_6": null,
    "minimum_temperature_6": null,
    "pressure_tendency": null,
    "precip_36_hours": null,
    "precip_24_hours": null,
    "sunshine_minutes": null,
    "codes": [
      {
        "repr": "AO2",
        "value": "Automated with precipitation sensor"
      },
      {
        "repr": "TSB09",
        "value": "Thunderstorm began at :09"
      }
    ],
    "dewpoint_decimal": null,
    "maximum_temperature_24": null,
    "minimum_temperature_24": null,
    "precip_hourly": null,
    "sea_level_pressure": null,
    "snow_depth": null,
    "temperature_decimal": null
  },
  "runway_visibility": [],
  "temperature": {
    "repr": "19",
    "value": 19,
    "spoken": "one nine"
  },
  "wind_variable_direction": [],
  "density_altitude": 656,
  "pressure_altitude": 142,
  "units": {
    "accumulation": "in",
    "altimeter": "inHg",
    "altitude": "ft",
    "temperature": "C",
    "visibility": "sm",
    "wind_speed": "kt"
  }
}
