{
  "meta": {
    "timestamp": "2023-10-06T07:40:32.306178Z",
    "stations_updated": "2023-10-01",
    "cache-timestamp": "2023-10-06T07:40:02.592000Z"
  },
  "altimeter": {
    "repr": "A3031",
    "value": 30.31,
    "spoken": "three zero point three one"
  },
  "clouds": [],
  "flight_rules": "LIFR",
  "other": [],
  "visibility": {
    "repr": "3/4",
    "value": 0.75,
    "spoken": "three quarters",
    "numerator": 3,
    "denominator": 4,
    "normalized": "3/4"
  },
  "wind_direction": {
    "repr": "000",
    "value": 0,
    "spoken": "zero zero zero"
  },
  "wind_gust": null,
  "wind_speed": {
    "repr": "00",
    "value": 0,
    "spoken": "zero"
  },
  "wx_codes": [
    {
      "repr": "BR",
      "value": "Mist"
    }
  ],
  "raw": "KAWO 060733Z AUTO 00000KT 3/4SM BR CLR 10/10 A3031 RMK AO2 VIS 1/4V5",
  "sanitized": "KAWO 060733Z 00000KT 3/4SM BR 10/10 A3031 RMK AO2 VIS 1/4V5",
  "station": "KAWO",
  "time": {
    "repr": "060733Z",
    "dt": "2023-10-06T07:33:00Z"
  },
  "remarks": "RMK AO2 VIS 1/4V5",
  "dewpoint": {
    "repr": "10",
    "value": 10,
    "spoken": "one zero"
  },
  "relative_humidity": 1,
  "remarks_info": {
    "maximum_temperature_6": null,
    "minimum_temperature_6": null,
    "pressure_tendency": null,
    "precip_36_hours": null,
    "precip_24_hours": null,
    "sunshine_minutes": null,
    "codes": [
      {
        "repr": "AO2",
        "value": "Automated with precipitation sensor"
      }
    ],
    "dewpoint_decimal": null,
    "maximum_temperature_24": null,
    "minimum_temperature_24": null,
    "precip_hourly": null,
    "sea_level_pressure": null,
    "snow_depth": null,
    "temperature_decimal": null
  },
  "runway_visibility": [],
  "temperature": {
    "repr": "10",
    "value": 10,
    "spoken": "one zero"
  },
  "wind_variable_direction": [],
  "density_altitude": -814,
  "pressure_altitude": -248,
  "units": {
    "accumulation": "in",
    "altimeter": "inHg",
    "altitude": "ft",
    "temperature": "C",
    "visibility": "sm",
    "wind_speed": "kt"
  }
}
