{
  "altimeter": {
    "repr": "A3012",
    "spoken": "three zero point one two",
    "value": 30.12
  },
  "clouds": [
    {
      "altitude": 20,
      "modifier": null,
      "repr": "FEW020",
      "type": "FEW"
    },
    {
      "altitude": 28,
      "modifier": null,
      "repr": "SCT028",
      "type": "SCT"
    },
    {
      "altitude": 36,
      "modifier": null,
      "repr": "OVC036",
      "type": "OVC"
    }
  ],
  "density_altitude": -744,
  "dewpoint": {
    "repr": "04",
    "spoken": "four",
    "value": 4
  },
  "flight_rules": "VFR",
  "meta": {
    "cache-timestamp": "2023-11-13T21:40:02.633000Z",
    "stations_updated": "2023-10-28",
    "timestamp": "2023-11-13T21:40:41.637119Z"
  },
  "other": [],
  "pressure_altitude": -58,
  "raw": "KAWO 132127Z AUTO VRB04KT 6SM RA FEW020 SCT028 OVC036 09/04 A3012 RMK AO2 RAB10 P0000",
  "relative_humidity": 0.7087545355451176,
  "remarks": "RMK AO2 RAB10 P0000",
  "remarks_info": {
    "codes": [
      {
        "repr": "AO2",
        "value": "Automated with precipitation sensor"
      },
      {
        "repr": "P0000",
        "value": "Trace amount of rain in the last hour"
      },
      {
        "repr": "RAB10",
        "value": "Rain began at :10"
      }
    ],
    "dewpoint_decimal": null,
    "maximum_temperature_24": null,
    "maximum_temperature_6": null,
    "minimum_temperature_24": null,
    "minimum_temperature_6": null,
    "precip_24_hours": null,
    "precip_36_hours": null,
    "precip_hourly": null,
    "pressure_tendency": null,
    "sea_level_pressure": null,
    "snow_depth": null,
    "sunshine_minutes": null,
    "temperature_decimal": null
  },
  "runway_visibility": [],
  "sanitized": "KAWO 132127Z VRB04KT 6SM RA FEW020 SCT028 OVC036 09/04 A3012 RMK AO2 RAB10 P0000",
  "station": "KAWO",
  "temperature": {
    "repr": "09",
    "spoken": "nine",
    "value": 9
  },
  "time": {
    "dt": "2023-11-13T21:27:00Z",
    "repr": "132127Z"
  },
  "units": {
    "accumulation": "in",
    "altimeter": "inHg",
    "altitude": "ft",
    "temperature": "C",
    "visibility": "sm",
    "wind_speed": "kt"
  },
  "visibility": {
    "repr": "6",
    "spoken": "six",
    "value": 6
  },
  "wind_direction": {
    "repr": "VRB",
    "spoken": "variable",
    "value": null
  },
  "wind_gust": null,
  "wind_speed": {
    "repr": "04",
    "spoken": "four",
    "value": 4
  },
  "wind_variable_direction": [],
  "wx_codes": [
    {
      "repr": "RA",
      "value": "Rain"
    }
  ]
}
