{
  "altimeter": {
    "repr": "A2977",
    "spoken": "two nine point seven seven",
    "value": 29.77
  },
  "clouds": [],
  "density_altitude": 854,
  "dewpoint": {
    "repr": "04",
    "spoken": "four",
    "value": 4
  },
  "flight_rules": "VFR",
  "meta": {
    "cache-timestamp": "2024-05-03T23:40:04.071000Z",
    "stations_updated": "2024-01-01",
    "timestamp": "2024-05-03T23:40:29.975281Z"
  },
  "other": [],
  "pressure_altitude": 292,
  "raw": "KAWO 032256Z AUTO 22005KT 10SM 19/04 A2977 RMK AO2 SLP085 T01940039",
  "relative_humidity": 0.358666847273703,
  "remarks": "RMK AO2 SLP085 T01940039",
  "remarks_info": {
    "codes": [
      {
        "repr": "AO2",
        "value": "Automated with precipitation sensor"
      }
    ],
    "dewpoint_decimal": {
      "repr": "0039",
      "spoken": "three point nine",
      "value": 3.9
    },
    "maximum_temperature_24": null,
    "maximum_temperature_6": null,
    "minimum_temperature_24": null,
    "minimum_temperature_6": null,
    "precip_24_hours": null,
    "precip_36_hours": null,
    "precip_hourly": null,
    "pressure_tendency": null,
    "sea_level_pressure": {
      "repr": "SLP085",
      "spoken": "one zero zero eight point five",
      "value": 1008.5
    },
    "snow_depth": null,
    "sunshine_minutes": null,
    "temperature_decimal": {
      "repr": "0194",
      "spoken": "one nine point four",
      "value": 19.4
    }
  },
  "runway_visibility": [],
  "sanitized": "KAWO 032256Z 22005KT 10SM 19/04 A2977 RMK AO2 SLP085 T01940039",
  "station": "KAWO",
  "temperature": {
    "repr": "19",
    "spoken": "one nine",
    "value": 19
  },
  "time": {
    "dt": "2024-05-03T22:56:00Z",
    "repr": "032256Z"
  },
  "units": {
    "accumulation": "in",
    "altimeter": "inHg",
    "altitude": "ft",
    "temperature": "C",
    "visibility": "sm",
    "wind_speed": "kt"
  },
  "visibility": {
    "repr": "10",
    "spoken": "one zero",
    "value": 10
  },
  "wind_direction": {
    "repr": "220",
    "spoken": "two two zero",
    "value": 220
  },
  "wind_gust": null,
  "wind_speed": {
    "repr": "05",
    "spoken": "five",
    "value": 5
  },
  "wind_variable_direction": [],
  "wx_codes": []
}
