{
  "meta": {
    "timestamp": "2023-08-29T11:40:53.055069Z",
    "stations_updated": "2023-08-05",
    "cache-timestamp": "2023-08-29T11:40:03.522000Z"
  },
  "altimeter": {
    "repr": "A3009",
    "value": 30.09,
    "spoken": "three zero point zero nine"
  },
  "clouds": [
    {
      "repr": "OVC022",
      "type": "OVC",
      "altitude": 22,
      "modifier": null
    }
  ],
  "flight_rules": "MVFR",
  "other": [],
  "visibility": {
    "repr": "10",
    "value": 10,
    "spoken": "one zero"
  },
  "wind_direction": {
    "repr": "040",
    "value": 40,
    "spoken": "zero four zero"
  },
  "wind_gust": null,
  "wind_speed": {
    "repr": "03",
    "value": 3,
    "spoken": "three"
  },
  "wx_codes": [
    {
      "repr": "VCTS",
      "value": "Vicinity Thunderstorm"
    },
    {
      "repr": "-RA",
      "value": "Light Rain"
    }
  ],
  "raw": "KAWO 291132Z AUTO 04003KT 10SM VCTS -RA OVC022 16/14 A3009 RMK AO2 LTG DSNT SE TSB26RAE01B26 P0000",
  "sanitized": "KAWO 291132Z 04003KT 10SM VCTS -RA OVC022 16/14 A3009 RMK AO2 LTG DSNT SE TSB26RAE01B26 P0000",
  "station": "KAWO",
  "time": {
    "repr": "291132Z",
    "dt": "2023-08-29T11:32:00Z"
  },
  "remarks": "RMK AO2 LTG DSNT SE TSB26RAE01B26 P0000",
  "dewpoint": {
    "repr": "14",
    "value": 14,
    "spoken": "one four"
  },
  "relative_humidity": 0.8791667108061192,
  "remarks_info": {
    "maximum_temperature_6": null,
    "minimum_temperature_6": null,
    "pressure_tendency": null,
    "precip_36_hours": null,
    "precip_24_hours": null,
    "sunshine_minutes": null,
    "codes": [
      {
        "repr": "AO2",
        "value": "Automated with precipitation sensor"
      },
      {
        "repr": "P0000",
        "value": "Trace amount of rain in the last hour"
      }
    ],
    "dewpoint_decimal": null,
    "maximum_temperature_24": null,
    "minimum_temperature_24": null,
    "precip_hourly": null,
    "sea_level_pressure": null,
    "snow_depth": null,
    "temperature_decimal": null
  },
  "runway_visibility": [],
  "temperature": {
    "repr": "16",
    "value": 16,
    "spoken": "one six"
  },
  "wind_variable_direction": [],
  "density_altitude": 126,
  "pressure_altitude": -28,
  "units": {
    "accumulation": "in",
    "altimeter": "inHg",
    "altitude": "ft",
    "temperature": "C",
    "visibility": "sm",
    "wind_speed": "kt"
  }
}
