{
  "meta": {
    "timestamp": "2022-11-08T15:47:11.694811Z",
    "stations_updated": "2022-09-05"
  },
  "altimeter": {
    "repr": "A2992",
    "value": 29.92,
    "spoken": "two nine point nine two"
  },
  "clouds": [
    {
      "repr": "BKN090",
      "type": "BKN",
      "altitude": 90,
      "modifier": null
    }
  ],
  "flight_rules": "VFR",
  "other": [],
  "visibility": {
    "repr": "10",
    "value": 10,
    "spoken": "one zero"
  },
  "wind_direction": {
    "repr": "310",
    "value": 310,
    "spoken": "three one zero"
  },
  "wind_gust": null,
  "wind_speed": {
    "repr": "08",
    "value": 8,
    "spoken": "eight"
  },
  "wx_codes": [],
  "raw": "KAWO 081456Z AUTO 31008KT 10SM BKN090 M01/M02 A2992 RMK AO2 SLP138 T10111017 53015 FZRANO",
  "sanitized": "KAWO 081456Z 31008KT 10SM BKN090 M01/M02 A2992 RMK AO2 SLP138 T10111017 53015 FZRANO",
  "station": "KAWO",
  "time": {
    "repr": "081456Z",
    "dt": "2022-11-08T14:56:00Z"
  },
  "remarks": "RMK AO2 SLP138 T10111017 53015 FZRANO",
  "dewpoint": {
    "repr": "M02",
    "value": -2,
    "spoken": "minus two"
  },
  "relative_humidity": 0.9569107752623097,
  "remarks_info": {
    "maximum_temperature_6": null,
    "minimum_temperature_6": null,
    "pressure_tendency": {
      "repr": "53015",
      "tendency": "Decreasing or steady, then increasing",
      "change": 1.5
    },
    "precip_36_hours": null,
    "precip_24_hours": null,
    "sunshine_minutes": null,
    "codes": [
      {
        "repr": "AO2",
        "value": "Automated with precipitation sensor"
      },
      {
        "repr": "FZRANO",
        "value": "Freezing rain information not available"
      }
    ],
    "dewpoint_decimal": {
      "repr": "1017",
      "value": -1.7,
      "spoken": "minus one point seven"
    },
    "maximum_temperature_24": null,
    "minimum_temperature_24": null,
    "precip_hourly": null,
    "sea_level_pressure": {
      "repr": "SLP138",
      "value": 1013.8,
      "spoken": "one zero one three point eight"
    },
    "snow_depth": null,
    "temperature_decimal": {
      "repr": "1011",
      "value": -1.1,
      "spoken": "minus one point one"
    }
  },
  "runway_visibility": [],
  "temperature": {
    "repr": "M01",
    "value": -1,
    "spoken": "minus one"
  },
  "wind_variable_direction": [],
  "density_altitude": -1756,
  "pressure_altitude": 142,
  "units": {
    "accumulation": "in",
    "altimeter": "inHg",
    "altitude": "ft",
    "temperature": "C",
    "visibility": "sm",
    "wind_speed": "kt"
  }
}
