{
  "meta": {
    "timestamp": "2023-10-11T06:08:00.304885Z",
    "stations_updated": "2023-10-01"
  },
  "altimeter": {
    "repr": "A2950",
    "value": 29.5,
    "spoken": "two nine point five zero"
  },
  "clouds": [
    {
      "repr": "SCT014",
      "type": "SCT",
      "altitude": 14,
      "modifier": null
    },
    {
      "repr": "OVC065",
      "type": "OVC",
      "altitude": 65,
      "modifier": null
    }
  ],
  "flight_rules": "VFR",
  "other": [],
  "visibility": {
    "repr": "10",
    "value": 10,
    "spoken": "one zero"
  },
  "wind_direction": {
    "repr": "150",
    "value": 150,
    "spoken": "one five zero"
  },
  "wind_gust": null,
  "wind_speed": {
    "repr": "11",
    "value": 11,
    "spoken": "one one"
  },
  "wx_codes": [
    {
      "repr": "-RA",
      "value": "Light Rain"
    }
  ],
  "raw": "KAWO 110556Z AUTO 15011KT 10SM -RA SCT014 OVC065 12/11 A2950 RMK AO2 SLP993 P0007 60010 T01170106 10150 20117 53016",
  "sanitized": "KAWO 110556Z 15011KT 10SM -RA SCT014 OVC065 12/11 A2950 RMK AO2 SLP993 P0007 60010 T01170106 10150 20117 53016",
  "station": "KAWO",
  "time": {
    "repr": "110556Z",
    "dt": "2023-10-11T05:56:00Z"
  },
  "remarks": "RMK AO2 SLP993 P0007 60010 T01170106 10150 20117 53016",
  "dewpoint": {
    "repr": "11",
    "value": 11,
    "spoken": "one one"
  },
  "relative_humidity": 0.9296133286105723,
  "remarks_info": {
    "maximum_temperature_6": {
      "repr": "10150",
      "value": 15,
      "spoken": "one five point zero"
    },
    "minimum_temperature_6": {
      "repr": "20117",
      "value": 11.7,
      "spoken": "one one point seven"
    },
    "pressure_tendency": {
      "repr": "53016",
      "tendency": "Decreasing or steady, then increasing",
      "change": 1.6
    },
    "precip_36_hours": {
      "repr": "60010",
      "value": 0.1,
      "spoken": "zero point one"
    },
    "precip_24_hours": null,
    "sunshine_minutes": null,
    "codes": [
      {
        "repr": "AO2",
        "value": "Automated with precipitation sensor"
      }
    ],
    "dewpoint_decimal": {
      "repr": "0106",
      "value": 10.6,
      "spoken": "one zero point six"
    },
    "maximum_temperature_24": null,
    "minimum_temperature_24": null,
    "precip_hourly": {
      "repr": "P0007",
      "value": 0.07,
      "spoken": "zero point zero seven"
    },
    "sea_level_pressure": {
      "repr": "SLP993",
      "value": 999.3,
      "spoken": "nine nine nine point three"
    },
    "snow_depth": null,
    "temperature_decimal": {
      "repr": "0117",
      "value": 11.7,
      "spoken": "one one point seven"
    }
  },
  "runway_visibility": [],
  "temperature": {
    "repr": "12",
    "value": 12,
    "spoken": "one two"
  },
  "wind_variable_direction": [],
  "density_altitude": 200,
  "pressure_altitude": 562,
  "units": {
    "accumulation": "in",
    "altimeter": "inHg",
    "altitude": "ft",
    "temperature": "C",
    "visibility": "sm",
    "wind_speed": "kt"
  }
}
