{
  "altimeter": {
    "repr": "A2964",
    "spoken": "two nine point six four",
    "value": 29.64
  },
  "clouds": [
    {
      "altitude": 22,
      "modifier": null,
      "repr": "BKN022",
      "type": "BKN"
    },
    {
      "altitude": 27,
      "modifier": null,
      "repr": "OVC027",
      "type": "OVC"
    }
  ],
  "density_altitude": -72,
  "dewpoint": {
    "repr": "08",
    "spoken": "eight",
    "value": 8
  },
  "flight_rules": "MVFR",
  "meta": {
    "stations_updated": "2024-10-29",
    "timestamp": "2024-11-11T18:09:09.074650Z"
  },
  "other": [],
  "pressure_altitude": 422,
  "raw": "KAWO 111756Z AUTO 17015G19KT 10SM BKN022 OVC027 11/08 A2964 RMK AO2 PRESRR SLP043 60001 T01060078 10111 20106 53046",
  "relative_humidity": 0.828062043990444,
  "remarks": "RMK AO2 PRESRR SLP043 60001 T01060078 10111 20106 53046",
  "remarks_info": {
    "codes": [
      {
        "repr": "AO2",
        "value": "Automated with precipitation sensor"
      },
      {
        "repr": "PRESRR",
        "value": "Pressure Rising Rapidly"
      }
    ],
    "dewpoint_decimal": {
      "repr": "0078",
      "spoken": "seven point eight",
      "value": 7.8
    },
    "maximum_temperature_24": null,
    "maximum_temperature_6": {
      "repr": "10111",
      "spoken": "one one point one",
      "value": 11.1
    },
    "minimum_temperature_24": null,
    "minimum_temperature_6": {
      "repr": "20106",
      "spoken": "one zero point six",
      "value": 10.6
    },
    "precip_24_hours": null,
    "precip_36_hours": {
      "repr": "60001",
      "spoken": "zero point zero one",
      "value": 0.01
    },
    "precip_hourly": null,
    "pressure_tendency": {
      "change": 4.6,
      "repr": "53046",
      "tendency": "Decreasing or steady, then increasing"
    },
    "sea_level_pressure": {
      "repr": "SLP043",
      "spoken": "one zero zero four point three",
      "value": 1004.3
    },
    "snow_depth": null,
    "sunshine_minutes": null,
    "temperature_decimal": {
      "repr": "0106",
      "spoken": "one zero point six",
      "value": 10.6
    }
  },
  "runway_visibility": [],
  "sanitized": "KAWO 111756Z 17015G19KT 10SM BKN022 OVC027 11/08 A2964 RMK AO2 PRESRR SLP043 60001 T01060078 10111 20106 53046",
  "station": "KAWO",
  "temperature": {
    "repr": "11",
    "spoken": "one one",
    "value": 11
  },
  "time": {
    "dt": "2024-11-11T17:56:00Z",
    "repr": "111756Z"
  },
  "units": {
    "accumulation": "in",
    "altimeter": "inHg",
    "altitude": "ft",
    "temperature": "C",
    "visibility": "sm",
    "wind_speed": "kt"
  },
  "visibility": {
    "repr": "10",
    "spoken": "one zero",
    "value": 10
  },
  "wind_direction": {
    "repr": "170",
    "spoken": "one seven zero",
    "value": 170
  },
  "wind_gust": {
    "repr": "19",
    "spoken": "one nine",
    "value": 19
  },
  "wind_speed": {
    "repr": "15",
    "spoken": "one five",
    "value": 15
  },
  "wind_variable_direction": [],
  "wx_codes": []
}
