{
  "meta": {
    "timestamp": "2022-07-28T20:04:30.309808Z",
    "stations_updated": "2022-07-17"
  },
  "altimeter": {
    "repr": "A2995",
    "value": 29.95,
    "spoken": "two nine point nine five"
  },
  "clouds": [],
  "flight_rules": "VFR",
  "other": [],
  "visibility": {
    "repr": "10",
    "value": 10,
    "spoken": "one zero"
  },
  "wind_direction": {
    "repr": "340",
    "value": 340,
    "spoken": "three four zero"
  },
  "wind_gust": null,
  "wind_speed": {
    "repr": "07",
    "value": 7,
    "spoken": "seven"
  },
  "wx_codes": [],
  "raw": "KAWO 281956Z AUTO 34007KT 10SM CLR 29/18 A2995 RMK AO2 SLP146 T02940183",
  "sanitized": "KAWO 281956Z 34007KT 10SM 29/18 A2995 RMK AO2 SLP146 T02940183",
  "station": "KAWO",
  "time": {
    "repr": "281956Z",
    "dt": "2022-07-28T19:56:00Z"
  },
  "remarks": "RMK AO2 SLP146 T02940183",
  "dewpoint": {
    "repr": "18",
    "value": 18,
    "spoken": "one eight"
  },
  "relative_humidity": 0.5124894134865138,
  "remarks_info": {
    "maximum_temperature_6": null,
    "minimum_temperature_6": null,
    "pressure_tendency": null,
    "precip_36_hours": null,
    "precip_24_hours": null,
    "sunshine_minutes": null,
    "codes": [
      {
        "repr": "AO2",
        "value": "Automated with precipitation sensor"
      }
    ],
    "dewpoint_decimal": {
      "repr": "0183",
      "value": 18.3,
      "spoken": "one eight point three"
    },
    "maximum_temperature_24": null,
    "minimum_temperature_24": null,
    "precip_hourly": null,
    "sea_level_pressure": {
      "repr": "SLP146",
      "value": 1014.6,
      "spoken": "one zero one four point six"
    },
    "snow_depth": null,
    "temperature_decimal": {
      "repr": "0294",
      "value": 29.4,
      "spoken": "two nine point four"
    }
  },
  "runway_visibility": [],
  "temperature": {
    "repr": "29",
    "value": 29,
    "spoken": "two nine"
  },
  "wind_variable_direction": [],
  "density_altitude": 1874,
  "pressure_altitude": 112,
  "units": {
    "accumulation": "in",
    "altimeter": "inHg",
    "altitude": "ft",
    "temperature": "C",
    "visibility": "sm",
    "wind_speed": "kt"
  }
}
