{
  "meta": {
    "timestamp": "2022-12-10T08:42:37.080002Z",
    "stations_updated": "2022-09-05"
  },
  "altimeter": {
    "repr": "A2939",
    "value": 29.39,
    "spoken": "two nine point three nine"
  },
  "clouds": [
    {
      "repr": "OVC037",
      "type": "OVC",
      "altitude": 37,
      "modifier": null
    }
  ],
  "flight_rules": "VFR",
  "other": [],
  "visibility": {
    "repr": "10",
    "value": 10,
    "spoken": "one zero"
  },
  "wind_direction": {
    "repr": "140",
    "value": 140,
    "spoken": "one four zero"
  },
  "wind_gust": null,
  "wind_speed": {
    "repr": "05",
    "value": 5,
    "spoken": "five"
  },
  "wx_codes": [
    {
      "repr": "RA",
      "value": "Rain"
    }
  ],
  "raw": "KAWO 100756Z AUTO 14005KT 10SM RA OVC037 04/03 A2939 RMK AO2 SLP958 P0007 T00440028 400670022",
  "sanitized": "KAWO 100756Z 14005KT 10SM RA OVC037 04/03 A2939 RMK AO2 SLP958 P0007 T00440028 400670022",
  "station": "KAWO",
  "time": {
    "repr": "100756Z",
    "dt": "2022-12-10T07:56:00Z"
  },
  "remarks": "RMK AO2 SLP958 P0007 T00440028 400670022",
  "dewpoint": {
    "repr": "03",
    "value": 3,
    "spoken": "three"
  },
  "relative_humidity": 0.893374437578054,
  "remarks_info": {
    "maximum_temperature_6": null,
    "minimum_temperature_6": null,
    "pressure_tendency": null,
    "precip_36_hours": null,
    "precip_24_hours": null,
    "sunshine_minutes": null,
    "codes": [
      {
        "repr": "AO2",
        "value": "Automated with precipitation sensor"
      }
    ],
    "dewpoint_decimal": {
      "repr": "0028",
      "value": 2.8,
      "spoken": "two point eight"
    },
    "maximum_temperature_24": {
      "repr": "0067",
      "value": 6.7,
      "spoken": "six point seven"
    },
    "minimum_temperature_24": {
      "repr": "0022",
      "value": 2.2,
      "spoken": "two point two"
    },
    "precip_hourly": {
      "repr": "P0007",
      "value": 0.07,
      "spoken": "zero point zero seven"
    },
    "sea_level_pressure": {
      "repr": "SLP958",
      "value": 995.8,
      "spoken": "nine nine five point eight"
    },
    "snow_depth": null,
    "temperature_decimal": {
      "repr": "0044",
      "value": 4.4,
      "spoken": "four point four"
    }
  },
  "runway_visibility": [],
  "temperature": {
    "repr": "04",
    "value": 4,
    "spoken": "four"
  },
  "wind_variable_direction": [],
  "density_altitude": -566,
  "pressure_altitude": 672,
  "units": {
    "accumulation": "in",
    "altimeter": "inHg",
    "altitude": "ft",
    "temperature": "C",
    "visibility": "sm",
    "wind_speed": "kt"
  }
}
