{
  "meta": {
    "timestamp": "2022-12-21T17:26:00.553181Z",
    "stations_updated": "2022-09-05"
  },
  "altimeter": {
    "repr": "A3048",
    "value": 30.48,
    "spoken": "three zero point four eight"
  },
  "clouds": [],
  "flight_rules": "VFR",
  "other": [],
  "visibility": {
    "repr": "10",
    "value": 10,
    "spoken": "one zero"
  },
  "wind_direction": {
    "repr": "000",
    "value": 0,
    "spoken": "zero zero zero"
  },
  "wind_gust": null,
  "wind_speed": {
    "repr": "00",
    "value": 0,
    "spoken": "zero"
  },
  "wx_codes": [],
  "raw": "KAWO 211656Z AUTO 00000KT 10SM CLR M12/M13 A3048 RMK AO2 SLP330 T11171133 FZRANO",
  "sanitized": "KAWO 211656Z 00000KT 10SM M12/M13 A3048 RMK AO2 SLP330 T11171133 FZRANO",
  "station": "KAWO",
  "time": {
    "repr": "211656Z",
    "dt": "2022-12-21T16:56:00Z"
  },
  "remarks": "RMK AO2 SLP330 T11171133 FZRANO",
  "dewpoint": {
    "repr": "M13",
    "value": -13,
    "spoken": "minus one three"
  },
  "relative_humidity": 0.8789616844580567,
  "remarks_info": {
    "maximum_temperature_6": null,
    "minimum_temperature_6": null,
    "pressure_tendency": null,
    "precip_36_hours": null,
    "precip_24_hours": null,
    "sunshine_minutes": null,
    "codes": [
      {
        "repr": "AO2",
        "value": "Automated with precipitation sensor"
      },
      {
        "repr": "FZRANO",
        "value": "Freezing rain information not available"
      }
    ],
    "dewpoint_decimal": {
      "repr": "1133",
      "value": -13.3,
      "spoken": "minus one three point three"
    },
    "maximum_temperature_24": null,
    "minimum_temperature_24": null,
    "precip_hourly": null,
    "sea_level_pressure": {
      "repr": "SLP330",
      "value": 1033,
      "spoken": "one zero three three point zero"
    },
    "snow_depth": null,
    "temperature_decimal": {
      "repr": "1117",
      "value": -11.7,
      "spoken": "minus one one point seven"
    }
  },
  "runway_visibility": [],
  "temperature": {
    "repr": "M12",
    "value": -12,
    "spoken": "minus one two"
  },
  "wind_variable_direction": [],
  "density_altitude": -3588,
  "pressure_altitude": -418,
  "units": {
    "accumulation": "in",
    "altimeter": "inHg",
    "altitude": "ft",
    "temperature": "C",
    "visibility": "sm",
    "wind_speed": "kt"
  }
}
