{
  "meta": {
    "timestamp": "2022-08-19T14:12:04.937962Z",
    "stations_updated": "2022-07-17"
  },
  "altimeter": {
    "repr": "A2992",
    "value": 29.92,
    "spoken": "two nine point nine two"
  },
  "clouds": [
    {
      "repr": "FEW055",
      "type": "FEW",
      "altitude": 55,
      "modifier": null
    },
    {
      "repr": "SCT090",
      "type": "SCT",
      "altitude": 90,
      "modifier": null
    },
    {
      "repr": "BKN110",
      "type": "BKN",
      "altitude": 110,
      "modifier": null
    }
  ],
  "flight_rules": "VFR",
  "other": [],
  "visibility": {
    "repr": "10",
    "value": 10,
    "spoken": "one zero"
  },
  "wind_direction": {
    "repr": "180",
    "value": 180,
    "spoken": "one eight zero"
  },
  "wind_gust": null,
  "wind_speed": {
    "repr": "04",
    "value": 4,
    "spoken": "four"
  },
  "wx_codes": [
    {
      "repr": "-RA",
      "value": "Light Rain"
    }
  ],
  "raw": "KAWO 191356Z AUTO 18004KT 10SM -RA FEW055 SCT090 BKN110 21/19 A2992 RMK AO2 RAB45 SLP134 P0000 T02060189",
  "sanitized": "KAWO 191356Z 18004KT 10SM -RA FEW055 SCT090 BKN110 21/19 A2992 RMK AO2 RAB45 SLP134 P0000 T02060189",
  "station": "KAWO",
  "time": {
    "repr": "191356Z",
    "dt": "2022-08-19T13:56:00Z"
  },
  "remarks": "RMK AO2 RAB45 SLP134 P0000 T02060189",
  "dewpoint": {
    "repr": "19",
    "value": 19,
    "spoken": "one nine"
  },
  "relative_humidity": 0.8998307996383159,
  "remarks_info": {
    "maximum_temperature_6": null,
    "minimum_temperature_6": null,
    "pressure_tendency": null,
    "precip_36_hours": null,
    "precip_24_hours": null,
    "sunshine_minutes": null,
    "codes": [
      {
        "repr": "AO2",
        "value": "Automated with precipitation sensor"
      },
      {
        "repr": "P0000",
        "value": "Trace amount of rain in the last hour"
      },
      {
        "repr": "RAB45",
        "value": "Rain began at :45"
      }
    ],
    "dewpoint_decimal": {
      "repr": "0189",
      "value": 18.9,
      "spoken": "one eight point nine"
    },
    "maximum_temperature_24": null,
    "minimum_temperature_24": null,
    "precip_hourly": null,
    "sea_level_pressure": {
      "repr": "SLP134",
      "value": 1013.4,
      "spoken": "one zero one three point four"
    },
    "snow_depth": null,
    "temperature_decimal": {
      "repr": "0206",
      "value": 20.6,
      "spoken": "two zero point six"
    }
  },
  "runway_visibility": [],
  "temperature": {
    "repr": "21",
    "value": 21,
    "spoken": "two one"
  },
  "wind_variable_direction": [],
  "density_altitude": 848,
  "pressure_altitude": 142,
  "units": {
    "accumulation": "in",
    "altimeter": "inHg",
    "altitude": "ft",
    "temperature": "C",
    "visibility": "sm",
    "wind_speed": "kt"
  }
}
