{
  "altimeter": {
    "repr": "A2929",
    "spoken": "two nine point two nine",
    "value": 29.29
  },
  "clouds": [
    {
      "altitude": 42,
      "modifier": null,
      "repr": "OVC042",
      "type": "OVC"
    }
  ],
  "density_altitude": -190,
  "dewpoint": {
    "repr": "06",
    "spoken": "six",
    "value": 6
  },
  "flight_rules": "VFR",
  "meta": {
    "stations_updated": "2024-12-02",
    "timestamp": "2024-12-26T09:27:55.531482Z"
  },
  "other": [],
  "pressure_altitude": 772,
  "raw": "KAWO 260856Z AUTO 10011G16KT 10SM -RA OVC042 07/06 A2929 RMK AO2 SLP925 P0008 60027 T00670061 57061",
  "relative_humidity": 0.9595042676817481,
  "remarks": "RMK AO2 SLP925 P0008 60027 T00670061 57061",
  "remarks_info": {
    "codes": [
      {
        "repr": "AO2",
        "value": "Automated with precipitation sensor"
      }
    ],
    "dewpoint_decimal": {
      "repr": "0061",
      "spoken": "six point one",
      "value": 6.1
    },
    "maximum_temperature_24": null,
    "maximum_temperature_6": null,
    "minimum_temperature_24": null,
    "minimum_temperature_6": null,
    "precip_24_hours": null,
    "precip_36_hours": {
      "repr": "60027",
      "spoken": "zero point two seven",
      "value": 0.27
    },
    "precip_hourly": {
      "repr": "P0008",
      "spoken": "zero point zero eight",
      "value": 0.08
    },
    "pressure_tendency": {
      "change": 6.1,
      "repr": "57061",
      "tendency": "Decreasing steadily or unsteadily"
    },
    "sea_level_pressure": {
      "repr": "SLP925",
      "spoken": "nine nine two point five",
      "value": 992.5
    },
    "snow_depth": null,
    "sunshine_minutes": null,
    "temperature_decimal": {
      "repr": "0067",
      "spoken": "six point seven",
      "value": 6.7
    }
  },
  "runway_visibility": [],
  "sanitized": "KAWO 260856Z 10011G16KT 10SM -RA OVC042 07/06 A2929 RMK AO2 SLP925 P0008 60027 T00670061 57061",
  "station": "KAWO",
  "temperature": {
    "repr": "07",
    "spoken": "seven",
    "value": 7
  },
  "time": {
    "dt": "2024-12-26T08:56:00Z",
    "repr": "260856Z"
  },
  "units": {
    "accumulation": "in",
    "altimeter": "inHg",
    "altitude": "ft",
    "temperature": "C",
    "visibility": "sm",
    "wind_speed": "kt"
  },
  "visibility": {
    "repr": "10",
    "spoken": "one zero",
    "value": 10
  },
  "wind_direction": {
    "repr": "100",
    "spoken": "one zero zero",
    "value": 100
  },
  "wind_gust": {
    "repr": "16",
    "spoken": "one six",
    "value": 16
  },
  "wind_speed": {
    "repr": "11",
    "spoken": "one one",
    "value": 11
  },
  "wind_variable_direction": [],
  "wx_codes": [
    {
      "repr": "-RA",
      "value": "Light Rain"
    }
  ]
}
