{
  "meta": {
    "timestamp": "2023-06-18T18:02:25.026720Z",
    "stations_updated": "2023-06-06",
    "cache-timestamp": "2023-06-18T18:02:03.558000Z"
  },
  "altimeter": {
    "repr": "A2989",
    "value": 29.89,
    "spoken": "two nine point eight nine"
  },
  "clouds": [
    {
      "repr": "SCT035",
      "type": "SCT",
      "altitude": 35,
      "modifier": null
    },
    {
      "repr": "BKN045",
      "type": "BKN",
      "altitude": 45,
      "modifier": null
    },
    {
      "repr": "BKN050",
      "type": "BKN",
      "altitude": 50,
      "modifier": null
    }
  ],
  "flight_rules": "VFR",
  "other": [],
  "visibility": {
    "repr": "10",
    "value": 10,
    "spoken": "one zero"
  },
  "wind_direction": {
    "repr": "220",
    "value": 220,
    "spoken": "two two zero"
  },
  "wind_gust": null,
  "wind_speed": {
    "repr": "05",
    "value": 5,
    "spoken": "five"
  },
  "wx_codes": [
    {
      "repr": "-RA",
      "value": "Light Rain"
    }
  ],
  "raw": "KAWO 181656Z AUTO 22005KT 10SM -RA SCT035 BKN045 BKN050 12/08 A2989 RMK AO2 RAB01E30B52 SLP126 P0000 T01220083",
  "sanitized": "KAWO 181656Z 22005KT 10SM -RA SCT035 BKN045 BKN050 12/08 A2989 RMK AO2 RAB01E30B52 SLP126 P0000 T01220083",
  "station": "KAWO",
  "time": {
    "repr": "181656Z",
    "dt": "2023-06-18T16:56:00Z"
  },
  "remarks": "RMK AO2 RAB01E30B52 SLP126 P0000 T01220083",
  "dewpoint": {
    "repr": "08",
    "value": 8,
    "spoken": "eight"
  },
  "relative_humidity": 0.7705709408156373,
  "remarks_info": {
    "maximum_temperature_6": null,
    "minimum_temperature_6": null,
    "pressure_tendency": null,
    "precip_36_hours": null,
    "precip_24_hours": null,
    "sunshine_minutes": null,
    "codes": [
      {
        "repr": "AO2",
        "value": "Automated with precipitation sensor"
      },
      {
        "repr": "P0000",
        "value": "Trace amount of rain in the last hour"
      }
    ],
    "dewpoint_decimal": {
      "repr": "0083",
      "value": 8.3,
      "spoken": "eight point three"
    },
    "maximum_temperature_24": null,
    "minimum_temperature_24": null,
    "precip_hourly": null,
    "sea_level_pressure": {
      "repr": "SLP126",
      "value": 1012.6,
      "spoken": "one zero one two point six"
    },
    "snow_depth": null,
    "temperature_decimal": {
      "repr": "0122",
      "value": 12.2,
      "spoken": "one two point two"
    }
  },
  "runway_visibility": [],
  "temperature": {
    "repr": "12",
    "value": 12,
    "spoken": "one two"
  },
  "wind_variable_direction": [],
  "density_altitude": -130,
  "pressure_altitude": 172,
  "units": {
    "accumulation": "in",
    "altimeter": "inHg",
    "altitude": "ft",
    "temperature": "C",
    "visibility": "sm",
    "wind_speed": "kt"
  }
}
