{
  "altimeter": {
    "repr": "A2967",
    "spoken": "two nine point six seven",
    "value": 29.67
  },
  "clouds": [
    {
      "altitude": 18,
      "modifier": null,
      "repr": "SCT018",
      "type": "SCT"
    },
    {
      "altitude": 24,
      "modifier": null,
      "repr": "BKN024",
      "type": "BKN"
    },
    {
      "altitude": 32,
      "modifier": null,
      "repr": "OVC032",
      "type": "OVC"
    }
  ],
  "density_altitude": -306,
  "dewpoint": {
    "repr": "08",
    "spoken": "eight",
    "value": 8
  },
  "flight_rules": "MVFR",
  "meta": {
    "stations_updated": "2024-10-29",
    "timestamp": "2024-11-02T07:40:32.189640Z"
  },
  "other": [],
  "pressure_altitude": 392,
  "raw": "KAWO 020656Z AUTO 12006KT 5SM RA BR SCT018 BKN024 OVC032 09/08 A2967 RMK AO2 RAB42 SLP053 P0001 T00890078 400940067",
  "relative_humidity": 0.9280975124584884,
  "remarks": "RMK AO2 RAB42 SLP053 P0001 T00890078 400940067",
  "remarks_info": {
    "codes": [
      {
        "repr": "AO2",
        "value": "Automated with precipitation sensor"
      },
      {
        "repr": "RAB42",
        "value": "Rain began at :42"
      }
    ],
    "dewpoint_decimal": {
      "repr": "0078",
      "spoken": "seven point eight",
      "value": 7.8
    },
    "maximum_temperature_24": {
      "repr": "0094",
      "spoken": "nine point four",
      "value": 9.4
    },
    "maximum_temperature_6": null,
    "minimum_temperature_24": {
      "repr": "0067",
      "spoken": "six point seven",
      "value": 6.7
    },
    "minimum_temperature_6": null,
    "precip_24_hours": null,
    "precip_36_hours": null,
    "precip_hourly": {
      "repr": "P0001",
      "spoken": "zero point zero one",
      "value": 0.01
    },
    "pressure_tendency": null,
    "sea_level_pressure": {
      "repr": "SLP053",
      "spoken": "one zero zero five point three",
      "value": 1005.3
    },
    "snow_depth": null,
    "sunshine_minutes": null,
    "temperature_decimal": {
      "repr": "0089",
      "spoken": "eight point nine",
      "value": 8.9
    }
  },
  "runway_visibility": [],
  "sanitized": "KAWO 020656Z 12006KT 5SM RA BR SCT018 BKN024 OVC032 09/08 A2967 RMK AO2 RAB42 SLP053 P0001 T00890078 400940067",
  "station": "KAWO",
  "temperature": {
    "repr": "09",
    "spoken": "nine",
    "value": 9
  },
  "time": {
    "dt": "2024-11-02T06:56:00Z",
    "repr": "020656Z"
  },
  "units": {
    "accumulation": "in",
    "altimeter": "inHg",
    "altitude": "ft",
    "temperature": "C",
    "visibility": "sm",
    "wind_speed": "kt"
  },
  "visibility": {
    "repr": "5",
    "spoken": "five",
    "value": 5
  },
  "wind_direction": {
    "repr": "120",
    "spoken": "one two zero",
    "value": 120
  },
  "wind_gust": null,
  "wind_speed": {
    "repr": "06",
    "spoken": "six",
    "value": 6
  },
  "wind_variable_direction": [],
  "wx_codes": [
    {
      "repr": "RA",
      "value": "Rain"
    },
    {
      "repr": "BR",
      "value": "Mist"
    }
  ]
}
