{
  "meta": {
    "timestamp": "2022-12-22T19:20:50.180349Z",
    "stations_updated": "2022-09-05"
  },
  "altimeter": {
    "repr": "A3044",
    "value": 30.44,
    "spoken": "three zero point four four"
  },
  "clouds": [],
  "flight_rules": "VFR",
  "other": [],
  "visibility": {
    "repr": "10",
    "value": 10,
    "spoken": "one zero"
  },
  "wind_direction": {
    "repr": "000",
    "value": 0,
    "spoken": "zero zero zero"
  },
  "wind_gust": null,
  "wind_speed": {
    "repr": "00",
    "value": 0,
    "spoken": "zero"
  },
  "wx_codes": [],
  "raw": "KAWO 221856Z AUTO 00000KT 10SM CLR M09/M12 A3044 RMK AO2 SLP318 T10941117 FZRANO",
  "sanitized": "KAWO 221856Z 00000KT 10SM M09/M12 A3044 RMK AO2 SLP318 T10941117 FZRANO",
  "station": "KAWO",
  "time": {
    "repr": "221856Z",
    "dt": "2022-12-22T18:56:00Z"
  },
  "remarks": "RMK AO2 SLP318 T10941117 FZRANO",
  "dewpoint": {
    "repr": "M12",
    "value": -12,
    "spoken": "minus one two"
  },
  "relative_humidity": 0.8332946768893975,
  "remarks_info": {
    "maximum_temperature_6": null,
    "minimum_temperature_6": null,
    "pressure_tendency": null,
    "precip_36_hours": null,
    "precip_24_hours": null,
    "sunshine_minutes": null,
    "codes": [
      {
        "repr": "AO2",
        "value": "Automated with precipitation sensor"
      },
      {
        "repr": "FZRANO",
        "value": "Freezing rain information not available"
      }
    ],
    "dewpoint_decimal": {
      "repr": "1117",
      "value": -11.7,
      "spoken": "minus one one point seven"
    },
    "maximum_temperature_24": null,
    "minimum_temperature_24": null,
    "precip_hourly": null,
    "sea_level_pressure": {
      "repr": "SLP318",
      "value": 1031.8,
      "spoken": "one zero three one point eight"
    },
    "snow_depth": null,
    "temperature_decimal": {
      "repr": "1094",
      "value": -9.4,
      "spoken": "minus nine point four"
    }
  },
  "runway_visibility": [],
  "temperature": {
    "repr": "M09",
    "value": -9,
    "spoken": "minus nine"
  },
  "wind_variable_direction": [],
  "density_altitude": -3272,
  "pressure_altitude": -378,
  "units": {
    "accumulation": "in",
    "altimeter": "inHg",
    "altitude": "ft",
    "temperature": "C",
    "visibility": "sm",
    "wind_speed": "kt"
  }
}
