{
  "altimeter": {
    "repr": "A3010",
    "spoken": "three zero point one zero",
    "value": 30.1
  },
  "clouds": [
    {
      "altitude": 27,
      "modifier": null,
      "repr": "OVC027",
      "type": "OVC"
    }
  ],
  "density_altitude": 200,
  "dewpoint": {
    "repr": "12",
    "spoken": "one two",
    "value": 12
  },
  "flight_rules": "MVFR",
  "meta": {
    "stations_updated": "2024-06-12",
    "timestamp": "2024-10-19T18:33:24.022116Z"
  },
  "other": [],
  "pressure_altitude": -38,
  "raw": "KAWO 191756Z AUTO 15022G29KT 10SM OVC027 17/12 A3010 RMK AO2 PK WND 17029/1754 SLP196 P0013 60020 T01670117 10167 20144 58003",
  "relative_humidity": 0.723265054976854,
  "remarks": "RMK AO2 PK WND 17029/1754 SLP196 P0013 60020 T01670117 10167 20144 58003",
  "remarks_info": {
    "codes": [
      {
        "repr": "AO2",
        "value": "Automated with precipitation sensor"
      }
    ],
    "dewpoint_decimal": {
      "repr": "0117",
      "spoken": "one one point seven",
      "value": 11.7
    },
    "maximum_temperature_24": null,
    "maximum_temperature_6": {
      "repr": "10167",
      "spoken": "one six point seven",
      "value": 16.7
    },
    "minimum_temperature_24": null,
    "minimum_temperature_6": {
      "repr": "20144",
      "spoken": "one four point four",
      "value": 14.4
    },
    "precip_24_hours": null,
    "precip_36_hours": {
      "repr": "60020",
      "spoken": "zero point two",
      "value": 0.2
    },
    "precip_hourly": {
      "repr": "P0013",
      "spoken": "zero point one three",
      "value": 0.13
    },
    "pressure_tendency": {
      "change": 0.3,
      "repr": "58003",
      "tendency": "Steady or increasing, then decreasing"
    },
    "sea_level_pressure": {
      "repr": "SLP196",
      "spoken": "one zero one nine point six",
      "value": 1019.6
    },
    "snow_depth": null,
    "sunshine_minutes": null,
    "temperature_decimal": {
      "repr": "0167",
      "spoken": "one six point seven",
      "value": 16.7
    }
  },
  "runway_visibility": [],
  "sanitized": "KAWO 191756Z 15022G29KT 10SM OVC027 17/12 A3010 RMK AO2 PK WND 17029/1754 SLP196 P0013 60020 T01670117 10167 20144 58003",
  "station": "KAWO",
  "temperature": {
    "repr": "17",
    "spoken": "one seven",
    "value": 17
  },
  "time": {
    "dt": "2024-10-19T17:56:00Z",
    "repr": "191756Z"
  },
  "units": {
    "accumulation": "in",
    "altimeter": "inHg",
    "altitude": "ft",
    "temperature": "C",
    "visibility": "sm",
    "wind_speed": "kt"
  },
  "visibility": {
    "repr": "10",
    "spoken": "one zero",
    "value": 10
  },
  "wind_direction": {
    "repr": "150",
    "spoken": "one five zero",
    "value": 150
  },
  "wind_gust": {
    "repr": "29",
    "spoken": "two nine",
    "value": 29
  },
  "wind_speed": {
    "repr": "22",
    "spoken": "two two",
    "value": 22
  },
  "wind_variable_direction": [],
  "wx_codes": []
}
