{
  "altimeter": {
    "repr": "A2972",
    "spoken": "two nine point seven two",
    "value": 29.72
  },
  "clouds": [
    {
      "altitude": 60,
      "modifier": null,
      "repr": "FEW060",
      "type": "FEW"
    },
    {
      "altitude": 75,
      "modifier": null,
      "repr": "SCT075",
      "type": "SCT"
    },
    {
      "altitude": 95,
      "modifier": null,
      "repr": "OVC095",
      "type": "OVC"
    }
  ],
  "density_altitude": -152,
  "dewpoint": {
    "repr": "09",
    "spoken": "nine",
    "value": 9
  },
  "flight_rules": "VFR",
  "meta": {
    "cache-timestamp": "2024-03-23T03:40:05.165000Z",
    "stations_updated": "2024-01-01",
    "timestamp": "2024-03-23T03:40:38.570069Z"
  },
  "other": [],
  "pressure_altitude": 342,
  "raw": "KAWO 230256Z AUTO 36003KT 10SM -RA FEW060 SCT075 OVC095 11/09 A2972 RMK AO2 SLP069 P0001 60001 T01060094 56011",
  "relative_humidity": 0.9227971730278188,
  "remarks": "RMK AO2 SLP069 P0001 60001 T01060094 56011",
  "remarks_info": {
    "codes": [
      {
        "repr": "AO2",
        "value": "Automated with precipitation sensor"
      }
    ],
    "dewpoint_decimal": {
      "repr": "0094",
      "spoken": "nine point four",
      "value": 9.4
    },
    "maximum_temperature_24": null,
    "maximum_temperature_6": null,
    "minimum_temperature_24": null,
    "minimum_temperature_6": null,
    "precip_24_hours": null,
    "precip_36_hours": {
      "repr": "60001",
      "spoken": "zero point zero one",
      "value": 0.01
    },
    "precip_hourly": {
      "repr": "P0001",
      "spoken": "zero point zero one",
      "value": 0.01
    },
    "pressure_tendency": {
      "change": 1.1,
      "repr": "56011",
      "tendency": "Decreasing, then steady"
    },
    "sea_level_pressure": {
      "repr": "SLP069",
      "spoken": "one zero zero six point nine",
      "value": 1006.9
    },
    "snow_depth": null,
    "sunshine_minutes": null,
    "temperature_decimal": {
      "repr": "0106",
      "spoken": "one zero point six",
      "value": 10.6
    }
  },
  "runway_visibility": [],
  "sanitized": "KAWO 230256Z 36003KT 10SM -RA FEW060 SCT075 OVC095 11/09 A2972 RMK AO2 SLP069 P0001 60001 T01060094 56011",
  "station": "KAWO",
  "temperature": {
    "repr": "11",
    "spoken": "one one",
    "value": 11
  },
  "time": {
    "dt": "2024-03-23T02:56:00Z",
    "repr": "230256Z"
  },
  "units": {
    "accumulation": "in",
    "altimeter": "inHg",
    "altitude": "ft",
    "temperature": "C",
    "visibility": "sm",
    "wind_speed": "kt"
  },
  "visibility": {
    "repr": "10",
    "spoken": "one zero",
    "value": 10
  },
  "wind_direction": {
    "repr": "360",
    "spoken": "three six zero",
    "value": 360
  },
  "wind_gust": null,
  "wind_speed": {
    "repr": "03",
    "spoken": "three",
    "value": 3
  },
  "wind_variable_direction": [],
  "wx_codes": [
    {
      "repr": "-RA",
      "value": "Light Rain"
    }
  ]
}
