{
  "meta": {
    "timestamp": "2023-01-15T00:30:54.599066Z",
    "stations_updated": "2022-12-27",
    "cache-timestamp": "2023-01-15T00:30:06.643000Z"
  },
  "altimeter": {
    "repr": "A2932",
    "value": 29.32,
    "spoken": "two nine point three two"
  },
  "clouds": [],
  "flight_rules": "VFR",
  "other": [],
  "visibility": {
    "repr": "10",
    "value": 10,
    "spoken": "one zero"
  },
  "wind_direction": {
    "repr": "010",
    "value": 10,
    "spoken": "zero one zero"
  },
  "wind_gust": null,
  "wind_speed": {
    "repr": "06",
    "value": 6,
    "spoken": "six"
  },
  "wx_codes": [],
  "raw": "KAWO 142356Z AUTO 01006KT 10SM CLR 11/07 A2932 RMK AO2 SLP932 T01110067 10133 20089 56026",
  "sanitized": "KAWO 142356Z 01006KT 10SM 11/07 A2932 RMK AO2 SLP932 T01110067 10133 20089 56026",
  "station": "KAWO",
  "time": {
    "repr": "142356Z",
    "dt": "2023-01-14T23:56:00Z"
  },
  "remarks": "RMK AO2 SLP932 T01110067 10133 20089 56026",
  "dewpoint": {
    "repr": "07",
    "value": 7,
    "spoken": "seven"
  },
  "relative_humidity": 0.7428986304870959,
  "remarks_info": {
    "maximum_temperature_6": {
      "repr": "10133",
      "value": 13.3,
      "spoken": "one three point three"
    },
    "minimum_temperature_6": {
      "repr": "20089",
      "value": 8.9,
      "spoken": "eight point nine"
    },
    "pressure_tendency": {
      "repr": "56026",
      "tendency": "Decreasing, then steady",
      "change": 2.6
    },
    "precip_36_hours": null,
    "precip_24_hours": null,
    "sunshine_minutes": null,
    "codes": [
      {
        "repr": "AO2",
        "value": "Automated with precipitation sensor"
      }
    ],
    "dewpoint_decimal": {
      "repr": "0067",
      "value": 6.7,
      "spoken": "six point seven"
    },
    "maximum_temperature_24": null,
    "minimum_temperature_24": null,
    "precip_hourly": null,
    "sea_level_pressure": {
      "repr": "SLP932",
      "value": 993.2,
      "spoken": "nine nine three point two"
    },
    "snow_depth": null,
    "temperature_decimal": {
      "repr": "0111",
      "value": 11.1,
      "spoken": "one one point one"
    }
  },
  "runway_visibility": [],
  "temperature": {
    "repr": "11",
    "value": 11,
    "spoken": "one one"
  },
  "wind_variable_direction": [],
  "density_altitude": 308,
  "pressure_altitude": 742,
  "units": {
    "accumulation": "in",
    "altimeter": "inHg",
    "altitude": "ft",
    "temperature": "C",
    "visibility": "sm",
    "wind_speed": "kt"
  }
}
