{
  "meta": {
    "timestamp": "2023-06-02T16:40:47.409903Z",
    "stations_updated": "2023-05-30",
    "cache-timestamp": "2023-06-02T16:40:04.731000Z"
  },
  "altimeter": {
    "repr": "A3014",
    "value": 30.14,
    "spoken": "three zero point one four"
  },
  "clouds": [],
  "flight_rules": "VFR",
  "other": [],
  "visibility": {
    "repr": "10",
    "value": 10,
    "spoken": "one zero"
  },
  "wind_direction": {
    "repr": "300",
    "value": 300,
    "spoken": "three zero zero"
  },
  "wind_gust": null,
  "wind_speed": {
    "repr": "05",
    "value": 5,
    "spoken": "five"
  },
  "wx_codes": [],
  "raw": "KAWO 021556Z AUTO 30005KT 10SM CLR 13/08 A3014 RMK AO2 SLP208 T01330078",
  "sanitized": "KAWO 021556Z 30005KT 10SM 13/08 A3014 RMK AO2 SLP208 T01330078",
  "station": "KAWO",
  "time": {
    "repr": "021556Z",
    "dt": "2023-06-02T15:56:00Z"
  },
  "remarks": "RMK AO2 SLP208 T01330078",
  "dewpoint": {
    "repr": "08",
    "value": 8,
    "spoken": "eight"
  },
  "relative_humidity": 0.6930176439885082,
  "remarks_info": {
    "maximum_temperature_6": null,
    "minimum_temperature_6": null,
    "pressure_tendency": null,
    "precip_36_hours": null,
    "precip_24_hours": null,
    "sunshine_minutes": null,
    "codes": [
      {
        "repr": "AO2",
        "value": "Automated with precipitation sensor"
      }
    ],
    "dewpoint_decimal": {
      "repr": "0078",
      "value": 7.8,
      "spoken": "seven point eight"
    },
    "maximum_temperature_24": null,
    "minimum_temperature_24": null,
    "precip_hourly": null,
    "sea_level_pressure": {
      "repr": "SLP208",
      "value": 1020.8,
      "spoken": "one zero two zero point eight"
    },
    "snow_depth": null,
    "temperature_decimal": {
      "repr": "0133",
      "value": 13.3,
      "spoken": "one three point three"
    }
  },
  "runway_visibility": [],
  "temperature": {
    "repr": "13",
    "value": 13,
    "spoken": "one three"
  },
  "wind_variable_direction": [],
  "density_altitude": -248,
  "pressure_altitude": -78,
  "units": {
    "accumulation": "in",
    "altimeter": "inHg",
    "altitude": "ft",
    "temperature": "C",
    "visibility": "sm",
    "wind_speed": "kt"
  }
}
