{
  "meta": {
    "timestamp": "2023-01-29T11:01:28.078053Z",
    "stations_updated": "2023-01-16"
  },
  "altimeter": {
    "repr": "A3042",
    "value": 30.42,
    "spoken": "three zero point four two"
  },
  "clouds": [],
  "flight_rules": "VFR",
  "other": [],
  "visibility": {
    "repr": "10",
    "value": 10,
    "spoken": "one zero"
  },
  "wind_direction": {
    "repr": "340",
    "value": 340,
    "spoken": "three four zero"
  },
  "wind_gust": null,
  "wind_speed": {
    "repr": "07",
    "value": 7,
    "spoken": "seven"
  },
  "wx_codes": [],
  "raw": "KAWO 291056Z AUTO 34007KT 10SM CLR M02/M08 A3042 RMK AO2 SLP306 T10171083 FZRANO",
  "sanitized": "KAWO 291056Z 34007KT 10SM M02/M08 A3042 RMK AO2 SLP306 T10171083 FZRANO",
  "station": "KAWO",
  "time": {
    "repr": "291056Z",
    "dt": "2023-01-29T10:56:00Z"
  },
  "remarks": "RMK AO2 SLP306 T10171083 FZRANO",
  "dewpoint": {
    "repr": "M08",
    "value": -8,
    "spoken": "minus eight"
  },
  "relative_humidity": 0.6069384434176739,
  "remarks_info": {
    "maximum_temperature_6": null,
    "minimum_temperature_6": null,
    "pressure_tendency": null,
    "precip_36_hours": null,
    "precip_24_hours": null,
    "sunshine_minutes": null,
    "codes": [
      {
        "repr": "AO2",
        "value": "Automated with precipitation sensor"
      },
      {
        "repr": "FZRANO",
        "value": "Freezing rain information not available"
      }
    ],
    "dewpoint_decimal": {
      "repr": "1083",
      "value": -8.3,
      "spoken": "minus eight point three"
    },
    "maximum_temperature_24": null,
    "minimum_temperature_24": null,
    "precip_hourly": null,
    "sea_level_pressure": {
      "repr": "SLP306",
      "value": 1030.6,
      "spoken": "one zero three zero point six"
    },
    "snow_depth": null,
    "temperature_decimal": {
      "repr": "1017",
      "value": -1.7,
      "spoken": "minus one point seven"
    }
  },
  "runway_visibility": [],
  "temperature": {
    "repr": "M02",
    "value": -2,
    "spoken": "minus two"
  },
  "wind_variable_direction": [],
  "density_altitude": -2328,
  "pressure_altitude": -358,
  "units": {
    "accumulation": "in",
    "altimeter": "inHg",
    "altitude": "ft",
    "temperature": "C",
    "visibility": "sm",
    "wind_speed": "kt"
  }
}
