{
  "meta": {
    "timestamp": "2023-10-28T00:24:12.322453Z",
    "stations_updated": "2023-10-01",
    "cache-timestamp": "2023-10-28T00:24:04.068000Z"
  },
  "altimeter": {
    "repr": "A3041",
    "value": 30.41,
    "spoken": "three zero point four one"
  },
  "clouds": [],
  "flight_rules": "VFR",
  "other": [],
  "visibility": {
    "repr": "10",
    "value": 10,
    "spoken": "one zero"
  },
  "wind_direction": {
    "repr": "300",
    "value": 300,
    "spoken": "three zero zero"
  },
  "wind_gust": null,
  "wind_speed": {
    "repr": "09",
    "value": 9,
    "spoken": "nine"
  },
  "wx_codes": [],
  "raw": "KAWO 272356Z AUTO 30009KT 10SM CLR 09/M04 A3041 RMK AO2 SLP304 T00891039 10100 20050 53002",
  "sanitized": "KAWO 272356Z 30009KT 10SM 09/M04 A3041 RMK AO2 SLP304 T00891039 10100 20050 53002",
  "station": "KAWO",
  "time": {
    "repr": "272356Z",
    "dt": "2023-10-27T23:56:00Z"
  },
  "remarks": "RMK AO2 SLP304 T00891039 10100 20050 53002",
  "dewpoint": {
    "repr": "M04",
    "value": -4,
    "spoken": "minus four"
  },
  "relative_humidity": 0.4022476302293513,
  "remarks_info": {
    "maximum_temperature_6": {
      "repr": "10100",
      "value": 10,
      "spoken": "one zero point zero"
    },
    "minimum_temperature_6": {
      "repr": "20050",
      "value": 5,
      "spoken": "five point zero"
    },
    "pressure_tendency": {
      "repr": "53002",
      "tendency": "Decreasing or steady, then increasing",
      "change": 0.2
    },
    "precip_36_hours": null,
    "precip_24_hours": null,
    "sunshine_minutes": null,
    "codes": [
      {
        "repr": "AO2",
        "value": "Automated with precipitation sensor"
      }
    ],
    "dewpoint_decimal": {
      "repr": "1039",
      "value": -3.9,
      "spoken": "minus three point nine"
    },
    "maximum_temperature_24": null,
    "minimum_temperature_24": null,
    "precip_hourly": null,
    "sea_level_pressure": {
      "repr": "SLP304",
      "value": 1030.4,
      "spoken": "one zero three zero point four"
    },
    "snow_depth": null,
    "temperature_decimal": {
      "repr": "0089",
      "value": 8.9,
      "spoken": "eight point nine"
    }
  },
  "runway_visibility": [],
  "temperature": {
    "repr": "09",
    "value": 9,
    "spoken": "nine"
  },
  "wind_variable_direction": [],
  "density_altitude": -1046,
  "pressure_altitude": -348,
  "units": {
    "accumulation": "in",
    "altimeter": "inHg",
    "altitude": "ft",
    "temperature": "C",
    "visibility": "sm",
    "wind_speed": "kt"
  }
}
