{
  "meta": {
    "timestamp": "2023-10-17T19:01:18.261930Z",
    "stations_updated": "2023-10-01"
  },
  "altimeter": {
    "repr": "A3019",
    "value": 30.19,
    "spoken": "three zero point one nine"
  },
  "clouds": [
    {
      "repr": "FEW013",
      "type": "FEW",
      "altitude": 13,
      "modifier": null
    },
    {
      "repr": "BKN020",
      "type": "BKN",
      "altitude": 20,
      "modifier": null
    },
    {
      "repr": "BKN031",
      "type": "BKN",
      "altitude": 31,
      "modifier": null
    }
  ],
  "flight_rules": "MVFR",
  "other": [],
  "visibility": {
    "repr": "10",
    "value": 10,
    "spoken": "one zero"
  },
  "wind_direction": {
    "repr": "020",
    "value": 20,
    "spoken": "zero two zero"
  },
  "wind_gust": null,
  "wind_speed": {
    "repr": "05",
    "value": 5,
    "spoken": "five"
  },
  "wx_codes": [
    {
      "repr": "-RA",
      "value": "Light Rain"
    }
  ],
  "raw": "KAWO 171840Z AUTO 02005KT 10SM -RA FEW013 BKN020 BKN031 13/11 A3019 RMK AO2 RAE1758B25 P0000 KAWO 171756Z AUTO 04005KT 10SM -RA FEW039 SCT120 12/10 A3021 RMK AO2 RAB31 SLP234 P0000 60000 T01170100 10117 20072 50003 KAWO 171704Z AUTO 35004KT 10SM SCT020 BKN120 12/10 A3022 RMK AO2",
  "sanitized": "KAWO 171840Z 02005KT 10SM -RA FEW013 BKN020 BKN031 13/11 A3019 RMK AO2 RAE1758B25 P0000 KAWO 171756Z AUTO 04005KT 10SM -RA FEW039 SCT120 12/10 A3021 RMK AO2 RAB31 SLP234 P0000 60000 T01170100 10117 20072 50003 KAWO 171704Z AUTO 35004KT 10SM SCT020 BKN120 12/10 A3022 RMK AO2",
  "station": "KAWO",
  "time": {
    "repr": "171840Z",
    "dt": "2023-10-17T18:40:00Z"
  },
  "remarks": "RMK AO2 RAE1758B25 P0000 KAWO 171756Z AUTO 04005KT 10SM -RA FEW039 SCT120 12/10 A3021 RMK AO2 RAB31 SLP234 P0000 60000 T01170100 10117 20072 50003 KAWO 171704Z AUTO 35004KT 10SM SCT020 BKN120 12/10 A3022 RMK AO2",
  "dewpoint": {
    "repr": "11",
    "value": 11,
    "spoken": "one one"
  },
  "relative_humidity": 0.8930931615930605,
  "remarks_info": {
    "maximum_temperature_6": {
      "repr": "10117",
      "value": 11.7,
      "spoken": "one one point seven"
    },
    "minimum_temperature_6": {
      "repr": "20072",
      "value": 7.2,
      "spoken": "seven point two"
    },
    "pressure_tendency": {
      "repr": "50003",
      "tendency": "Increasing, then decreasing",
      "change": 0.3
    },
    "precip_36_hours": {
      "repr": "60000",
      "value": 0,
      "spoken": "zero"
    },
    "precip_24_hours": null,
    "sunshine_minutes": null,
    "codes": [
      {
        "repr": "AO2",
        "value": "Automated with precipitation sensor"
      },
      {
        "repr": "AO2",
        "value": "Automated with precipitation sensor"
      },
      {
        "repr": "AO2",
        "value": "Automated with precipitation sensor"
      },
      {
        "repr": "P0000",
        "value": "Trace amount of rain in the last hour"
      },
      {
        "repr": "P0000",
        "value": "Trace amount of rain in the last hour"
      },
      {
        "repr": "RAB31",
        "value": "Rain began at :31"
      }
    ],
    "dewpoint_decimal": {
      "repr": "0100",
      "value": 10,
      "spoken": "one zero point zero"
    },
    "maximum_temperature_24": null,
    "minimum_temperature_24": null,
    "precip_hourly": null,
    "sea_level_pressure": {
      "repr": "SLP234",
      "value": 1023.4,
      "spoken": "one zero two three point four"
    },
    "snow_depth": null,
    "temperature_decimal": {
      "repr": "0117",
      "value": 11.7,
      "spoken": "one one point seven"
    }
  },
  "runway_visibility": [],
  "temperature": {
    "repr": "13",
    "value": 13,
    "spoken": "one three"
  },
  "wind_variable_direction": [],
  "density_altitude": -490,
  "pressure_altitude": -128,
  "units": {
    "accumulation": "in",
    "altimeter": "inHg",
    "altitude": "ft",
    "temperature": "C",
    "visibility": "sm",
    "wind_speed": "kt"
  }
}
