{
  "meta": {
    "timestamp": "2022-12-22T04:13:00.845361Z",
    "stations_updated": "2022-09-05"
  },
  "altimeter": {
    "repr": "A3057",
    "value": 30.57,
    "spoken": "three zero point five seven"
  },
  "clouds": [],
  "flight_rules": "VFR",
  "other": [],
  "visibility": {
    "repr": "10",
    "value": 10,
    "spoken": "one zero"
  },
  "wind_direction": {
    "repr": "340",
    "value": 340,
    "spoken": "three four zero"
  },
  "wind_gust": null,
  "wind_speed": {
    "repr": "06",
    "value": 6,
    "spoken": "six"
  },
  "wx_codes": [],
  "raw": "KAWO 220356Z AUTO 34006KT 10SM CLR M13/M15 A3057 RMK AO2 SLP360 T11331150 FZRANO",
  "sanitized": "KAWO 220356Z 34006KT 10SM M13/M15 A3057 RMK AO2 SLP360 T11331150 FZRANO",
  "station": "KAWO",
  "time": {
    "repr": "220356Z",
    "dt": "2022-12-22T03:56:00Z"
  },
  "remarks": "RMK AO2 SLP360 T11331150 FZRANO",
  "dewpoint": {
    "repr": "M15",
    "value": -15,
    "spoken": "minus one five"
  },
  "relative_humidity": 0.8701784109912618,
  "remarks_info": {
    "maximum_temperature_6": null,
    "minimum_temperature_6": null,
    "pressure_tendency": null,
    "precip_36_hours": null,
    "precip_24_hours": null,
    "sunshine_minutes": null,
    "codes": [
      {
        "repr": "AO2",
        "value": "Automated with precipitation sensor"
      },
      {
        "repr": "FZRANO",
        "value": "Freezing rain information not available"
      }
    ],
    "dewpoint_decimal": {
      "repr": "1150",
      "value": -15,
      "spoken": "minus one five point zero"
    },
    "maximum_temperature_24": null,
    "minimum_temperature_24": null,
    "precip_hourly": null,
    "sea_level_pressure": {
      "repr": "SLP360",
      "value": 1036,
      "spoken": "one zero three six point zero"
    },
    "snow_depth": null,
    "temperature_decimal": {
      "repr": "1133",
      "value": -13.3,
      "spoken": "minus one three point three"
    }
  },
  "runway_visibility": [],
  "temperature": {
    "repr": "M13",
    "value": -13,
    "spoken": "minus one three"
  },
  "wind_variable_direction": [],
  "density_altitude": -3870,
  "pressure_altitude": -508,
  "units": {
    "accumulation": "in",
    "altimeter": "inHg",
    "altitude": "ft",
    "temperature": "C",
    "visibility": "sm",
    "wind_speed": "kt"
  }
}
