{
  "meta": {
    "timestamp": "2023-02-03T18:06:22.246850Z",
    "stations_updated": "2023-01-30",
    "cache-timestamp": "2023-02-03T18:06:08.149000Z"
  },
  "altimeter": {
    "repr": "A2983",
    "value": 29.83,
    "spoken": "two nine point eight three"
  },
  "clouds": [],
  "flight_rules": "VFR",
  "other": [],
  "visibility": {
    "repr": "10",
    "value": 10,
    "spoken": "one zero"
  },
  "wind_direction": {
    "repr": "000",
    "value": 0,
    "spoken": "zero zero zero"
  },
  "wind_gust": null,
  "wind_speed": {
    "repr": "00",
    "value": 0,
    "spoken": "zero"
  },
  "wx_codes": [],
  "raw": "KAWO 031756Z AUTO 00000KT 10SM CLR 04/00 A2983 RMK AO2 SLP107 T00440000 10044 20000 53004",
  "sanitized": "KAWO 031756Z 00000KT 10SM 04/00 A2983 RMK AO2 SLP107 T00440000 10044 20000 53004",
  "station": "KAWO",
  "time": {
    "repr": "031756Z",
    "dt": "2023-02-03T17:56:00Z"
  },
  "remarks": "RMK AO2 SLP107 T00440000 10044 20000 53004",
  "dewpoint": {
    "repr": "00",
    "value": 0,
    "spoken": "zero"
  },
  "relative_humidity": 0.73079195554046,
  "remarks_info": {
    "maximum_temperature_6": {
      "repr": "10044",
      "value": 4.4,
      "spoken": "four point four"
    },
    "minimum_temperature_6": {
      "repr": "20000",
      "value": 0,
      "spoken": "zero"
    },
    "pressure_tendency": {
      "repr": "53004",
      "tendency": "Decreasing or steady, then increasing",
      "change": 0.4
    },
    "precip_36_hours": null,
    "precip_24_hours": null,
    "sunshine_minutes": null,
    "codes": [
      {
        "repr": "AO2",
        "value": "Automated with precipitation sensor"
      }
    ],
    "dewpoint_decimal": {
      "repr": "0000",
      "value": 0,
      "spoken": "zero"
    },
    "maximum_temperature_24": null,
    "minimum_temperature_24": null,
    "precip_hourly": null,
    "sea_level_pressure": {
      "repr": "SLP107",
      "value": 1010.7,
      "spoken": "one zero one zero point seven"
    },
    "snow_depth": null,
    "temperature_decimal": {
      "repr": "0044",
      "value": 4.4,
      "spoken": "four point four"
    }
  },
  "runway_visibility": [],
  "temperature": {
    "repr": "04",
    "value": 4,
    "spoken": "four"
  },
  "wind_variable_direction": [],
  "density_altitude": -1006,
  "pressure_altitude": 232,
  "units": {
    "accumulation": "in",
    "altimeter": "inHg",
    "altitude": "ft",
    "temperature": "C",
    "visibility": "sm",
    "wind_speed": "kt"
  }
}
