{
  "altimeter": {
    "repr": "A3006",
    "spoken": "three zero point zero six",
    "value": 30.06
  },
  "clouds": [],
  "density_altitude": 564,
  "dewpoint": {
    "repr": "09",
    "spoken": "nine",
    "value": 9
  },
  "flight_rules": "VFR",
  "meta": {
    "stations_updated": "2024-05-13",
    "timestamp": "2024-06-01T00:31:15.551404Z"
  },
  "other": [],
  "pressure_altitude": 2,
  "raw": "KAWO 312356Z AUTO 30010KT 10SM CLR 19/09 A3006 RMK AO2 SLP182 T01940094 10200 20150 56024",
  "relative_humidity": 0.5235426381292373,
  "remarks": "RMK AO2 SLP182 T01940094 10200 20150 56024",
  "remarks_info": {
    "codes": [
      {
        "repr": "AO2",
        "value": "Automated with precipitation sensor"
      }
    ],
    "dewpoint_decimal": {
      "repr": "0094",
      "spoken": "nine point four",
      "value": 9.4
    },
    "maximum_temperature_24": null,
    "maximum_temperature_6": {
      "repr": "10200",
      "spoken": "two zero point zero",
      "value": 20
    },
    "minimum_temperature_24": null,
    "minimum_temperature_6": {
      "repr": "20150",
      "spoken": "one five point zero",
      "value": 15
    },
    "precip_24_hours": null,
    "precip_36_hours": null,
    "precip_hourly": null,
    "pressure_tendency": {
      "change": 2.4,
      "repr": "56024",
      "tendency": "Decreasing, then steady"
    },
    "sea_level_pressure": {
      "repr": "SLP182",
      "spoken": "one zero one eight point two",
      "value": 1018.2
    },
    "snow_depth": null,
    "sunshine_minutes": null,
    "temperature_decimal": {
      "repr": "0194",
      "spoken": "one nine point four",
      "value": 19.4
    }
  },
  "runway_visibility": [],
  "sanitized": "KAWO 312356Z 30010KT 10SM 19/09 A3006 RMK AO2 SLP182 T01940094 10200 20150 56024",
  "station": "KAWO",
  "temperature": {
    "repr": "19",
    "spoken": "one nine",
    "value": 19
  },
  "time": {
    "dt": "2024-05-31T23:56:00Z",
    "repr": "312356Z"
  },
  "units": {
    "accumulation": "in",
    "altimeter": "inHg",
    "altitude": "ft",
    "temperature": "C",
    "visibility": "sm",
    "wind_speed": "kt"
  },
  "visibility": {
    "repr": "10",
    "spoken": "one zero",
    "value": 10
  },
  "wind_direction": {
    "repr": "300",
    "spoken": "three zero zero",
    "value": 300
  },
  "wind_gust": null,
  "wind_speed": {
    "repr": "10",
    "spoken": "one zero",
    "value": 10
  },
  "wind_variable_direction": [],
  "wx_codes": []
}
