{
  "meta": {
    "timestamp": "2023-04-11T19:20:38.654512Z",
    "stations_updated": "2023-03-11",
    "cache-timestamp": "2023-04-11T19:20:07.003000Z"
  },
  "altimeter": {
    "repr": "A3008",
    "value": 30.08,
    "spoken": "three zero point zero eight"
  },
  "clouds": [],
  "flight_rules": "IFR",
  "other": [],
  "visibility": {
    "repr": "2",
    "value": 2,
    "spoken": "two"
  },
  "wind_direction": {
    "repr": "050",
    "value": 50,
    "spoken": "zero five zero"
  },
  "wind_gust": null,
  "wind_speed": {
    "repr": "03",
    "value": 3,
    "spoken": "three"
  },
  "wx_codes": [
    {
      "repr": "-RA",
      "value": "Light Rain"
    },
    {
      "repr": "BR",
      "value": "Mist"
    }
  ],
  "raw": "KAWO 111856Z AUTO 05003KT 2SM -RA BR CLR 03/02 A3008 RMK AO2 SLP190 P0020 T00330017",
  "sanitized": "KAWO 111856Z 05003KT 2SM -RA BR 03/02 A3008 RMK AO2 SLP190 P0020 T00330017",
  "station": "KAWO",
  "time": {
    "repr": "111856Z",
    "dt": "2023-04-11T18:56:00Z"
  },
  "remarks": "RMK AO2 SLP190 P0020 T00330017",
  "dewpoint": {
    "repr": "02",
    "value": 2,
    "spoken": "two"
  },
  "relative_humidity": 0.892472054966446,
  "remarks_info": {
    "maximum_temperature_6": null,
    "minimum_temperature_6": null,
    "pressure_tendency": null,
    "precip_36_hours": null,
    "precip_24_hours": null,
    "sunshine_minutes": null,
    "codes": [
      {
        "repr": "AO2",
        "value": "Automated with precipitation sensor"
      }
    ],
    "dewpoint_decimal": {
      "repr": "0017",
      "value": 1.7,
      "spoken": "one point seven"
    },
    "maximum_temperature_24": null,
    "minimum_temperature_24": null,
    "precip_hourly": {
      "repr": "P0020",
      "value": 0.2,
      "spoken": "zero point two"
    },
    "sea_level_pressure": {
      "repr": "SLP190",
      "value": 1019,
      "spoken": "one zero one nine point zero"
    },
    "snow_depth": null,
    "temperature_decimal": {
      "repr": "0033",
      "value": 3.3,
      "spoken": "three point three"
    }
  },
  "runway_visibility": [],
  "temperature": {
    "repr": "03",
    "value": 3,
    "spoken": "three"
  },
  "wind_variable_direction": [],
  "density_altitude": -1388,
  "pressure_altitude": -18,
  "units": {
    "accumulation": "in",
    "altimeter": "inHg",
    "altitude": "ft",
    "temperature": "C",
    "visibility": "sm",
    "wind_speed": "kt"
  }
}
