{
  "altimeter": {
    "repr": "A2993",
    "spoken": "two nine point nine three",
    "value": 29.93
  },
  "clouds": [],
  "density_altitude": 1162,
  "dewpoint": {
    "repr": "13",
    "spoken": "one three",
    "value": 13
  },
  "flight_rules": "VFR",
  "meta": {
    "stations_updated": "2024-05-13",
    "timestamp": "2024-06-25T22:02:47.326587Z"
  },
  "other": [],
  "pressure_altitude": 132,
  "raw": "KAWO 252156Z AUTO VRB06KT 10SM CLR 23/13 A2993 RMK AO2 SLP140 T02330133",
  "relative_humidity": 0.5336618883174379,
  "remarks": "RMK AO2 SLP140 T02330133",
  "remarks_info": {
    "codes": [
      {
        "repr": "AO2",
        "value": "Automated with precipitation sensor"
      }
    ],
    "dewpoint_decimal": {
      "repr": "0133",
      "spoken": "one three point three",
      "value": 13.3
    },
    "maximum_temperature_24": null,
    "maximum_temperature_6": null,
    "minimum_temperature_24": null,
    "minimum_temperature_6": null,
    "precip_24_hours": null,
    "precip_36_hours": null,
    "precip_hourly": null,
    "pressure_tendency": null,
    "sea_level_pressure": {
      "repr": "SLP140",
      "spoken": "one zero one four point zero",
      "value": 1014
    },
    "snow_depth": null,
    "sunshine_minutes": null,
    "temperature_decimal": {
      "repr": "0233",
      "spoken": "two three point three",
      "value": 23.3
    }
  },
  "runway_visibility": [],
  "sanitized": "KAWO 252156Z VRB06KT 10SM 23/13 A2993 RMK AO2 SLP140 T02330133",
  "station": "KAWO",
  "temperature": {
    "repr": "23",
    "spoken": "two three",
    "value": 23
  },
  "time": {
    "dt": "2024-06-25T21:56:00Z",
    "repr": "252156Z"
  },
  "units": {
    "accumulation": "in",
    "altimeter": "inHg",
    "altitude": "ft",
    "temperature": "C",
    "visibility": "sm",
    "wind_speed": "kt"
  },
  "visibility": {
    "repr": "10",
    "spoken": "one zero",
    "value": 10
  },
  "wind_direction": {
    "repr": "VRB",
    "spoken": "variable",
    "value": null
  },
  "wind_gust": null,
  "wind_speed": {
    "repr": "06",
    "spoken": "six",
    "value": 6
  },
  "wind_variable_direction": [],
  "wx_codes": []
}
