{
  "meta": {
    "timestamp": "2022-08-07T21:01:41.807521Z",
    "stations_updated": "2022-07-17"
  },
  "altimeter": {
    "repr": "A3003",
    "value": 30.03,
    "spoken": "three zero point zero three"
  },
  "clouds": [],
  "flight_rules": "VFR",
  "other": [],
  "visibility": {
    "repr": "10",
    "value": 10,
    "spoken": "one zero"
  },
  "wind_direction": {
    "repr": "300",
    "value": 300,
    "spoken": "three zero zero"
  },
  "wind_gust": null,
  "wind_speed": {
    "repr": "10",
    "value": 10,
    "spoken": "one zero"
  },
  "wx_codes": [],
  "raw": "KAWO 072056Z AUTO 30010KT 10SM CLR 29/17 A3003 RMK AO2 SLP171 T02940167 56014",
  "sanitized": "KAWO 072056Z 30010KT 10SM 29/17 A3003 RMK AO2 SLP171 T02940167 56014",
  "station": "KAWO",
  "time": {
    "repr": "072056Z",
    "dt": "2022-08-07T20:56:00Z"
  },
  "remarks": "RMK AO2 SLP171 T02940167 56014",
  "dewpoint": {
    "repr": "17",
    "value": 17,
    "spoken": "one seven"
  },
  "relative_humidity": 0.46322839407857935,
  "remarks_info": {
    "maximum_temperature_6": null,
    "minimum_temperature_6": null,
    "pressure_tendency": {
      "repr": "56014",
      "tendency": "Decreasing, then steady",
      "change": 1.4
    },
    "precip_36_hours": null,
    "precip_24_hours": null,
    "sunshine_minutes": null,
    "codes": [
      {
        "repr": "AO2",
        "value": "Automated with precipitation sensor"
      }
    ],
    "dewpoint_decimal": {
      "repr": "0167",
      "value": 16.7,
      "spoken": "one six point seven"
    },
    "maximum_temperature_24": null,
    "minimum_temperature_24": null,
    "precip_hourly": null,
    "sea_level_pressure": {
      "repr": "SLP171",
      "value": 1017.1,
      "spoken": "one zero one seven point one"
    },
    "snow_depth": null,
    "temperature_decimal": {
      "repr": "0294",
      "value": 29.4,
      "spoken": "two nine point four"
    }
  },
  "runway_visibility": [],
  "temperature": {
    "repr": "29",
    "value": 29,
    "spoken": "two nine"
  },
  "wind_variable_direction": [],
  "density_altitude": 1794,
  "pressure_altitude": 32,
  "units": {
    "accumulation": "in",
    "altimeter": "inHg",
    "altitude": "ft",
    "temperature": "C",
    "visibility": "sm",
    "wind_speed": "kt"
  }
}
