{
  "meta": {
    "timestamp": "2023-05-02T21:21:03.512153Z",
    "stations_updated": "2023-03-11",
    "cache-timestamp": "2023-05-02T21:20:05.876000Z"
  },
  "altimeter": {
    "repr": "A2972",
    "value": 29.72,
    "spoken": "two nine point seven two"
  },
  "clouds": [
    {
      "repr": "OVC019",
      "type": "OVC",
      "altitude": 19,
      "modifier": null
    }
  ],
  "flight_rules": "MVFR",
  "other": [],
  "visibility": {
    "repr": "10",
    "value": 10,
    "spoken": "one zero"
  },
  "wind_direction": {
    "repr": "040",
    "value": 40,
    "spoken": "zero four zero"
  },
  "wind_gust": null,
  "wind_speed": {
    "repr": "03",
    "value": 3,
    "spoken": "three"
  },
  "wx_codes": [],
  "raw": "KAWO 022056Z AUTO 04003KT 10SM OVC019 16/11 A2972 RMK AO2 SLP069 T01560106 58010",
  "sanitized": "KAWO 022056Z 04003KT 10SM OVC019 16/11 A2972 RMK AO2 SLP069 T01560106 58010",
  "station": "KAWO",
  "time": {
    "repr": "022056Z",
    "dt": "2023-05-02T20:56:00Z"
  },
  "remarks": "RMK AO2 SLP069 T01560106 58010",
  "dewpoint": {
    "repr": "11",
    "value": 11,
    "spoken": "one one"
  },
  "relative_humidity": 0.7212543525897828,
  "remarks_info": {
    "maximum_temperature_6": null,
    "minimum_temperature_6": null,
    "pressure_tendency": {
      "repr": "58010",
      "tendency": "Steady or increasing, then decreasing",
      "change": 1
    },
    "precip_36_hours": null,
    "precip_24_hours": null,
    "sunshine_minutes": null,
    "codes": [
      {
        "repr": "AO2",
        "value": "Automated with precipitation sensor"
      }
    ],
    "dewpoint_decimal": {
      "repr": "0106",
      "value": 10.6,
      "spoken": "one zero point six"
    },
    "maximum_temperature_24": null,
    "minimum_temperature_24": null,
    "precip_hourly": null,
    "sea_level_pressure": {
      "repr": "SLP069",
      "value": 1006.9,
      "spoken": "one zero zero six point nine"
    },
    "snow_depth": null,
    "temperature_decimal": {
      "repr": "0156",
      "value": 15.6,
      "spoken": "one five point six"
    }
  },
  "runway_visibility": [],
  "temperature": {
    "repr": "16",
    "value": 16,
    "spoken": "one six"
  },
  "wind_variable_direction": [],
  "density_altitude": 448,
  "pressure_altitude": 342,
  "units": {
    "accumulation": "in",
    "altimeter": "inHg",
    "altitude": "ft",
    "temperature": "C",
    "visibility": "sm",
    "wind_speed": "kt"
  }
}
