{
  "meta": {
    "timestamp": "2023-06-04T12:40:25.006431Z",
    "stations_updated": "2023-05-30",
    "cache-timestamp": "2023-06-04T12:40:07.647000Z"
  },
  "altimeter": {
    "repr": "A3025",
    "value": 30.25,
    "spoken": "three zero point two five"
  },
  "clouds": [
    {
      "repr": "OVC065",
      "type": "OVC",
      "altitude": 65,
      "modifier": null
    }
  ],
  "flight_rules": "VFR",
  "other": [],
  "visibility": {
    "repr": "10",
    "value": 10,
    "spoken": "one zero"
  },
  "wind_direction": {
    "repr": "310",
    "value": 310,
    "spoken": "three one zero"
  },
  "wind_gust": null,
  "wind_speed": {
    "repr": "11",
    "value": 11,
    "spoken": "one one"
  },
  "wx_codes": [],
  "raw": "KAWO 041156Z AUTO 31011KT 10SM OVC065 11/07 A3025 RMK AO2 SLP249 T01060072 10111 20078 53007",
  "sanitized": "KAWO 041156Z 31011KT 10SM OVC065 11/07 A3025 RMK AO2 SLP249 T01060072 10111 20078 53007",
  "station": "KAWO",
  "time": {
    "repr": "041156Z",
    "dt": "2023-06-04T11:56:00Z"
  },
  "remarks": "RMK AO2 SLP249 T01060072 10111 20078 53007",
  "dewpoint": {
    "repr": "07",
    "value": 7,
    "spoken": "seven"
  },
  "relative_humidity": 0.794816368054851,
  "remarks_info": {
    "maximum_temperature_6": {
      "repr": "10111",
      "value": 11.1,
      "spoken": "one one point one"
    },
    "minimum_temperature_6": {
      "repr": "20078",
      "value": 7.8,
      "spoken": "seven point eight"
    },
    "pressure_tendency": {
      "repr": "53007",
      "tendency": "Decreasing or steady, then increasing",
      "change": 0.7
    },
    "precip_36_hours": null,
    "precip_24_hours": null,
    "sunshine_minutes": null,
    "codes": [
      {
        "repr": "AO2",
        "value": "Automated with precipitation sensor"
      }
    ],
    "dewpoint_decimal": {
      "repr": "0072",
      "value": 7.2,
      "spoken": "seven point two"
    },
    "maximum_temperature_24": null,
    "minimum_temperature_24": null,
    "precip_hourly": null,
    "sea_level_pressure": {
      "repr": "SLP249",
      "value": 1024.9,
      "spoken": "one zero two four point nine"
    },
    "snow_depth": null,
    "temperature_decimal": {
      "repr": "0106",
      "value": 10.6,
      "spoken": "one zero point six"
    }
  },
  "runway_visibility": [],
  "temperature": {
    "repr": "11",
    "value": 11,
    "spoken": "one one"
  },
  "wind_variable_direction": [],
  "density_altitude": -682,
  "pressure_altitude": -188,
  "units": {
    "accumulation": "in",
    "altimeter": "inHg",
    "altitude": "ft",
    "temperature": "C",
    "visibility": "sm",
    "wind_speed": "kt"
  }
}
