{
  "meta": {
    "timestamp": "2022-12-31T08:05:04.932040Z",
    "stations_updated": "2022-12-27",
    "cache-timestamp": "2022-12-31T08:05:01.843000Z"
  },
  "altimeter": {
    "repr": "A2959",
    "value": 29.59,
    "spoken": "two nine point five nine"
  },
  "clouds": [
    {
      "repr": "OVC019",
      "type": "OVC",
      "altitude": 19,
      "modifier": null
    }
  ],
  "flight_rules": "MVFR",
  "other": [],
  "visibility": {
    "repr": "10",
    "value": 10,
    "spoken": "one zero"
  },
  "wind_direction": {
    "repr": "140",
    "value": 140,
    "spoken": "one four zero"
  },
  "wind_gust": null,
  "wind_speed": {
    "repr": "12",
    "value": 12,
    "spoken": "one two"
  },
  "wx_codes": [],
  "raw": "KAWO 310656Z AUTO 14012KT 10SM OVC019 09/06 A2959 RMK AO2 SLP024 T00890056",
  "sanitized": "KAWO 310656Z 14012KT 10SM OVC019 09/06 A2959 RMK AO2 SLP024 T00890056",
  "station": "KAWO",
  "time": {
    "repr": "310656Z",
    "dt": "2022-12-31T06:56:00Z"
  },
  "remarks": "RMK AO2 SLP024 T00890056",
  "dewpoint": {
    "repr": "06",
    "value": 6,
    "spoken": "six"
  },
  "relative_humidity": 0.797851757786378,
  "remarks_info": {
    "maximum_temperature_6": null,
    "minimum_temperature_6": null,
    "pressure_tendency": null,
    "precip_36_hours": null,
    "precip_24_hours": null,
    "sunshine_minutes": null,
    "codes": [
      {
        "repr": "AO2",
        "value": "Automated with precipitation sensor"
      }
    ],
    "dewpoint_decimal": {
      "repr": "0056",
      "value": 5.6,
      "spoken": "five point six"
    },
    "maximum_temperature_24": null,
    "minimum_temperature_24": null,
    "precip_hourly": null,
    "sea_level_pressure": {
      "repr": "SLP024",
      "value": 1002.4,
      "spoken": "one zero zero two point four"
    },
    "snow_depth": null,
    "temperature_decimal": {
      "repr": "0089",
      "value": 8.9,
      "spoken": "eight point nine"
    }
  },
  "runway_visibility": [],
  "temperature": {
    "repr": "09",
    "value": 9,
    "spoken": "nine"
  },
  "wind_variable_direction": [],
  "density_altitude": -226,
  "pressure_altitude": 472,
  "units": {
    "accumulation": "in",
    "altimeter": "inHg",
    "altitude": "ft",
    "temperature": "C",
    "visibility": "sm",
    "wind_speed": "kt"
  }
}
