{
  "meta": {
    "timestamp": "2023-07-28T12:43:13.680503Z",
    "stations_updated": "2023-06-06"
  },
  "altimeter": {
    "repr": "A3008",
    "value": 30.08,
    "spoken": "three zero point zero eight"
  },
  "clouds": [],
  "flight_rules": "VFR",
  "other": [],
  "visibility": {
    "repr": "10",
    "value": 10,
    "spoken": "one zero"
  },
  "wind_direction": {
    "repr": "030",
    "value": 30,
    "spoken": "zero three zero"
  },
  "wind_gust": null,
  "wind_speed": {
    "repr": "04",
    "value": 4,
    "spoken": "four"
  },
  "wx_codes": [],
  "raw": "KAWO 281156Z AUTO 03004KT 10SM CLR 12/11 A3008 RMK AO2 SLP189 T01170106 10167 20111 53001",
  "sanitized": "KAWO 281156Z 03004KT 10SM 12/11 A3008 RMK AO2 SLP189 T01170106 10167 20111 53001",
  "station": "KAWO",
  "time": {
    "repr": "281156Z",
    "dt": "2023-07-28T11:56:00Z"
  },
  "remarks": "RMK AO2 SLP189 T01170106 10167 20111 53001",
  "dewpoint": {
    "repr": "11",
    "value": 11,
    "spoken": "one one"
  },
  "relative_humidity": 0.9296133286105723,
  "remarks_info": {
    "maximum_temperature_6": {
      "repr": "10167",
      "value": 16.7,
      "spoken": "one six point seven"
    },
    "minimum_temperature_6": {
      "repr": "20111",
      "value": 11.1,
      "spoken": "one one point one"
    },
    "pressure_tendency": {
      "repr": "53001",
      "tendency": "Decreasing or steady, then increasing",
      "change": 0.1
    },
    "precip_36_hours": null,
    "precip_24_hours": null,
    "sunshine_minutes": null,
    "codes": [
      {
        "repr": "AO2",
        "value": "Automated with precipitation sensor"
      }
    ],
    "dewpoint_decimal": {
      "repr": "0106",
      "value": 10.6,
      "spoken": "one zero point six"
    },
    "maximum_temperature_24": null,
    "minimum_temperature_24": null,
    "precip_hourly": null,
    "sea_level_pressure": {
      "repr": "SLP189",
      "value": 1018.9,
      "spoken": "one zero one eight point nine"
    },
    "snow_depth": null,
    "temperature_decimal": {
      "repr": "0117",
      "value": 11.7,
      "spoken": "one one point seven"
    }
  },
  "runway_visibility": [],
  "temperature": {
    "repr": "12",
    "value": 12,
    "spoken": "one two"
  },
  "wind_variable_direction": [],
  "density_altitude": -380,
  "pressure_altitude": -18,
  "units": {
    "accumulation": "in",
    "altimeter": "inHg",
    "altitude": "ft",
    "temperature": "C",
    "visibility": "sm",
    "wind_speed": "kt"
  }
}
