{
  "altimeter": {
    "repr": "A2999",
    "spoken": "two nine point nine nine",
    "value": 29.99
  },
  "clouds": [
    {
      "altitude": 5,
      "modifier": null,
      "repr": "BKN005",
      "type": "BKN"
    },
    {
      "altitude": 8,
      "modifier": null,
      "repr": "OVC008",
      "type": "OVC"
    }
  ],
  "density_altitude": -1022,
  "dewpoint": {
    "repr": "05",
    "spoken": "five",
    "value": 5
  },
  "flight_rules": "IFR",
  "meta": {
    "stations_updated": "2024-01-01",
    "timestamp": "2024-02-04T15:01:05.522229Z"
  },
  "other": [],
  "pressure_altitude": 72,
  "raw": "KAWO 041456Z AUTO 02003KT 9SM BKN005 OVC008 06/05 A2999 RMK AO2 RAE00 SLP162 P0000 60000 T00560050 58015",
  "relative_humidity": 0.9591528252665625,
  "remarks": "RMK AO2 RAE00 SLP162 P0000 60000 T00560050 58015",
  "remarks_info": {
    "codes": [
      {
        "repr": "AO2",
        "value": "Automated with precipitation sensor"
      },
      {
        "repr": "P0000",
        "value": "Trace amount of rain in the last hour"
      },
      {
        "repr": "RAE00",
        "value": "Rain ended at :00"
      }
    ],
    "dewpoint_decimal": {
      "repr": "0050",
      "spoken": "five point zero",
      "value": 5
    },
    "maximum_temperature_24": null,
    "maximum_temperature_6": null,
    "minimum_temperature_24": null,
    "minimum_temperature_6": null,
    "precip_24_hours": null,
    "precip_36_hours": {
      "repr": "60000",
      "spoken": "zero",
      "value": 0
    },
    "precip_hourly": null,
    "pressure_tendency": {
      "change": 1.5,
      "repr": "58015",
      "tendency": "Steady or increasing, then decreasing"
    },
    "sea_level_pressure": {
      "repr": "SLP162",
      "spoken": "one zero one six point two",
      "value": 1016.2
    },
    "snow_depth": null,
    "sunshine_minutes": null,
    "temperature_decimal": {
      "repr": "0056",
      "spoken": "five point six",
      "value": 5.6
    }
  },
  "runway_visibility": [],
  "sanitized": "KAWO 041456Z 02003KT 9SM BKN005 OVC008 06/05 A2999 RMK AO2 RAE00 SLP162 P0000 60000 T00560050 58015",
  "station": "KAWO",
  "temperature": {
    "repr": "06",
    "spoken": "six",
    "value": 6
  },
  "time": {
    "dt": "2024-02-04T14:56:00Z",
    "repr": "041456Z"
  },
  "units": {
    "accumulation": "in",
    "altimeter": "inHg",
    "altitude": "ft",
    "temperature": "C",
    "visibility": "sm",
    "wind_speed": "kt"
  },
  "visibility": {
    "repr": "9",
    "spoken": "nine",
    "value": 9
  },
  "wind_direction": {
    "repr": "020",
    "spoken": "zero two zero",
    "value": 20
  },
  "wind_gust": null,
  "wind_speed": {
    "repr": "03",
    "spoken": "three",
    "value": 3
  },
  "wind_variable_direction": [],
  "wx_codes": []
}
