{
  "meta": {
    "timestamp": "2022-11-25T08:07:27.563463Z",
    "stations_updated": "2022-09-05"
  },
  "altimeter": {
    "repr": "A3017",
    "value": 30.17,
    "spoken": "three zero point one seven"
  },
  "clouds": [],
  "flight_rules": "VFR",
  "other": [],
  "visibility": {
    "repr": "10",
    "value": 10,
    "spoken": "one zero"
  },
  "wind_direction": {
    "repr": "330",
    "value": 330,
    "spoken": "three three zero"
  },
  "wind_gust": null,
  "wind_speed": {
    "repr": "04",
    "value": 4,
    "spoken": "four"
  },
  "wx_codes": [],
  "raw": "KAWO 250756Z AUTO 33004KT 10SM CLR 04/03 A3017 RMK AO2 SLP220 T00390033 401441022",
  "sanitized": "KAWO 250756Z 33004KT 10SM 04/03 A3017 RMK AO2 SLP220 T00390033 401441022",
  "station": "KAWO",
  "time": {
    "repr": "250756Z",
    "dt": "2022-11-25T07:56:00Z"
  },
  "remarks": "RMK AO2 SLP220 T00390033 401441022",
  "dewpoint": {
    "repr": "03",
    "value": 3,
    "spoken": "three"
  },
  "relative_humidity": 0.9586006873106991,
  "remarks_info": {
    "maximum_temperature_6": null,
    "minimum_temperature_6": null,
    "pressure_tendency": null,
    "precip_36_hours": null,
    "precip_24_hours": null,
    "sunshine_minutes": null,
    "codes": [
      {
        "repr": "AO2",
        "value": "Automated with precipitation sensor"
      }
    ],
    "dewpoint_decimal": {
      "repr": "0033",
      "value": 3.3,
      "spoken": "three point three"
    },
    "maximum_temperature_24": {
      "repr": "0144",
      "value": 14.4,
      "spoken": "one four point four"
    },
    "minimum_temperature_24": {
      "repr": "1022",
      "value": -2.2,
      "spoken": "minus two point two"
    },
    "precip_hourly": null,
    "sea_level_pressure": {
      "repr": "SLP220",
      "value": 1022,
      "spoken": "one zero two two point zero"
    },
    "snow_depth": null,
    "temperature_decimal": {
      "repr": "0039",
      "value": 3.9,
      "spoken": "three point nine"
    }
  },
  "runway_visibility": [],
  "temperature": {
    "repr": "04",
    "value": 4,
    "spoken": "four"
  },
  "wind_variable_direction": [],
  "density_altitude": -1406,
  "pressure_altitude": -108,
  "units": {
    "accumulation": "in",
    "altimeter": "inHg",
    "altitude": "ft",
    "temperature": "C",
    "visibility": "sm",
    "wind_speed": "kt"
  }
}
