{
  "meta": {
    "timestamp": "2023-03-18T08:41:21.769162Z",
    "stations_updated": "2023-03-11",
    "cache-timestamp": "2023-03-18T08:40:32.252000Z"
  },
  "altimeter": {
    "repr": "A3012",
    "value": 30.12,
    "spoken": "three zero point one two"
  },
  "clouds": [],
  "flight_rules": "VFR",
  "other": [],
  "visibility": {
    "repr": "10",
    "value": 10,
    "spoken": "one zero"
  },
  "wind_direction": {
    "repr": "050",
    "value": 50,
    "spoken": "zero five zero"
  },
  "wind_gust": null,
  "wind_speed": {
    "repr": "03",
    "value": 3,
    "spoken": "three"
  },
  "wx_codes": [],
  "raw": "KAWO 180756Z AUTO 05003KT 10SM CLR 05/01 A3012 RMK AO2 SLP204 T00500006 401721022",
  "sanitized": "KAWO 180756Z 05003KT 10SM 05/01 A3012 RMK AO2 SLP204 T00500006 401721022",
  "station": "KAWO",
  "time": {
    "repr": "180756Z",
    "dt": "2023-03-18T07:56:00Z"
  },
  "remarks": "RMK AO2 SLP204 T00500006 401721022",
  "dewpoint": {
    "repr": "01",
    "value": 1,
    "spoken": "one"
  },
  "relative_humidity": 0.7319082020351403,
  "remarks_info": {
    "maximum_temperature_6": null,
    "minimum_temperature_6": null,
    "pressure_tendency": null,
    "precip_36_hours": null,
    "precip_24_hours": null,
    "sunshine_minutes": null,
    "codes": [
      {
        "repr": "AO2",
        "value": "Automated with precipitation sensor"
      }
    ],
    "dewpoint_decimal": {
      "repr": "0006",
      "value": 0.6,
      "spoken": "zero point six"
    },
    "maximum_temperature_24": {
      "repr": "0172",
      "value": 17.2,
      "spoken": "one seven point two"
    },
    "minimum_temperature_24": {
      "repr": "1022",
      "value": -2.2,
      "spoken": "minus two point two"
    },
    "precip_hourly": null,
    "sea_level_pressure": {
      "repr": "SLP204",
      "value": 1020.4,
      "spoken": "one zero two zero point four"
    },
    "snow_depth": null,
    "temperature_decimal": {
      "repr": "0050",
      "value": 5,
      "spoken": "five point zero"
    }
  },
  "runway_visibility": [],
  "temperature": {
    "repr": "05",
    "value": 5,
    "spoken": "five"
  },
  "wind_variable_direction": [],
  "density_altitude": -1224,
  "pressure_altitude": -58,
  "units": {
    "accumulation": "in",
    "altimeter": "inHg",
    "altitude": "ft",
    "temperature": "C",
    "visibility": "sm",
    "wind_speed": "kt"
  }
}
