{
  "meta": {
    "timestamp": "2022-12-10T04:44:20.958171Z",
    "stations_updated": "2022-09-05"
  },
  "altimeter": {
    "repr": "A2947",
    "value": 29.47,
    "spoken": "two nine point four seven"
  },
  "clouds": [
    {
      "repr": "OVC049",
      "type": "OVC",
      "altitude": 49,
      "modifier": null
    }
  ],
  "flight_rules": "VFR",
  "other": [],
  "visibility": {
    "repr": "10",
    "value": 10,
    "spoken": "one zero"
  },
  "wind_direction": {
    "repr": "120",
    "value": 120,
    "spoken": "one two zero"
  },
  "wind_gust": null,
  "wind_speed": {
    "repr": "09",
    "value": 9,
    "spoken": "nine"
  },
  "wx_codes": [
    {
      "repr": "-RA",
      "value": "Light Rain"
    }
  ],
  "raw": "KAWO 100356Z AUTO 12009KT 10SM -RA OVC049 04/02 A2947 RMK AO2 SLP985 P0001 T00440022",
  "sanitized": "KAWO 100356Z 12009KT 10SM -RA OVC049 04/02 A2947 RMK AO2 SLP985 P0001 T00440022",
  "station": "KAWO",
  "time": {
    "repr": "100356Z",
    "dt": "2022-12-10T03:56:00Z"
  },
  "remarks": "RMK AO2 SLP985 P0001 T00440022",
  "dewpoint": {
    "repr": "02",
    "value": 2,
    "spoken": "two"
  },
  "relative_humidity": 0.8560648690888376,
  "remarks_info": {
    "maximum_temperature_6": null,
    "minimum_temperature_6": null,
    "pressure_tendency": null,
    "precip_36_hours": null,
    "precip_24_hours": null,
    "sunshine_minutes": null,
    "codes": [
      {
        "repr": "AO2",
        "value": "Automated with precipitation sensor"
      }
    ],
    "dewpoint_decimal": {
      "repr": "0022",
      "value": 2.2,
      "spoken": "two point two"
    },
    "maximum_temperature_24": null,
    "minimum_temperature_24": null,
    "precip_hourly": {
      "repr": "P0001",
      "value": 0.01,
      "spoken": "zero point zero one"
    },
    "sea_level_pressure": {
      "repr": "SLP985",
      "value": 998.5,
      "spoken": "nine nine eight point five"
    },
    "snow_depth": null,
    "temperature_decimal": {
      "repr": "0044",
      "value": 4.4,
      "spoken": "four point four"
    }
  },
  "runway_visibility": [],
  "temperature": {
    "repr": "04",
    "value": 4,
    "spoken": "four"
  },
  "wind_variable_direction": [],
  "density_altitude": -646,
  "pressure_altitude": 592,
  "units": {
    "accumulation": "in",
    "altimeter": "inHg",
    "altitude": "ft",
    "temperature": "C",
    "visibility": "sm",
    "wind_speed": "kt"
  }
}
