{
  "altimeter": {
    "repr": "A3047",
    "spoken": "three zero point four seven",
    "value": 30.47
  },
  "clouds": [
    {
      "altitude": 31,
      "modifier": null,
      "repr": "OVC031",
      "type": "OVC"
    }
  ],
  "density_altitude": -1574,
  "dewpoint": {
    "repr": "05",
    "spoken": "five",
    "value": 5
  },
  "flight_rules": "VFR",
  "meta": {
    "stations_updated": "2024-12-02",
    "timestamp": "2025-01-08T15:29:34.287185Z"
  },
  "other": [],
  "pressure_altitude": -408,
  "raw": "KAWO 081456Z AUTO 20003KT 10SM OVC031 05/05 A3047 RMK AO2 SLP327 T00500050 53005",
  "relative_humidity": 1,
  "remarks": "RMK AO2 SLP327 T00500050 53005",
  "remarks_info": {
    "codes": [
      {
        "repr": "AO2",
        "value": "Automated with precipitation sensor"
      }
    ],
    "dewpoint_decimal": {
      "repr": "0050",
      "spoken": "five point zero",
      "value": 5
    },
    "maximum_temperature_24": null,
    "maximum_temperature_6": null,
    "minimum_temperature_24": null,
    "minimum_temperature_6": null,
    "precip_24_hours": null,
    "precip_36_hours": null,
    "precip_hourly": null,
    "pressure_tendency": {
      "change": 0.5,
      "repr": "53005",
      "tendency": "Decreasing or steady, then increasing"
    },
    "sea_level_pressure": {
      "repr": "SLP327",
      "spoken": "one zero three two point seven",
      "value": 1032.7
    },
    "snow_depth": null,
    "sunshine_minutes": null,
    "temperature_decimal": {
      "repr": "0050",
      "spoken": "five point zero",
      "value": 5
    }
  },
  "runway_visibility": [],
  "sanitized": "KAWO 081456Z 20003KT 10SM OVC031 05/05 A3047 RMK AO2 SLP327 T00500050 53005",
  "station": "KAWO",
  "temperature": {
    "repr": "05",
    "spoken": "five",
    "value": 5
  },
  "time": {
    "dt": "2025-01-08T14:56:00Z",
    "repr": "081456Z"
  },
  "units": {
    "accumulation": "in",
    "altimeter": "inHg",
    "altitude": "ft",
    "temperature": "C",
    "visibility": "sm",
    "wind_speed": "kt"
  },
  "visibility": {
    "repr": "10",
    "spoken": "one zero",
    "value": 10
  },
  "wind_direction": {
    "repr": "200",
    "spoken": "two zero zero",
    "value": 200
  },
  "wind_gust": null,
  "wind_speed": {
    "repr": "03",
    "spoken": "three",
    "value": 3
  },
  "wind_variable_direction": [],
  "wx_codes": []
}
