{
  "meta": {
    "timestamp": "2022-12-27T17:01:19.237714Z",
    "stations_updated": "2022-09-05"
  },
  "altimeter": {
    "repr": "A2892",
    "value": 28.92,
    "spoken": "two eight point nine two"
  },
  "clouds": [
    {
      "repr": "BKN022",
      "type": "BKN",
      "altitude": 22,
      "modifier": null
    },
    {
      "repr": "BKN036",
      "type": "BKN",
      "altitude": 36,
      "modifier": null
    },
    {
      "repr": "OVC050",
      "type": "OVC",
      "altitude": 50,
      "modifier": null
    }
  ],
  "flight_rules": "MVFR",
  "other": [],
  "visibility": {
    "repr": "8",
    "value": 8,
    "spoken": "eight"
  },
  "wind_direction": {
    "repr": "130",
    "value": 130,
    "spoken": "one three zero"
  },
  "wind_gust": null,
  "wind_speed": {
    "repr": "12",
    "value": 12,
    "spoken": "one two"
  },
  "wx_codes": [
    {
      "repr": "RA",
      "value": "Rain"
    }
  ],
  "raw": "KAWO 271656Z AUTO 13012KT 8SM RA BKN022 BKN036 OVC050 09/08 A2892 RMK AO2 PK WND 15026/1632 SLP796 P0017 T00940078",
  "sanitized": "KAWO 271656Z 13012KT 8SM RA BKN022 BKN036 OVC050 09/08 A2892 RMK AO2 PK WND 15026/1632 SLP796 P0017 T00940078",
  "station": "KAWO",
  "time": {
    "repr": "271656Z",
    "dt": "2022-12-27T16:56:00Z"
  },
  "remarks": "RMK AO2 PK WND 15026/1632 SLP796 P0017 T00940078",
  "dewpoint": {
    "repr": "08",
    "value": 8,
    "spoken": "eight"
  },
  "relative_humidity": 0.8973391642211729,
  "remarks_info": {
    "maximum_temperature_6": null,
    "minimum_temperature_6": null,
    "pressure_tendency": null,
    "precip_36_hours": null,
    "precip_24_hours": null,
    "sunshine_minutes": null,
    "codes": [
      {
        "repr": "AO2",
        "value": "Automated with precipitation sensor"
      }
    ],
    "dewpoint_decimal": {
      "repr": "0078",
      "value": 7.8,
      "spoken": "seven point eight"
    },
    "maximum_temperature_24": null,
    "minimum_temperature_24": null,
    "precip_hourly": {
      "repr": "P0017",
      "value": 0.17,
      "spoken": "zero point one seven"
    },
    "sea_level_pressure": {
      "repr": "SLP796",
      "value": 979.6,
      "spoken": "nine seven nine point six"
    },
    "snow_depth": null,
    "temperature_decimal": {
      "repr": "0094",
      "value": 9.4,
      "spoken": "nine point four"
    }
  },
  "runway_visibility": [],
  "temperature": {
    "repr": "09",
    "value": 9,
    "spoken": "nine"
  },
  "wind_variable_direction": [],
  "density_altitude": 504,
  "pressure_altitude": 1142,
  "units": {
    "accumulation": "in",
    "altimeter": "inHg",
    "altitude": "ft",
    "temperature": "C",
    "visibility": "sm",
    "wind_speed": "kt"
  }
}
