{
  "altimeter": {
    "repr": "A3045",
    "spoken": "three zero point four five",
    "value": 30.45
  },
  "clouds": [],
  "density_altitude": -2286,
  "dewpoint": {
    "repr": "M02",
    "spoken": "minus two",
    "value": -2
  },
  "flight_rules": "VFR",
  "meta": {
    "cache-timestamp": "2024-04-17T13:02:40.085000Z",
    "stations_updated": "2024-01-01",
    "timestamp": "2024-04-17T13:04:16.075201Z",
    "warning": "Unable to fetch report. This cached data might be out of date. To return an error instead, set ?onfail=error"
  },
  "other": [],
  "pressure_altitude": -388,
  "raw": "KAWO 171156Z AUTO 00000KT 10SM CLR M01/M02 A3045 RMK AO2 SLP317 70005 T10111022 10056 21011 51010 FZRANO",
  "relative_humidity": 0.9222704961872329,
  "remarks": "RMK AO2 SLP317 70005 T10111022 10056 21011 51010 FZRANO",
  "remarks_info": {
    "codes": [
      {
        "repr": "AO2",
        "value": "Automated with precipitation sensor"
      },
      {
        "repr": "FZRANO",
        "value": "Freezing rain information not available"
      }
    ],
    "dewpoint_decimal": {
      "repr": "1022",
      "spoken": "minus two point two",
      "value": -2.2
    },
    "maximum_temperature_24": null,
    "maximum_temperature_6": {
      "repr": "10056",
      "spoken": "five point six",
      "value": 5.6
    },
    "minimum_temperature_24": null,
    "minimum_temperature_6": {
      "repr": "21011",
      "spoken": "minus one point one",
      "value": -1.1
    },
    "precip_24_hours": {
      "repr": "70005",
      "spoken": "zero point zero five",
      "value": 0.05
    },
    "precip_36_hours": null,
    "precip_hourly": null,
    "pressure_tendency": {
      "change": 1,
      "repr": "51010",
      "tendency": "Increasing, then steady"
    },
    "sea_level_pressure": {
      "repr": "SLP317",
      "spoken": "one zero three one point seven",
      "value": 1031.7
    },
    "snow_depth": null,
    "sunshine_minutes": null,
    "temperature_decimal": {
      "repr": "1011",
      "spoken": "minus one point one",
      "value": -1.1
    }
  },
  "runway_visibility": [],
  "sanitized": "KAWO 171156Z 00000KT 10SM M01/M02 A3045 RMK AO2 SLP317 70005 T10111022 10056 21011 51010 FZRANO",
  "station": "KAWO",
  "temperature": {
    "repr": "M01",
    "spoken": "minus one",
    "value": -1
  },
  "time": {
    "dt": "2024-04-17T11:56:00Z",
    "repr": "171156Z"
  },
  "units": {
    "accumulation": "in",
    "altimeter": "inHg",
    "altitude": "ft",
    "temperature": "C",
    "visibility": "sm",
    "wind_speed": "kt"
  },
  "visibility": {
    "repr": "10",
    "spoken": "one zero",
    "value": 10
  },
  "wind_direction": {
    "repr": "000",
    "spoken": "zero zero zero",
    "value": 0
  },
  "wind_gust": null,
  "wind_speed": {
    "repr": "00",
    "spoken": "zero",
    "value": 0
  },
  "wind_variable_direction": [],
  "wx_codes": []
}
