{
  "meta": {
    "timestamp": "2023-02-24T12:09:29.937087Z",
    "stations_updated": "2023-01-30"
  },
  "altimeter": {
    "repr": "A3010",
    "value": 30.1,
    "spoken": "three zero point one zero"
  },
  "clouds": [],
  "flight_rules": "VFR",
  "other": [],
  "visibility": {
    "repr": "10",
    "value": 10,
    "spoken": "one zero"
  },
  "wind_direction": {
    "repr": "320",
    "value": 320,
    "spoken": "three two zero"
  },
  "wind_gust": null,
  "wind_speed": {
    "repr": "03",
    "value": 3,
    "spoken": "three"
  },
  "wx_codes": [],
  "raw": "KAWO 241156Z AUTO 32003KT 10SM CLR M07/M11 A3010 RMK AO2 SLP198 T10721106 11033 21083 50004 FZRANO",
  "sanitized": "KAWO 241156Z 32003KT 10SM M07/M11 A3010 RMK AO2 SLP198 T10721106 11033 21083 50004 FZRANO",
  "station": "KAWO",
  "time": {
    "repr": "241156Z",
    "dt": "2023-02-24T11:56:00Z"
  },
  "remarks": "RMK AO2 SLP198 T10721106 11033 21083 50004 FZRANO",
  "dewpoint": {
    "repr": "M11",
    "value": -11,
    "spoken": "minus one one"
  },
  "relative_humidity": 0.7665801167230263,
  "remarks_info": {
    "maximum_temperature_6": {
      "repr": "11033",
      "value": -3.3,
      "spoken": "minus three point three"
    },
    "minimum_temperature_6": {
      "repr": "21083",
      "value": -8.3,
      "spoken": "minus eight point three"
    },
    "pressure_tendency": {
      "repr": "50004",
      "tendency": "Increasing, then decreasing",
      "change": 0.4
    },
    "precip_36_hours": null,
    "precip_24_hours": null,
    "sunshine_minutes": null,
    "codes": [
      {
        "repr": "AO2",
        "value": "Automated with precipitation sensor"
      },
      {
        "repr": "FZRANO",
        "value": "Freezing rain information not available"
      }
    ],
    "dewpoint_decimal": {
      "repr": "1106",
      "value": -10.6,
      "spoken": "minus one zero point six"
    },
    "maximum_temperature_24": null,
    "minimum_temperature_24": null,
    "precip_hourly": null,
    "sea_level_pressure": {
      "repr": "SLP198",
      "value": 1019.8,
      "spoken": "one zero one nine point eight"
    },
    "snow_depth": null,
    "temperature_decimal": {
      "repr": "1072",
      "value": -7.2,
      "spoken": "minus seven point two"
    }
  },
  "runway_visibility": [],
  "temperature": {
    "repr": "M07",
    "value": -7,
    "spoken": "minus seven"
  },
  "wind_variable_direction": [],
  "density_altitude": -2668,
  "pressure_altitude": -38,
  "units": {
    "accumulation": "in",
    "altimeter": "inHg",
    "altitude": "ft",
    "temperature": "C",
    "visibility": "sm",
    "wind_speed": "kt"
  }
}
