{
  "meta": {
    "timestamp": "2023-08-25T00:24:14.356275Z",
    "stations_updated": "2023-08-05",
    "cache-timestamp": "2023-08-25T00:24:06.512000Z"
  },
  "altimeter": {
    "repr": "A2997",
    "value": 29.97,
    "spoken": "two nine point nine seven"
  },
  "clouds": [],
  "flight_rules": "VFR",
  "other": [],
  "visibility": {
    "repr": "10",
    "value": 10,
    "spoken": "one zero"
  },
  "wind_direction": {
    "repr": "300",
    "value": 300,
    "spoken": "three zero zero"
  },
  "wind_gust": null,
  "wind_speed": {
    "repr": "13",
    "value": 13,
    "spoken": "one three"
  },
  "wx_codes": [],
  "raw": "KAWO 242356Z AUTO 30013KT 10SM CLR 24/12 A2997 RMK AO2 SLP153 T02440122 10250 20183 56024",
  "sanitized": "KAWO 242356Z 30013KT 10SM 24/12 A2997 RMK AO2 SLP153 T02440122 10250 20183 56024",
  "station": "KAWO",
  "time": {
    "repr": "242356Z",
    "dt": "2023-08-24T23:56:00Z"
  },
  "remarks": "RMK AO2 SLP153 T02440122 10250 20183 56024",
  "dewpoint": {
    "repr": "12",
    "value": 12,
    "spoken": "one two"
  },
  "relative_humidity": 0.4647350654972076,
  "remarks_info": {
    "maximum_temperature_6": {
      "repr": "10250",
      "value": 25,
      "spoken": "two five point zero"
    },
    "minimum_temperature_6": {
      "repr": "20183",
      "value": 18.3,
      "spoken": "one eight point three"
    },
    "pressure_tendency": {
      "repr": "56024",
      "tendency": "Decreasing, then steady",
      "change": 2.4
    },
    "precip_36_hours": null,
    "precip_24_hours": null,
    "sunshine_minutes": null,
    "codes": [
      {
        "repr": "AO2",
        "value": "Automated with precipitation sensor"
      }
    ],
    "dewpoint_decimal": {
      "repr": "0122",
      "value": 12.2,
      "spoken": "one two point two"
    },
    "maximum_temperature_24": null,
    "minimum_temperature_24": null,
    "precip_hourly": null,
    "sea_level_pressure": {
      "repr": "SLP153",
      "value": 1015.3,
      "spoken": "one zero one five point three"
    },
    "snow_depth": null,
    "temperature_decimal": {
      "repr": "0244",
      "value": 24.4,
      "spoken": "two four point four"
    }
  },
  "runway_visibility": [],
  "temperature": {
    "repr": "24",
    "value": 24,
    "spoken": "two four"
  },
  "wind_variable_direction": [],
  "density_altitude": 1254,
  "pressure_altitude": 92,
  "units": {
    "accumulation": "in",
    "altimeter": "inHg",
    "altitude": "ft",
    "temperature": "C",
    "visibility": "sm",
    "wind_speed": "kt"
  }
}
