{
  "altimeter": {
    "repr": "A3000",
    "spoken": "three zero point zero zero",
    "value": 30
  },
  "clouds": [
    {
      "altitude": 85,
      "modifier": null,
      "repr": "OVC085",
      "type": "OVC"
    }
  ],
  "density_altitude": -2304,
  "dewpoint": {
    "repr": "M11",
    "spoken": "minus one one",
    "value": -11
  },
  "flight_rules": "VFR",
  "meta": {
    "stations_updated": "2023-10-28",
    "timestamp": "2024-01-12T08:07:36.957936Z"
  },
  "other": [],
  "pressure_altitude": 62,
  "raw": "KAWO 120756Z AUTO 31006KT 10SM OVC085 M05/M11 A3000 RMK AO2 SLP165 T10501106 400391050 FZRANO",
  "relative_humidity": 0.6480573066726458,
  "remarks": "RMK AO2 SLP165 T10501106 400391050 FZRANO",
  "remarks_info": {
    "codes": [
      {
        "repr": "AO2",
        "value": "Automated with precipitation sensor"
      },
      {
        "repr": "FZRANO",
        "value": "Freezing rain information not available"
      }
    ],
    "dewpoint_decimal": {
      "repr": "1106",
      "spoken": "minus one zero point six",
      "value": -10.6
    },
    "maximum_temperature_24": {
      "repr": "0039",
      "spoken": "three point nine",
      "value": 3.9
    },
    "maximum_temperature_6": null,
    "minimum_temperature_24": {
      "repr": "1050",
      "spoken": "minus five point zero",
      "value": -5
    },
    "minimum_temperature_6": null,
    "precip_24_hours": null,
    "precip_36_hours": null,
    "precip_hourly": null,
    "pressure_tendency": null,
    "sea_level_pressure": {
      "repr": "SLP165",
      "spoken": "one zero one six point five",
      "value": 1016.5
    },
    "snow_depth": null,
    "sunshine_minutes": null,
    "temperature_decimal": {
      "repr": "1050",
      "spoken": "minus five point zero",
      "value": -5
    }
  },
  "runway_visibility": [],
  "sanitized": "KAWO 120756Z 31006KT 10SM OVC085 M05/M11 A3000 RMK AO2 SLP165 T10501106 400391050 FZRANO",
  "station": "KAWO",
  "temperature": {
    "repr": "M05",
    "spoken": "minus five",
    "value": -5
  },
  "time": {
    "dt": "2024-01-12T07:56:00Z",
    "repr": "120756Z"
  },
  "units": {
    "accumulation": "in",
    "altimeter": "inHg",
    "altitude": "ft",
    "temperature": "C",
    "visibility": "sm",
    "wind_speed": "kt"
  },
  "visibility": {
    "repr": "10",
    "spoken": "one zero",
    "value": 10
  },
  "wind_direction": {
    "repr": "310",
    "spoken": "three one zero",
    "value": 310
  },
  "wind_gust": null,
  "wind_speed": {
    "repr": "06",
    "spoken": "six",
    "value": 6
  },
  "wind_variable_direction": [],
  "wx_codes": []
}
