{
  "meta": {
    "timestamp": "2022-11-24T11:01:39.163971Z",
    "stations_updated": "2022-09-05"
  },
  "altimeter": {
    "repr": "A3037",
    "value": 30.37,
    "spoken": "three zero point three seven"
  },
  "clouds": [],
  "flight_rules": "MVFR",
  "other": [],
  "visibility": {
    "repr": "3",
    "value": 3,
    "spoken": "three"
  },
  "wind_direction": {
    "repr": "170",
    "value": 170,
    "spoken": "one seven zero"
  },
  "wind_gust": null,
  "wind_speed": {
    "repr": "04",
    "value": 4,
    "spoken": "four"
  },
  "wx_codes": [
    {
      "repr": "BR",
      "value": "Mist"
    }
  ],
  "raw": "KAWO 241056Z AUTO 17004KT 3SM BR CLR 01/00 A3037 RMK AO2 SLP287 T00060000 FZRANO",
  "sanitized": "KAWO 241056Z 17004KT 3SM BR 01/00 A3037 RMK AO2 SLP287 T00060000 FZRANO",
  "station": "KAWO",
  "time": {
    "repr": "241056Z",
    "dt": "2022-11-24T10:56:00Z"
  },
  "remarks": "RMK AO2 SLP287 T00060000 FZRANO",
  "dewpoint": {
    "repr": "00",
    "value": 0,
    "spoken": "zero"
  },
  "relative_humidity": 0.9574966857850682,
  "remarks_info": {
    "maximum_temperature_6": null,
    "minimum_temperature_6": null,
    "pressure_tendency": null,
    "precip_36_hours": null,
    "precip_24_hours": null,
    "sunshine_minutes": null,
    "codes": [
      {
        "repr": "AO2",
        "value": "Automated with precipitation sensor"
      },
      {
        "repr": "FZRANO",
        "value": "Freezing rain information not available"
      }
    ],
    "dewpoint_decimal": {
      "repr": "0000",
      "value": 0,
      "spoken": "zero"
    },
    "maximum_temperature_24": null,
    "minimum_temperature_24": null,
    "precip_hourly": null,
    "sea_level_pressure": {
      "repr": "SLP287",
      "value": 1028.7,
      "spoken": "one zero two eight point seven"
    },
    "snow_depth": null,
    "temperature_decimal": {
      "repr": "0006",
      "value": 0.6,
      "spoken": "zero point six"
    }
  },
  "runway_visibility": [],
  "temperature": {
    "repr": "01",
    "value": 1,
    "spoken": "one"
  },
  "wind_variable_direction": [],
  "density_altitude": -2002,
  "pressure_altitude": -308,
  "units": {
    "accumulation": "in",
    "altimeter": "inHg",
    "altitude": "ft",
    "temperature": "C",
    "visibility": "sm",
    "wind_speed": "kt"
  }
}
