{
  "meta": {
    "timestamp": "2022-12-23T21:01:17.782556Z",
    "stations_updated": "2022-09-05"
  },
  "altimeter": {
    "repr": "A3000",
    "value": 30,
    "spoken": "three zero point zero zero"
  },
  "clouds": [
    {
      "repr": "OVC015",
      "type": "OVC",
      "altitude": 15,
      "modifier": null
    }
  ],
  "flight_rules": "MVFR",
  "other": [],
  "visibility": {
    "repr": "10",
    "value": 10,
    "spoken": "one zero"
  },
  "wind_direction": {
    "repr": "000",
    "value": 0,
    "spoken": "zero zero zero"
  },
  "wind_gust": null,
  "wind_speed": {
    "repr": "00",
    "value": 0,
    "spoken": "zero"
  },
  "wx_codes": [
    {
      "repr": "UP",
      "value": "Unknown Precip"
    }
  ],
  "raw": "KAWO 232056Z AUTO 00000KT 10SM UP OVC015 00/M01 A3000 RMK AO2 UPB38 SLP163 P0003 60010 T00001011 53006 FZRANO",
  "sanitized": "KAWO 232056Z 00000KT 10SM UP OVC015 00/M01 A3000 RMK AO2 UPB38 SLP163 P0003 60010 T00001011 53006 FZRANO",
  "station": "KAWO",
  "time": {
    "repr": "232056Z",
    "dt": "2022-12-23T20:56:00Z"
  },
  "remarks": "RMK AO2 UPB38 SLP163 P0003 60010 T00001011 53006 FZRANO",
  "dewpoint": {
    "repr": "M01",
    "value": -1,
    "spoken": "minus one"
  },
  "relative_humidity": 0.9229449916837179,
  "remarks_info": {
    "maximum_temperature_6": null,
    "minimum_temperature_6": null,
    "pressure_tendency": {
      "repr": "53006",
      "tendency": "Decreasing or steady, then increasing",
      "change": 0.6
    },
    "precip_36_hours": {
      "repr": "60010",
      "value": 0.1,
      "spoken": "zero point one"
    },
    "precip_24_hours": null,
    "sunshine_minutes": null,
    "codes": [
      {
        "repr": "AO2",
        "value": "Automated with precipitation sensor"
      },
      {
        "repr": "FZRANO",
        "value": "Freezing rain information not available"
      },
      {
        "repr": "UPB38",
        "value": "Unknown Precip began at :38"
      }
    ],
    "dewpoint_decimal": {
      "repr": "1011",
      "value": -1.1,
      "spoken": "minus one point one"
    },
    "maximum_temperature_24": null,
    "minimum_temperature_24": null,
    "precip_hourly": {
      "repr": "P0003",
      "value": 0.03,
      "spoken": "zero point zero three"
    },
    "sea_level_pressure": {
      "repr": "SLP163",
      "value": 1016.3,
      "spoken": "one zero one six point three"
    },
    "snow_depth": null,
    "temperature_decimal": {
      "repr": "0000",
      "value": 0,
      "spoken": "zero"
    }
  },
  "runway_visibility": [],
  "temperature": {
    "repr": "00",
    "value": 0,
    "spoken": "zero"
  },
  "wind_variable_direction": [],
  "density_altitude": -1704,
  "pressure_altitude": 62,
  "units": {
    "accumulation": "in",
    "altimeter": "inHg",
    "altitude": "ft",
    "temperature": "C",
    "visibility": "sm",
    "wind_speed": "kt"
  }
}
