{
  "altimeter": {
    "repr": "A3016",
    "spoken": "three zero point one six",
    "value": 30.16
  },
  "clouds": [],
  "density_altitude": -2536,
  "dewpoint": {
    "repr": "M07",
    "spoken": "minus seven",
    "value": -7
  },
  "flight_rules": "LIFR",
  "meta": {
    "stations_updated": "2023-10-28",
    "timestamp": "2023-11-29T15:02:34.266472Z"
  },
  "other": [],
  "pressure_altitude": -98,
  "raw": "KAWO 291456Z AUTO 00000KT 3/4SM BR CLR M06/M07 A3016 RMK AO2 SLP219 T10561067 57002 FZRANO",
  "relative_humidity": 0.9194183134153208,
  "remarks": "RMK AO2 SLP219 T10561067 57002 FZRANO",
  "remarks_info": {
    "codes": [
      {
        "repr": "AO2",
        "value": "Automated with precipitation sensor"
      },
      {
        "repr": "FZRANO",
        "value": "Freezing rain information not available"
      }
    ],
    "dewpoint_decimal": {
      "repr": "1067",
      "spoken": "minus six point seven",
      "value": -6.7
    },
    "maximum_temperature_24": null,
    "maximum_temperature_6": null,
    "minimum_temperature_24": null,
    "minimum_temperature_6": null,
    "precip_24_hours": null,
    "precip_36_hours": null,
    "precip_hourly": null,
    "pressure_tendency": {
      "change": 0.2,
      "repr": "57002",
      "tendency": "Decreasing steadily or unsteadily"
    },
    "sea_level_pressure": {
      "repr": "SLP219",
      "spoken": "one zero two one point nine",
      "value": 1021.9
    },
    "snow_depth": null,
    "sunshine_minutes": null,
    "temperature_decimal": {
      "repr": "1056",
      "spoken": "minus five point six",
      "value": -5.6
    }
  },
  "runway_visibility": [],
  "sanitized": "KAWO 291456Z 00000KT 3/4SM BR M06/M07 A3016 RMK AO2 SLP219 T10561067 57002 FZRANO",
  "station": "KAWO",
  "temperature": {
    "repr": "M06",
    "spoken": "minus six",
    "value": -6
  },
  "time": {
    "dt": "2023-11-29T14:56:00Z",
    "repr": "291456Z"
  },
  "units": {
    "accumulation": "in",
    "altimeter": "inHg",
    "altitude": "ft",
    "temperature": "C",
    "visibility": "sm",
    "wind_speed": "kt"
  },
  "visibility": {
    "denominator": 4,
    "normalized": "3/4",
    "numerator": 3,
    "repr": "3/4",
    "spoken": "three quarters",
    "value": 0.75
  },
  "wind_direction": {
    "repr": "000",
    "spoken": "zero zero zero",
    "value": 0
  },
  "wind_gust": null,
  "wind_speed": {
    "repr": "00",
    "spoken": "zero",
    "value": 0
  },
  "wind_variable_direction": [],
  "wx_codes": [
    {
      "repr": "BR",
      "value": "Mist"
    }
  ]
}
