{
  "meta": {
    "timestamp": "2023-01-11T12:09:36.209226Z",
    "stations_updated": "2022-12-27"
  },
  "altimeter": {
    "repr": "A2982",
    "value": 29.82,
    "spoken": "two nine point eight two"
  },
  "clouds": [
    {
      "repr": "OVC070",
      "type": "OVC",
      "altitude": 70,
      "modifier": null
    }
  ],
  "flight_rules": "VFR",
  "other": [],
  "visibility": {
    "repr": "10",
    "value": 10,
    "spoken": "one zero"
  },
  "wind_direction": {
    "repr": "000",
    "value": 0,
    "spoken": "zero zero zero"
  },
  "wind_gust": null,
  "wind_speed": {
    "repr": "00",
    "value": 0,
    "spoken": "zero"
  },
  "wx_codes": [],
  "raw": "KAWO 111156Z AUTO 00000KT 10SM OVC070 03/02 A2982 RMK AO2 SLP101 T00330022 10033 20006 51026",
  "sanitized": "KAWO 111156Z 00000KT 10SM OVC070 03/02 A2982 RMK AO2 SLP101 T00330022 10033 20006 51026",
  "station": "KAWO",
  "time": {
    "repr": "111156Z",
    "dt": "2023-01-11T11:56:00Z"
  },
  "remarks": "RMK AO2 SLP101 T00330022 10033 20006 51026",
  "dewpoint": {
    "repr": "02",
    "value": 2,
    "spoken": "two"
  },
  "relative_humidity": 0.9249173515197439,
  "remarks_info": {
    "maximum_temperature_6": {
      "repr": "10033",
      "value": 3.3,
      "spoken": "three point three"
    },
    "minimum_temperature_6": {
      "repr": "20006",
      "value": 0.6,
      "spoken": "zero point six"
    },
    "pressure_tendency": {
      "repr": "51026",
      "tendency": "Increasing, then steady",
      "change": 2.6
    },
    "precip_36_hours": null,
    "precip_24_hours": null,
    "sunshine_minutes": null,
    "codes": [
      {
        "repr": "AO2",
        "value": "Automated with precipitation sensor"
      }
    ],
    "dewpoint_decimal": {
      "repr": "0022",
      "value": 2.2,
      "spoken": "two point two"
    },
    "maximum_temperature_24": null,
    "minimum_temperature_24": null,
    "precip_hourly": null,
    "sea_level_pressure": {
      "repr": "SLP101",
      "value": 1010.1,
      "spoken": "one zero one zero point one"
    },
    "snow_depth": null,
    "temperature_decimal": {
      "repr": "0033",
      "value": 3.3,
      "spoken": "three point three"
    }
  },
  "runway_visibility": [],
  "temperature": {
    "repr": "03",
    "value": 3,
    "spoken": "three"
  },
  "wind_variable_direction": [],
  "density_altitude": -1128,
  "pressure_altitude": 242,
  "units": {
    "accumulation": "in",
    "altimeter": "inHg",
    "altitude": "ft",
    "temperature": "C",
    "visibility": "sm",
    "wind_speed": "kt"
  }
}
