{
  "meta": {
    "timestamp": "2023-01-25T18:04:08.585231Z",
    "stations_updated": "2023-01-16"
  },
  "altimeter": {
    "repr": "A3075",
    "value": 30.75,
    "spoken": "three zero point seven five"
  },
  "clouds": [
    {
      "repr": "SCT013",
      "type": "SCT",
      "altitude": 13,
      "modifier": null
    },
    {
      "repr": "OVC021",
      "type": "OVC",
      "altitude": 21,
      "modifier": null
    }
  ],
  "flight_rules": "MVFR",
  "other": [],
  "visibility": {
    "repr": "10",
    "value": 10,
    "spoken": "one zero"
  },
  "wind_direction": {
    "repr": "360",
    "value": 360,
    "spoken": "three six zero"
  },
  "wind_gust": null,
  "wind_speed": {
    "repr": "04",
    "value": 4,
    "spoken": "four"
  },
  "wx_codes": [],
  "raw": "KAWO 251756Z AUTO 36004KT 10SM SCT013 OVC021 06/06 A3075 RMK AO2 SLP418 60001 T00610056 10061 20050 53014",
  "sanitized": "KAWO 251756Z 36004KT 10SM SCT013 OVC021 06/06 A3075 RMK AO2 SLP418 60001 T00610056 10061 20050 53014",
  "station": "KAWO",
  "time": {
    "repr": "251756Z",
    "dt": "2023-01-25T17:56:00Z"
  },
  "remarks": "RMK AO2 SLP418 60001 T00610056 10061 20050 53014",
  "dewpoint": {
    "repr": "06",
    "value": 6,
    "spoken": "six"
  },
  "relative_humidity": 0.9659908804883092,
  "remarks_info": {
    "maximum_temperature_6": {
      "repr": "10061",
      "value": 6.1,
      "spoken": "six point one"
    },
    "minimum_temperature_6": {
      "repr": "20050",
      "value": 5,
      "spoken": "five point zero"
    },
    "pressure_tendency": {
      "repr": "53014",
      "tendency": "Decreasing or steady, then increasing",
      "change": 1.4
    },
    "precip_36_hours": {
      "repr": "60001",
      "value": 0.01,
      "spoken": "zero point zero one"
    },
    "precip_24_hours": null,
    "sunshine_minutes": null,
    "codes": [
      {
        "repr": "AO2",
        "value": "Automated with precipitation sensor"
      }
    ],
    "dewpoint_decimal": {
      "repr": "0056",
      "value": 5.6,
      "spoken": "five point six"
    },
    "maximum_temperature_24": null,
    "minimum_temperature_24": null,
    "precip_hourly": null,
    "sea_level_pressure": {
      "repr": "SLP418",
      "value": 1041.8,
      "spoken": "one zero four one point eight"
    },
    "snow_depth": null,
    "temperature_decimal": {
      "repr": "0061",
      "value": 6.1,
      "spoken": "six point one"
    }
  },
  "runway_visibility": [],
  "temperature": {
    "repr": "06",
    "value": 6,
    "spoken": "six"
  },
  "wind_variable_direction": [],
  "density_altitude": -1722,
  "pressure_altitude": -688,
  "units": {
    "accumulation": "in",
    "altimeter": "inHg",
    "altitude": "ft",
    "temperature": "C",
    "visibility": "sm",
    "wind_speed": "kt"
  }
}
