{
  "meta": {
    "timestamp": "2023-04-10T12:08:29.634828Z",
    "stations_updated": "2023-03-11",
    "cache-timestamp": "2023-04-10T12:08:04.592000Z"
  },
  "altimeter": {
    "repr": "A3013",
    "value": 30.13,
    "spoken": "three zero point one three"
  },
  "clouds": [],
  "flight_rules": "VFR",
  "other": [],
  "visibility": {
    "repr": "10",
    "value": 10,
    "spoken": "one zero"
  },
  "wind_direction": {
    "repr": "040",
    "value": 40,
    "spoken": "zero four zero"
  },
  "wind_gust": null,
  "wind_speed": {
    "repr": "04",
    "value": 4,
    "spoken": "four"
  },
  "wx_codes": [],
  "raw": "KAWO 101156Z AUTO 04004KT 10SM CLR 07/07 A3013 RMK AO2 SLP209 70029 T00720067 10078 20067 56013",
  "sanitized": "KAWO 101156Z 04004KT 10SM 07/07 A3013 RMK AO2 SLP209 70029 T00720067 10078 20067 56013",
  "station": "KAWO",
  "time": {
    "repr": "101156Z",
    "dt": "2023-04-10T11:56:00Z"
  },
  "remarks": "RMK AO2 SLP209 70029 T00720067 10078 20067 56013",
  "dewpoint": {
    "repr": "07",
    "value": 7,
    "spoken": "seven"
  },
  "relative_humidity": 0.9662838843819482,
  "remarks_info": {
    "maximum_temperature_6": {
      "repr": "10078",
      "value": 7.8,
      "spoken": "seven point eight"
    },
    "minimum_temperature_6": {
      "repr": "20067",
      "value": 6.7,
      "spoken": "six point seven"
    },
    "pressure_tendency": {
      "repr": "56013",
      "tendency": "Decreasing, then steady",
      "change": 1.3
    },
    "precip_36_hours": null,
    "precip_24_hours": {
      "repr": "70029",
      "value": 0.29,
      "spoken": "zero point two nine"
    },
    "sunshine_minutes": null,
    "codes": [
      {
        "repr": "AO2",
        "value": "Automated with precipitation sensor"
      }
    ],
    "dewpoint_decimal": {
      "repr": "0067",
      "value": 6.7,
      "spoken": "six point seven"
    },
    "maximum_temperature_24": null,
    "minimum_temperature_24": null,
    "precip_hourly": null,
    "sea_level_pressure": {
      "repr": "SLP209",
      "value": 1020.9,
      "spoken": "one zero two zero point nine"
    },
    "snow_depth": null,
    "temperature_decimal": {
      "repr": "0072",
      "value": 7.2,
      "spoken": "seven point two"
    }
  },
  "runway_visibility": [],
  "temperature": {
    "repr": "07",
    "value": 7,
    "spoken": "seven"
  },
  "wind_variable_direction": [],
  "density_altitude": -970,
  "pressure_altitude": -68,
  "units": {
    "accumulation": "in",
    "altimeter": "inHg",
    "altitude": "ft",
    "temperature": "C",
    "visibility": "sm",
    "wind_speed": "kt"
  }
}
