{
  "meta": {
    "timestamp": "2022-12-04T12:08:08.493260Z",
    "stations_updated": "2022-09-05"
  },
  "altimeter": {
    "repr": "A3004",
    "value": 30.04,
    "spoken": "three zero point zero four"
  },
  "clouds": [],
  "flight_rules": "VFR",
  "other": [],
  "visibility": {
    "repr": "10",
    "value": 10,
    "spoken": "one zero"
  },
  "wind_direction": {
    "repr": "350",
    "value": 350,
    "spoken": "three five zero"
  },
  "wind_gust": null,
  "wind_speed": {
    "repr": "04",
    "value": 4,
    "spoken": "four"
  },
  "wx_codes": [],
  "raw": "KAWO 041156Z AUTO 35004KT 10SM CLR M06/M06 A3004 RMK AO2 SLP180 70002 T10561061 11039 21061 56027 FZRANO",
  "sanitized": "KAWO 041156Z 35004KT 10SM M06/M06 A3004 RMK AO2 SLP180 70002 T10561061 11039 21061 56027 FZRANO",
  "station": "KAWO",
  "time": {
    "repr": "041156Z",
    "dt": "2022-12-04T11:56:00Z"
  },
  "remarks": "RMK AO2 SLP180 70002 T10561061 11039 21061 56027 FZRANO",
  "dewpoint": {
    "repr": "M06",
    "value": -6,
    "spoken": "minus six"
  },
  "relative_humidity": 0.9626246635328243,
  "remarks_info": {
    "maximum_temperature_6": {
      "repr": "11039",
      "value": -3.9,
      "spoken": "minus three point nine"
    },
    "minimum_temperature_6": {
      "repr": "21061",
      "value": -6.1,
      "spoken": "minus six point one"
    },
    "pressure_tendency": {
      "repr": "56027",
      "tendency": "Decreasing, then steady",
      "change": 2.7
    },
    "precip_36_hours": null,
    "precip_24_hours": {
      "repr": "70002",
      "value": 0.02,
      "spoken": "zero point zero two"
    },
    "sunshine_minutes": null,
    "codes": [
      {
        "repr": "AO2",
        "value": "Automated with precipitation sensor"
      },
      {
        "repr": "FZRANO",
        "value": "Freezing rain information not available"
      }
    ],
    "dewpoint_decimal": {
      "repr": "1061",
      "value": -6.1,
      "spoken": "minus six point one"
    },
    "maximum_temperature_24": null,
    "minimum_temperature_24": null,
    "precip_hourly": null,
    "sea_level_pressure": {
      "repr": "SLP180",
      "value": 1018,
      "spoken": "one zero one eight point zero"
    },
    "snow_depth": null,
    "temperature_decimal": {
      "repr": "1056",
      "value": -5.6,
      "spoken": "minus five point six"
    }
  },
  "runway_visibility": [],
  "temperature": {
    "repr": "M06",
    "value": -6,
    "spoken": "minus six"
  },
  "wind_variable_direction": [],
  "density_altitude": -2416,
  "pressure_altitude": 22,
  "units": {
    "accumulation": "in",
    "altimeter": "inHg",
    "altitude": "ft",
    "temperature": "C",
    "visibility": "sm",
    "wind_speed": "kt"
  }
}
