{
  "meta": {
    "timestamp": "2022-12-07T03:15:56.604806Z",
    "stations_updated": "2022-09-05"
  },
  "altimeter": {
    "repr": "A3017",
    "value": 30.17,
    "spoken": "three zero point one seven"
  },
  "clouds": [
    {
      "repr": "OVC018",
      "type": "OVC",
      "altitude": 18,
      "modifier": null
    }
  ],
  "flight_rules": "MVFR",
  "other": [],
  "visibility": {
    "repr": "10",
    "value": 10,
    "spoken": "one zero"
  },
  "wind_direction": {
    "repr": "350",
    "value": 350,
    "spoken": "three five zero"
  },
  "wind_gust": null,
  "wind_speed": {
    "repr": "06",
    "value": 6,
    "spoken": "six"
  },
  "wx_codes": [],
  "raw": "KAWO 070256Z AUTO 35006KT 10SM OVC018 03/02 A3017 RMK AO2 SLP220 T00280017 51006",
  "sanitized": "KAWO 070256Z 35006KT 10SM OVC018 03/02 A3017 RMK AO2 SLP220 T00280017 51006",
  "station": "KAWO",
  "time": {
    "repr": "070256Z",
    "dt": "2022-12-07T02:56:00Z"
  },
  "remarks": "RMK AO2 SLP220 T00280017 51006",
  "dewpoint": {
    "repr": "02",
    "value": 2,
    "spoken": "two"
  },
  "relative_humidity": 0.9246233415824485,
  "remarks_info": {
    "maximum_temperature_6": null,
    "minimum_temperature_6": null,
    "pressure_tendency": {
      "repr": "51006",
      "tendency": "Increasing, then steady",
      "change": 0.6
    },
    "precip_36_hours": null,
    "precip_24_hours": null,
    "sunshine_minutes": null,
    "codes": [
      {
        "repr": "AO2",
        "value": "Automated with precipitation sensor"
      }
    ],
    "dewpoint_decimal": {
      "repr": "0017",
      "value": 1.7,
      "spoken": "one point seven"
    },
    "maximum_temperature_24": null,
    "minimum_temperature_24": null,
    "precip_hourly": null,
    "sea_level_pressure": {
      "repr": "SLP220",
      "value": 1022,
      "spoken": "one zero two two point zero"
    },
    "snow_depth": null,
    "temperature_decimal": {
      "repr": "0028",
      "value": 2.8,
      "spoken": "two point eight"
    }
  },
  "runway_visibility": [],
  "temperature": {
    "repr": "03",
    "value": 3,
    "spoken": "three"
  },
  "wind_variable_direction": [],
  "density_altitude": -1538,
  "pressure_altitude": -108,
  "units": {
    "accumulation": "in",
    "altimeter": "inHg",
    "altitude": "ft",
    "temperature": "C",
    "visibility": "sm",
    "wind_speed": "kt"
  }
}
