{
  "meta": {
    "timestamp": "2023-08-06T22:24:23.320366Z",
    "stations_updated": "2023-06-06"
  },
  "altimeter": {
    "repr": "A3019",
    "value": 30.19,
    "spoken": "three zero point one nine"
  },
  "clouds": [
    {
      "repr": "FEW033",
      "type": "FEW",
      "altitude": 33,
      "modifier": null
    }
  ],
  "flight_rules": "VFR",
  "other": [],
  "visibility": {
    "repr": "10",
    "value": 10,
    "spoken": "one zero"
  },
  "wind_direction": {
    "repr": "200",
    "value": 200,
    "spoken": "two zero zero"
  },
  "wind_gust": null,
  "wind_speed": {
    "repr": "06",
    "value": 6,
    "spoken": "six"
  },
  "wx_codes": [],
  "raw": "KAWO 062156Z AUTO 20006KT 10SM FEW033 25/16 A3019 RMK AO2 SLP227 T02500161",
  "sanitized": "KAWO 062156Z 20006KT 10SM FEW033 25/16 A3019 RMK AO2 SLP227 T02500161",
  "station": "KAWO",
  "time": {
    "repr": "062156Z",
    "dt": "2023-08-06T21:56:00Z"
  },
  "remarks": "RMK AO2 SLP227 T02500161",
  "dewpoint": {
    "repr": "16",
    "value": 16,
    "spoken": "one six"
  },
  "relative_humidity": 0.577304929178712,
  "remarks_info": {
    "maximum_temperature_6": null,
    "minimum_temperature_6": null,
    "pressure_tendency": null,
    "precip_36_hours": null,
    "precip_24_hours": null,
    "sunshine_minutes": null,
    "codes": [
      {
        "repr": "AO2",
        "value": "Automated with precipitation sensor"
      }
    ],
    "dewpoint_decimal": {
      "repr": "0161",
      "value": 16.1,
      "spoken": "one six point one"
    },
    "maximum_temperature_24": null,
    "minimum_temperature_24": null,
    "precip_hourly": null,
    "sea_level_pressure": {
      "repr": "SLP227",
      "value": 1022.7,
      "spoken": "one zero two two point seven"
    },
    "snow_depth": null,
    "temperature_decimal": {
      "repr": "0250",
      "value": 25,
      "spoken": "two five point zero"
    }
  },
  "runway_visibility": [],
  "temperature": {
    "repr": "25",
    "value": 25,
    "spoken": "two five"
  },
  "wind_variable_direction": [],
  "density_altitude": 1106,
  "pressure_altitude": -128,
  "units": {
    "accumulation": "in",
    "altimeter": "inHg",
    "altitude": "ft",
    "temperature": "C",
    "visibility": "sm",
    "wind_speed": "kt"
  }
}
