{
  "altimeter": {
    "repr": "A2990",
    "spoken": "two nine point nine zero",
    "value": 29.9
  },
  "clouds": [
    {
      "altitude": 23,
      "modifier": null,
      "repr": "FEW023",
      "type": "FEW"
    },
    {
      "altitude": 95,
      "modifier": null,
      "repr": "BKN095",
      "type": "BKN"
    },
    {
      "altitude": 110,
      "modifier": null,
      "repr": "OVC110",
      "type": "OVC"
    }
  ],
  "density_altitude": 592,
  "dewpoint": {
    "repr": "17",
    "spoken": "one seven",
    "value": 17
  },
  "flight_rules": "VFR",
  "meta": {
    "stations_updated": "2024-06-12",
    "timestamp": "2024-08-18T07:01:40.025331Z"
  },
  "other": [],
  "pressure_altitude": 162,
  "raw": "KAWO 180656Z AUTO 07004KT 10SM -RA FEW023 BKN095 OVC110 18/17 A2990 RMK AO2 TSE0557 SLP131 P0004 T01830172 402720106",
  "relative_humidity": 0.9330043841927117,
  "remarks": "RMK AO2 TSE0557 SLP131 P0004 T01830172 402720106",
  "remarks_info": {
    "codes": [
      {
        "repr": "AO2",
        "value": "Automated with precipitation sensor"
      }
    ],
    "dewpoint_decimal": {
      "repr": "0172",
      "spoken": "one seven point two",
      "value": 17.2
    },
    "maximum_temperature_24": {
      "repr": "0272",
      "spoken": "two seven point two",
      "value": 27.2
    },
    "maximum_temperature_6": null,
    "minimum_temperature_24": {
      "repr": "0106",
      "spoken": "one zero point six",
      "value": 10.6
    },
    "minimum_temperature_6": null,
    "precip_24_hours": null,
    "precip_36_hours": null,
    "precip_hourly": {
      "repr": "P0004",
      "spoken": "zero point zero four",
      "value": 0.04
    },
    "pressure_tendency": null,
    "sea_level_pressure": {
      "repr": "SLP131",
      "spoken": "one zero one three point one",
      "value": 1013.1
    },
    "snow_depth": null,
    "sunshine_minutes": null,
    "temperature_decimal": {
      "repr": "0183",
      "spoken": "one eight point three",
      "value": 18.3
    }
  },
  "runway_visibility": [],
  "sanitized": "KAWO 180656Z 07004KT 10SM -RA FEW023 BKN095 OVC110 18/17 A2990 RMK AO2 TSE0557 SLP131 P0004 T01830172 402720106",
  "station": "KAWO",
  "temperature": {
    "repr": "18",
    "spoken": "one eight",
    "value": 18
  },
  "time": {
    "dt": "2024-08-18T06:56:00Z",
    "repr": "180656Z"
  },
  "units": {
    "accumulation": "in",
    "altimeter": "inHg",
    "altitude": "ft",
    "temperature": "C",
    "visibility": "sm",
    "wind_speed": "kt"
  },
  "visibility": {
    "repr": "10",
    "spoken": "one zero",
    "value": 10
  },
  "wind_direction": {
    "repr": "070",
    "spoken": "zero seven zero",
    "value": 70
  },
  "wind_gust": null,
  "wind_speed": {
    "repr": "04",
    "spoken": "four",
    "value": 4
  },
  "wind_variable_direction": [],
  "wx_codes": [
    {
      "repr": "-RA",
      "value": "Light Rain"
    }
  ]
}
