{
  "meta": {
    "timestamp": "2022-12-22T12:46:09.116097Z",
    "stations_updated": "2022-09-05"
  },
  "altimeter": {
    "repr": "A3057",
    "value": 30.57,
    "spoken": "three zero point five seven"
  },
  "clouds": [],
  "flight_rules": "VFR",
  "other": [],
  "visibility": {
    "repr": "10",
    "value": 10,
    "spoken": "one zero"
  },
  "wind_direction": {
    "repr": "140",
    "value": 140,
    "spoken": "one four zero"
  },
  "wind_gust": null,
  "wind_speed": {
    "repr": "03",
    "value": 3,
    "spoken": "three"
  },
  "wx_codes": [],
  "raw": "KAWO 221156Z AUTO 14003KT 10SM CLR M15/M17 A3057 RMK AO2 SLP360 7//// T11501172 11128 21161 56010 FZRANO",
  "sanitized": "KAWO 221156Z 14003KT 10SM M15/M17 A3057 RMK AO2 SLP360 7//// T11501172 11128 21161 56010 FZRANO",
  "station": "KAWO",
  "time": {
    "repr": "221156Z",
    "dt": "2022-12-22T11:56:00Z"
  },
  "remarks": "RMK AO2 SLP360 7//// T11501172 11128 21161 56010 FZRANO",
  "dewpoint": {
    "repr": "M17",
    "value": -17,
    "spoken": "minus one seven"
  },
  "relative_humidity": 0.8327203043331002,
  "remarks_info": {
    "maximum_temperature_6": {
      "repr": "11128",
      "value": -12.8,
      "spoken": "minus one two point eight"
    },
    "minimum_temperature_6": {
      "repr": "21161",
      "value": -16.1,
      "spoken": "minus one six point one"
    },
    "pressure_tendency": {
      "repr": "56010",
      "tendency": "Decreasing, then steady",
      "change": 1
    },
    "precip_36_hours": null,
    "precip_24_hours": null,
    "sunshine_minutes": null,
    "codes": [
      {
        "repr": "AO2",
        "value": "Automated with precipitation sensor"
      },
      {
        "repr": "FZRANO",
        "value": "Freezing rain information not available"
      }
    ],
    "dewpoint_decimal": {
      "repr": "1172",
      "value": -17.2,
      "spoken": "minus one seven point two"
    },
    "maximum_temperature_24": null,
    "minimum_temperature_24": null,
    "precip_hourly": null,
    "sea_level_pressure": {
      "repr": "SLP360",
      "value": 1036,
      "spoken": "one zero three six point zero"
    },
    "snow_depth": null,
    "temperature_decimal": {
      "repr": "1150",
      "value": -15,
      "spoken": "minus one five point zero"
    }
  },
  "runway_visibility": [],
  "temperature": {
    "repr": "M15",
    "value": -15,
    "spoken": "minus one five"
  },
  "wind_variable_direction": [],
  "density_altitude": -4074,
  "pressure_altitude": -508,
  "units": {
    "accumulation": "in",
    "altimeter": "inHg",
    "altitude": "ft",
    "temperature": "C",
    "visibility": "sm",
    "wind_speed": "kt"
  }
}
