{
  "meta": {
    "timestamp": "2023-02-21T10:30:51.925421Z",
    "stations_updated": "2023-01-30",
    "cache-timestamp": "2023-02-21T10:30:08.025000Z"
  },
  "altimeter": {
    "repr": "A2968",
    "value": 29.68,
    "spoken": "two nine point six eight"
  },
  "clouds": [
    {
      "repr": "SCT028",
      "type": "SCT",
      "altitude": 28,
      "modifier": null
    }
  ],
  "flight_rules": "VFR",
  "other": [],
  "visibility": {
    "repr": "10",
    "value": 10,
    "spoken": "one zero"
  },
  "wind_direction": {
    "repr": "260",
    "value": 260,
    "spoken": "two six zero"
  },
  "wind_gust": {
    "repr": "25",
    "value": 25,
    "spoken": "two five"
  },
  "wind_speed": {
    "repr": "15",
    "value": 15,
    "spoken": "one five"
  },
  "wx_codes": [],
  "raw": "KAWO 210956Z AUTO 26015G25KT 10SM SCT028 06/02 A2968 RMK AO2 PK WND 29026/0941 SLP054 T00610017",
  "sanitized": "KAWO 210956Z 26015G25KT 10SM SCT028 06/02 A2968 RMK AO2 PK WND 29026/0941 SLP054 T00610017",
  "station": "KAWO",
  "time": {
    "repr": "210956Z",
    "dt": "2023-02-21T09:56:00Z"
  },
  "remarks": "RMK AO2 PK WND 29026/0941 SLP054 T00610017",
  "dewpoint": {
    "repr": "02",
    "value": 2,
    "spoken": "two"
  },
  "relative_humidity": 0.7339379536880067,
  "remarks_info": {
    "maximum_temperature_6": null,
    "minimum_temperature_6": null,
    "pressure_tendency": null,
    "precip_36_hours": null,
    "precip_24_hours": null,
    "sunshine_minutes": null,
    "codes": [
      {
        "repr": "AO2",
        "value": "Automated with precipitation sensor"
      }
    ],
    "dewpoint_decimal": {
      "repr": "0017",
      "value": 1.7,
      "spoken": "one point seven"
    },
    "maximum_temperature_24": null,
    "minimum_temperature_24": null,
    "precip_hourly": null,
    "sea_level_pressure": {
      "repr": "SLP054",
      "value": 1005.4,
      "spoken": "one zero zero five point four"
    },
    "snow_depth": null,
    "temperature_decimal": {
      "repr": "0061",
      "value": 6.1,
      "spoken": "six point one"
    }
  },
  "runway_visibility": [],
  "temperature": {
    "repr": "06",
    "value": 6,
    "spoken": "six"
  },
  "wind_variable_direction": [],
  "density_altitude": -652,
  "pressure_altitude": 382,
  "units": {
    "accumulation": "in",
    "altimeter": "inHg",
    "altitude": "ft",
    "temperature": "C",
    "visibility": "sm",
    "wind_speed": "kt"
  }
}
