{
  "meta": {
    "timestamp": "2022-10-31T07:43:39.049816Z",
    "stations_updated": "2022-09-05"
  },
  "altimeter": {
    "repr": "A2988",
    "value": 29.88,
    "spoken": "two nine point eight eight"
  },
  "clouds": [
    {
      "repr": "SCT030",
      "type": "SCT",
      "altitude": 30,
      "modifier": null
    },
    {
      "repr": "OVC038",
      "type": "OVC",
      "altitude": 38,
      "modifier": null
    }
  ],
  "flight_rules": "VFR",
  "other": [],
  "visibility": {
    "repr": "9",
    "value": 9,
    "spoken": "nine"
  },
  "wind_direction": {
    "repr": "300",
    "value": 300,
    "spoken": "three zero zero"
  },
  "wind_gust": null,
  "wind_speed": {
    "repr": "03",
    "value": 3,
    "spoken": "three"
  },
  "wx_codes": [
    {
      "repr": "-RA",
      "value": "Light Rain"
    }
  ],
  "raw": "KAWO 310656Z AUTO 30003KT 9SM -RA SCT030 OVC038 10/09 A2988 RMK AO2 SLP123 P0004 T01000094",
  "sanitized": "KAWO 310656Z 30003KT 9SM -RA SCT030 OVC038 10/09 A2988 RMK AO2 SLP123 P0004 T01000094",
  "station": "KAWO",
  "time": {
    "repr": "310656Z",
    "dt": "2022-10-31T06:56:00Z"
  },
  "remarks": "RMK AO2 SLP123 P0004 T01000094",
  "dewpoint": {
    "repr": "09",
    "value": 9,
    "spoken": "nine"
  },
  "relative_humidity": 0.9605319898773285,
  "remarks_info": {
    "maximum_temperature_6": null,
    "minimum_temperature_6": null,
    "pressure_tendency": null,
    "precip_36_hours": null,
    "precip_24_hours": null,
    "sunshine_minutes": null,
    "codes": [
      {
        "repr": "AO2",
        "value": "Automated with precipitation sensor"
      }
    ],
    "dewpoint_decimal": {
      "repr": "0094",
      "value": 9.4,
      "spoken": "nine point four"
    },
    "maximum_temperature_24": null,
    "minimum_temperature_24": null,
    "precip_hourly": {
      "repr": "P0004",
      "value": 0.04,
      "spoken": "zero point zero four"
    },
    "sea_level_pressure": {
      "repr": "SLP123",
      "value": 1012.3,
      "spoken": "one zero one two point three"
    },
    "snow_depth": null,
    "temperature_decimal": {
      "repr": "0100",
      "value": 10,
      "spoken": "one zero point zero"
    }
  },
  "runway_visibility": [],
  "temperature": {
    "repr": "10",
    "value": 10,
    "spoken": "one zero"
  },
  "wind_variable_direction": [],
  "density_altitude": -384,
  "pressure_altitude": 182,
  "units": {
    "accumulation": "in",
    "altimeter": "inHg",
    "altitude": "ft",
    "temperature": "C",
    "visibility": "sm",
    "wind_speed": "kt"
  }
}
