{
  "meta": {
    "timestamp": "2022-07-30T00:27:38.158757Z",
    "stations_updated": "2022-07-17"
  },
  "altimeter": {
    "repr": "A2985",
    "value": 29.85,
    "spoken": "two nine point eight five"
  },
  "clouds": [],
  "flight_rules": "VFR",
  "other": [],
  "visibility": {
    "repr": "10",
    "value": 10,
    "spoken": "one zero"
  },
  "wind_direction": {
    "repr": "310",
    "value": 310,
    "spoken": "three one zero"
  },
  "wind_gust": null,
  "wind_speed": {
    "repr": "10",
    "value": 10,
    "spoken": "one zero"
  },
  "wx_codes": [],
  "raw": "KAWO 292356Z AUTO 31010KT 10SM CLR 32/19 A2985 RMK AO2 SLP110 T03170189 10328 20267 56013",
  "sanitized": "KAWO 292356Z 31010KT 10SM 32/19 A2985 RMK AO2 SLP110 T03170189 10328 20267 56013",
  "station": "KAWO",
  "time": {
    "repr": "292356Z",
    "dt": "2022-07-29T23:56:00Z"
  },
  "remarks": "RMK AO2 SLP110 T03170189 10328 20267 56013",
  "dewpoint": {
    "repr": "19",
    "value": 19,
    "spoken": "one nine"
  },
  "relative_humidity": 0.4664222400527426,
  "remarks_info": {
    "maximum_temperature_6": {
      "repr": "10328",
      "value": 32.8,
      "spoken": "three two point eight"
    },
    "minimum_temperature_6": {
      "repr": "20267",
      "value": 26.7,
      "spoken": "two six point seven"
    },
    "pressure_tendency": {
      "repr": "56013",
      "tendency": "Decreasing, then steady",
      "change": 1.3
    },
    "precip_36_hours": null,
    "precip_24_hours": null,
    "sunshine_minutes": null,
    "codes": [
      {
        "repr": "AO2",
        "value": "Automated with precipitation sensor"
      }
    ],
    "dewpoint_decimal": {
      "repr": "0189",
      "value": 18.9,
      "spoken": "one eight point nine"
    },
    "maximum_temperature_24": null,
    "minimum_temperature_24": null,
    "precip_hourly": null,
    "sea_level_pressure": {
      "repr": "SLP110",
      "value": 1011,
      "spoken": "one zero one one point zero"
    },
    "snow_depth": null,
    "temperature_decimal": {
      "repr": "0317",
      "value": 31.7,
      "spoken": "three one point seven"
    }
  },
  "runway_visibility": [],
  "temperature": {
    "repr": "32",
    "value": 32,
    "spoken": "three two"
  },
  "wind_variable_direction": [],
  "density_altitude": 2250,
  "pressure_altitude": 212,
  "units": {
    "accumulation": "in",
    "altimeter": "inHg",
    "altitude": "ft",
    "temperature": "C",
    "visibility": "sm",
    "wind_speed": "kt"
  }
}
