{
  "altimeter": {
    "repr": "A3002",
    "spoken": "three zero point zero two",
    "value": 30.02
  },
  "clouds": [
    {
      "altitude": 85,
      "modifier": null,
      "repr": "SCT085",
      "type": "SCT"
    }
  ],
  "density_altitude": -992,
  "dewpoint": {
    "repr": "02",
    "spoken": "two",
    "value": 2
  },
  "flight_rules": "VFR",
  "meta": {
    "cache-timestamp": "2024-04-24T09:40:04.756000Z",
    "stations_updated": "2024-01-01",
    "timestamp": "2024-04-24T09:40:46.725650Z"
  },
  "other": [],
  "pressure_altitude": 42,
  "raw": "KAWO 240856Z AUTO 15003KT 10SM SCT085 06/02 A3002 RMK AO2 SLP169 T00610017 51013",
  "relative_humidity": 0.7339379536880067,
  "remarks": "RMK AO2 SLP169 T00610017 51013",
  "remarks_info": {
    "codes": [
      {
        "repr": "AO2",
        "value": "Automated with precipitation sensor"
      }
    ],
    "dewpoint_decimal": {
      "repr": "0017",
      "spoken": "one point seven",
      "value": 1.7
    },
    "maximum_temperature_24": null,
    "maximum_temperature_6": null,
    "minimum_temperature_24": null,
    "minimum_temperature_6": null,
    "precip_24_hours": null,
    "precip_36_hours": null,
    "precip_hourly": null,
    "pressure_tendency": {
      "change": 1.3,
      "repr": "51013",
      "tendency": "Increasing, then steady"
    },
    "sea_level_pressure": {
      "repr": "SLP169",
      "spoken": "one zero one six point nine",
      "value": 1016.9
    },
    "snow_depth": null,
    "sunshine_minutes": null,
    "temperature_decimal": {
      "repr": "0061",
      "spoken": "six point one",
      "value": 6.1
    }
  },
  "runway_visibility": [],
  "sanitized": "KAWO 240856Z 15003KT 10SM SCT085 06/02 A3002 RMK AO2 SLP169 T00610017 51013",
  "station": "KAWO",
  "temperature": {
    "repr": "06",
    "spoken": "six",
    "value": 6
  },
  "time": {
    "dt": "2024-04-24T08:56:00Z",
    "repr": "240856Z"
  },
  "units": {
    "accumulation": "in",
    "altimeter": "inHg",
    "altitude": "ft",
    "temperature": "C",
    "visibility": "sm",
    "wind_speed": "kt"
  },
  "visibility": {
    "repr": "10",
    "spoken": "one zero",
    "value": 10
  },
  "wind_direction": {
    "repr": "150",
    "spoken": "one five zero",
    "value": 150
  },
  "wind_gust": null,
  "wind_speed": {
    "repr": "03",
    "spoken": "three",
    "value": 3
  },
  "wind_variable_direction": [],
  "wx_codes": []
}
