{
  "meta": {
    "timestamp": "2022-12-25T06:05:34.164708Z",
    "stations_updated": "2022-09-05"
  },
  "altimeter": {
    "repr": "A3019",
    "value": 30.19,
    "spoken": "three zero point one nine"
  },
  "clouds": [
    {
      "repr": "OVC005",
      "type": "OVC",
      "altitude": 5,
      "modifier": null
    }
  ],
  "flight_rules": "IFR",
  "other": [],
  "visibility": {
    "repr": "7",
    "value": 7,
    "spoken": "seven"
  },
  "wind_direction": {
    "repr": "170",
    "value": 170,
    "spoken": "one seven zero"
  },
  "wind_gust": null,
  "wind_speed": {
    "repr": "06",
    "value": 6,
    "spoken": "six"
  },
  "wx_codes": [
    {
      "repr": "-RA",
      "value": "Light Rain"
    }
  ],
  "raw": "KAWO 250556Z AUTO 17006KT 7SM -RA OVC005 10/09 A3019 RMK AO2 SLP229 P0001 60015 T01000094 10111 20100 51021",
  "sanitized": "KAWO 250556Z 17006KT 7SM -RA OVC005 10/09 A3019 RMK AO2 SLP229 P0001 60015 T01000094 10111 20100 51021",
  "station": "KAWO",
  "time": {
    "repr": "250556Z",
    "dt": "2022-12-25T05:56:00Z"
  },
  "remarks": "RMK AO2 SLP229 P0001 60015 T01000094 10111 20100 51021",
  "dewpoint": {
    "repr": "09",
    "value": 9,
    "spoken": "nine"
  },
  "relative_humidity": 0.9605319898773285,
  "remarks_info": {
    "maximum_temperature_6": {
      "repr": "10111",
      "value": 11.1,
      "spoken": "one one point one"
    },
    "minimum_temperature_6": {
      "repr": "20100",
      "value": 10,
      "spoken": "one zero point zero"
    },
    "pressure_tendency": {
      "repr": "51021",
      "tendency": "Increasing, then steady",
      "change": 2.1
    },
    "precip_36_hours": {
      "repr": "60015",
      "value": 0.15,
      "spoken": "zero point one five"
    },
    "precip_24_hours": null,
    "sunshine_minutes": null,
    "codes": [
      {
        "repr": "AO2",
        "value": "Automated with precipitation sensor"
      }
    ],
    "dewpoint_decimal": {
      "repr": "0094",
      "value": 9.4,
      "spoken": "nine point four"
    },
    "maximum_temperature_24": null,
    "minimum_temperature_24": null,
    "precip_hourly": {
      "repr": "P0001",
      "value": 0.01,
      "spoken": "zero point zero one"
    },
    "sea_level_pressure": {
      "repr": "SLP229",
      "value": 1022.9,
      "spoken": "one zero two two point nine"
    },
    "snow_depth": null,
    "temperature_decimal": {
      "repr": "0100",
      "value": 10,
      "spoken": "one zero point zero"
    }
  },
  "runway_visibility": [],
  "temperature": {
    "repr": "10",
    "value": 10,
    "spoken": "one zero"
  },
  "wind_variable_direction": [],
  "density_altitude": -694,
  "pressure_altitude": -128,
  "units": {
    "accumulation": "in",
    "altimeter": "inHg",
    "altitude": "ft",
    "temperature": "C",
    "visibility": "sm",
    "wind_speed": "kt"
  }
}
