{
  "altimeter": {
    "repr": "A3004",
    "spoken": "three zero point zero four",
    "value": 30.04
  },
  "clouds": [],
  "density_altitude": 1856,
  "dewpoint": {
    "repr": "21",
    "spoken": "two one",
    "value": 21
  },
  "flight_rules": "VFR",
  "meta": {
    "stations_updated": "2024-06-12",
    "timestamp": "2024-09-05T23:26:52.148337Z"
  },
  "other": [],
  "pressure_altitude": 22,
  "raw": "KAWO 052256Z AUTO 30006KT 10SM CLR 30/21 A3004 RMK AO2 SLP178 T03000206",
  "relative_humidity": 0.571246177528996,
  "remarks": "RMK AO2 SLP178 T03000206",
  "remarks_info": {
    "codes": [
      {
        "repr": "AO2",
        "value": "Automated with precipitation sensor"
      }
    ],
    "dewpoint_decimal": {
      "repr": "0206",
      "spoken": "two zero point six",
      "value": 20.6
    },
    "maximum_temperature_24": null,
    "maximum_temperature_6": null,
    "minimum_temperature_24": null,
    "minimum_temperature_6": null,
    "precip_24_hours": null,
    "precip_36_hours": null,
    "precip_hourly": null,
    "pressure_tendency": null,
    "sea_level_pressure": {
      "repr": "SLP178",
      "spoken": "one zero one seven point eight",
      "value": 1017.8
    },
    "snow_depth": null,
    "sunshine_minutes": null,
    "temperature_decimal": {
      "repr": "0300",
      "spoken": "three zero point zero",
      "value": 30
    }
  },
  "runway_visibility": [],
  "sanitized": "KAWO 052256Z 30006KT 10SM 30/21 A3004 RMK AO2 SLP178 T03000206",
  "station": "KAWO",
  "temperature": {
    "repr": "30",
    "spoken": "three zero",
    "value": 30
  },
  "time": {
    "dt": "2024-09-05T22:56:00Z",
    "repr": "052256Z"
  },
  "units": {
    "accumulation": "in",
    "altimeter": "inHg",
    "altitude": "ft",
    "temperature": "C",
    "visibility": "sm",
    "wind_speed": "kt"
  },
  "visibility": {
    "repr": "10",
    "spoken": "one zero",
    "value": 10
  },
  "wind_direction": {
    "repr": "300",
    "spoken": "three zero zero",
    "value": 300
  },
  "wind_gust": null,
  "wind_speed": {
    "repr": "06",
    "spoken": "six",
    "value": 6
  },
  "wind_variable_direction": [],
  "wx_codes": []
}
