{
  "altimeter": {
    "repr": "A3005",
    "spoken": "three zero point zero five",
    "value": 30.05
  },
  "clouds": [
    {
      "altitude": 40,
      "modifier": null,
      "repr": "SCT040",
      "type": "SCT"
    }
  ],
  "density_altitude": -950,
  "dewpoint": {
    "repr": "M02",
    "spoken": "minus two",
    "value": -2
  },
  "flight_rules": "VFR",
  "meta": {
    "cache-timestamp": "2024-03-05T21:20:05.640000Z",
    "stations_updated": "2024-01-01",
    "timestamp": "2024-03-05T21:20:39.890240Z"
  },
  "other": [],
  "pressure_altitude": 12,
  "raw": "KAWO 052056Z AUTO 28008G14KT 10SM SCT040 07/M02 A3005 RMK AO2 SLP183 T00671022 50000",
  "relative_humidity": 0.5303172745921353,
  "remarks": "RMK AO2 SLP183 T00671022 50000",
  "remarks_info": {
    "codes": [
      {
        "repr": "AO2",
        "value": "Automated with precipitation sensor"
      }
    ],
    "dewpoint_decimal": {
      "repr": "1022",
      "spoken": "minus two point two",
      "value": -2.2
    },
    "maximum_temperature_24": null,
    "maximum_temperature_6": null,
    "minimum_temperature_24": null,
    "minimum_temperature_6": null,
    "precip_24_hours": null,
    "precip_36_hours": null,
    "precip_hourly": null,
    "pressure_tendency": {
      "change": 0,
      "repr": "50000",
      "tendency": "Increasing, then decreasing"
    },
    "sea_level_pressure": {
      "repr": "SLP183",
      "spoken": "one zero one eight point three",
      "value": 1018.3
    },
    "snow_depth": null,
    "sunshine_minutes": null,
    "temperature_decimal": {
      "repr": "0067",
      "spoken": "six point seven",
      "value": 6.7
    }
  },
  "runway_visibility": [],
  "sanitized": "KAWO 052056Z 28008G14KT 10SM SCT040 07/M02 A3005 RMK AO2 SLP183 T00671022 50000",
  "station": "KAWO",
  "temperature": {
    "repr": "07",
    "spoken": "seven",
    "value": 7
  },
  "time": {
    "dt": "2024-03-05T20:56:00Z",
    "repr": "052056Z"
  },
  "units": {
    "accumulation": "in",
    "altimeter": "inHg",
    "altitude": "ft",
    "temperature": "C",
    "visibility": "sm",
    "wind_speed": "kt"
  },
  "visibility": {
    "repr": "10",
    "spoken": "one zero",
    "value": 10
  },
  "wind_direction": {
    "repr": "280",
    "spoken": "two eight zero",
    "value": 280
  },
  "wind_gust": {
    "repr": "14",
    "spoken": "one four",
    "value": 14
  },
  "wind_speed": {
    "repr": "08",
    "spoken": "eight",
    "value": 8
  },
  "wind_variable_direction": [],
  "wx_codes": []
}
