{
  "meta": {
    "timestamp": "2023-10-22T20:23:06.814188Z",
    "stations_updated": "2023-10-01"
  },
  "altimeter": {
    "repr": "A2990",
    "value": 29.9,
    "spoken": "two nine point nine zero"
  },
  "clouds": [
    {
      "repr": "OVC007",
      "type": "OVC",
      "altitude": 7,
      "modifier": null
    }
  ],
  "flight_rules": "IFR",
  "other": [],
  "visibility": {
    "repr": "10",
    "value": 10,
    "spoken": "one zero"
  },
  "wind_direction": {
    "repr": "310",
    "value": 310,
    "spoken": "three one zero"
  },
  "wind_gust": null,
  "wind_speed": {
    "repr": "03",
    "value": 3,
    "spoken": "three"
  },
  "wx_codes": [],
  "raw": "KAWO 222013Z AUTO 31003KT 10SM OVC007 12/11 A2990 RMK AO2 KAWO 221956Z AUTO 00000KT 10SM OVC005 12/11 A2990 RMK AO2 SLP131 T01220111 KAWO 221856Z AUTO 32006KT 10SM OVC005 12/11 A2992 RMK AO2 SLP135 T01170106",
  "sanitized": "KAWO 222013Z 31003KT 10SM OVC007 12/11 A2990 RMK AO2 KAWO 221956Z AUTO 00000KT 10SM OVC005 12/11 A2990 RMK AO2 SLP131 T01220111 KAWO 221856Z AUTO 32006KT 10SM OVC005 12/11 A2992 RMK AO2 SLP135 T01170106",
  "station": "KAWO",
  "time": {
    "repr": "222013Z",
    "dt": "2023-10-22T20:13:00Z"
  },
  "remarks": "RMK AO2 KAWO 221956Z AUTO 00000KT 10SM OVC005 12/11 A2990 RMK AO2 SLP131 T01220111 KAWO 221856Z AUTO 32006KT 10SM OVC005 12/11 A2992 RMK AO2 SLP135 T01170106",
  "dewpoint": {
    "repr": "11",
    "value": 11,
    "spoken": "one one"
  },
  "relative_humidity": 0.9296133286105723,
  "remarks_info": {
    "maximum_temperature_6": null,
    "minimum_temperature_6": null,
    "pressure_tendency": null,
    "precip_36_hours": null,
    "precip_24_hours": null,
    "sunshine_minutes": null,
    "codes": [
      {
        "repr": "AO2",
        "value": "Automated with precipitation sensor"
      },
      {
        "repr": "AO2",
        "value": "Automated with precipitation sensor"
      },
      {
        "repr": "AO2",
        "value": "Automated with precipitation sensor"
      }
    ],
    "dewpoint_decimal": {
      "repr": "0106",
      "value": 10.6,
      "spoken": "one zero point six"
    },
    "maximum_temperature_24": null,
    "minimum_temperature_24": null,
    "precip_hourly": null,
    "sea_level_pressure": {
      "repr": "SLP131",
      "value": 1013.1,
      "spoken": "one zero one three point one"
    },
    "snow_depth": null,
    "temperature_decimal": {
      "repr": "0117",
      "value": 11.7,
      "spoken": "one one point seven"
    }
  },
  "runway_visibility": [],
  "temperature": {
    "repr": "12",
    "value": 12,
    "spoken": "one two"
  },
  "wind_variable_direction": [],
  "density_altitude": -200,
  "pressure_altitude": 162,
  "units": {
    "accumulation": "in",
    "altimeter": "inHg",
    "altitude": "ft",
    "temperature": "C",
    "visibility": "sm",
    "wind_speed": "kt"
  }
}
