{
  "meta": {
    "timestamp": "2023-02-26T03:04:30.422823Z",
    "stations_updated": "2023-01-30",
    "cache-timestamp": "2023-02-26T03:04:04.370000Z"
  },
  "altimeter": {
    "repr": "A2965",
    "value": 29.65,
    "spoken": "two nine point six five"
  },
  "clouds": [],
  "flight_rules": "VFR",
  "other": [],
  "visibility": {
    "repr": "10",
    "value": 10,
    "spoken": "one zero"
  },
  "wind_direction": {
    "repr": "190",
    "value": 190,
    "spoken": "one nine zero"
  },
  "wind_gust": null,
  "wind_speed": {
    "repr": "03",
    "value": 3,
    "spoken": "three"
  },
  "wx_codes": [],
  "raw": "KAWO 260256Z AUTO 19003KT 10SM CLR 05/M06 A2965 RMK AO2 SLP045 T00501061 56033",
  "sanitized": "KAWO 260256Z 19003KT 10SM 05/M06 A2965 RMK AO2 SLP045 T00501061 56033",
  "station": "KAWO",
  "time": {
    "repr": "260256Z",
    "dt": "2023-02-26T02:56:00Z"
  },
  "remarks": "RMK AO2 SLP045 T00501061 56033",
  "dewpoint": {
    "repr": "M06",
    "value": -6,
    "spoken": "minus six"
  },
  "relative_humidity": 0.44505190186411053,
  "remarks_info": {
    "maximum_temperature_6": null,
    "minimum_temperature_6": null,
    "pressure_tendency": {
      "repr": "56033",
      "tendency": "Decreasing, then steady",
      "change": 3.3
    },
    "precip_36_hours": null,
    "precip_24_hours": null,
    "sunshine_minutes": null,
    "codes": [
      {
        "repr": "AO2",
        "value": "Automated with precipitation sensor"
      }
    ],
    "dewpoint_decimal": {
      "repr": "1061",
      "value": -6.1,
      "spoken": "minus six point one"
    },
    "maximum_temperature_24": null,
    "minimum_temperature_24": null,
    "precip_hourly": null,
    "sea_level_pressure": {
      "repr": "SLP045",
      "value": 1004.5,
      "spoken": "one zero zero four point five"
    },
    "snow_depth": null,
    "temperature_decimal": {
      "repr": "0050",
      "value": 5,
      "spoken": "five point zero"
    }
  },
  "runway_visibility": [],
  "temperature": {
    "repr": "05",
    "value": 5,
    "spoken": "five"
  },
  "wind_variable_direction": [],
  "density_altitude": -754,
  "pressure_altitude": 412,
  "units": {
    "accumulation": "in",
    "altimeter": "inHg",
    "altitude": "ft",
    "temperature": "C",
    "visibility": "sm",
    "wind_speed": "kt"
  }
}
