{
  "altimeter": {
    "repr": "A3019",
    "spoken": "three zero point one nine",
    "value": 30.19
  },
  "clouds": [],
  "density_altitude": 170,
  "dewpoint": {
    "repr": "M03",
    "spoken": "minus three",
    "value": -3
  },
  "flight_rules": "VFR",
  "meta": {
    "cache-timestamp": "2024-04-19T19:40:05.218000Z",
    "stations_updated": "2024-01-01",
    "timestamp": "2024-04-19T19:40:32.241684Z"
  },
  "other": [],
  "pressure_altitude": -128,
  "raw": "KAWO 191856Z AUTO 21005KT 10SM CLR 17/M03 A3019 RMK AO2 SLP228 T01721028",
  "relative_humidity": 0.2537640837702316,
  "remarks": "RMK AO2 SLP228 T01721028",
  "remarks_info": {
    "codes": [
      {
        "repr": "AO2",
        "value": "Automated with precipitation sensor"
      }
    ],
    "dewpoint_decimal": {
      "repr": "1028",
      "spoken": "minus two point eight",
      "value": -2.8
    },
    "maximum_temperature_24": null,
    "maximum_temperature_6": null,
    "minimum_temperature_24": null,
    "minimum_temperature_6": null,
    "precip_24_hours": null,
    "precip_36_hours": null,
    "precip_hourly": null,
    "pressure_tendency": null,
    "sea_level_pressure": {
      "repr": "SLP228",
      "spoken": "one zero two two point eight",
      "value": 1022.8
    },
    "snow_depth": null,
    "sunshine_minutes": null,
    "temperature_decimal": {
      "repr": "0172",
      "spoken": "one seven point two",
      "value": 17.2
    }
  },
  "runway_visibility": [],
  "sanitized": "KAWO 191856Z 21005KT 10SM 17/M03 A3019 RMK AO2 SLP228 T01721028",
  "station": "KAWO",
  "temperature": {
    "repr": "17",
    "spoken": "one seven",
    "value": 17
  },
  "time": {
    "dt": "2024-04-19T18:56:00Z",
    "repr": "191856Z"
  },
  "units": {
    "accumulation": "in",
    "altimeter": "inHg",
    "altitude": "ft",
    "temperature": "C",
    "visibility": "sm",
    "wind_speed": "kt"
  },
  "visibility": {
    "repr": "10",
    "spoken": "one zero",
    "value": 10
  },
  "wind_direction": {
    "repr": "210",
    "spoken": "two one zero",
    "value": 210
  },
  "wind_gust": null,
  "wind_speed": {
    "repr": "05",
    "spoken": "five",
    "value": 5
  },
  "wind_variable_direction": [],
  "wx_codes": []
}
