{
  "meta": {
    "timestamp": "2023-08-04T00:29:46.604369Z",
    "stations_updated": "2023-06-06"
  },
  "altimeter": {
    "repr": "A3007",
    "value": 30.07,
    "spoken": "three zero point zero seven"
  },
  "clouds": [],
  "flight_rules": "VFR",
  "other": [],
  "visibility": {
    "repr": "10",
    "value": 10,
    "spoken": "one zero"
  },
  "wind_direction": {
    "repr": "280",
    "value": 280,
    "spoken": "two eight zero"
  },
  "wind_gust": null,
  "wind_speed": {
    "repr": "12",
    "value": 12,
    "spoken": "one two"
  },
  "wx_codes": [],
  "raw": "KAWO 032356Z AUTO 28012KT 10SM CLR 27/13 A3007 RMK AO2 SLP187 T02720128 10278 20222 56008",
  "sanitized": "KAWO 032356Z 28012KT 10SM 27/13 A3007 RMK AO2 SLP187 T02720128 10278 20222 56008",
  "station": "KAWO",
  "time": {
    "repr": "032356Z",
    "dt": "2023-08-03T23:56:00Z"
  },
  "remarks": "RMK AO2 SLP187 T02720128 10278 20222 56008",
  "dewpoint": {
    "repr": "13",
    "value": 13,
    "spoken": "one three"
  },
  "relative_humidity": 0.4094174770290836,
  "remarks_info": {
    "maximum_temperature_6": {
      "repr": "10278",
      "value": 27.8,
      "spoken": "two seven point eight"
    },
    "minimum_temperature_6": {
      "repr": "20222",
      "value": 22.2,
      "spoken": "two two point two"
    },
    "pressure_tendency": {
      "repr": "56008",
      "tendency": "Decreasing, then steady",
      "change": 0.8
    },
    "precip_36_hours": null,
    "precip_24_hours": null,
    "sunshine_minutes": null,
    "codes": [
      {
        "repr": "AO2",
        "value": "Automated with precipitation sensor"
      }
    ],
    "dewpoint_decimal": {
      "repr": "0128",
      "value": 12.8,
      "spoken": "one two point eight"
    },
    "maximum_temperature_24": null,
    "minimum_temperature_24": null,
    "precip_hourly": null,
    "sea_level_pressure": {
      "repr": "SLP187",
      "value": 1018.7,
      "spoken": "one zero one eight point seven"
    },
    "snow_depth": null,
    "temperature_decimal": {
      "repr": "0272",
      "value": 27.2,
      "spoken": "two seven point two"
    }
  },
  "runway_visibility": [],
  "temperature": {
    "repr": "27",
    "value": 27,
    "spoken": "two seven"
  },
  "wind_variable_direction": [],
  "density_altitude": 1490,
  "pressure_altitude": -8,
  "units": {
    "accumulation": "in",
    "altimeter": "inHg",
    "altitude": "ft",
    "temperature": "C",
    "visibility": "sm",
    "wind_speed": "kt"
  }
}
