{
  "meta": {
    "timestamp": "2022-11-21T19:40:45.871577Z",
    "stations_updated": "2022-09-05"
  },
  "altimeter": {
    "repr": "A3030",
    "value": 30.3,
    "spoken": "three zero point three zero"
  },
  "clouds": [
    {
      "repr": "OVC075",
      "type": "OVC",
      "altitude": 75,
      "modifier": null
    }
  ],
  "flight_rules": "VFR",
  "other": [],
  "visibility": {
    "repr": "10",
    "value": 10,
    "spoken": "one zero"
  },
  "wind_direction": {
    "repr": "000",
    "value": 0,
    "spoken": "zero zero zero"
  },
  "wind_gust": null,
  "wind_speed": {
    "repr": "00",
    "value": 0,
    "spoken": "zero"
  },
  "wx_codes": [],
  "raw": "KAWO 211856Z AUTO 00000KT 10SM OVC075 07/03 A3030 RMK AO2 SLP265 T00720028",
  "sanitized": "KAWO 211856Z 00000KT 10SM OVC075 07/03 A3030 RMK AO2 SLP265 T00720028",
  "station": "KAWO",
  "time": {
    "repr": "211856Z",
    "dt": "2022-11-21T18:56:00Z"
  },
  "remarks": "RMK AO2 SLP265 T00720028",
  "dewpoint": {
    "repr": "03",
    "value": 3,
    "spoken": "three"
  },
  "relative_humidity": 0.7359463252875809,
  "remarks_info": {
    "maximum_temperature_6": null,
    "minimum_temperature_6": null,
    "pressure_tendency": null,
    "precip_36_hours": null,
    "precip_24_hours": null,
    "sunshine_minutes": null,
    "codes": [
      {
        "repr": "AO2",
        "value": "Automated with precipitation sensor"
      }
    ],
    "dewpoint_decimal": {
      "repr": "0028",
      "value": 2.8,
      "spoken": "two point eight"
    },
    "maximum_temperature_24": null,
    "minimum_temperature_24": null,
    "precip_hourly": null,
    "sea_level_pressure": {
      "repr": "SLP265",
      "value": 1026.5,
      "spoken": "one zero two six point five"
    },
    "snow_depth": null,
    "temperature_decimal": {
      "repr": "0072",
      "value": 7.2,
      "spoken": "seven point two"
    }
  },
  "runway_visibility": [],
  "temperature": {
    "repr": "07",
    "value": 7,
    "spoken": "seven"
  },
  "wind_variable_direction": [],
  "density_altitude": -1140,
  "pressure_altitude": -238,
  "units": {
    "accumulation": "in",
    "altimeter": "inHg",
    "altitude": "ft",
    "temperature": "C",
    "visibility": "sm",
    "wind_speed": "kt"
  }
}
