{
  "meta": {
    "timestamp": "2023-03-10T18:07:00.117725Z",
    "stations_updated": "2023-01-30",
    "cache-timestamp": "2023-03-10T18:06:05.785000Z"
  },
  "altimeter": {
    "repr": "A2944",
    "value": 29.44,
    "spoken": "two nine point four four"
  },
  "clouds": [
    {
      "repr": "BKN026",
      "type": "BKN",
      "altitude": 26,
      "modifier": null
    }
  ],
  "flight_rules": "MVFR",
  "other": [],
  "visibility": {
    "repr": "10",
    "value": 10,
    "spoken": "one zero"
  },
  "wind_direction": {
    "repr": "170",
    "value": 170,
    "spoken": "one seven zero"
  },
  "wind_gust": null,
  "wind_speed": {
    "repr": "07",
    "value": 7,
    "spoken": "seven"
  },
  "wx_codes": [],
  "raw": "KAWO 101756Z AUTO 17007KT 10SM BKN026 06/03 A2944 RMK AO2 SLP973 P0017 60020 T00560028 10061 20033 53022",
  "sanitized": "KAWO 101756Z 17007KT 10SM BKN026 06/03 A2944 RMK AO2 SLP973 P0017 60020 T00560028 10061 20033 53022",
  "station": "KAWO",
  "time": {
    "repr": "101756Z",
    "dt": "2023-03-10T17:56:00Z"
  },
  "remarks": "RMK AO2 SLP973 P0017 60020 T00560028 10061 20033 53022",
  "dewpoint": {
    "repr": "03",
    "value": 3,
    "spoken": "three"
  },
  "relative_humidity": 0.821715477960863,
  "remarks_info": {
    "maximum_temperature_6": {
      "repr": "10061",
      "value": 6.1,
      "spoken": "six point one"
    },
    "minimum_temperature_6": {
      "repr": "20033",
      "value": 3.3,
      "spoken": "three point three"
    },
    "pressure_tendency": {
      "repr": "53022",
      "tendency": "Decreasing or steady, then increasing",
      "change": 2.2
    },
    "precip_36_hours": {
      "repr": "60020",
      "value": 0.2,
      "spoken": "zero point two"
    },
    "precip_24_hours": null,
    "sunshine_minutes": null,
    "codes": [
      {
        "repr": "AO2",
        "value": "Automated with precipitation sensor"
      }
    ],
    "dewpoint_decimal": {
      "repr": "0028",
      "value": 2.8,
      "spoken": "two point eight"
    },
    "maximum_temperature_24": null,
    "minimum_temperature_24": null,
    "precip_hourly": {
      "repr": "P0017",
      "value": 0.17,
      "spoken": "zero point one seven"
    },
    "sea_level_pressure": {
      "repr": "SLP973",
      "value": 997.3,
      "spoken": "nine nine seven point three"
    },
    "snow_depth": null,
    "temperature_decimal": {
      "repr": "0056",
      "value": 5.6,
      "spoken": "five point six"
    }
  },
  "runway_visibility": [],
  "temperature": {
    "repr": "06",
    "value": 6,
    "spoken": "six"
  },
  "wind_variable_direction": [],
  "density_altitude": -472,
  "pressure_altitude": 622,
  "units": {
    "accumulation": "in",
    "altimeter": "inHg",
    "altitude": "ft",
    "temperature": "C",
    "visibility": "sm",
    "wind_speed": "kt"
  }
}
