{
  "meta": {
    "timestamp": "2022-12-20T08:30:36.633774Z",
    "stations_updated": "2022-09-05"
  },
  "altimeter": {
    "repr": "A3019",
    "value": 30.19,
    "spoken": "three zero point one nine"
  },
  "clouds": [
    {
      "repr": "OVC008",
      "type": "OVC",
      "altitude": 8,
      "modifier": null
    }
  ],
  "flight_rules": "IFR",
  "other": [],
  "visibility": {
    "repr": "3",
    "value": 3,
    "spoken": "three"
  },
  "wind_direction": {
    "repr": "330",
    "value": 330,
    "spoken": "three three zero"
  },
  "wind_gust": null,
  "wind_speed": {
    "repr": "03",
    "value": 3,
    "spoken": "three"
  },
  "wx_codes": [
    {
      "repr": "-SN",
      "value": "Light Snow"
    },
    {
      "repr": "BR",
      "value": "Mist"
    }
  ],
  "raw": "KAWO 200756Z AUTO 33003KT 3SM -SN BR OVC008 M04/M05 A3019 RMK AO2 SLP230 P0001 T10391050 410171067 FZRANO",
  "sanitized": "KAWO 200756Z 33003KT 3SM -SN BR OVC008 M04/M05 A3019 RMK AO2 SLP230 P0001 T10391050 410171067 FZRANO",
  "station": "KAWO",
  "time": {
    "repr": "200756Z",
    "dt": "2022-12-20T07:56:00Z"
  },
  "remarks": "RMK AO2 SLP230 P0001 T10391050 410171067 FZRANO",
  "dewpoint": {
    "repr": "M05",
    "value": -5,
    "spoken": "minus five"
  },
  "relative_humidity": 0.9205137046647162,
  "remarks_info": {
    "maximum_temperature_6": null,
    "minimum_temperature_6": null,
    "pressure_tendency": null,
    "precip_36_hours": null,
    "precip_24_hours": null,
    "sunshine_minutes": null,
    "codes": [
      {
        "repr": "AO2",
        "value": "Automated with precipitation sensor"
      },
      {
        "repr": "FZRANO",
        "value": "Freezing rain information not available"
      }
    ],
    "dewpoint_decimal": {
      "repr": "1050",
      "value": -5,
      "spoken": "minus five point zero"
    },
    "maximum_temperature_24": {
      "repr": "1017",
      "value": -1.7,
      "spoken": "minus one point seven"
    },
    "minimum_temperature_24": {
      "repr": "1067",
      "value": -6.7,
      "spoken": "minus six point seven"
    },
    "precip_hourly": {
      "repr": "P0001",
      "value": 0.01,
      "spoken": "zero point zero one"
    },
    "sea_level_pressure": {
      "repr": "SLP230",
      "value": 1023,
      "spoken": "one zero two three point zero"
    },
    "snow_depth": null,
    "temperature_decimal": {
      "repr": "1039",
      "value": -3.9,
      "spoken": "minus three point nine"
    }
  },
  "runway_visibility": [],
  "temperature": {
    "repr": "M04",
    "value": -4,
    "spoken": "minus four"
  },
  "wind_variable_direction": [],
  "density_altitude": -2362,
  "pressure_altitude": -128,
  "units": {
    "accumulation": "in",
    "altimeter": "inHg",
    "altitude": "ft",
    "temperature": "C",
    "visibility": "sm",
    "wind_speed": "kt"
  }
}
