{
  "altimeter": {
    "repr": "A3005",
    "spoken": "three zero point zero five",
    "value": 30.05
  },
  "clouds": [
    {
      "altitude": 26,
      "modifier": null,
      "repr": "BKN026",
      "type": "BKN"
    },
    {
      "altitude": 43,
      "modifier": null,
      "repr": "OVC043",
      "type": "OVC"
    }
  ],
  "density_altitude": -794,
  "dewpoint": {
    "repr": "06",
    "spoken": "six",
    "value": 6
  },
  "flight_rules": "MVFR",
  "meta": {
    "stations_updated": "2024-01-01",
    "timestamp": "2024-02-25T02:29:32.112402Z"
  },
  "other": [],
  "pressure_altitude": 12,
  "raw": "KAWO 250219Z AUTO 15004KT 10SM BKN026 OVC043 08/06 A3005 RMK AO2 RAB0157E07 P0000",
  "relative_humidity": 0.87185013383306,
  "remarks": "RMK AO2 RAB0157E07 P0000",
  "remarks_info": {
    "codes": [
      {
        "repr": "AO2",
        "value": "Automated with precipitation sensor"
      },
      {
        "repr": "P0000",
        "value": "Trace amount of rain in the last hour"
      }
    ],
    "dewpoint_decimal": null,
    "maximum_temperature_24": null,
    "maximum_temperature_6": null,
    "minimum_temperature_24": null,
    "minimum_temperature_6": null,
    "precip_24_hours": null,
    "precip_36_hours": null,
    "precip_hourly": null,
    "pressure_tendency": null,
    "sea_level_pressure": null,
    "snow_depth": null,
    "sunshine_minutes": null,
    "temperature_decimal": null
  },
  "runway_visibility": [],
  "sanitized": "KAWO 250219Z 15004KT 10SM BKN026 OVC043 08/06 A3005 RMK AO2 RAB0157E07 P0000",
  "station": "KAWO",
  "temperature": {
    "repr": "08",
    "spoken": "eight",
    "value": 8
  },
  "time": {
    "dt": "2024-02-25T02:19:00Z",
    "repr": "250219Z"
  },
  "units": {
    "accumulation": "in",
    "altimeter": "inHg",
    "altitude": "ft",
    "temperature": "C",
    "visibility": "sm",
    "wind_speed": "kt"
  },
  "visibility": {
    "repr": "10",
    "spoken": "one zero",
    "value": 10
  },
  "wind_direction": {
    "repr": "150",
    "spoken": "one five zero",
    "value": 150
  },
  "wind_gust": null,
  "wind_speed": {
    "repr": "04",
    "spoken": "four",
    "value": 4
  },
  "wind_variable_direction": [],
  "wx_codes": []
}
