{
  "altimeter": {
    "repr": "A2994",
    "spoken": "two nine point nine four",
    "value": 29.94
  },
  "clouds": [
    {
      "altitude": 6,
      "modifier": null,
      "repr": "FEW006",
      "type": "FEW"
    },
    {
      "altitude": 25,
      "modifier": null,
      "repr": "OVC025",
      "type": "OVC"
    }
  ],
  "density_altitude": -840,
  "dewpoint": {
    "repr": "06",
    "spoken": "six",
    "value": 6
  },
  "flight_rules": "MVFR",
  "meta": {
    "stations_updated": "2024-12-02",
    "timestamp": "2024-12-18T00:38:00.860951Z"
  },
  "other": [],
  "pressure_altitude": 122,
  "raw": "KAWO 172356Z AUTO 20003KT 6SM RA BR FEW006 OVC025 07/06 A2994 RMK AO2 SLP145 P0010 60029 T00670061 10072 20061 58009",
  "relative_humidity": 0.9595042676817481,
  "remarks": "RMK AO2 SLP145 P0010 60029 T00670061 10072 20061 58009",
  "remarks_info": {
    "codes": [
      {
        "repr": "AO2",
        "value": "Automated with precipitation sensor"
      }
    ],
    "dewpoint_decimal": {
      "repr": "0061",
      "spoken": "six point one",
      "value": 6.1
    },
    "maximum_temperature_24": null,
    "maximum_temperature_6": {
      "repr": "10072",
      "spoken": "seven point two",
      "value": 7.2
    },
    "minimum_temperature_24": null,
    "minimum_temperature_6": {
      "repr": "20061",
      "spoken": "six point one",
      "value": 6.1
    },
    "precip_24_hours": null,
    "precip_36_hours": {
      "repr": "60029",
      "spoken": "zero point two nine",
      "value": 0.29
    },
    "precip_hourly": {
      "repr": "P0010",
      "spoken": "zero point one",
      "value": 0.1
    },
    "pressure_tendency": {
      "change": 0.9,
      "repr": "58009",
      "tendency": "Steady or increasing, then decreasing"
    },
    "sea_level_pressure": {
      "repr": "SLP145",
      "spoken": "one zero one four point five",
      "value": 1014.5
    },
    "snow_depth": null,
    "sunshine_minutes": null,
    "temperature_decimal": {
      "repr": "0067",
      "spoken": "six point seven",
      "value": 6.7
    }
  },
  "runway_visibility": [],
  "sanitized": "KAWO 172356Z 20003KT 6SM RA BR FEW006 OVC025 07/06 A2994 RMK AO2 SLP145 P0010 60029 T00670061 10072 20061 58009",
  "station": "KAWO",
  "temperature": {
    "repr": "07",
    "spoken": "seven",
    "value": 7
  },
  "time": {
    "dt": "2024-12-17T23:56:00Z",
    "repr": "172356Z"
  },
  "units": {
    "accumulation": "in",
    "altimeter": "inHg",
    "altitude": "ft",
    "temperature": "C",
    "visibility": "sm",
    "wind_speed": "kt"
  },
  "visibility": {
    "repr": "6",
    "spoken": "six",
    "value": 6
  },
  "wind_direction": {
    "repr": "200",
    "spoken": "two zero zero",
    "value": 200
  },
  "wind_gust": null,
  "wind_speed": {
    "repr": "03",
    "spoken": "three",
    "value": 3
  },
  "wind_variable_direction": [],
  "wx_codes": [
    {
      "repr": "RA",
      "value": "Rain"
    },
    {
      "repr": "BR",
      "value": "Mist"
    }
  ]
}
