{
  "meta": {
    "timestamp": "2022-09-06T00:36:35.153094Z",
    "stations_updated": "2022-07-17"
  },
  "altimeter": {
    "repr": "A3015",
    "value": 30.15,
    "spoken": "three zero point one five"
  },
  "clouds": [],
  "flight_rules": "VFR",
  "other": [],
  "visibility": {
    "repr": "10",
    "value": 10,
    "spoken": "one zero"
  },
  "wind_direction": {
    "repr": "300",
    "value": 300,
    "spoken": "three zero zero"
  },
  "wind_gust": null,
  "wind_speed": {
    "repr": "08",
    "value": 8,
    "spoken": "eight"
  },
  "wx_codes": [],
  "raw": "KAWO 052356Z AUTO 30008KT 10SM 23/07 A3015 RMK AO2 SLP214 T02280072 10233 20178 56014",
  "sanitized": "KAWO 052356Z 30008KT 10SM 23/07 A3015 RMK AO2 SLP214 T02280072 10233 20178 56014",
  "station": "KAWO",
  "time": {
    "repr": "052356Z",
    "dt": "2022-09-05T23:56:00Z"
  },
  "remarks": "RMK AO2 SLP214 T02280072 10233 20178 56014",
  "dewpoint": {
    "repr": "07",
    "value": 7,
    "spoken": "seven"
  },
  "relative_humidity": 0.3659018613840552,
  "remarks_info": {
    "maximum_temperature_6": {
      "repr": "10233",
      "value": 23.3,
      "spoken": "two three point three"
    },
    "minimum_temperature_6": {
      "repr": "20178",
      "value": 17.8,
      "spoken": "one seven point eight"
    },
    "pressure_tendency": {
      "repr": "56014",
      "tendency": "Decreasing, then steady",
      "change": 1.4
    },
    "precip_36_hours": null,
    "precip_24_hours": null,
    "sunshine_minutes": null,
    "codes": [
      {
        "repr": "AO2",
        "value": "Automated with precipitation sensor"
      }
    ],
    "dewpoint_decimal": {
      "repr": "0072",
      "value": 7.2,
      "spoken": "seven point two"
    },
    "maximum_temperature_24": null,
    "minimum_temperature_24": null,
    "precip_hourly": null,
    "sea_level_pressure": {
      "repr": "SLP214",
      "value": 1021.4,
      "spoken": "one zero two one point four"
    },
    "snow_depth": null,
    "temperature_decimal": {
      "repr": "0228",
      "value": 22.8,
      "spoken": "two two point eight"
    }
  },
  "runway_visibility": [],
  "temperature": {
    "repr": "23",
    "value": 23,
    "spoken": "two three"
  },
  "wind_variable_direction": [],
  "density_altitude": 882,
  "pressure_altitude": -88,
  "units": {
    "accumulation": "in",
    "altimeter": "inHg",
    "altitude": "ft",
    "temperature": "C",
    "visibility": "sm",
    "wind_speed": "kt"
  }
}
