{
  "meta": {
    "timestamp": "2023-07-17T02:22:28.903252Z",
    "stations_updated": "2023-06-06",
    "cache-timestamp": "2023-07-17T02:22:03.374000Z"
  },
  "altimeter": {
    "repr": "A2997",
    "value": 29.97,
    "spoken": "two nine point nine seven"
  },
  "clouds": [],
  "flight_rules": "VFR",
  "other": [],
  "visibility": {
    "repr": "10",
    "value": 10,
    "spoken": "one zero"
  },
  "wind_direction": {
    "repr": "300",
    "value": 300,
    "spoken": "three zero zero"
  },
  "wind_gust": null,
  "wind_speed": {
    "repr": "06",
    "value": 6,
    "spoken": "six"
  },
  "wx_codes": [],
  "raw": "KAWO 170156Z AUTO 30006KT 10SM CLR 24/12 A2997 RMK AO2 SLP151 T02440117",
  "sanitized": "KAWO 170156Z 30006KT 10SM 24/12 A2997 RMK AO2 SLP151 T02440117",
  "station": "KAWO",
  "time": {
    "repr": "170156Z",
    "dt": "2023-07-17T01:56:00Z"
  },
  "remarks": "RMK AO2 SLP151 T02440117",
  "dewpoint": {
    "repr": "12",
    "value": 12,
    "spoken": "one two"
  },
  "relative_humidity": 0.4496634329849402,
  "remarks_info": {
    "maximum_temperature_6": null,
    "minimum_temperature_6": null,
    "pressure_tendency": null,
    "precip_36_hours": null,
    "precip_24_hours": null,
    "sunshine_minutes": null,
    "codes": [
      {
        "repr": "AO2",
        "value": "Automated with precipitation sensor"
      }
    ],
    "dewpoint_decimal": {
      "repr": "0117",
      "value": 11.7,
      "spoken": "one one point seven"
    },
    "maximum_temperature_24": null,
    "minimum_temperature_24": null,
    "precip_hourly": null,
    "sea_level_pressure": {
      "repr": "SLP151",
      "value": 1015.1,
      "spoken": "one zero one five point one"
    },
    "snow_depth": null,
    "temperature_decimal": {
      "repr": "0244",
      "value": 24.4,
      "spoken": "two four point four"
    }
  },
  "runway_visibility": [],
  "temperature": {
    "repr": "24",
    "value": 24,
    "spoken": "two four"
  },
  "wind_variable_direction": [],
  "density_altitude": 1254,
  "pressure_altitude": 92,
  "units": {
    "accumulation": "in",
    "altimeter": "inHg",
    "altitude": "ft",
    "temperature": "C",
    "visibility": "sm",
    "wind_speed": "kt"
  }
}
