{
  "meta": {
    "timestamp": "2023-04-30T23:40:35.961028Z",
    "stations_updated": "2023-03-11",
    "cache-timestamp": "2023-04-30T23:40:04.338000Z"
  },
  "altimeter": {
    "repr": "A2990",
    "value": 29.9,
    "spoken": "two nine point nine zero"
  },
  "clouds": [
    {
      "repr": "OVC070",
      "type": "OVC",
      "altitude": 70,
      "modifier": null
    }
  ],
  "flight_rules": "VFR",
  "other": [],
  "visibility": {
    "repr": "10",
    "value": 10,
    "spoken": "one zero"
  },
  "wind_direction": {
    "repr": "190",
    "value": 190,
    "spoken": "one nine zero"
  },
  "wind_gust": null,
  "wind_speed": {
    "repr": "08",
    "value": 8,
    "spoken": "eight"
  },
  "wx_codes": [],
  "raw": "KAWO 302256Z AUTO 19008KT 10SM OVC070 17/08 A2990 RMK AO2 SLP131 T01670078",
  "sanitized": "KAWO 302256Z 19008KT 10SM OVC070 17/08 A2990 RMK AO2 SLP131 T01670078",
  "station": "KAWO",
  "time": {
    "repr": "302256Z",
    "dt": "2023-04-30T22:56:00Z"
  },
  "remarks": "RMK AO2 SLP131 T01670078",
  "dewpoint": {
    "repr": "08",
    "value": 8,
    "spoken": "eight"
  },
  "relative_humidity": 0.5567531752671459,
  "remarks_info": {
    "maximum_temperature_6": null,
    "minimum_temperature_6": null,
    "pressure_tendency": null,
    "precip_36_hours": null,
    "precip_24_hours": null,
    "sunshine_minutes": null,
    "codes": [
      {
        "repr": "AO2",
        "value": "Automated with precipitation sensor"
      }
    ],
    "dewpoint_decimal": {
      "repr": "0078",
      "value": 7.8,
      "spoken": "seven point eight"
    },
    "maximum_temperature_24": null,
    "minimum_temperature_24": null,
    "precip_hourly": null,
    "sea_level_pressure": {
      "repr": "SLP131",
      "value": 1013.1,
      "spoken": "one zero one three point one"
    },
    "snow_depth": null,
    "temperature_decimal": {
      "repr": "0167",
      "value": 16.7,
      "spoken": "one six point seven"
    }
  },
  "runway_visibility": [],
  "temperature": {
    "repr": "17",
    "value": 17,
    "spoken": "one seven"
  },
  "wind_variable_direction": [],
  "density_altitude": 400,
  "pressure_altitude": 162,
  "units": {
    "accumulation": "in",
    "altimeter": "inHg",
    "altitude": "ft",
    "temperature": "C",
    "visibility": "sm",
    "wind_speed": "kt"
  }
}
