{
  "meta": {
    "timestamp": "2022-09-27T00:41:58.360885Z",
    "stations_updated": "2022-09-05"
  },
  "altimeter": {
    "repr": "A2991",
    "value": 29.91,
    "spoken": "two nine point nine one"
  },
  "clouds": [],
  "flight_rules": "VFR",
  "other": [],
  "visibility": {
    "repr": "10",
    "value": 10,
    "spoken": "one zero"
  },
  "wind_direction": {
    "repr": "280",
    "value": 280,
    "spoken": "two eight zero"
  },
  "wind_gust": null,
  "wind_speed": {
    "repr": "08",
    "value": 8,
    "spoken": "eight"
  },
  "wx_codes": [],
  "raw": "KAWO 262356Z AUTO 28008KT 10SM CLR 27/12 A2991 RMK AO2 SLP132 T02670122 10278 20200 56012",
  "sanitized": "KAWO 262356Z 28008KT 10SM 27/12 A2991 RMK AO2 SLP132 T02670122 10278 20200 56012",
  "station": "KAWO",
  "time": {
    "repr": "262356Z",
    "dt": "2022-09-26T23:56:00Z"
  },
  "remarks": "RMK AO2 SLP132 T02670122 10278 20200 56012",
  "dewpoint": {
    "repr": "12",
    "value": 12,
    "spoken": "one two"
  },
  "relative_humidity": 0.40535203617532956,
  "remarks_info": {
    "maximum_temperature_6": {
      "repr": "10278",
      "value": 27.8,
      "spoken": "two seven point eight"
    },
    "minimum_temperature_6": {
      "repr": "20200",
      "value": 20,
      "spoken": "two zero point zero"
    },
    "pressure_tendency": {
      "repr": "56012",
      "tendency": "Decreasing, then steady",
      "change": 1.2
    },
    "precip_36_hours": null,
    "precip_24_hours": null,
    "sunshine_minutes": null,
    "codes": [
      {
        "repr": "AO2",
        "value": "Automated with precipitation sensor"
      }
    ],
    "dewpoint_decimal": {
      "repr": "0122",
      "value": 12.2,
      "spoken": "one two point two"
    },
    "maximum_temperature_24": null,
    "minimum_temperature_24": null,
    "precip_hourly": null,
    "sea_level_pressure": {
      "repr": "SLP132",
      "value": 1013.2,
      "spoken": "one zero one three point two"
    },
    "snow_depth": null,
    "temperature_decimal": {
      "repr": "0267",
      "value": 26.7,
      "spoken": "two six point seven"
    }
  },
  "runway_visibility": [],
  "temperature": {
    "repr": "27",
    "value": 27,
    "spoken": "two seven"
  },
  "wind_variable_direction": [],
  "density_altitude": 1590,
  "pressure_altitude": 152,
  "units": {
    "accumulation": "in",
    "altimeter": "inHg",
    "altitude": "ft",
    "temperature": "C",
    "visibility": "sm",
    "wind_speed": "kt"
  }
}
