{
  "altimeter": {
    "repr": "A3045",
    "spoken": "three zero point four five",
    "value": 30.45
  },
  "clouds": [
    {
      "altitude": 21,
      "modifier": null,
      "repr": "FEW021",
      "type": "FEW"
    }
  ],
  "density_altitude": -750,
  "dewpoint": {
    "repr": "07",
    "spoken": "seven",
    "value": 7
  },
  "flight_rules": "VFR",
  "meta": {
    "cache-timestamp": "2024-05-08T18:08:02.823000Z",
    "stations_updated": "2024-01-01",
    "timestamp": "2024-05-08T18:08:11.896456Z"
  },
  "other": [],
  "pressure_altitude": -388,
  "raw": "KAWO 081756Z AUTO 00000KT 10SM FEW021 12/07 A3045 RMK AO2 SLP317 T01170067 10122 20056 58005",
  "relative_humidity": 0.7139599994869216,
  "remarks": "RMK AO2 SLP317 T01170067 10122 20056 58005",
  "remarks_info": {
    "codes": [
      {
        "repr": "AO2",
        "value": "Automated with precipitation sensor"
      }
    ],
    "dewpoint_decimal": {
      "repr": "0067",
      "spoken": "six point seven",
      "value": 6.7
    },
    "maximum_temperature_24": null,
    "maximum_temperature_6": {
      "repr": "10122",
      "spoken": "one two point two",
      "value": 12.2
    },
    "minimum_temperature_24": null,
    "minimum_temperature_6": {
      "repr": "20056",
      "spoken": "five point six",
      "value": 5.6
    },
    "precip_24_hours": null,
    "precip_36_hours": null,
    "precip_hourly": null,
    "pressure_tendency": {
      "change": 0.5,
      "repr": "58005",
      "tendency": "Steady or increasing, then decreasing"
    },
    "sea_level_pressure": {
      "repr": "SLP317",
      "spoken": "one zero three one point seven",
      "value": 1031.7
    },
    "snow_depth": null,
    "sunshine_minutes": null,
    "temperature_decimal": {
      "repr": "0117",
      "spoken": "one one point seven",
      "value": 11.7
    }
  },
  "runway_visibility": [],
  "sanitized": "KAWO 081756Z 00000KT 10SM FEW021 12/07 A3045 RMK AO2 SLP317 T01170067 10122 20056 58005",
  "station": "KAWO",
  "temperature": {
    "repr": "12",
    "spoken": "one two",
    "value": 12
  },
  "time": {
    "dt": "2024-05-08T17:56:00Z",
    "repr": "081756Z"
  },
  "units": {
    "accumulation": "in",
    "altimeter": "inHg",
    "altitude": "ft",
    "temperature": "C",
    "visibility": "sm",
    "wind_speed": "kt"
  },
  "visibility": {
    "repr": "10",
    "spoken": "one zero",
    "value": 10
  },
  "wind_direction": {
    "repr": "000",
    "spoken": "zero zero zero",
    "value": 0
  },
  "wind_gust": null,
  "wind_speed": {
    "repr": "00",
    "spoken": "zero",
    "value": 0
  },
  "wind_variable_direction": [],
  "wx_codes": []
}
