{
  "altimeter": {
    "repr": "A3020",
    "spoken": "three zero point two zero",
    "value": 30.2
  },
  "clouds": [
    {
      "altitude": 50,
      "modifier": null,
      "repr": "FEW050",
      "type": "FEW"
    }
  ],
  "density_altitude": 292,
  "dewpoint": {
    "repr": "09",
    "spoken": "nine",
    "value": 9
  },
  "flight_rules": "VFR",
  "meta": {
    "stations_updated": "2024-06-12",
    "timestamp": "2024-09-27T21:27:33.860595Z"
  },
  "other": [],
  "pressure_altitude": -138,
  "raw": "KAWO 272056Z AUTO 33008KT 10SM FEW050 18/09 A3020 RMK AO2 SLP233 60000 T01830089 58004",
  "relative_humidity": 0.5422247877429126,
  "remarks": "RMK AO2 SLP233 60000 T01830089 58004",
  "remarks_info": {
    "codes": [
      {
        "repr": "AO2",
        "value": "Automated with precipitation sensor"
      }
    ],
    "dewpoint_decimal": {
      "repr": "0089",
      "spoken": "eight point nine",
      "value": 8.9
    },
    "maximum_temperature_24": null,
    "maximum_temperature_6": null,
    "minimum_temperature_24": null,
    "minimum_temperature_6": null,
    "precip_24_hours": null,
    "precip_36_hours": {
      "repr": "60000",
      "spoken": "zero",
      "value": 0
    },
    "precip_hourly": null,
    "pressure_tendency": {
      "change": 0.4,
      "repr": "58004",
      "tendency": "Steady or increasing, then decreasing"
    },
    "sea_level_pressure": {
      "repr": "SLP233",
      "spoken": "one zero two three point three",
      "value": 1023.3
    },
    "snow_depth": null,
    "sunshine_minutes": null,
    "temperature_decimal": {
      "repr": "0183",
      "spoken": "one eight point three",
      "value": 18.3
    }
  },
  "runway_visibility": [],
  "sanitized": "KAWO 272056Z 33008KT 10SM FEW050 18/09 A3020 RMK AO2 SLP233 60000 T01830089 58004",
  "station": "KAWO",
  "temperature": {
    "repr": "18",
    "spoken": "one eight",
    "value": 18
  },
  "time": {
    "dt": "2024-09-27T20:56:00Z",
    "repr": "272056Z"
  },
  "units": {
    "accumulation": "in",
    "altimeter": "inHg",
    "altitude": "ft",
    "temperature": "C",
    "visibility": "sm",
    "wind_speed": "kt"
  },
  "visibility": {
    "repr": "10",
    "spoken": "one zero",
    "value": 10
  },
  "wind_direction": {
    "repr": "330",
    "spoken": "three three zero",
    "value": 330
  },
  "wind_gust": null,
  "wind_speed": {
    "repr": "08",
    "spoken": "eight",
    "value": 8
  },
  "wind_variable_direction": [],
  "wx_codes": []
}
