{
  "altimeter": {
    "repr": "A2958",
    "spoken": "two nine point five eight",
    "value": 29.58
  },
  "clouds": [
    {
      "altitude": 28,
      "modifier": null,
      "repr": "BKN028",
      "type": "BKN"
    },
    {
      "altitude": 35,
      "modifier": null,
      "repr": "OVC035",
      "type": "OVC"
    }
  ],
  "density_altitude": -156,
  "dewpoint": {
    "repr": "08",
    "spoken": "eight",
    "value": 8
  },
  "flight_rules": "MVFR",
  "meta": {
    "stations_updated": "2024-10-29",
    "timestamp": "2024-11-13T12:13:29.362737Z"
  },
  "other": [],
  "pressure_altitude": 482,
  "raw": "KAWO 131156Z AUTO 21006KT 8SM RA BKN028 OVC035 09/08 A2958 RMK AO2 SLP023 6//// 7//// T00940083 10106 20089 55017 PNO $",
  "relative_humidity": 0.9283717155883899,
  "remarks": "RMK AO2 SLP023 6//// 7//// T00940083 10106 20089 55017 PNO $",
  "remarks_info": {
    "codes": [
      {
        "repr": "$",
        "value": "ASOS requires maintenance"
      },
      {
        "repr": "AO2",
        "value": "Automated with precipitation sensor"
      },
      {
        "repr": "PNO",
        "value": "Precipitation amount not available"
      }
    ],
    "dewpoint_decimal": {
      "repr": "0083",
      "spoken": "eight point three",
      "value": 8.3
    },
    "maximum_temperature_24": null,
    "maximum_temperature_6": {
      "repr": "10106",
      "spoken": "one zero point six",
      "value": 10.6
    },
    "minimum_temperature_24": null,
    "minimum_temperature_6": {
      "repr": "20089",
      "spoken": "eight point nine",
      "value": 8.9
    },
    "precip_24_hours": null,
    "precip_36_hours": null,
    "precip_hourly": null,
    "pressure_tendency": {
      "change": 1.7,
      "repr": "55017",
      "tendency": "Decreasing, then increasing"
    },
    "sea_level_pressure": {
      "repr": "SLP023",
      "spoken": "one zero zero two point three",
      "value": 1002.3
    },
    "snow_depth": null,
    "sunshine_minutes": null,
    "temperature_decimal": {
      "repr": "0094",
      "spoken": "nine point four",
      "value": 9.4
    }
  },
  "runway_visibility": [],
  "sanitized": "KAWO 131156Z 21006KT 8SM RA BKN028 OVC035 09/08 A2958 RMK AO2 SLP023 6//// 7//// T00940083 10106 20089 55017 PNO $",
  "station": "KAWO",
  "temperature": {
    "repr": "09",
    "spoken": "nine",
    "value": 9
  },
  "time": {
    "dt": "2024-11-13T11:56:00Z",
    "repr": "131156Z"
  },
  "units": {
    "accumulation": "in",
    "altimeter": "inHg",
    "altitude": "ft",
    "temperature": "C",
    "visibility": "sm",
    "wind_speed": "kt"
  },
  "visibility": {
    "repr": "8",
    "spoken": "eight",
    "value": 8
  },
  "wind_direction": {
    "repr": "210",
    "spoken": "two one zero",
    "value": 210
  },
  "wind_gust": null,
  "wind_speed": {
    "repr": "06",
    "spoken": "six",
    "value": 6
  },
  "wind_variable_direction": [],
  "wx_codes": [
    {
      "repr": "RA",
      "value": "Rain"
    }
  ]
}
