{
  "meta": {
    "timestamp": "2023-03-14T00:27:03.349635Z",
    "stations_updated": "2023-03-11",
    "cache-timestamp": "2023-03-14T00:26:05.661000Z"
  },
  "altimeter": {
    "repr": "A2975",
    "value": 29.75,
    "spoken": "two nine point seven five"
  },
  "clouds": [
    {
      "repr": "BKN024",
      "type": "BKN",
      "altitude": 24,
      "modifier": null
    }
  ],
  "flight_rules": "MVFR",
  "other": [],
  "visibility": {
    "repr": "5",
    "value": 5,
    "spoken": "five"
  },
  "wind_direction": {
    "repr": "100",
    "value": 100,
    "spoken": "one zero zero"
  },
  "wind_gust": null,
  "wind_speed": {
    "repr": "04",
    "value": 4,
    "spoken": "four"
  },
  "wx_codes": [
    {
      "repr": "-RA",
      "value": "Light Rain"
    },
    {
      "repr": "BR",
      "value": "Mist"
    }
  ],
  "raw": "KAWO 132356Z AUTO 10004KT 5SM -RA BR BKN024 03/02 A2975 RMK AO2 SLP079 P0010 60034 T00330022 10061 20033 50006",
  "sanitized": "KAWO 132356Z 10004KT 5SM -RA BR BKN024 03/02 A2975 RMK AO2 SLP079 P0010 60034 T00330022 10061 20033 50006",
  "station": "KAWO",
  "time": {
    "repr": "132356Z",
    "dt": "2023-03-13T23:56:00Z"
  },
  "remarks": "RMK AO2 SLP079 P0010 60034 T00330022 10061 20033 50006",
  "dewpoint": {
    "repr": "02",
    "value": 2,
    "spoken": "two"
  },
  "relative_humidity": 0.9249173515197439,
  "remarks_info": {
    "maximum_temperature_6": {
      "repr": "10061",
      "value": 6.1,
      "spoken": "six point one"
    },
    "minimum_temperature_6": {
      "repr": "20033",
      "value": 3.3,
      "spoken": "three point three"
    },
    "pressure_tendency": {
      "repr": "50006",
      "tendency": "Increasing, then decreasing",
      "change": 0.6
    },
    "precip_36_hours": {
      "repr": "60034",
      "value": 0.34,
      "spoken": "zero point three four"
    },
    "precip_24_hours": null,
    "sunshine_minutes": null,
    "codes": [
      {
        "repr": "AO2",
        "value": "Automated with precipitation sensor"
      }
    ],
    "dewpoint_decimal": {
      "repr": "0022",
      "value": 2.2,
      "spoken": "two point two"
    },
    "maximum_temperature_24": null,
    "minimum_temperature_24": null,
    "precip_hourly": {
      "repr": "P0010",
      "value": 0.1,
      "spoken": "zero point one"
    },
    "sea_level_pressure": {
      "repr": "SLP079",
      "value": 1007.9,
      "spoken": "one zero zero seven point nine"
    },
    "snow_depth": null,
    "temperature_decimal": {
      "repr": "0033",
      "value": 3.3,
      "spoken": "three point three"
    }
  },
  "runway_visibility": [],
  "temperature": {
    "repr": "03",
    "value": 3,
    "spoken": "three"
  },
  "wind_variable_direction": [],
  "density_altitude": -1058,
  "pressure_altitude": 312,
  "units": {
    "accumulation": "in",
    "altimeter": "inHg",
    "altitude": "ft",
    "temperature": "C",
    "visibility": "sm",
    "wind_speed": "kt"
  }
}
