{
  "altimeter": {
    "repr": "A3030",
    "spoken": "three zero point three zero",
    "value": 30.3
  },
  "clouds": [
    {
      "altitude": 2,
      "modifier": null,
      "repr": "OVC002",
      "type": "OVC"
    }
  ],
  "density_altitude": -2244,
  "dewpoint": {
    "repr": "M02",
    "spoken": "minus two",
    "value": -2
  },
  "flight_rules": "LIFR",
  "meta": {
    "stations_updated": "2024-10-29",
    "timestamp": "2024-12-02T07:43:26.647650Z"
  },
  "other": [],
  "pressure_altitude": -238,
  "raw": "KAWO 020717Z AUTO 00000KT 1/4SM FZFG OVC002 M02/M02 A3030 RMK AO2 FZRANO",
  "relative_humidity": 1,
  "remarks": "RMK AO2 FZRANO",
  "remarks_info": {
    "codes": [
      {
        "repr": "AO2",
        "value": "Automated with precipitation sensor"
      },
      {
        "repr": "FZRANO",
        "value": "Freezing rain information not available"
      }
    ],
    "dewpoint_decimal": null,
    "maximum_temperature_24": null,
    "maximum_temperature_6": null,
    "minimum_temperature_24": null,
    "minimum_temperature_6": null,
    "precip_24_hours": null,
    "precip_36_hours": null,
    "precip_hourly": null,
    "pressure_tendency": null,
    "sea_level_pressure": null,
    "snow_depth": null,
    "sunshine_minutes": null,
    "temperature_decimal": null
  },
  "runway_visibility": [],
  "sanitized": "KAWO 020717Z 00000KT 1/4SM FZFG OVC002 M02/M02 A3030 RMK AO2 FZRANO",
  "station": "KAWO",
  "temperature": {
    "repr": "M02",
    "spoken": "minus two",
    "value": -2
  },
  "time": {
    "dt": "2024-12-02T07:17:00Z",
    "repr": "020717Z"
  },
  "units": {
    "accumulation": "in",
    "altimeter": "inHg",
    "altitude": "ft",
    "temperature": "C",
    "visibility": "sm",
    "wind_speed": "kt"
  },
  "visibility": {
    "denominator": 4,
    "normalized": "1/4",
    "numerator": 1,
    "repr": "1/4",
    "spoken": "one quarter",
    "value": 0.25
  },
  "wind_direction": {
    "repr": "000",
    "spoken": "zero zero zero",
    "value": 0
  },
  "wind_gust": null,
  "wind_speed": {
    "repr": "00",
    "spoken": "zero",
    "value": 0
  },
  "wind_variable_direction": [],
  "wx_codes": [
    {
      "repr": "FZFG",
      "value": "Freezing Fog"
    }
  ]
}
