{
  "altimeter": {
    "repr": "A2994",
    "spoken": "two nine point nine four",
    "value": 29.94
  },
  "clouds": [],
  "density_altitude": -840,
  "dewpoint": {
    "repr": "04",
    "spoken": "four",
    "value": 4
  },
  "flight_rules": "VFR",
  "meta": {
    "cache-timestamp": "2024-03-09T06:40:05.943000Z",
    "stations_updated": "2024-01-01",
    "timestamp": "2024-03-09T06:40:38.532507Z"
  },
  "other": [],
  "pressure_altitude": 122,
  "raw": "KAWO 090556Z AUTO 08004KT 10SM CLR 07/04 A2994 RMK AO2 SLP142 T00670039 10094 20061 56011",
  "relative_humidity": 0.8231403572695032,
  "remarks": "RMK AO2 SLP142 T00670039 10094 20061 56011",
  "remarks_info": {
    "codes": [
      {
        "repr": "AO2",
        "value": "Automated with precipitation sensor"
      }
    ],
    "dewpoint_decimal": {
      "repr": "0039",
      "spoken": "three point nine",
      "value": 3.9
    },
    "maximum_temperature_24": null,
    "maximum_temperature_6": {
      "repr": "10094",
      "spoken": "nine point four",
      "value": 9.4
    },
    "minimum_temperature_24": null,
    "minimum_temperature_6": {
      "repr": "20061",
      "spoken": "six point one",
      "value": 6.1
    },
    "precip_24_hours": null,
    "precip_36_hours": null,
    "precip_hourly": null,
    "pressure_tendency": {
      "change": 1.1,
      "repr": "56011",
      "tendency": "Decreasing, then steady"
    },
    "sea_level_pressure": {
      "repr": "SLP142",
      "spoken": "one zero one four point two",
      "value": 1014.2
    },
    "snow_depth": null,
    "sunshine_minutes": null,
    "temperature_decimal": {
      "repr": "0067",
      "spoken": "six point seven",
      "value": 6.7
    }
  },
  "runway_visibility": [],
  "sanitized": "KAWO 090556Z 08004KT 10SM 07/04 A2994 RMK AO2 SLP142 T00670039 10094 20061 56011",
  "station": "KAWO",
  "temperature": {
    "repr": "07",
    "spoken": "seven",
    "value": 7
  },
  "time": {
    "dt": "2024-03-09T05:56:00Z",
    "repr": "090556Z"
  },
  "units": {
    "accumulation": "in",
    "altimeter": "inHg",
    "altitude": "ft",
    "temperature": "C",
    "visibility": "sm",
    "wind_speed": "kt"
  },
  "visibility": {
    "repr": "10",
    "spoken": "one zero",
    "value": 10
  },
  "wind_direction": {
    "repr": "080",
    "spoken": "zero eight zero",
    "value": 80
  },
  "wind_gust": null,
  "wind_speed": {
    "repr": "04",
    "spoken": "four",
    "value": 4
  },
  "wind_variable_direction": [],
  "wx_codes": []
}
