{
  "altimeter": {
    "repr": "A2998",
    "spoken": "two nine point nine eight",
    "value": 29.98
  },
  "clouds": [
    {
      "altitude": 11,
      "modifier": null,
      "repr": "OVC011",
      "type": "OVC"
    }
  ],
  "density_altitude": -124,
  "dewpoint": {
    "repr": "12",
    "spoken": "one two",
    "value": 12
  },
  "flight_rules": "MVFR",
  "meta": {
    "stations_updated": "2024-06-12",
    "timestamp": "2024-10-09T07:26:36.386091Z"
  },
  "other": [],
  "pressure_altitude": 82,
  "raw": "KAWO 090718Z AUTO 30007KT 10SM OVC011 13/12 A2998 RMK AO2",
  "relative_humidity": 0.9364553807565813,
  "remarks": "RMK AO2",
  "remarks_info": {
    "codes": [
      {
        "repr": "AO2",
        "value": "Automated with precipitation sensor"
      }
    ],
    "dewpoint_decimal": null,
    "maximum_temperature_24": null,
    "maximum_temperature_6": null,
    "minimum_temperature_24": null,
    "minimum_temperature_6": null,
    "precip_24_hours": null,
    "precip_36_hours": null,
    "precip_hourly": null,
    "pressure_tendency": null,
    "sea_level_pressure": null,
    "snow_depth": null,
    "sunshine_minutes": null,
    "temperature_decimal": null
  },
  "runway_visibility": [],
  "sanitized": "KAWO 090718Z 30007KT 10SM OVC011 13/12 A2998 RMK AO2",
  "station": "KAWO",
  "temperature": {
    "repr": "13",
    "spoken": "one three",
    "value": 13
  },
  "time": {
    "dt": "2024-10-09T07:18:00Z",
    "repr": "090718Z"
  },
  "units": {
    "accumulation": "in",
    "altimeter": "inHg",
    "altitude": "ft",
    "temperature": "C",
    "visibility": "sm",
    "wind_speed": "kt"
  },
  "visibility": {
    "repr": "10",
    "spoken": "one zero",
    "value": 10
  },
  "wind_direction": {
    "repr": "300",
    "spoken": "three zero zero",
    "value": 300
  },
  "wind_gust": null,
  "wind_speed": {
    "repr": "07",
    "spoken": "seven",
    "value": 7
  },
  "wind_variable_direction": [],
  "wx_codes": []
}
