{
  "meta": {
    "timestamp": "2023-10-23T19:01:31.377255Z",
    "stations_updated": "2023-10-01"
  },
  "altimeter": {
    "repr": "A3001",
    "value": 30.01,
    "spoken": "three zero point zero one"
  },
  "clouds": [
    {
      "repr": "BKN023",
      "type": "BKN",
      "altitude": 23,
      "modifier": null
    },
    {
      "repr": "BKN028",
      "type": "BKN",
      "altitude": 28,
      "modifier": null
    },
    {
      "repr": "OVC045",
      "type": "OVC",
      "altitude": 45,
      "modifier": null
    }
  ],
  "flight_rules": "MVFR",
  "other": [],
  "visibility": {
    "repr": "10",
    "value": 10,
    "spoken": "one zero"
  },
  "wind_direction": {
    "repr": "180",
    "value": 180,
    "spoken": "one eight zero"
  },
  "wind_gust": null,
  "wind_speed": {
    "repr": "07",
    "value": 7,
    "spoken": "seven"
  },
  "wx_codes": [
    {
      "repr": "-RA",
      "value": "Light Rain"
    }
  ],
  "raw": "KAWO 231856Z AUTO 18007KT 10SM -RA BKN023 BKN028 OVC045 11/09 A3001 RMK AO2 RAB01E18B52 SLP168 P0000 T01110094 KAWO 231756Z AUTO 19005KT 10SM OVC020 11/10 A3001 RMK AO2 RAB22E45 SLP167 P0000 60001 T01060100 10106 20089 53003 KAWO 231722Z AUTO 17009KT 10SM -RA SCT006 OVC022 11/10 A3001 RMK AO2 RAB22 P0000 KAWO 231715Z AUTO 19003KT 10SM BKN006 BKN011 OVC022 11/10 A3001 RMK AO2 CIG 005V010 KAWO 231703Z AUTO 18005KT 10SM SCT006 OVC022 11/10 A3001 RMK AO2",
  "sanitized": "KAWO 231856Z 18007KT 10SM -RA BKN023 BKN028 OVC045 11/09 A3001 RMK AO2 RAB01E18B52 SLP168 P0000 T01110094 KAWO 231756Z AUTO 19005KT 10SM OVC020 11/10 A3001 RMK AO2 RAB22E45 SLP167 P0000 60001 T01060100 10106 20089 53003 KAWO 231722Z AUTO 17009KT 10SM -RA SCT006 OVC022 11/10 A3001 RMK AO2 RAB22 P0000 KAWO 231715Z AUTO 19003KT 10SM BKN006 BKN011 OVC022 11/10 A3001 RMK AO2 CIG 005V010 KAWO 231703Z AUTO 18005KT 10SM SCT006 OVC022 11/10 A3001 RMK AO2",
  "station": "KAWO",
  "time": {
    "repr": "231856Z",
    "dt": "2023-10-23T18:56:00Z"
  },
  "remarks": "RMK AO2 RAB01E18B52 SLP168 P0000 T01110094 KAWO 231756Z AUTO 19005KT 10SM OVC020 11/10 A3001 RMK AO2 RAB22E45 SLP167 P0000 60001 T01060100 10106 20089 53003 KAWO 231722Z AUTO 17009KT 10SM -RA SCT006 OVC022 11/10 A3001 RMK AO2 RAB22 P0000 KAWO 231715Z AUTO 19003KT 10SM BKN006 BKN011 OVC022 11/10 A3001 RMK AO2 CIG 005V010 KAWO 231703Z AUTO 18005KT 10SM SCT006 OVC022 11/10 A3001 RMK AO2",
  "dewpoint": {
    "repr": "09",
    "value": 9,
    "spoken": "nine"
  },
  "relative_humidity": 0.9607146693216029,
  "remarks_info": {
    "maximum_temperature_6": {
      "repr": "10106",
      "value": 10.6,
      "spoken": "one zero point six"
    },
    "minimum_temperature_6": {
      "repr": "20089",
      "value": 8.9,
      "spoken": "eight point nine"
    },
    "pressure_tendency": {
      "repr": "53003",
      "tendency": "Decreasing or steady, then increasing",
      "change": 0.3
    },
    "precip_36_hours": {
      "repr": "60001",
      "value": 0.01,
      "spoken": "zero point zero one"
    },
    "precip_24_hours": null,
    "sunshine_minutes": null,
    "codes": [
      {
        "repr": "AO2",
        "value": "Automated with precipitation sensor"
      },
      {
        "repr": "AO2",
        "value": "Automated with precipitation sensor"
      },
      {
        "repr": "AO2",
        "value": "Automated with precipitation sensor"
      },
      {
        "repr": "AO2",
        "value": "Automated with precipitation sensor"
      },
      {
        "repr": "AO2",
        "value": "Automated with precipitation sensor"
      },
      {
        "repr": "P0000",
        "value": "Trace amount of rain in the last hour"
      },
      {
        "repr": "P0000",
        "value": "Trace amount of rain in the last hour"
      },
      {
        "repr": "P0000",
        "value": "Trace amount of rain in the last hour"
      },
      {
        "repr": "RAB22",
        "value": "Rain began at :22"
      }
    ],
    "dewpoint_decimal": {
      "repr": "0100",
      "value": 10,
      "spoken": "one zero point zero"
    },
    "maximum_temperature_24": null,
    "minimum_temperature_24": null,
    "precip_hourly": null,
    "sea_level_pressure": {
      "repr": "SLP168",
      "value": 1016.8,
      "spoken": "one zero one six point eight"
    },
    "snow_depth": null,
    "temperature_decimal": {
      "repr": "0106",
      "value": 10.6,
      "spoken": "one zero point six"
    }
  },
  "runway_visibility": [],
  "temperature": {
    "repr": "11",
    "value": 11,
    "spoken": "one one"
  },
  "wind_variable_direction": [],
  "density_altitude": -442,
  "pressure_altitude": 52,
  "units": {
    "accumulation": "in",
    "altimeter": "inHg",
    "altitude": "ft",
    "temperature": "C",
    "visibility": "sm",
    "wind_speed": "kt"
  }
}
