{
  "meta": {
    "timestamp": "2023-09-21T16:41:44.879001Z",
    "stations_updated": "2023-08-05"
  },
  "altimeter": {
    "repr": "A3014",
    "value": 30.14,
    "spoken": "three zero point one four"
  },
  "clouds": [],
  "flight_rules": "MVFR",
  "other": [],
  "visibility": {
    "repr": "5",
    "value": 5,
    "spoken": "five"
  },
  "wind_direction": {
    "repr": "000",
    "value": 0,
    "spoken": "zero zero zero"
  },
  "wind_gust": null,
  "wind_speed": {
    "repr": "00",
    "value": 0,
    "spoken": "zero"
  },
  "wx_codes": [
    {
      "repr": "BR",
      "value": "Mist"
    }
  ],
  "raw": "KAWO 211556Z AUTO 00000KT 5SM BR CLR 08/08 A3014 RMK AO2 SLP211 T00830078",
  "sanitized": "KAWO 211556Z 00000KT 5SM BR 08/08 A3014 RMK AO2 SLP211 T00830078",
  "station": "KAWO",
  "time": {
    "repr": "211556Z",
    "dt": "2023-09-21T15:56:00Z"
  },
  "remarks": "RMK AO2 SLP211 T00830078",
  "dewpoint": {
    "repr": "08",
    "value": 8,
    "spoken": "eight"
  },
  "relative_humidity": 0.9665731399975396,
  "remarks_info": {
    "maximum_temperature_6": null,
    "minimum_temperature_6": null,
    "pressure_tendency": null,
    "precip_36_hours": null,
    "precip_24_hours": null,
    "sunshine_minutes": null,
    "codes": [
      {
        "repr": "AO2",
        "value": "Automated with precipitation sensor"
      }
    ],
    "dewpoint_decimal": {
      "repr": "0078",
      "value": 7.8,
      "spoken": "seven point eight"
    },
    "maximum_temperature_24": null,
    "minimum_temperature_24": null,
    "precip_hourly": null,
    "sea_level_pressure": {
      "repr": "SLP211",
      "value": 1021.1,
      "spoken": "one zero two one point one"
    },
    "snow_depth": null,
    "temperature_decimal": {
      "repr": "0083",
      "value": 8.3,
      "spoken": "eight point three"
    }
  },
  "runway_visibility": [],
  "temperature": {
    "repr": "08",
    "value": 8,
    "spoken": "eight"
  },
  "wind_variable_direction": [],
  "density_altitude": -848,
  "pressure_altitude": -78,
  "units": {
    "accumulation": "in",
    "altimeter": "inHg",
    "altitude": "ft",
    "temperature": "C",
    "visibility": "sm",
    "wind_speed": "kt"
  }
}
