{
  "altimeter": {
    "repr": "A3004",
    "spoken": "three zero point zero four",
    "value": 30.04
  },
  "clouds": [
    {
      "altitude": 1,
      "modifier": null,
      "repr": "OVC001",
      "type": "OVC"
    }
  ],
  "density_altitude": -1672,
  "dewpoint": {
    "repr": "01",
    "spoken": "one",
    "value": 1
  },
  "flight_rules": "LIFR",
  "meta": {
    "cache-timestamp": "2024-01-07T16:40:03.720000Z",
    "stations_updated": "2023-10-28",
    "timestamp": "2024-01-07T16:40:38.559507Z"
  },
  "other": [
    "M14KT"
  ],
  "pressure_altitude": 22,
  "raw": "KAWO 071556Z AUTO 00000KT M1/4SM FG OVC001 01/01 A3004 RMK AO2 SLP179 T00060006 FZRANO",
  "relative_humidity": 1,
  "remarks": "RMK AO2 SLP179 T00060006 FZRANO",
  "remarks_info": {
    "codes": [
      {
        "repr": "AO2",
        "value": "Automated with precipitation sensor"
      },
      {
        "repr": "FZRANO",
        "value": "Freezing rain information not available"
      }
    ],
    "dewpoint_decimal": {
      "repr": "0006",
      "spoken": "zero point six",
      "value": 0.6
    },
    "maximum_temperature_24": null,
    "maximum_temperature_6": null,
    "minimum_temperature_24": null,
    "minimum_temperature_6": null,
    "precip_24_hours": null,
    "precip_36_hours": null,
    "precip_hourly": null,
    "pressure_tendency": null,
    "sea_level_pressure": {
      "repr": "SLP179",
      "spoken": "one zero one seven point nine",
      "value": 1017.9
    },
    "snow_depth": null,
    "sunshine_minutes": null,
    "temperature_decimal": {
      "repr": "0006",
      "spoken": "zero point six",
      "value": 0.6
    }
  },
  "runway_visibility": [],
  "sanitized": "KAWO 071556Z 00000KT M14KT FG OVC001 01/01 A3004 RMK AO2 SLP179 T00060006 FZRANO",
  "station": "KAWO",
  "temperature": {
    "repr": "01",
    "spoken": "one",
    "value": 1
  },
  "time": {
    "dt": "2024-01-07T15:56:00Z",
    "repr": "071556Z"
  },
  "units": {
    "accumulation": "in",
    "altimeter": "inHg",
    "altitude": "ft",
    "temperature": "C",
    "visibility": "sm",
    "wind_speed": "kt"
  },
  "visibility": null,
  "wind_direction": {
    "repr": "000",
    "spoken": "zero zero zero",
    "value": 0
  },
  "wind_gust": null,
  "wind_speed": {
    "repr": "00",
    "spoken": "zero",
    "value": 0
  },
  "wind_variable_direction": [],
  "wx_codes": [
    {
      "repr": "FG",
      "value": "Fog"
    }
  ]
}
