{
  "altimeter": {
    "repr": "A3005",
    "spoken": "three zero point zero five",
    "value": 30.05
  },
  "clouds": [
    {
      "altitude": 21,
      "modifier": null,
      "repr": "FEW021",
      "type": "FEW"
    },
    {
      "altitude": 29,
      "modifier": null,
      "repr": "SCT029",
      "type": "SCT"
    },
    {
      "altitude": 75,
      "modifier": null,
      "repr": "OVC075",
      "type": "OVC"
    }
  ],
  "density_altitude": -1154,
  "dewpoint": {
    "repr": "04",
    "spoken": "four",
    "value": 4
  },
  "flight_rules": "VFR",
  "meta": {
    "stations_updated": "2024-10-29",
    "timestamp": "2024-11-15T09:41:55.654953Z"
  },
  "other": [],
  "pressure_altitude": 12,
  "raw": "KAWO 150918Z AUTO 11003KT 10SM FEW021 SCT029 OVC075 05/04 A3005 RMK AO2",
  "relative_humidity": 0.9324335019213874,
  "remarks": "RMK AO2",
  "remarks_info": {
    "codes": [
      {
        "repr": "AO2",
        "value": "Automated with precipitation sensor"
      }
    ],
    "dewpoint_decimal": null,
    "maximum_temperature_24": null,
    "maximum_temperature_6": null,
    "minimum_temperature_24": null,
    "minimum_temperature_6": null,
    "precip_24_hours": null,
    "precip_36_hours": null,
    "precip_hourly": null,
    "pressure_tendency": null,
    "sea_level_pressure": null,
    "snow_depth": null,
    "sunshine_minutes": null,
    "temperature_decimal": null
  },
  "runway_visibility": [],
  "sanitized": "KAWO 150918Z 11003KT 10SM FEW021 SCT029 OVC075 05/04 A3005 RMK AO2",
  "station": "KAWO",
  "temperature": {
    "repr": "05",
    "spoken": "five",
    "value": 5
  },
  "time": {
    "dt": "2024-11-15T09:18:00Z",
    "repr": "150918Z"
  },
  "units": {
    "accumulation": "in",
    "altimeter": "inHg",
    "altitude": "ft",
    "temperature": "C",
    "visibility": "sm",
    "wind_speed": "kt"
  },
  "visibility": {
    "repr": "10",
    "spoken": "one zero",
    "value": 10
  },
  "wind_direction": {
    "repr": "110",
    "spoken": "one one zero",
    "value": 110
  },
  "wind_gust": null,
  "wind_speed": {
    "repr": "03",
    "spoken": "three",
    "value": 3
  },
  "wind_variable_direction": [],
  "wx_codes": []
}
