{
  "altimeter": {
    "repr": "A3029",
    "spoken": "three zero point two nine",
    "value": 30.29
  },
  "clouds": [],
  "density_altitude": -2666,
  "dewpoint": {
    "repr": "M07",
    "spoken": "minus seven",
    "value": -7
  },
  "flight_rules": "VFR",
  "meta": {
    "stations_updated": "2024-12-02",
    "timestamp": "2025-01-28T12:13:06.933649Z"
  },
  "other": [],
  "pressure_altitude": -228,
  "raw": "KAWO 281156Z AUTO 00000KT 10SM CLR M06/M07 A3029 RMK AO2 SLP265 T10561067 11033 21061 58012 FZRANO",
  "relative_humidity": 0.9194183134153208,
  "remarks": "RMK AO2 SLP265 T10561067 11033 21061 58012 FZRANO",
  "remarks_info": {
    "codes": [
      {
        "repr": "AO2",
        "value": "Automated with precipitation sensor"
      },
      {
        "repr": "FZRANO",
        "value": "Freezing rain information not available"
      }
    ],
    "dewpoint_decimal": {
      "repr": "1067",
      "spoken": "minus six point seven",
      "value": -6.7
    },
    "maximum_temperature_24": null,
    "maximum_temperature_6": {
      "repr": "11033",
      "spoken": "minus three point three",
      "value": -3.3
    },
    "minimum_temperature_24": null,
    "minimum_temperature_6": {
      "repr": "21061",
      "spoken": "minus six point one",
      "value": -6.1
    },
    "precip_24_hours": null,
    "precip_36_hours": null,
    "precip_hourly": null,
    "pressure_tendency": {
      "change": 1.2,
      "repr": "58012",
      "tendency": "Steady or increasing, then decreasing"
    },
    "sea_level_pressure": {
      "repr": "SLP265",
      "spoken": "one zero two six point five",
      "value": 1026.5
    },
    "snow_depth": null,
    "sunshine_minutes": null,
    "temperature_decimal": {
      "repr": "1056",
      "spoken": "minus five point six",
      "value": -5.6
    }
  },
  "runway_visibility": [],
  "sanitized": "KAWO 281156Z 00000KT 10SM M06/M07 A3029 RMK AO2 SLP265 T10561067 11033 21061 58012 FZRANO",
  "station": "KAWO",
  "temperature": {
    "repr": "M06",
    "spoken": "minus six",
    "value": -6
  },
  "time": {
    "dt": "2025-01-28T11:56:00Z",
    "repr": "281156Z"
  },
  "units": {
    "accumulation": "in",
    "altimeter": "inHg",
    "altitude": "ft",
    "temperature": "C",
    "visibility": "sm",
    "wind_speed": "kt"
  },
  "visibility": {
    "repr": "10",
    "spoken": "one zero",
    "value": 10
  },
  "wind_direction": {
    "repr": "000",
    "spoken": "zero zero zero",
    "value": 0
  },
  "wind_gust": null,
  "wind_speed": {
    "repr": "00",
    "spoken": "zero",
    "value": 0
  },
  "wind_variable_direction": [],
  "wx_codes": []
}
