{
  "meta": {
    "timestamp": "2023-04-08T19:40:33.519059Z",
    "stations_updated": "2023-03-11",
    "cache-timestamp": "2023-04-08T19:40:06.252000Z"
  },
  "altimeter": {
    "repr": "A3001",
    "value": 30.01,
    "spoken": "three zero point zero one"
  },
  "clouds": [],
  "flight_rules": "VFR",
  "other": [],
  "visibility": {
    "repr": "10",
    "value": 10,
    "spoken": "one zero"
  },
  "wind_direction": {
    "repr": "160",
    "value": 160,
    "spoken": "one six zero"
  },
  "wind_gust": {
    "repr": "23",
    "value": 23,
    "spoken": "two three"
  },
  "wind_speed": {
    "repr": "16",
    "value": 16,
    "spoken": "one six"
  },
  "wx_codes": [
    {
      "repr": "-RA",
      "value": "Light Rain"
    }
  ],
  "raw": "KAWO 081856Z AUTO 16016G23KT 10SM -RA CLR 09/03 A3001 RMK AO2 RAB51 SLP165 P0000 T00940033",
  "sanitized": "KAWO 081856Z 16016G23KT 10SM -RA 09/03 A3001 RMK AO2 RAB51 SLP165 P0000 T00940033",
  "station": "KAWO",
  "time": {
    "repr": "081856Z",
    "dt": "2023-04-08T18:56:00Z"
  },
  "remarks": "RMK AO2 RAB51 SLP165 P0000 T00940033",
  "dewpoint": {
    "repr": "03",
    "value": 3,
    "spoken": "three"
  },
  "relative_humidity": 0.656714966980896,
  "remarks_info": {
    "maximum_temperature_6": null,
    "minimum_temperature_6": null,
    "pressure_tendency": null,
    "precip_36_hours": null,
    "precip_24_hours": null,
    "sunshine_minutes": null,
    "codes": [
      {
        "repr": "AO2",
        "value": "Automated with precipitation sensor"
      },
      {
        "repr": "P0000",
        "value": "Trace amount of rain in the last hour"
      },
      {
        "repr": "RAB51",
        "value": "Rain began at :51"
      }
    ],
    "dewpoint_decimal": {
      "repr": "0033",
      "value": 3.3,
      "spoken": "three point three"
    },
    "maximum_temperature_24": null,
    "minimum_temperature_24": null,
    "precip_hourly": null,
    "sea_level_pressure": {
      "repr": "SLP165",
      "value": 1016.5,
      "spoken": "one zero one six point five"
    },
    "snow_depth": null,
    "temperature_decimal": {
      "repr": "0094",
      "value": 9.4,
      "spoken": "nine point four"
    }
  },
  "runway_visibility": [],
  "temperature": {
    "repr": "09",
    "value": 9,
    "spoken": "nine"
  },
  "wind_variable_direction": [],
  "density_altitude": -586,
  "pressure_altitude": 52,
  "units": {
    "accumulation": "in",
    "altimeter": "inHg",
    "altitude": "ft",
    "temperature": "C",
    "visibility": "sm",
    "wind_speed": "kt"
  }
}
