{
  "meta": {
    "timestamp": "2022-12-08T00:26:12.014577Z",
    "stations_updated": "2022-09-05"
  },
  "altimeter": {
    "repr": "A3006",
    "value": 30.06,
    "spoken": "three zero point zero six"
  },
  "clouds": [
    {
      "repr": "OVC049",
      "type": "OVC",
      "altitude": 49,
      "modifier": null
    }
  ],
  "flight_rules": "VFR",
  "other": [],
  "visibility": {
    "repr": "10",
    "value": 10,
    "spoken": "one zero"
  },
  "wind_direction": {
    "repr": "130",
    "value": 130,
    "spoken": "one three zero"
  },
  "wind_gust": null,
  "wind_speed": {
    "repr": "09",
    "value": 9,
    "spoken": "nine"
  },
  "wx_codes": [],
  "raw": "KAWO 072356Z AUTO 13009KT 10SM OVC049 06/02 A3006 RMK AO2 SLP186 60000 T00610022 10072 20044 57004",
  "sanitized": "KAWO 072356Z 13009KT 10SM OVC049 06/02 A3006 RMK AO2 SLP186 60000 T00610022 10072 20044 57004",
  "station": "KAWO",
  "time": {
    "repr": "072356Z",
    "dt": "2022-12-07T23:56:00Z"
  },
  "remarks": "RMK AO2 SLP186 60000 T00610022 10072 20044 57004",
  "dewpoint": {
    "repr": "02",
    "value": 2,
    "spoken": "two"
  },
  "relative_humidity": 0.76061983624849,
  "remarks_info": {
    "maximum_temperature_6": {
      "repr": "10072",
      "value": 7.2,
      "spoken": "seven point two"
    },
    "minimum_temperature_6": {
      "repr": "20044",
      "value": 4.4,
      "spoken": "four point four"
    },
    "pressure_tendency": {
      "repr": "57004",
      "tendency": "Decreasing steadily or unsteadily",
      "change": 0.4
    },
    "precip_36_hours": {
      "repr": "60000",
      "value": 0,
      "spoken": "zero"
    },
    "precip_24_hours": null,
    "sunshine_minutes": null,
    "codes": [
      {
        "repr": "AO2",
        "value": "Automated with precipitation sensor"
      }
    ],
    "dewpoint_decimal": {
      "repr": "0022",
      "value": 2.2,
      "spoken": "two point two"
    },
    "maximum_temperature_24": null,
    "minimum_temperature_24": null,
    "precip_hourly": null,
    "sea_level_pressure": {
      "repr": "SLP186",
      "value": 1018.6,
      "spoken": "one zero one eight point six"
    },
    "snow_depth": null,
    "temperature_decimal": {
      "repr": "0061",
      "value": 6.1,
      "spoken": "six point one"
    }
  },
  "runway_visibility": [],
  "temperature": {
    "repr": "06",
    "value": 6,
    "spoken": "six"
  },
  "wind_variable_direction": [],
  "density_altitude": -1032,
  "pressure_altitude": 2,
  "units": {
    "accumulation": "in",
    "altimeter": "inHg",
    "altitude": "ft",
    "temperature": "C",
    "visibility": "sm",
    "wind_speed": "kt"
  }
}
