{
  "meta": {
    "timestamp": "2023-09-07T22:25:37.805360Z",
    "stations_updated": "2023-08-05"
  },
  "altimeter": {
    "repr": "A3003",
    "value": 30.03,
    "spoken": "three zero point zero three"
  },
  "clouds": [
    {
      "repr": "FEW030",
      "type": "FEW",
      "altitude": 30,
      "modifier": null
    }
  ],
  "flight_rules": "VFR",
  "other": [],
  "visibility": {
    "repr": "10",
    "value": 10,
    "spoken": "one zero"
  },
  "wind_direction": {
    "repr": "320",
    "value": 320,
    "spoken": "three two zero"
  },
  "wind_gust": null,
  "wind_speed": {
    "repr": "08",
    "value": 8,
    "spoken": "eight"
  },
  "wx_codes": [],
  "raw": "KAWO 072156Z AUTO 32008KT 10SM FEW030 22/13 A3003 RMK AO2 SLP173 T02170133",
  "sanitized": "KAWO 072156Z 32008KT 10SM FEW030 22/13 A3003 RMK AO2 SLP173 T02170133",
  "station": "KAWO",
  "time": {
    "repr": "072156Z",
    "dt": "2023-09-07T21:56:00Z"
  },
  "remarks": "RMK AO2 SLP173 T02170133",
  "dewpoint": {
    "repr": "13",
    "value": 13,
    "spoken": "one three"
  },
  "relative_humidity": 0.5881951213315173,
  "remarks_info": {
    "maximum_temperature_6": null,
    "minimum_temperature_6": null,
    "pressure_tendency": null,
    "precip_36_hours": null,
    "precip_24_hours": null,
    "sunshine_minutes": null,
    "codes": [
      {
        "repr": "AO2",
        "value": "Automated with precipitation sensor"
      }
    ],
    "dewpoint_decimal": {
      "repr": "0133",
      "value": 13.3,
      "spoken": "one three point three"
    },
    "maximum_temperature_24": null,
    "minimum_temperature_24": null,
    "precip_hourly": null,
    "sea_level_pressure": {
      "repr": "SLP173",
      "value": 1017.3,
      "spoken": "one zero one seven point three"
    },
    "snow_depth": null,
    "temperature_decimal": {
      "repr": "0217",
      "value": 21.7,
      "spoken": "two one point seven"
    }
  },
  "runway_visibility": [],
  "temperature": {
    "repr": "22",
    "value": 22,
    "spoken": "two two"
  },
  "wind_variable_direction": [],
  "density_altitude": 870,
  "pressure_altitude": 32,
  "units": {
    "accumulation": "in",
    "altimeter": "inHg",
    "altitude": "ft",
    "temperature": "C",
    "visibility": "sm",
    "wind_speed": "kt"
  }
}
