{
  "altimeter": {
    "repr": "A2975",
    "spoken": "two nine point seven five",
    "value": 29.75
  },
  "clouds": [
    {
      "altitude": 55,
      "modifier": null,
      "repr": "BKN055",
      "type": "BKN"
    },
    {
      "altitude": 70,
      "modifier": null,
      "repr": "OVC070",
      "type": "OVC"
    }
  ],
  "density_altitude": -122,
  "dewpoint": {
    "repr": "09",
    "spoken": "nine",
    "value": 9
  },
  "flight_rules": "VFR",
  "meta": {
    "cache-timestamp": "2023-12-20T05:22:04.781000Z",
    "stations_updated": "2023-10-28",
    "timestamp": "2023-12-20T05:22:17.871813Z"
  },
  "other": [],
  "pressure_altitude": 312,
  "raw": "KAWO 200456Z AUTO 20003KT 10SM BKN055 OVC070 11/09 A2975 RMK AO2 SLP080 T01110089",
  "relative_humidity": 0.8630327743847583,
  "remarks": "RMK AO2 SLP080 T01110089",
  "remarks_info": {
    "codes": [
      {
        "repr": "AO2",
        "value": "Automated with precipitation sensor"
      }
    ],
    "dewpoint_decimal": {
      "repr": "0089",
      "spoken": "eight point nine",
      "value": 8.9
    },
    "maximum_temperature_24": null,
    "maximum_temperature_6": null,
    "minimum_temperature_24": null,
    "minimum_temperature_6": null,
    "precip_24_hours": null,
    "precip_36_hours": null,
    "precip_hourly": null,
    "pressure_tendency": null,
    "sea_level_pressure": {
      "repr": "SLP080",
      "spoken": "one zero zero eight point zero",
      "value": 1008
    },
    "snow_depth": null,
    "sunshine_minutes": null,
    "temperature_decimal": {
      "repr": "0111",
      "spoken": "one one point one",
      "value": 11.1
    }
  },
  "runway_visibility": [],
  "sanitized": "KAWO 200456Z 20003KT 10SM BKN055 OVC070 11/09 A2975 RMK AO2 SLP080 T01110089",
  "station": "KAWO",
  "temperature": {
    "repr": "11",
    "spoken": "one one",
    "value": 11
  },
  "time": {
    "dt": "2023-12-20T04:56:00Z",
    "repr": "200456Z"
  },
  "units": {
    "accumulation": "in",
    "altimeter": "inHg",
    "altitude": "ft",
    "temperature": "C",
    "visibility": "sm",
    "wind_speed": "kt"
  },
  "visibility": {
    "repr": "10",
    "spoken": "one zero",
    "value": 10
  },
  "wind_direction": {
    "repr": "200",
    "spoken": "two zero zero",
    "value": 200
  },
  "wind_gust": null,
  "wind_speed": {
    "repr": "03",
    "spoken": "three",
    "value": 3
  },
  "wind_variable_direction": [],
  "wx_codes": []
}
