{
  "altimeter": {
    "repr": "A2991",
    "spoken": "two nine point nine one",
    "value": 29.91
  },
  "clouds": [
    {
      "altitude": 9,
      "modifier": null,
      "repr": "OVC009",
      "type": "OVC"
    }
  ],
  "density_altitude": 450,
  "dewpoint": {
    "repr": "16",
    "spoken": "one six",
    "value": 16
  },
  "flight_rules": "IFR",
  "meta": {
    "stations_updated": "2024-06-12",
    "timestamp": "2024-08-18T12:11:40.001278Z"
  },
  "other": [],
  "pressure_altitude": 152,
  "raw": "KAWO 181156Z AUTO 14003KT 10SM OVC009 17/16 A2991 RMK AO2 RAE56 SLP134 P0004 60023 7//// T01720161 10183 20172 50007",
  "relative_humidity": 0.9324562440623153,
  "remarks": "RMK AO2 RAE56 SLP134 P0004 60023 7//// T01720161 10183 20172 50007",
  "remarks_info": {
    "codes": [
      {
        "repr": "AO2",
        "value": "Automated with precipitation sensor"
      },
      {
        "repr": "RAE56",
        "value": "Rain ended at :56"
      }
    ],
    "dewpoint_decimal": {
      "repr": "0161",
      "spoken": "one six point one",
      "value": 16.1
    },
    "maximum_temperature_24": null,
    "maximum_temperature_6": {
      "repr": "10183",
      "spoken": "one eight point three",
      "value": 18.3
    },
    "minimum_temperature_24": null,
    "minimum_temperature_6": {
      "repr": "20172",
      "spoken": "one seven point two",
      "value": 17.2
    },
    "precip_24_hours": null,
    "precip_36_hours": {
      "repr": "60023",
      "spoken": "zero point two three",
      "value": 0.23
    },
    "precip_hourly": {
      "repr": "P0004",
      "spoken": "zero point zero four",
      "value": 0.04
    },
    "pressure_tendency": {
      "change": 0.7,
      "repr": "50007",
      "tendency": "Increasing, then decreasing"
    },
    "sea_level_pressure": {
      "repr": "SLP134",
      "spoken": "one zero one three point four",
      "value": 1013.4
    },
    "snow_depth": null,
    "sunshine_minutes": null,
    "temperature_decimal": {
      "repr": "0172",
      "spoken": "one seven point two",
      "value": 17.2
    }
  },
  "runway_visibility": [],
  "sanitized": "KAWO 181156Z 14003KT 10SM OVC009 17/16 A2991 RMK AO2 RAE56 SLP134 P0004 60023 7//// T01720161 10183 20172 50007",
  "station": "KAWO",
  "temperature": {
    "repr": "17",
    "spoken": "one seven",
    "value": 17
  },
  "time": {
    "dt": "2024-08-18T11:56:00Z",
    "repr": "181156Z"
  },
  "units": {
    "accumulation": "in",
    "altimeter": "inHg",
    "altitude": "ft",
    "temperature": "C",
    "visibility": "sm",
    "wind_speed": "kt"
  },
  "visibility": {
    "repr": "10",
    "spoken": "one zero",
    "value": 10
  },
  "wind_direction": {
    "repr": "140",
    "spoken": "one four zero",
    "value": 140
  },
  "wind_gust": null,
  "wind_speed": {
    "repr": "03",
    "spoken": "three",
    "value": 3
  },
  "wind_variable_direction": [],
  "wx_codes": []
}
