{
  "altimeter": {
    "repr": "A2988",
    "spoken": "two nine point eight eight",
    "value": 29.88
  },
  "clouds": [
    {
      "altitude": 60,
      "modifier": null,
      "repr": "FEW060",
      "type": "FEW"
    },
    {
      "altitude": 90,
      "modifier": null,
      "repr": "OVC090",
      "type": "OVC"
    }
  ],
  "density_altitude": 552,
  "dewpoint": {
    "repr": "08",
    "spoken": "eight",
    "value": 8
  },
  "flight_rules": "VFR",
  "meta": {
    "stations_updated": "2024-06-12",
    "timestamp": "2024-10-08T12:49:37.611769Z"
  },
  "other": [],
  "pressure_altitude": 182,
  "raw": "KAWO 081156Z AUTO 17010KT 10SM FEW060 OVC090 18/08 A2988 RMK AO2 SLP122 T01780078 10183 20133 53003",
  "relative_humidity": 0.5193148923668265,
  "remarks": "RMK AO2 SLP122 T01780078 10183 20133 53003",
  "remarks_info": {
    "codes": [
      {
        "repr": "AO2",
        "value": "Automated with precipitation sensor"
      }
    ],
    "dewpoint_decimal": {
      "repr": "0078",
      "spoken": "seven point eight",
      "value": 7.8
    },
    "maximum_temperature_24": null,
    "maximum_temperature_6": {
      "repr": "10183",
      "spoken": "one eight point three",
      "value": 18.3
    },
    "minimum_temperature_24": null,
    "minimum_temperature_6": {
      "repr": "20133",
      "spoken": "one three point three",
      "value": 13.3
    },
    "precip_24_hours": null,
    "precip_36_hours": null,
    "precip_hourly": null,
    "pressure_tendency": {
      "change": 0.3,
      "repr": "53003",
      "tendency": "Decreasing or steady, then increasing"
    },
    "sea_level_pressure": {
      "repr": "SLP122",
      "spoken": "one zero one two point two",
      "value": 1012.2
    },
    "snow_depth": null,
    "sunshine_minutes": null,
    "temperature_decimal": {
      "repr": "0178",
      "spoken": "one seven point eight",
      "value": 17.8
    }
  },
  "runway_visibility": [],
  "sanitized": "KAWO 081156Z 17010KT 10SM FEW060 OVC090 18/08 A2988 RMK AO2 SLP122 T01780078 10183 20133 53003",
  "station": "KAWO",
  "temperature": {
    "repr": "18",
    "spoken": "one eight",
    "value": 18
  },
  "time": {
    "dt": "2024-10-08T11:56:00Z",
    "repr": "081156Z"
  },
  "units": {
    "accumulation": "in",
    "altimeter": "inHg",
    "altitude": "ft",
    "temperature": "C",
    "visibility": "sm",
    "wind_speed": "kt"
  },
  "visibility": {
    "repr": "10",
    "spoken": "one zero",
    "value": 10
  },
  "wind_direction": {
    "repr": "170",
    "spoken": "one seven zero",
    "value": 170
  },
  "wind_gust": null,
  "wind_speed": {
    "repr": "10",
    "spoken": "one zero",
    "value": 10
  },
  "wind_variable_direction": [],
  "wx_codes": []
}
