{
  "meta": {
    "timestamp": "2023-10-28T06:40:36.653699Z",
    "stations_updated": "2023-10-01",
    "cache-timestamp": "2023-10-28T06:40:02.649000Z"
  },
  "altimeter": {
    "repr": "A3049",
    "value": 30.49,
    "spoken": "three zero point four nine"
  },
  "clouds": [],
  "flight_rules": "VFR",
  "other": [],
  "visibility": {
    "repr": "10",
    "value": 10,
    "spoken": "one zero"
  },
  "wind_direction": {
    "repr": "000",
    "value": 0,
    "spoken": "zero zero zero"
  },
  "wind_gust": null,
  "wind_speed": {
    "repr": "00",
    "value": 0,
    "spoken": "zero"
  },
  "wx_codes": [],
  "raw": "KAWO 280556Z AUTO 00000KT 10SM CLR M01/M03 A3049 RMK AO2 SLP331 T10111028 10089 21017 51016 FZRANO",
  "sanitized": "KAWO 280556Z 00000KT 10SM M01/M03 A3049 RMK AO2 SLP331 T10111028 10089 21017 51016 FZRANO",
  "station": "KAWO",
  "time": {
    "repr": "280556Z",
    "dt": "2023-10-28T05:56:00Z"
  },
  "remarks": "RMK AO2 SLP331 T10111028 10089 21017 51016 FZRANO",
  "dewpoint": {
    "repr": "M03",
    "value": -3,
    "spoken": "minus three"
  },
  "relative_humidity": 0.8821749962501599,
  "remarks_info": {
    "maximum_temperature_6": {
      "repr": "10089",
      "value": 8.9,
      "spoken": "eight point nine"
    },
    "minimum_temperature_6": {
      "repr": "21017",
      "value": -1.7,
      "spoken": "minus one point seven"
    },
    "pressure_tendency": {
      "repr": "51016",
      "tendency": "Increasing, then steady",
      "change": 1.6
    },
    "precip_36_hours": null,
    "precip_24_hours": null,
    "sunshine_minutes": null,
    "codes": [
      {
        "repr": "AO2",
        "value": "Automated with precipitation sensor"
      },
      {
        "repr": "FZRANO",
        "value": "Freezing rain information not available"
      }
    ],
    "dewpoint_decimal": {
      "repr": "1028",
      "value": -2.8,
      "spoken": "minus two point eight"
    },
    "maximum_temperature_24": null,
    "minimum_temperature_24": null,
    "precip_hourly": null,
    "sea_level_pressure": {
      "repr": "SLP331",
      "value": 1033.1,
      "spoken": "one zero three three point one"
    },
    "snow_depth": null,
    "temperature_decimal": {
      "repr": "1011",
      "value": -1.1,
      "spoken": "minus one point one"
    }
  },
  "runway_visibility": [],
  "temperature": {
    "repr": "M01",
    "value": -1,
    "spoken": "minus one"
  },
  "wind_variable_direction": [],
  "density_altitude": -2326,
  "pressure_altitude": -428,
  "units": {
    "accumulation": "in",
    "altimeter": "inHg",
    "altitude": "ft",
    "temperature": "C",
    "visibility": "sm",
    "wind_speed": "kt"
  }
}
