{
  "meta": {
    "timestamp": "2023-07-26T06:40:51.647823Z",
    "stations_updated": "2023-06-06",
    "cache-timestamp": "2023-07-26T06:40:03.387000Z"
  },
  "altimeter": {
    "repr": "A3020",
    "value": 30.2,
    "spoken": "three zero point two zero"
  },
  "clouds": [
    {
      "repr": "SCT002",
      "type": "SCT",
      "altitude": 2,
      "modifier": null
    },
    {
      "repr": "OVC055",
      "type": "OVC",
      "altitude": 55,
      "modifier": null
    }
  ],
  "flight_rules": "VFR",
  "other": [],
  "visibility": {
    "repr": "10",
    "value": 10,
    "spoken": "one zero"
  },
  "wind_direction": {
    "repr": "340",
    "value": 340,
    "spoken": "three four zero"
  },
  "wind_gust": null,
  "wind_speed": {
    "repr": "05",
    "value": 5,
    "spoken": "five"
  },
  "wx_codes": [],
  "raw": "KAWO 260556Z AUTO 34005KT 10SM SCT002 OVC055 16/11 A3020 RMK AO2 RAE0458 SLP230 P0000 60000 T01560111 10211 20156 58001",
  "sanitized": "KAWO 260556Z 34005KT 10SM SCT002 OVC055 16/11 A3020 RMK AO2 RAE0458 SLP230 P0000 60000 T01560111 10211 20156 58001",
  "station": "KAWO",
  "time": {
    "repr": "260556Z",
    "dt": "2023-07-26T05:56:00Z"
  },
  "remarks": "RMK AO2 RAE0458 SLP230 P0000 60000 T01560111 10211 20156 58001",
  "dewpoint": {
    "repr": "11",
    "value": 11,
    "spoken": "one one"
  },
  "relative_humidity": 0.7456421120476547,
  "remarks_info": {
    "maximum_temperature_6": {
      "repr": "10211",
      "value": 21.1,
      "spoken": "two one point one"
    },
    "minimum_temperature_6": {
      "repr": "20156",
      "value": 15.6,
      "spoken": "one five point six"
    },
    "pressure_tendency": {
      "repr": "58001",
      "tendency": "Steady or increasing, then decreasing",
      "change": 0.1
    },
    "precip_36_hours": {
      "repr": "60000",
      "value": 0,
      "spoken": "zero"
    },
    "precip_24_hours": null,
    "sunshine_minutes": null,
    "codes": [
      {
        "repr": "AO2",
        "value": "Automated with precipitation sensor"
      },
      {
        "repr": "P0000",
        "value": "Trace amount of rain in the last hour"
      }
    ],
    "dewpoint_decimal": {
      "repr": "0111",
      "value": 11.1,
      "spoken": "one one point one"
    },
    "maximum_temperature_24": null,
    "minimum_temperature_24": null,
    "precip_hourly": null,
    "sea_level_pressure": {
      "repr": "SLP230",
      "value": 1023,
      "spoken": "one zero two three point zero"
    },
    "snow_depth": null,
    "temperature_decimal": {
      "repr": "0156",
      "value": 15.6,
      "spoken": "one five point six"
    }
  },
  "runway_visibility": [],
  "temperature": {
    "repr": "16",
    "value": 16,
    "spoken": "one six"
  },
  "wind_variable_direction": [],
  "density_altitude": -32,
  "pressure_altitude": -138,
  "units": {
    "accumulation": "in",
    "altimeter": "inHg",
    "altitude": "ft",
    "temperature": "C",
    "visibility": "sm",
    "wind_speed": "kt"
  }
}
