{
  "altimeter": {
    "repr": "A2946",
    "spoken": "two nine point four six",
    "value": 29.46
  },
  "clouds": [
    {
      "altitude": 60,
      "modifier": null,
      "repr": "OVC060",
      "type": "OVC"
    }
  ],
  "density_altitude": -636,
  "dewpoint": {
    "repr": "04",
    "spoken": "four",
    "value": 4
  },
  "flight_rules": "LIFR",
  "meta": {
    "stations_updated": "2023-10-28",
    "timestamp": "2024-01-22T11:21:58.734453Z"
  },
  "other": [],
  "pressure_altitude": 602,
  "raw": "KAWO 221056Z AUTO 00000KT 3/4SM -RA BR OVC060 04/04 A2946 RMK AO2 SLP980 P0000 T00440044",
  "relative_humidity": 1,
  "remarks": "RMK AO2 SLP980 P0000 T00440044",
  "remarks_info": {
    "codes": [
      {
        "repr": "AO2",
        "value": "Automated with precipitation sensor"
      },
      {
        "repr": "P0000",
        "value": "Trace amount of rain in the last hour"
      }
    ],
    "dewpoint_decimal": {
      "repr": "0044",
      "spoken": "four point four",
      "value": 4.4
    },
    "maximum_temperature_24": null,
    "maximum_temperature_6": null,
    "minimum_temperature_24": null,
    "minimum_temperature_6": null,
    "precip_24_hours": null,
    "precip_36_hours": null,
    "precip_hourly": null,
    "pressure_tendency": null,
    "sea_level_pressure": {
      "repr": "SLP980",
      "spoken": "nine nine eight point zero",
      "value": 998
    },
    "snow_depth": null,
    "sunshine_minutes": null,
    "temperature_decimal": {
      "repr": "0044",
      "spoken": "four point four",
      "value": 4.4
    }
  },
  "runway_visibility": [],
  "sanitized": "KAWO 221056Z 00000KT 3/4SM -RA BR OVC060 04/04 A2946 RMK AO2 SLP980 P0000 T00440044",
  "station": "KAWO",
  "temperature": {
    "repr": "04",
    "spoken": "four",
    "value": 4
  },
  "time": {
    "dt": "2024-01-22T10:56:00Z",
    "repr": "221056Z"
  },
  "units": {
    "accumulation": "in",
    "altimeter": "inHg",
    "altitude": "ft",
    "temperature": "C",
    "visibility": "sm",
    "wind_speed": "kt"
  },
  "visibility": {
    "denominator": 4,
    "normalized": "3/4",
    "numerator": 3,
    "repr": "3/4",
    "spoken": "three quarters",
    "value": 0.75
  },
  "wind_direction": {
    "repr": "000",
    "spoken": "zero zero zero",
    "value": 0
  },
  "wind_gust": null,
  "wind_speed": {
    "repr": "00",
    "spoken": "zero",
    "value": 0
  },
  "wind_variable_direction": [],
  "wx_codes": [
    {
      "repr": "-RA",
      "value": "Light Rain"
    },
    {
      "repr": "BR",
      "value": "Mist"
    }
  ]
}
