{
  "altimeter": {
    "repr": "A3026",
    "spoken": "three zero point two six",
    "value": 30.26
  },
  "clouds": [
    {
      "altitude": 45,
      "modifier": null,
      "repr": "SCT045",
      "type": "SCT"
    },
    {
      "altitude": 60,
      "modifier": null,
      "repr": "BKN060",
      "type": "BKN"
    }
  ],
  "density_altitude": 640,
  "dewpoint": {
    "repr": "11",
    "spoken": "one one",
    "value": 11
  },
  "flight_rules": "VFR",
  "meta": {
    "stations_updated": "2024-06-12",
    "timestamp": "2024-07-25T22:06:36.150414Z"
  },
  "other": [],
  "pressure_altitude": -198,
  "raw": "KAWO 252156Z AUTO 33008KT 310V020 10SM SCT045 BKN060 22/11 A3026 RMK AO2 SLP251 T02170106",
  "relative_humidity": 0.4922693898953868,
  "remarks": "RMK AO2 SLP251 T02170106",
  "remarks_info": {
    "codes": [
      {
        "repr": "AO2",
        "value": "Automated with precipitation sensor"
      }
    ],
    "dewpoint_decimal": {
      "repr": "0106",
      "spoken": "one zero point six",
      "value": 10.6
    },
    "maximum_temperature_24": null,
    "maximum_temperature_6": null,
    "minimum_temperature_24": null,
    "minimum_temperature_6": null,
    "precip_24_hours": null,
    "precip_36_hours": null,
    "precip_hourly": null,
    "pressure_tendency": null,
    "sea_level_pressure": {
      "repr": "SLP251",
      "spoken": "one zero two five point one",
      "value": 1025.1
    },
    "snow_depth": null,
    "sunshine_minutes": null,
    "temperature_decimal": {
      "repr": "0217",
      "spoken": "two one point seven",
      "value": 21.7
    }
  },
  "runway_visibility": [],
  "sanitized": "KAWO 252156Z 33008KT 310V020 10SM SCT045 BKN060 22/11 A3026 RMK AO2 SLP251 T02170106",
  "station": "KAWO",
  "temperature": {
    "repr": "22",
    "spoken": "two two",
    "value": 22
  },
  "time": {
    "dt": "2024-07-25T21:56:00Z",
    "repr": "252156Z"
  },
  "units": {
    "accumulation": "in",
    "altimeter": "inHg",
    "altitude": "ft",
    "temperature": "C",
    "visibility": "sm",
    "wind_speed": "kt"
  },
  "visibility": {
    "repr": "10",
    "spoken": "one zero",
    "value": 10
  },
  "wind_direction": {
    "repr": "330",
    "spoken": "three three zero",
    "value": 330
  },
  "wind_gust": null,
  "wind_speed": {
    "repr": "08",
    "spoken": "eight",
    "value": 8
  },
  "wind_variable_direction": [
    {
      "repr": "310",
      "spoken": "three one zero",
      "value": 310
    },
    {
      "repr": "020",
      "spoken": "zero two zero",
      "value": 20
    }
  ],
  "wx_codes": []
}
