{
  "meta": {
    "timestamp": "2022-12-22T16:48:48.755184Z",
    "stations_updated": "2022-09-05"
  },
  "altimeter": {
    "repr": "A3049",
    "value": 30.49,
    "spoken": "three zero point four nine"
  },
  "clouds": [],
  "flight_rules": "VFR",
  "other": [],
  "visibility": {
    "repr": "10",
    "value": 10,
    "spoken": "one zero"
  },
  "wind_direction": {
    "repr": "000",
    "value": 0,
    "spoken": "zero zero zero"
  },
  "wind_gust": null,
  "wind_speed": {
    "repr": "00",
    "value": 0,
    "spoken": "zero"
  },
  "wx_codes": [],
  "raw": "KAWO 221628Z AUTO 00000KT 10SM CLR M16/M17 A3049 RMK AO2 FZRANO",
  "sanitized": "KAWO 221628Z 00000KT 10SM M16/M17 A3049 RMK AO2 FZRANO",
  "station": "KAWO",
  "time": {
    "repr": "221628Z",
    "dt": "2022-12-22T16:28:00Z"
  },
  "remarks": "RMK AO2 FZRANO",
  "dewpoint": {
    "repr": "M17",
    "value": -17,
    "spoken": "minus one seven"
  },
  "relative_humidity": 0.9198911870887246,
  "remarks_info": {
    "maximum_temperature_6": null,
    "minimum_temperature_6": null,
    "pressure_tendency": null,
    "precip_36_hours": null,
    "precip_24_hours": null,
    "sunshine_minutes": null,
    "codes": [
      {
        "repr": "AO2",
        "value": "Automated with precipitation sensor"
      },
      {
        "repr": "FZRANO",
        "value": "Freezing rain information not available"
      }
    ],
    "dewpoint_decimal": null,
    "maximum_temperature_24": null,
    "minimum_temperature_24": null,
    "precip_hourly": null,
    "sea_level_pressure": null,
    "snow_depth": null,
    "temperature_decimal": null
  },
  "runway_visibility": [],
  "temperature": {
    "repr": "M16",
    "value": -16,
    "spoken": "minus one six"
  },
  "wind_variable_direction": [],
  "density_altitude": -4114,
  "pressure_altitude": -428,
  "units": {
    "accumulation": "in",
    "altimeter": "inHg",
    "altitude": "ft",
    "temperature": "C",
    "visibility": "sm",
    "wind_speed": "kt"
  }
}
