{
  "meta": {
    "timestamp": "2023-07-09T00:39:38.685838Z",
    "stations_updated": "2023-06-06"
  },
  "altimeter": {
    "repr": "A2992",
    "value": 29.92,
    "spoken": "two nine point nine two"
  },
  "clouds": [],
  "flight_rules": "VFR",
  "other": [],
  "visibility": {
    "repr": "10",
    "value": 10,
    "spoken": "one zero"
  },
  "wind_direction": {
    "repr": "VRB",
    "value": null,
    "spoken": "variable"
  },
  "wind_gust": null,
  "wind_speed": {
    "repr": "04",
    "value": 4,
    "spoken": "four"
  },
  "wx_codes": [],
  "raw": "KAWO 082356Z AUTO VRB04KT 10SM 22/13 A2992 RMK AO2 SLP134 T02220128 10228 20161 56014",
  "sanitized": "KAWO 082356Z VRB04KT 10SM 22/13 A2992 RMK AO2 SLP134 T02220128 10228 20161 56014",
  "station": "KAWO",
  "time": {
    "repr": "082356Z",
    "dt": "2023-07-08T23:56:00Z"
  },
  "remarks": "RMK AO2 SLP134 T02220128 10228 20161 56014",
  "dewpoint": {
    "repr": "13",
    "value": 13,
    "spoken": "one three"
  },
  "relative_humidity": 0.552162156032833,
  "remarks_info": {
    "maximum_temperature_6": {
      "repr": "10228",
      "value": 22.8,
      "spoken": "two two point eight"
    },
    "minimum_temperature_6": {
      "repr": "20161",
      "value": 16.1,
      "spoken": "one six point one"
    },
    "pressure_tendency": {
      "repr": "56014",
      "tendency": "Decreasing, then steady",
      "change": 1.4
    },
    "precip_36_hours": null,
    "precip_24_hours": null,
    "sunshine_minutes": null,
    "codes": [
      {
        "repr": "AO2",
        "value": "Automated with precipitation sensor"
      }
    ],
    "dewpoint_decimal": {
      "repr": "0128",
      "value": 12.8,
      "spoken": "one two point eight"
    },
    "maximum_temperature_24": null,
    "minimum_temperature_24": null,
    "precip_hourly": null,
    "sea_level_pressure": {
      "repr": "SLP134",
      "value": 1013.4,
      "spoken": "one zero one three point four"
    },
    "snow_depth": null,
    "temperature_decimal": {
      "repr": "0222",
      "value": 22.2,
      "spoken": "two two point two"
    }
  },
  "runway_visibility": [],
  "temperature": {
    "repr": "22",
    "value": 22,
    "spoken": "two two"
  },
  "wind_variable_direction": [],
  "density_altitude": 1040,
  "pressure_altitude": 142,
  "units": {
    "accumulation": "in",
    "altimeter": "inHg",
    "altitude": "ft",
    "temperature": "C",
    "visibility": "sm",
    "wind_speed": "kt"
  }
}
