{
  "meta": {
    "timestamp": "2023-03-05T08:06:31.832451Z",
    "stations_updated": "2023-01-30",
    "cache-timestamp": "2023-03-05T08:06:05.363000Z"
  },
  "altimeter": {
    "repr": "A2965",
    "value": 29.65,
    "spoken": "two nine point six five"
  },
  "clouds": [],
  "flight_rules": "VFR",
  "other": [],
  "visibility": {
    "repr": "10",
    "value": 10,
    "spoken": "one zero"
  },
  "wind_direction": {
    "repr": "360",
    "value": 360,
    "spoken": "three six zero"
  },
  "wind_gust": null,
  "wind_speed": {
    "repr": "03",
    "value": 3,
    "spoken": "three"
  },
  "wx_codes": [],
  "raw": "KAWO 050756Z AUTO 36003KT 10SM CLR M01/M02 A2965 RMK AO2 SLP045 T10061017 400721006 FZRANO",
  "sanitized": "KAWO 050756Z 36003KT 10SM M01/M02 A2965 RMK AO2 SLP045 T10061017 400721006 FZRANO",
  "station": "KAWO",
  "time": {
    "repr": "050756Z",
    "dt": "2023-03-05T07:56:00Z"
  },
  "remarks": "RMK AO2 SLP045 T10061017 400721006 FZRANO",
  "dewpoint": {
    "repr": "M02",
    "value": -2,
    "spoken": "minus two"
  },
  "relative_humidity": 0.9225781625278401,
  "remarks_info": {
    "maximum_temperature_6": null,
    "minimum_temperature_6": null,
    "pressure_tendency": null,
    "precip_36_hours": null,
    "precip_24_hours": null,
    "sunshine_minutes": null,
    "codes": [
      {
        "repr": "AO2",
        "value": "Automated with precipitation sensor"
      },
      {
        "repr": "FZRANO",
        "value": "Freezing rain information not available"
      }
    ],
    "dewpoint_decimal": {
      "repr": "1017",
      "value": -1.7,
      "spoken": "minus one point seven"
    },
    "maximum_temperature_24": {
      "repr": "0072",
      "value": 7.2,
      "spoken": "seven point two"
    },
    "minimum_temperature_24": {
      "repr": "1006",
      "value": -0.6,
      "spoken": "minus zero point six"
    },
    "precip_hourly": null,
    "sea_level_pressure": {
      "repr": "SLP045",
      "value": 1004.5,
      "spoken": "one zero zero four point five"
    },
    "snow_depth": null,
    "temperature_decimal": {
      "repr": "1006",
      "value": -0.6,
      "spoken": "minus zero point six"
    }
  },
  "runway_visibility": [],
  "temperature": {
    "repr": "M01",
    "value": -1,
    "spoken": "minus one"
  },
  "wind_variable_direction": [],
  "density_altitude": -1426,
  "pressure_altitude": 412,
  "units": {
    "accumulation": "in",
    "altimeter": "inHg",
    "altitude": "ft",
    "temperature": "C",
    "visibility": "sm",
    "wind_speed": "kt"
  }
}
