{
  "meta": {
    "timestamp": "2023-05-16T12:09:12.660750Z",
    "stations_updated": "2023-03-11"
  },
  "altimeter": {
    "repr": "A3011",
    "value": 30.11,
    "spoken": "three zero point one one"
  },
  "clouds": [
    {
      "repr": "OVC005",
      "type": "OVC",
      "altitude": 5,
      "modifier": null
    }
  ],
  "flight_rules": "IFR",
  "other": [],
  "visibility": {
    "repr": "10",
    "value": 10,
    "spoken": "one zero"
  },
  "wind_direction": {
    "repr": "300",
    "value": 300,
    "spoken": "three zero zero"
  },
  "wind_gust": null,
  "wind_speed": {
    "repr": "08",
    "value": 8,
    "spoken": "eight"
  },
  "wx_codes": [],
  "raw": "KAWO 161156Z AUTO 30008KT 10SM OVC005 15/14 A3011 RMK AO2 CIG 002V008 SLP200 6//// 7//// T01500139 10200 20150 52006",
  "sanitized": "KAWO 161156Z 30008KT 10SM OVC005 15/14 A3011 RMK AO2 CIG 002V008 SLP200 6//// 7//// T01500139 10200 20150 52006",
  "station": "KAWO",
  "time": {
    "repr": "161156Z",
    "dt": "2023-05-16T11:56:00Z"
  },
  "remarks": "RMK AO2 CIG 002V008 SLP200 6//// 7//// T01500139 10200 20150 52006",
  "dewpoint": {
    "repr": "14",
    "value": 14,
    "spoken": "one four"
  },
  "relative_humidity": 0.9313398487265037,
  "remarks_info": {
    "maximum_temperature_6": {
      "repr": "10200",
      "value": 20,
      "spoken": "two zero point zero"
    },
    "minimum_temperature_6": {
      "repr": "20150",
      "value": 15,
      "spoken": "one five point zero"
    },
    "pressure_tendency": {
      "repr": "52006",
      "tendency": "Increasing steadily or unsteadily",
      "change": 0.6
    },
    "precip_36_hours": null,
    "precip_24_hours": null,
    "sunshine_minutes": null,
    "codes": [
      {
        "repr": "AO2",
        "value": "Automated with precipitation sensor"
      }
    ],
    "dewpoint_decimal": {
      "repr": "0139",
      "value": 13.9,
      "spoken": "one three point nine"
    },
    "maximum_temperature_24": null,
    "minimum_temperature_24": null,
    "precip_hourly": null,
    "sea_level_pressure": {
      "repr": "SLP200",
      "value": 1020,
      "spoken": "one zero two zero point zero"
    },
    "snow_depth": null,
    "temperature_decimal": {
      "repr": "0150",
      "value": 15,
      "spoken": "one five point zero"
    }
  },
  "runway_visibility": [],
  "temperature": {
    "repr": "15",
    "value": 15,
    "spoken": "one five"
  },
  "wind_variable_direction": [],
  "density_altitude": -14,
  "pressure_altitude": -48,
  "units": {
    "accumulation": "in",
    "altimeter": "inHg",
    "altitude": "ft",
    "temperature": "C",
    "visibility": "sm",
    "wind_speed": "kt"
  }
}
