{
  "meta": {
    "timestamp": "2023-05-10T08:06:40.678951Z",
    "stations_updated": "2023-03-11",
    "cache-timestamp": "2023-05-10T08:06:34.428000Z"
  },
  "altimeter": {
    "repr": "A3011",
    "value": 30.11,
    "spoken": "three zero point one one"
  },
  "clouds": [],
  "flight_rules": "VFR",
  "other": [],
  "visibility": {
    "repr": "10",
    "value": 10,
    "spoken": "one zero"
  },
  "wind_direction": {
    "repr": "300",
    "value": 300,
    "spoken": "three zero zero"
  },
  "wind_gust": null,
  "wind_speed": {
    "repr": "05",
    "value": 5,
    "spoken": "five"
  },
  "wx_codes": [],
  "raw": "KAWO 100756Z AUTO 30005KT 10SM CLR 08/05 A3011 RMK AO2 SLP201 T00830050 401720044",
  "sanitized": "KAWO 100756Z 30005KT 10SM 08/05 A3011 RMK AO2 SLP201 T00830050 401720044",
  "station": "KAWO",
  "time": {
    "repr": "100756Z",
    "dt": "2023-05-10T07:56:00Z"
  },
  "remarks": "RMK AO2 SLP201 T00830050 401720044",
  "dewpoint": {
    "repr": "05",
    "value": 5,
    "spoken": "five"
  },
  "relative_humidity": 0.7969868033518251,
  "remarks_info": {
    "maximum_temperature_6": null,
    "minimum_temperature_6": null,
    "pressure_tendency": null,
    "precip_36_hours": null,
    "precip_24_hours": null,
    "sunshine_minutes": null,
    "codes": [
      {
        "repr": "AO2",
        "value": "Automated with precipitation sensor"
      }
    ],
    "dewpoint_decimal": {
      "repr": "0050",
      "value": 5,
      "spoken": "five point zero"
    },
    "maximum_temperature_24": {
      "repr": "0172",
      "value": 17.2,
      "spoken": "one seven point two"
    },
    "minimum_temperature_24": {
      "repr": "0044",
      "value": 4.4,
      "spoken": "four point four"
    },
    "precip_hourly": null,
    "sea_level_pressure": {
      "repr": "SLP201",
      "value": 1020.1,
      "spoken": "one zero two zero point one"
    },
    "snow_depth": null,
    "temperature_decimal": {
      "repr": "0083",
      "value": 8.3,
      "spoken": "eight point three"
    }
  },
  "runway_visibility": [],
  "temperature": {
    "repr": "08",
    "value": 8,
    "spoken": "eight"
  },
  "wind_variable_direction": [],
  "density_altitude": -818,
  "pressure_altitude": -48,
  "units": {
    "accumulation": "in",
    "altimeter": "inHg",
    "altitude": "ft",
    "temperature": "C",
    "visibility": "sm",
    "wind_speed": "kt"
  }
}
