{
  "meta": {
    "timestamp": "2023-05-08T18:40:45.248489Z",
    "stations_updated": "2023-03-11",
    "cache-timestamp": "2023-05-08T18:40:06.537000Z"
  },
  "altimeter": {
    "repr": "A2999",
    "value": 29.99,
    "spoken": "two nine point nine nine"
  },
  "clouds": [],
  "flight_rules": "VFR",
  "other": [],
  "visibility": {
    "repr": "10",
    "value": 10,
    "spoken": "one zero"
  },
  "wind_direction": {
    "repr": "000",
    "value": 0,
    "spoken": "zero zero zero"
  },
  "wind_gust": null,
  "wind_speed": {
    "repr": "00",
    "value": 0,
    "spoken": "zero"
  },
  "wx_codes": [],
  "raw": "KAWO 081756Z AUTO 00000KT 10SM CLR 13/08 A2999 RMK AO2 SLP161 60000 T01280083 10128 20067 58005",
  "sanitized": "KAWO 081756Z 00000KT 10SM 13/08 A2999 RMK AO2 SLP161 60000 T01280083 10128 20067 58005",
  "station": "KAWO",
  "time": {
    "repr": "081756Z",
    "dt": "2023-05-08T17:56:00Z"
  },
  "remarks": "RMK AO2 SLP161 60000 T01280083 10128 20067 58005",
  "dewpoint": {
    "repr": "08",
    "value": 8,
    "spoken": "eight"
  },
  "relative_humidity": 0.740806735944831,
  "remarks_info": {
    "maximum_temperature_6": {
      "repr": "10128",
      "value": 12.8,
      "spoken": "one two point eight"
    },
    "minimum_temperature_6": {
      "repr": "20067",
      "value": 6.7,
      "spoken": "six point seven"
    },
    "pressure_tendency": {
      "repr": "58005",
      "tendency": "Steady or increasing, then decreasing",
      "change": 0.5
    },
    "precip_36_hours": {
      "repr": "60000",
      "value": 0,
      "spoken": "zero"
    },
    "precip_24_hours": null,
    "sunshine_minutes": null,
    "codes": [
      {
        "repr": "AO2",
        "value": "Automated with precipitation sensor"
      }
    ],
    "dewpoint_decimal": {
      "repr": "0083",
      "value": 8.3,
      "spoken": "eight point three"
    },
    "maximum_temperature_24": null,
    "minimum_temperature_24": null,
    "precip_hourly": null,
    "sea_level_pressure": {
      "repr": "SLP161",
      "value": 1016.1,
      "spoken": "one zero one six point one"
    },
    "snow_depth": null,
    "temperature_decimal": {
      "repr": "0128",
      "value": 12.8,
      "spoken": "one two point eight"
    }
  },
  "runway_visibility": [],
  "temperature": {
    "repr": "13",
    "value": 13,
    "spoken": "one three"
  },
  "wind_variable_direction": [],
  "density_altitude": -158,
  "pressure_altitude": 72,
  "units": {
    "accumulation": "in",
    "altimeter": "inHg",
    "altitude": "ft",
    "temperature": "C",
    "visibility": "sm",
    "wind_speed": "kt"
  }
}
