{
  "altimeter": {
    "repr": "A2974",
    "spoken": "two nine point seven four",
    "value": 29.74
  },
  "clouds": [
    {
      "altitude": 9,
      "modifier": null,
      "repr": "FEW009",
      "type": "FEW"
    },
    {
      "altitude": 27,
      "modifier": null,
      "repr": "OVC027",
      "type": "OVC"
    }
  ],
  "density_altitude": -364,
  "dewpoint": {
    "repr": "08",
    "spoken": "eight",
    "value": 8
  },
  "flight_rules": "MVFR",
  "meta": {
    "cache-timestamp": "2023-11-11T13:40:05.214000Z",
    "stations_updated": "2023-10-28",
    "timestamp": "2023-11-11T13:40:49.140760Z"
  },
  "other": [],
  "pressure_altitude": 322,
  "raw": "KAWO 111336Z AUTO 03004KT 4SM +RA BR FEW009 OVC027 09/08 A2974 RMK AO2 P0028",
  "relative_humidity": 0.9344901544791844,
  "remarks": "RMK AO2 P0028",
  "remarks_info": {
    "codes": [
      {
        "repr": "AO2",
        "value": "Automated with precipitation sensor"
      }
    ],
    "dewpoint_decimal": null,
    "maximum_temperature_24": null,
    "maximum_temperature_6": null,
    "minimum_temperature_24": null,
    "minimum_temperature_6": null,
    "precip_24_hours": null,
    "precip_36_hours": null,
    "precip_hourly": {
      "repr": "P0028",
      "spoken": "zero point two eight",
      "value": 0.28
    },
    "pressure_tendency": null,
    "sea_level_pressure": null,
    "snow_depth": null,
    "sunshine_minutes": null,
    "temperature_decimal": null
  },
  "runway_visibility": [],
  "sanitized": "KAWO 111336Z 03004KT 4SM +RA BR FEW009 OVC027 09/08 A2974 RMK AO2 P0028",
  "station": "KAWO",
  "temperature": {
    "repr": "09",
    "spoken": "nine",
    "value": 9
  },
  "time": {
    "dt": "2023-11-11T13:36:00Z",
    "repr": "111336Z"
  },
  "units": {
    "accumulation": "in",
    "altimeter": "inHg",
    "altitude": "ft",
    "temperature": "C",
    "visibility": "sm",
    "wind_speed": "kt"
  },
  "visibility": {
    "repr": "4",
    "spoken": "four",
    "value": 4
  },
  "wind_direction": {
    "repr": "030",
    "spoken": "zero three zero",
    "value": 30
  },
  "wind_gust": null,
  "wind_speed": {
    "repr": "04",
    "spoken": "four",
    "value": 4
  },
  "wind_variable_direction": [],
  "wx_codes": [
    {
      "repr": "+RA",
      "value": "Heavy Rain"
    },
    {
      "repr": "BR",
      "value": "Mist"
    }
  ]
}
