{
  "meta": {
    "timestamp": "2023-06-30T06:42:53.401763Z",
    "stations_updated": "2023-06-06",
    "cache-timestamp": "2023-06-30T06:42:03.327000Z"
  },
  "altimeter": {
    "repr": "A3008",
    "value": 30.08,
    "spoken": "three zero point zero eight"
  },
  "clouds": [],
  "flight_rules": "VFR",
  "other": [],
  "visibility": {
    "repr": "10",
    "value": 10,
    "spoken": "one zero"
  },
  "wind_direction": {
    "repr": "330",
    "value": 330,
    "spoken": "three three zero"
  },
  "wind_gust": null,
  "wind_speed": {
    "repr": "05",
    "value": 5,
    "spoken": "five"
  },
  "wx_codes": [],
  "raw": "KAWO 300556Z AUTO 33005KT 10SM CLR 16/13 A3008 RMK AO2 SLP191 T01560128 10250 20156 53005",
  "sanitized": "KAWO 300556Z 33005KT 10SM 16/13 A3008 RMK AO2 SLP191 T01560128 10250 20156 53005",
  "station": "KAWO",
  "time": {
    "repr": "300556Z",
    "dt": "2023-06-30T05:56:00Z"
  },
  "remarks": "RMK AO2 SLP191 T01560128 10250 20156 53005",
  "dewpoint": {
    "repr": "13",
    "value": 13,
    "spoken": "one three"
  },
  "relative_humidity": 0.8340876297806936,
  "remarks_info": {
    "maximum_temperature_6": {
      "repr": "10250",
      "value": 25,
      "spoken": "two five point zero"
    },
    "minimum_temperature_6": {
      "repr": "20156",
      "value": 15.6,
      "spoken": "one five point six"
    },
    "pressure_tendency": {
      "repr": "53005",
      "tendency": "Decreasing or steady, then increasing",
      "change": 0.5
    },
    "precip_36_hours": null,
    "precip_24_hours": null,
    "sunshine_minutes": null,
    "codes": [
      {
        "repr": "AO2",
        "value": "Automated with precipitation sensor"
      }
    ],
    "dewpoint_decimal": {
      "repr": "0128",
      "value": 12.8,
      "spoken": "one two point eight"
    },
    "maximum_temperature_24": null,
    "minimum_temperature_24": null,
    "precip_hourly": null,
    "sea_level_pressure": {
      "repr": "SLP191",
      "value": 1019.1,
      "spoken": "one zero one nine point one"
    },
    "snow_depth": null,
    "temperature_decimal": {
      "repr": "0156",
      "value": 15.6,
      "spoken": "one five point six"
    }
  },
  "runway_visibility": [],
  "temperature": {
    "repr": "16",
    "value": 16,
    "spoken": "one six"
  },
  "wind_variable_direction": [],
  "density_altitude": 88,
  "pressure_altitude": -18,
  "units": {
    "accumulation": "in",
    "altimeter": "inHg",
    "altitude": "ft",
    "temperature": "C",
    "visibility": "sm",
    "wind_speed": "kt"
  }
}
