{
  "meta": {
    "timestamp": "2022-12-03T18:03:23.228660Z",
    "stations_updated": "2022-09-05"
  },
  "altimeter": {
    "repr": "A3016",
    "value": 30.16,
    "spoken": "three zero point one six"
  },
  "clouds": [
    {
      "repr": "OVC055",
      "type": "OVC",
      "altitude": 55,
      "modifier": null
    }
  ],
  "flight_rules": "VFR",
  "other": [],
  "visibility": {
    "repr": "10",
    "value": 10,
    "spoken": "one zero"
  },
  "wind_direction": {
    "repr": "340",
    "value": 340,
    "spoken": "three four zero"
  },
  "wind_gust": null,
  "wind_speed": {
    "repr": "04",
    "value": 4,
    "spoken": "four"
  },
  "wx_codes": [],
  "raw": "KAWO 031756Z AUTO 34004KT 10SM OVC055 03/02 A3016 RMK AO2 SLP218 60002 T00280022 10028 20000 53019",
  "sanitized": "KAWO 031756Z 34004KT 10SM OVC055 03/02 A3016 RMK AO2 SLP218 60002 T00280022 10028 20000 53019",
  "station": "KAWO",
  "time": {
    "repr": "031756Z",
    "dt": "2022-12-03T17:56:00Z"
  },
  "remarks": "RMK AO2 SLP218 60002 T00280022 10028 20000 53019",
  "dewpoint": {
    "repr": "02",
    "value": 2,
    "spoken": "two"
  },
  "relative_humidity": 0.958237479247377,
  "remarks_info": {
    "maximum_temperature_6": {
      "repr": "10028",
      "value": 2.8,
      "spoken": "two point eight"
    },
    "minimum_temperature_6": {
      "repr": "20000",
      "value": 0,
      "spoken": "zero"
    },
    "pressure_tendency": {
      "repr": "53019",
      "tendency": "Decreasing or steady, then increasing",
      "change": 1.9
    },
    "precip_36_hours": {
      "repr": "60002",
      "value": 0.02,
      "spoken": "zero point zero two"
    },
    "precip_24_hours": null,
    "sunshine_minutes": null,
    "codes": [
      {
        "repr": "AO2",
        "value": "Automated with precipitation sensor"
      }
    ],
    "dewpoint_decimal": {
      "repr": "0022",
      "value": 2.2,
      "spoken": "two point two"
    },
    "maximum_temperature_24": null,
    "minimum_temperature_24": null,
    "precip_hourly": null,
    "sea_level_pressure": {
      "repr": "SLP218",
      "value": 1021.8,
      "spoken": "one zero two one point eight"
    },
    "snow_depth": null,
    "temperature_decimal": {
      "repr": "0028",
      "value": 2.8,
      "spoken": "two point eight"
    }
  },
  "runway_visibility": [],
  "temperature": {
    "repr": "03",
    "value": 3,
    "spoken": "three"
  },
  "wind_variable_direction": [],
  "density_altitude": -1528,
  "pressure_altitude": -98,
  "units": {
    "accumulation": "in",
    "altimeter": "inHg",
    "altitude": "ft",
    "temperature": "C",
    "visibility": "sm",
    "wind_speed": "kt"
  }
}
