{
  "meta": {
    "timestamp": "2023-01-17T13:13:40.289209Z",
    "stations_updated": "2023-01-16"
  },
  "altimeter": {
    "repr": "A2991",
    "value": 29.91,
    "spoken": "two nine point nine one"
  },
  "clouds": [
    {
      "repr": "OVC027",
      "type": "OVC",
      "altitude": 27,
      "modifier": null
    }
  ],
  "flight_rules": "MVFR",
  "other": [],
  "visibility": {
    "repr": "10",
    "value": 10,
    "spoken": "one zero"
  },
  "wind_direction": {
    "repr": "180",
    "value": 180,
    "spoken": "one eight zero"
  },
  "wind_gust": null,
  "wind_speed": {
    "repr": "03",
    "value": 3,
    "spoken": "three"
  },
  "wx_codes": [],
  "raw": "KAWO 171256Z AUTO 18003KT 10SM OVC027 07/04 A2991 RMK AO2 SLP133 T00670039",
  "sanitized": "KAWO 171256Z 18003KT 10SM OVC027 07/04 A2991 RMK AO2 SLP133 T00670039",
  "station": "KAWO",
  "time": {
    "repr": "171256Z",
    "dt": "2023-01-17T12:56:00Z"
  },
  "remarks": "RMK AO2 SLP133 T00670039",
  "dewpoint": {
    "repr": "04",
    "value": 4,
    "spoken": "four"
  },
  "relative_humidity": 0.8231403572695032,
  "remarks_info": {
    "maximum_temperature_6": null,
    "minimum_temperature_6": null,
    "pressure_tendency": null,
    "precip_36_hours": null,
    "precip_24_hours": null,
    "sunshine_minutes": null,
    "codes": [
      {
        "repr": "AO2",
        "value": "Automated with precipitation sensor"
      }
    ],
    "dewpoint_decimal": {
      "repr": "0039",
      "value": 3.9,
      "spoken": "three point nine"
    },
    "maximum_temperature_24": null,
    "minimum_temperature_24": null,
    "precip_hourly": null,
    "sea_level_pressure": {
      "repr": "SLP133",
      "value": 1013.3,
      "spoken": "one zero one three point three"
    },
    "snow_depth": null,
    "temperature_decimal": {
      "repr": "0067",
      "value": 6.7,
      "spoken": "six point seven"
    }
  },
  "runway_visibility": [],
  "temperature": {
    "repr": "07",
    "value": 7,
    "spoken": "seven"
  },
  "wind_variable_direction": [],
  "density_altitude": -810,
  "pressure_altitude": 152,
  "units": {
    "accumulation": "in",
    "altimeter": "inHg",
    "altitude": "ft",
    "temperature": "C",
    "visibility": "sm",
    "wind_speed": "kt"
  }
}
