{
  "meta": {
    "timestamp": "2023-06-08T12:42:18.632097Z",
    "stations_updated": "2023-06-06",
    "cache-timestamp": "2023-06-08T12:42:04.686000Z"
  },
  "altimeter": {
    "repr": "A2997",
    "value": 29.97,
    "spoken": "two nine point nine seven"
  },
  "clouds": [],
  "flight_rules": "VFR",
  "other": [],
  "visibility": {
    "repr": "10",
    "value": 10,
    "spoken": "one zero"
  },
  "wind_direction": {
    "repr": "000",
    "value": 0,
    "spoken": "zero zero zero"
  },
  "wind_gust": null,
  "wind_speed": {
    "repr": "00",
    "value": 0,
    "spoken": "zero"
  },
  "wx_codes": [],
  "raw": "KAWO 081156Z AUTO 00000KT 10SM CLR 12/09 A2997 RMK AO2 SLP152 T01220094 10167 20122 51017",
  "sanitized": "KAWO 081156Z 00000KT 10SM 12/09 A2997 RMK AO2 SLP152 T01220094 10167 20122 51017",
  "station": "KAWO",
  "time": {
    "repr": "081156Z",
    "dt": "2023-06-08T11:56:00Z"
  },
  "remarks": "RMK AO2 SLP152 T01220094 10167 20122 51017",
  "dewpoint": {
    "repr": "09",
    "value": 9,
    "spoken": "nine"
  },
  "relative_humidity": 0.830024146445758,
  "remarks_info": {
    "maximum_temperature_6": {
      "repr": "10167",
      "value": 16.7,
      "spoken": "one six point seven"
    },
    "minimum_temperature_6": {
      "repr": "20122",
      "value": 12.2,
      "spoken": "one two point two"
    },
    "pressure_tendency": {
      "repr": "51017",
      "tendency": "Increasing, then steady",
      "change": 1.7
    },
    "precip_36_hours": null,
    "precip_24_hours": null,
    "sunshine_minutes": null,
    "codes": [
      {
        "repr": "AO2",
        "value": "Automated with precipitation sensor"
      }
    ],
    "dewpoint_decimal": {
      "repr": "0094",
      "value": 9.4,
      "spoken": "nine point four"
    },
    "maximum_temperature_24": null,
    "minimum_temperature_24": null,
    "precip_hourly": null,
    "sea_level_pressure": {
      "repr": "SLP152",
      "value": 1015.2,
      "spoken": "one zero one five point two"
    },
    "snow_depth": null,
    "temperature_decimal": {
      "repr": "0122",
      "value": 12.2,
      "spoken": "one two point two"
    }
  },
  "runway_visibility": [],
  "temperature": {
    "repr": "12",
    "value": 12,
    "spoken": "one two"
  },
  "wind_variable_direction": [],
  "density_altitude": -210,
  "pressure_altitude": 92,
  "units": {
    "accumulation": "in",
    "altimeter": "inHg",
    "altitude": "ft",
    "temperature": "C",
    "visibility": "sm",
    "wind_speed": "kt"
  }
}
