{
  "altimeter": {
    "repr": "A2999",
    "spoken": "two nine point nine nine",
    "value": 29.99
  },
  "clouds": [
    {
      "altitude": 11,
      "modifier": null,
      "repr": "SCT011",
      "type": "SCT"
    },
    {
      "altitude": 19,
      "modifier": null,
      "repr": "SCT019",
      "type": "SCT"
    },
    {
      "altitude": 29,
      "modifier": null,
      "repr": "OVC029",
      "type": "OVC"
    }
  ],
  "density_altitude": -614,
  "dewpoint": {
    "repr": "08",
    "spoken": "eight",
    "value": 8
  },
  "flight_rules": "MVFR",
  "meta": {
    "cache-timestamp": "2024-05-25T20:40:04.929000Z",
    "stations_updated": "2024-05-13",
    "timestamp": "2024-05-25T20:40:46.404219Z"
  },
  "other": [],
  "pressure_altitude": 72,
  "raw": "KAWO 252027Z AUTO 00000KT 5SM -RA BR SCT011 SCT019 OVC029 09/08 A2999 RMK AO2 RAB07 PNO $",
  "relative_humidity": 0.9344901544791844,
  "remarks": "RMK AO2 RAB07 PNO $",
  "remarks_info": {
    "codes": [
      {
        "repr": "$",
        "value": "ASOS requires maintenance"
      },
      {
        "repr": "AO2",
        "value": "Automated with precipitation sensor"
      },
      {
        "repr": "PNO",
        "value": "Precipitation amount not available"
      },
      {
        "repr": "RAB07",
        "value": "Rain began at :07"
      }
    ],
    "dewpoint_decimal": null,
    "maximum_temperature_24": null,
    "maximum_temperature_6": null,
    "minimum_temperature_24": null,
    "minimum_temperature_6": null,
    "precip_24_hours": null,
    "precip_36_hours": null,
    "precip_hourly": null,
    "pressure_tendency": null,
    "sea_level_pressure": null,
    "snow_depth": null,
    "sunshine_minutes": null,
    "temperature_decimal": null
  },
  "runway_visibility": [],
  "sanitized": "KAWO 252027Z 00000KT 5SM -RA BR SCT011 SCT019 OVC029 09/08 A2999 RMK AO2 RAB07 PNO $",
  "station": "KAWO",
  "temperature": {
    "repr": "09",
    "spoken": "nine",
    "value": 9
  },
  "time": {
    "dt": "2024-05-25T20:27:00Z",
    "repr": "252027Z"
  },
  "units": {
    "accumulation": "in",
    "altimeter": "inHg",
    "altitude": "ft",
    "temperature": "C",
    "visibility": "sm",
    "wind_speed": "kt"
  },
  "visibility": {
    "repr": "5",
    "spoken": "five",
    "value": 5
  },
  "wind_direction": {
    "repr": "000",
    "spoken": "zero zero zero",
    "value": 0
  },
  "wind_gust": null,
  "wind_speed": {
    "repr": "00",
    "spoken": "zero",
    "value": 0
  },
  "wind_variable_direction": [],
  "wx_codes": [
    {
      "repr": "-RA",
      "value": "Light Rain"
    },
    {
      "repr": "BR",
      "value": "Mist"
    }
  ]
}
