{
  "meta": {
    "timestamp": "2022-11-07T15:46:50.233687Z",
    "stations_updated": "2022-09-05"
  },
  "altimeter": {
    "repr": "A2956",
    "value": 29.56,
    "spoken": "two nine point five six"
  },
  "clouds": [
    {
      "repr": "BKN010",
      "type": "BKN",
      "altitude": 10,
      "modifier": null
    },
    {
      "repr": "OVC035",
      "type": "OVC",
      "altitude": 35,
      "modifier": null
    }
  ],
  "flight_rules": "MVFR",
  "other": [],
  "visibility": {
    "repr": "10",
    "value": 10,
    "spoken": "one zero"
  },
  "wind_direction": {
    "repr": "120",
    "value": 120,
    "spoken": "one two zero"
  },
  "wind_gust": null,
  "wind_speed": {
    "repr": "06",
    "value": 6,
    "spoken": "six"
  },
  "wx_codes": [
    {
      "repr": "UP",
      "value": "Unknown Precip"
    }
  ],
  "raw": "KAWO 071529Z AUTO 12006KT 10SM UP BKN010 OVC035 02/02 A2956 RMK AO2 RAE27UPB05E10B27 P0000 FZRANO",
  "sanitized": "KAWO 071529Z 12006KT 10SM UP BKN010 OVC035 02/02 A2956 RMK AO2 RAE27UPB05E10B27 P0000 FZRANO",
  "station": "KAWO",
  "time": {
    "repr": "071529Z",
    "dt": "2022-11-07T15:29:00Z"
  },
  "remarks": "RMK AO2 RAE27UPB05E10B27 P0000 FZRANO",
  "dewpoint": {
    "repr": "02",
    "value": 2,
    "spoken": "two"
  },
  "relative_humidity": 1,
  "remarks_info": {
    "maximum_temperature_6": null,
    "minimum_temperature_6": null,
    "pressure_tendency": null,
    "precip_36_hours": null,
    "precip_24_hours": null,
    "sunshine_minutes": null,
    "codes": [
      {
        "repr": "AO2",
        "value": "Automated with precipitation sensor"
      },
      {
        "repr": "FZRANO",
        "value": "Freezing rain information not available"
      },
      {
        "repr": "P0000",
        "value": "Trace amount of rain in the last hour"
      }
    ],
    "dewpoint_decimal": null,
    "maximum_temperature_24": null,
    "minimum_temperature_24": null,
    "precip_hourly": null,
    "sea_level_pressure": null,
    "snow_depth": null,
    "temperature_decimal": null
  },
  "runway_visibility": [],
  "temperature": {
    "repr": "02",
    "value": 2,
    "spoken": "two"
  },
  "wind_variable_direction": [],
  "density_altitude": -1024,
  "pressure_altitude": 502,
  "units": {
    "accumulation": "in",
    "altimeter": "inHg",
    "altitude": "ft",
    "temperature": "C",
    "visibility": "sm",
    "wind_speed": "kt"
  }
}
