{
  "meta": {
    "timestamp": "2023-01-16T12:49:45.555771Z",
    "stations_updated": "2022-12-27",
    "cache-timestamp": "2023-01-16T12:48:46.229000Z"
  },
  "altimeter": {
    "repr": "A2963",
    "value": 29.63,
    "spoken": "two nine point six three"
  },
  "clouds": [
    {
      "repr": "BKN035",
      "type": "BKN",
      "altitude": 35,
      "modifier": null
    }
  ],
  "flight_rules": "VFR",
  "other": [],
  "visibility": {
    "repr": "10",
    "value": 10,
    "spoken": "one zero"
  },
  "wind_direction": {
    "repr": "130",
    "value": 130,
    "spoken": "one three zero"
  },
  "wind_gust": {
    "repr": "22",
    "value": 22,
    "spoken": "two two"
  },
  "wind_speed": {
    "repr": "12",
    "value": 12,
    "spoken": "one two"
  },
  "wx_codes": [],
  "raw": "KAWO 161156Z AUTO 13012G22KT 10SM BKN035 08/04 A2963 RMK AO2 SLP037 60002 70052 T00780039 10078 20067 53015",
  "sanitized": "KAWO 161156Z 13012G22KT 10SM BKN035 08/04 A2963 RMK AO2 SLP037 60002 70052 T00780039 10078 20067 53015",
  "station": "KAWO",
  "time": {
    "repr": "161156Z",
    "dt": "2023-01-16T11:56:00Z"
  },
  "remarks": "RMK AO2 SLP037 60002 70052 T00780039 10078 20067 53015",
  "dewpoint": {
    "repr": "04",
    "value": 4,
    "spoken": "four"
  },
  "relative_humidity": 0.7634534383263296,
  "remarks_info": {
    "maximum_temperature_6": {
      "repr": "10078",
      "value": 7.8,
      "spoken": "seven point eight"
    },
    "minimum_temperature_6": {
      "repr": "20067",
      "value": 6.7,
      "spoken": "six point seven"
    },
    "pressure_tendency": {
      "repr": "53015",
      "tendency": "Decreasing or steady, then increasing",
      "change": 1.5
    },
    "precip_36_hours": {
      "repr": "60002",
      "value": 0.02,
      "spoken": "zero point zero two"
    },
    "precip_24_hours": {
      "repr": "70052",
      "value": 0.52,
      "spoken": "zero point five two"
    },
    "sunshine_minutes": null,
    "codes": [
      {
        "repr": "AO2",
        "value": "Automated with precipitation sensor"
      }
    ],
    "dewpoint_decimal": {
      "repr": "0039",
      "value": 3.9,
      "spoken": "three point nine"
    },
    "maximum_temperature_24": null,
    "minimum_temperature_24": null,
    "precip_hourly": null,
    "sea_level_pressure": {
      "repr": "SLP037",
      "value": 1003.7,
      "spoken": "one zero zero three point seven"
    },
    "snow_depth": null,
    "temperature_decimal": {
      "repr": "0078",
      "value": 7.8,
      "spoken": "seven point eight"
    }
  },
  "runway_visibility": [],
  "temperature": {
    "repr": "08",
    "value": 8,
    "spoken": "eight"
  },
  "wind_variable_direction": [],
  "density_altitude": -398,
  "pressure_altitude": 432,
  "units": {
    "accumulation": "in",
    "altimeter": "inHg",
    "altitude": "ft",
    "temperature": "C",
    "visibility": "sm",
    "wind_speed": "kt"
  }
}
