{
  "altimeter": {
    "repr": "A2929",
    "spoken": "two nine point two nine",
    "value": 29.29
  },
  "clouds": [
    {
      "altitude": 100,
      "modifier": null,
      "repr": "OVC100",
      "type": "OVC"
    }
  ],
  "density_altitude": -862,
  "dewpoint": {
    "repr": "01",
    "spoken": "one",
    "value": 1
  },
  "flight_rules": "VFR",
  "meta": {
    "cache-timestamp": "2024-03-02T08:24:05.671000Z",
    "stations_updated": "2024-01-01",
    "timestamp": "2024-03-02T08:24:45.508485Z"
  },
  "other": [],
  "pressure_altitude": 772,
  "raw": "KAWO 020756Z AUTO 06004KT 10SM OVC100 01/01 A2929 RMK AO2 SLP925 T00110006 400720006 FZRANO",
  "relative_humidity": 0.9646099922239331,
  "remarks": "RMK AO2 SLP925 T00110006 400720006 FZRANO",
  "remarks_info": {
    "codes": [
      {
        "repr": "AO2",
        "value": "Automated with precipitation sensor"
      },
      {
        "repr": "FZRANO",
        "value": "Freezing rain information not available"
      }
    ],
    "dewpoint_decimal": {
      "repr": "0006",
      "spoken": "zero point six",
      "value": 0.6
    },
    "maximum_temperature_24": {
      "repr": "0072",
      "spoken": "seven point two",
      "value": 7.2
    },
    "maximum_temperature_6": null,
    "minimum_temperature_24": {
      "repr": "0006",
      "spoken": "zero point six",
      "value": 0.6
    },
    "minimum_temperature_6": null,
    "precip_24_hours": null,
    "precip_36_hours": null,
    "precip_hourly": null,
    "pressure_tendency": null,
    "sea_level_pressure": {
      "repr": "SLP925",
      "spoken": "nine nine two point five",
      "value": 992.5
    },
    "snow_depth": null,
    "sunshine_minutes": null,
    "temperature_decimal": {
      "repr": "0011",
      "spoken": "one point one",
      "value": 1.1
    }
  },
  "runway_visibility": [],
  "sanitized": "KAWO 020756Z 06004KT 10SM OVC100 01/01 A2929 RMK AO2 SLP925 T00110006 400720006 FZRANO",
  "station": "KAWO",
  "temperature": {
    "repr": "01",
    "spoken": "one",
    "value": 1
  },
  "time": {
    "dt": "2024-03-02T07:56:00Z",
    "repr": "020756Z"
  },
  "units": {
    "accumulation": "in",
    "altimeter": "inHg",
    "altitude": "ft",
    "temperature": "C",
    "visibility": "sm",
    "wind_speed": "kt"
  },
  "visibility": {
    "repr": "10",
    "spoken": "one zero",
    "value": 10
  },
  "wind_direction": {
    "repr": "060",
    "spoken": "zero six zero",
    "value": 60
  },
  "wind_gust": null,
  "wind_speed": {
    "repr": "04",
    "spoken": "four",
    "value": 4
  },
  "wind_variable_direction": [],
  "wx_codes": []
}
