{
  "altimeter": {
    "repr": "A3020",
    "spoken": "three zero point two zero",
    "value": 30.2
  },
  "clouds": [],
  "density_altitude": 892,
  "dewpoint": {
    "repr": "12",
    "spoken": "one two",
    "value": 12
  },
  "flight_rules": "VFR",
  "meta": {
    "stations_updated": "2024-06-12",
    "timestamp": "2024-07-05T18:41:51.532108Z"
  },
  "other": [],
  "pressure_altitude": -138,
  "raw": "KAWO 051756Z AUTO 31005KT 10SM CLR 23/12 A3020 RMK AO2 SLP231 T02330117 10233 20106 58006",
  "relative_humidity": 0.48044675023312866,
  "remarks": "RMK AO2 SLP231 T02330117 10233 20106 58006",
  "remarks_info": {
    "codes": [
      {
        "repr": "AO2",
        "value": "Automated with precipitation sensor"
      }
    ],
    "dewpoint_decimal": {
      "repr": "0117",
      "spoken": "one one point seven",
      "value": 11.7
    },
    "maximum_temperature_24": null,
    "maximum_temperature_6": {
      "repr": "10233",
      "spoken": "two three point three",
      "value": 23.3
    },
    "minimum_temperature_24": null,
    "minimum_temperature_6": {
      "repr": "20106",
      "spoken": "one zero point six",
      "value": 10.6
    },
    "precip_24_hours": null,
    "precip_36_hours": null,
    "precip_hourly": null,
    "pressure_tendency": {
      "change": 0.6,
      "repr": "58006",
      "tendency": "Steady or increasing, then decreasing"
    },
    "sea_level_pressure": {
      "repr": "SLP231",
      "spoken": "one zero two three point one",
      "value": 1023.1
    },
    "snow_depth": null,
    "sunshine_minutes": null,
    "temperature_decimal": {
      "repr": "0233",
      "spoken": "two three point three",
      "value": 23.3
    }
  },
  "runway_visibility": [],
  "sanitized": "KAWO 051756Z 31005KT 10SM 23/12 A3020 RMK AO2 SLP231 T02330117 10233 20106 58006",
  "station": "KAWO",
  "temperature": {
    "repr": "23",
    "spoken": "two three",
    "value": 23
  },
  "time": {
    "dt": "2024-07-05T17:56:00Z",
    "repr": "051756Z"
  },
  "units": {
    "accumulation": "in",
    "altimeter": "inHg",
    "altitude": "ft",
    "temperature": "C",
    "visibility": "sm",
    "wind_speed": "kt"
  },
  "visibility": {
    "repr": "10",
    "spoken": "one zero",
    "value": 10
  },
  "wind_direction": {
    "repr": "310",
    "spoken": "three one zero",
    "value": 310
  },
  "wind_gust": null,
  "wind_speed": {
    "repr": "05",
    "spoken": "five",
    "value": 5
  },
  "wind_variable_direction": [],
  "wx_codes": []
}
