{
  "meta": {
    "timestamp": "2023-07-06T02:18:32.518053Z",
    "stations_updated": "2023-06-06",
    "cache-timestamp": "2023-07-06T02:18:03.236000Z"
  },
  "altimeter": {
    "repr": "A2987",
    "value": 29.87,
    "spoken": "two nine point eight seven"
  },
  "clouds": [],
  "flight_rules": "VFR",
  "other": [],
  "visibility": {
    "repr": "10",
    "value": 10,
    "spoken": "one zero"
  },
  "wind_direction": {
    "repr": "300",
    "value": 300,
    "spoken": "three zero zero"
  },
  "wind_gust": null,
  "wind_speed": {
    "repr": "08",
    "value": 8,
    "spoken": "eight"
  },
  "wx_codes": [],
  "raw": "KAWO 060156Z AUTO 30008KT 10SM CLR 29/12 A2987 RMK AO2 SLP118 T02940117",
  "sanitized": "KAWO 060156Z 30008KT 10SM 29/12 A2987 RMK AO2 SLP118 T02940117",
  "station": "KAWO",
  "time": {
    "repr": "060156Z",
    "dt": "2023-07-06T01:56:00Z"
  },
  "remarks": "RMK AO2 SLP118 T02940117",
  "dewpoint": {
    "repr": "12",
    "value": 12,
    "spoken": "one two"
  },
  "relative_humidity": 0.3350369099100835,
  "remarks_info": {
    "maximum_temperature_6": null,
    "minimum_temperature_6": null,
    "pressure_tendency": null,
    "precip_36_hours": null,
    "precip_24_hours": null,
    "sunshine_minutes": null,
    "codes": [
      {
        "repr": "AO2",
        "value": "Automated with precipitation sensor"
      }
    ],
    "dewpoint_decimal": {
      "repr": "0117",
      "value": 11.7,
      "spoken": "one one point seven"
    },
    "maximum_temperature_24": null,
    "minimum_temperature_24": null,
    "precip_hourly": null,
    "sea_level_pressure": {
      "repr": "SLP118",
      "value": 1011.8,
      "spoken": "one zero one one point eight"
    },
    "snow_depth": null,
    "temperature_decimal": {
      "repr": "0294",
      "value": 29.4,
      "spoken": "two nine point four"
    }
  },
  "runway_visibility": [],
  "temperature": {
    "repr": "29",
    "value": 29,
    "spoken": "two nine"
  },
  "wind_variable_direction": [],
  "density_altitude": 1954,
  "pressure_altitude": 192,
  "units": {
    "accumulation": "in",
    "altimeter": "inHg",
    "altitude": "ft",
    "temperature": "C",
    "visibility": "sm",
    "wind_speed": "kt"
  }
}
