{
  "altimeter": {
    "repr": "A3011",
    "spoken": "three zero point one one",
    "value": 30.11
  },
  "clouds": [
    {
      "altitude": 20,
      "modifier": null,
      "repr": "BKN020",
      "type": "BKN"
    },
    {
      "altitude": 28,
      "modifier": null,
      "repr": "BKN028",
      "type": "BKN"
    },
    {
      "altitude": 35,
      "modifier": null,
      "repr": "OVC035",
      "type": "OVC"
    }
  ],
  "density_altitude": -974,
  "dewpoint": {
    "repr": "05",
    "spoken": "five",
    "value": 5
  },
  "flight_rules": "MVFR",
  "meta": {
    "stations_updated": "2024-12-02",
    "timestamp": "2024-12-08T06:48:33.535177Z"
  },
  "other": [],
  "pressure_altitude": -48,
  "raw": "KAWO 080608Z AUTO 14008KT 10SM BKN020 BKN028 OVC035 07/05 A3011 RMK AO2",
  "relative_humidity": 0.8708903011793067,
  "remarks": "RMK AO2",
  "remarks_info": {
    "codes": [
      {
        "repr": "AO2",
        "value": "Automated with precipitation sensor"
      }
    ],
    "dewpoint_decimal": null,
    "maximum_temperature_24": null,
    "maximum_temperature_6": null,
    "minimum_temperature_24": null,
    "minimum_temperature_6": null,
    "precip_24_hours": null,
    "precip_36_hours": null,
    "precip_hourly": null,
    "pressure_tendency": null,
    "sea_level_pressure": null,
    "snow_depth": null,
    "sunshine_minutes": null,
    "temperature_decimal": null
  },
  "runway_visibility": [],
  "sanitized": "KAWO 080608Z 14008KT 10SM BKN020 BKN028 OVC035 07/05 A3011 RMK AO2",
  "station": "KAWO",
  "temperature": {
    "repr": "07",
    "spoken": "seven",
    "value": 7
  },
  "time": {
    "dt": "2024-12-08T06:08:00Z",
    "repr": "080608Z"
  },
  "units": {
    "accumulation": "in",
    "altimeter": "inHg",
    "altitude": "ft",
    "temperature": "C",
    "visibility": "sm",
    "wind_speed": "kt"
  },
  "visibility": {
    "repr": "10",
    "spoken": "one zero",
    "value": 10
  },
  "wind_direction": {
    "repr": "140",
    "spoken": "one four zero",
    "value": 140
  },
  "wind_gust": null,
  "wind_speed": {
    "repr": "08",
    "spoken": "eight",
    "value": 8
  },
  "wind_variable_direction": [],
  "wx_codes": []
}
