{
  "altimeter": {
    "repr": "A2953",
    "spoken": "two nine point five three",
    "value": 29.53
  },
  "clouds": [
    {
      "altitude": 25,
      "modifier": null,
      "repr": "SCT025",
      "type": "SCT"
    },
    {
      "altitude": 33,
      "modifier": null,
      "repr": "BKN033",
      "type": "BKN"
    },
    {
      "altitude": 60,
      "modifier": null,
      "repr": "OVC060",
      "type": "OVC"
    }
  ],
  "density_altitude": 86,
  "dewpoint": {
    "repr": "09",
    "spoken": "nine",
    "value": 9
  },
  "flight_rules": "VFR",
  "meta": {
    "stations_updated": "2024-10-29",
    "timestamp": "2024-11-13T19:22:40.221232Z"
  },
  "other": [],
  "pressure_altitude": 532,
  "raw": "KAWO 131917Z AUTO 12012KT 10SM SCT025 BKN033 OVC060 11/09 A2953 RMK AO2 RAB03E16 PNO $",
  "relative_humidity": 0.8746678827465182,
  "remarks": "RMK AO2 RAB03E16 PNO $",
  "remarks_info": {
    "codes": [
      {
        "repr": "$",
        "value": "ASOS requires maintenance"
      },
      {
        "repr": "AO2",
        "value": "Automated with precipitation sensor"
      },
      {
        "repr": "PNO",
        "value": "Precipitation amount not available"
      }
    ],
    "dewpoint_decimal": null,
    "maximum_temperature_24": null,
    "maximum_temperature_6": null,
    "minimum_temperature_24": null,
    "minimum_temperature_6": null,
    "precip_24_hours": null,
    "precip_36_hours": null,
    "precip_hourly": null,
    "pressure_tendency": null,
    "sea_level_pressure": null,
    "snow_depth": null,
    "sunshine_minutes": null,
    "temperature_decimal": null
  },
  "runway_visibility": [],
  "sanitized": "KAWO 131917Z 12012KT 10SM SCT025 BKN033 OVC060 11/09 A2953 RMK AO2 RAB03E16 PNO $",
  "station": "KAWO",
  "temperature": {
    "repr": "11",
    "spoken": "one one",
    "value": 11
  },
  "time": {
    "dt": "2024-11-13T19:17:00Z",
    "repr": "131917Z"
  },
  "units": {
    "accumulation": "in",
    "altimeter": "inHg",
    "altitude": "ft",
    "temperature": "C",
    "visibility": "sm",
    "wind_speed": "kt"
  },
  "visibility": {
    "repr": "10",
    "spoken": "one zero",
    "value": 10
  },
  "wind_direction": {
    "repr": "120",
    "spoken": "one two zero",
    "value": 120
  },
  "wind_gust": null,
  "wind_speed": {
    "repr": "12",
    "spoken": "one two",
    "value": 12
  },
  "wind_variable_direction": [],
  "wx_codes": []
}
