{
  "altimeter": {
    "repr": "A3017",
    "spoken": "three zero point one seven",
    "value": 30.17
  },
  "clouds": [
    {
      "altitude": 2,
      "modifier": null,
      "repr": "VV002",
      "type": "VV"
    }
  ],
  "density_altitude": -2078,
  "dewpoint": {
    "repr": "M02",
    "spoken": "minus two",
    "value": -2
  },
  "flight_rules": "LIFR",
  "meta": {
    "cache-timestamp": "2023-11-14T11:20:02.560000Z",
    "stations_updated": "2023-10-28",
    "timestamp": "2023-11-14T11:20:42.619247Z"
  },
  "other": [],
  "pressure_altitude": -108,
  "raw": "KAWO 141056Z AUTO 19003KT 1SM BR VV002 M02/M02 A3017 RMK AO2 VIS 1/2V4 SLP222 T10171022 FZRANO",
  "relative_humidity": 0.9637998860807256,
  "remarks": "RMK AO2 VIS 1/2V4 SLP222 T10171022 FZRANO",
  "remarks_info": {
    "codes": [
      {
        "repr": "AO2",
        "value": "Automated with precipitation sensor"
      },
      {
        "repr": "FZRANO",
        "value": "Freezing rain information not available"
      }
    ],
    "dewpoint_decimal": {
      "repr": "1022",
      "spoken": "minus two point two",
      "value": -2.2
    },
    "maximum_temperature_24": null,
    "maximum_temperature_6": null,
    "minimum_temperature_24": null,
    "minimum_temperature_6": null,
    "precip_24_hours": null,
    "precip_36_hours": null,
    "precip_hourly": null,
    "pressure_tendency": null,
    "sea_level_pressure": {
      "repr": "SLP222",
      "spoken": "one zero two two point two",
      "value": 1022.2
    },
    "snow_depth": null,
    "sunshine_minutes": null,
    "temperature_decimal": {
      "repr": "1017",
      "spoken": "minus one point seven",
      "value": -1.7
    }
  },
  "runway_visibility": [],
  "sanitized": "KAWO 141056Z 19003KT 1SM BR VV002 M02/M02 A3017 RMK AO2 VIS 1/2V4 SLP222 T10171022 FZRANO",
  "station": "KAWO",
  "temperature": {
    "repr": "M02",
    "spoken": "minus two",
    "value": -2
  },
  "time": {
    "dt": "2023-11-14T10:56:00Z",
    "repr": "141056Z"
  },
  "units": {
    "accumulation": "in",
    "altimeter": "inHg",
    "altitude": "ft",
    "temperature": "C",
    "visibility": "sm",
    "wind_speed": "kt"
  },
  "visibility": {
    "repr": "1",
    "spoken": "one",
    "value": 1
  },
  "wind_direction": {
    "repr": "190",
    "spoken": "one nine zero",
    "value": 190
  },
  "wind_gust": null,
  "wind_speed": {
    "repr": "03",
    "spoken": "three",
    "value": 3
  },
  "wind_variable_direction": [],
  "wx_codes": [
    {
      "repr": "BR",
      "value": "Mist"
    }
  ]
}
