{
  "meta": {
    "timestamp": "2023-01-03T02:30:50.755337Z",
    "stations_updated": "2022-12-27",
    "cache-timestamp": "2023-01-03T02:30:08.857000Z"
  },
  "altimeter": {
    "repr": "A2969",
    "value": 29.69,
    "spoken": "two nine point six nine"
  },
  "clouds": [],
  "flight_rules": "VFR",
  "other": [],
  "visibility": {
    "repr": "10",
    "value": 10,
    "spoken": "one zero"
  },
  "wind_direction": {
    "repr": "000",
    "value": 0,
    "spoken": "zero zero zero"
  },
  "wind_gust": null,
  "wind_speed": {
    "repr": "00",
    "value": 0,
    "spoken": "zero"
  },
  "wx_codes": [],
  "raw": "KAWO 030156Z AUTO 00000KT 10SM CLR 01/00 A2969 RMK AO2 SLP059 T00110000 FZRANO",
  "sanitized": "KAWO 030156Z 00000KT 10SM 01/00 A2969 RMK AO2 SLP059 T00110000 FZRANO",
  "station": "KAWO",
  "time": {
    "repr": "030156Z",
    "dt": "2023-01-03T01:56:00Z"
  },
  "remarks": "RMK AO2 SLP059 T00110000 FZRANO",
  "dewpoint": {
    "repr": "00",
    "value": 0,
    "spoken": "zero"
  },
  "relative_humidity": 0.9236108706295763,
  "remarks_info": {
    "maximum_temperature_6": null,
    "minimum_temperature_6": null,
    "pressure_tendency": null,
    "precip_36_hours": null,
    "precip_24_hours": null,
    "sunshine_minutes": null,
    "codes": [
      {
        "repr": "AO2",
        "value": "Automated with precipitation sensor"
      },
      {
        "repr": "FZRANO",
        "value": "Freezing rain information not available"
      }
    ],
    "dewpoint_decimal": {
      "repr": "0000",
      "value": 0,
      "spoken": "zero"
    },
    "maximum_temperature_24": null,
    "minimum_temperature_24": null,
    "precip_hourly": null,
    "sea_level_pressure": {
      "repr": "SLP059",
      "value": 1005.9,
      "spoken": "one zero zero five point nine"
    },
    "snow_depth": null,
    "temperature_decimal": {
      "repr": "0011",
      "value": 1.1,
      "spoken": "one point one"
    }
  },
  "runway_visibility": [],
  "temperature": {
    "repr": "01",
    "value": 1,
    "spoken": "one"
  },
  "wind_variable_direction": [],
  "density_altitude": -1262,
  "pressure_altitude": 372,
  "units": {
    "accumulation": "in",
    "altimeter": "inHg",
    "altitude": "ft",
    "temperature": "C",
    "visibility": "sm",
    "wind_speed": "kt"
  }
}
