{
  "meta": {
    "timestamp": "2023-10-29T23:07:45.083316Z",
    "stations_updated": "2023-10-28",
    "cache-timestamp": "2023-10-29T23:07:05.918000Z"
  },
  "altimeter": {
    "repr": "A3041",
    "value": 30.41,
    "spoken": "three zero point four one"
  },
  "clouds": [],
  "flight_rules": "VFR",
  "other": [],
  "visibility": {
    "repr": "10",
    "value": 10,
    "spoken": "one zero"
  },
  "wind_direction": {
    "repr": "280",
    "value": 280,
    "spoken": "two eight zero"
  },
  "wind_gust": null,
  "wind_speed": {
    "repr": "06",
    "value": 6,
    "spoken": "six"
  },
  "wx_codes": [],
  "raw": "KAWO 292256Z AUTO 28006KT 10SM CLR 12/01 A3041 RMK AO2 SLP303 T01170011",
  "sanitized": "KAWO 292256Z 28006KT 10SM 12/01 A3041 RMK AO2 SLP303 T01170011",
  "station": "KAWO",
  "time": {
    "repr": "292256Z",
    "dt": "2023-10-29T22:56:00Z"
  },
  "remarks": "RMK AO2 SLP303 T01170011",
  "dewpoint": {
    "repr": "01",
    "value": 1,
    "spoken": "one"
  },
  "relative_humidity": 0.48160000835082406,
  "remarks_info": {
    "maximum_temperature_6": null,
    "minimum_temperature_6": null,
    "pressure_tendency": null,
    "precip_36_hours": null,
    "precip_24_hours": null,
    "sunshine_minutes": null,
    "codes": [
      {
        "repr": "AO2",
        "value": "Automated with precipitation sensor"
      }
    ],
    "dewpoint_decimal": {
      "repr": "0011",
      "value": 1.1,
      "spoken": "one point one"
    },
    "maximum_temperature_24": null,
    "minimum_temperature_24": null,
    "precip_hourly": null,
    "sea_level_pressure": {
      "repr": "SLP303",
      "value": 1030.3,
      "spoken": "one zero three zero point three"
    },
    "snow_depth": null,
    "temperature_decimal": {
      "repr": "0117",
      "value": 11.7,
      "spoken": "one one point seven"
    }
  },
  "runway_visibility": [],
  "temperature": {
    "repr": "12",
    "value": 12,
    "spoken": "one two"
  },
  "wind_variable_direction": [],
  "density_altitude": -710,
  "pressure_altitude": -348,
  "units": {
    "accumulation": "in",
    "altimeter": "inHg",
    "altitude": "ft",
    "temperature": "C",
    "visibility": "sm",
    "wind_speed": "kt"
  }
}
