{
  "meta": {
    "timestamp": "2023-07-19T23:01:41.600528Z",
    "stations_updated": "2023-06-06"
  },
  "altimeter": {
    "repr": "A3003",
    "value": 30.03,
    "spoken": "three zero point zero three"
  },
  "clouds": [
    {
      "repr": "FEW002",
      "type": "FEW",
      "altitude": 2,
      "modifier": null
    }
  ],
  "flight_rules": "VFR",
  "other": [],
  "visibility": {
    "repr": "10",
    "value": 10,
    "spoken": "one zero"
  },
  "wind_direction": {
    "repr": "300",
    "value": 300,
    "spoken": "three zero zero"
  },
  "wind_gust": null,
  "wind_speed": {
    "repr": "11",
    "value": 11,
    "spoken": "one one"
  },
  "wx_codes": [],
  "raw": "KAWO 192256Z AUTO 30011KT 10SM FEW002 30/15 A3003 RMK AO2 SLP174 T03000150",
  "sanitized": "KAWO 192256Z 30011KT 10SM FEW002 30/15 A3003 RMK AO2 SLP174 T03000150",
  "station": "KAWO",
  "time": {
    "repr": "192256Z",
    "dt": "2023-07-19T22:56:00Z"
  },
  "remarks": "RMK AO2 SLP174 T03000150",
  "dewpoint": {
    "repr": "15",
    "value": 15,
    "spoken": "one five"
  },
  "relative_humidity": 0.4013706685296691,
  "remarks_info": {
    "maximum_temperature_6": null,
    "minimum_temperature_6": null,
    "pressure_tendency": null,
    "precip_36_hours": null,
    "precip_24_hours": null,
    "sunshine_minutes": null,
    "codes": [
      {
        "repr": "AO2",
        "value": "Automated with precipitation sensor"
      }
    ],
    "dewpoint_decimal": {
      "repr": "0150",
      "value": 15,
      "spoken": "one five point zero"
    },
    "maximum_temperature_24": null,
    "minimum_temperature_24": null,
    "precip_hourly": null,
    "sea_level_pressure": {
      "repr": "SLP174",
      "value": 1017.4,
      "spoken": "one zero one seven point four"
    },
    "snow_depth": null,
    "temperature_decimal": {
      "repr": "0300",
      "value": 30,
      "spoken": "three zero point zero"
    }
  },
  "runway_visibility": [],
  "temperature": {
    "repr": "30",
    "value": 30,
    "spoken": "three zero"
  },
  "wind_variable_direction": [],
  "density_altitude": 1866,
  "pressure_altitude": 32,
  "units": {
    "accumulation": "in",
    "altimeter": "inHg",
    "altitude": "ft",
    "temperature": "C",
    "visibility": "sm",
    "wind_speed": "kt"
  }
}
