{
  "meta": {
    "timestamp": "2023-08-16T22:01:27.829294Z",
    "stations_updated": "2023-08-05"
  },
  "altimeter": {
    "repr": "A2995",
    "value": 29.95,
    "spoken": "two nine point nine five"
  },
  "clouds": [],
  "flight_rules": "VFR",
  "other": [],
  "visibility": {
    "repr": "10",
    "value": 10,
    "spoken": "one zero"
  },
  "wind_direction": {
    "repr": "300",
    "value": 300,
    "spoken": "three zero zero"
  },
  "wind_gust": null,
  "wind_speed": {
    "repr": "09",
    "value": 9,
    "spoken": "nine"
  },
  "wx_codes": [],
  "raw": "KAWO 162156Z AUTO 30009KT 250V330 10SM CLR 33/16 A2995 RMK AO2 SLP143 T03330161",
  "sanitized": "KAWO 162156Z 30009KT 250V330 10SM 33/16 A2995 RMK AO2 SLP143 T03330161",
  "station": "KAWO",
  "time": {
    "repr": "162156Z",
    "dt": "2023-08-16T21:56:00Z"
  },
  "remarks": "RMK AO2 SLP143 T03330161",
  "dewpoint": {
    "repr": "16",
    "value": 16,
    "spoken": "one six"
  },
  "relative_humidity": 0.3570442464633059,
  "remarks_info": {
    "maximum_temperature_6": null,
    "minimum_temperature_6": null,
    "pressure_tendency": null,
    "precip_36_hours": null,
    "precip_24_hours": null,
    "sunshine_minutes": null,
    "codes": [
      {
        "repr": "AO2",
        "value": "Automated with precipitation sensor"
      }
    ],
    "dewpoint_decimal": {
      "repr": "0161",
      "value": 16.1,
      "spoken": "one six point one"
    },
    "maximum_temperature_24": null,
    "minimum_temperature_24": null,
    "precip_hourly": null,
    "sea_level_pressure": {
      "repr": "SLP143",
      "value": 1014.3,
      "spoken": "one zero one four point three"
    },
    "snow_depth": null,
    "temperature_decimal": {
      "repr": "0333",
      "value": 33.3,
      "spoken": "three three point three"
    }
  },
  "runway_visibility": [],
  "temperature": {
    "repr": "33",
    "value": 33,
    "spoken": "three three"
  },
  "wind_variable_direction": [
    {
      "repr": "250",
      "value": 250,
      "spoken": "two five zero"
    },
    {
      "repr": "330",
      "value": 330,
      "spoken": "three three zero"
    }
  ],
  "density_altitude": 2342,
  "pressure_altitude": 112,
  "units": {
    "accumulation": "in",
    "altimeter": "inHg",
    "altitude": "ft",
    "temperature": "C",
    "visibility": "sm",
    "wind_speed": "kt"
  }
}
