{
  "meta": {
    "timestamp": "2023-03-14T21:40:36.956122Z",
    "stations_updated": "2023-03-11",
    "cache-timestamp": "2023-03-14T21:40:06.589000Z"
  },
  "altimeter": {
    "repr": "A2977",
    "value": 29.77,
    "spoken": "two nine point seven seven"
  },
  "clouds": [],
  "flight_rules": "VFR",
  "other": [],
  "visibility": {
    "repr": "10",
    "value": 10,
    "spoken": "one zero"
  },
  "wind_direction": {
    "repr": "000",
    "value": 0,
    "spoken": "zero zero zero"
  },
  "wind_gust": null,
  "wind_speed": {
    "repr": "00",
    "value": 0,
    "spoken": "zero"
  },
  "wx_codes": [],
  "raw": "KAWO 142056Z AUTO 00000KT 10SM CLR 10/M02 A2977 RMK AO2 SLP087 T01001017 58026",
  "sanitized": "KAWO 142056Z 00000KT 10SM 10/M02 A2977 RMK AO2 SLP087 T01001017 58026",
  "station": "KAWO",
  "time": {
    "repr": "142056Z",
    "dt": "2023-03-14T20:56:00Z"
  },
  "remarks": "RMK AO2 SLP087 T01001017 58026",
  "dewpoint": {
    "repr": "M02",
    "value": -2,
    "spoken": "minus two"
  },
  "relative_humidity": 0.4398716983068035,
  "remarks_info": {
    "maximum_temperature_6": null,
    "minimum_temperature_6": null,
    "pressure_tendency": {
      "repr": "58026",
      "tendency": "Steady or increasing, then decreasing",
      "change": 2.6
    },
    "precip_36_hours": null,
    "precip_24_hours": null,
    "sunshine_minutes": null,
    "codes": [
      {
        "repr": "AO2",
        "value": "Automated with precipitation sensor"
      }
    ],
    "dewpoint_decimal": {
      "repr": "1017",
      "value": -1.7,
      "spoken": "minus one point seven"
    },
    "maximum_temperature_24": null,
    "minimum_temperature_24": null,
    "precip_hourly": null,
    "sea_level_pressure": {
      "repr": "SLP087",
      "value": 1008.7,
      "spoken": "one zero zero eight point seven"
    },
    "snow_depth": null,
    "temperature_decimal": {
      "repr": "0100",
      "value": 10,
      "spoken": "one zero point zero"
    }
  },
  "runway_visibility": [],
  "temperature": {
    "repr": "10",
    "value": 10,
    "spoken": "one zero"
  },
  "wind_variable_direction": [],
  "density_altitude": -274,
  "pressure_altitude": 292,
  "units": {
    "accumulation": "in",
    "altimeter": "inHg",
    "altitude": "ft",
    "temperature": "C",
    "visibility": "sm",
    "wind_speed": "kt"
  }
}
