{
  "meta": {
    "timestamp": "2023-09-09T12:07:36.647133Z",
    "stations_updated": "2023-08-05"
  },
  "altimeter": {
    "repr": "A3014",
    "value": 30.14,
    "spoken": "three zero point one four"
  },
  "clouds": [
    {
      "repr": "VV003",
      "type": "VV",
      "altitude": 3,
      "modifier": null
    }
  ],
  "flight_rules": "LIFR",
  "other": [],
  "visibility": {
    "repr": "1/2",
    "value": 0.5,
    "spoken": "one half",
    "numerator": 1,
    "denominator": 2,
    "normalized": "1/2"
  },
  "wind_direction": {
    "repr": "000",
    "value": 0,
    "spoken": "zero zero zero"
  },
  "wind_gust": null,
  "wind_speed": {
    "repr": "00",
    "value": 0,
    "spoken": "zero"
  },
  "wx_codes": [
    {
      "repr": "FG",
      "value": "Fog"
    }
  ],
  "raw": "KAWO 091156Z AUTO 00000KT 1/2SM FG VV003 09/08 A3014 RMK AO2 SLP212 T00890083 10122 20083 53002",
  "sanitized": "KAWO 091156Z 00000KT 1/2SM FG VV003 09/08 A3014 RMK AO2 SLP212 T00890083 10122 20083 53002",
  "station": "KAWO",
  "time": {
    "repr": "091156Z",
    "dt": "2023-09-09T11:56:00Z"
  },
  "remarks": "RMK AO2 SLP212 T00890083 10122 20083 53002",
  "dewpoint": {
    "repr": "08",
    "value": 8,
    "spoken": "eight"
  },
  "relative_humidity": 0.9601937753627737,
  "remarks_info": {
    "maximum_temperature_6": {
      "repr": "10122",
      "value": 12.2,
      "spoken": "one two point two"
    },
    "minimum_temperature_6": {
      "repr": "20083",
      "value": 8.3,
      "spoken": "eight point three"
    },
    "pressure_tendency": {
      "repr": "53002",
      "tendency": "Decreasing or steady, then increasing",
      "change": 0.2
    },
    "precip_36_hours": null,
    "precip_24_hours": null,
    "sunshine_minutes": null,
    "codes": [
      {
        "repr": "AO2",
        "value": "Automated with precipitation sensor"
      }
    ],
    "dewpoint_decimal": {
      "repr": "0083",
      "value": 8.3,
      "spoken": "eight point three"
    },
    "maximum_temperature_24": null,
    "minimum_temperature_24": null,
    "precip_hourly": null,
    "sea_level_pressure": {
      "repr": "SLP212",
      "value": 1021.2,
      "spoken": "one zero two one point two"
    },
    "snow_depth": null,
    "temperature_decimal": {
      "repr": "0089",
      "value": 8.9,
      "spoken": "eight point nine"
    }
  },
  "runway_visibility": [],
  "temperature": {
    "repr": "09",
    "value": 9,
    "spoken": "nine"
  },
  "wind_variable_direction": [],
  "density_altitude": -776,
  "pressure_altitude": -78,
  "units": {
    "accumulation": "in",
    "altimeter": "inHg",
    "altitude": "ft",
    "temperature": "C",
    "visibility": "sm",
    "wind_speed": "kt"
  }
}
