{
  "meta": {
    "timestamp": "2023-05-03T06:40:33.071637Z",
    "stations_updated": "2023-03-11",
    "cache-timestamp": "2023-05-03T06:40:06.332000Z"
  },
  "altimeter": {
    "repr": "A2984",
    "value": 29.84,
    "spoken": "two nine point eight four"
  },
  "clouds": [],
  "flight_rules": "VFR",
  "other": [],
  "visibility": {
    "repr": "10",
    "value": 10,
    "spoken": "one zero"
  },
  "wind_direction": {
    "repr": "000",
    "value": 0,
    "spoken": "zero zero zero"
  },
  "wind_gust": null,
  "wind_speed": {
    "repr": "00",
    "value": 0,
    "spoken": "zero"
  },
  "wx_codes": [],
  "raw": "KAWO 030556Z AUTO 00000KT 10SM CLR 14/12 A2984 RMK AO2 SLP108 T01440117 10211 20128 51029",
  "sanitized": "KAWO 030556Z 00000KT 10SM 14/12 A2984 RMK AO2 SLP108 T01440117 10211 20128 51029",
  "station": "KAWO",
  "time": {
    "repr": "030556Z",
    "dt": "2023-05-03T05:56:00Z"
  },
  "remarks": "RMK AO2 SLP108 T01440117 10211 20128 51029",
  "dewpoint": {
    "repr": "12",
    "value": 12,
    "spoken": "one two"
  },
  "relative_humidity": 0.8381910948619068,
  "remarks_info": {
    "maximum_temperature_6": {
      "repr": "10211",
      "value": 21.1,
      "spoken": "two one point one"
    },
    "minimum_temperature_6": {
      "repr": "20128",
      "value": 12.8,
      "spoken": "one two point eight"
    },
    "pressure_tendency": {
      "repr": "51029",
      "tendency": "Increasing, then steady",
      "change": 2.9
    },
    "precip_36_hours": null,
    "precip_24_hours": null,
    "sunshine_minutes": null,
    "codes": [
      {
        "repr": "AO2",
        "value": "Automated with precipitation sensor"
      }
    ],
    "dewpoint_decimal": {
      "repr": "0117",
      "value": 11.7,
      "spoken": "one one point seven"
    },
    "maximum_temperature_24": null,
    "minimum_temperature_24": null,
    "precip_hourly": null,
    "sea_level_pressure": {
      "repr": "SLP108",
      "value": 1010.8,
      "spoken": "one zero one zero point eight"
    },
    "snow_depth": null,
    "temperature_decimal": {
      "repr": "0144",
      "value": 14.4,
      "spoken": "one four point four"
    }
  },
  "runway_visibility": [],
  "temperature": {
    "repr": "14",
    "value": 14,
    "spoken": "one four"
  },
  "wind_variable_direction": [],
  "density_altitude": 184,
  "pressure_altitude": 222,
  "units": {
    "accumulation": "in",
    "altimeter": "inHg",
    "altitude": "ft",
    "temperature": "C",
    "visibility": "sm",
    "wind_speed": "kt"
  }
}
