{
  "meta": {
    "timestamp": "2022-07-29T22:43:42.988402Z",
    "stations_updated": "2022-07-17"
  },
  "altimeter": {
    "repr": "A2987",
    "value": 29.87,
    "spoken": "two nine point eight seven"
  },
  "clouds": [],
  "flight_rules": "VFR",
  "other": [],
  "visibility": {
    "repr": "10",
    "value": 10,
    "spoken": "one zero"
  },
  "wind_direction": {
    "repr": "310",
    "value": 310,
    "spoken": "three one zero"
  },
  "wind_gust": null,
  "wind_speed": {
    "repr": "09",
    "value": 9,
    "spoken": "nine"
  },
  "wx_codes": [],
  "raw": "KAWO 292156Z AUTO 31009KT 260V330 10SM CLR 32/19 A2987 RMK AO2 SLP119 T03220194",
  "sanitized": "KAWO 292156Z 31009KT 260V330 10SM 32/19 A2987 RMK AO2 SLP119 T03220194",
  "station": "KAWO",
  "time": {
    "repr": "292156Z",
    "dt": "2022-07-29T21:56:00Z"
  },
  "remarks": "RMK AO2 SLP119 T03220194",
  "dewpoint": {
    "repr": "19",
    "value": 19,
    "spoken": "one nine"
  },
  "relative_humidity": 0.46774454921276937,
  "remarks_info": {
    "maximum_temperature_6": null,
    "minimum_temperature_6": null,
    "pressure_tendency": null,
    "precip_36_hours": null,
    "precip_24_hours": null,
    "sunshine_minutes": null,
    "codes": [
      {
        "repr": "AO2",
        "value": "Automated with precipitation sensor"
      }
    ],
    "dewpoint_decimal": {
      "repr": "0194",
      "value": 19.4,
      "spoken": "one nine point four"
    },
    "maximum_temperature_24": null,
    "minimum_temperature_24": null,
    "precip_hourly": null,
    "sea_level_pressure": {
      "repr": "SLP119",
      "value": 1011.9,
      "spoken": "one zero one one point nine"
    },
    "snow_depth": null,
    "temperature_decimal": {
      "repr": "0322",
      "value": 32.2,
      "spoken": "three two point two"
    }
  },
  "runway_visibility": [],
  "temperature": {
    "repr": "32",
    "value": 32,
    "spoken": "three two"
  },
  "wind_variable_direction": [
    {
      "repr": "260",
      "value": 260,
      "spoken": "two six zero"
    },
    {
      "repr": "330",
      "value": 330,
      "spoken": "three three zero"
    }
  ],
  "density_altitude": 2290,
  "pressure_altitude": 192,
  "units": {
    "accumulation": "in",
    "altimeter": "inHg",
    "altitude": "ft",
    "temperature": "C",
    "visibility": "sm",
    "wind_speed": "kt"
  }
}
