{
  "altimeter": {
    "repr": "A3028",
    "spoken": "three zero point two eight",
    "value": 30.28
  },
  "clouds": [],
  "density_altitude": -1648,
  "dewpoint": {
    "repr": "02",
    "spoken": "two",
    "value": 2
  },
  "flight_rules": "VFR",
  "meta": {
    "stations_updated": "2024-12-02",
    "timestamp": "2024-12-31T18:09:11.363504Z"
  },
  "other": [],
  "pressure_altitude": -218,
  "raw": "KAWO 311756Z AUTO 02003KT 10SM CLR 03/02 A3028 RMK AO2 SLP261 60000 T00280022 10033 20000 56004",
  "relative_humidity": 0.958237479247377,
  "remarks": "RMK AO2 SLP261 60000 T00280022 10033 20000 56004",
  "remarks_info": {
    "codes": [
      {
        "repr": "AO2",
        "value": "Automated with precipitation sensor"
      }
    ],
    "dewpoint_decimal": {
      "repr": "0022",
      "spoken": "two point two",
      "value": 2.2
    },
    "maximum_temperature_24": null,
    "maximum_temperature_6": {
      "repr": "10033",
      "spoken": "three point three",
      "value": 3.3
    },
    "minimum_temperature_24": null,
    "minimum_temperature_6": {
      "repr": "20000",
      "spoken": "zero",
      "value": 0
    },
    "precip_24_hours": null,
    "precip_36_hours": {
      "repr": "60000",
      "spoken": "zero",
      "value": 0
    },
    "precip_hourly": null,
    "pressure_tendency": {
      "change": 0.4,
      "repr": "56004",
      "tendency": "Decreasing, then steady"
    },
    "sea_level_pressure": {
      "repr": "SLP261",
      "spoken": "one zero two six point one",
      "value": 1026.1
    },
    "snow_depth": null,
    "sunshine_minutes": null,
    "temperature_decimal": {
      "repr": "0028",
      "spoken": "two point eight",
      "value": 2.8
    }
  },
  "runway_visibility": [],
  "sanitized": "KAWO 311756Z 02003KT 10SM 03/02 A3028 RMK AO2 SLP261 60000 T00280022 10033 20000 56004",
  "station": "KAWO",
  "temperature": {
    "repr": "03",
    "spoken": "three",
    "value": 3
  },
  "time": {
    "dt": "2024-12-31T17:56:00Z",
    "repr": "311756Z"
  },
  "units": {
    "accumulation": "in",
    "altimeter": "inHg",
    "altitude": "ft",
    "temperature": "C",
    "visibility": "sm",
    "wind_speed": "kt"
  },
  "visibility": {
    "repr": "10",
    "spoken": "one zero",
    "value": 10
  },
  "wind_direction": {
    "repr": "020",
    "spoken": "zero two zero",
    "value": 20
  },
  "wind_gust": null,
  "wind_speed": {
    "repr": "03",
    "spoken": "three",
    "value": 3
  },
  "wind_variable_direction": [],
  "wx_codes": []
}
