{
  "altimeter": {
    "repr": "A3002",
    "spoken": "three zero point zero two",
    "value": 30.02
  },
  "clouds": [
    {
      "altitude": 12,
      "modifier": null,
      "repr": "FEW012",
      "type": "FEW"
    },
    {
      "altitude": 50,
      "modifier": null,
      "repr": "BKN050",
      "type": "BKN"
    }
  ],
  "density_altitude": -392,
  "dewpoint": {
    "repr": "08",
    "spoken": "eight",
    "value": 8
  },
  "flight_rules": "VFR",
  "meta": {
    "stations_updated": "2024-06-12",
    "timestamp": "2024-10-21T18:09:52.179007Z"
  },
  "other": [],
  "pressure_altitude": 42,
  "raw": "KAWO 211756Z AUTO 00000KT 10SM FEW012 BKN050 11/08 A3002 RMK AO2 SLP171 6//// T01110083 10117 20094 51006 PNO $",
  "relative_humidity": 0.8286786978983101,
  "remarks": "RMK AO2 SLP171 6//// T01110083 10117 20094 51006 PNO $",
  "remarks_info": {
    "codes": [
      {
        "repr": "$",
        "value": "ASOS requires maintenance"
      },
      {
        "repr": "AO2",
        "value": "Automated with precipitation sensor"
      },
      {
        "repr": "PNO",
        "value": "Precipitation amount not available"
      }
    ],
    "dewpoint_decimal": {
      "repr": "0083",
      "spoken": "eight point three",
      "value": 8.3
    },
    "maximum_temperature_24": null,
    "maximum_temperature_6": {
      "repr": "10117",
      "spoken": "one one point seven",
      "value": 11.7
    },
    "minimum_temperature_24": null,
    "minimum_temperature_6": {
      "repr": "20094",
      "spoken": "nine point four",
      "value": 9.4
    },
    "precip_24_hours": null,
    "precip_36_hours": null,
    "precip_hourly": null,
    "pressure_tendency": {
      "change": 0.6,
      "repr": "51006",
      "tendency": "Increasing, then steady"
    },
    "sea_level_pressure": {
      "repr": "SLP171",
      "spoken": "one zero one seven point one",
      "value": 1017.1
    },
    "snow_depth": null,
    "sunshine_minutes": null,
    "temperature_decimal": {
      "repr": "0111",
      "spoken": "one one point one",
      "value": 11.1
    }
  },
  "runway_visibility": [],
  "sanitized": "KAWO 211756Z 00000KT 10SM FEW012 BKN050 11/08 A3002 RMK AO2 SLP171 6//// T01110083 10117 20094 51006 PNO $",
  "station": "KAWO",
  "temperature": {
    "repr": "11",
    "spoken": "one one",
    "value": 11
  },
  "time": {
    "dt": "2024-10-21T17:56:00Z",
    "repr": "211756Z"
  },
  "units": {
    "accumulation": "in",
    "altimeter": "inHg",
    "altitude": "ft",
    "temperature": "C",
    "visibility": "sm",
    "wind_speed": "kt"
  },
  "visibility": {
    "repr": "10",
    "spoken": "one zero",
    "value": 10
  },
  "wind_direction": {
    "repr": "000",
    "spoken": "zero zero zero",
    "value": 0
  },
  "wind_gust": null,
  "wind_speed": {
    "repr": "00",
    "spoken": "zero",
    "value": 0
  },
  "wind_variable_direction": [],
  "wx_codes": []
}
