{
  "altimeter": {
    "repr": "A2974",
    "spoken": "two nine point seven four",
    "value": 29.74
  },
  "clouds": [
    {
      "altitude": 18,
      "modifier": null,
      "repr": "BKN018",
      "type": "BKN"
    }
  ],
  "density_altitude": -376,
  "dewpoint": {
    "repr": "08",
    "spoken": "eight",
    "value": 8
  },
  "flight_rules": "MVFR",
  "meta": {
    "stations_updated": "2024-12-02",
    "timestamp": "2024-12-24T12:49:57.863026Z"
  },
  "other": [],
  "pressure_altitude": 322,
  "raw": "KAWO 241156Z AUTO 14017G23KT 10SM BKN018 09/08 A2974 RMK AO2 SLP078 60009 70015 T00890078 10128 20083 51022",
  "relative_humidity": 0.9280975124584884,
  "remarks": "RMK AO2 SLP078 60009 70015 T00890078 10128 20083 51022",
  "remarks_info": {
    "codes": [
      {
        "repr": "AO2",
        "value": "Automated with precipitation sensor"
      }
    ],
    "dewpoint_decimal": {
      "repr": "0078",
      "spoken": "seven point eight",
      "value": 7.8
    },
    "maximum_temperature_24": null,
    "maximum_temperature_6": {
      "repr": "10128",
      "spoken": "one two point eight",
      "value": 12.8
    },
    "minimum_temperature_24": null,
    "minimum_temperature_6": {
      "repr": "20083",
      "spoken": "eight point three",
      "value": 8.3
    },
    "precip_24_hours": {
      "repr": "70015",
      "spoken": "zero point one five",
      "value": 0.15
    },
    "precip_36_hours": {
      "repr": "60009",
      "spoken": "zero point zero nine",
      "value": 0.09
    },
    "precip_hourly": null,
    "pressure_tendency": {
      "change": 2.2,
      "repr": "51022",
      "tendency": "Increasing, then steady"
    },
    "sea_level_pressure": {
      "repr": "SLP078",
      "spoken": "one zero zero seven point eight",
      "value": 1007.8
    },
    "snow_depth": null,
    "sunshine_minutes": null,
    "temperature_decimal": {
      "repr": "0089",
      "spoken": "eight point nine",
      "value": 8.9
    }
  },
  "runway_visibility": [],
  "sanitized": "KAWO 241156Z 14017G23KT 10SM BKN018 09/08 A2974 RMK AO2 SLP078 60009 70015 T00890078 10128 20083 51022",
  "station": "KAWO",
  "temperature": {
    "repr": "09",
    "spoken": "nine",
    "value": 9
  },
  "time": {
    "dt": "2024-12-24T11:56:00Z",
    "repr": "241156Z"
  },
  "units": {
    "accumulation": "in",
    "altimeter": "inHg",
    "altitude": "ft",
    "temperature": "C",
    "visibility": "sm",
    "wind_speed": "kt"
  },
  "visibility": {
    "repr": "10",
    "spoken": "one zero",
    "value": 10
  },
  "wind_direction": {
    "repr": "140",
    "spoken": "one four zero",
    "value": 140
  },
  "wind_gust": {
    "repr": "23",
    "spoken": "two three",
    "value": 23
  },
  "wind_speed": {
    "repr": "17",
    "spoken": "one seven",
    "value": 17
  },
  "wind_variable_direction": [],
  "wx_codes": []
}
