{
  "altimeter": {
    "repr": "A3022",
    "spoken": "three zero point two two",
    "value": 30.22
  },
  "clouds": [],
  "density_altitude": -1252,
  "dewpoint": {
    "repr": "05",
    "spoken": "five",
    "value": 5
  },
  "flight_rules": "VFR",
  "meta": {
    "cache-timestamp": "2024-03-18T09:03:05.458000Z",
    "stations_updated": "2024-01-01",
    "timestamp": "2024-03-18T09:03:25.982579Z"
  },
  "other": [],
  "pressure_altitude": -158,
  "raw": "KAWO 180756Z AUTO 00000KT 10SM CLR 06/05 A3022 RMK AO2 SLP237 T00560050 402060033",
  "relative_humidity": 0.9591528252665625,
  "remarks": "RMK AO2 SLP237 T00560050 402060033",
  "remarks_info": {
    "codes": [
      {
        "repr": "AO2",
        "value": "Automated with precipitation sensor"
      }
    ],
    "dewpoint_decimal": {
      "repr": "0050",
      "spoken": "five point zero",
      "value": 5
    },
    "maximum_temperature_24": {
      "repr": "0206",
      "spoken": "two zero point six",
      "value": 20.6
    },
    "maximum_temperature_6": null,
    "minimum_temperature_24": {
      "repr": "0033",
      "spoken": "three point three",
      "value": 3.3
    },
    "minimum_temperature_6": null,
    "precip_24_hours": null,
    "precip_36_hours": null,
    "precip_hourly": null,
    "pressure_tendency": null,
    "sea_level_pressure": {
      "repr": "SLP237",
      "spoken": "one zero two three point seven",
      "value": 1023.7
    },
    "snow_depth": null,
    "sunshine_minutes": null,
    "temperature_decimal": {
      "repr": "0056",
      "spoken": "five point six",
      "value": 5.6
    }
  },
  "runway_visibility": [],
  "sanitized": "KAWO 180756Z 00000KT 10SM 06/05 A3022 RMK AO2 SLP237 T00560050 402060033",
  "station": "KAWO",
  "temperature": {
    "repr": "06",
    "spoken": "six",
    "value": 6
  },
  "time": {
    "dt": "2024-03-18T07:56:00Z",
    "repr": "180756Z"
  },
  "units": {
    "accumulation": "in",
    "altimeter": "inHg",
    "altitude": "ft",
    "temperature": "C",
    "visibility": "sm",
    "wind_speed": "kt"
  },
  "visibility": {
    "repr": "10",
    "spoken": "one zero",
    "value": 10
  },
  "wind_direction": {
    "repr": "000",
    "spoken": "zero zero zero",
    "value": 0
  },
  "wind_gust": null,
  "wind_speed": {
    "repr": "00",
    "spoken": "zero",
    "value": 0
  },
  "wind_variable_direction": [],
  "wx_codes": []
}
