{
  "altimeter": {
    "repr": "A2970",
    "spoken": "two nine point seven zero",
    "value": 29.7
  },
  "clouds": [],
  "density_altitude": 1332,
  "dewpoint": {
    "repr": "17",
    "spoken": "one seven",
    "value": 17
  },
  "flight_rules": "VFR",
  "meta": {
    "stations_updated": "2024-06-12",
    "timestamp": "2024-09-25T00:35:44.503133Z"
  },
  "other": [],
  "pressure_altitude": 362,
  "raw": "KAWO 242356Z AUTO 31010KT 10SM CLR 23/17 A2970 RMK AO2 SLP063 T02280167 10250 20161 56021",
  "relative_humidity": 0.6846963178335045,
  "remarks": "RMK AO2 SLP063 T02280167 10250 20161 56021",
  "remarks_info": {
    "codes": [
      {
        "repr": "AO2",
        "value": "Automated with precipitation sensor"
      }
    ],
    "dewpoint_decimal": {
      "repr": "0167",
      "spoken": "one six point seven",
      "value": 16.7
    },
    "maximum_temperature_24": null,
    "maximum_temperature_6": {
      "repr": "10250",
      "spoken": "two five point zero",
      "value": 25
    },
    "minimum_temperature_24": null,
    "minimum_temperature_6": {
      "repr": "20161",
      "spoken": "one six point one",
      "value": 16.1
    },
    "precip_24_hours": null,
    "precip_36_hours": null,
    "precip_hourly": null,
    "pressure_tendency": {
      "change": 2.1,
      "repr": "56021",
      "tendency": "Decreasing, then steady"
    },
    "sea_level_pressure": {
      "repr": "SLP063",
      "spoken": "one zero zero six point three",
      "value": 1006.3
    },
    "snow_depth": null,
    "sunshine_minutes": null,
    "temperature_decimal": {
      "repr": "0228",
      "spoken": "two two point eight",
      "value": 22.8
    }
  },
  "runway_visibility": [],
  "sanitized": "KAWO 242356Z 31010KT 10SM 23/17 A2970 RMK AO2 SLP063 T02280167 10250 20161 56021",
  "station": "KAWO",
  "temperature": {
    "repr": "23",
    "spoken": "two three",
    "value": 23
  },
  "time": {
    "dt": "2024-09-24T23:56:00Z",
    "repr": "242356Z"
  },
  "units": {
    "accumulation": "in",
    "altimeter": "inHg",
    "altitude": "ft",
    "temperature": "C",
    "visibility": "sm",
    "wind_speed": "kt"
  },
  "visibility": {
    "repr": "10",
    "spoken": "one zero",
    "value": 10
  },
  "wind_direction": {
    "repr": "310",
    "spoken": "three one zero",
    "value": 310
  },
  "wind_gust": null,
  "wind_speed": {
    "repr": "10",
    "spoken": "one zero",
    "value": 10
  },
  "wind_variable_direction": [],
  "wx_codes": []
}
