{
  "meta": {
    "timestamp": "2022-11-11T00:36:55.567513Z",
    "stations_updated": "2022-09-05"
  },
  "altimeter": {
    "repr": "A3035",
    "value": 30.35,
    "spoken": "three zero point three five"
  },
  "clouds": [
    {
      "repr": "OVC050",
      "type": "OVC",
      "altitude": 50,
      "modifier": null
    }
  ],
  "flight_rules": "VFR",
  "other": [],
  "visibility": {
    "repr": "10",
    "value": 10,
    "spoken": "one zero"
  },
  "wind_direction": {
    "repr": "030",
    "value": 30,
    "spoken": "zero three zero"
  },
  "wind_gust": null,
  "wind_speed": {
    "repr": "04",
    "value": 4,
    "spoken": "four"
  },
  "wx_codes": [],
  "raw": "KAWO 102356Z AUTO 03004KT 10SM OVC050 07/M02 A3035 RMK AO2 SLP285 T00721017 10083 20044 56010",
  "sanitized": "KAWO 102356Z 03004KT 10SM OVC050 07/M02 A3035 RMK AO2 SLP285 T00721017 10083 20044 56010",
  "station": "KAWO",
  "time": {
    "repr": "102356Z",
    "dt": "2022-11-10T23:56:00Z"
  },
  "remarks": "RMK AO2 SLP285 T00721017 10083 20044 56010",
  "dewpoint": {
    "repr": "M02",
    "value": -2,
    "spoken": "minus two"
  },
  "relative_humidity": 0.5316840595733544,
  "remarks_info": {
    "maximum_temperature_6": {
      "repr": "10083",
      "value": 8.3,
      "spoken": "eight point three"
    },
    "minimum_temperature_6": {
      "repr": "20044",
      "value": 4.4,
      "spoken": "four point four"
    },
    "pressure_tendency": {
      "repr": "56010",
      "tendency": "Decreasing, then steady",
      "change": 1
    },
    "precip_36_hours": null,
    "precip_24_hours": null,
    "sunshine_minutes": null,
    "codes": [
      {
        "repr": "AO2",
        "value": "Automated with precipitation sensor"
      }
    ],
    "dewpoint_decimal": {
      "repr": "1017",
      "value": -1.7,
      "spoken": "minus one point seven"
    },
    "maximum_temperature_24": null,
    "minimum_temperature_24": null,
    "precip_hourly": null,
    "sea_level_pressure": {
      "repr": "SLP285",
      "value": 1028.5,
      "spoken": "one zero two eight point five"
    },
    "snow_depth": null,
    "temperature_decimal": {
      "repr": "0072",
      "value": 7.2,
      "spoken": "seven point two"
    }
  },
  "runway_visibility": [],
  "temperature": {
    "repr": "07",
    "value": 7,
    "spoken": "seven"
  },
  "wind_variable_direction": [],
  "density_altitude": -1190,
  "pressure_altitude": -288,
  "units": {
    "accumulation": "in",
    "altimeter": "inHg",
    "altitude": "ft",
    "temperature": "C",
    "visibility": "sm",
    "wind_speed": "kt"
  }
}
