{
  "altimeter": {
    "repr": "A3031",
    "spoken": "three zero point three one",
    "value": 30.31
  },
  "clouds": [
    {
      "altitude": 2,
      "modifier": null,
      "repr": "FEW002",
      "type": "FEW"
    }
  ],
  "density_altitude": -1774,
  "dewpoint": {
    "repr": "01",
    "spoken": "one",
    "value": 1
  },
  "flight_rules": "VFR",
  "meta": {
    "stations_updated": "2024-12-02",
    "timestamp": "2024-12-04T18:41:03.672187Z"
  },
  "other": [],
  "pressure_altitude": -248,
  "raw": "KAWO 041821Z AUTO 17004KT 10SM FEW002 02/01 A3031 RMK AO2 FZRANO",
  "relative_humidity": 0.9308276135609017,
  "remarks": "RMK AO2 FZRANO",
  "remarks_info": {
    "codes": [
      {
        "repr": "AO2",
        "value": "Automated with precipitation sensor"
      },
      {
        "repr": "FZRANO",
        "value": "Freezing rain information not available"
      }
    ],
    "dewpoint_decimal": null,
    "maximum_temperature_24": null,
    "maximum_temperature_6": null,
    "minimum_temperature_24": null,
    "minimum_temperature_6": null,
    "precip_24_hours": null,
    "precip_36_hours": null,
    "precip_hourly": null,
    "pressure_tendency": null,
    "sea_level_pressure": null,
    "snow_depth": null,
    "sunshine_minutes": null,
    "temperature_decimal": null
  },
  "runway_visibility": [],
  "sanitized": "KAWO 041821Z 17004KT 10SM FEW002 02/01 A3031 RMK AO2 FZRANO",
  "station": "KAWO",
  "temperature": {
    "repr": "02",
    "spoken": "two",
    "value": 2
  },
  "time": {
    "dt": "2024-12-04T18:21:00Z",
    "repr": "041821Z"
  },
  "units": {
    "accumulation": "in",
    "altimeter": "inHg",
    "altitude": "ft",
    "temperature": "C",
    "visibility": "sm",
    "wind_speed": "kt"
  },
  "visibility": {
    "repr": "10",
    "spoken": "one zero",
    "value": 10
  },
  "wind_direction": {
    "repr": "170",
    "spoken": "one seven zero",
    "value": 170
  },
  "wind_gust": null,
  "wind_speed": {
    "repr": "04",
    "spoken": "four",
    "value": 4
  },
  "wind_variable_direction": [],
  "wx_codes": []
}
