{
  "altimeter": {
    "repr": "A2988",
    "spoken": "two nine point eight eight",
    "value": 29.88
  },
  "clouds": [
    {
      "altitude": 9,
      "modifier": null,
      "repr": "BKN009",
      "type": "BKN"
    },
    {
      "altitude": 14,
      "modifier": null,
      "repr": "OVC014",
      "type": "OVC"
    }
  ],
  "density_altitude": 96,
  "dewpoint": {
    "repr": "13",
    "spoken": "one three",
    "value": 13
  },
  "flight_rules": "IFR",
  "meta": {
    "stations_updated": "2023-10-28",
    "timestamp": "2023-12-05T12:43:06.395495Z"
  },
  "other": [],
  "pressure_altitude": 182,
  "raw": "KAWO 051234Z AUTO 27010KT 10SM RA BKN009 OVC014 14/13 A2988 RMK AO2 CIG 005V011 P0005",
  "relative_humidity": 0.9369330286066342,
  "remarks": "RMK AO2 CIG 005V011 P0005",
  "remarks_info": {
    "codes": [
      {
        "repr": "AO2",
        "value": "Automated with precipitation sensor"
      }
    ],
    "dewpoint_decimal": null,
    "maximum_temperature_24": null,
    "maximum_temperature_6": null,
    "minimum_temperature_24": null,
    "minimum_temperature_6": null,
    "precip_24_hours": null,
    "precip_36_hours": null,
    "precip_hourly": {
      "repr": "P0005",
      "spoken": "zero point zero five",
      "value": 0.05
    },
    "pressure_tendency": null,
    "sea_level_pressure": null,
    "snow_depth": null,
    "sunshine_minutes": null,
    "temperature_decimal": null
  },
  "runway_visibility": [],
  "sanitized": "KAWO 051234Z 27010KT 10SM RA BKN009 OVC014 14/13 A2988 RMK AO2 CIG 005V011 P0005",
  "station": "KAWO",
  "temperature": {
    "repr": "14",
    "spoken": "one four",
    "value": 14
  },
  "time": {
    "dt": "2023-12-05T12:34:00Z",
    "repr": "051234Z"
  },
  "units": {
    "accumulation": "in",
    "altimeter": "inHg",
    "altitude": "ft",
    "temperature": "C",
    "visibility": "sm",
    "wind_speed": "kt"
  },
  "visibility": {
    "repr": "10",
    "spoken": "one zero",
    "value": 10
  },
  "wind_direction": {
    "repr": "270",
    "spoken": "two seven zero",
    "value": 270
  },
  "wind_gust": null,
  "wind_speed": {
    "repr": "10",
    "spoken": "one zero",
    "value": 10
  },
  "wind_variable_direction": [],
  "wx_codes": [
    {
      "repr": "RA",
      "value": "Rain"
    }
  ]
}
