{
  "meta": {
    "timestamp": "2023-10-17T16:41:57.192794Z",
    "stations_updated": "2023-10-01"
  },
  "altimeter": {
    "repr": "A3021",
    "value": 30.21,
    "spoken": "three zero point two one"
  },
  "clouds": [
    {
      "repr": "BKN022",
      "type": "BKN",
      "altitude": 22,
      "modifier": null
    },
    {
      "repr": "BKN027",
      "type": "BKN",
      "altitude": 27,
      "modifier": null
    },
    {
      "repr": "BKN032",
      "type": "BKN",
      "altitude": 32,
      "modifier": null
    }
  ],
  "flight_rules": "MVFR",
  "other": [],
  "visibility": {
    "repr": "10",
    "value": 10,
    "spoken": "one zero"
  },
  "wind_direction": {
    "repr": "360",
    "value": 360,
    "spoken": "three six zero"
  },
  "wind_gust": null,
  "wind_speed": {
    "repr": "05",
    "value": 5,
    "spoken": "five"
  },
  "wx_codes": [],
  "raw": "KAWO 171618Z AUTO 36005KT 10SM BKN022 BKN027 BKN032 11/09 A3021 RMK AO2 KAWO 171556Z AUTO 00000KT 10SM SCT022 BKN030 10/09 A3020 RMK AO2 SLP231 T01000089 KAWO 171535Z AUTO 00000KT 10SM SCT022 BKN028 09/08 A3021 RMK AO2 KAWO 171456Z AUTO 02004KT 10SM FEW027 08/08 A3020 RMK AO2 SLP232 T00830078 53008",
  "sanitized": "KAWO 171618Z 36005KT 10SM BKN022 BKN027 BKN032 11/09 A3021 RMK AO2 KAWO 171556Z AUTO 00000KT 10SM SCT022 BKN030 10/09 A3020 RMK AO2 SLP231 T01000089 KAWO 171535Z AUTO 00000KT 10SM SCT022 BKN028 09/08 A3021 RMK AO2 KAWO 171456Z AUTO 02004KT 10SM FEW027 08/08 A3020 RMK AO2 SLP232 T00830078 53008",
  "station": "KAWO",
  "time": {
    "repr": "171618Z",
    "dt": "2023-10-17T16:18:00Z"
  },
  "remarks": "RMK AO2 KAWO 171556Z AUTO 00000KT 10SM SCT022 BKN030 10/09 A3020 RMK AO2 SLP231 T01000089 KAWO 171535Z AUTO 00000KT 10SM SCT022 BKN028 09/08 A3021 RMK AO2 KAWO 171456Z AUTO 02004KT 10SM FEW027 08/08 A3020 RMK AO2 SLP232 T00830078 53008",
  "dewpoint": {
    "repr": "09",
    "value": 9,
    "spoken": "nine"
  },
  "relative_humidity": 0.9665731399975396,
  "remarks_info": {
    "maximum_temperature_6": null,
    "minimum_temperature_6": null,
    "pressure_tendency": {
      "repr": "53008",
      "tendency": "Decreasing or steady, then increasing",
      "change": 0.8
    },
    "precip_36_hours": null,
    "precip_24_hours": null,
    "sunshine_minutes": null,
    "codes": [
      {
        "repr": "AO2",
        "value": "Automated with precipitation sensor"
      },
      {
        "repr": "AO2",
        "value": "Automated with precipitation sensor"
      },
      {
        "repr": "AO2",
        "value": "Automated with precipitation sensor"
      },
      {
        "repr": "AO2",
        "value": "Automated with precipitation sensor"
      }
    ],
    "dewpoint_decimal": {
      "repr": "0078",
      "value": 7.8,
      "spoken": "seven point eight"
    },
    "maximum_temperature_24": null,
    "minimum_temperature_24": null,
    "precip_hourly": null,
    "sea_level_pressure": {
      "repr": "SLP231",
      "value": 1023.1,
      "spoken": "one zero two three point one"
    },
    "snow_depth": null,
    "temperature_decimal": {
      "repr": "0083",
      "value": 8.3,
      "spoken": "eight point three"
    }
  },
  "runway_visibility": [],
  "temperature": {
    "repr": "11",
    "value": 11,
    "spoken": "one one"
  },
  "wind_variable_direction": [],
  "density_altitude": -918,
  "pressure_altitude": -148,
  "units": {
    "accumulation": "in",
    "altimeter": "inHg",
    "altitude": "ft",
    "temperature": "C",
    "visibility": "sm",
    "wind_speed": "kt"
  }
}
