{
  "meta": {
    "timestamp": "2022-12-26T08:13:57.726057Z",
    "stations_updated": "2022-09-05"
  },
  "altimeter": {
    "repr": "A2989",
    "value": 29.89,
    "spoken": "two nine point eight nine"
  },
  "clouds": [
    {
      "repr": "FEW019",
      "type": "FEW",
      "altitude": 19,
      "modifier": null
    },
    {
      "repr": "BKN027",
      "type": "BKN",
      "altitude": 27,
      "modifier": null
    },
    {
      "repr": "OVC041",
      "type": "OVC",
      "altitude": 41,
      "modifier": null
    }
  ],
  "flight_rules": "MVFR",
  "other": [],
  "visibility": {
    "repr": "10",
    "value": 10,
    "spoken": "one zero"
  },
  "wind_direction": {
    "repr": "140",
    "value": 140,
    "spoken": "one four zero"
  },
  "wind_gust": null,
  "wind_speed": {
    "repr": "10",
    "value": 10,
    "spoken": "one zero"
  },
  "wx_codes": [
    {
      "repr": "-RA",
      "value": "Light Rain"
    }
  ],
  "raw": "KAWO 260756Z AUTO 14010KT 10SM -RA FEW019 BKN027 OVC041 11/11 A2989 RMK AO2 SLP127 P0010 T01110106 401220072",
  "sanitized": "KAWO 260756Z 14010KT 10SM -RA FEW019 BKN027 OVC041 11/11 A2989 RMK AO2 SLP127 P0010 T01110106 401220072",
  "station": "KAWO",
  "time": {
    "repr": "260756Z",
    "dt": "2022-12-26T07:56:00Z"
  },
  "remarks": "RMK AO2 SLP127 P0010 T01110106 401220072",
  "dewpoint": {
    "repr": "11",
    "value": 11,
    "spoken": "one one"
  },
  "relative_humidity": 0.9672929424668637,
  "remarks_info": {
    "maximum_temperature_6": null,
    "minimum_temperature_6": null,
    "pressure_tendency": null,
    "precip_36_hours": null,
    "precip_24_hours": null,
    "sunshine_minutes": null,
    "codes": [
      {
        "repr": "AO2",
        "value": "Automated with precipitation sensor"
      }
    ],
    "dewpoint_decimal": {
      "repr": "0106",
      "value": 10.6,
      "spoken": "one zero point six"
    },
    "maximum_temperature_24": {
      "repr": "0122",
      "value": 12.2,
      "spoken": "one two point two"
    },
    "minimum_temperature_24": {
      "repr": "0072",
      "value": 7.2,
      "spoken": "seven point two"
    },
    "precip_hourly": {
      "repr": "P0010",
      "value": 0.1,
      "spoken": "zero point one"
    },
    "sea_level_pressure": {
      "repr": "SLP127",
      "value": 1012.7,
      "spoken": "one zero one two point seven"
    },
    "snow_depth": null,
    "temperature_decimal": {
      "repr": "0111",
      "value": 11.1,
      "spoken": "one one point one"
    }
  },
  "runway_visibility": [],
  "temperature": {
    "repr": "11",
    "value": 11,
    "spoken": "one one"
  },
  "wind_variable_direction": [],
  "density_altitude": -262,
  "pressure_altitude": 172,
  "units": {
    "accumulation": "in",
    "altimeter": "inHg",
    "altitude": "ft",
    "temperature": "C",
    "visibility": "sm",
    "wind_speed": "kt"
  }
}
