{
  "meta": {
    "timestamp": "2022-12-28T04:30:49.799619Z",
    "stations_updated": "2022-09-05"
  },
  "altimeter": {
    "repr": "A2934",
    "value": 29.34,
    "spoken": "two nine point three four"
  },
  "clouds": [
    {
      "repr": "FEW019",
      "type": "FEW",
      "altitude": 19,
      "modifier": null
    },
    {
      "repr": "BKN034",
      "type": "BKN",
      "altitude": 34,
      "modifier": null
    },
    {
      "repr": "OVC041",
      "type": "OVC",
      "altitude": 41,
      "modifier": null
    }
  ],
  "flight_rules": "VFR",
  "other": [],
  "visibility": {
    "repr": "10",
    "value": 10,
    "spoken": "one zero"
  },
  "wind_direction": {
    "repr": "060",
    "value": 60,
    "spoken": "zero six zero"
  },
  "wind_gust": null,
  "wind_speed": {
    "repr": "05",
    "value": 5,
    "spoken": "five"
  },
  "wx_codes": [
    {
      "repr": "RA",
      "value": "Rain"
    }
  ],
  "raw": "KAWO 280356Z AUTO 06005KT 10SM RA FEW019 BKN034 OVC041 08/06 A2934 RMK AO2 SLP938 P0019 T00780061",
  "sanitized": "KAWO 280356Z 06005KT 10SM RA FEW019 BKN034 OVC041 08/06 A2934 RMK AO2 SLP938 P0019 T00780061",
  "station": "KAWO",
  "time": {
    "repr": "280356Z",
    "dt": "2022-12-28T03:56:00Z"
  },
  "remarks": "RMK AO2 SLP938 P0019 T00780061",
  "dewpoint": {
    "repr": "06",
    "value": 6,
    "spoken": "six"
  },
  "relative_humidity": 0.8899294340036578,
  "remarks_info": {
    "maximum_temperature_6": null,
    "minimum_temperature_6": null,
    "pressure_tendency": null,
    "precip_36_hours": null,
    "precip_24_hours": null,
    "sunshine_minutes": null,
    "codes": [
      {
        "repr": "AO2",
        "value": "Automated with precipitation sensor"
      }
    ],
    "dewpoint_decimal": {
      "repr": "0061",
      "value": 6.1,
      "spoken": "six point one"
    },
    "maximum_temperature_24": null,
    "minimum_temperature_24": null,
    "precip_hourly": {
      "repr": "P0019",
      "value": 0.19,
      "spoken": "zero point one nine"
    },
    "sea_level_pressure": {
      "repr": "SLP938",
      "value": 993.8,
      "spoken": "nine nine three point eight"
    },
    "snow_depth": null,
    "temperature_decimal": {
      "repr": "0078",
      "value": 7.8,
      "spoken": "seven point eight"
    }
  },
  "runway_visibility": [],
  "temperature": {
    "repr": "08",
    "value": 8,
    "spoken": "eight"
  },
  "wind_variable_direction": [],
  "density_altitude": -108,
  "pressure_altitude": 722,
  "units": {
    "accumulation": "in",
    "altimeter": "inHg",
    "altitude": "ft",
    "temperature": "C",
    "visibility": "sm",
    "wind_speed": "kt"
  }
}
