{
  "altimeter": {
    "repr": "A3019",
    "spoken": "three zero point one nine",
    "value": 30.19
  },
  "clouds": [
    {
      "altitude": 19,
      "modifier": null,
      "repr": "FEW019",
      "type": "FEW"
    },
    {
      "altitude": 32,
      "modifier": null,
      "repr": "OVC032",
      "type": "OVC"
    }
  ],
  "density_altitude": -1090,
  "dewpoint": {
    "repr": "06",
    "spoken": "six",
    "value": 6
  },
  "flight_rules": "VFR",
  "meta": {
    "cache-timestamp": "2024-04-07T08:40:05.164000Z",
    "stations_updated": "2024-01-01",
    "timestamp": "2024-04-07T08:40:34.128656Z"
  },
  "other": [],
  "pressure_altitude": -128,
  "raw": "KAWO 070756Z AUTO 16003KT 10SM -RA FEW019 OVC032 07/06 A3019 RMK AO2 SLP226 P0001 T00670061 401110061",
  "relative_humidity": 0.9595042676817481,
  "remarks": "RMK AO2 SLP226 P0001 T00670061 401110061",
  "remarks_info": {
    "codes": [
      {
        "repr": "AO2",
        "value": "Automated with precipitation sensor"
      }
    ],
    "dewpoint_decimal": {
      "repr": "0061",
      "spoken": "six point one",
      "value": 6.1
    },
    "maximum_temperature_24": {
      "repr": "0111",
      "spoken": "one one point one",
      "value": 11.1
    },
    "maximum_temperature_6": null,
    "minimum_temperature_24": {
      "repr": "0061",
      "spoken": "six point one",
      "value": 6.1
    },
    "minimum_temperature_6": null,
    "precip_24_hours": null,
    "precip_36_hours": null,
    "precip_hourly": {
      "repr": "P0001",
      "spoken": "zero point zero one",
      "value": 0.01
    },
    "pressure_tendency": null,
    "sea_level_pressure": {
      "repr": "SLP226",
      "spoken": "one zero two two point six",
      "value": 1022.6
    },
    "snow_depth": null,
    "sunshine_minutes": null,
    "temperature_decimal": {
      "repr": "0067",
      "spoken": "six point seven",
      "value": 6.7
    }
  },
  "runway_visibility": [],
  "sanitized": "KAWO 070756Z 16003KT 10SM -RA FEW019 OVC032 07/06 A3019 RMK AO2 SLP226 P0001 T00670061 401110061",
  "station": "KAWO",
  "temperature": {
    "repr": "07",
    "spoken": "seven",
    "value": 7
  },
  "time": {
    "dt": "2024-04-07T07:56:00Z",
    "repr": "070756Z"
  },
  "units": {
    "accumulation": "in",
    "altimeter": "inHg",
    "altitude": "ft",
    "temperature": "C",
    "visibility": "sm",
    "wind_speed": "kt"
  },
  "visibility": {
    "repr": "10",
    "spoken": "one zero",
    "value": 10
  },
  "wind_direction": {
    "repr": "160",
    "spoken": "one six zero",
    "value": 160
  },
  "wind_gust": null,
  "wind_speed": {
    "repr": "03",
    "spoken": "three",
    "value": 3
  },
  "wind_variable_direction": [],
  "wx_codes": [
    {
      "repr": "-RA",
      "value": "Light Rain"
    }
  ]
}
