{
  "altimeter": {
    "repr": "A2959",
    "spoken": "two nine point five nine",
    "value": 29.59
  },
  "clouds": [
    {
      "altitude": 27,
      "modifier": null,
      "repr": "OVC027",
      "type": "OVC"
    }
  ],
  "density_altitude": -226,
  "dewpoint": {
    "repr": "07",
    "spoken": "seven",
    "value": 7
  },
  "flight_rules": "MVFR",
  "meta": {
    "stations_updated": "2024-01-01",
    "timestamp": "2024-03-24T00:29:39.457368Z"
  },
  "other": [],
  "pressure_altitude": 472,
  "raw": "KAWO 232356Z AUTO 00000KT 10SM -RA OVC027 09/07 A2959 RMK AO2 SLP023 P0001 60039 T00890067 10094 20083 53000",
  "relative_humidity": 0.8608000212004648,
  "remarks": "RMK AO2 SLP023 P0001 60039 T00890067 10094 20083 53000",
  "remarks_info": {
    "codes": [
      {
        "repr": "AO2",
        "value": "Automated with precipitation sensor"
      }
    ],
    "dewpoint_decimal": {
      "repr": "0067",
      "spoken": "six point seven",
      "value": 6.7
    },
    "maximum_temperature_24": null,
    "maximum_temperature_6": {
      "repr": "10094",
      "spoken": "nine point four",
      "value": 9.4
    },
    "minimum_temperature_24": null,
    "minimum_temperature_6": {
      "repr": "20083",
      "spoken": "eight point three",
      "value": 8.3
    },
    "precip_24_hours": null,
    "precip_36_hours": {
      "repr": "60039",
      "spoken": "zero point three nine",
      "value": 0.39
    },
    "precip_hourly": {
      "repr": "P0001",
      "spoken": "zero point zero one",
      "value": 0.01
    },
    "pressure_tendency": {
      "change": 0,
      "repr": "53000",
      "tendency": "Decreasing or steady, then increasing"
    },
    "sea_level_pressure": {
      "repr": "SLP023",
      "spoken": "one zero zero two point three",
      "value": 1002.3
    },
    "snow_depth": null,
    "sunshine_minutes": null,
    "temperature_decimal": {
      "repr": "0089",
      "spoken": "eight point nine",
      "value": 8.9
    }
  },
  "runway_visibility": [],
  "sanitized": "KAWO 232356Z 00000KT 10SM -RA OVC027 09/07 A2959 RMK AO2 SLP023 P0001 60039 T00890067 10094 20083 53000",
  "station": "KAWO",
  "temperature": {
    "repr": "09",
    "spoken": "nine",
    "value": 9
  },
  "time": {
    "dt": "2024-03-23T23:56:00Z",
    "repr": "232356Z"
  },
  "units": {
    "accumulation": "in",
    "altimeter": "inHg",
    "altitude": "ft",
    "temperature": "C",
    "visibility": "sm",
    "wind_speed": "kt"
  },
  "visibility": {
    "repr": "10",
    "spoken": "one zero",
    "value": 10
  },
  "wind_direction": {
    "repr": "000",
    "spoken": "zero zero zero",
    "value": 0
  },
  "wind_gust": null,
  "wind_speed": {
    "repr": "00",
    "spoken": "zero",
    "value": 0
  },
  "wind_variable_direction": [],
  "wx_codes": [
    {
      "repr": "-RA",
      "value": "Light Rain"
    }
  ]
}
