{
  "meta": {
    "timestamp": "2022-08-25T06:20:10.775136Z",
    "stations_updated": "2022-07-17"
  },
  "altimeter": {
    "repr": "A2991",
    "value": 29.91,
    "spoken": "two nine point nine one"
  },
  "clouds": [],
  "flight_rules": "VFR",
  "other": [],
  "visibility": {
    "repr": "10",
    "value": 10,
    "spoken": "one zero"
  },
  "wind_direction": {
    "repr": "000",
    "value": 0,
    "spoken": "zero zero zero"
  },
  "wind_gust": null,
  "wind_speed": {
    "repr": "00",
    "value": 0,
    "spoken": "zero"
  },
  "wx_codes": [],
  "raw": "KAWO 250556Z AUTO 00000KT 10SM CLR 19/16 A2991 RMK AO2 SLP133 T01940161 10289 20194 51015",
  "sanitized": "KAWO 250556Z 00000KT 10SM 19/16 A2991 RMK AO2 SLP133 T01940161 10289 20194 51015",
  "station": "KAWO",
  "time": {
    "repr": "250556Z",
    "dt": "2022-08-25T05:56:00Z"
  },
  "remarks": "RMK AO2 SLP133 T01940161 10289 20194 51015",
  "dewpoint": {
    "repr": "16",
    "value": 16,
    "spoken": "one six"
  },
  "relative_humidity": 0.8121716951041594,
  "remarks_info": {
    "maximum_temperature_6": {
      "repr": "10289",
      "value": 28.9,
      "spoken": "two eight point nine"
    },
    "minimum_temperature_6": {
      "repr": "20194",
      "value": 19.4,
      "spoken": "one nine point four"
    },
    "pressure_tendency": {
      "repr": "51015",
      "tendency": "Increasing, then steady",
      "change": 1.5
    },
    "precip_36_hours": null,
    "precip_24_hours": null,
    "sunshine_minutes": null,
    "codes": [
      {
        "repr": "AO2",
        "value": "Automated with precipitation sensor"
      }
    ],
    "dewpoint_decimal": {
      "repr": "0161",
      "value": 16.1,
      "spoken": "one six point one"
    },
    "maximum_temperature_24": null,
    "minimum_temperature_24": null,
    "precip_hourly": null,
    "sea_level_pressure": {
      "repr": "SLP133",
      "value": 1013.3,
      "spoken": "one zero one three point three"
    },
    "snow_depth": null,
    "temperature_decimal": {
      "repr": "0194",
      "value": 19.4,
      "spoken": "one nine point four"
    }
  },
  "runway_visibility": [],
  "temperature": {
    "repr": "19",
    "value": 19,
    "spoken": "one nine"
  },
  "wind_variable_direction": [],
  "density_altitude": 714,
  "pressure_altitude": 152,
  "units": {
    "accumulation": "in",
    "altimeter": "inHg",
    "altitude": "ft",
    "temperature": "C",
    "visibility": "sm",
    "wind_speed": "kt"
  }
}
