{
  "meta": {
    "timestamp": "2023-01-03T00:27:42.171250Z",
    "stations_updated": "2022-12-27"
  },
  "altimeter": {
    "repr": "A2968",
    "value": 29.68,
    "spoken": "two nine point six eight"
  },
  "clouds": [],
  "flight_rules": "VFR",
  "other": [],
  "visibility": {
    "repr": "10",
    "value": 10,
    "spoken": "one zero"
  },
  "wind_direction": {
    "repr": "000",
    "value": 0,
    "spoken": "zero zero zero"
  },
  "wind_gust": null,
  "wind_speed": {
    "repr": "00",
    "value": 0,
    "spoken": "zero"
  },
  "wx_codes": [],
  "raw": "KAWO 022356Z AUTO 00000KT 10SM CLR 07/01 A2968 RMK AO2 SLP056 T00720006 10083 21006 50000",
  "sanitized": "KAWO 022356Z 00000KT 10SM 07/01 A2968 RMK AO2 SLP056 T00720006 10083 21006 50000",
  "station": "KAWO",
  "time": {
    "repr": "022356Z",
    "dt": "2023-01-02T23:56:00Z"
  },
  "remarks": "RMK AO2 SLP056 T00720006 10083 21006 50000",
  "dewpoint": {
    "repr": "01",
    "value": 1,
    "spoken": "one"
  },
  "relative_humidity": 0.6287371151696204,
  "remarks_info": {
    "maximum_temperature_6": {
      "repr": "10083",
      "value": 8.3,
      "spoken": "eight point three"
    },
    "minimum_temperature_6": {
      "repr": "21006",
      "value": -0.6,
      "spoken": "minus zero point six"
    },
    "pressure_tendency": {
      "repr": "50000",
      "tendency": "Increasing, then decreasing",
      "change": 0
    },
    "precip_36_hours": null,
    "precip_24_hours": null,
    "sunshine_minutes": null,
    "codes": [
      {
        "repr": "AO2",
        "value": "Automated with precipitation sensor"
      }
    ],
    "dewpoint_decimal": {
      "repr": "0006",
      "value": 0.6,
      "spoken": "zero point six"
    },
    "maximum_temperature_24": null,
    "minimum_temperature_24": null,
    "precip_hourly": null,
    "sea_level_pressure": {
      "repr": "SLP056",
      "value": 1005.6,
      "spoken": "one zero zero five point six"
    },
    "snow_depth": null,
    "temperature_decimal": {
      "repr": "0072",
      "value": 7.2,
      "spoken": "seven point two"
    }
  },
  "runway_visibility": [],
  "temperature": {
    "repr": "07",
    "value": 7,
    "spoken": "seven"
  },
  "wind_variable_direction": [],
  "density_altitude": -520,
  "pressure_altitude": 382,
  "units": {
    "accumulation": "in",
    "altimeter": "inHg",
    "altitude": "ft",
    "temperature": "C",
    "visibility": "sm",
    "wind_speed": "kt"
  }
}
