{
  "meta": {
    "timestamp": "2023-02-19T05:40:39.141841Z",
    "stations_updated": "2023-01-30",
    "cache-timestamp": "2023-02-19T05:40:05.281000Z"
  },
  "altimeter": {
    "repr": "A3023",
    "value": 30.23,
    "spoken": "three zero point two three"
  },
  "clouds": [],
  "flight_rules": "LIFR",
  "other": [],
  "visibility": {
    "repr": "1/4",
    "value": 0.25,
    "spoken": "one quarter",
    "numerator": 1,
    "denominator": 4,
    "normalized": "1/4"
  },
  "wind_direction": {
    "repr": "000",
    "value": 0,
    "spoken": "zero zero zero"
  },
  "wind_gust": null,
  "wind_speed": {
    "repr": "00",
    "value": 0,
    "spoken": "zero"
  },
  "wx_codes": [
    {
      "repr": "FG",
      "value": "Fog"
    }
  ],
  "raw": "KAWO 190527Z AUTO 00000KT 1/4SM FG 02/01 A3023 RMK AO2 FZRANO",
  "sanitized": "KAWO 190527Z 00000KT 1/4SM FG 02/01 A3023 RMK AO2 FZRANO",
  "station": "KAWO",
  "time": {
    "repr": "190527Z",
    "dt": "2023-02-19T05:27:00Z"
  },
  "remarks": "RMK AO2 FZRANO",
  "dewpoint": {
    "repr": "01",
    "value": 1,
    "spoken": "one"
  },
  "relative_humidity": 0.9308276135609017,
  "remarks_info": {
    "maximum_temperature_6": null,
    "minimum_temperature_6": null,
    "pressure_tendency": null,
    "precip_36_hours": null,
    "precip_24_hours": null,
    "sunshine_minutes": null,
    "codes": [
      {
        "repr": "AO2",
        "value": "Automated with precipitation sensor"
      },
      {
        "repr": "FZRANO",
        "value": "Freezing rain information not available"
      }
    ],
    "dewpoint_decimal": null,
    "maximum_temperature_24": null,
    "minimum_temperature_24": null,
    "precip_hourly": null,
    "sea_level_pressure": null,
    "snow_depth": null,
    "temperature_decimal": null
  },
  "runway_visibility": [],
  "temperature": {
    "repr": "02",
    "value": 2,
    "spoken": "two"
  },
  "wind_variable_direction": [],
  "density_altitude": -1694,
  "pressure_altitude": -168,
  "units": {
    "accumulation": "in",
    "altimeter": "inHg",
    "altitude": "ft",
    "temperature": "C",
    "visibility": "sm",
    "wind_speed": "kt"
  }
}
