{
  "altimeter": {
    "repr": "A3031",
    "spoken": "three zero point three one",
    "value": 30.31
  },
  "clouds": [],
  "density_altitude": -3214,
  "dewpoint": {
    "repr": "M18",
    "spoken": "minus one eight",
    "value": -18
  },
  "flight_rules": "VFR",
  "meta": {
    "stations_updated": "2023-10-28",
    "timestamp": "2024-01-13T01:39:37.955357Z"
  },
  "other": [],
  "pressure_altitude": -248,
  "raw": "KAWO 130056Z AUTO 36006KT 10SM CLR M10/M18 A3031 RMK AO2 SLP271 T11001183 FZRANO",
  "relative_humidity": 0.5070536426436403,
  "remarks": "RMK AO2 SLP271 T11001183 FZRANO",
  "remarks_info": {
    "codes": [
      {
        "repr": "AO2",
        "value": "Automated with precipitation sensor"
      },
      {
        "repr": "FZRANO",
        "value": "Freezing rain information not available"
      }
    ],
    "dewpoint_decimal": {
      "repr": "1183",
      "spoken": "minus one eight point three",
      "value": -18.3
    },
    "maximum_temperature_24": null,
    "maximum_temperature_6": null,
    "minimum_temperature_24": null,
    "minimum_temperature_6": null,
    "precip_24_hours": null,
    "precip_36_hours": null,
    "precip_hourly": null,
    "pressure_tendency": null,
    "sea_level_pressure": {
      "repr": "SLP271",
      "spoken": "one zero two seven point one",
      "value": 1027.1
    },
    "snow_depth": null,
    "sunshine_minutes": null,
    "temperature_decimal": {
      "repr": "1100",
      "spoken": "minus one zero point zero",
      "value": -10
    }
  },
  "runway_visibility": [],
  "sanitized": "KAWO 130056Z 36006KT 10SM M10/M18 A3031 RMK AO2 SLP271 T11001183 FZRANO",
  "station": "KAWO",
  "temperature": {
    "repr": "M10",
    "spoken": "minus one zero",
    "value": -10
  },
  "time": {
    "dt": "2024-01-13T00:56:00Z",
    "repr": "130056Z"
  },
  "units": {
    "accumulation": "in",
    "altimeter": "inHg",
    "altitude": "ft",
    "temperature": "C",
    "visibility": "sm",
    "wind_speed": "kt"
  },
  "visibility": {
    "repr": "10",
    "spoken": "one zero",
    "value": 10
  },
  "wind_direction": {
    "repr": "360",
    "spoken": "three six zero",
    "value": 360
  },
  "wind_gust": null,
  "wind_speed": {
    "repr": "06",
    "spoken": "six",
    "value": 6
  },
  "wind_variable_direction": [],
  "wx_codes": []
}
