{
  "meta": {
    "timestamp": "2022-12-25T05:40:47.555414Z",
    "stations_updated": "2022-09-05"
  },
  "altimeter": {
    "repr": "A3018",
    "value": 30.18,
    "spoken": "three zero point one eight"
  },
  "clouds": [
    {
      "repr": "OVC007",
      "type": "OVC",
      "altitude": 7,
      "modifier": null
    }
  ],
  "flight_rules": "IFR",
  "other": [],
  "visibility": {
    "repr": "6",
    "value": 6,
    "spoken": "six"
  },
  "wind_direction": {
    "repr": "190",
    "value": 190,
    "spoken": "one nine zero"
  },
  "wind_gust": null,
  "wind_speed": {
    "repr": "10",
    "value": 10,
    "spoken": "one zero"
  },
  "wx_codes": [
    {
      "repr": "-RA",
      "value": "Light Rain"
    },
    {
      "repr": "BR",
      "value": "Mist"
    }
  ],
  "raw": "KAWO 250456Z AUTO 19010KT 6SM -RA BR OVC007 11/09 A3018 RMK AO2 CIG 006V012 SLP223 P0003 T01060094",
  "sanitized": "KAWO 250456Z 19010KT 6SM -RA BR OVC007 11/09 A3018 RMK AO2 CIG 006V012 SLP223 P0003 T01060094",
  "station": "KAWO",
  "time": {
    "repr": "250456Z",
    "dt": "2022-12-25T04:56:00Z"
  },
  "remarks": "RMK AO2 CIG 006V012 SLP223 P0003 T01060094",
  "dewpoint": {
    "repr": "09",
    "value": 9,
    "spoken": "nine"
  },
  "relative_humidity": 0.9227971730278188,
  "remarks_info": {
    "maximum_temperature_6": null,
    "minimum_temperature_6": null,
    "pressure_tendency": null,
    "precip_36_hours": null,
    "precip_24_hours": null,
    "sunshine_minutes": null,
    "codes": [
      {
        "repr": "AO2",
        "value": "Automated with precipitation sensor"
      }
    ],
    "dewpoint_decimal": {
      "repr": "0094",
      "value": 9.4,
      "spoken": "nine point four"
    },
    "maximum_temperature_24": null,
    "minimum_temperature_24": null,
    "precip_hourly": {
      "repr": "P0003",
      "value": 0.03,
      "spoken": "zero point zero three"
    },
    "sea_level_pressure": {
      "repr": "SLP223",
      "value": 1022.3,
      "spoken": "one zero two two point three"
    },
    "snow_depth": null,
    "temperature_decimal": {
      "repr": "0106",
      "value": 10.6,
      "spoken": "one zero point six"
    }
  },
  "runway_visibility": [],
  "temperature": {
    "repr": "11",
    "value": 11,
    "spoken": "one one"
  },
  "wind_variable_direction": [],
  "density_altitude": -612,
  "pressure_altitude": -118,
  "units": {
    "accumulation": "in",
    "altimeter": "inHg",
    "altitude": "ft",
    "temperature": "C",
    "visibility": "sm",
    "wind_speed": "kt"
  }
}
