{
  "meta": {
    "timestamp": "2022-12-16T21:40:47.044313Z",
    "stations_updated": "2022-09-05"
  },
  "altimeter": {
    "repr": "A3036",
    "value": 30.36,
    "spoken": "three zero point three six"
  },
  "clouds": [],
  "flight_rules": "VFR",
  "other": [],
  "visibility": {
    "repr": "10",
    "value": 10,
    "spoken": "one zero"
  },
  "wind_direction": {
    "repr": "330",
    "value": 330,
    "spoken": "three three zero"
  },
  "wind_gust": null,
  "wind_speed": {
    "repr": "04",
    "value": 4,
    "spoken": "four"
  },
  "wx_codes": [],
  "raw": "KAWO 162056Z AUTO 33004KT 10SM CLR 04/01 A3036 RMK AO2 SLP287 T00390006 58021",
  "sanitized": "KAWO 162056Z 33004KT 10SM 04/01 A3036 RMK AO2 SLP287 T00390006 58021",
  "station": "KAWO",
  "time": {
    "repr": "162056Z",
    "dt": "2022-12-16T20:56:00Z"
  },
  "remarks": "RMK AO2 SLP287 T00390006 58021",
  "dewpoint": {
    "repr": "01",
    "value": 1,
    "spoken": "one"
  },
  "relative_humidity": 0.7904792361594455,
  "remarks_info": {
    "maximum_temperature_6": null,
    "minimum_temperature_6": null,
    "pressure_tendency": {
      "repr": "58021",
      "tendency": "Steady or increasing, then decreasing",
      "change": 2.1
    },
    "precip_36_hours": null,
    "precip_24_hours": null,
    "sunshine_minutes": null,
    "codes": [
      {
        "repr": "AO2",
        "value": "Automated with precipitation sensor"
      }
    ],
    "dewpoint_decimal": {
      "repr": "0006",
      "value": 0.6,
      "spoken": "zero point six"
    },
    "maximum_temperature_24": null,
    "minimum_temperature_24": null,
    "precip_hourly": null,
    "sea_level_pressure": {
      "repr": "SLP287",
      "value": 1028.7,
      "spoken": "one zero two eight point seven"
    },
    "snow_depth": null,
    "temperature_decimal": {
      "repr": "0039",
      "value": 3.9,
      "spoken": "three point nine"
    }
  },
  "runway_visibility": [],
  "temperature": {
    "repr": "04",
    "value": 4,
    "spoken": "four"
  },
  "wind_variable_direction": [],
  "density_altitude": -1596,
  "pressure_altitude": -298,
  "units": {
    "accumulation": "in",
    "altimeter": "inHg",
    "altitude": "ft",
    "temperature": "C",
    "visibility": "sm",
    "wind_speed": "kt"
  }
}
