{
  "altimeter": {
    "repr": "A2954",
    "spoken": "two nine point five four",
    "value": 29.54
  },
  "clouds": [
    {
      "altitude": 75,
      "modifier": null,
      "repr": "OVC075",
      "type": "OVC"
    }
  ],
  "density_altitude": -176,
  "dewpoint": {
    "repr": "07",
    "spoken": "seven",
    "value": 7
  },
  "flight_rules": "VFR",
  "meta": {
    "cache-timestamp": "2024-02-02T05:02:03.717000Z",
    "stations_updated": "2024-01-01",
    "timestamp": "2024-02-02T05:02:12.378826Z"
  },
  "other": [],
  "pressure_altitude": 522,
  "raw": "KAWO 020356Z AUTO 12004KT 10SM OVC075 09/07 A2954 RMK AO2 RAB07E39 SLP007 P0001 T00890072",
  "relative_humidity": 0.8908355350985154,
  "remarks": "RMK AO2 RAB07E39 SLP007 P0001 T00890072",
  "remarks_info": {
    "codes": [
      {
        "repr": "AO2",
        "value": "Automated with precipitation sensor"
      }
    ],
    "dewpoint_decimal": {
      "repr": "0072",
      "spoken": "seven point two",
      "value": 7.2
    },
    "maximum_temperature_24": null,
    "maximum_temperature_6": null,
    "minimum_temperature_24": null,
    "minimum_temperature_6": null,
    "precip_24_hours": null,
    "precip_36_hours": null,
    "precip_hourly": {
      "repr": "P0001",
      "spoken": "zero point zero one",
      "value": 0.01
    },
    "pressure_tendency": null,
    "sea_level_pressure": {
      "repr": "SLP007",
      "spoken": "one zero zero zero point seven",
      "value": 1000.7
    },
    "snow_depth": null,
    "sunshine_minutes": null,
    "temperature_decimal": {
      "repr": "0089",
      "spoken": "eight point nine",
      "value": 8.9
    }
  },
  "runway_visibility": [],
  "sanitized": "KAWO 020356Z 12004KT 10SM OVC075 09/07 A2954 RMK AO2 RAB07E39 SLP007 P0001 T00890072",
  "station": "KAWO",
  "temperature": {
    "repr": "09",
    "spoken": "nine",
    "value": 9
  },
  "time": {
    "dt": "2024-02-02T03:56:00Z",
    "repr": "020356Z"
  },
  "units": {
    "accumulation": "in",
    "altimeter": "inHg",
    "altitude": "ft",
    "temperature": "C",
    "visibility": "sm",
    "wind_speed": "kt"
  },
  "visibility": {
    "repr": "10",
    "spoken": "one zero",
    "value": 10
  },
  "wind_direction": {
    "repr": "120",
    "spoken": "one two zero",
    "value": 120
  },
  "wind_gust": null,
  "wind_speed": {
    "repr": "04",
    "spoken": "four",
    "value": 4
  },
  "wind_variable_direction": [],
  "wx_codes": []
}
