{
  "meta": {
    "timestamp": "2022-12-24T19:01:18.968202Z",
    "stations_updated": "2022-09-05"
  },
  "altimeter": {
    "repr": "A3001",
    "value": 30.01,
    "spoken": "three zero point zero one"
  },
  "clouds": [
    {
      "repr": "BKN003",
      "type": "BKN",
      "altitude": 3,
      "modifier": null
    },
    {
      "repr": "OVC019",
      "type": "OVC",
      "altitude": 19,
      "modifier": null
    }
  ],
  "flight_rules": "LIFR",
  "other": [],
  "visibility": {
    "repr": "7",
    "value": 7,
    "spoken": "seven"
  },
  "wind_direction": {
    "repr": "180",
    "value": 180,
    "spoken": "one eight zero"
  },
  "wind_gust": null,
  "wind_speed": {
    "repr": "09",
    "value": 9,
    "spoken": "nine"
  },
  "wx_codes": [
    {
      "repr": "RA",
      "value": "Rain"
    }
  ],
  "raw": "KAWO 241856Z AUTO 18009KT 7SM RA BKN003 OVC019 04/04 A3001 RMK AO2 SLP167 P0009 T00440044",
  "sanitized": "KAWO 241856Z 18009KT 7SM RA BKN003 OVC019 04/04 A3001 RMK AO2 SLP167 P0009 T00440044",
  "station": "KAWO",
  "time": {
    "repr": "241856Z",
    "dt": "2022-12-24T18:56:00Z"
  },
  "remarks": "RMK AO2 SLP167 P0009 T00440044",
  "dewpoint": {
    "repr": "04",
    "value": 4,
    "spoken": "four"
  },
  "relative_humidity": 1,
  "remarks_info": {
    "maximum_temperature_6": null,
    "minimum_temperature_6": null,
    "pressure_tendency": null,
    "precip_36_hours": null,
    "precip_24_hours": null,
    "sunshine_minutes": null,
    "codes": [
      {
        "repr": "AO2",
        "value": "Automated with precipitation sensor"
      }
    ],
    "dewpoint_decimal": {
      "repr": "0044",
      "value": 4.4,
      "spoken": "four point four"
    },
    "maximum_temperature_24": null,
    "minimum_temperature_24": null,
    "precip_hourly": {
      "repr": "P0009",
      "value": 0.09,
      "spoken": "zero point zero nine"
    },
    "sea_level_pressure": {
      "repr": "SLP167",
      "value": 1016.7,
      "spoken": "one zero one six point seven"
    },
    "snow_depth": null,
    "temperature_decimal": {
      "repr": "0044",
      "value": 4.4,
      "spoken": "four point four"
    }
  },
  "runway_visibility": [],
  "temperature": {
    "repr": "04",
    "value": 4,
    "spoken": "four"
  },
  "wind_variable_direction": [],
  "density_altitude": -1186,
  "pressure_altitude": 52,
  "units": {
    "accumulation": "in",
    "altimeter": "inHg",
    "altitude": "ft",
    "temperature": "C",
    "visibility": "sm",
    "wind_speed": "kt"
  }
}
