{
  "altimeter": {
    "repr": "A2992",
    "spoken": "two nine point nine two",
    "value": 29.92
  },
  "clouds": [],
  "density_altitude": 908,
  "dewpoint": {
    "repr": "17",
    "spoken": "one seven",
    "value": 17
  },
  "flight_rules": "VFR",
  "meta": {
    "stations_updated": "2024-06-12",
    "timestamp": "2024-09-07T18:42:49.359687Z"
  },
  "other": [],
  "pressure_altitude": 142,
  "raw": "KAWO 071756Z AUTO 35004KT 10SM CLR 21/17 A2992 RMK AO2 SLP135 T02110172 10211 20128 56009",
  "relative_humidity": 0.7840682670797869,
  "remarks": "RMK AO2 SLP135 T02110172 10211 20128 56009",
  "remarks_info": {
    "codes": [
      {
        "repr": "AO2",
        "value": "Automated with precipitation sensor"
      }
    ],
    "dewpoint_decimal": {
      "repr": "0172",
      "spoken": "one seven point two",
      "value": 17.2
    },
    "maximum_temperature_24": null,
    "maximum_temperature_6": {
      "repr": "10211",
      "spoken": "two one point one",
      "value": 21.1
    },
    "minimum_temperature_24": null,
    "minimum_temperature_6": {
      "repr": "20128",
      "spoken": "one two point eight",
      "value": 12.8
    },
    "precip_24_hours": null,
    "precip_36_hours": null,
    "precip_hourly": null,
    "pressure_tendency": {
      "change": 0.9,
      "repr": "56009",
      "tendency": "Decreasing, then steady"
    },
    "sea_level_pressure": {
      "repr": "SLP135",
      "spoken": "one zero one three point five",
      "value": 1013.5
    },
    "snow_depth": null,
    "sunshine_minutes": null,
    "temperature_decimal": {
      "repr": "0211",
      "spoken": "two one point one",
      "value": 21.1
    }
  },
  "runway_visibility": [],
  "sanitized": "KAWO 071756Z 35004KT 10SM 21/17 A2992 RMK AO2 SLP135 T02110172 10211 20128 56009",
  "station": "KAWO",
  "temperature": {
    "repr": "21",
    "spoken": "two one",
    "value": 21
  },
  "time": {
    "dt": "2024-09-07T17:56:00Z",
    "repr": "071756Z"
  },
  "units": {
    "accumulation": "in",
    "altimeter": "inHg",
    "altitude": "ft",
    "temperature": "C",
    "visibility": "sm",
    "wind_speed": "kt"
  },
  "visibility": {
    "repr": "10",
    "spoken": "one zero",
    "value": 10
  },
  "wind_direction": {
    "repr": "350",
    "spoken": "three five zero",
    "value": 350
  },
  "wind_gust": null,
  "wind_speed": {
    "repr": "04",
    "spoken": "four",
    "value": 4
  },
  "wind_variable_direction": [],
  "wx_codes": []
}
