{
  "altimeter": {
    "repr": "A3005",
    "spoken": "three zero point zero five",
    "value": 30.05
  },
  "clouds": [
    {
      "altitude": 3,
      "modifier": null,
      "repr": "FEW003",
      "type": "FEW"
    },
    {
      "altitude": 10,
      "modifier": null,
      "repr": "BKN010",
      "type": "BKN"
    },
    {
      "altitude": 24,
      "modifier": null,
      "repr": "OVC024",
      "type": "OVC"
    }
  ],
  "density_altitude": -794,
  "dewpoint": {
    "repr": "08",
    "spoken": "eight",
    "value": 8
  },
  "flight_rules": "MVFR",
  "meta": {
    "stations_updated": "2024-06-12",
    "timestamp": "2024-10-29T07:40:45.956817Z"
  },
  "other": [],
  "pressure_altitude": 12,
  "raw": "KAWO 290716Z AUTO 31003KT 10SM FEW003 BKN010 OVC024 08/08 A3005 RMK AO2 RAE0658 CIG 008V014 P0000",
  "relative_humidity": 1,
  "remarks": "RMK AO2 RAE0658 CIG 008V014 P0000",
  "remarks_info": {
    "codes": [
      {
        "repr": "AO2",
        "value": "Automated with precipitation sensor"
      },
      {
        "repr": "P0000",
        "value": "Trace amount of rain in the last hour"
      }
    ],
    "dewpoint_decimal": null,
    "maximum_temperature_24": null,
    "maximum_temperature_6": null,
    "minimum_temperature_24": null,
    "minimum_temperature_6": null,
    "precip_24_hours": null,
    "precip_36_hours": null,
    "precip_hourly": null,
    "pressure_tendency": null,
    "sea_level_pressure": null,
    "snow_depth": null,
    "sunshine_minutes": null,
    "temperature_decimal": null
  },
  "runway_visibility": [],
  "sanitized": "KAWO 290716Z 31003KT 10SM FEW003 BKN010 OVC024 08/08 A3005 RMK AO2 RAE0658 CIG 008V014 P0000",
  "station": "KAWO",
  "temperature": {
    "repr": "08",
    "spoken": "eight",
    "value": 8
  },
  "time": {
    "dt": "2024-10-29T07:16:00Z",
    "repr": "290716Z"
  },
  "units": {
    "accumulation": "in",
    "altimeter": "inHg",
    "altitude": "ft",
    "temperature": "C",
    "visibility": "sm",
    "wind_speed": "kt"
  },
  "visibility": {
    "repr": "10",
    "spoken": "one zero",
    "value": 10
  },
  "wind_direction": {
    "repr": "310",
    "spoken": "three one zero",
    "value": 310
  },
  "wind_gust": null,
  "wind_speed": {
    "repr": "03",
    "spoken": "three",
    "value": 3
  },
  "wind_variable_direction": [],
  "wx_codes": []
}
