{
  "altimeter": {
    "repr": "A3030",
    "spoken": "three zero point three zero",
    "value": 30.3
  },
  "clouds": [],
  "density_altitude": -276,
  "dewpoint": {
    "repr": "06",
    "spoken": "six",
    "value": 6
  },
  "flight_rules": "VFR",
  "meta": {
    "stations_updated": "2024-06-12",
    "timestamp": "2024-09-29T21:02:46.730668Z"
  },
  "other": [],
  "pressure_altitude": -238,
  "raw": "KAWO 292056Z AUTO 25007KT 210V280 10SM CLR 14/06 A3030 RMK AO2 SLP267 T01440056 50008",
  "relative_humidity": 0.5546727881309178,
  "remarks": "RMK AO2 SLP267 T01440056 50008",
  "remarks_info": {
    "codes": [
      {
        "repr": "AO2",
        "value": "Automated with precipitation sensor"
      }
    ],
    "dewpoint_decimal": {
      "repr": "0056",
      "spoken": "five point six",
      "value": 5.6
    },
    "maximum_temperature_24": null,
    "maximum_temperature_6": null,
    "minimum_temperature_24": null,
    "minimum_temperature_6": null,
    "precip_24_hours": null,
    "precip_36_hours": null,
    "precip_hourly": null,
    "pressure_tendency": {
      "change": 0.8,
      "repr": "50008",
      "tendency": "Increasing, then decreasing"
    },
    "sea_level_pressure": {
      "repr": "SLP267",
      "spoken": "one zero two six point seven",
      "value": 1026.7
    },
    "snow_depth": null,
    "sunshine_minutes": null,
    "temperature_decimal": {
      "repr": "0144",
      "spoken": "one four point four",
      "value": 14.4
    }
  },
  "runway_visibility": [],
  "sanitized": "KAWO 292056Z 25007KT 210V280 10SM 14/06 A3030 RMK AO2 SLP267 T01440056 50008",
  "station": "KAWO",
  "temperature": {
    "repr": "14",
    "spoken": "one four",
    "value": 14
  },
  "time": {
    "dt": "2024-09-29T20:56:00Z",
    "repr": "292056Z"
  },
  "units": {
    "accumulation": "in",
    "altimeter": "inHg",
    "altitude": "ft",
    "temperature": "C",
    "visibility": "sm",
    "wind_speed": "kt"
  },
  "visibility": {
    "repr": "10",
    "spoken": "one zero",
    "value": 10
  },
  "wind_direction": {
    "repr": "250",
    "spoken": "two five zero",
    "value": 250
  },
  "wind_gust": null,
  "wind_speed": {
    "repr": "07",
    "spoken": "seven",
    "value": 7
  },
  "wind_variable_direction": [
    {
      "repr": "210",
      "spoken": "two one zero",
      "value": 210
    },
    {
      "repr": "280",
      "spoken": "two eight zero",
      "value": 280
    }
  ],
  "wx_codes": []
}
