{
  "meta": {
    "timestamp": "2022-11-30T08:07:36.471600Z",
    "stations_updated": "2022-09-05"
  },
  "altimeter": {
    "repr": "A2948",
    "value": 29.48,
    "spoken": "two nine point four eight"
  },
  "clouds": [
    {
      "repr": "OVC023",
      "type": "OVC",
      "altitude": 23,
      "modifier": null
    }
  ],
  "flight_rules": "MVFR",
  "other": [],
  "visibility": {
    "repr": "10",
    "value": 10,
    "spoken": "one zero"
  },
  "wind_direction": {
    "repr": "VRB",
    "value": null,
    "spoken": "variable"
  },
  "wind_gust": null,
  "wind_speed": {
    "repr": "03",
    "value": 3,
    "spoken": "three"
  },
  "wx_codes": [
    {
      "repr": "-RA",
      "value": "Light Rain"
    }
  ],
  "raw": "KAWO 300756Z AUTO VRB03KT 10SM -RA OVC023 02/01 A2948 RMK AO2 SLP988 P0000 T00170006 400221067 FZRANO",
  "sanitized": "KAWO 300756Z VRB03KT 10SM -RA OVC023 02/01 A2948 RMK AO2 SLP988 P0000 T00170006 400221067 FZRANO",
  "station": "KAWO",
  "time": {
    "repr": "300756Z",
    "dt": "2022-11-30T07:56:00Z"
  },
  "remarks": "RMK AO2 SLP988 P0000 T00170006 400221067 FZRANO",
  "dewpoint": {
    "repr": "01",
    "value": 1,
    "spoken": "one"
  },
  "relative_humidity": 0.9239704971399328,
  "remarks_info": {
    "maximum_temperature_6": null,
    "minimum_temperature_6": null,
    "pressure_tendency": null,
    "precip_36_hours": null,
    "precip_24_hours": null,
    "sunshine_minutes": null,
    "codes": [
      {
        "repr": "AO2",
        "value": "Automated with precipitation sensor"
      },
      {
        "repr": "FZRANO",
        "value": "Freezing rain information not available"
      },
      {
        "repr": "P0000",
        "value": "Trace amount of rain in the last hour"
      }
    ],
    "dewpoint_decimal": {
      "repr": "0006",
      "value": 0.6,
      "spoken": "zero point six"
    },
    "maximum_temperature_24": {
      "repr": "0022",
      "value": 2.2,
      "spoken": "two point two"
    },
    "minimum_temperature_24": {
      "repr": "1067",
      "value": -6.7,
      "spoken": "minus six point seven"
    },
    "precip_hourly": null,
    "sea_level_pressure": {
      "repr": "SLP988",
      "value": 998.8,
      "spoken": "nine nine eight point eight"
    },
    "snow_depth": null,
    "temperature_decimal": {
      "repr": "0017",
      "value": 1.7,
      "spoken": "one point seven"
    }
  },
  "runway_visibility": [],
  "temperature": {
    "repr": "02",
    "value": 2,
    "spoken": "two"
  },
  "wind_variable_direction": [],
  "density_altitude": -980,
  "pressure_altitude": 582,
  "units": {
    "accumulation": "in",
    "altimeter": "inHg",
    "altitude": "ft",
    "temperature": "C",
    "visibility": "sm",
    "wind_speed": "kt"
  }
}
