{
  "meta": {
    "timestamp": "2022-12-21T18:42:30.047993Z",
    "stations_updated": "2022-09-05"
  },
  "altimeter": {
    "repr": "A3050",
    "value": 30.5,
    "spoken": "three zero point five zero"
  },
  "clouds": [],
  "flight_rules": "VFR",
  "other": [],
  "visibility": {
    "repr": "10",
    "value": 10,
    "spoken": "one zero"
  },
  "wind_direction": {
    "repr": "300",
    "value": 300,
    "spoken": "three zero zero"
  },
  "wind_gust": null,
  "wind_speed": {
    "repr": "05",
    "value": 5,
    "spoken": "five"
  },
  "wx_codes": [],
  "raw": "KAWO 211756Z AUTO 30005KT 10SM CLR M11/M13 A3050 RMK AO2 SLP335 60000 T11111128 11056 21117 51017 FZRANO",
  "sanitized": "KAWO 211756Z 30005KT 10SM M11/M13 A3050 RMK AO2 SLP335 60000 T11111128 11056 21117 51017 FZRANO",
  "station": "KAWO",
  "time": {
    "repr": "211756Z",
    "dt": "2022-12-21T17:56:00Z"
  },
  "remarks": "RMK AO2 SLP335 60000 T11111128 11056 21117 51017 FZRANO",
  "dewpoint": {
    "repr": "M13",
    "value": -13,
    "spoken": "minus one three"
  },
  "relative_humidity": 0.8724699016309581,
  "remarks_info": {
    "maximum_temperature_6": {
      "repr": "11056",
      "value": -5.6,
      "spoken": "minus five point six"
    },
    "minimum_temperature_6": {
      "repr": "21117",
      "value": -11.7,
      "spoken": "minus one one point seven"
    },
    "pressure_tendency": {
      "repr": "51017",
      "tendency": "Increasing, then steady",
      "change": 1.7
    },
    "precip_36_hours": {
      "repr": "60000",
      "value": 0,
      "spoken": "zero"
    },
    "precip_24_hours": null,
    "sunshine_minutes": null,
    "codes": [
      {
        "repr": "AO2",
        "value": "Automated with precipitation sensor"
      },
      {
        "repr": "FZRANO",
        "value": "Freezing rain information not available"
      }
    ],
    "dewpoint_decimal": {
      "repr": "1128",
      "value": -12.8,
      "spoken": "minus one two point eight"
    },
    "maximum_temperature_24": null,
    "minimum_temperature_24": null,
    "precip_hourly": null,
    "sea_level_pressure": {
      "repr": "SLP335",
      "value": 1033.5,
      "spoken": "one zero three three point five"
    },
    "snow_depth": null,
    "temperature_decimal": {
      "repr": "1111",
      "value": -11.1,
      "spoken": "minus one one point one"
    }
  },
  "runway_visibility": [],
  "temperature": {
    "repr": "M11",
    "value": -11,
    "spoken": "minus one one"
  },
  "wind_variable_direction": [],
  "density_altitude": -3536,
  "pressure_altitude": -438,
  "units": {
    "accumulation": "in",
    "altimeter": "inHg",
    "altitude": "ft",
    "temperature": "C",
    "visibility": "sm",
    "wind_speed": "kt"
  }
}
