{
  "meta": {
    "timestamp": "2023-02-28T19:01:28.739398Z",
    "stations_updated": "2023-01-30"
  },
  "altimeter": {
    "repr": "A2957",
    "value": 29.57,
    "spoken": "two nine point five seven"
  },
  "clouds": [
    {
      "repr": "OVC012",
      "type": "OVC",
      "altitude": 12,
      "modifier": null
    }
  ],
  "flight_rules": "IFR",
  "other": [],
  "visibility": {
    "repr": "7/4",
    "value": 1.75,
    "spoken": "one and three quarters",
    "numerator": 7,
    "denominator": 4,
    "normalized": "1 3/4"
  },
  "wind_direction": {
    "repr": "170",
    "value": 170,
    "spoken": "one seven zero"
  },
  "wind_gust": null,
  "wind_speed": {
    "repr": "05",
    "value": 5,
    "spoken": "five"
  },
  "wx_codes": [
    {
      "repr": "-SN",
      "value": "Light Snow"
    },
    {
      "repr": "BR",
      "value": "Mist"
    }
  ],
  "raw": "KAWO 281854Z AUTO 17005KT 1 3/4SM -SN BR OVC012 01/00 A2957 RMK AO2 SLP017 P0003 T00060000 FZRANO",
  "sanitized": "KAWO 281854Z 17005KT 1 3/4SM -SN BR OVC012 01/00 A2957 RMK AO2 SLP017 P0003 T00060000 FZRANO",
  "station": "KAWO",
  "time": {
    "repr": "281854Z",
    "dt": "2023-02-28T18:54:00Z"
  },
  "remarks": "RMK AO2 SLP017 P0003 T00060000 FZRANO",
  "dewpoint": {
    "repr": "00",
    "value": 0,
    "spoken": "zero"
  },
  "relative_humidity": 0.9574966857850682,
  "remarks_info": {
    "maximum_temperature_6": null,
    "minimum_temperature_6": null,
    "pressure_tendency": null,
    "precip_36_hours": null,
    "precip_24_hours": null,
    "sunshine_minutes": null,
    "codes": [
      {
        "repr": "AO2",
        "value": "Automated with precipitation sensor"
      },
      {
        "repr": "FZRANO",
        "value": "Freezing rain information not available"
      }
    ],
    "dewpoint_decimal": {
      "repr": "0000",
      "value": 0,
      "spoken": "zero"
    },
    "maximum_temperature_24": null,
    "minimum_temperature_24": null,
    "precip_hourly": {
      "repr": "P0003",
      "value": 0.03,
      "spoken": "zero point zero three"
    },
    "sea_level_pressure": {
      "repr": "SLP017",
      "value": 1001.7,
      "spoken": "one zero zero one point seven"
    },
    "snow_depth": null,
    "temperature_decimal": {
      "repr": "0006",
      "value": 0.6,
      "spoken": "zero point six"
    }
  },
  "runway_visibility": [],
  "temperature": {
    "repr": "01",
    "value": 1,
    "spoken": "one"
  },
  "wind_variable_direction": [],
  "density_altitude": -1202,
  "pressure_altitude": 492,
  "units": {
    "accumulation": "in",
    "altimeter": "inHg",
    "altitude": "ft",
    "temperature": "C",
    "visibility": "sm",
    "wind_speed": "kt"
  }
}
