{
  "altimeter": {
    "repr": "A3010",
    "spoken": "three zero point one zero",
    "value": 30.1
  },
  "clouds": [],
  "density_altitude": -3400,
  "dewpoint": {
    "repr": "M16",
    "spoken": "minus one six",
    "value": -16
  },
  "flight_rules": "VFR",
  "meta": {
    "cache-timestamp": "2024-01-13T15:40:05.534000Z",
    "stations_updated": "2023-10-28",
    "timestamp": "2024-01-13T15:40:44.652593Z"
  },
  "other": [],
  "pressure_altitude": -38,
  "raw": "KAWO 131456Z AUTO 01005KT 10SM CLR M13/M16 A3010 RMK AO2 SLP199 T11331156 58033 FZRANO",
  "relative_humidity": 0.8280917862677317,
  "remarks": "RMK AO2 SLP199 T11331156 58033 FZRANO",
  "remarks_info": {
    "codes": [
      {
        "repr": "AO2",
        "value": "Automated with precipitation sensor"
      },
      {
        "repr": "FZRANO",
        "value": "Freezing rain information not available"
      }
    ],
    "dewpoint_decimal": {
      "repr": "1156",
      "spoken": "minus one five point six",
      "value": -15.6
    },
    "maximum_temperature_24": null,
    "maximum_temperature_6": null,
    "minimum_temperature_24": null,
    "minimum_temperature_6": null,
    "precip_24_hours": null,
    "precip_36_hours": null,
    "precip_hourly": null,
    "pressure_tendency": {
      "change": 3.3,
      "repr": "58033",
      "tendency": "Steady or increasing, then decreasing"
    },
    "sea_level_pressure": {
      "repr": "SLP199",
      "spoken": "one zero one nine point nine",
      "value": 1019.9
    },
    "snow_depth": null,
    "sunshine_minutes": null,
    "temperature_decimal": {
      "repr": "1133",
      "spoken": "minus one three point three",
      "value": -13.3
    }
  },
  "runway_visibility": [],
  "sanitized": "KAWO 131456Z 01005KT 10SM M13/M16 A3010 RMK AO2 SLP199 T11331156 58033 FZRANO",
  "station": "KAWO",
  "temperature": {
    "repr": "M13",
    "spoken": "minus one three",
    "value": -13
  },
  "time": {
    "dt": "2024-01-13T14:56:00Z",
    "repr": "131456Z"
  },
  "units": {
    "accumulation": "in",
    "altimeter": "inHg",
    "altitude": "ft",
    "temperature": "C",
    "visibility": "sm",
    "wind_speed": "kt"
  },
  "visibility": {
    "repr": "10",
    "spoken": "one zero",
    "value": 10
  },
  "wind_direction": {
    "repr": "010",
    "spoken": "zero one zero",
    "value": 10
  },
  "wind_gust": null,
  "wind_speed": {
    "repr": "05",
    "spoken": "five",
    "value": 5
  },
  "wind_variable_direction": [],
  "wx_codes": []
}
