{
  "altimeter": {
    "repr": "A2997",
    "spoken": "two nine point nine seven",
    "value": 29.97
  },
  "clouds": [
    {
      "altitude": 20,
      "modifier": null,
      "repr": "SCT020",
      "type": "SCT"
    },
    {
      "altitude": 26,
      "modifier": null,
      "repr": "BKN026",
      "type": "BKN"
    },
    {
      "altitude": 100,
      "modifier": null,
      "repr": "OVC100",
      "type": "OVC"
    }
  ],
  "density_altitude": 654,
  "dewpoint": {
    "repr": "16",
    "spoken": "one six",
    "value": 16
  },
  "flight_rules": "MVFR",
  "meta": {
    "stations_updated": "2024-06-12",
    "timestamp": "2024-08-18T17:02:01.588728Z"
  },
  "other": [],
  "pressure_altitude": 92,
  "raw": "KAWO 181656Z AUTO 12007KT 10SM SCT020 BKN026 OVC100 19/16 A2997 RMK AO2 SLP152 T01940161",
  "relative_humidity": 0.8121716951041594,
  "remarks": "RMK AO2 SLP152 T01940161",
  "remarks_info": {
    "codes": [
      {
        "repr": "AO2",
        "value": "Automated with precipitation sensor"
      }
    ],
    "dewpoint_decimal": {
      "repr": "0161",
      "spoken": "one six point one",
      "value": 16.1
    },
    "maximum_temperature_24": null,
    "maximum_temperature_6": null,
    "minimum_temperature_24": null,
    "minimum_temperature_6": null,
    "precip_24_hours": null,
    "precip_36_hours": null,
    "precip_hourly": null,
    "pressure_tendency": null,
    "sea_level_pressure": {
      "repr": "SLP152",
      "spoken": "one zero one five point two",
      "value": 1015.2
    },
    "snow_depth": null,
    "sunshine_minutes": null,
    "temperature_decimal": {
      "repr": "0194",
      "spoken": "one nine point four",
      "value": 19.4
    }
  },
  "runway_visibility": [],
  "sanitized": "KAWO 181656Z 12007KT 10SM SCT020 BKN026 OVC100 19/16 A2997 RMK AO2 SLP152 T01940161",
  "station": "KAWO",
  "temperature": {
    "repr": "19",
    "spoken": "one nine",
    "value": 19
  },
  "time": {
    "dt": "2024-08-18T16:56:00Z",
    "repr": "181656Z"
  },
  "units": {
    "accumulation": "in",
    "altimeter": "inHg",
    "altitude": "ft",
    "temperature": "C",
    "visibility": "sm",
    "wind_speed": "kt"
  },
  "visibility": {
    "repr": "10",
    "spoken": "one zero",
    "value": 10
  },
  "wind_direction": {
    "repr": "120",
    "spoken": "one two zero",
    "value": 120
  },
  "wind_gust": null,
  "wind_speed": {
    "repr": "07",
    "spoken": "seven",
    "value": 7
  },
  "wind_variable_direction": [],
  "wx_codes": []
}
