{
  "meta": {
    "timestamp": "2023-02-13T21:01:58.680954Z",
    "stations_updated": "2023-01-30"
  },
  "altimeter": {
    "repr": "A2982",
    "value": 29.82,
    "spoken": "two nine point eight two"
  },
  "clouds": [
    {
      "repr": "SCT028",
      "type": "SCT",
      "altitude": 28,
      "modifier": null
    },
    {
      "repr": "BKN035",
      "type": "BKN",
      "altitude": 35,
      "modifier": null
    }
  ],
  "flight_rules": "VFR",
  "other": [],
  "visibility": {
    "repr": "10",
    "value": 10,
    "spoken": "one zero"
  },
  "wind_direction": {
    "repr": "260",
    "value": 260,
    "spoken": "two six zero"
  },
  "wind_gust": null,
  "wind_speed": {
    "repr": "08",
    "value": 8,
    "spoken": "eight"
  },
  "wx_codes": [
    {
      "repr": "-RA",
      "value": "Light Rain"
    }
  ],
  "raw": "KAWO 132056Z AUTO 26008KT 10SM -RA SCT028 BKN035 08/03 A2982 RMK AO2 RAE1959B50 SLP101 P0000 60000 T00780028 58012",
  "sanitized": "KAWO 132056Z 26008KT 10SM -RA SCT028 BKN035 08/03 A2982 RMK AO2 RAE1959B50 SLP101 P0000 60000 T00780028 58012",
  "station": "KAWO",
  "time": {
    "repr": "132056Z",
    "dt": "2023-02-13T20:56:00Z"
  },
  "remarks": "RMK AO2 RAE1959B50 SLP101 P0000 60000 T00780028 58012",
  "dewpoint": {
    "repr": "03",
    "value": 3,
    "spoken": "three"
  },
  "relative_humidity": 0.7063989825322067,
  "remarks_info": {
    "maximum_temperature_6": null,
    "minimum_temperature_6": null,
    "pressure_tendency": {
      "repr": "58012",
      "tendency": "Steady or increasing, then decreasing",
      "change": 1.2
    },
    "precip_36_hours": {
      "repr": "60000",
      "value": 0,
      "spoken": "zero"
    },
    "precip_24_hours": null,
    "sunshine_minutes": null,
    "codes": [
      {
        "repr": "AO2",
        "value": "Automated with precipitation sensor"
      },
      {
        "repr": "P0000",
        "value": "Trace amount of rain in the last hour"
      }
    ],
    "dewpoint_decimal": {
      "repr": "0028",
      "value": 2.8,
      "spoken": "two point eight"
    },
    "maximum_temperature_24": null,
    "minimum_temperature_24": null,
    "precip_hourly": null,
    "sea_level_pressure": {
      "repr": "SLP101",
      "value": 1010.1,
      "spoken": "one zero one zero point one"
    },
    "snow_depth": null,
    "temperature_decimal": {
      "repr": "0078",
      "value": 7.8,
      "spoken": "seven point eight"
    }
  },
  "runway_visibility": [],
  "temperature": {
    "repr": "08",
    "value": 8,
    "spoken": "eight"
  },
  "wind_variable_direction": [],
  "density_altitude": -588,
  "pressure_altitude": 242,
  "units": {
    "accumulation": "in",
    "altimeter": "inHg",
    "altitude": "ft",
    "temperature": "C",
    "visibility": "sm",
    "wind_speed": "kt"
  }
}
