{
  "meta": {
    "timestamp": "2023-10-22T08:25:23.862420Z",
    "stations_updated": "2023-10-01"
  },
  "altimeter": {
    "repr": "A2989",
    "value": 29.89,
    "spoken": "two nine point eight nine"
  },
  "clouds": [
    {
      "repr": "OVC008",
      "type": "OVC",
      "altitude": 8,
      "modifier": null
    }
  ],
  "flight_rules": "IFR",
  "other": [],
  "visibility": {
    "repr": "5",
    "value": 5,
    "spoken": "five"
  },
  "wind_direction": {
    "repr": "290",
    "value": 290,
    "spoken": "two nine zero"
  },
  "wind_gust": null,
  "wind_speed": {
    "repr": "05",
    "value": 5,
    "spoken": "five"
  },
  "wx_codes": [
    {
      "repr": "BR",
      "value": "Mist"
    }
  ],
  "raw": "KAWO 220803Z AUTO 29005KT 5SM BR OVC008 11/11 A2989 RMK AO2 CIG 004V009 KAWO 220756Z AUTO 30003KT 5SM BR BKN004 OVC008 11/11 A2989 RMK AO2 RAB11E29 SLP126 P0000 T01110106 401330111 KAWO 220739Z AUTO 00000KT 5SM BR OVC004 11/11 A2989 RMK AO2 RAB11E29 P0000 KAWO 220656Z AUTO 00000KT 7SM BKN006 OVC011 11/11 A2989 RMK AO2 RAE49 SLP125 P0000 T01110106",
  "sanitized": "KAWO 220803Z 29005KT 5SM BR OVC008 11/11 A2989 RMK AO2 CIG 004V009 KAWO 220756Z AUTO 30003KT 5SM BR BKN004 OVC008 11/11 A2989 RMK AO2 RAB11E29 SLP126 P0000 T01110106 401330111 KAWO 220739Z AUTO 00000KT 5SM BR OVC004 11/11 A2989 RMK AO2 RAB11E29 P0000 KAWO 220656Z AUTO 00000KT 7SM BKN006 OVC011 11/11 A2989 RMK AO2 RAE49 SLP125 P0000 T01110106",
  "station": "KAWO",
  "time": {
    "repr": "220803Z",
    "dt": "2023-10-22T08:03:00Z"
  },
  "remarks": "RMK AO2 CIG 004V009 KAWO 220756Z AUTO 30003KT 5SM BR BKN004 OVC008 11/11 A2989 RMK AO2 RAB11E29 SLP126 P0000 T01110106 401330111 KAWO 220739Z AUTO 00000KT 5SM BR OVC004 11/11 A2989 RMK AO2 RAB11E29 P0000 KAWO 220656Z AUTO 00000KT 7SM BKN006 OVC011 11/11 A2989 RMK AO2 RAE49 SLP125 P0000 T01110106",
  "dewpoint": {
    "repr": "11",
    "value": 11,
    "spoken": "one one"
  },
  "relative_humidity": 0.9672929424668637,
  "remarks_info": {
    "maximum_temperature_6": null,
    "minimum_temperature_6": null,
    "pressure_tendency": null,
    "precip_36_hours": null,
    "precip_24_hours": null,
    "sunshine_minutes": null,
    "codes": [
      {
        "repr": "AO2",
        "value": "Automated with precipitation sensor"
      },
      {
        "repr": "AO2",
        "value": "Automated with precipitation sensor"
      },
      {
        "repr": "AO2",
        "value": "Automated with precipitation sensor"
      },
      {
        "repr": "AO2",
        "value": "Automated with precipitation sensor"
      },
      {
        "repr": "P0000",
        "value": "Trace amount of rain in the last hour"
      },
      {
        "repr": "P0000",
        "value": "Trace amount of rain in the last hour"
      },
      {
        "repr": "P0000",
        "value": "Trace amount of rain in the last hour"
      },
      {
        "repr": "RAE49",
        "value": "Rain ended at :49"
      }
    ],
    "dewpoint_decimal": {
      "repr": "0106",
      "value": 10.6,
      "spoken": "one zero point six"
    },
    "maximum_temperature_24": {
      "repr": "0133",
      "value": 13.3,
      "spoken": "one three point three"
    },
    "minimum_temperature_24": {
      "repr": "0111",
      "value": 11.1,
      "spoken": "one one point one"
    },
    "precip_hourly": null,
    "sea_level_pressure": {
      "repr": "SLP126",
      "value": 1012.6,
      "spoken": "one zero one two point six"
    },
    "snow_depth": null,
    "temperature_decimal": {
      "repr": "0111",
      "value": 11.1,
      "spoken": "one one point one"
    }
  },
  "runway_visibility": [],
  "temperature": {
    "repr": "11",
    "value": 11,
    "spoken": "one one"
  },
  "wind_variable_direction": [],
  "density_altitude": -262,
  "pressure_altitude": 172,
  "units": {
    "accumulation": "in",
    "altimeter": "inHg",
    "altitude": "ft",
    "temperature": "C",
    "visibility": "sm",
    "wind_speed": "kt"
  }
}
