{
  "altimeter": {
    "repr": "A3010",
    "spoken": "three zero point one zero",
    "value": 30.1
  },
  "clouds": [],
  "density_altitude": -2284,
  "dewpoint": {
    "repr": "M04",
    "spoken": "minus four",
    "value": -4
  },
  "flight_rules": "VFR",
  "meta": {
    "cache-timestamp": "2023-11-16T10:30:06.161000Z",
    "stations_updated": "2023-10-28",
    "timestamp": "2023-11-16T10:31:05.835575Z"
  },
  "other": [],
  "pressure_altitude": -38,
  "raw": "KAWO 161021Z AUTO 36005KT 7SM CLR M04/M04 A3010 RMK AO2 FZRANO",
  "relative_humidity": 1,
  "remarks": "RMK AO2 FZRANO",
  "remarks_info": {
    "codes": [
      {
        "repr": "AO2",
        "value": "Automated with precipitation sensor"
      },
      {
        "repr": "FZRANO",
        "value": "Freezing rain information not available"
      }
    ],
    "dewpoint_decimal": null,
    "maximum_temperature_24": null,
    "maximum_temperature_6": null,
    "minimum_temperature_24": null,
    "minimum_temperature_6": null,
    "precip_24_hours": null,
    "precip_36_hours": null,
    "precip_hourly": null,
    "pressure_tendency": null,
    "sea_level_pressure": null,
    "snow_depth": null,
    "sunshine_minutes": null,
    "temperature_decimal": null
  },
  "runway_visibility": [],
  "sanitized": "KAWO 161021Z 36005KT 7SM M04/M04 A3010 RMK AO2 FZRANO",
  "station": "KAWO",
  "temperature": {
    "repr": "M04",
    "spoken": "minus four",
    "value": -4
  },
  "time": {
    "dt": "2023-11-16T10:21:00Z",
    "repr": "161021Z"
  },
  "units": {
    "accumulation": "in",
    "altimeter": "inHg",
    "altitude": "ft",
    "temperature": "C",
    "visibility": "sm",
    "wind_speed": "kt"
  },
  "visibility": {
    "repr": "7",
    "spoken": "seven",
    "value": 7
  },
  "wind_direction": {
    "repr": "360",
    "spoken": "three six zero",
    "value": 360
  },
  "wind_gust": null,
  "wind_speed": {
    "repr": "05",
    "spoken": "five",
    "value": 5
  },
  "wind_variable_direction": [],
  "wx_codes": []
}
