{
  "altimeter": {
    "repr": "A2972",
    "spoken": "two nine point seven two",
    "value": 29.72
  },
  "clouds": [
    {
      "altitude": 1,
      "modifier": null,
      "repr": "FEW001",
      "type": "FEW"
    },
    {
      "altitude": 70,
      "modifier": null,
      "repr": "OVC070",
      "type": "OVC"
    }
  ],
  "density_altitude": -1304,
  "dewpoint": {
    "repr": "01",
    "spoken": "one",
    "value": 1
  },
  "flight_rules": "LIFR",
  "meta": {
    "cache-timestamp": "2024-02-07T15:22:03.785000Z",
    "stations_updated": "2024-01-01",
    "timestamp": "2024-02-07T15:22:27.029699Z"
  },
  "other": [],
  "pressure_altitude": 342,
  "raw": "KAWO 071512Z AUTO 32003KT 1/2SM FG FEW001 OVC070 01/01 A2972 RMK AO2 FZRANO",
  "relative_humidity": 1,
  "remarks": "RMK AO2 FZRANO",
  "remarks_info": {
    "codes": [
      {
        "repr": "AO2",
        "value": "Automated with precipitation sensor"
      },
      {
        "repr": "FZRANO",
        "value": "Freezing rain information not available"
      }
    ],
    "dewpoint_decimal": null,
    "maximum_temperature_24": null,
    "maximum_temperature_6": null,
    "minimum_temperature_24": null,
    "minimum_temperature_6": null,
    "precip_24_hours": null,
    "precip_36_hours": null,
    "precip_hourly": null,
    "pressure_tendency": null,
    "sea_level_pressure": null,
    "snow_depth": null,
    "sunshine_minutes": null,
    "temperature_decimal": null
  },
  "runway_visibility": [],
  "sanitized": "KAWO 071512Z 32003KT 1/2SM FG FEW001 OVC070 01/01 A2972 RMK AO2 FZRANO",
  "station": "KAWO",
  "temperature": {
    "repr": "01",
    "spoken": "one",
    "value": 1
  },
  "time": {
    "dt": "2024-02-07T15:12:00Z",
    "repr": "071512Z"
  },
  "units": {
    "accumulation": "in",
    "altimeter": "inHg",
    "altitude": "ft",
    "temperature": "C",
    "visibility": "sm",
    "wind_speed": "kt"
  },
  "visibility": {
    "denominator": 2,
    "normalized": "1/2",
    "numerator": 1,
    "repr": "1/2",
    "spoken": "one half",
    "value": 0.5
  },
  "wind_direction": {
    "repr": "320",
    "spoken": "three two zero",
    "value": 320
  },
  "wind_gust": null,
  "wind_speed": {
    "repr": "03",
    "spoken": "three",
    "value": 3
  },
  "wind_variable_direction": [],
  "wx_codes": [
    {
      "repr": "FG",
      "value": "Fog"
    }
  ]
}
