{
  "altimeter": {
    "repr": "A3006",
    "spoken": "three zero point zero six",
    "value": 30.06
  },
  "clouds": [],
  "density_altitude": 1032,
  "dewpoint": {
    "repr": "16",
    "spoken": "one six",
    "value": 16
  },
  "flight_rules": "VFR",
  "meta": {
    "stations_updated": "2024-06-12",
    "timestamp": "2024-08-01T00:34:37.079872Z"
  },
  "other": [],
  "pressure_altitude": 2,
  "raw": "KAWO 312356Z AUTO 30011KT 10SM CLR 23/16 A3006 RMK AO2 SLP183 T02330156 10250 20194 56008",
  "relative_humidity": 0.6192402182401442,
  "remarks": "RMK AO2 SLP183 T02330156 10250 20194 56008",
  "remarks_info": {
    "codes": [
      {
        "repr": "AO2",
        "value": "Automated with precipitation sensor"
      }
    ],
    "dewpoint_decimal": {
      "repr": "0156",
      "spoken": "one five point six",
      "value": 15.6
    },
    "maximum_temperature_24": null,
    "maximum_temperature_6": {
      "repr": "10250",
      "spoken": "two five point zero",
      "value": 25
    },
    "minimum_temperature_24": null,
    "minimum_temperature_6": {
      "repr": "20194",
      "spoken": "one nine point four",
      "value": 19.4
    },
    "precip_24_hours": null,
    "precip_36_hours": null,
    "precip_hourly": null,
    "pressure_tendency": {
      "change": 0.8,
      "repr": "56008",
      "tendency": "Decreasing, then steady"
    },
    "sea_level_pressure": {
      "repr": "SLP183",
      "spoken": "one zero one eight point three",
      "value": 1018.3
    },
    "snow_depth": null,
    "sunshine_minutes": null,
    "temperature_decimal": {
      "repr": "0233",
      "spoken": "two three point three",
      "value": 23.3
    }
  },
  "runway_visibility": [],
  "sanitized": "KAWO 312356Z 30011KT 10SM 23/16 A3006 RMK AO2 SLP183 T02330156 10250 20194 56008",
  "station": "KAWO",
  "temperature": {
    "repr": "23",
    "spoken": "two three",
    "value": 23
  },
  "time": {
    "dt": "2024-07-31T23:56:00Z",
    "repr": "312356Z"
  },
  "units": {
    "accumulation": "in",
    "altimeter": "inHg",
    "altitude": "ft",
    "temperature": "C",
    "visibility": "sm",
    "wind_speed": "kt"
  },
  "visibility": {
    "repr": "10",
    "spoken": "one zero",
    "value": 10
  },
  "wind_direction": {
    "repr": "300",
    "spoken": "three zero zero",
    "value": 300
  },
  "wind_gust": null,
  "wind_speed": {
    "repr": "11",
    "spoken": "one one",
    "value": 11
  },
  "wind_variable_direction": [],
  "wx_codes": []
}
