{
  "meta": {
    "timestamp": "2023-05-22T23:40:40.345905Z",
    "stations_updated": "2023-03-11",
    "cache-timestamp": "2023-05-22T23:40:06.755000Z"
  },
  "altimeter": {
    "repr": "A3018",
    "value": 30.18,
    "spoken": "three zero point one eight"
  },
  "clouds": [
    {
      "repr": "BKN043",
      "type": "BKN",
      "altitude": 43,
      "modifier": null
    },
    {
      "repr": "OVC050",
      "type": "OVC",
      "altitude": 50,
      "modifier": null
    }
  ],
  "flight_rules": "VFR",
  "other": [],
  "visibility": {
    "repr": "10",
    "value": 10,
    "spoken": "one zero"
  },
  "wind_direction": {
    "repr": "130",
    "value": 130,
    "spoken": "one three zero"
  },
  "wind_gust": null,
  "wind_speed": {
    "repr": "05",
    "value": 5,
    "spoken": "five"
  },
  "wx_codes": [],
  "raw": "KAWO 222256Z AUTO 13005KT 10SM BKN043 OVC050 13/09 A3018 RMK AO2 SLP224 T01330094",
  "sanitized": "KAWO 222256Z 13005KT 10SM BKN043 OVC050 13/09 A3018 RMK AO2 SLP224 T01330094",
  "station": "KAWO",
  "time": {
    "repr": "222256Z",
    "dt": "2023-05-22T22:56:00Z"
  },
  "remarks": "RMK AO2 SLP224 T01330094",
  "dewpoint": {
    "repr": "09",
    "value": 9,
    "spoken": "nine"
  },
  "relative_humidity": 0.77230290576919,
  "remarks_info": {
    "maximum_temperature_6": null,
    "minimum_temperature_6": null,
    "pressure_tendency": null,
    "precip_36_hours": null,
    "precip_24_hours": null,
    "sunshine_minutes": null,
    "codes": [
      {
        "repr": "AO2",
        "value": "Automated with precipitation sensor"
      }
    ],
    "dewpoint_decimal": {
      "repr": "0094",
      "value": 9.4,
      "spoken": "nine point four"
    },
    "maximum_temperature_24": null,
    "minimum_temperature_24": null,
    "precip_hourly": null,
    "sea_level_pressure": {
      "repr": "SLP224",
      "value": 1022.4,
      "spoken": "one zero two two point four"
    },
    "snow_depth": null,
    "temperature_decimal": {
      "repr": "0133",
      "value": 13.3,
      "spoken": "one three point three"
    }
  },
  "runway_visibility": [],
  "temperature": {
    "repr": "13",
    "value": 13,
    "spoken": "one three"
  },
  "wind_variable_direction": [],
  "density_altitude": -288,
  "pressure_altitude": -118,
  "units": {
    "accumulation": "in",
    "altimeter": "inHg",
    "altitude": "ft",
    "temperature": "C",
    "visibility": "sm",
    "wind_speed": "kt"
  }
}
