{
  "altimeter": {
    "repr": "A2996",
    "spoken": "two nine point nine six",
    "value": 29.96
  },
  "clouds": [
    {
      "altitude": 27,
      "modifier": null,
      "repr": "FEW027",
      "type": "FEW"
    },
    {
      "altitude": 40,
      "modifier": null,
      "repr": "OVC040",
      "type": "OVC"
    }
  ],
  "density_altitude": -800,
  "dewpoint": {
    "repr": "07",
    "spoken": "seven",
    "value": 7
  },
  "flight_rules": "VFR",
  "meta": {
    "cache-timestamp": "2023-11-13T14:40:04.313000Z",
    "stations_updated": "2023-10-28",
    "timestamp": "2023-11-13T14:40:44.107786Z"
  },
  "other": [],
  "pressure_altitude": 102,
  "raw": "KAWO 131356Z AUTO 05003KT 10SM -RA FEW027 OVC040 07/07 A2996 RMK AO2 SLP150 P0003 T00720067",
  "relative_humidity": 0.9662838843819482,
  "remarks": "RMK AO2 SLP150 P0003 T00720067",
  "remarks_info": {
    "codes": [
      {
        "repr": "AO2",
        "value": "Automated with precipitation sensor"
      }
    ],
    "dewpoint_decimal": {
      "repr": "0067",
      "spoken": "six point seven",
      "value": 6.7
    },
    "maximum_temperature_24": null,
    "maximum_temperature_6": null,
    "minimum_temperature_24": null,
    "minimum_temperature_6": null,
    "precip_24_hours": null,
    "precip_36_hours": null,
    "precip_hourly": {
      "repr": "P0003",
      "spoken": "zero point zero three",
      "value": 0.03
    },
    "pressure_tendency": null,
    "sea_level_pressure": {
      "repr": "SLP150",
      "spoken": "one zero one five point zero",
      "value": 1015
    },
    "snow_depth": null,
    "sunshine_minutes": null,
    "temperature_decimal": {
      "repr": "0072",
      "spoken": "seven point two",
      "value": 7.2
    }
  },
  "runway_visibility": [],
  "sanitized": "KAWO 131356Z 05003KT 10SM -RA FEW027 OVC040 07/07 A2996 RMK AO2 SLP150 P0003 T00720067",
  "station": "KAWO",
  "temperature": {
    "repr": "07",
    "spoken": "seven",
    "value": 7
  },
  "time": {
    "dt": "2023-11-13T13:56:00Z",
    "repr": "131356Z"
  },
  "units": {
    "accumulation": "in",
    "altimeter": "inHg",
    "altitude": "ft",
    "temperature": "C",
    "visibility": "sm",
    "wind_speed": "kt"
  },
  "visibility": {
    "repr": "10",
    "spoken": "one zero",
    "value": 10
  },
  "wind_direction": {
    "repr": "050",
    "spoken": "zero five zero",
    "value": 50
  },
  "wind_gust": null,
  "wind_speed": {
    "repr": "03",
    "spoken": "three",
    "value": 3
  },
  "wind_variable_direction": [],
  "wx_codes": [
    {
      "repr": "-RA",
      "value": "Light Rain"
    }
  ]
}
