{
  "altimeter": {
    "repr": "A3040",
    "spoken": "three zero point four zero",
    "value": 30.4
  },
  "clouds": [],
  "density_altitude": -1168,
  "dewpoint": {
    "repr": "03",
    "spoken": "three",
    "value": 3
  },
  "flight_rules": "VFR",
  "meta": {
    "cache-timestamp": "2023-11-24T00:26:03.704000Z",
    "stations_updated": "2023-10-28",
    "timestamp": "2023-11-24T00:26:16.126268Z"
  },
  "other": [],
  "pressure_altitude": -338,
  "raw": "KAWO 232356Z AUTO 16003KT 10SM CLR 08/03 A3040 RMK AO2 SLP298 T00780028 10089 20022 55008",
  "relative_humidity": 0.7063989825322067,
  "remarks": "RMK AO2 SLP298 T00780028 10089 20022 55008",
  "remarks_info": {
    "codes": [
      {
        "repr": "AO2",
        "value": "Automated with precipitation sensor"
      }
    ],
    "dewpoint_decimal": {
      "repr": "0028",
      "spoken": "two point eight",
      "value": 2.8
    },
    "maximum_temperature_24": null,
    "maximum_temperature_6": {
      "repr": "10089",
      "spoken": "eight point nine",
      "value": 8.9
    },
    "minimum_temperature_24": null,
    "minimum_temperature_6": {
      "repr": "20022",
      "spoken": "two point two",
      "value": 2.2
    },
    "precip_24_hours": null,
    "precip_36_hours": null,
    "precip_hourly": null,
    "pressure_tendency": {
      "change": 0.8,
      "repr": "55008",
      "tendency": "Decreasing, then increasing"
    },
    "sea_level_pressure": {
      "repr": "SLP298",
      "spoken": "one zero two nine point eight",
      "value": 1029.8
    },
    "snow_depth": null,
    "sunshine_minutes": null,
    "temperature_decimal": {
      "repr": "0078",
      "spoken": "seven point eight",
      "value": 7.8
    }
  },
  "runway_visibility": [],
  "sanitized": "KAWO 232356Z 16003KT 10SM 08/03 A3040 RMK AO2 SLP298 T00780028 10089 20022 55008",
  "station": "KAWO",
  "temperature": {
    "repr": "08",
    "spoken": "eight",
    "value": 8
  },
  "time": {
    "dt": "2023-11-23T23:56:00Z",
    "repr": "232356Z"
  },
  "units": {
    "accumulation": "in",
    "altimeter": "inHg",
    "altitude": "ft",
    "temperature": "C",
    "visibility": "sm",
    "wind_speed": "kt"
  },
  "visibility": {
    "repr": "10",
    "spoken": "one zero",
    "value": 10
  },
  "wind_direction": {
    "repr": "160",
    "spoken": "one six zero",
    "value": 160
  },
  "wind_gust": null,
  "wind_speed": {
    "repr": "03",
    "spoken": "three",
    "value": 3
  },
  "wind_variable_direction": [],
  "wx_codes": []
}
