{
  "altimeter": {
    "repr": "A3039",
    "spoken": "three zero point three nine",
    "value": 30.39
  },
  "clouds": [],
  "density_altitude": -2562,
  "dewpoint": {
    "repr": "M04",
    "spoken": "minus four",
    "value": -4
  },
  "flight_rules": "VFR",
  "meta": {
    "cache-timestamp": "2023-11-25T12:08:02.875000Z",
    "stations_updated": "2023-10-28",
    "timestamp": "2023-11-25T12:08:22.077385Z"
  },
  "other": [],
  "pressure_altitude": -328,
  "raw": "KAWO 251156Z AUTO 00000KT 10SM CLR M04/M04 A3039 RMK AO2 SLP298 T10391044 11028 21039 51004 FZRANO",
  "relative_humidity": 0.9631438284581738,
  "remarks": "RMK AO2 SLP298 T10391044 11028 21039 51004 FZRANO",
  "remarks_info": {
    "codes": [
      {
        "repr": "AO2",
        "value": "Automated with precipitation sensor"
      },
      {
        "repr": "FZRANO",
        "value": "Freezing rain information not available"
      }
    ],
    "dewpoint_decimal": {
      "repr": "1044",
      "spoken": "minus four point four",
      "value": -4.4
    },
    "maximum_temperature_24": null,
    "maximum_temperature_6": {
      "repr": "11028",
      "spoken": "minus two point eight",
      "value": -2.8
    },
    "minimum_temperature_24": null,
    "minimum_temperature_6": {
      "repr": "21039",
      "spoken": "minus three point nine",
      "value": -3.9
    },
    "precip_24_hours": null,
    "precip_36_hours": null,
    "precip_hourly": null,
    "pressure_tendency": {
      "change": 0.4,
      "repr": "51004",
      "tendency": "Increasing, then steady"
    },
    "sea_level_pressure": {
      "repr": "SLP298",
      "spoken": "one zero two nine point eight",
      "value": 1029.8
    },
    "snow_depth": null,
    "sunshine_minutes": null,
    "temperature_decimal": {
      "repr": "1039",
      "spoken": "minus three point nine",
      "value": -3.9
    }
  },
  "runway_visibility": [],
  "sanitized": "KAWO 251156Z 00000KT 10SM M04/M04 A3039 RMK AO2 SLP298 T10391044 11028 21039 51004 FZRANO",
  "station": "KAWO",
  "temperature": {
    "repr": "M04",
    "spoken": "minus four",
    "value": -4
  },
  "time": {
    "dt": "2023-11-25T11:56:00Z",
    "repr": "251156Z"
  },
  "units": {
    "accumulation": "in",
    "altimeter": "inHg",
    "altitude": "ft",
    "temperature": "C",
    "visibility": "sm",
    "wind_speed": "kt"
  },
  "visibility": {
    "repr": "10",
    "spoken": "one zero",
    "value": 10
  },
  "wind_direction": {
    "repr": "000",
    "spoken": "zero zero zero",
    "value": 0
  },
  "wind_gust": null,
  "wind_speed": {
    "repr": "00",
    "spoken": "zero",
    "value": 0
  },
  "wind_variable_direction": [],
  "wx_codes": []
}
