{
  "meta": {
    "timestamp": "2023-03-29T00:32:12.076980Z",
    "stations_updated": "2023-03-11"
  },
  "altimeter": {
    "repr": "A2978",
    "value": 29.78,
    "spoken": "two nine point seven eight"
  },
  "clouds": [],
  "flight_rules": "VFR",
  "other": [],
  "visibility": {
    "repr": "10",
    "value": 10,
    "spoken": "one zero"
  },
  "wind_direction": {
    "repr": "160",
    "value": 160,
    "spoken": "one six zero"
  },
  "wind_gust": null,
  "wind_speed": {
    "repr": "08",
    "value": 8,
    "spoken": "eight"
  },
  "wx_codes": [],
  "raw": "KAWO 282356Z AUTO 16008KT 10SM CLR 16/M05 A2978 RMK AO2 SLP089 T01561050 10172 20139 55004",
  "sanitized": "KAWO 282356Z 16008KT 10SM 16/M05 A2978 RMK AO2 SLP089 T01561050 10172 20139 55004",
  "station": "KAWO",
  "time": {
    "repr": "282356Z",
    "dt": "2023-03-28T23:56:00Z"
  },
  "remarks": "RMK AO2 SLP089 T01561050 10172 20139 55004",
  "dewpoint": {
    "repr": "M05",
    "value": -5,
    "spoken": "minus five"
  },
  "relative_humidity": 0.23827664119682593,
  "remarks_info": {
    "maximum_temperature_6": {
      "repr": "10172",
      "value": 17.2,
      "spoken": "one seven point two"
    },
    "minimum_temperature_6": {
      "repr": "20139",
      "value": 13.9,
      "spoken": "one three point nine"
    },
    "pressure_tendency": {
      "repr": "55004",
      "tendency": "Decreasing, then increasing",
      "change": 0.4
    },
    "precip_36_hours": null,
    "precip_24_hours": null,
    "sunshine_minutes": null,
    "codes": [
      {
        "repr": "AO2",
        "value": "Automated with precipitation sensor"
      }
    ],
    "dewpoint_decimal": {
      "repr": "1050",
      "value": -5,
      "spoken": "minus five point zero"
    },
    "maximum_temperature_24": null,
    "minimum_temperature_24": null,
    "precip_hourly": null,
    "sea_level_pressure": {
      "repr": "SLP089",
      "value": 1008.9,
      "spoken": "one zero zero eight point nine"
    },
    "snow_depth": null,
    "temperature_decimal": {
      "repr": "0156",
      "value": 15.6,
      "spoken": "one five point six"
    }
  },
  "runway_visibility": [],
  "temperature": {
    "repr": "16",
    "value": 16,
    "spoken": "one six"
  },
  "wind_variable_direction": [],
  "density_altitude": 388,
  "pressure_altitude": 282,
  "units": {
    "accumulation": "in",
    "altimeter": "inHg",
    "altitude": "ft",
    "temperature": "C",
    "visibility": "sm",
    "wind_speed": "kt"
  }
}
