{
  "altimeter": {
    "repr": "A2994",
    "spoken": "two nine point nine four",
    "value": 29.94
  },
  "clouds": [
    {
      "altitude": 75,
      "modifier": null,
      "repr": "FEW075",
      "type": "FEW"
    },
    {
      "altitude": 95,
      "modifier": null,
      "repr": "SCT095",
      "type": "SCT"
    }
  ],
  "density_altitude": 1956,
  "dewpoint": {
    "repr": "12",
    "spoken": "one two",
    "value": 12
  },
  "flight_rules": "VFR",
  "meta": {
    "stations_updated": "2024-06-12",
    "timestamp": "2024-07-08T02:27:33.456934Z"
  },
  "other": [],
  "pressure_altitude": 122,
  "raw": "KAWO 080156Z AUTO 30007KT 10SM FEW075 SCT095 30/12 A2994 RMK AO2 SLP143 T03000117",
  "relative_humidity": 0.3236467582916369,
  "remarks": "RMK AO2 SLP143 T03000117",
  "remarks_info": {
    "codes": [
      {
        "repr": "AO2",
        "value": "Automated with precipitation sensor"
      }
    ],
    "dewpoint_decimal": {
      "repr": "0117",
      "spoken": "one one point seven",
      "value": 11.7
    },
    "maximum_temperature_24": null,
    "maximum_temperature_6": null,
    "minimum_temperature_24": null,
    "minimum_temperature_6": null,
    "precip_24_hours": null,
    "precip_36_hours": null,
    "precip_hourly": null,
    "pressure_tendency": null,
    "sea_level_pressure": {
      "repr": "SLP143",
      "spoken": "one zero one four point three",
      "value": 1014.3
    },
    "snow_depth": null,
    "sunshine_minutes": null,
    "temperature_decimal": {
      "repr": "0300",
      "spoken": "three zero point zero",
      "value": 30
    }
  },
  "runway_visibility": [],
  "sanitized": "KAWO 080156Z 30007KT 10SM FEW075 SCT095 30/12 A2994 RMK AO2 SLP143 T03000117",
  "station": "KAWO",
  "temperature": {
    "repr": "30",
    "spoken": "three zero",
    "value": 30
  },
  "time": {
    "dt": "2024-07-08T01:56:00Z",
    "repr": "080156Z"
  },
  "units": {
    "accumulation": "in",
    "altimeter": "inHg",
    "altitude": "ft",
    "temperature": "C",
    "visibility": "sm",
    "wind_speed": "kt"
  },
  "visibility": {
    "repr": "10",
    "spoken": "one zero",
    "value": 10
  },
  "wind_direction": {
    "repr": "300",
    "spoken": "three zero zero",
    "value": 300
  },
  "wind_gust": null,
  "wind_speed": {
    "repr": "07",
    "spoken": "seven",
    "value": 7
  },
  "wind_variable_direction": [],
  "wx_codes": []
}
