{
  "altimeter": {
    "repr": "A3028",
    "spoken": "three zero point two eight",
    "value": 30.28
  },
  "clouds": [],
  "density_altitude": -2788,
  "dewpoint": {
    "repr": "M17",
    "spoken": "minus one seven",
    "value": -17
  },
  "flight_rules": "VFR",
  "meta": {
    "cache-timestamp": "2024-01-12T22:40:04.623000Z",
    "stations_updated": "2023-10-28",
    "timestamp": "2024-01-12T22:40:33.536897Z"
  },
  "other": [],
  "pressure_altitude": -218,
  "raw": "KAWO 122156Z AUTO 01008KT 10SM CLR M07/M17 A3028 RMK AO2 SLP261 T10671172 FZRANO",
  "relative_humidity": 0.43039144321732126,
  "remarks": "RMK AO2 SLP261 T10671172 FZRANO",
  "remarks_info": {
    "codes": [
      {
        "repr": "AO2",
        "value": "Automated with precipitation sensor"
      },
      {
        "repr": "FZRANO",
        "value": "Freezing rain information not available"
      }
    ],
    "dewpoint_decimal": {
      "repr": "1172",
      "spoken": "minus one seven point two",
      "value": -17.2
    },
    "maximum_temperature_24": null,
    "maximum_temperature_6": null,
    "minimum_temperature_24": null,
    "minimum_temperature_6": null,
    "precip_24_hours": null,
    "precip_36_hours": null,
    "precip_hourly": null,
    "pressure_tendency": null,
    "sea_level_pressure": {
      "repr": "SLP261",
      "spoken": "one zero two six point one",
      "value": 1026.1
    },
    "snow_depth": null,
    "sunshine_minutes": null,
    "temperature_decimal": {
      "repr": "1067",
      "spoken": "minus six point seven",
      "value": -6.7
    }
  },
  "runway_visibility": [],
  "sanitized": "KAWO 122156Z 01008KT 10SM M07/M17 A3028 RMK AO2 SLP261 T10671172 FZRANO",
  "station": "KAWO",
  "temperature": {
    "repr": "M07",
    "spoken": "minus seven",
    "value": -7
  },
  "time": {
    "dt": "2024-01-12T21:56:00Z",
    "repr": "122156Z"
  },
  "units": {
    "accumulation": "in",
    "altimeter": "inHg",
    "altitude": "ft",
    "temperature": "C",
    "visibility": "sm",
    "wind_speed": "kt"
  },
  "visibility": {
    "repr": "10",
    "spoken": "one zero",
    "value": 10
  },
  "wind_direction": {
    "repr": "010",
    "spoken": "zero one zero",
    "value": 10
  },
  "wind_gust": null,
  "wind_speed": {
    "repr": "08",
    "spoken": "eight",
    "value": 8
  },
  "wind_variable_direction": [],
  "wx_codes": []
}
