{
  "meta": {
    "timestamp": "2023-08-26T15:20:59.902079Z",
    "stations_updated": "2023-08-05",
    "cache-timestamp": "2023-08-26T15:20:06.553000Z"
  },
  "altimeter": {
    "repr": "A3005",
    "value": 30.05,
    "spoken": "three zero point zero five"
  },
  "clouds": [],
  "flight_rules": "MVFR",
  "other": [],
  "visibility": {
    "repr": "5",
    "value": 5,
    "spoken": "five"
  },
  "wind_direction": {
    "repr": "000",
    "value": 0,
    "spoken": "zero zero zero"
  },
  "wind_gust": null,
  "wind_speed": {
    "repr": "00",
    "value": 0,
    "spoken": "zero"
  },
  "wx_codes": [
    {
      "repr": "BR",
      "value": "Mist"
    }
  ],
  "raw": "KAWO 261456Z AUTO 00000KT 5SM BR CLR 14/12 A3005 RMK AO2 SLP180 T01440122 50002",
  "sanitized": "KAWO 261456Z 00000KT 5SM BR 14/12 A3005 RMK AO2 SLP180 T01440122 50002",
  "station": "KAWO",
  "time": {
    "repr": "261456Z",
    "dt": "2023-08-26T14:56:00Z"
  },
  "remarks": "RMK AO2 SLP180 T01440122 50002",
  "dewpoint": {
    "repr": "12",
    "value": 12,
    "spoken": "one two"
  },
  "relative_humidity": 0.8662852364578876,
  "remarks_info": {
    "maximum_temperature_6": null,
    "minimum_temperature_6": null,
    "pressure_tendency": {
      "repr": "50002",
      "tendency": "Increasing, then decreasing",
      "change": 0.2
    },
    "precip_36_hours": null,
    "precip_24_hours": null,
    "sunshine_minutes": null,
    "codes": [
      {
        "repr": "AO2",
        "value": "Automated with precipitation sensor"
      }
    ],
    "dewpoint_decimal": {
      "repr": "0122",
      "value": 12.2,
      "spoken": "one two point two"
    },
    "maximum_temperature_24": null,
    "minimum_temperature_24": null,
    "precip_hourly": null,
    "sea_level_pressure": {
      "repr": "SLP180",
      "value": 1018,
      "spoken": "one zero one eight point zero"
    },
    "snow_depth": null,
    "temperature_decimal": {
      "repr": "0144",
      "value": 14.4,
      "spoken": "one four point four"
    }
  },
  "runway_visibility": [],
  "temperature": {
    "repr": "14",
    "value": 14,
    "spoken": "one four"
  },
  "wind_variable_direction": [],
  "density_altitude": -26,
  "pressure_altitude": 12,
  "units": {
    "accumulation": "in",
    "altimeter": "inHg",
    "altitude": "ft",
    "temperature": "C",
    "visibility": "sm",
    "wind_speed": "kt"
  }
}
