{
  "altimeter": {
    "repr": "A2983",
    "spoken": "two nine point eight three",
    "value": 29.83
  },
  "clouds": [
    {
      "altitude": 28,
      "modifier": null,
      "repr": "BKN028",
      "type": "BKN"
    },
    {
      "altitude": 95,
      "modifier": null,
      "repr": "OVC095",
      "type": "OVC"
    }
  ],
  "density_altitude": -802,
  "dewpoint": {
    "repr": "05",
    "spoken": "five",
    "value": 5
  },
  "flight_rules": "MVFR",
  "meta": {
    "stations_updated": "2024-12-02",
    "timestamp": "2025-01-04T04:08:36.210973Z"
  },
  "other": [],
  "pressure_altitude": 232,
  "raw": "KAWO 040356Z AUTO 00000KT 10SM BKN028 OVC095 06/05 A2983 RMK AO2 SLP108 T00610050",
  "relative_humidity": 0.9265328822020961,
  "remarks": "RMK AO2 SLP108 T00610050",
  "remarks_info": {
    "codes": [
      {
        "repr": "AO2",
        "value": "Automated with precipitation sensor"
      }
    ],
    "dewpoint_decimal": {
      "repr": "0050",
      "spoken": "five point zero",
      "value": 5
    },
    "maximum_temperature_24": null,
    "maximum_temperature_6": null,
    "minimum_temperature_24": null,
    "minimum_temperature_6": null,
    "precip_24_hours": null,
    "precip_36_hours": null,
    "precip_hourly": null,
    "pressure_tendency": null,
    "sea_level_pressure": {
      "repr": "SLP108",
      "spoken": "one zero one zero point eight",
      "value": 1010.8
    },
    "snow_depth": null,
    "sunshine_minutes": null,
    "temperature_decimal": {
      "repr": "0061",
      "spoken": "six point one",
      "value": 6.1
    }
  },
  "runway_visibility": [],
  "sanitized": "KAWO 040356Z 00000KT 10SM BKN028 OVC095 06/05 A2983 RMK AO2 SLP108 T00610050",
  "station": "KAWO",
  "temperature": {
    "repr": "06",
    "spoken": "six",
    "value": 6
  },
  "time": {
    "dt": "2025-01-04T03:56:00Z",
    "repr": "040356Z"
  },
  "units": {
    "accumulation": "in",
    "altimeter": "inHg",
    "altitude": "ft",
    "temperature": "C",
    "visibility": "sm",
    "wind_speed": "kt"
  },
  "visibility": {
    "repr": "10",
    "spoken": "one zero",
    "value": 10
  },
  "wind_direction": {
    "repr": "000",
    "spoken": "zero zero zero",
    "value": 0
  },
  "wind_gust": null,
  "wind_speed": {
    "repr": "00",
    "spoken": "zero",
    "value": 0
  },
  "wind_variable_direction": [],
  "wx_codes": []
}
