{
  "altimeter": {
    "repr": "A2992",
    "spoken": "two nine point nine two",
    "value": 29.92
  },
  "clouds": [],
  "density_altitude": 512,
  "dewpoint": {
    "repr": "16",
    "spoken": "one six",
    "value": 16
  },
  "flight_rules": "VFR",
  "meta": {
    "stations_updated": "2024-06-12",
    "timestamp": "2024-07-17T07:24:24.847956Z"
  },
  "other": [],
  "pressure_altitude": 142,
  "raw": "KAWO 170656Z AUTO 35004KT 10SM CLR 18/16 A2992 RMK AO2 SLPNO T01780156 402940111",
  "relative_humidity": 0.8695197516615377,
  "remarks": "RMK AO2 SLPNO T01780156 402940111",
  "remarks_info": {
    "codes": [
      {
        "repr": "AO2",
        "value": "Automated with precipitation sensor"
      },
      {
        "repr": "SLPNO",
        "value": "Sea level pressure not available"
      }
    ],
    "dewpoint_decimal": {
      "repr": "0156",
      "spoken": "one five point six",
      "value": 15.6
    },
    "maximum_temperature_24": {
      "repr": "0294",
      "spoken": "two nine point four",
      "value": 29.4
    },
    "maximum_temperature_6": null,
    "minimum_temperature_24": {
      "repr": "0111",
      "spoken": "one one point one",
      "value": 11.1
    },
    "minimum_temperature_6": null,
    "precip_24_hours": null,
    "precip_36_hours": null,
    "precip_hourly": null,
    "pressure_tendency": null,
    "sea_level_pressure": null,
    "snow_depth": null,
    "sunshine_minutes": null,
    "temperature_decimal": {
      "repr": "0178",
      "spoken": "one seven point eight",
      "value": 17.8
    }
  },
  "runway_visibility": [],
  "sanitized": "KAWO 170656Z 35004KT 10SM 18/16 A2992 RMK AO2 SLPNO T01780156 402940111",
  "station": "KAWO",
  "temperature": {
    "repr": "18",
    "spoken": "one eight",
    "value": 18
  },
  "time": {
    "dt": "2024-07-17T06:56:00Z",
    "repr": "170656Z"
  },
  "units": {
    "accumulation": "in",
    "altimeter": "inHg",
    "altitude": "ft",
    "temperature": "C",
    "visibility": "sm",
    "wind_speed": "kt"
  },
  "visibility": {
    "repr": "10",
    "spoken": "one zero",
    "value": 10
  },
  "wind_direction": {
    "repr": "350",
    "spoken": "three five zero",
    "value": 350
  },
  "wind_gust": null,
  "wind_speed": {
    "repr": "04",
    "spoken": "four",
    "value": 4
  },
  "wind_variable_direction": [],
  "wx_codes": []
}
