{
  "altimeter": {
    "repr": "A3017",
    "spoken": "three zero point one seven",
    "value": 30.17
  },
  "clouds": [
    {
      "altitude": 3,
      "modifier": null,
      "repr": "OVC003",
      "type": "OVC"
    }
  ],
  "density_altitude": -878,
  "dewpoint": {
    "repr": "08",
    "spoken": "eight",
    "value": 8
  },
  "flight_rules": "LIFR",
  "meta": {
    "cache-timestamp": "2023-12-11T08:08:02.576000Z",
    "stations_updated": "2023-10-28",
    "timestamp": "2023-12-11T08:08:12.742214Z"
  },
  "other": [],
  "pressure_altitude": -108,
  "raw": "KAWO 110753Z AUTO 00000KT 1SM BR OVC003 08/08 A3017 RMK AO2 RAE34 SLP222 P0001 T00830078 401060050",
  "relative_humidity": 0.9665731399975396,
  "remarks": "RMK AO2 RAE34 SLP222 P0001 T00830078 401060050",
  "remarks_info": {
    "codes": [
      {
        "repr": "AO2",
        "value": "Automated with precipitation sensor"
      },
      {
        "repr": "RAE34",
        "value": "Rain ended at :34"
      }
    ],
    "dewpoint_decimal": {
      "repr": "0078",
      "spoken": "seven point eight",
      "value": 7.8
    },
    "maximum_temperature_24": {
      "repr": "0106",
      "spoken": "one zero point six",
      "value": 10.6
    },
    "maximum_temperature_6": null,
    "minimum_temperature_24": {
      "repr": "0050",
      "spoken": "five point zero",
      "value": 5
    },
    "minimum_temperature_6": null,
    "precip_24_hours": null,
    "precip_36_hours": null,
    "precip_hourly": {
      "repr": "P0001",
      "spoken": "zero point zero one",
      "value": 0.01
    },
    "pressure_tendency": null,
    "sea_level_pressure": {
      "repr": "SLP222",
      "spoken": "one zero two two point two",
      "value": 1022.2
    },
    "snow_depth": null,
    "sunshine_minutes": null,
    "temperature_decimal": {
      "repr": "0083",
      "spoken": "eight point three",
      "value": 8.3
    }
  },
  "runway_visibility": [],
  "sanitized": "KAWO 110753Z 00000KT 1SM BR OVC003 08/08 A3017 RMK AO2 RAE34 SLP222 P0001 T00830078 401060050",
  "station": "KAWO",
  "temperature": {
    "repr": "08",
    "spoken": "eight",
    "value": 8
  },
  "time": {
    "dt": "2023-12-11T07:53:00Z",
    "repr": "110753Z"
  },
  "units": {
    "accumulation": "in",
    "altimeter": "inHg",
    "altitude": "ft",
    "temperature": "C",
    "visibility": "sm",
    "wind_speed": "kt"
  },
  "visibility": {
    "repr": "1",
    "spoken": "one",
    "value": 1
  },
  "wind_direction": {
    "repr": "000",
    "spoken": "zero zero zero",
    "value": 0
  },
  "wind_gust": null,
  "wind_speed": {
    "repr": "00",
    "spoken": "zero",
    "value": 0
  },
  "wind_variable_direction": [],
  "wx_codes": [
    {
      "repr": "BR",
      "value": "Mist"
    }
  ]
}
