{
  "altimeter": {
    "repr": "A3028",
    "spoken": "three zero point two eight",
    "value": 30.28
  },
  "clouds": [],
  "density_altitude": -2920,
  "dewpoint": {
    "repr": "M18",
    "spoken": "minus one eight",
    "value": -18
  },
  "flight_rules": "VFR",
  "meta": {
    "cache-timestamp": "2024-01-12T20:40:03.822000Z",
    "stations_updated": "2023-10-28",
    "timestamp": "2024-01-12T20:40:37.975781Z"
  },
  "other": [],
  "pressure_altitude": -218,
  "raw": "KAWO 121956Z AUTO 01013KT 10SM CLR M08/M18 A3028 RMK AO2 SLP259 T10781183 FZRANO",
  "relative_humidity": 0.4269314335429392,
  "remarks": "RMK AO2 SLP259 T10781183 FZRANO",
  "remarks_info": {
    "codes": [
      {
        "repr": "AO2",
        "value": "Automated with precipitation sensor"
      },
      {
        "repr": "FZRANO",
        "value": "Freezing rain information not available"
      }
    ],
    "dewpoint_decimal": {
      "repr": "1183",
      "spoken": "minus one eight point three",
      "value": -18.3
    },
    "maximum_temperature_24": null,
    "maximum_temperature_6": null,
    "minimum_temperature_24": null,
    "minimum_temperature_6": null,
    "precip_24_hours": null,
    "precip_36_hours": null,
    "precip_hourly": null,
    "pressure_tendency": null,
    "sea_level_pressure": {
      "repr": "SLP259",
      "spoken": "one zero two five point nine",
      "value": 1025.9
    },
    "snow_depth": null,
    "sunshine_minutes": null,
    "temperature_decimal": {
      "repr": "1078",
      "spoken": "minus seven point eight",
      "value": -7.8
    }
  },
  "runway_visibility": [],
  "sanitized": "KAWO 121956Z 01013KT 10SM M08/M18 A3028 RMK AO2 SLP259 T10781183 FZRANO",
  "station": "KAWO",
  "temperature": {
    "repr": "M08",
    "spoken": "minus eight",
    "value": -8
  },
  "time": {
    "dt": "2024-01-12T19:56:00Z",
    "repr": "121956Z"
  },
  "units": {
    "accumulation": "in",
    "altimeter": "inHg",
    "altitude": "ft",
    "temperature": "C",
    "visibility": "sm",
    "wind_speed": "kt"
  },
  "visibility": {
    "repr": "10",
    "spoken": "one zero",
    "value": 10
  },
  "wind_direction": {
    "repr": "010",
    "spoken": "zero one zero",
    "value": 10
  },
  "wind_gust": null,
  "wind_speed": {
    "repr": "13",
    "spoken": "one three",
    "value": 13
  },
  "wind_variable_direction": [],
  "wx_codes": []
}
