{
  "altimeter": {
    "repr": "A3074",
    "spoken": "three zero point seven four",
    "value": 30.74
  },
  "clouds": [],
  "density_altitude": -3044,
  "dewpoint": {
    "repr": "M06",
    "spoken": "minus six",
    "value": -6
  },
  "flight_rules": "VFR",
  "meta": {
    "stations_updated": "2024-12-02",
    "timestamp": "2025-01-22T12:13:15.244243Z"
  },
  "other": [],
  "pressure_altitude": -678,
  "raw": "KAWO 221156Z AUTO 01003KT 8SM CLR M05/M06 A3074 RMK AO2 SLP418 T10501056 11033 21056 51006 FZRANO",
  "relative_humidity": 0.9555203490304921,
  "remarks": "RMK AO2 SLP418 T10501056 11033 21056 51006 FZRANO",
  "remarks_info": {
    "codes": [
      {
        "repr": "AO2",
        "value": "Automated with precipitation sensor"
      },
      {
        "repr": "FZRANO",
        "value": "Freezing rain information not available"
      }
    ],
    "dewpoint_decimal": {
      "repr": "1056",
      "spoken": "minus five point six",
      "value": -5.6
    },
    "maximum_temperature_24": null,
    "maximum_temperature_6": {
      "repr": "11033",
      "spoken": "minus three point three",
      "value": -3.3
    },
    "minimum_temperature_24": null,
    "minimum_temperature_6": {
      "repr": "21056",
      "spoken": "minus five point six",
      "value": -5.6
    },
    "precip_24_hours": null,
    "precip_36_hours": null,
    "precip_hourly": null,
    "pressure_tendency": {
      "change": 0.6,
      "repr": "51006",
      "tendency": "Increasing, then steady"
    },
    "sea_level_pressure": {
      "repr": "SLP418",
      "spoken": "one zero four one point eight",
      "value": 1041.8
    },
    "snow_depth": null,
    "sunshine_minutes": null,
    "temperature_decimal": {
      "repr": "1050",
      "spoken": "minus five point zero",
      "value": -5.0
    }
  },
  "runway_visibility": [],
  "sanitized": "KAWO 221156Z 01003KT 8SM M05/M06 A3074 RMK AO2 SLP418 T10501056 11033 21056 51006 FZRANO",
  "station": "KAWO",
  "temperature": {
    "repr": "M05",
    "spoken": "minus five",
    "value": -5
  },
  "time": {
    "dt": "2025-01-22T11:56:00Z",
    "repr": "221156Z"
  },
  "units": {
    "accumulation": "in",
    "altimeter": "inHg",
    "altitude": "ft",
    "temperature": "C",
    "visibility": "sm",
    "wind_speed": "kt"
  },
  "visibility": {
    "repr": "8",
    "spoken": "eight",
    "value": 8
  },
  "wind_direction": {
    "repr": "010",
    "spoken": "zero one zero",
    "value": 10
  },
  "wind_gust": null,
  "wind_speed": {
    "repr": "03",
    "spoken": "three",
    "value": 3
  },
  "wind_variable_direction": [],
  "wx_codes": []
}
