{
  "altimeter": {
    "repr": "A3014",
    "spoken": "three zero point one four",
    "value": 30.14
  },
  "clouds": [],
  "density_altitude": -1844,
  "dewpoint": {
    "repr": "M01",
    "spoken": "minus one",
    "value": -1
  },
  "flight_rules": "MVFR",
  "meta": {
    "stations_updated": "2024-12-02",
    "timestamp": "2025-01-30T03:11:16.959088Z"
  },
  "other": [],
  "pressure_altitude": -78,
  "raw": "KAWO 300256Z AUTO 00000KT 5SM BR CLR 00/M01 A3014 RMK AO2 SLP214 T00001006 51010 FZRANO",
  "relative_humidity": 0.9572912555144957,
  "remarks": "RMK AO2 SLP214 T00001006 51010 FZRANO",
  "remarks_info": {
    "codes": [
      {
        "repr": "AO2",
        "value": "Automated with precipitation sensor"
      },
      {
        "repr": "FZRANO",
        "value": "Freezing rain information not available"
      }
    ],
    "dewpoint_decimal": {
      "repr": "1006",
      "spoken": "minus zero point six",
      "value": -0.6
    },
    "maximum_temperature_24": null,
    "maximum_temperature_6": null,
    "minimum_temperature_24": null,
    "minimum_temperature_6": null,
    "precip_24_hours": null,
    "precip_36_hours": null,
    "precip_hourly": null,
    "pressure_tendency": {
      "change": 1.0,
      "repr": "51010",
      "tendency": "Increasing, then steady"
    },
    "sea_level_pressure": {
      "repr": "SLP214",
      "spoken": "one zero two one point four",
      "value": 1021.4
    },
    "snow_depth": null,
    "sunshine_minutes": null,
    "temperature_decimal": {
      "repr": "0000",
      "spoken": "zero",
      "value": 0
    }
  },
  "runway_visibility": [],
  "sanitized": "KAWO 300256Z 00000KT 5SM BR 00/M01 A3014 RMK AO2 SLP214 T00001006 51010 FZRANO",
  "station": "KAWO",
  "temperature": {
    "repr": "00",
    "spoken": "zero",
    "value": 0
  },
  "time": {
    "dt": "2025-01-30T02:56:00Z",
    "repr": "300256Z"
  },
  "units": {
    "accumulation": "in",
    "altimeter": "inHg",
    "altitude": "ft",
    "temperature": "C",
    "visibility": "sm",
    "wind_speed": "kt"
  },
  "visibility": {
    "repr": "5",
    "spoken": "five",
    "value": 5
  },
  "wind_direction": {
    "repr": "000",
    "spoken": "zero zero zero",
    "value": 0
  },
  "wind_gust": null,
  "wind_speed": {
    "repr": "00",
    "spoken": "zero",
    "value": 0
  },
  "wind_variable_direction": [],
  "wx_codes": [
    {
      "repr": "BR",
      "value": "Mist"
    }
  ]
}
