{
  "meta": {
    "timestamp": "2023-05-24T21:20:49.403649Z",
    "stations_updated": "2023-03-11",
    "cache-timestamp": "2023-05-24T21:20:04.368000Z"
  },
  "altimeter": {
    "repr": "A3007",
    "value": 30.07,
    "spoken": "three zero point zero seven"
  },
  "clouds": [],
  "flight_rules": "VFR",
  "other": [],
  "visibility": {
    "repr": "10",
    "value": 10,
    "spoken": "one zero"
  },
  "wind_direction": {
    "repr": "VRB",
    "value": null,
    "spoken": "variable"
  },
  "wind_gust": null,
  "wind_speed": {
    "repr": "06",
    "value": 6,
    "spoken": "six"
  },
  "wx_codes": [],
  "raw": "KAWO 242056Z AUTO VRB06KT 10SM CLR 18/11 A3007 RMK AO2 SLP187 T01830106 57007",
  "sanitized": "KAWO 242056Z VRB06KT 10SM 18/11 A3007 RMK AO2 SLP187 T01830106 57007",
  "station": "KAWO",
  "time": {
    "repr": "242056Z",
    "dt": "2023-05-24T20:56:00Z"
  },
  "remarks": "RMK AO2 SLP187 T01830106 57007",
  "dewpoint": {
    "repr": "11",
    "value": 11,
    "spoken": "one one"
  },
  "relative_humidity": 0.6077291917311168,
  "remarks_info": {
    "maximum_temperature_6": null,
    "minimum_temperature_6": null,
    "pressure_tendency": {
      "repr": "57007",
      "tendency": "Decreasing steadily or unsteadily",
      "change": 0.7
    },
    "precip_36_hours": null,
    "precip_24_hours": null,
    "sunshine_minutes": null,
    "codes": [
      {
        "repr": "AO2",
        "value": "Automated with precipitation sensor"
      }
    ],
    "dewpoint_decimal": {
      "repr": "0106",
      "value": 10.6,
      "spoken": "one zero point six"
    },
    "maximum_temperature_24": null,
    "minimum_temperature_24": null,
    "precip_hourly": null,
    "sea_level_pressure": {
      "repr": "SLP187",
      "value": 1018.7,
      "spoken": "one zero one eight point seven"
    },
    "snow_depth": null,
    "temperature_decimal": {
      "repr": "0183",
      "value": 18.3,
      "spoken": "one eight point three"
    }
  },
  "runway_visibility": [],
  "temperature": {
    "repr": "18",
    "value": 18,
    "spoken": "one eight"
  },
  "wind_variable_direction": [],
  "density_altitude": 422,
  "pressure_altitude": -8,
  "units": {
    "accumulation": "in",
    "altimeter": "inHg",
    "altitude": "ft",
    "temperature": "C",
    "visibility": "sm",
    "wind_speed": "kt"
  }
}
