{
  "meta": {
    "timestamp": "2022-11-12T19:40:41.765297Z",
    "stations_updated": "2022-09-05"
  },
  "altimeter": {
    "repr": "A3026",
    "value": 30.26,
    "spoken": "three zero point two six"
  },
  "clouds": [],
  "flight_rules": "VFR",
  "other": [],
  "visibility": {
    "repr": "10",
    "value": 10,
    "spoken": "one zero"
  },
  "wind_direction": {
    "repr": "000",
    "value": 0,
    "spoken": "zero zero zero"
  },
  "wind_gust": null,
  "wind_speed": {
    "repr": "00",
    "value": 0,
    "spoken": "zero"
  },
  "wx_codes": [],
  "raw": "KAWO 121856Z AUTO 00000KT 10SM CLR 06/00 A3026 RMK AO2 SLP251 T00610000",
  "sanitized": "KAWO 121856Z 00000KT 10SM 06/00 A3026 RMK AO2 SLP251 T00610000",
  "station": "KAWO",
  "time": {
    "repr": "121856Z",
    "dt": "2022-11-12T18:56:00Z"
  },
  "remarks": "RMK AO2 SLP251 T00610000",
  "dewpoint": {
    "repr": "00",
    "value": 0,
    "spoken": "zero"
  },
  "relative_humidity": 0.6493139452697422,
  "remarks_info": {
    "maximum_temperature_6": null,
    "minimum_temperature_6": null,
    "pressure_tendency": null,
    "precip_36_hours": null,
    "precip_24_hours": null,
    "sunshine_minutes": null,
    "codes": [
      {
        "repr": "AO2",
        "value": "Automated with precipitation sensor"
      }
    ],
    "dewpoint_decimal": {
      "repr": "0000",
      "value": 0,
      "spoken": "zero"
    },
    "maximum_temperature_24": null,
    "minimum_temperature_24": null,
    "precip_hourly": null,
    "sea_level_pressure": {
      "repr": "SLP251",
      "value": 1025.1,
      "spoken": "one zero two five point one"
    },
    "snow_depth": null,
    "temperature_decimal": {
      "repr": "0061",
      "value": 6.1,
      "spoken": "six point one"
    }
  },
  "runway_visibility": [],
  "temperature": {
    "repr": "06",
    "value": 6,
    "spoken": "six"
  },
  "wind_variable_direction": [],
  "density_altitude": -1232,
  "pressure_altitude": -198,
  "units": {
    "accumulation": "in",
    "altimeter": "inHg",
    "altitude": "ft",
    "temperature": "C",
    "visibility": "sm",
    "wind_speed": "kt"
  }
}
