{
  "meta": {
    "timestamp": "2023-10-20T05:25:43.944003Z",
    "stations_updated": "2023-10-01"
  },
  "altimeter": {
    "repr": "A3007",
    "value": 30.07,
    "spoken": "three zero point zero seven"
  },
  "clouds": [
    {
      "repr": "OVC030",
      "type": "OVC",
      "altitude": 30,
      "modifier": null
    }
  ],
  "flight_rules": "MVFR",
  "other": [],
  "visibility": {
    "repr": "10",
    "value": 10,
    "spoken": "one zero"
  },
  "wind_direction": {
    "repr": "320",
    "value": 320,
    "spoken": "three two zero"
  },
  "wind_gust": null,
  "wind_speed": {
    "repr": "05",
    "value": 5,
    "spoken": "five"
  },
  "wx_codes": [],
  "raw": "KAWO 200456Z AUTO 32005KT 10SM OVC030 16/14 A3007 RMK AO2 SLP185 T01560144 KAWO 200419Z AUTO 00000KT 10SM SCT030 OVC040 16/14 A3006 RMK AO2 KAWO 200356Z AUTO 32004KT 10SM SCT021 OVC026 16/15 A3006 RMK AO2 SLP184 T01610150",
  "sanitized": "KAWO 200456Z 32005KT 10SM OVC030 16/14 A3007 RMK AO2 SLP185 T01560144 KAWO 200419Z AUTO 00000KT 10SM SCT030 OVC040 16/14 A3006 RMK AO2 KAWO 200356Z AUTO 32004KT 10SM SCT021 OVC026 16/15 A3006 RMK AO2 SLP184 T01610150",
  "station": "KAWO",
  "time": {
    "repr": "200456Z",
    "dt": "2023-10-20T04:56:00Z"
  },
  "remarks": "RMK AO2 SLP185 T01560144 KAWO 200419Z AUTO 00000KT 10SM SCT030 OVC040 16/14 A3006 RMK AO2 KAWO 200356Z AUTO 32004KT 10SM SCT021 OVC026 16/15 A3006 RMK AO2 SLP184 T01610150",
  "dewpoint": {
    "repr": "14",
    "value": 14,
    "spoken": "one four"
  },
  "relative_humidity": 0.9319014346226949,
  "remarks_info": {
    "maximum_temperature_6": null,
    "minimum_temperature_6": null,
    "pressure_tendency": null,
    "precip_36_hours": null,
    "precip_24_hours": null,
    "sunshine_minutes": null,
    "codes": [
      {
        "repr": "AO2",
        "value": "Automated with precipitation sensor"
      },
      {
        "repr": "AO2",
        "value": "Automated with precipitation sensor"
      },
      {
        "repr": "AO2",
        "value": "Automated with precipitation sensor"
      }
    ],
    "dewpoint_decimal": {
      "repr": "0150",
      "value": 15,
      "spoken": "one five point zero"
    },
    "maximum_temperature_24": null,
    "minimum_temperature_24": null,
    "precip_hourly": null,
    "sea_level_pressure": {
      "repr": "SLP185",
      "value": 1018.5,
      "spoken": "one zero one eight point five"
    },
    "snow_depth": null,
    "temperature_decimal": {
      "repr": "0161",
      "value": 16.1,
      "spoken": "one six point one"
    }
  },
  "runway_visibility": [],
  "temperature": {
    "repr": "16",
    "value": 16,
    "spoken": "one six"
  },
  "wind_variable_direction": [],
  "density_altitude": 158,
  "pressure_altitude": -8,
  "units": {
    "accumulation": "in",
    "altimeter": "inHg",
    "altitude": "ft",
    "temperature": "C",
    "visibility": "sm",
    "wind_speed": "kt"
  }
}
