{
  "meta": {
    "timestamp": "2023-10-20T12:09:11.633950Z",
    "stations_updated": "2023-10-01"
  },
  "altimeter": {
    "repr": "A3008",
    "value": 30.08,
    "spoken": "three zero point zero eight"
  },
  "clouds": [
    {
      "repr": "BKN007",
      "type": "BKN",
      "altitude": 7,
      "modifier": null
    },
    {
      "repr": "BKN045",
      "type": "BKN",
      "altitude": 45,
      "modifier": null
    }
  ],
  "flight_rules": "IFR",
  "other": [],
  "visibility": {
    "repr": "10",
    "value": 10,
    "spoken": "one zero"
  },
  "wind_direction": {
    "repr": "310",
    "value": 310,
    "spoken": "three one zero"
  },
  "wind_gust": null,
  "wind_speed": {
    "repr": "04",
    "value": 4,
    "spoken": "four"
  },
  "wx_codes": [],
  "raw": "KAWO 201156Z AUTO 31004KT 10SM BKN007 BKN045 12/11 A3008 RMK AO2 SLP188 60000 T01220111 10150 20117 53001 KAWO 201133Z AUTO 30004KT 10SM SCT007 SCT011 OVC045 12/11 A3007 RMK AO2 KAWO 201056Z AUTO 00000KT 10SM BKN009 OVC055 13/12 A3007 RMK AO2 SLP185 T01280117 KAWO 201045Z AUTO 32003KT 10SM BKN009 BKN043 OVC055 13/12 A3007 RMK AO2",
  "sanitized": "KAWO 201156Z 31004KT 10SM BKN007 BKN045 12/11 A3008 RMK AO2 SLP188 60000 T01220111 10150 20117 53001 KAWO 201133Z AUTO 30004KT 10SM SCT007 SCT011 OVC045 12/11 A3007 RMK AO2 KAWO 201056Z AUTO 00000KT 10SM BKN009 OVC055 13/12 A3007 RMK AO2 SLP185 T01280117 KAWO 201045Z AUTO 32003KT 10SM BKN009 BKN043 OVC055 13/12 A3007 RMK AO2",
  "station": "KAWO",
  "time": {
    "repr": "201156Z",
    "dt": "2023-10-20T11:56:00Z"
  },
  "remarks": "RMK AO2 SLP188 60000 T01220111 10150 20117 53001 KAWO 201133Z AUTO 30004KT 10SM SCT007 SCT011 OVC045 12/11 A3007 RMK AO2 KAWO 201056Z AUTO 00000KT 10SM BKN009 OVC055 13/12 A3007 RMK AO2 SLP185 T01280117 KAWO 201045Z AUTO 32003KT 10SM BKN009 BKN043 OVC055 13/12 A3007 RMK AO2",
  "dewpoint": {
    "repr": "11",
    "value": 11,
    "spoken": "one one"
  },
  "relative_humidity": 0.9301959082873248,
  "remarks_info": {
    "maximum_temperature_6": {
      "repr": "10150",
      "value": 15,
      "spoken": "one five point zero"
    },
    "minimum_temperature_6": {
      "repr": "20117",
      "value": 11.7,
      "spoken": "one one point seven"
    },
    "pressure_tendency": {
      "repr": "53001",
      "tendency": "Decreasing or steady, then increasing",
      "change": 0.1
    },
    "precip_36_hours": {
      "repr": "60000",
      "value": 0,
      "spoken": "zero"
    },
    "precip_24_hours": null,
    "sunshine_minutes": null,
    "codes": [
      {
        "repr": "AO2",
        "value": "Automated with precipitation sensor"
      },
      {
        "repr": "AO2",
        "value": "Automated with precipitation sensor"
      },
      {
        "repr": "AO2",
        "value": "Automated with precipitation sensor"
      },
      {
        "repr": "AO2",
        "value": "Automated with precipitation sensor"
      }
    ],
    "dewpoint_decimal": {
      "repr": "0117",
      "value": 11.7,
      "spoken": "one one point seven"
    },
    "maximum_temperature_24": null,
    "minimum_temperature_24": null,
    "precip_hourly": null,
    "sea_level_pressure": {
      "repr": "SLP188",
      "value": 1018.8,
      "spoken": "one zero one eight point eight"
    },
    "snow_depth": null,
    "temperature_decimal": {
      "repr": "0128",
      "value": 12.8,
      "spoken": "one two point eight"
    }
  },
  "runway_visibility": [],
  "temperature": {
    "repr": "12",
    "value": 12,
    "spoken": "one two"
  },
  "wind_variable_direction": [],
  "density_altitude": -248,
  "pressure_altitude": -18,
  "units": {
    "accumulation": "in",
    "altimeter": "inHg",
    "altitude": "ft",
    "temperature": "C",
    "visibility": "sm",
    "wind_speed": "kt"
  }
}
