{
  "altimeter": {
    "repr": "A2998",
    "spoken": "two nine point nine eight",
    "value": 29.98
  },
  "clouds": [],
  "density_altitude": 1244,
  "dewpoint": {
    "repr": "13",
    "spoken": "one three",
    "value": 13
  },
  "flight_rules": "VFR",
  "meta": {
    "stations_updated": "2024-06-12",
    "timestamp": "2024-08-18T21:23:15.491194Z"
  },
  "other": [],
  "pressure_altitude": 82,
  "raw": "KAWO 182056Z AUTO 18012KT 10SM CLR 24/13 A2998 RMK AO2 SLP156 T02440128 52003",
  "relative_humidity": 0.4834072360228501,
  "remarks": "RMK AO2 SLP156 T02440128 52003",
  "remarks_info": {
    "codes": [
      {
        "repr": "AO2",
        "value": "Automated with precipitation sensor"
      }
    ],
    "dewpoint_decimal": {
      "repr": "0128",
      "spoken": "one two point eight",
      "value": 12.8
    },
    "maximum_temperature_24": null,
    "maximum_temperature_6": null,
    "minimum_temperature_24": null,
    "minimum_temperature_6": null,
    "precip_24_hours": null,
    "precip_36_hours": null,
    "precip_hourly": null,
    "pressure_tendency": {
      "change": 0.3,
      "repr": "52003",
      "tendency": "Increasing steadily or unsteadily"
    },
    "sea_level_pressure": {
      "repr": "SLP156",
      "spoken": "one zero one five point six",
      "value": 1015.6
    },
    "snow_depth": null,
    "sunshine_minutes": null,
    "temperature_decimal": {
      "repr": "0244",
      "spoken": "two four point four",
      "value": 24.4
    }
  },
  "runway_visibility": [],
  "sanitized": "KAWO 182056Z 18012KT 10SM 24/13 A2998 RMK AO2 SLP156 T02440128 52003",
  "station": "KAWO",
  "temperature": {
    "repr": "24",
    "spoken": "two four",
    "value": 24
  },
  "time": {
    "dt": "2024-08-18T20:56:00Z",
    "repr": "182056Z"
  },
  "units": {
    "accumulation": "in",
    "altimeter": "inHg",
    "altitude": "ft",
    "temperature": "C",
    "visibility": "sm",
    "wind_speed": "kt"
  },
  "visibility": {
    "repr": "10",
    "spoken": "one zero",
    "value": 10
  },
  "wind_direction": {
    "repr": "180",
    "spoken": "one eight zero",
    "value": 180
  },
  "wind_gust": null,
  "wind_speed": {
    "repr": "12",
    "spoken": "one two",
    "value": 12
  },
  "wind_variable_direction": [],
  "wx_codes": []
}
