{
  "meta": {
    "timestamp": "2023-03-24T06:29:50.477402Z",
    "stations_updated": "2023-03-11"
  },
  "altimeter": {
    "repr": "A3005",
    "value": 30.05,
    "spoken": "three zero point zero five"
  },
  "clouds": [],
  "flight_rules": "VFR",
  "other": [],
  "visibility": {
    "repr": "10",
    "value": 10,
    "spoken": "one zero"
  },
  "wind_direction": {
    "repr": "070",
    "value": 70,
    "spoken": "zero seven zero"
  },
  "wind_gust": null,
  "wind_speed": {
    "repr": "05",
    "value": 5,
    "spoken": "five"
  },
  "wx_codes": [
    {
      "repr": "-RA",
      "value": "Light Rain"
    }
  ],
  "raw": "KAWO 240556Z AUTO 07005KT 10SM -RA CLR 02/01 A3005 RMK AO2 UPE11B28E32RAB32SNB11E28 SLP182 P0013 60038 T00170011 10072 20017 50025 FZRANO",
  "sanitized": "KAWO 240556Z 07005KT 10SM -RA 02/01 A3005 RMK AO2 UPE11B28E32RAB32SNB11E28 SLP182 P0013 60038 T00170011 10072 20017 50025 FZRANO",
  "station": "KAWO",
  "time": {
    "repr": "240556Z",
    "dt": "2023-03-24T05:56:00Z"
  },
  "remarks": "RMK AO2 UPE11B28E32RAB32SNB11E28 SLP182 P0013 60038 T00170011 10072 20017 50025 FZRANO",
  "dewpoint": {
    "repr": "01",
    "value": 1,
    "spoken": "one"
  },
  "relative_humidity": 0.9578695064206159,
  "remarks_info": {
    "maximum_temperature_6": {
      "repr": "10072",
      "value": 7.2,
      "spoken": "seven point two"
    },
    "minimum_temperature_6": {
      "repr": "20017",
      "value": 1.7,
      "spoken": "one point seven"
    },
    "pressure_tendency": {
      "repr": "50025",
      "tendency": "Increasing, then decreasing",
      "change": 2.5
    },
    "precip_36_hours": {
      "repr": "60038",
      "value": 0.38,
      "spoken": "zero point three eight"
    },
    "precip_24_hours": null,
    "sunshine_minutes": null,
    "codes": [
      {
        "repr": "AO2",
        "value": "Automated with precipitation sensor"
      },
      {
        "repr": "FZRANO",
        "value": "Freezing rain information not available"
      }
    ],
    "dewpoint_decimal": {
      "repr": "0011",
      "value": 1.1,
      "spoken": "one point one"
    },
    "maximum_temperature_24": null,
    "minimum_temperature_24": null,
    "precip_hourly": {
      "repr": "P0013",
      "value": 0.13,
      "spoken": "zero point one three"
    },
    "sea_level_pressure": {
      "repr": "SLP182",
      "value": 1018.2,
      "spoken": "one zero one eight point two"
    },
    "snow_depth": null,
    "temperature_decimal": {
      "repr": "0017",
      "value": 1.7,
      "spoken": "one point seven"
    }
  },
  "runway_visibility": [],
  "temperature": {
    "repr": "02",
    "value": 2,
    "spoken": "two"
  },
  "wind_variable_direction": [],
  "density_altitude": -1550,
  "pressure_altitude": 12,
  "units": {
    "accumulation": "in",
    "altimeter": "inHg",
    "altitude": "ft",
    "temperature": "C",
    "visibility": "sm",
    "wind_speed": "kt"
  }
}
