{
  "meta": {
    "timestamp": "2022-12-08T09:26:23.807030Z",
    "stations_updated": "2022-09-05"
  },
  "altimeter": {
    "repr": "A2995",
    "value": 29.95,
    "spoken": "two nine point nine five"
  },
  "clouds": [
    {
      "repr": "OVC041",
      "type": "OVC",
      "altitude": 41,
      "modifier": null
    }
  ],
  "flight_rules": "VFR",
  "other": [],
  "visibility": {
    "repr": "10",
    "value": 10,
    "spoken": "one zero"
  },
  "wind_direction": {
    "repr": "170",
    "value": 170,
    "spoken": "one seven zero"
  },
  "wind_gust": null,
  "wind_speed": {
    "repr": "06",
    "value": 6,
    "spoken": "six"
  },
  "wx_codes": [],
  "raw": "KAWO 080856Z AUTO 17006KT 10SM OVC041 06/01 A2995 RMK AO2 RAB42E53 SLP145 P0000 60000 T00610006 56020",
  "sanitized": "KAWO 080856Z 17006KT 10SM OVC041 06/01 A2995 RMK AO2 RAB42E53 SLP145 P0000 60000 T00610006 56020",
  "station": "KAWO",
  "time": {
    "repr": "080856Z",
    "dt": "2022-12-08T08:56:00Z"
  },
  "remarks": "RMK AO2 RAB42E53 SLP145 P0000 60000 T00610006 56020",
  "dewpoint": {
    "repr": "01",
    "value": 1,
    "spoken": "one"
  },
  "relative_humidity": 0.6781370159389726,
  "remarks_info": {
    "maximum_temperature_6": null,
    "minimum_temperature_6": null,
    "pressure_tendency": {
      "repr": "56020",
      "tendency": "Decreasing, then steady",
      "change": 2
    },
    "precip_36_hours": {
      "repr": "60000",
      "value": 0,
      "spoken": "zero"
    },
    "precip_24_hours": null,
    "sunshine_minutes": null,
    "codes": [
      {
        "repr": "AO2",
        "value": "Automated with precipitation sensor"
      },
      {
        "repr": "P0000",
        "value": "Trace amount of rain in the last hour"
      }
    ],
    "dewpoint_decimal": {
      "repr": "0006",
      "value": 0.6,
      "spoken": "zero point six"
    },
    "maximum_temperature_24": null,
    "minimum_temperature_24": null,
    "precip_hourly": null,
    "sea_level_pressure": {
      "repr": "SLP145",
      "value": 1014.5,
      "spoken": "one zero one four point five"
    },
    "snow_depth": null,
    "temperature_decimal": {
      "repr": "0061",
      "value": 6.1,
      "spoken": "six point one"
    }
  },
  "runway_visibility": [],
  "temperature": {
    "repr": "06",
    "value": 6,
    "spoken": "six"
  },
  "wind_variable_direction": [],
  "density_altitude": -922,
  "pressure_altitude": 112,
  "units": {
    "accumulation": "in",
    "altimeter": "inHg",
    "altitude": "ft",
    "temperature": "C",
    "visibility": "sm",
    "wind_speed": "kt"
  }
}
