{
  "meta": {
    "timestamp": "2023-01-30T18:30:34.886309Z",
    "stations_updated": "2023-01-16",
    "cache-timestamp": "2023-01-30T18:30:06.708000Z"
  },
  "altimeter": {
    "repr": "A3048",
    "value": 30.48,
    "spoken": "three zero point four eight"
  },
  "clouds": [],
  "flight_rules": "VFR",
  "other": [],
  "visibility": {
    "repr": "10",
    "value": 10,
    "spoken": "one zero"
  },
  "wind_direction": {
    "repr": "000",
    "value": 0,
    "spoken": "zero zero zero"
  },
  "wind_gust": null,
  "wind_speed": {
    "repr": "00",
    "value": 0,
    "spoken": "zero"
  },
  "wx_codes": [],
  "raw": "KAWO 301756Z AUTO 00000KT 10SM CLR 00/M03 A3048 RMK AO2 SLP326 T00001033 10000 21078 56004 FZRANO",
  "sanitized": "KAWO 301756Z 00000KT 10SM 00/M03 A3048 RMK AO2 SLP326 T00001033 10000 21078 56004 FZRANO",
  "station": "KAWO",
  "time": {
    "repr": "301756Z",
    "dt": "2023-01-30T17:56:00Z"
  },
  "remarks": "RMK AO2 SLP326 T00001033 10000 21078 56004 FZRANO",
  "dewpoint": {
    "repr": "M03",
    "value": -3,
    "spoken": "minus three"
  },
  "relative_humidity": 0.7844596047623861,
  "remarks_info": {
    "maximum_temperature_6": {
      "repr": "10000",
      "value": 0,
      "spoken": "zero"
    },
    "minimum_temperature_6": {
      "repr": "21078",
      "value": -7.8,
      "spoken": "minus seven point eight"
    },
    "pressure_tendency": {
      "repr": "56004",
      "tendency": "Decreasing, then steady",
      "change": 0.4
    },
    "precip_36_hours": null,
    "precip_24_hours": null,
    "sunshine_minutes": null,
    "codes": [
      {
        "repr": "AO2",
        "value": "Automated with precipitation sensor"
      },
      {
        "repr": "FZRANO",
        "value": "Freezing rain information not available"
      }
    ],
    "dewpoint_decimal": {
      "repr": "1033",
      "value": -3.3,
      "spoken": "minus three point three"
    },
    "maximum_temperature_24": null,
    "minimum_temperature_24": null,
    "precip_hourly": null,
    "sea_level_pressure": {
      "repr": "SLP326",
      "value": 1032.6,
      "spoken": "one zero three two point six"
    },
    "snow_depth": null,
    "temperature_decimal": {
      "repr": "0000",
      "value": 0,
      "spoken": "zero"
    }
  },
  "runway_visibility": [],
  "temperature": {
    "repr": "00",
    "value": 0,
    "spoken": "zero"
  },
  "wind_variable_direction": [],
  "density_altitude": -2184,
  "pressure_altitude": -418,
  "units": {
    "accumulation": "in",
    "altimeter": "inHg",
    "altitude": "ft",
    "temperature": "C",
    "visibility": "sm",
    "wind_speed": "kt"
  }
}
