{
  "meta": {
    "timestamp": "2022-07-31T21:27:56.394482Z",
    "stations_updated": "2022-07-17"
  },
  "altimeter": {
    "repr": "A2990",
    "value": 29.9,
    "spoken": "two nine point nine zero"
  },
  "clouds": [],
  "flight_rules": "VFR",
  "other": [],
  "visibility": {
    "repr": "10",
    "value": 10,
    "spoken": "one zero"
  },
  "wind_direction": {
    "repr": "320",
    "value": 320,
    "spoken": "three two zero"
  },
  "wind_gust": null,
  "wind_speed": {
    "repr": "06",
    "value": 6,
    "spoken": "six"
  },
  "wx_codes": [],
  "raw": "KAWO 312056Z AUTO 32006KT 10SM CLR 32/16 A2990 RMK AO2 SLP129 T03170161 58009",
  "sanitized": "KAWO 312056Z 32006KT 10SM 32/16 A2990 RMK AO2 SLP129 T03170161 58009",
  "station": "KAWO",
  "time": {
    "repr": "312056Z",
    "dt": "2022-07-31T20:56:00Z"
  },
  "remarks": "RMK AO2 SLP129 T03170161 58009",
  "dewpoint": {
    "repr": "16",
    "value": 16,
    "spoken": "one six"
  },
  "relative_humidity": 0.3908145648800335,
  "remarks_info": {
    "maximum_temperature_6": null,
    "minimum_temperature_6": null,
    "pressure_tendency": {
      "repr": "58009",
      "tendency": "Steady or increasing, then decreasing",
      "change": 0.9
    },
    "precip_36_hours": null,
    "precip_24_hours": null,
    "sunshine_minutes": null,
    "codes": [
      {
        "repr": "AO2",
        "value": "Automated with precipitation sensor"
      }
    ],
    "dewpoint_decimal": {
      "repr": "0161",
      "value": 16.1,
      "spoken": "one six point one"
    },
    "maximum_temperature_24": null,
    "minimum_temperature_24": null,
    "precip_hourly": null,
    "sea_level_pressure": {
      "repr": "SLP129",
      "value": 1012.9,
      "spoken": "one zero one two point nine"
    },
    "snow_depth": null,
    "temperature_decimal": {
      "repr": "0317",
      "value": 31.7,
      "spoken": "three one point seven"
    }
  },
  "runway_visibility": [],
  "temperature": {
    "repr": "32",
    "value": 32,
    "spoken": "three two"
  },
  "wind_variable_direction": [],
  "density_altitude": 2200,
  "pressure_altitude": 162,
  "units": {
    "accumulation": "in",
    "altimeter": "inHg",
    "altitude": "ft",
    "temperature": "C",
    "visibility": "sm",
    "wind_speed": "kt"
  }
}
