{
  "meta": {
    "timestamp": "2023-03-24T12:08:34.212323Z",
    "stations_updated": "2023-03-11",
    "cache-timestamp": "2023-03-24T12:08:12.571000Z"
  },
  "altimeter": {
    "repr": "A3007",
    "value": 30.07,
    "spoken": "three zero point zero seven"
  },
  "clouds": [],
  "flight_rules": "VFR",
  "other": [],
  "visibility": {
    "repr": "10",
    "value": 10,
    "spoken": "one zero"
  },
  "wind_direction": {
    "repr": "170",
    "value": 170,
    "spoken": "one seven zero"
  },
  "wind_gust": null,
  "wind_speed": {
    "repr": "09",
    "value": 9,
    "spoken": "nine"
  },
  "wx_codes": [],
  "raw": "KAWO 241156Z AUTO 17009KT 10SM CLR 04/02 A3007 RMK AO2 SLP188 60014 70060 T00390017 10039 20017 53003",
  "sanitized": "KAWO 241156Z 17009KT 10SM 04/02 A3007 RMK AO2 SLP188 60014 70060 T00390017 10039 20017 53003",
  "station": "KAWO",
  "time": {
    "repr": "241156Z",
    "dt": "2023-03-24T11:56:00Z"
  },
  "remarks": "RMK AO2 SLP188 60014 70060 T00390017 10039 20017 53003",
  "dewpoint": {
    "repr": "02",
    "value": 2,
    "spoken": "two"
  },
  "relative_humidity": 0.8555243252964272,
  "remarks_info": {
    "maximum_temperature_6": {
      "repr": "10039",
      "value": 3.9,
      "spoken": "three point nine"
    },
    "minimum_temperature_6": {
      "repr": "20017",
      "value": 1.7,
      "spoken": "one point seven"
    },
    "pressure_tendency": {
      "repr": "53003",
      "tendency": "Decreasing or steady, then increasing",
      "change": 0.3
    },
    "precip_36_hours": {
      "repr": "60014",
      "value": 0.14,
      "spoken": "zero point one four"
    },
    "precip_24_hours": {
      "repr": "70060",
      "value": 0.6,
      "spoken": "zero point six"
    },
    "sunshine_minutes": null,
    "codes": [
      {
        "repr": "AO2",
        "value": "Automated with precipitation sensor"
      }
    ],
    "dewpoint_decimal": {
      "repr": "0017",
      "value": 1.7,
      "spoken": "one point seven"
    },
    "maximum_temperature_24": null,
    "minimum_temperature_24": null,
    "precip_hourly": null,
    "sea_level_pressure": {
      "repr": "SLP188",
      "value": 1018.8,
      "spoken": "one zero one eight point eight"
    },
    "snow_depth": null,
    "temperature_decimal": {
      "repr": "0039",
      "value": 3.9,
      "spoken": "three point nine"
    }
  },
  "runway_visibility": [],
  "temperature": {
    "repr": "04",
    "value": 4,
    "spoken": "four"
  },
  "wind_variable_direction": [],
  "density_altitude": -1306,
  "pressure_altitude": -8,
  "units": {
    "accumulation": "in",
    "altimeter": "inHg",
    "altitude": "ft",
    "temperature": "C",
    "visibility": "sm",
    "wind_speed": "kt"
  }
}
