{
  "altimeter": {
    "repr": "A2940",
    "spoken": "two nine point four zero",
    "value": 29.4
  },
  "clouds": [
    {
      "altitude": 3,
      "modifier": null,
      "repr": "BKN003",
      "type": "BKN"
    },
    {
      "altitude": 10,
      "modifier": null,
      "repr": "OVC010",
      "type": "OVC"
    }
  ],
  "density_altitude": -1104,
  "dewpoint": {
    "repr": "00",
    "spoken": "zero",
    "value": 0
  },
  "flight_rules": "LIFR",
  "meta": {
    "cache-timestamp": "2024-01-17T17:26:04.394000Z",
    "stations_updated": "2023-10-28",
    "timestamp": "2024-01-17T17:26:55.289019Z"
  },
  "other": [],
  "pressure_altitude": 662,
  "raw": "KAWO 171652Z AUTO 00000KT 3/4SM UP BR BKN003 OVC010 00/00 A2940 RMK AO2 CIG 003V007 SLP961 P0007 T00000000 FZRANO",
  "relative_humidity": 1,
  "remarks": "RMK AO2 CIG 003V007 SLP961 P0007 T00000000 FZRANO",
  "remarks_info": {
    "codes": [
      {
        "repr": "AO2",
        "value": "Automated with precipitation sensor"
      },
      {
        "repr": "FZRANO",
        "value": "Freezing rain information not available"
      }
    ],
    "dewpoint_decimal": {
      "repr": "0000",
      "spoken": "zero",
      "value": 0
    },
    "maximum_temperature_24": null,
    "maximum_temperature_6": null,
    "minimum_temperature_24": null,
    "minimum_temperature_6": null,
    "precip_24_hours": null,
    "precip_36_hours": null,
    "precip_hourly": {
      "repr": "P0007",
      "spoken": "zero point zero seven",
      "value": 0.07
    },
    "pressure_tendency": null,
    "sea_level_pressure": {
      "repr": "SLP961",
      "spoken": "nine nine six point one",
      "value": 996.1
    },
    "snow_depth": null,
    "sunshine_minutes": null,
    "temperature_decimal": {
      "repr": "0000",
      "spoken": "zero",
      "value": 0
    }
  },
  "runway_visibility": [],
  "sanitized": "KAWO 171652Z 00000KT 3/4SM UP BR BKN003 OVC010 00/00 A2940 RMK AO2 CIG 003V007 SLP961 P0007 T00000000 FZRANO",
  "station": "KAWO",
  "temperature": {
    "repr": "00",
    "spoken": "zero",
    "value": 0
  },
  "time": {
    "dt": "2024-01-17T16:52:00Z",
    "repr": "171652Z"
  },
  "units": {
    "accumulation": "in",
    "altimeter": "inHg",
    "altitude": "ft",
    "temperature": "C",
    "visibility": "sm",
    "wind_speed": "kt"
  },
  "visibility": {
    "denominator": 4,
    "normalized": "3/4",
    "numerator": 3,
    "repr": "3/4",
    "spoken": "three quarters",
    "value": 0.75
  },
  "wind_direction": {
    "repr": "000",
    "spoken": "zero zero zero",
    "value": 0
  },
  "wind_gust": null,
  "wind_speed": {
    "repr": "00",
    "spoken": "zero",
    "value": 0
  },
  "wind_variable_direction": [],
  "wx_codes": [
    {
      "repr": "UP",
      "value": "Unknown Precip"
    },
    {
      "repr": "BR",
      "value": "Mist"
    }
  ]
}
