{
  "meta": {
    "timestamp": "2022-11-30T16:41:46.004692Z",
    "stations_updated": "2022-09-05"
  },
  "altimeter": {
    "repr": "A2949",
    "value": 29.49,
    "spoken": "two nine point four nine"
  },
  "clouds": [
    {
      "repr": "OVC026",
      "type": "OVC",
      "altitude": 26,
      "modifier": null
    }
  ],
  "flight_rules": "MVFR",
  "other": [],
  "visibility": {
    "repr": "10",
    "value": 10,
    "spoken": "one zero"
  },
  "wind_direction": {
    "repr": "180",
    "value": 180,
    "spoken": "one eight zero"
  },
  "wind_gust": null,
  "wind_speed": {
    "repr": "03",
    "value": 3,
    "spoken": "three"
  },
  "wx_codes": [
    {
      "repr": "-RA",
      "value": "Light Rain"
    }
  ],
  "raw": "KAWO 301556Z AUTO 18003KT 10SM -RA OVC026 03/02 A2949 RMK AO2 SLP990 P0001 T00280017",
  "sanitized": "KAWO 301556Z 18003KT 10SM -RA OVC026 03/02 A2949 RMK AO2 SLP990 P0001 T00280017",
  "station": "KAWO",
  "time": {
    "repr": "301556Z",
    "dt": "2022-11-30T15:56:00Z"
  },
  "remarks": "RMK AO2 SLP990 P0001 T00280017",
  "dewpoint": {
    "repr": "02",
    "value": 2,
    "spoken": "two"
  },
  "relative_humidity": 0.9246233415824485,
  "remarks_info": {
    "maximum_temperature_6": null,
    "minimum_temperature_6": null,
    "pressure_tendency": null,
    "precip_36_hours": null,
    "precip_24_hours": null,
    "sunshine_minutes": null,
    "codes": [
      {
        "repr": "AO2",
        "value": "Automated with precipitation sensor"
      }
    ],
    "dewpoint_decimal": {
      "repr": "0017",
      "value": 1.7,
      "spoken": "one point seven"
    },
    "maximum_temperature_24": null,
    "minimum_temperature_24": null,
    "precip_hourly": {
      "repr": "P0001",
      "value": 0.01,
      "spoken": "zero point zero one"
    },
    "sea_level_pressure": {
      "repr": "SLP990",
      "value": 999,
      "spoken": "nine nine nine point zero"
    },
    "snow_depth": null,
    "temperature_decimal": {
      "repr": "0028",
      "value": 2.8,
      "spoken": "two point eight"
    }
  },
  "runway_visibility": [],
  "temperature": {
    "repr": "03",
    "value": 3,
    "spoken": "three"
  },
  "wind_variable_direction": [],
  "density_altitude": -858,
  "pressure_altitude": 572,
  "units": {
    "accumulation": "in",
    "altimeter": "inHg",
    "altitude": "ft",
    "temperature": "C",
    "visibility": "sm",
    "wind_speed": "kt"
  }
}
