{
  "meta": {
    "timestamp": "2023-04-22T06:40:36.991908Z",
    "stations_updated": "2023-03-11",
    "cache-timestamp": "2023-04-22T06:40:04.940000Z"
  },
  "altimeter": {
    "repr": "A3036",
    "value": 30.36,
    "spoken": "three zero point three six"
  },
  "clouds": [
    {
      "repr": "SCT090",
      "type": "SCT",
      "altitude": 90,
      "modifier": null
    }
  ],
  "flight_rules": "VFR",
  "other": [],
  "visibility": {
    "repr": "10",
    "value": 10,
    "spoken": "one zero"
  },
  "wind_direction": {
    "repr": "100",
    "value": 100,
    "spoken": "one zero zero"
  },
  "wind_gust": null,
  "wind_speed": {
    "repr": "06",
    "value": 6,
    "spoken": "six"
  },
  "wx_codes": [],
  "raw": "KAWO 220556Z AUTO 10006KT 10SM SCT090 09/04 A3036 RMK AO2 SLP286 T00890044 10122 20089 58003",
  "sanitized": "KAWO 220556Z 10006KT 10SM SCT090 09/04 A3036 RMK AO2 SLP286 T00890044 10122 20089 58003",
  "station": "KAWO",
  "time": {
    "repr": "220556Z",
    "dt": "2023-04-22T05:56:00Z"
  },
  "remarks": "RMK AO2 SLP286 T00890044 10122 20089 58003",
  "dewpoint": {
    "repr": "04",
    "value": 4,
    "spoken": "four"
  },
  "relative_humidity": 0.7338548215781783,
  "remarks_info": {
    "maximum_temperature_6": {
      "repr": "10122",
      "value": 12.2,
      "spoken": "one two point two"
    },
    "minimum_temperature_6": {
      "repr": "20089",
      "value": 8.9,
      "spoken": "eight point nine"
    },
    "pressure_tendency": {
      "repr": "58003",
      "tendency": "Steady or increasing, then decreasing",
      "change": 0.3
    },
    "precip_36_hours": null,
    "precip_24_hours": null,
    "sunshine_minutes": null,
    "codes": [
      {
        "repr": "AO2",
        "value": "Automated with precipitation sensor"
      }
    ],
    "dewpoint_decimal": {
      "repr": "0044",
      "value": 4.4,
      "spoken": "four point four"
    },
    "maximum_temperature_24": null,
    "minimum_temperature_24": null,
    "precip_hourly": null,
    "sea_level_pressure": {
      "repr": "SLP286",
      "value": 1028.6,
      "spoken": "one zero two eight point six"
    },
    "snow_depth": null,
    "temperature_decimal": {
      "repr": "0089",
      "value": 8.9,
      "spoken": "eight point nine"
    }
  },
  "runway_visibility": [],
  "temperature": {
    "repr": "09",
    "value": 9,
    "spoken": "nine"
  },
  "wind_variable_direction": [],
  "density_altitude": -996,
  "pressure_altitude": -298,
  "units": {
    "accumulation": "in",
    "altimeter": "inHg",
    "altitude": "ft",
    "temperature": "C",
    "visibility": "sm",
    "wind_speed": "kt"
  }
}
