{
  "altimeter": {
    "repr": "A3013",
    "spoken": "three zero point one three",
    "value": 30.13
  },
  "clouds": [],
  "density_altitude": -502,
  "dewpoint": {
    "repr": "03",
    "spoken": "three",
    "value": 3
  },
  "flight_rules": "VFR",
  "meta": {
    "cache-timestamp": "2024-05-01T03:06:05.252000Z",
    "stations_updated": "2024-01-01",
    "timestamp": "2024-05-01T03:06:28.149616Z"
  },
  "other": [],
  "pressure_altitude": -68,
  "raw": "KAWO 010156Z AUTO 30008KT 10SM CLR 11/03 A3013 RMK AO2 SLP208 T01110033",
  "relative_humidity": 0.5861937568651046,
  "remarks": "RMK AO2 SLP208 T01110033",
  "remarks_info": {
    "codes": [
      {
        "repr": "AO2",
        "value": "Automated with precipitation sensor"
      }
    ],
    "dewpoint_decimal": {
      "repr": "0033",
      "spoken": "three point three",
      "value": 3.3
    },
    "maximum_temperature_24": null,
    "maximum_temperature_6": null,
    "minimum_temperature_24": null,
    "minimum_temperature_6": null,
    "precip_24_hours": null,
    "precip_36_hours": null,
    "precip_hourly": null,
    "pressure_tendency": null,
    "sea_level_pressure": {
      "repr": "SLP208",
      "spoken": "one zero two zero point eight",
      "value": 1020.8
    },
    "snow_depth": null,
    "sunshine_minutes": null,
    "temperature_decimal": {
      "repr": "0111",
      "spoken": "one one point one",
      "value": 11.1
    }
  },
  "runway_visibility": [],
  "sanitized": "KAWO 010156Z 30008KT 10SM 11/03 A3013 RMK AO2 SLP208 T01110033",
  "station": "KAWO",
  "temperature": {
    "repr": "11",
    "spoken": "one one",
    "value": 11
  },
  "time": {
    "dt": "2024-05-01T01:56:00Z",
    "repr": "010156Z"
  },
  "units": {
    "accumulation": "in",
    "altimeter": "inHg",
    "altitude": "ft",
    "temperature": "C",
    "visibility": "sm",
    "wind_speed": "kt"
  },
  "visibility": {
    "repr": "10",
    "spoken": "one zero",
    "value": 10
  },
  "wind_direction": {
    "repr": "300",
    "spoken": "three zero zero",
    "value": 300
  },
  "wind_gust": null,
  "wind_speed": {
    "repr": "08",
    "spoken": "eight",
    "value": 8
  },
  "wind_variable_direction": [],
  "wx_codes": []
}
