{
  "meta": {
    "timestamp": "2023-01-11T04:43:16.655243Z",
    "stations_updated": "2022-12-27"
  },
  "altimeter": {
    "repr": "A2963",
    "value": 29.63,
    "spoken": "two nine point six three"
  },
  "clouds": [],
  "flight_rules": "VFR",
  "other": [],
  "visibility": {
    "repr": "10",
    "value": 10,
    "spoken": "one zero"
  },
  "wind_direction": {
    "repr": "340",
    "value": 340,
    "spoken": "three four zero"
  },
  "wind_gust": null,
  "wind_speed": {
    "repr": "05",
    "value": 5,
    "spoken": "five"
  },
  "wx_codes": [],
  "raw": "KAWO 110356Z AUTO 34005KT 10SM CLR 04/02 A2963 RMK AO2 SLP038 T00440022",
  "sanitized": "KAWO 110356Z 34005KT 10SM 04/02 A2963 RMK AO2 SLP038 T00440022",
  "station": "KAWO",
  "time": {
    "repr": "110356Z",
    "dt": "2023-01-11T03:56:00Z"
  },
  "remarks": "RMK AO2 SLP038 T00440022",
  "dewpoint": {
    "repr": "02",
    "value": 2,
    "spoken": "two"
  },
  "relative_humidity": 0.8560648690888376,
  "remarks_info": {
    "maximum_temperature_6": null,
    "minimum_temperature_6": null,
    "pressure_tendency": null,
    "precip_36_hours": null,
    "precip_24_hours": null,
    "sunshine_minutes": null,
    "codes": [
      {
        "repr": "AO2",
        "value": "Automated with precipitation sensor"
      }
    ],
    "dewpoint_decimal": {
      "repr": "0022",
      "value": 2.2,
      "spoken": "two point two"
    },
    "maximum_temperature_24": null,
    "minimum_temperature_24": null,
    "precip_hourly": null,
    "sea_level_pressure": {
      "repr": "SLP038",
      "value": 1003.8,
      "spoken": "one zero zero three point eight"
    },
    "snow_depth": null,
    "temperature_decimal": {
      "repr": "0044",
      "value": 4.4,
      "spoken": "four point four"
    }
  },
  "runway_visibility": [],
  "temperature": {
    "repr": "04",
    "value": 4,
    "spoken": "four"
  },
  "wind_variable_direction": [],
  "density_altitude": -806,
  "pressure_altitude": 432,
  "units": {
    "accumulation": "in",
    "altimeter": "inHg",
    "altitude": "ft",
    "temperature": "C",
    "visibility": "sm",
    "wind_speed": "kt"
  }
}
