{
  "meta": {
    "timestamp": "2023-02-22T13:15:45.027669Z",
    "stations_updated": "2023-01-30"
  },
  "altimeter": {
    "repr": "A2955",
    "value": 29.55,
    "spoken": "two nine point five five"
  },
  "clouds": [
    {
      "repr": "OVC016",
      "type": "OVC",
      "altitude": 16,
      "modifier": null
    }
  ],
  "flight_rules": "MVFR",
  "other": [],
  "visibility": {
    "repr": "4",
    "value": 4,
    "spoken": "four"
  },
  "wind_direction": {
    "repr": "340",
    "value": 340,
    "spoken": "three four zero"
  },
  "wind_gust": null,
  "wind_speed": {
    "repr": "05",
    "value": 5,
    "spoken": "five"
  },
  "wx_codes": [
    {
      "repr": "-SN",
      "value": "Light Snow"
    },
    {
      "repr": "BR",
      "value": "Mist"
    }
  ],
  "raw": "KAWO 221256Z AUTO 34005KT 4SM -SN BR OVC016 00/M01 A2955 RMK AO2 UPB16E34SNE16B34 SLP013 P0000 T00001006 FZRANO",
  "sanitized": "KAWO 221256Z 34005KT 4SM -SN BR OVC016 00/M01 A2955 RMK AO2 UPB16E34SNE16B34 SLP013 P0000 T00001006 FZRANO",
  "station": "KAWO",
  "time": {
    "repr": "221256Z",
    "dt": "2023-02-22T12:56:00Z"
  },
  "remarks": "RMK AO2 UPB16E34SNE16B34 SLP013 P0000 T00001006 FZRANO",
  "dewpoint": {
    "repr": "M01",
    "value": -1,
    "spoken": "minus one"
  },
  "relative_humidity": 0.9572912555144957,
  "remarks_info": {
    "maximum_temperature_6": null,
    "minimum_temperature_6": null,
    "pressure_tendency": null,
    "precip_36_hours": null,
    "precip_24_hours": null,
    "sunshine_minutes": null,
    "codes": [
      {
        "repr": "AO2",
        "value": "Automated with precipitation sensor"
      },
      {
        "repr": "FZRANO",
        "value": "Freezing rain information not available"
      },
      {
        "repr": "P0000",
        "value": "Trace amount of rain in the last hour"
      }
    ],
    "dewpoint_decimal": {
      "repr": "1006",
      "value": -0.6,
      "spoken": "minus zero point six"
    },
    "maximum_temperature_24": null,
    "minimum_temperature_24": null,
    "precip_hourly": null,
    "sea_level_pressure": {
      "repr": "SLP013",
      "value": 1001.3,
      "spoken": "one zero zero one point three"
    },
    "snow_depth": null,
    "temperature_decimal": {
      "repr": "0000",
      "value": 0,
      "spoken": "zero"
    }
  },
  "runway_visibility": [],
  "temperature": {
    "repr": "00",
    "value": 0,
    "spoken": "zero"
  },
  "wind_variable_direction": [],
  "density_altitude": -1254,
  "pressure_altitude": 512,
  "units": {
    "accumulation": "in",
    "altimeter": "inHg",
    "altitude": "ft",
    "temperature": "C",
    "visibility": "sm",
    "wind_speed": "kt"
  }
}
