{
  "meta": {
    "timestamp": "2022-08-20T11:01:35.827306Z",
    "stations_updated": "2022-07-17"
  },
  "altimeter": {
    "repr": "A2996",
    "value": 29.96,
    "spoken": "two nine point nine six"
  },
  "clouds": [
    {
      "repr": "BKN035",
      "type": "BKN",
      "altitude": 35,
      "modifier": null
    },
    {
      "repr": "OVC046",
      "type": "OVC",
      "altitude": 46,
      "modifier": null
    }
  ],
  "flight_rules": "VFR",
  "other": [],
  "visibility": {
    "repr": "10",
    "value": 10,
    "spoken": "one zero"
  },
  "wind_direction": {
    "repr": "310",
    "value": 310,
    "spoken": "three one zero"
  },
  "wind_gust": null,
  "wind_speed": {
    "repr": "03",
    "value": 3,
    "spoken": "three"
  },
  "wx_codes": [],
  "raw": "KAWO 201056Z AUTO 31003KT 10SM BKN035 OVC046 16/14 A2996 RMK AO2 SLP148 T01560144",
  "sanitized": "KAWO 201056Z 31003KT 10SM BKN035 OVC046 16/14 A2996 RMK AO2 SLP148 T01560144",
  "station": "KAWO",
  "time": {
    "repr": "201056Z",
    "dt": "2022-08-20T10:56:00Z"
  },
  "remarks": "RMK AO2 SLP148 T01560144",
  "dewpoint": {
    "repr": "14",
    "value": 14,
    "spoken": "one four"
  },
  "relative_humidity": 0.9256420226021359,
  "remarks_info": {
    "maximum_temperature_6": null,
    "minimum_temperature_6": null,
    "pressure_tendency": null,
    "precip_36_hours": null,
    "precip_24_hours": null,
    "sunshine_minutes": null,
    "codes": [
      {
        "repr": "AO2",
        "value": "Automated with precipitation sensor"
      }
    ],
    "dewpoint_decimal": {
      "repr": "0144",
      "value": 14.4,
      "spoken": "one four point four"
    },
    "maximum_temperature_24": null,
    "minimum_temperature_24": null,
    "precip_hourly": null,
    "sea_level_pressure": {
      "repr": "SLP148",
      "value": 1014.8,
      "spoken": "one zero one four point eight"
    },
    "snow_depth": null,
    "temperature_decimal": {
      "repr": "0156",
      "value": 15.6,
      "spoken": "one five point six"
    }
  },
  "runway_visibility": [],
  "temperature": {
    "repr": "16",
    "value": 16,
    "spoken": "one six"
  },
  "wind_variable_direction": [],
  "density_altitude": 208,
  "pressure_altitude": 102,
  "units": {
    "accumulation": "in",
    "altimeter": "inHg",
    "altitude": "ft",
    "temperature": "C",
    "visibility": "sm",
    "wind_speed": "kt"
  }
}
