{
  "altimeter": {
    "repr": "A3029",
    "spoken": "three zero point two nine",
    "value": 30.29
  },
  "clouds": [],
  "density_altitude": -1862,
  "dewpoint": {
    "repr": "01",
    "spoken": "one",
    "value": 1
  },
  "flight_rules": "VFR",
  "meta": {
    "cache-timestamp": "2024-02-10T12:08:04.138000Z",
    "stations_updated": "2024-01-01",
    "timestamp": "2024-02-10T12:08:08.599465Z"
  },
  "other": [],
  "pressure_altitude": -228,
  "raw": "KAWO 101156Z AUTO 00000KT 10SM 01/01 A3029 RMK AO2 SLP261 T00110006 10011 21006 51002 FZRANO $",
  "relative_humidity": 0.9646099922239331,
  "remarks": "RMK AO2 SLP261 T00110006 10011 21006 51002 FZRANO $",
  "remarks_info": {
    "codes": [
      {
        "repr": "$",
        "value": "ASOS requires maintenance"
      },
      {
        "repr": "AO2",
        "value": "Automated with precipitation sensor"
      },
      {
        "repr": "FZRANO",
        "value": "Freezing rain information not available"
      }
    ],
    "dewpoint_decimal": {
      "repr": "0006",
      "spoken": "zero point six",
      "value": 0.6
    },
    "maximum_temperature_24": null,
    "maximum_temperature_6": {
      "repr": "10011",
      "spoken": "one point one",
      "value": 1.1
    },
    "minimum_temperature_24": null,
    "minimum_temperature_6": {
      "repr": "21006",
      "spoken": "minus zero point six",
      "value": -0.6
    },
    "precip_24_hours": null,
    "precip_36_hours": null,
    "precip_hourly": null,
    "pressure_tendency": {
      "change": 0.2,
      "repr": "51002",
      "tendency": "Increasing, then steady"
    },
    "sea_level_pressure": {
      "repr": "SLP261",
      "spoken": "one zero two six point one",
      "value": 1026.1
    },
    "snow_depth": null,
    "sunshine_minutes": null,
    "temperature_decimal": {
      "repr": "0011",
      "spoken": "one point one",
      "value": 1.1
    }
  },
  "runway_visibility": [],
  "sanitized": "KAWO 101156Z 00000KT 10SM 01/01 A3029 RMK AO2 SLP261 T00110006 10011 21006 51002 FZRANO $",
  "station": "KAWO",
  "temperature": {
    "repr": "01",
    "spoken": "one",
    "value": 1
  },
  "time": {
    "dt": "2024-02-10T11:56:00Z",
    "repr": "101156Z"
  },
  "units": {
    "accumulation": "in",
    "altimeter": "inHg",
    "altitude": "ft",
    "temperature": "C",
    "visibility": "sm",
    "wind_speed": "kt"
  },
  "visibility": {
    "repr": "10",
    "spoken": "one zero",
    "value": 10
  },
  "wind_direction": {
    "repr": "000",
    "spoken": "zero zero zero",
    "value": 0
  },
  "wind_gust": null,
  "wind_speed": {
    "repr": "00",
    "spoken": "zero",
    "value": 0
  },
  "wind_variable_direction": [],
  "wx_codes": []
}
