{
  "meta": {
    "timestamp": "2022-09-14T06:19:13.939589Z",
    "stations_updated": "2022-09-05"
  },
  "altimeter": {
    "repr": "A2988",
    "value": 29.88,
    "spoken": "two nine point eight eight"
  },
  "clouds": [
    {
      "repr": "OVC055",
      "type": "OVC",
      "altitude": 55,
      "modifier": null
    }
  ],
  "flight_rules": "VFR",
  "other": [],
  "visibility": {
    "repr": "10",
    "value": 10,
    "spoken": "one zero"
  },
  "wind_direction": {
    "repr": "010",
    "value": 10,
    "spoken": "zero one zero"
  },
  "wind_gust": null,
  "wind_speed": {
    "repr": "03",
    "value": 3,
    "spoken": "three"
  },
  "wx_codes": [],
  "raw": "KAWO 140556Z AUTO 01003KT 10SM OVC055 16/11 A2988 RMK AO2 SLP123 T01560111 10206 20150 50003",
  "sanitized": "KAWO 140556Z 01003KT 10SM OVC055 16/11 A2988 RMK AO2 SLP123 T01560111 10206 20150 50003",
  "station": "KAWO",
  "time": {
    "repr": "140556Z",
    "dt": "2022-09-14T05:56:00Z"
  },
  "remarks": "RMK AO2 SLP123 T01560111 10206 20150 50003",
  "dewpoint": {
    "repr": "11",
    "value": 11,
    "spoken": "one one"
  },
  "relative_humidity": 0.7456421120476547,
  "remarks_info": {
    "maximum_temperature_6": {
      "repr": "10206",
      "value": 20.6,
      "spoken": "two zero point six"
    },
    "minimum_temperature_6": {
      "repr": "20150",
      "value": 15,
      "spoken": "one five point zero"
    },
    "pressure_tendency": {
      "repr": "50003",
      "tendency": "Increasing, then decreasing",
      "change": 0.3
    },
    "precip_36_hours": null,
    "precip_24_hours": null,
    "sunshine_minutes": null,
    "codes": [
      {
        "repr": "AO2",
        "value": "Automated with precipitation sensor"
      }
    ],
    "dewpoint_decimal": {
      "repr": "0111",
      "value": 11.1,
      "spoken": "one one point one"
    },
    "maximum_temperature_24": null,
    "minimum_temperature_24": null,
    "precip_hourly": null,
    "sea_level_pressure": {
      "repr": "SLP123",
      "value": 1012.3,
      "spoken": "one zero one two point three"
    },
    "snow_depth": null,
    "temperature_decimal": {
      "repr": "0156",
      "value": 15.6,
      "spoken": "one five point six"
    }
  },
  "runway_visibility": [],
  "temperature": {
    "repr": "16",
    "value": 16,
    "spoken": "one six"
  },
  "wind_variable_direction": [],
  "density_altitude": 288,
  "pressure_altitude": 182,
  "units": {
    "accumulation": "in",
    "altimeter": "inHg",
    "altitude": "ft",
    "temperature": "C",
    "visibility": "sm",
    "wind_speed": "kt"
  }
}
