{
  "meta": {
    "timestamp": "2022-11-21T18:49:12.699304Z",
    "stations_updated": "2022-09-05"
  },
  "altimeter": {
    "repr": "A3030",
    "value": 30.3,
    "spoken": "three zero point three zero"
  },
  "clouds": [
    {
      "repr": "OVC070",
      "type": "OVC",
      "altitude": 70,
      "modifier": null
    }
  ],
  "flight_rules": "VFR",
  "other": [],
  "visibility": {
    "repr": "10",
    "value": 10,
    "spoken": "one zero"
  },
  "wind_direction": {
    "repr": "000",
    "value": 0,
    "spoken": "zero zero zero"
  },
  "wind_gust": null,
  "wind_speed": {
    "repr": "00",
    "value": 0,
    "spoken": "zero"
  },
  "wx_codes": [],
  "raw": "KAWO 211756Z AUTO 00000KT 10SM OVC070 06/03 A3030 RMK AO2 SLP264 60000 T00560028 10056 20028 50001",
  "sanitized": "KAWO 211756Z 00000KT 10SM OVC070 06/03 A3030 RMK AO2 SLP264 60000 T00560028 10056 20028 50001",
  "station": "KAWO",
  "time": {
    "repr": "211756Z",
    "dt": "2022-11-21T17:56:00Z"
  },
  "remarks": "RMK AO2 SLP264 60000 T00560028 10056 20028 50001",
  "dewpoint": {
    "repr": "03",
    "value": 3,
    "spoken": "three"
  },
  "relative_humidity": 0.821715477960863,
  "remarks_info": {
    "maximum_temperature_6": {
      "repr": "10056",
      "value": 5.6,
      "spoken": "five point six"
    },
    "minimum_temperature_6": {
      "repr": "20028",
      "value": 2.8,
      "spoken": "two point eight"
    },
    "pressure_tendency": {
      "repr": "50001",
      "tendency": "Increasing, then decreasing",
      "change": 0.1
    },
    "precip_36_hours": {
      "repr": "60000",
      "value": 0,
      "spoken": "zero"
    },
    "precip_24_hours": null,
    "sunshine_minutes": null,
    "codes": [
      {
        "repr": "AO2",
        "value": "Automated with precipitation sensor"
      }
    ],
    "dewpoint_decimal": {
      "repr": "0028",
      "value": 2.8,
      "spoken": "two point eight"
    },
    "maximum_temperature_24": null,
    "minimum_temperature_24": null,
    "precip_hourly": null,
    "sea_level_pressure": {
      "repr": "SLP264",
      "value": 1026.4,
      "spoken": "one zero two six point four"
    },
    "snow_depth": null,
    "temperature_decimal": {
      "repr": "0056",
      "value": 5.6,
      "spoken": "five point six"
    }
  },
  "runway_visibility": [],
  "temperature": {
    "repr": "06",
    "value": 6,
    "spoken": "six"
  },
  "wind_variable_direction": [],
  "density_altitude": -1332,
  "pressure_altitude": -238,
  "units": {
    "accumulation": "in",
    "altimeter": "inHg",
    "altitude": "ft",
    "temperature": "C",
    "visibility": "sm",
    "wind_speed": "kt"
  }
}
