{
  "altimeter": {
    "repr": "A3036",
    "spoken": "three zero point three six",
    "value": 30.36
  },
  "clouds": [
    {
      "altitude": 15,
      "modifier": null,
      "repr": "OVC015",
      "type": "OVC"
    }
  ],
  "density_altitude": -1464,
  "dewpoint": {
    "repr": "04",
    "spoken": "four",
    "value": 4
  },
  "flight_rules": "MVFR",
  "meta": {
    "stations_updated": "2024-12-02",
    "timestamp": "2024-12-31T06:35:29.259412Z"
  },
  "other": [],
  "pressure_altitude": -298,
  "raw": "KAWO 310556Z AUTO 02003KT 10SM OVC015 05/04 A3036 RMK AO2 SLP289 60001 T00500044 10061 20033 53006",
  "relative_humidity": 0.958959211899474,
  "remarks": "RMK AO2 SLP289 60001 T00500044 10061 20033 53006",
  "remarks_info": {
    "codes": [
      {
        "repr": "AO2",
        "value": "Automated with precipitation sensor"
      }
    ],
    "dewpoint_decimal": {
      "repr": "0044",
      "spoken": "four point four",
      "value": 4.4
    },
    "maximum_temperature_24": null,
    "maximum_temperature_6": {
      "repr": "10061",
      "spoken": "six point one",
      "value": 6.1
    },
    "minimum_temperature_24": null,
    "minimum_temperature_6": {
      "repr": "20033",
      "spoken": "three point three",
      "value": 3.3
    },
    "precip_24_hours": null,
    "precip_36_hours": {
      "repr": "60001",
      "spoken": "zero point zero one",
      "value": 0.01
    },
    "precip_hourly": null,
    "pressure_tendency": {
      "change": 0.6,
      "repr": "53006",
      "tendency": "Decreasing or steady, then increasing"
    },
    "sea_level_pressure": {
      "repr": "SLP289",
      "spoken": "one zero two eight point nine",
      "value": 1028.9
    },
    "snow_depth": null,
    "sunshine_minutes": null,
    "temperature_decimal": {
      "repr": "0050",
      "spoken": "five point zero",
      "value": 5
    }
  },
  "runway_visibility": [],
  "sanitized": "KAWO 310556Z 02003KT 10SM OVC015 05/04 A3036 RMK AO2 SLP289 60001 T00500044 10061 20033 53006",
  "station": "KAWO",
  "temperature": {
    "repr": "05",
    "spoken": "five",
    "value": 5
  },
  "time": {
    "dt": "2024-12-31T05:56:00Z",
    "repr": "310556Z"
  },
  "units": {
    "accumulation": "in",
    "altimeter": "inHg",
    "altitude": "ft",
    "temperature": "C",
    "visibility": "sm",
    "wind_speed": "kt"
  },
  "visibility": {
    "repr": "10",
    "spoken": "one zero",
    "value": 10
  },
  "wind_direction": {
    "repr": "020",
    "spoken": "zero two zero",
    "value": 20
  },
  "wind_gust": null,
  "wind_speed": {
    "repr": "03",
    "spoken": "three",
    "value": 3
  },
  "wind_variable_direction": [],
  "wx_codes": []
}
