{
  "altimeter": {
    "repr": "A2946",
    "spoken": "two nine point four six",
    "value": 29.46
  },
  "clouds": [
    {
      "altitude": 70,
      "modifier": null,
      "repr": "BKN070",
      "type": "BKN"
    },
    {
      "altitude": 85,
      "modifier": null,
      "repr": "OVC085",
      "type": "OVC"
    }
  ],
  "density_altitude": -36,
  "dewpoint": {
    "repr": "01",
    "spoken": "one",
    "value": 1
  },
  "flight_rules": "VFR",
  "meta": {
    "stations_updated": "2024-10-29",
    "timestamp": "2024-11-20T08:35:52.435876Z"
  },
  "other": [],
  "pressure_altitude": 602,
  "raw": "KAWO 200756Z AUTO 11017G23KT 10SM -RA BKN070 OVC085 09/01 A2946 RMK AO2 PK WND 10031/0707 SLP980 P0000 T00940006",
  "relative_humidity": 0.5415388830253138,
  "remarks": "RMK AO2 PK WND 10031/0707 SLP980 P0000 T00940006",
  "remarks_info": {
    "codes": [
      {
        "repr": "AO2",
        "value": "Automated with precipitation sensor"
      },
      {
        "repr": "P0000",
        "value": "Trace amount of rain in the last hour"
      }
    ],
    "dewpoint_decimal": {
      "repr": "0006",
      "spoken": "zero point six",
      "value": 0.6
    },
    "maximum_temperature_24": null,
    "maximum_temperature_6": null,
    "minimum_temperature_24": null,
    "minimum_temperature_6": null,
    "precip_24_hours": null,
    "precip_36_hours": null,
    "precip_hourly": null,
    "pressure_tendency": null,
    "sea_level_pressure": {
      "repr": "SLP980",
      "spoken": "nine nine eight point zero",
      "value": 998
    },
    "snow_depth": null,
    "sunshine_minutes": null,
    "temperature_decimal": {
      "repr": "0094",
      "spoken": "nine point four",
      "value": 9.4
    }
  },
  "runway_visibility": [],
  "sanitized": "KAWO 200756Z 11017G23KT 10SM -RA BKN070 OVC085 09/01 A2946 RMK AO2 PK WND 10031/0707 SLP980 P0000 T00940006",
  "station": "KAWO",
  "temperature": {
    "repr": "09",
    "spoken": "nine",
    "value": 9
  },
  "time": {
    "dt": "2024-11-20T07:56:00Z",
    "repr": "200756Z"
  },
  "units": {
    "accumulation": "in",
    "altimeter": "inHg",
    "altitude": "ft",
    "temperature": "C",
    "visibility": "sm",
    "wind_speed": "kt"
  },
  "visibility": {
    "repr": "10",
    "spoken": "one zero",
    "value": 10
  },
  "wind_direction": {
    "repr": "110",
    "spoken": "one one zero",
    "value": 110
  },
  "wind_gust": {
    "repr": "23",
    "spoken": "two three",
    "value": 23
  },
  "wind_speed": {
    "repr": "17",
    "spoken": "one seven",
    "value": 17
  },
  "wind_variable_direction": [],
  "wx_codes": [
    {
      "repr": "-RA",
      "value": "Light Rain"
    }
  ]
}
