{
  "meta": {
    "timestamp": "2022-12-08T21:40:37.984228Z",
    "stations_updated": "2022-09-05"
  },
  "altimeter": {
    "repr": "A2994",
    "value": 29.94,
    "spoken": "two nine point nine four"
  },
  "clouds": [
    {
      "repr": "OVC020",
      "type": "OVC",
      "altitude": 20,
      "modifier": null
    }
  ],
  "flight_rules": "MVFR",
  "other": [],
  "visibility": {
    "repr": "10",
    "value": 10,
    "spoken": "one zero"
  },
  "wind_direction": {
    "repr": "150",
    "value": 150,
    "spoken": "one five zero"
  },
  "wind_gust": null,
  "wind_speed": {
    "repr": "10",
    "value": 10,
    "spoken": "one zero"
  },
  "wx_codes": [],
  "raw": "KAWO 082056Z AUTO 15010KT 10SM OVC020 06/02 A2994 RMK AO2 SLP143 T00610022 58009",
  "sanitized": "KAWO 082056Z 15010KT 10SM OVC020 06/02 A2994 RMK AO2 SLP143 T00610022 58009",
  "station": "KAWO",
  "time": {
    "repr": "082056Z",
    "dt": "2022-12-08T20:56:00Z"
  },
  "remarks": "RMK AO2 SLP143 T00610022 58009",
  "dewpoint": {
    "repr": "02",
    "value": 2,
    "spoken": "two"
  },
  "relative_humidity": 0.76061983624849,
  "remarks_info": {
    "maximum_temperature_6": null,
    "minimum_temperature_6": null,
    "pressure_tendency": {
      "repr": "58009",
      "tendency": "Steady or increasing, then decreasing",
      "change": 0.9
    },
    "precip_36_hours": null,
    "precip_24_hours": null,
    "sunshine_minutes": null,
    "codes": [
      {
        "repr": "AO2",
        "value": "Automated with precipitation sensor"
      }
    ],
    "dewpoint_decimal": {
      "repr": "0022",
      "value": 2.2,
      "spoken": "two point two"
    },
    "maximum_temperature_24": null,
    "minimum_temperature_24": null,
    "precip_hourly": null,
    "sea_level_pressure": {
      "repr": "SLP143",
      "value": 1014.3,
      "spoken": "one zero one four point three"
    },
    "snow_depth": null,
    "temperature_decimal": {
      "repr": "0061",
      "value": 6.1,
      "spoken": "six point one"
    }
  },
  "runway_visibility": [],
  "temperature": {
    "repr": "06",
    "value": 6,
    "spoken": "six"
  },
  "wind_variable_direction": [],
  "density_altitude": -912,
  "pressure_altitude": 122,
  "units": {
    "accumulation": "in",
    "altimeter": "inHg",
    "altitude": "ft",
    "temperature": "C",
    "visibility": "sm",
    "wind_speed": "kt"
  }
}
