{
  "altimeter": {
    "repr": "A2992",
    "spoken": "two nine point nine two",
    "value": 29.92
  },
  "clouds": [
    {
      "altitude": 26,
      "modifier": null,
      "repr": "OVC026",
      "type": "OVC"
    }
  ],
  "density_altitude": -1156,
  "dewpoint": {
    "repr": "04",
    "spoken": "four",
    "value": 4
  },
  "flight_rules": "MVFR",
  "meta": {
    "cache-timestamp": "2024-01-09T00:28:03.746000Z",
    "stations_updated": "2023-10-28",
    "timestamp": "2024-01-09T00:28:19.977857Z"
  },
  "other": [],
  "pressure_altitude": 142,
  "raw": "KAWO 082356Z AUTO 00000KT 8SM -RA OVC026 04/04 A2992 RMK AO2 SLP136 P0003 60026 T00390039 10044 20022 58026",
  "relative_humidity": 1,
  "remarks": "RMK AO2 SLP136 P0003 60026 T00390039 10044 20022 58026",
  "remarks_info": {
    "codes": [
      {
        "repr": "AO2",
        "value": "Automated with precipitation sensor"
      }
    ],
    "dewpoint_decimal": {
      "repr": "0039",
      "spoken": "three point nine",
      "value": 3.9
    },
    "maximum_temperature_24": null,
    "maximum_temperature_6": {
      "repr": "10044",
      "spoken": "four point four",
      "value": 4.4
    },
    "minimum_temperature_24": null,
    "minimum_temperature_6": {
      "repr": "20022",
      "spoken": "two point two",
      "value": 2.2
    },
    "precip_24_hours": null,
    "precip_36_hours": {
      "repr": "60026",
      "spoken": "zero point two six",
      "value": 0.26
    },
    "precip_hourly": {
      "repr": "P0003",
      "spoken": "zero point zero three",
      "value": 0.03
    },
    "pressure_tendency": {
      "change": 2.6,
      "repr": "58026",
      "tendency": "Steady or increasing, then decreasing"
    },
    "sea_level_pressure": {
      "repr": "SLP136",
      "spoken": "one zero one three point six",
      "value": 1013.6
    },
    "snow_depth": null,
    "sunshine_minutes": null,
    "temperature_decimal": {
      "repr": "0039",
      "spoken": "three point nine",
      "value": 3.9
    }
  },
  "runway_visibility": [],
  "sanitized": "KAWO 082356Z 00000KT 8SM -RA OVC026 04/04 A2992 RMK AO2 SLP136 P0003 60026 T00390039 10044 20022 58026",
  "station": "KAWO",
  "temperature": {
    "repr": "04",
    "spoken": "four",
    "value": 4
  },
  "time": {
    "dt": "2024-01-08T23:56:00Z",
    "repr": "082356Z"
  },
  "units": {
    "accumulation": "in",
    "altimeter": "inHg",
    "altitude": "ft",
    "temperature": "C",
    "visibility": "sm",
    "wind_speed": "kt"
  },
  "visibility": {
    "repr": "8",
    "spoken": "eight",
    "value": 8
  },
  "wind_direction": {
    "repr": "000",
    "spoken": "zero zero zero",
    "value": 0
  },
  "wind_gust": null,
  "wind_speed": {
    "repr": "00",
    "spoken": "zero",
    "value": 0
  },
  "wind_variable_direction": [],
  "wx_codes": [
    {
      "repr": "-RA",
      "value": "Light Rain"
    }
  ]
}
