{
  "meta": {
    "timestamp": "2023-08-16T06:40:33.365214Z",
    "stations_updated": "2023-08-05",
    "cache-timestamp": "2023-08-16T06:40:06.185000Z"
  },
  "altimeter": {
    "repr": "A2998",
    "value": 29.98,
    "spoken": "two nine point nine eight"
  },
  "clouds": [
    {
      "repr": "SCT002",
      "type": "SCT",
      "altitude": 2,
      "modifier": null
    }
  ],
  "flight_rules": "VFR",
  "other": [],
  "visibility": {
    "repr": "10",
    "value": 10,
    "spoken": "one zero"
  },
  "wind_direction": {
    "repr": "000",
    "value": 0,
    "spoken": "zero zero zero"
  },
  "wind_gust": null,
  "wind_speed": {
    "repr": "00",
    "value": 0,
    "spoken": "zero"
  },
  "wx_codes": [],
  "raw": "KAWO 160556Z AUTO 00000KT 10SM SCT002 21/14 A2998 RMK AO2 SLP153 T02110139 10328 20211 50008",
  "sanitized": "KAWO 160556Z 00000KT 10SM SCT002 21/14 A2998 RMK AO2 SLP153 T02110139 10328 20211 50008",
  "station": "KAWO",
  "time": {
    "repr": "160556Z",
    "dt": "2023-08-16T05:56:00Z"
  },
  "remarks": "RMK AO2 SLP153 T02110139 10328 20211 50008",
  "dewpoint": {
    "repr": "14",
    "value": 14,
    "spoken": "one four"
  },
  "relative_humidity": 0.6345421919212817,
  "remarks_info": {
    "maximum_temperature_6": {
      "repr": "10328",
      "value": 32.8,
      "spoken": "three two point eight"
    },
    "minimum_temperature_6": {
      "repr": "20211",
      "value": 21.1,
      "spoken": "two one point one"
    },
    "pressure_tendency": {
      "repr": "50008",
      "tendency": "Increasing, then decreasing",
      "change": 0.8
    },
    "precip_36_hours": null,
    "precip_24_hours": null,
    "sunshine_minutes": null,
    "codes": [
      {
        "repr": "AO2",
        "value": "Automated with precipitation sensor"
      }
    ],
    "dewpoint_decimal": {
      "repr": "0139",
      "value": 13.9,
      "spoken": "one three point nine"
    },
    "maximum_temperature_24": null,
    "minimum_temperature_24": null,
    "precip_hourly": null,
    "sea_level_pressure": {
      "repr": "SLP153",
      "value": 1015.3,
      "spoken": "one zero one five point three"
    },
    "snow_depth": null,
    "temperature_decimal": {
      "repr": "0211",
      "value": 21.1,
      "spoken": "two one point one"
    }
  },
  "runway_visibility": [],
  "temperature": {
    "repr": "21",
    "value": 21,
    "spoken": "two one"
  },
  "wind_variable_direction": [],
  "density_altitude": 848,
  "pressure_altitude": 82,
  "units": {
    "accumulation": "in",
    "altimeter": "inHg",
    "altitude": "ft",
    "temperature": "C",
    "visibility": "sm",
    "wind_speed": "kt"
  }
}
