{
  "meta": {
    "timestamp": "2023-07-29T13:03:16.083976Z",
    "stations_updated": "2023-06-06",
    "cache-timestamp": "2023-07-29T13:02:17.796000Z"
  },
  "altimeter": {
    "repr": "A3008",
    "value": 30.08,
    "spoken": "three zero point zero eight"
  },
  "clouds": [],
  "flight_rules": "VFR",
  "other": [],
  "visibility": {
    "repr": "10",
    "value": 10,
    "spoken": "one zero"
  },
  "wind_direction": {
    "repr": "320",
    "value": 320,
    "spoken": "three two zero"
  },
  "wind_gust": null,
  "wind_speed": {
    "repr": "03",
    "value": 3,
    "spoken": "three"
  },
  "wx_codes": [],
  "raw": "KAWO 291156Z AUTO 32003KT 10SM CLR 13/11 A3008 RMK AO2 SLP191 T01280111 10156 20128 53005",
  "sanitized": "KAWO 291156Z 32003KT 10SM 13/11 A3008 RMK AO2 SLP191 T01280111 10156 20128 53005",
  "station": "KAWO",
  "time": {
    "repr": "291156Z",
    "dt": "2023-07-29T11:56:00Z"
  },
  "remarks": "RMK AO2 SLP191 T01280111 10156 20128 53005",
  "dewpoint": {
    "repr": "11",
    "value": 11,
    "spoken": "one one"
  },
  "relative_humidity": 0.8939613602034909,
  "remarks_info": {
    "maximum_temperature_6": {
      "repr": "10156",
      "value": 15.6,
      "spoken": "one five point six"
    },
    "minimum_temperature_6": {
      "repr": "20128",
      "value": 12.8,
      "spoken": "one two point eight"
    },
    "pressure_tendency": {
      "repr": "53005",
      "tendency": "Decreasing or steady, then increasing",
      "change": 0.5
    },
    "precip_36_hours": null,
    "precip_24_hours": null,
    "sunshine_minutes": null,
    "codes": [
      {
        "repr": "AO2",
        "value": "Automated with precipitation sensor"
      }
    ],
    "dewpoint_decimal": {
      "repr": "0111",
      "value": 11.1,
      "spoken": "one one point one"
    },
    "maximum_temperature_24": null,
    "minimum_temperature_24": null,
    "precip_hourly": null,
    "sea_level_pressure": {
      "repr": "SLP191",
      "value": 1019.1,
      "spoken": "one zero one nine point one"
    },
    "snow_depth": null,
    "temperature_decimal": {
      "repr": "0128",
      "value": 12.8,
      "spoken": "one two point eight"
    }
  },
  "runway_visibility": [],
  "temperature": {
    "repr": "13",
    "value": 13,
    "spoken": "one three"
  },
  "wind_variable_direction": [],
  "density_altitude": -248,
  "pressure_altitude": -18,
  "units": {
    "accumulation": "in",
    "altimeter": "inHg",
    "altitude": "ft",
    "temperature": "C",
    "visibility": "sm",
    "wind_speed": "kt"
  }
}
