{
  "meta": {
    "timestamp": "2023-05-05T08:06:32.095747Z",
    "stations_updated": "2023-03-11",
    "cache-timestamp": "2023-05-05T08:06:04.335000Z"
  },
  "altimeter": {
    "repr": "A2981",
    "value": 29.81,
    "spoken": "two nine point eight one"
  },
  "clouds": [
    {
      "repr": "SCT013",
      "type": "SCT",
      "altitude": 13,
      "modifier": null
    },
    {
      "repr": "OVC021",
      "type": "OVC",
      "altitude": 21,
      "modifier": null
    }
  ],
  "flight_rules": "MVFR",
  "other": [],
  "visibility": {
    "repr": "10",
    "value": 10,
    "spoken": "one zero"
  },
  "wind_direction": {
    "repr": "150",
    "value": 150,
    "spoken": "one five zero"
  },
  "wind_gust": null,
  "wind_speed": {
    "repr": "08",
    "value": 8,
    "spoken": "eight"
  },
  "wx_codes": [],
  "raw": "KAWO 050756Z AUTO 15008KT 10SM SCT013 OVC021 10/08 A2981 RMK AO2 SLP098 T01000083 401440100",
  "sanitized": "KAWO 050756Z 15008KT 10SM SCT013 OVC021 10/08 A2981 RMK AO2 SLP098 T01000083 401440100",
  "station": "KAWO",
  "time": {
    "repr": "050756Z",
    "dt": "2023-05-05T07:56:00Z"
  },
  "remarks": "RMK AO2 SLP098 T01000083 401440100",
  "dewpoint": {
    "repr": "08",
    "value": 8,
    "spoken": "eight"
  },
  "relative_humidity": 0.8917307313199454,
  "remarks_info": {
    "maximum_temperature_6": null,
    "minimum_temperature_6": null,
    "pressure_tendency": null,
    "precip_36_hours": null,
    "precip_24_hours": null,
    "sunshine_minutes": null,
    "codes": [
      {
        "repr": "AO2",
        "value": "Automated with precipitation sensor"
      }
    ],
    "dewpoint_decimal": {
      "repr": "0083",
      "value": 8.3,
      "spoken": "eight point three"
    },
    "maximum_temperature_24": {
      "repr": "0144",
      "value": 14.4,
      "spoken": "one four point four"
    },
    "minimum_temperature_24": {
      "repr": "0100",
      "value": 10,
      "spoken": "one zero point zero"
    },
    "precip_hourly": null,
    "sea_level_pressure": {
      "repr": "SLP098",
      "value": 1009.8,
      "spoken": "one zero zero nine point eight"
    },
    "snow_depth": null,
    "temperature_decimal": {
      "repr": "0100",
      "value": 10,
      "spoken": "one zero point zero"
    }
  },
  "runway_visibility": [],
  "temperature": {
    "repr": "10",
    "value": 10,
    "spoken": "one zero"
  },
  "wind_variable_direction": [],
  "density_altitude": -314,
  "pressure_altitude": 252,
  "units": {
    "accumulation": "in",
    "altimeter": "inHg",
    "altitude": "ft",
    "temperature": "C",
    "visibility": "sm",
    "wind_speed": "kt"
  }
}
