{
  "meta": {
    "timestamp": "2023-05-21T06:40:36.405097Z",
    "stations_updated": "2023-03-11",
    "cache-timestamp": "2023-05-21T06:40:05.716000Z"
  },
  "altimeter": {
    "repr": "A3015",
    "value": 30.15,
    "spoken": "three zero point one five"
  },
  "clouds": [],
  "flight_rules": "VFR",
  "other": [],
  "visibility": {
    "repr": "10",
    "value": 10,
    "spoken": "one zero"
  },
  "wind_direction": {
    "repr": "340",
    "value": 340,
    "spoken": "three four zero"
  },
  "wind_gust": null,
  "wind_speed": {
    "repr": "06",
    "value": 6,
    "spoken": "six"
  },
  "wx_codes": [],
  "raw": "KAWO 210556Z AUTO 34006KT 10SM CLR 12/09 A3015 RMK AO2 SLP213 T01220094 10200 20117 53015",
  "sanitized": "KAWO 210556Z 34006KT 10SM 12/09 A3015 RMK AO2 SLP213 T01220094 10200 20117 53015",
  "station": "KAWO",
  "time": {
    "repr": "210556Z",
    "dt": "2023-05-21T05:56:00Z"
  },
  "remarks": "RMK AO2 SLP213 T01220094 10200 20117 53015",
  "dewpoint": {
    "repr": "09",
    "value": 9,
    "spoken": "nine"
  },
  "relative_humidity": 0.830024146445758,
  "remarks_info": {
    "maximum_temperature_6": {
      "repr": "10200",
      "value": 20,
      "spoken": "two zero point zero"
    },
    "minimum_temperature_6": {
      "repr": "20117",
      "value": 11.7,
      "spoken": "one one point seven"
    },
    "pressure_tendency": {
      "repr": "53015",
      "tendency": "Decreasing or steady, then increasing",
      "change": 1.5
    },
    "precip_36_hours": null,
    "precip_24_hours": null,
    "sunshine_minutes": null,
    "codes": [
      {
        "repr": "AO2",
        "value": "Automated with precipitation sensor"
      }
    ],
    "dewpoint_decimal": {
      "repr": "0094",
      "value": 9.4,
      "spoken": "nine point four"
    },
    "maximum_temperature_24": null,
    "minimum_temperature_24": null,
    "precip_hourly": null,
    "sea_level_pressure": {
      "repr": "SLP213",
      "value": 1021.3,
      "spoken": "one zero two one point three"
    },
    "snow_depth": null,
    "temperature_decimal": {
      "repr": "0122",
      "value": 12.2,
      "spoken": "one two point two"
    }
  },
  "runway_visibility": [],
  "temperature": {
    "repr": "12",
    "value": 12,
    "spoken": "one two"
  },
  "wind_variable_direction": [],
  "density_altitude": -390,
  "pressure_altitude": -88,
  "units": {
    "accumulation": "in",
    "altimeter": "inHg",
    "altitude": "ft",
    "temperature": "C",
    "visibility": "sm",
    "wind_speed": "kt"
  }
}
