{
  "altimeter": {
    "repr": "A3002",
    "spoken": "three zero point zero two",
    "value": 30.02
  },
  "clouds": [],
  "density_altitude": 808,
  "dewpoint": {
    "repr": "11",
    "spoken": "one one",
    "value": 11
  },
  "flight_rules": "VFR",
  "meta": {
    "cache-timestamp": "2024-03-17T01:36:03.567000Z",
    "stations_updated": "2024-01-01",
    "timestamp": "2024-03-17T01:36:35.384243Z"
  },
  "other": [],
  "pressure_altitude": 42,
  "raw": "KAWO 170056Z AUTO 32003KT 10SM 21/11 A3002 RMK AO2 SLP168 T02110106",
  "relative_humidity": 0.5107169722752292,
  "remarks": "RMK AO2 SLP168 T02110106",
  "remarks_info": {
    "codes": [
      {
        "repr": "AO2",
        "value": "Automated with precipitation sensor"
      }
    ],
    "dewpoint_decimal": {
      "repr": "0106",
      "spoken": "one zero point six",
      "value": 10.6
    },
    "maximum_temperature_24": null,
    "maximum_temperature_6": null,
    "minimum_temperature_24": null,
    "minimum_temperature_6": null,
    "precip_24_hours": null,
    "precip_36_hours": null,
    "precip_hourly": null,
    "pressure_tendency": null,
    "sea_level_pressure": {
      "repr": "SLP168",
      "spoken": "one zero one six point eight",
      "value": 1016.8
    },
    "snow_depth": null,
    "sunshine_minutes": null,
    "temperature_decimal": {
      "repr": "0211",
      "spoken": "two one point one",
      "value": 21.1
    }
  },
  "runway_visibility": [],
  "sanitized": "KAWO 170056Z 32003KT 10SM 21/11 A3002 RMK AO2 SLP168 T02110106",
  "station": "KAWO",
  "temperature": {
    "repr": "21",
    "spoken": "two one",
    "value": 21
  },
  "time": {
    "dt": "2024-03-17T00:56:00Z",
    "repr": "170056Z"
  },
  "units": {
    "accumulation": "in",
    "altimeter": "inHg",
    "altitude": "ft",
    "temperature": "C",
    "visibility": "sm",
    "wind_speed": "kt"
  },
  "visibility": {
    "repr": "10",
    "spoken": "one zero",
    "value": 10
  },
  "wind_direction": {
    "repr": "320",
    "spoken": "three two zero",
    "value": 320
  },
  "wind_gust": null,
  "wind_speed": {
    "repr": "03",
    "spoken": "three",
    "value": 3
  },
  "wind_variable_direction": [],
  "wx_codes": []
}
