{
  "meta": {
    "timestamp": "2022-12-14T11:01:35.243586Z",
    "stations_updated": "2022-09-05"
  },
  "altimeter": {
    "repr": "A3035",
    "value": 30.35,
    "spoken": "three zero point three five"
  },
  "clouds": [
    {
      "repr": "BKN048",
      "type": "BKN",
      "altitude": 48,
      "modifier": null
    },
    {
      "repr": "OVC085",
      "type": "OVC",
      "altitude": 85,
      "modifier": null
    }
  ],
  "flight_rules": "VFR",
  "other": [],
  "visibility": {
    "repr": "10",
    "value": 10,
    "spoken": "one zero"
  },
  "wind_direction": {
    "repr": "340",
    "value": 340,
    "spoken": "three four zero"
  },
  "wind_gust": null,
  "wind_speed": {
    "repr": "03",
    "value": 3,
    "spoken": "three"
  },
  "wx_codes": [],
  "raw": "KAWO 141056Z AUTO 34003KT 10SM BKN048 OVC085 02/01 A3035 RMK AO2 SLP284 T00170011 FZRANO",
  "sanitized": "KAWO 141056Z 34003KT 10SM BKN048 OVC085 02/01 A3035 RMK AO2 SLP284 T00170011 FZRANO",
  "station": "KAWO",
  "time": {
    "repr": "141056Z",
    "dt": "2022-12-14T10:56:00Z"
  },
  "remarks": "RMK AO2 SLP284 T00170011 FZRANO",
  "dewpoint": {
    "repr": "01",
    "value": 1,
    "spoken": "one"
  },
  "relative_humidity": 0.9578695064206159,
  "remarks_info": {
    "maximum_temperature_6": null,
    "minimum_temperature_6": null,
    "pressure_tendency": null,
    "precip_36_hours": null,
    "precip_24_hours": null,
    "sunshine_minutes": null,
    "codes": [
      {
        "repr": "AO2",
        "value": "Automated with precipitation sensor"
      },
      {
        "repr": "FZRANO",
        "value": "Freezing rain information not available"
      }
    ],
    "dewpoint_decimal": {
      "repr": "0011",
      "value": 1.1,
      "spoken": "one point one"
    },
    "maximum_temperature_24": null,
    "minimum_temperature_24": null,
    "precip_hourly": null,
    "sea_level_pressure": {
      "repr": "SLP284",
      "value": 1028.4,
      "spoken": "one zero two eight point four"
    },
    "snow_depth": null,
    "temperature_decimal": {
      "repr": "0017",
      "value": 1.7,
      "spoken": "one point seven"
    }
  },
  "runway_visibility": [],
  "temperature": {
    "repr": "02",
    "value": 2,
    "spoken": "two"
  },
  "wind_variable_direction": [],
  "density_altitude": -1850,
  "pressure_altitude": -288,
  "units": {
    "accumulation": "in",
    "altimeter": "inHg",
    "altitude": "ft",
    "temperature": "C",
    "visibility": "sm",
    "wind_speed": "kt"
  }
}
