{
  "meta": {
    "timestamp": "2023-08-15T15:21:43.083002Z",
    "stations_updated": "2023-08-05"
  },
  "altimeter": {
    "repr": "A3000",
    "value": 30,
    "spoken": "three zero point zero zero"
  },
  "clouds": [],
  "flight_rules": "VFR",
  "other": [],
  "visibility": {
    "repr": "10",
    "value": 10,
    "spoken": "one zero"
  },
  "wind_direction": {
    "repr": "330",
    "value": 330,
    "spoken": "three three zero"
  },
  "wind_gust": null,
  "wind_speed": {
    "repr": "04",
    "value": 4,
    "spoken": "four"
  },
  "wx_codes": [],
  "raw": "KAWO 151456Z AUTO 33004KT 10SM CLR 20/16 A3000 RMK AO2 SLP163 T02000156 53009",
  "sanitized": "KAWO 151456Z 33004KT 10SM 20/16 A3000 RMK AO2 SLP163 T02000156 53009",
  "station": "KAWO",
  "time": {
    "repr": "151456Z",
    "dt": "2023-08-15T14:56:00Z"
  },
  "remarks": "RMK AO2 SLP163 T02000156 53009",
  "dewpoint": {
    "repr": "16",
    "value": 16,
    "spoken": "one six"
  },
  "relative_humidity": 0.7578318135610579,
  "remarks_info": {
    "maximum_temperature_6": null,
    "minimum_temperature_6": null,
    "pressure_tendency": {
      "repr": "53009",
      "tendency": "Decreasing or steady, then increasing",
      "change": 0.9
    },
    "precip_36_hours": null,
    "precip_24_hours": null,
    "sunshine_minutes": null,
    "codes": [
      {
        "repr": "AO2",
        "value": "Automated with precipitation sensor"
      }
    ],
    "dewpoint_decimal": {
      "repr": "0156",
      "value": 15.6,
      "spoken": "one five point six"
    },
    "maximum_temperature_24": null,
    "minimum_temperature_24": null,
    "precip_hourly": null,
    "sea_level_pressure": {
      "repr": "SLP163",
      "value": 1016.3,
      "spoken": "one zero one six point three"
    },
    "snow_depth": null,
    "temperature_decimal": {
      "repr": "0200",
      "value": 20,
      "spoken": "two zero point zero"
    }
  },
  "runway_visibility": [],
  "temperature": {
    "repr": "20",
    "value": 20,
    "spoken": "two zero"
  },
  "wind_variable_direction": [],
  "density_altitude": 696,
  "pressure_altitude": 62,
  "units": {
    "accumulation": "in",
    "altimeter": "inHg",
    "altitude": "ft",
    "temperature": "C",
    "visibility": "sm",
    "wind_speed": "kt"
  }
}
