{
  "altimeter": {
    "repr": "A2962",
    "spoken": "two nine point six two",
    "value": 29.62
  },
  "clouds": [
    {
      "altitude": 44,
      "modifier": null,
      "repr": "OVC044",
      "type": "OVC"
    }
  ],
  "density_altitude": -52,
  "dewpoint": {
    "repr": "08",
    "spoken": "eight",
    "value": 8
  },
  "flight_rules": "VFR",
  "meta": {
    "stations_updated": "2024-10-29",
    "timestamp": "2024-11-11T07:41:18.212922Z"
  },
  "other": [],
  "pressure_altitude": 442,
  "raw": "KAWO 110656Z AUTO 18003KT 10SM RA OVC044 11/08 A2962 RMK AO2 SLP037 T01060078 401440083 PNO $",
  "relative_humidity": 0.828062043990444,
  "remarks": "RMK AO2 SLP037 T01060078 401440083 PNO $",
  "remarks_info": {
    "codes": [
      {
        "repr": "$",
        "value": "ASOS requires maintenance"
      },
      {
        "repr": "AO2",
        "value": "Automated with precipitation sensor"
      },
      {
        "repr": "PNO",
        "value": "Precipitation amount not available"
      }
    ],
    "dewpoint_decimal": {
      "repr": "0078",
      "spoken": "seven point eight",
      "value": 7.8
    },
    "maximum_temperature_24": {
      "repr": "0144",
      "spoken": "one four point four",
      "value": 14.4
    },
    "maximum_temperature_6": null,
    "minimum_temperature_24": {
      "repr": "0083",
      "spoken": "eight point three",
      "value": 8.3
    },
    "minimum_temperature_6": null,
    "precip_24_hours": null,
    "precip_36_hours": null,
    "precip_hourly": null,
    "pressure_tendency": null,
    "sea_level_pressure": {
      "repr": "SLP037",
      "spoken": "one zero zero three point seven",
      "value": 1003.7
    },
    "snow_depth": null,
    "sunshine_minutes": null,
    "temperature_decimal": {
      "repr": "0106",
      "spoken": "one zero point six",
      "value": 10.6
    }
  },
  "runway_visibility": [],
  "sanitized": "KAWO 110656Z 18003KT 10SM RA OVC044 11/08 A2962 RMK AO2 SLP037 T01060078 401440083 PNO $",
  "station": "KAWO",
  "temperature": {
    "repr": "11",
    "spoken": "one one",
    "value": 11
  },
  "time": {
    "dt": "2024-11-11T06:56:00Z",
    "repr": "110656Z"
  },
  "units": {
    "accumulation": "in",
    "altimeter": "inHg",
    "altitude": "ft",
    "temperature": "C",
    "visibility": "sm",
    "wind_speed": "kt"
  },
  "visibility": {
    "repr": "10",
    "spoken": "one zero",
    "value": 10
  },
  "wind_direction": {
    "repr": "180",
    "spoken": "one eight zero",
    "value": 180
  },
  "wind_gust": null,
  "wind_speed": {
    "repr": "03",
    "spoken": "three",
    "value": 3
  },
  "wind_variable_direction": [],
  "wx_codes": [
    {
      "repr": "RA",
      "value": "Rain"
    }
  ]
}
