{
  "meta": {
    "timestamp": "2022-10-31T14:03:50.172038Z",
    "stations_updated": "2022-09-05"
  },
  "altimeter": {
    "repr": "A2978",
    "value": 29.78,
    "spoken": "two nine point seven eight"
  },
  "clouds": [
    {
      "repr": "OVC010",
      "type": "OVC",
      "altitude": 10,
      "modifier": null
    }
  ],
  "flight_rules": "MVFR",
  "other": [],
  "visibility": {
    "repr": "10",
    "value": 10,
    "spoken": "one zero"
  },
  "wind_direction": {
    "repr": "110",
    "value": 110,
    "spoken": "one one zero"
  },
  "wind_gust": null,
  "wind_speed": {
    "repr": "04",
    "value": 4,
    "spoken": "four"
  },
  "wx_codes": [
    {
      "repr": "-RA",
      "value": "Light Rain"
    }
  ],
  "raw": "KAWO 311356Z AUTO 11004KT 10SM -RA OVC010 10/09 A2978 RMK AO2 CIG 008V013 SLP088 P0009 T01000094",
  "sanitized": "KAWO 311356Z 11004KT 10SM -RA OVC010 10/09 A2978 RMK AO2 CIG 008V013 SLP088 P0009 T01000094",
  "station": "KAWO",
  "time": {
    "repr": "311356Z",
    "dt": "2022-10-31T13:56:00Z"
  },
  "remarks": "RMK AO2 CIG 008V013 SLP088 P0009 T01000094",
  "dewpoint": {
    "repr": "09",
    "value": 9,
    "spoken": "nine"
  },
  "relative_humidity": 0.9605319898773285,
  "remarks_info": {
    "maximum_temperature_6": null,
    "minimum_temperature_6": null,
    "pressure_tendency": null,
    "precip_36_hours": null,
    "precip_24_hours": null,
    "sunshine_minutes": null,
    "codes": [
      {
        "repr": "AO2",
        "value": "Automated with precipitation sensor"
      }
    ],
    "dewpoint_decimal": {
      "repr": "0094",
      "value": 9.4,
      "spoken": "nine point four"
    },
    "maximum_temperature_24": null,
    "minimum_temperature_24": null,
    "precip_hourly": {
      "repr": "P0009",
      "value": 0.09,
      "spoken": "zero point zero nine"
    },
    "sea_level_pressure": {
      "repr": "SLP088",
      "value": 1008.8,
      "spoken": "one zero zero eight point eight"
    },
    "snow_depth": null,
    "temperature_decimal": {
      "repr": "0100",
      "value": 10,
      "spoken": "one zero point zero"
    }
  },
  "runway_visibility": [],
  "temperature": {
    "repr": "10",
    "value": 10,
    "spoken": "one zero"
  },
  "wind_variable_direction": [],
  "density_altitude": -284,
  "pressure_altitude": 282,
  "units": {
    "accumulation": "in",
    "altimeter": "inHg",
    "altitude": "ft",
    "temperature": "C",
    "visibility": "sm",
    "wind_speed": "kt"
  }
}
