{
  "altimeter": {
    "repr": "A3001",
    "spoken": "three zero point zero one",
    "value": 30.01
  },
  "clouds": [
    {
      "altitude": 2,
      "modifier": null,
      "repr": "VV002",
      "type": "VV"
    }
  ],
  "density_altitude": -850,
  "dewpoint": {
    "repr": "07",
    "spoken": "seven",
    "value": 7
  },
  "flight_rules": "LIFR",
  "meta": {
    "stations_updated": "2024-06-12",
    "timestamp": "2024-09-16T11:06:21.869861Z"
  },
  "other": [],
  "pressure_altitude": 52,
  "raw": "KAWO 161056Z AUTO 31003KT 1/2SM FG VV002 07/07 A3001 RMK AO2 SLP167 T00720072",
  "relative_humidity": 1,
  "remarks": "RMK AO2 SLP167 T00720072",
  "remarks_info": {
    "codes": [
      {
        "repr": "AO2",
        "value": "Automated with precipitation sensor"
      }
    ],
    "dewpoint_decimal": {
      "repr": "0072",
      "spoken": "seven point two",
      "value": 7.2
    },
    "maximum_temperature_24": null,
    "maximum_temperature_6": null,
    "minimum_temperature_24": null,
    "minimum_temperature_6": null,
    "precip_24_hours": null,
    "precip_36_hours": null,
    "precip_hourly": null,
    "pressure_tendency": null,
    "sea_level_pressure": {
      "repr": "SLP167",
      "spoken": "one zero one six point seven",
      "value": 1016.7
    },
    "snow_depth": null,
    "sunshine_minutes": null,
    "temperature_decimal": {
      "repr": "0072",
      "spoken": "seven point two",
      "value": 7.2
    }
  },
  "runway_visibility": [],
  "sanitized": "KAWO 161056Z 31003KT 1/2SM FG VV002 07/07 A3001 RMK AO2 SLP167 T00720072",
  "station": "KAWO",
  "temperature": {
    "repr": "07",
    "spoken": "seven",
    "value": 7
  },
  "time": {
    "dt": "2024-09-16T10:56:00Z",
    "repr": "161056Z"
  },
  "units": {
    "accumulation": "in",
    "altimeter": "inHg",
    "altitude": "ft",
    "temperature": "C",
    "visibility": "sm",
    "wind_speed": "kt"
  },
  "visibility": {
    "denominator": 2,
    "normalized": "1/2",
    "numerator": 1,
    "repr": "1/2",
    "spoken": "one half",
    "value": 0.5
  },
  "wind_direction": {
    "repr": "310",
    "spoken": "three one zero",
    "value": 310
  },
  "wind_gust": null,
  "wind_speed": {
    "repr": "03",
    "spoken": "three",
    "value": 3
  },
  "wind_variable_direction": [],
  "wx_codes": [
    {
      "repr": "FG",
      "value": "Fog"
    }
  ]
}
