{
  "altimeter": {
    "repr": "A3033",
    "spoken": "three zero point three three",
    "value": 30.33
  },
  "clouds": [],
  "density_altitude": -2898,
  "dewpoint": {
    "repr": "M11",
    "spoken": "minus one one",
    "value": -11
  },
  "flight_rules": "VFR",
  "meta": {
    "cache-timestamp": "2024-01-15T03:06:04.729000Z",
    "stations_updated": "2023-10-28",
    "timestamp": "2024-01-15T03:06:25.548072Z"
  },
  "other": [],
  "pressure_altitude": -268,
  "raw": "KAWO 150256Z AUTO 00000KT 10SM CLR M07/M11 A3033 RMK AO2 SLP279 T10721111 53020 FZRANO",
  "relative_humidity": 0.7367087439512394,
  "remarks": "RMK AO2 SLP279 T10721111 53020 FZRANO",
  "remarks_info": {
    "codes": [
      {
        "repr": "AO2",
        "value": "Automated with precipitation sensor"
      },
      {
        "repr": "FZRANO",
        "value": "Freezing rain information not available"
      }
    ],
    "dewpoint_decimal": {
      "repr": "1111",
      "spoken": "minus one one point one",
      "value": -11.1
    },
    "maximum_temperature_24": null,
    "maximum_temperature_6": null,
    "minimum_temperature_24": null,
    "minimum_temperature_6": null,
    "precip_24_hours": null,
    "precip_36_hours": null,
    "precip_hourly": null,
    "pressure_tendency": {
      "change": 2,
      "repr": "53020",
      "tendency": "Decreasing or steady, then increasing"
    },
    "sea_level_pressure": {
      "repr": "SLP279",
      "spoken": "one zero two seven point nine",
      "value": 1027.9
    },
    "snow_depth": null,
    "sunshine_minutes": null,
    "temperature_decimal": {
      "repr": "1072",
      "spoken": "minus seven point two",
      "value": -7.2
    }
  },
  "runway_visibility": [],
  "sanitized": "KAWO 150256Z 00000KT 10SM M07/M11 A3033 RMK AO2 SLP279 T10721111 53020 FZRANO",
  "station": "KAWO",
  "temperature": {
    "repr": "M07",
    "spoken": "minus seven",
    "value": -7
  },
  "time": {
    "dt": "2024-01-15T02:56:00Z",
    "repr": "150256Z"
  },
  "units": {
    "accumulation": "in",
    "altimeter": "inHg",
    "altitude": "ft",
    "temperature": "C",
    "visibility": "sm",
    "wind_speed": "kt"
  },
  "visibility": {
    "repr": "10",
    "spoken": "one zero",
    "value": 10
  },
  "wind_direction": {
    "repr": "000",
    "spoken": "zero zero zero",
    "value": 0
  },
  "wind_gust": null,
  "wind_speed": {
    "repr": "00",
    "spoken": "zero",
    "value": 0
  },
  "wind_variable_direction": [],
  "wx_codes": []
}
