{
  "meta": {
    "timestamp": "2023-07-31T01:49:58.581460Z",
    "stations_updated": "2023-06-06"
  },
  "altimeter": {
    "repr": "A3014",
    "value": 30.14,
    "spoken": "three zero point one four"
  },
  "clouds": [],
  "flight_rules": "VFR",
  "other": [],
  "visibility": {
    "repr": "10",
    "value": 10,
    "spoken": "one zero"
  },
  "wind_direction": {
    "repr": "290",
    "value": 290,
    "spoken": "two nine zero"
  },
  "wind_gust": null,
  "wind_speed": {
    "repr": "08",
    "value": 8,
    "spoken": "eight"
  },
  "wx_codes": [],
  "raw": "KAWO 310056Z AUTO 29008KT 10SM CLR 22/10 A3014 RMK AO2 SLP209 T02220100",
  "sanitized": "KAWO 310056Z 29008KT 10SM 22/10 A3014 RMK AO2 SLP209 T02220100",
  "station": "KAWO",
  "time": {
    "repr": "310056Z",
    "dt": "2023-07-31T00:56:00Z"
  },
  "remarks": "RMK AO2 SLP209 T02220100",
  "dewpoint": {
    "repr": "10",
    "value": 10,
    "spoken": "one zero"
  },
  "relative_humidity": 0.458709597142034,
  "remarks_info": {
    "maximum_temperature_6": null,
    "minimum_temperature_6": null,
    "pressure_tendency": null,
    "precip_36_hours": null,
    "precip_24_hours": null,
    "sunshine_minutes": null,
    "codes": [
      {
        "repr": "AO2",
        "value": "Automated with precipitation sensor"
      }
    ],
    "dewpoint_decimal": {
      "repr": "0100",
      "value": 10,
      "spoken": "one zero point zero"
    },
    "maximum_temperature_24": null,
    "minimum_temperature_24": null,
    "precip_hourly": null,
    "sea_level_pressure": {
      "repr": "SLP209",
      "value": 1020.9,
      "spoken": "one zero two zero point nine"
    },
    "snow_depth": null,
    "temperature_decimal": {
      "repr": "0222",
      "value": 22.2,
      "spoken": "two two point two"
    }
  },
  "runway_visibility": [],
  "temperature": {
    "repr": "22",
    "value": 22,
    "spoken": "two two"
  },
  "wind_variable_direction": [],
  "density_altitude": 820,
  "pressure_altitude": -78,
  "units": {
    "accumulation": "in",
    "altimeter": "inHg",
    "altitude": "ft",
    "temperature": "C",
    "visibility": "sm",
    "wind_speed": "kt"
  }
}
