{
  "altimeter": {
    "repr": "A3041",
    "spoken": "three zero point four one",
    "value": 30.41
  },
  "clouds": [],
  "density_altitude": -3386,
  "dewpoint": {
    "repr": "M12",
    "spoken": "minus one two",
    "value": -12
  },
  "flight_rules": "VFR",
  "meta": {
    "stations_updated": "2023-10-28",
    "timestamp": "2024-01-15T13:27:24.534598Z"
  },
  "other": [],
  "pressure_altitude": -348,
  "raw": "KAWO 151256Z AUTO 35003KT 10SM CLR M11/M12 A3041 RMK AO2 SLP304 T11061122 FZRANO",
  "relative_humidity": 0.8800346702754644,
  "remarks": "RMK AO2 SLP304 T11061122 FZRANO",
  "remarks_info": {
    "codes": [
      {
        "repr": "AO2",
        "value": "Automated with precipitation sensor"
      },
      {
        "repr": "FZRANO",
        "value": "Freezing rain information not available"
      }
    ],
    "dewpoint_decimal": {
      "repr": "1122",
      "spoken": "minus one two point two",
      "value": -12.2
    },
    "maximum_temperature_24": null,
    "maximum_temperature_6": null,
    "minimum_temperature_24": null,
    "minimum_temperature_6": null,
    "precip_24_hours": null,
    "precip_36_hours": null,
    "precip_hourly": null,
    "pressure_tendency": null,
    "sea_level_pressure": {
      "repr": "SLP304",
      "spoken": "one zero three zero point four",
      "value": 1030.4
    },
    "snow_depth": null,
    "sunshine_minutes": null,
    "temperature_decimal": {
      "repr": "1106",
      "spoken": "minus one zero point six",
      "value": -10.6
    }
  },
  "runway_visibility": [],
  "sanitized": "KAWO 151256Z 35003KT 10SM M11/M12 A3041 RMK AO2 SLP304 T11061122 FZRANO",
  "station": "KAWO",
  "temperature": {
    "repr": "M11",
    "spoken": "minus one one",
    "value": -11
  },
  "time": {
    "dt": "2024-01-15T12:56:00Z",
    "repr": "151256Z"
  },
  "units": {
    "accumulation": "in",
    "altimeter": "inHg",
    "altitude": "ft",
    "temperature": "C",
    "visibility": "sm",
    "wind_speed": "kt"
  },
  "visibility": {
    "repr": "10",
    "spoken": "one zero",
    "value": 10
  },
  "wind_direction": {
    "repr": "350",
    "spoken": "three five zero",
    "value": 350
  },
  "wind_gust": null,
  "wind_speed": {
    "repr": "03",
    "spoken": "three",
    "value": 3
  },
  "wind_variable_direction": [],
  "wx_codes": []
}
