{
  "meta": {
    "timestamp": "2022-12-28T00:26:41.834902Z",
    "stations_updated": "2022-09-05"
  },
  "altimeter": {
    "repr": "A2910",
    "value": 29.1,
    "spoken": "two nine point one zero"
  },
  "clouds": [
    {
      "repr": "OVC055",
      "type": "OVC",
      "altitude": 55,
      "modifier": null
    }
  ],
  "flight_rules": "VFR",
  "other": [],
  "visibility": {
    "repr": "10",
    "value": 10,
    "spoken": "one zero"
  },
  "wind_direction": {
    "repr": "160",
    "value": 160,
    "spoken": "one six zero"
  },
  "wind_gust": null,
  "wind_speed": {
    "repr": "15",
    "value": 15,
    "spoken": "one five"
  },
  "wx_codes": [
    {
      "repr": "-RA",
      "value": "Light Rain"
    }
  ],
  "raw": "KAWO 272356Z AUTO 16015KT 10SM -RA OVC055 08/07 A2910 RMK AO2 SLP858 P0006 60021 T00830067 10111 20083 53034",
  "sanitized": "KAWO 272356Z 16015KT 10SM -RA OVC055 08/07 A2910 RMK AO2 SLP858 P0006 60021 T00830067 10111 20083 53034",
  "station": "KAWO",
  "time": {
    "repr": "272356Z",
    "dt": "2022-12-27T23:56:00Z"
  },
  "remarks": "RMK AO2 SLP858 P0006 60021 T00830067 10111 20083 53034",
  "dewpoint": {
    "repr": "07",
    "value": 7,
    "spoken": "seven"
  },
  "relative_humidity": 0.8964857337002037,
  "remarks_info": {
    "maximum_temperature_6": {
      "repr": "10111",
      "value": 11.1,
      "spoken": "one one point one"
    },
    "minimum_temperature_6": {
      "repr": "20083",
      "value": 8.3,
      "spoken": "eight point three"
    },
    "pressure_tendency": {
      "repr": "53034",
      "tendency": "Decreasing or steady, then increasing",
      "change": 3.4
    },
    "precip_36_hours": {
      "repr": "60021",
      "value": 0.21,
      "spoken": "zero point two one"
    },
    "precip_24_hours": null,
    "sunshine_minutes": null,
    "codes": [
      {
        "repr": "AO2",
        "value": "Automated with precipitation sensor"
      }
    ],
    "dewpoint_decimal": {
      "repr": "0067",
      "value": 6.7,
      "spoken": "six point seven"
    },
    "maximum_temperature_24": null,
    "minimum_temperature_24": null,
    "precip_hourly": {
      "repr": "P0006",
      "value": 0.06,
      "spoken": "zero point zero six"
    },
    "sea_level_pressure": {
      "repr": "SLP858",
      "value": 985.8,
      "spoken": "nine eight five point eight"
    },
    "snow_depth": null,
    "temperature_decimal": {
      "repr": "0083",
      "value": 8.3,
      "spoken": "eight point three"
    }
  },
  "runway_visibility": [],
  "temperature": {
    "repr": "08",
    "value": 8,
    "spoken": "eight"
  },
  "wind_variable_direction": [],
  "density_altitude": 192,
  "pressure_altitude": 962,
  "units": {
    "accumulation": "in",
    "altimeter": "inHg",
    "altitude": "ft",
    "temperature": "C",
    "visibility": "sm",
    "wind_speed": "kt"
  }
}
