{
  "meta": {
    "timestamp": "2023-08-07T01:47:45.484758Z",
    "stations_updated": "2023-06-06"
  },
  "altimeter": {
    "repr": "A3017",
    "value": 30.17,
    "spoken": "three zero point one seven"
  },
  "clouds": [],
  "flight_rules": "VFR",
  "other": [],
  "visibility": {
    "repr": "10",
    "value": 10,
    "spoken": "one zero"
  },
  "wind_direction": {
    "repr": "310",
    "value": 310,
    "spoken": "three one zero"
  },
  "wind_gust": null,
  "wind_speed": {
    "repr": "12",
    "value": 12,
    "spoken": "one two"
  },
  "wx_codes": [],
  "raw": "KAWO 070056Z AUTO 31012KT 10SM 24/17 A3017 RMK AO2 SLP218 T02390167",
  "sanitized": "KAWO 070056Z 31012KT 10SM 24/17 A3017 RMK AO2 SLP218 T02390167",
  "station": "KAWO",
  "time": {
    "repr": "070056Z",
    "dt": "2023-08-07T00:56:00Z"
  },
  "remarks": "RMK AO2 SLP218 T02390167",
  "dewpoint": {
    "repr": "17",
    "value": 17,
    "spoken": "one seven"
  },
  "relative_humidity": 0.6406671191250457,
  "remarks_info": {
    "maximum_temperature_6": null,
    "minimum_temperature_6": null,
    "pressure_tendency": null,
    "precip_36_hours": null,
    "precip_24_hours": null,
    "sunshine_minutes": null,
    "codes": [
      {
        "repr": "AO2",
        "value": "Automated with precipitation sensor"
      }
    ],
    "dewpoint_decimal": {
      "repr": "0167",
      "value": 16.7,
      "spoken": "one six point seven"
    },
    "maximum_temperature_24": null,
    "minimum_temperature_24": null,
    "precip_hourly": null,
    "sea_level_pressure": {
      "repr": "SLP218",
      "value": 1021.8,
      "spoken": "one zero two one point eight"
    },
    "snow_depth": null,
    "temperature_decimal": {
      "repr": "0239",
      "value": 23.9,
      "spoken": "two three point nine"
    }
  },
  "runway_visibility": [],
  "temperature": {
    "repr": "24",
    "value": 24,
    "spoken": "two four"
  },
  "wind_variable_direction": [],
  "density_altitude": 994,
  "pressure_altitude": -108,
  "units": {
    "accumulation": "in",
    "altimeter": "inHg",
    "altitude": "ft",
    "temperature": "C",
    "visibility": "sm",
    "wind_speed": "kt"
  }
}
