{
  "meta": {
    "timestamp": "2023-04-16T12:40:47.651287Z",
    "stations_updated": "2023-03-11",
    "cache-timestamp": "2023-04-16T12:40:04.597000Z"
  },
  "altimeter": {
    "repr": "A2996",
    "value": 29.96,
    "spoken": "two nine point nine six"
  },
  "clouds": [],
  "flight_rules": "VFR",
  "other": [],
  "visibility": {
    "repr": "10",
    "value": 10,
    "spoken": "one zero"
  },
  "wind_direction": {
    "repr": "120",
    "value": 120,
    "spoken": "one two zero"
  },
  "wind_gust": null,
  "wind_speed": {
    "repr": "03",
    "value": 3,
    "spoken": "three"
  },
  "wx_codes": [
    {
      "repr": "-RA",
      "value": "Light Rain"
    }
  ],
  "raw": "KAWO 161156Z AUTO 12003KT 10SM -RA 07/06 A2996 RMK AO2 RAB27 SLP151 P0000 60000 70001 T00670056 10089 20061 56010",
  "sanitized": "KAWO 161156Z 12003KT 10SM -RA 07/06 A2996 RMK AO2 RAB27 SLP151 P0000 60000 70001 T00670056 10089 20061 56010",
  "station": "KAWO",
  "time": {
    "repr": "161156Z",
    "dt": "2023-04-16T11:56:00Z"
  },
  "remarks": "RMK AO2 RAB27 SLP151 P0000 60000 70001 T00670056 10089 20061 56010",
  "dewpoint": {
    "repr": "06",
    "value": 6,
    "spoken": "six"
  },
  "relative_humidity": 0.9268723723701822,
  "remarks_info": {
    "maximum_temperature_6": {
      "repr": "10089",
      "value": 8.9,
      "spoken": "eight point nine"
    },
    "minimum_temperature_6": {
      "repr": "20061",
      "value": 6.1,
      "spoken": "six point one"
    },
    "pressure_tendency": {
      "repr": "56010",
      "tendency": "Decreasing, then steady",
      "change": 1
    },
    "precip_36_hours": {
      "repr": "60000",
      "value": 0,
      "spoken": "zero"
    },
    "precip_24_hours": {
      "repr": "70001",
      "value": 0.01,
      "spoken": "zero point zero one"
    },
    "sunshine_minutes": null,
    "codes": [
      {
        "repr": "AO2",
        "value": "Automated with precipitation sensor"
      },
      {
        "repr": "P0000",
        "value": "Trace amount of rain in the last hour"
      },
      {
        "repr": "RAB27",
        "value": "Rain began at :27"
      }
    ],
    "dewpoint_decimal": {
      "repr": "0056",
      "value": 5.6,
      "spoken": "five point six"
    },
    "maximum_temperature_24": null,
    "minimum_temperature_24": null,
    "precip_hourly": null,
    "sea_level_pressure": {
      "repr": "SLP151",
      "value": 1015.1,
      "spoken": "one zero one five point one"
    },
    "snow_depth": null,
    "temperature_decimal": {
      "repr": "0067",
      "value": 6.7,
      "spoken": "six point seven"
    }
  },
  "runway_visibility": [],
  "temperature": {
    "repr": "07",
    "value": 7,
    "spoken": "seven"
  },
  "wind_variable_direction": [],
  "density_altitude": -860,
  "pressure_altitude": 102,
  "units": {
    "accumulation": "in",
    "altimeter": "inHg",
    "altitude": "ft",
    "temperature": "C",
    "visibility": "sm",
    "wind_speed": "kt"
  }
}
