{
  "meta": {
    "timestamp": "2022-09-02T21:28:28.649522Z",
    "stations_updated": "2022-07-17"
  },
  "altimeter": {
    "repr": "A2984",
    "value": 29.84,
    "spoken": "two nine point eight four"
  },
  "clouds": [],
  "flight_rules": "VFR",
  "other": [],
  "visibility": {
    "repr": "10",
    "value": 10,
    "spoken": "one zero"
  },
  "wind_direction": {
    "repr": "320",
    "value": 320,
    "spoken": "three two zero"
  },
  "wind_gust": null,
  "wind_speed": {
    "repr": "07",
    "value": 7,
    "spoken": "seven"
  },
  "wx_codes": [],
  "raw": "KAWO 022056Z AUTO 32007KT 10SM CLR 25/15 A2984 RMK AO2 SLP107 T02500150 58014",
  "sanitized": "KAWO 022056Z 32007KT 10SM 25/15 A2984 RMK AO2 SLP107 T02500150 58014",
  "station": "KAWO",
  "time": {
    "repr": "022056Z",
    "dt": "2022-09-02T20:56:00Z"
  },
  "remarks": "RMK AO2 SLP107 T02500150 58014",
  "dewpoint": {
    "repr": "15",
    "value": 15,
    "spoken": "one five"
  },
  "relative_humidity": 0.537991291716395,
  "remarks_info": {
    "maximum_temperature_6": null,
    "minimum_temperature_6": null,
    "pressure_tendency": {
      "repr": "58014",
      "tendency": "Steady or increasing, then decreasing",
      "change": 1.4
    },
    "precip_36_hours": null,
    "precip_24_hours": null,
    "sunshine_minutes": null,
    "codes": [
      {
        "repr": "AO2",
        "value": "Automated with precipitation sensor"
      }
    ],
    "dewpoint_decimal": {
      "repr": "0150",
      "value": 15,
      "spoken": "one five point zero"
    },
    "maximum_temperature_24": null,
    "minimum_temperature_24": null,
    "precip_hourly": null,
    "sea_level_pressure": {
      "repr": "SLP107",
      "value": 1010.7,
      "spoken": "one zero one zero point seven"
    },
    "snow_depth": null,
    "temperature_decimal": {
      "repr": "0250",
      "value": 25,
      "spoken": "two five point zero"
    }
  },
  "runway_visibility": [],
  "temperature": {
    "repr": "25",
    "value": 25,
    "spoken": "two five"
  },
  "wind_variable_direction": [],
  "density_altitude": 1456,
  "pressure_altitude": 222,
  "units": {
    "accumulation": "in",
    "altimeter": "inHg",
    "altitude": "ft",
    "temperature": "C",
    "visibility": "sm",
    "wind_speed": "kt"
  }
}
