{
  "meta": {
    "timestamp": "2022-07-30T18:34:42.191450Z",
    "stations_updated": "2022-07-17"
  },
  "altimeter": {
    "repr": "A2992",
    "value": 29.92,
    "spoken": "two nine point nine two"
  },
  "clouds": [],
  "flight_rules": "VFR",
  "other": [],
  "visibility": {
    "repr": "10",
    "value": 10,
    "spoken": "one zero"
  },
  "wind_direction": {
    "repr": "VRB",
    "value": null,
    "spoken": "variable"
  },
  "wind_gust": null,
  "wind_speed": {
    "repr": "03",
    "value": 3,
    "spoken": "three"
  },
  "wx_codes": [],
  "raw": "KAWO 301756Z AUTO VRB03KT 10SM CLR 27/18 A2992 RMK AO2 SLP134 T02720183 10272 20150 58003",
  "sanitized": "KAWO 301756Z VRB03KT 10SM 27/18 A2992 RMK AO2 SLP134 T02720183 10272 20150 58003",
  "station": "KAWO",
  "time": {
    "repr": "301756Z",
    "dt": "2022-07-30T17:56:00Z"
  },
  "remarks": "RMK AO2 SLP134 T02720183 10272 20150 58003",
  "dewpoint": {
    "repr": "18",
    "value": 18,
    "spoken": "one eight"
  },
  "relative_humidity": 0.5825497854301382,
  "remarks_info": {
    "maximum_temperature_6": {
      "repr": "10272",
      "value": 27.2,
      "spoken": "two seven point two"
    },
    "minimum_temperature_6": {
      "repr": "20150",
      "value": 15,
      "spoken": "one five point zero"
    },
    "pressure_tendency": {
      "repr": "58003",
      "tendency": "Steady or increasing, then decreasing",
      "change": 0.3
    },
    "precip_36_hours": null,
    "precip_24_hours": null,
    "sunshine_minutes": null,
    "codes": [
      {
        "repr": "AO2",
        "value": "Automated with precipitation sensor"
      }
    ],
    "dewpoint_decimal": {
      "repr": "0183",
      "value": 18.3,
      "spoken": "one eight point three"
    },
    "maximum_temperature_24": null,
    "minimum_temperature_24": null,
    "precip_hourly": null,
    "sea_level_pressure": {
      "repr": "SLP134",
      "value": 1013.4,
      "spoken": "one zero one three point four"
    },
    "snow_depth": null,
    "temperature_decimal": {
      "repr": "0272",
      "value": 27.2,
      "spoken": "two seven point two"
    }
  },
  "runway_visibility": [],
  "temperature": {
    "repr": "27",
    "value": 27,
    "spoken": "two seven"
  },
  "wind_variable_direction": [],
  "density_altitude": 1640,
  "pressure_altitude": 142,
  "units": {
    "accumulation": "in",
    "altimeter": "inHg",
    "altitude": "ft",
    "temperature": "C",
    "visibility": "sm",
    "wind_speed": "kt"
  }
}
