{
  "meta": {
    "timestamp": "2022-12-14T13:14:42.356234Z",
    "stations_updated": "2022-09-05"
  },
  "altimeter": {
    "repr": "A3037",
    "value": 30.37,
    "spoken": "three zero point three seven"
  },
  "clouds": [
    {
      "repr": "BKN029",
      "type": "BKN",
      "altitude": 29,
      "modifier": null
    },
    {
      "repr": "OVC034",
      "type": "OVC",
      "altitude": 34,
      "modifier": null
    }
  ],
  "flight_rules": "MVFR",
  "other": [],
  "visibility": {
    "repr": "7",
    "value": 7,
    "spoken": "seven"
  },
  "wind_direction": {
    "repr": "050",
    "value": 50,
    "spoken": "zero five zero"
  },
  "wind_gust": null,
  "wind_speed": {
    "repr": "03",
    "value": 3,
    "spoken": "three"
  },
  "wx_codes": [],
  "raw": "KAWO 141304Z AUTO 05003KT 7SM BKN029 OVC034 01/00 A3037 RMK AO2 FZRANO",
  "sanitized": "KAWO 141304Z 05003KT 7SM BKN029 OVC034 01/00 A3037 RMK AO2 FZRANO",
  "station": "KAWO",
  "time": {
    "repr": "141304Z",
    "dt": "2022-12-14T13:04:00Z"
  },
  "remarks": "RMK AO2 FZRANO",
  "dewpoint": {
    "repr": "00",
    "value": 0,
    "spoken": "zero"
  },
  "relative_humidity": 0.9302797434565105,
  "remarks_info": {
    "maximum_temperature_6": null,
    "minimum_temperature_6": null,
    "pressure_tendency": null,
    "precip_36_hours": null,
    "precip_24_hours": null,
    "sunshine_minutes": null,
    "codes": [
      {
        "repr": "AO2",
        "value": "Automated with precipitation sensor"
      },
      {
        "repr": "FZRANO",
        "value": "Freezing rain information not available"
      }
    ],
    "dewpoint_decimal": null,
    "maximum_temperature_24": null,
    "minimum_temperature_24": null,
    "precip_hourly": null,
    "sea_level_pressure": null,
    "snow_depth": null,
    "temperature_decimal": null
  },
  "runway_visibility": [],
  "temperature": {
    "repr": "01",
    "value": 1,
    "spoken": "one"
  },
  "wind_variable_direction": [],
  "density_altitude": -1954,
  "pressure_altitude": -308,
  "units": {
    "accumulation": "in",
    "altimeter": "inHg",
    "altitude": "ft",
    "temperature": "C",
    "visibility": "sm",
    "wind_speed": "kt"
  }
}
