{
  "meta": {
    "timestamp": "2022-10-01T18:42:54.533868Z",
    "stations_updated": "2022-09-05"
  },
  "altimeter": {
    "repr": "A3007",
    "value": 30.07,
    "spoken": "three zero point zero seven"
  },
  "clouds": [],
  "flight_rules": "VFR",
  "other": [],
  "visibility": {
    "repr": "10",
    "value": 10,
    "spoken": "one zero"
  },
  "wind_direction": {
    "repr": "000",
    "value": 0,
    "spoken": "zero zero zero"
  },
  "wind_gust": null,
  "wind_speed": {
    "repr": "00",
    "value": 0,
    "spoken": "zero"
  },
  "wx_codes": [],
  "raw": "KAWO 011756Z AUTO 00000KT 10SM CLR 16/14 A3007 RMK AO2 SLP186 T01610139 10161 20072 58008",
  "sanitized": "KAWO 011756Z 00000KT 10SM 16/14 A3007 RMK AO2 SLP186 T01610139 10161 20072 58008",
  "station": "KAWO",
  "time": {
    "repr": "011756Z",
    "dt": "2022-10-01T17:56:00Z"
  },
  "remarks": "RMK AO2 SLP186 T01610139 10161 20072 58008",
  "dewpoint": {
    "repr": "14",
    "value": 14,
    "spoken": "one four"
  },
  "relative_humidity": 0.8679169411495125,
  "remarks_info": {
    "maximum_temperature_6": {
      "repr": "10161",
      "value": 16.1,
      "spoken": "one six point one"
    },
    "minimum_temperature_6": {
      "repr": "20072",
      "value": 7.2,
      "spoken": "seven point two"
    },
    "pressure_tendency": {
      "repr": "58008",
      "tendency": "Steady or increasing, then decreasing",
      "change": 0.8
    },
    "precip_36_hours": null,
    "precip_24_hours": null,
    "sunshine_minutes": null,
    "codes": [
      {
        "repr": "AO2",
        "value": "Automated with precipitation sensor"
      }
    ],
    "dewpoint_decimal": {
      "repr": "0139",
      "value": 13.9,
      "spoken": "one three point nine"
    },
    "maximum_temperature_24": null,
    "minimum_temperature_24": null,
    "precip_hourly": null,
    "sea_level_pressure": {
      "repr": "SLP186",
      "value": 1018.6,
      "spoken": "one zero one eight point six"
    },
    "snow_depth": null,
    "temperature_decimal": {
      "repr": "0161",
      "value": 16.1,
      "spoken": "one six point one"
    }
  },
  "runway_visibility": [],
  "temperature": {
    "repr": "16",
    "value": 16,
    "spoken": "one six"
  },
  "wind_variable_direction": [],
  "density_altitude": 158,
  "pressure_altitude": -8,
  "units": {
    "accumulation": "in",
    "altimeter": "inHg",
    "altitude": "ft",
    "temperature": "C",
    "visibility": "sm",
    "wind_speed": "kt"
  }
}
