{
  "altimeter": {
    "repr": "A3036",
    "spoken": "three zero point three six",
    "value": 30.36
  },
  "clouds": [
    {
      "altitude": 50,
      "modifier": null,
      "repr": "OVC050",
      "type": "OVC"
    }
  ],
  "density_altitude": -1596,
  "dewpoint": {
    "repr": "03",
    "spoken": "three",
    "value": 3
  },
  "flight_rules": "VFR",
  "meta": {
    "stations_updated": "2024-12-02",
    "timestamp": "2024-12-06T12:14:12.731316Z"
  },
  "other": [],
  "pressure_altitude": -298,
  "raw": "KAWO 061156Z AUTO 00000KT 10SM OVC050 04/03 A3036 RMK AO2 SLP287 T00390033 10056 20028 55000",
  "relative_humidity": 0.9586006873106991,
  "remarks": "RMK AO2 SLP287 T00390033 10056 20028 55000",
  "remarks_info": {
    "codes": [
      {
        "repr": "AO2",
        "value": "Automated with precipitation sensor"
      }
    ],
    "dewpoint_decimal": {
      "repr": "0033",
      "spoken": "three point three",
      "value": 3.3
    },
    "maximum_temperature_24": null,
    "maximum_temperature_6": {
      "repr": "10056",
      "spoken": "five point six",
      "value": 5.6
    },
    "minimum_temperature_24": null,
    "minimum_temperature_6": {
      "repr": "20028",
      "spoken": "two point eight",
      "value": 2.8
    },
    "precip_24_hours": null,
    "precip_36_hours": null,
    "precip_hourly": null,
    "pressure_tendency": {
      "change": 0,
      "repr": "55000",
      "tendency": "Decreasing, then increasing"
    },
    "sea_level_pressure": {
      "repr": "SLP287",
      "spoken": "one zero two eight point seven",
      "value": 1028.7
    },
    "snow_depth": null,
    "sunshine_minutes": null,
    "temperature_decimal": {
      "repr": "0039",
      "spoken": "three point nine",
      "value": 3.9
    }
  },
  "runway_visibility": [],
  "sanitized": "KAWO 061156Z 00000KT 10SM OVC050 04/03 A3036 RMK AO2 SLP287 T00390033 10056 20028 55000",
  "station": "KAWO",
  "temperature": {
    "repr": "04",
    "spoken": "four",
    "value": 4
  },
  "time": {
    "dt": "2024-12-06T11:56:00Z",
    "repr": "061156Z"
  },
  "units": {
    "accumulation": "in",
    "altimeter": "inHg",
    "altitude": "ft",
    "temperature": "C",
    "visibility": "sm",
    "wind_speed": "kt"
  },
  "visibility": {
    "repr": "10",
    "spoken": "one zero",
    "value": 10
  },
  "wind_direction": {
    "repr": "000",
    "spoken": "zero zero zero",
    "value": 0
  },
  "wind_gust": null,
  "wind_speed": {
    "repr": "00",
    "spoken": "zero",
    "value": 0
  },
  "wind_variable_direction": [],
  "wx_codes": []
}
