{
  "altimeter": {
    "repr": "A2996",
    "spoken": "two nine point nine six",
    "value": 29.96
  },
  "clouds": [
    {
      "altitude": 60,
      "modifier": null,
      "repr": "BKN060",
      "type": "BKN"
    },
    {
      "altitude": 85,
      "modifier": null,
      "repr": "OVC085",
      "type": "OVC"
    }
  ],
  "density_altitude": -200,
  "dewpoint": {
    "repr": "12",
    "spoken": "one two",
    "value": 12
  },
  "flight_rules": "VFR",
  "meta": {
    "stations_updated": "2024-06-12",
    "timestamp": "2024-09-15T06:09:07.736872Z"
  },
  "other": [],
  "pressure_altitude": 102,
  "raw": "KAWO 150556Z AUTO 19004KT 10SM BKN060 OVC085 12/12 A2996 RMK AO2 SLP149 60001 T01220117 10156 20122 51006",
  "relative_humidity": 0.9675694096890608,
  "remarks": "RMK AO2 SLP149 60001 T01220117 10156 20122 51006",
  "remarks_info": {
    "codes": [
      {
        "repr": "AO2",
        "value": "Automated with precipitation sensor"
      }
    ],
    "dewpoint_decimal": {
      "repr": "0117",
      "spoken": "one one point seven",
      "value": 11.7
    },
    "maximum_temperature_24": null,
    "maximum_temperature_6": {
      "repr": "10156",
      "spoken": "one five point six",
      "value": 15.6
    },
    "minimum_temperature_24": null,
    "minimum_temperature_6": {
      "repr": "20122",
      "spoken": "one two point two",
      "value": 12.2
    },
    "precip_24_hours": null,
    "precip_36_hours": {
      "repr": "60001",
      "spoken": "zero point zero one",
      "value": 0.01
    },
    "precip_hourly": null,
    "pressure_tendency": {
      "change": 0.6,
      "repr": "51006",
      "tendency": "Increasing, then steady"
    },
    "sea_level_pressure": {
      "repr": "SLP149",
      "spoken": "one zero one four point nine",
      "value": 1014.9
    },
    "snow_depth": null,
    "sunshine_minutes": null,
    "temperature_decimal": {
      "repr": "0122",
      "spoken": "one two point two",
      "value": 12.2
    }
  },
  "runway_visibility": [],
  "sanitized": "KAWO 150556Z 19004KT 10SM BKN060 OVC085 12/12 A2996 RMK AO2 SLP149 60001 T01220117 10156 20122 51006",
  "station": "KAWO",
  "temperature": {
    "repr": "12",
    "spoken": "one two",
    "value": 12
  },
  "time": {
    "dt": "2024-09-15T05:56:00Z",
    "repr": "150556Z"
  },
  "units": {
    "accumulation": "in",
    "altimeter": "inHg",
    "altitude": "ft",
    "temperature": "C",
    "visibility": "sm",
    "wind_speed": "kt"
  },
  "visibility": {
    "repr": "10",
    "spoken": "one zero",
    "value": 10
  },
  "wind_direction": {
    "repr": "190",
    "spoken": "one nine zero",
    "value": 190
  },
  "wind_gust": null,
  "wind_speed": {
    "repr": "04",
    "spoken": "four",
    "value": 4
  },
  "wind_variable_direction": [],
  "wx_codes": []
}
