{
  "altimeter": {
    "repr": "A2995",
    "spoken": "two nine point nine five",
    "value": 29.95
  },
  "clouds": [],
  "density_altitude": -2986,
  "dewpoint": {
    "repr": "M13",
    "spoken": "minus one three",
    "value": -13
  },
  "flight_rules": "VFR",
  "meta": {
    "cache-timestamp": "2024-01-14T06:28:03.783000Z",
    "stations_updated": "2023-10-28",
    "timestamp": "2024-01-14T06:28:38.897506Z"
  },
  "other": [],
  "pressure_altitude": 112,
  "raw": "KAWO 140556Z AUTO 00000KT 10SM CLR M11/M13 A2995 RMK AO2 SLP149 T11111128 11067 21117 51014 FZRANO",
  "relative_humidity": 0.8724699016309581,
  "remarks": "RMK AO2 SLP149 T11111128 11067 21117 51014 FZRANO",
  "remarks_info": {
    "codes": [
      {
        "repr": "AO2",
        "value": "Automated with precipitation sensor"
      },
      {
        "repr": "FZRANO",
        "value": "Freezing rain information not available"
      }
    ],
    "dewpoint_decimal": {
      "repr": "1128",
      "spoken": "minus one two point eight",
      "value": -12.8
    },
    "maximum_temperature_24": null,
    "maximum_temperature_6": {
      "repr": "11067",
      "spoken": "minus six point seven",
      "value": -6.7
    },
    "minimum_temperature_24": null,
    "minimum_temperature_6": {
      "repr": "21117",
      "spoken": "minus one one point seven",
      "value": -11.7
    },
    "precip_24_hours": null,
    "precip_36_hours": null,
    "precip_hourly": null,
    "pressure_tendency": {
      "change": 1.4,
      "repr": "51014",
      "tendency": "Increasing, then steady"
    },
    "sea_level_pressure": {
      "repr": "SLP149",
      "spoken": "one zero one four point nine",
      "value": 1014.9
    },
    "snow_depth": null,
    "sunshine_minutes": null,
    "temperature_decimal": {
      "repr": "1111",
      "spoken": "minus one one point one",
      "value": -11.1
    }
  },
  "runway_visibility": [],
  "sanitized": "KAWO 140556Z 00000KT 10SM M11/M13 A2995 RMK AO2 SLP149 T11111128 11067 21117 51014 FZRANO",
  "station": "KAWO",
  "temperature": {
    "repr": "M11",
    "spoken": "minus one one",
    "value": -11
  },
  "time": {
    "dt": "2024-01-14T05:56:00Z",
    "repr": "140556Z"
  },
  "units": {
    "accumulation": "in",
    "altimeter": "inHg",
    "altitude": "ft",
    "temperature": "C",
    "visibility": "sm",
    "wind_speed": "kt"
  },
  "visibility": {
    "repr": "10",
    "spoken": "one zero",
    "value": 10
  },
  "wind_direction": {
    "repr": "000",
    "spoken": "zero zero zero",
    "value": 0
  },
  "wind_gust": null,
  "wind_speed": {
    "repr": "00",
    "spoken": "zero",
    "value": 0
  },
  "wind_variable_direction": [],
  "wx_codes": []
}
