{
  "altimeter": {
    "repr": "A3056",
    "spoken": "three zero point five six",
    "value": 30.56
  },
  "clouds": [
    {
      "altitude": 2,
      "modifier": null,
      "repr": "FEW002",
      "type": "FEW"
    }
  ],
  "density_altitude": -2396,
  "dewpoint": {
    "repr": "M02",
    "spoken": "minus two",
    "value": -2
  },
  "flight_rules": "VFR",
  "meta": {
    "cache-timestamp": "2023-11-20T12:10:03.847000Z",
    "stations_updated": "2023-10-28",
    "timestamp": "2023-11-20T12:10:06.338710Z"
  },
  "other": [],
  "pressure_altitude": -498,
  "raw": "KAWO 201156Z AUTO 36003KT 6SM BR FEW002 M01/M02 A3056 RMK AO2 SLP353 70001 T10111022 10022 21011 58001 FZRANO",
  "relative_humidity": 0.9222704961872329,
  "remarks": "RMK AO2 SLP353 70001 T10111022 10022 21011 58001 FZRANO",
  "remarks_info": {
    "codes": [
      {
        "repr": "AO2",
        "value": "Automated with precipitation sensor"
      },
      {
        "repr": "FZRANO",
        "value": "Freezing rain information not available"
      }
    ],
    "dewpoint_decimal": {
      "repr": "1022",
      "spoken": "minus two point two",
      "value": -2.2
    },
    "maximum_temperature_24": null,
    "maximum_temperature_6": {
      "repr": "10022",
      "spoken": "two point two",
      "value": 2.2
    },
    "minimum_temperature_24": null,
    "minimum_temperature_6": {
      "repr": "21011",
      "spoken": "minus one point one",
      "value": -1.1
    },
    "precip_24_hours": {
      "repr": "70001",
      "spoken": "zero point zero one",
      "value": 0.01
    },
    "precip_36_hours": null,
    "precip_hourly": null,
    "pressure_tendency": {
      "change": 0.1,
      "repr": "58001",
      "tendency": "Steady or increasing, then decreasing"
    },
    "sea_level_pressure": {
      "repr": "SLP353",
      "spoken": "one zero three five point three",
      "value": 1035.3
    },
    "snow_depth": null,
    "sunshine_minutes": null,
    "temperature_decimal": {
      "repr": "1011",
      "spoken": "minus one point one",
      "value": -1.1
    }
  },
  "runway_visibility": [],
  "sanitized": "KAWO 201156Z 36003KT 6SM BR FEW002 M01/M02 A3056 RMK AO2 SLP353 70001 T10111022 10022 21011 58001 FZRANO",
  "station": "KAWO",
  "temperature": {
    "repr": "M01",
    "spoken": "minus one",
    "value": -1
  },
  "time": {
    "dt": "2023-11-20T11:56:00Z",
    "repr": "201156Z"
  },
  "units": {
    "accumulation": "in",
    "altimeter": "inHg",
    "altitude": "ft",
    "temperature": "C",
    "visibility": "sm",
    "wind_speed": "kt"
  },
  "visibility": {
    "repr": "6",
    "spoken": "six",
    "value": 6
  },
  "wind_direction": {
    "repr": "360",
    "spoken": "three six zero",
    "value": 360
  },
  "wind_gust": null,
  "wind_speed": {
    "repr": "03",
    "spoken": "three",
    "value": 3
  },
  "wind_variable_direction": [],
  "wx_codes": [
    {
      "repr": "BR",
      "value": "Mist"
    }
  ]
}
