{
  "altimeter": {
    "repr": "A3023",
    "spoken": "three zero point two three",
    "value": 30.23
  },
  "clouds": [
    {
      "altitude": 6,
      "modifier": null,
      "repr": "OVC006",
      "type": "OVC"
    }
  ],
  "density_altitude": -998,
  "dewpoint": {
    "repr": "07",
    "spoken": "seven",
    "value": 7
  },
  "flight_rules": "IFR",
  "meta": {
    "cache-timestamp": "2023-12-11T21:20:03.819000Z",
    "stations_updated": "2023-10-28",
    "timestamp": "2023-12-11T21:20:45.080416Z"
  },
  "other": [],
  "pressure_altitude": -168,
  "raw": "KAWO 112056Z AUTO 30007KT 10SM OVC006 08/07 A3023 RMK AO2 SLP240 T00780072 58007",
  "relative_humidity": 0.9598512259113078,
  "remarks": "RMK AO2 SLP240 T00780072 58007",
  "remarks_info": {
    "codes": [
      {
        "repr": "AO2",
        "value": "Automated with precipitation sensor"
      }
    ],
    "dewpoint_decimal": {
      "repr": "0072",
      "spoken": "seven point two",
      "value": 7.2
    },
    "maximum_temperature_24": null,
    "maximum_temperature_6": null,
    "minimum_temperature_24": null,
    "minimum_temperature_6": null,
    "precip_24_hours": null,
    "precip_36_hours": null,
    "precip_hourly": null,
    "pressure_tendency": {
      "change": 0.7,
      "repr": "58007",
      "tendency": "Steady or increasing, then decreasing"
    },
    "sea_level_pressure": {
      "repr": "SLP240",
      "spoken": "one zero two four point zero",
      "value": 1024
    },
    "snow_depth": null,
    "sunshine_minutes": null,
    "temperature_decimal": {
      "repr": "0078",
      "spoken": "seven point eight",
      "value": 7.8
    }
  },
  "runway_visibility": [],
  "sanitized": "KAWO 112056Z 30007KT 10SM OVC006 08/07 A3023 RMK AO2 SLP240 T00780072 58007",
  "station": "KAWO",
  "temperature": {
    "repr": "08",
    "spoken": "eight",
    "value": 8
  },
  "time": {
    "dt": "2023-12-11T20:56:00Z",
    "repr": "112056Z"
  },
  "units": {
    "accumulation": "in",
    "altimeter": "inHg",
    "altitude": "ft",
    "temperature": "C",
    "visibility": "sm",
    "wind_speed": "kt"
  },
  "visibility": {
    "repr": "10",
    "spoken": "one zero",
    "value": 10
  },
  "wind_direction": {
    "repr": "300",
    "spoken": "three zero zero",
    "value": 300
  },
  "wind_gust": null,
  "wind_speed": {
    "repr": "07",
    "spoken": "seven",
    "value": 7
  },
  "wind_variable_direction": [],
  "wx_codes": []
}
