{
  "altimeter": {
    "repr": "A2960",
    "spoken": "two nine point six zero",
    "value": 29.6
  },
  "clouds": [
    {
      "altitude": 26,
      "modifier": null,
      "repr": "FEW026",
      "type": "FEW"
    },
    {
      "altitude": 95,
      "modifier": null,
      "repr": "BKN095",
      "type": "BKN"
    },
    {
      "altitude": 120,
      "modifier": null,
      "repr": "OVC120",
      "type": "OVC"
    }
  ],
  "density_altitude": -104,
  "dewpoint": {
    "repr": "08",
    "spoken": "eight",
    "value": 8
  },
  "flight_rules": "VFR",
  "meta": {
    "stations_updated": "2024-10-29",
    "timestamp": "2024-11-14T03:44:38.692890Z"
  },
  "other": [],
  "pressure_altitude": 462,
  "raw": "KAWO 140256Z AUTO 14013KT 10SM FEW026 BKN095 OVC120 10/08 A2960 RMK AO2 RAE03 SLP029 6//// T01000078 51018 PNO $",
  "relative_humidity": 0.861922973004222,
  "remarks": "RMK AO2 RAE03 SLP029 6//// T01000078 51018 PNO $",
  "remarks_info": {
    "codes": [
      {
        "repr": "$",
        "value": "ASOS requires maintenance"
      },
      {
        "repr": "AO2",
        "value": "Automated with precipitation sensor"
      },
      {
        "repr": "PNO",
        "value": "Precipitation amount not available"
      },
      {
        "repr": "RAE03",
        "value": "Rain ended at :03"
      }
    ],
    "dewpoint_decimal": {
      "repr": "0078",
      "spoken": "seven point eight",
      "value": 7.8
    },
    "maximum_temperature_24": null,
    "maximum_temperature_6": null,
    "minimum_temperature_24": null,
    "minimum_temperature_6": null,
    "precip_24_hours": null,
    "precip_36_hours": null,
    "precip_hourly": null,
    "pressure_tendency": {
      "change": 1.8,
      "repr": "51018",
      "tendency": "Increasing, then steady"
    },
    "sea_level_pressure": {
      "repr": "SLP029",
      "spoken": "one zero zero two point nine",
      "value": 1002.9
    },
    "snow_depth": null,
    "sunshine_minutes": null,
    "temperature_decimal": {
      "repr": "0100",
      "spoken": "one zero point zero",
      "value": 10
    }
  },
  "runway_visibility": [],
  "sanitized": "KAWO 140256Z 14013KT 10SM FEW026 BKN095 OVC120 10/08 A2960 RMK AO2 RAE03 SLP029 6//// T01000078 51018 PNO $",
  "station": "KAWO",
  "temperature": {
    "repr": "10",
    "spoken": "one zero",
    "value": 10
  },
  "time": {
    "dt": "2024-11-14T02:56:00Z",
    "repr": "140256Z"
  },
  "units": {
    "accumulation": "in",
    "altimeter": "inHg",
    "altitude": "ft",
    "temperature": "C",
    "visibility": "sm",
    "wind_speed": "kt"
  },
  "visibility": {
    "repr": "10",
    "spoken": "one zero",
    "value": 10
  },
  "wind_direction": {
    "repr": "140",
    "spoken": "one four zero",
    "value": 140
  },
  "wind_gust": null,
  "wind_speed": {
    "repr": "13",
    "spoken": "one three",
    "value": 13
  },
  "wind_variable_direction": [],
  "wx_codes": []
}
