{
  "meta": {
    "timestamp": "2023-06-13T22:40:49.882014Z",
    "stations_updated": "2023-06-06",
    "cache-timestamp": "2023-06-13T22:40:03.446000Z"
  },
  "altimeter": {
    "repr": "A3001",
    "value": 30.01,
    "spoken": "three zero point zero one"
  },
  "clouds": [
    {
      "repr": "SCT015",
      "type": "SCT",
      "altitude": 15,
      "modifier": null
    },
    {
      "repr": "BKN043",
      "type": "BKN",
      "altitude": 43,
      "modifier": null
    },
    {
      "repr": "OVC075",
      "type": "OVC",
      "altitude": 75,
      "modifier": null
    }
  ],
  "flight_rules": "VFR",
  "other": [],
  "visibility": {
    "repr": "7",
    "value": 7,
    "spoken": "seven"
  },
  "wind_direction": {
    "repr": "150",
    "value": 150,
    "spoken": "one five zero"
  },
  "wind_gust": null,
  "wind_speed": {
    "repr": "06",
    "value": 6,
    "spoken": "six"
  },
  "wx_codes": [
    {
      "repr": "RA",
      "value": "Rain"
    }
  ],
  "raw": "KAWO 132156Z AUTO 15006KT 7SM RA SCT015 BKN043 OVC075 16/13 A3001 RMK AO2 RAE13B45 SLP166 P0000 T01560128",
  "sanitized": "KAWO 132156Z 15006KT 7SM RA SCT015 BKN043 OVC075 16/13 A3001 RMK AO2 RAE13B45 SLP166 P0000 T01560128",
  "station": "KAWO",
  "time": {
    "repr": "132156Z",
    "dt": "2023-06-13T21:56:00Z"
  },
  "remarks": "RMK AO2 RAE13B45 SLP166 P0000 T01560128",
  "dewpoint": {
    "repr": "13",
    "value": 13,
    "spoken": "one three"
  },
  "relative_humidity": 0.8340876297806936,
  "remarks_info": {
    "maximum_temperature_6": null,
    "minimum_temperature_6": null,
    "pressure_tendency": null,
    "precip_36_hours": null,
    "precip_24_hours": null,
    "sunshine_minutes": null,
    "codes": [
      {
        "repr": "AO2",
        "value": "Automated with precipitation sensor"
      },
      {
        "repr": "P0000",
        "value": "Trace amount of rain in the last hour"
      }
    ],
    "dewpoint_decimal": {
      "repr": "0128",
      "value": 12.8,
      "spoken": "one two point eight"
    },
    "maximum_temperature_24": null,
    "minimum_temperature_24": null,
    "precip_hourly": null,
    "sea_level_pressure": {
      "repr": "SLP166",
      "value": 1016.6,
      "spoken": "one zero one six point six"
    },
    "snow_depth": null,
    "temperature_decimal": {
      "repr": "0156",
      "value": 15.6,
      "spoken": "one five point six"
    }
  },
  "runway_visibility": [],
  "temperature": {
    "repr": "16",
    "value": 16,
    "spoken": "one six"
  },
  "wind_variable_direction": [],
  "density_altitude": 158,
  "pressure_altitude": 52,
  "units": {
    "accumulation": "in",
    "altimeter": "inHg",
    "altitude": "ft",
    "temperature": "C",
    "visibility": "sm",
    "wind_speed": "kt"
  }
}
