{
  "altimeter": {
    "repr": "A2981",
    "spoken": "two nine point eight one",
    "value": 29.81
  },
  "clouds": [
    {
      "altitude": 36,
      "modifier": null,
      "repr": "BKN036",
      "type": "BKN"
    },
    {
      "altitude": 47,
      "modifier": null,
      "repr": "OVC047",
      "type": "OVC"
    }
  ],
  "density_altitude": -518,
  "dewpoint": {
    "repr": "07",
    "spoken": "seven",
    "value": 7
  },
  "flight_rules": "VFR",
  "meta": {
    "stations_updated": "2024-10-29",
    "timestamp": "2024-10-30T23:41:10.545468Z"
  },
  "other": [],
  "pressure_altitude": 252,
  "raw": "KAWO 302256Z AUTO 16005KT 10SM -RA BKN036 OVC047 08/07 A2981 RMK AO2 SLP102 P0001 T00830067",
  "relative_humidity": 0.8964857337002037,
  "remarks": "RMK AO2 SLP102 P0001 T00830067",
  "remarks_info": {
    "codes": [
      {
        "repr": "AO2",
        "value": "Automated with precipitation sensor"
      }
    ],
    "dewpoint_decimal": {
      "repr": "0067",
      "spoken": "six point seven",
      "value": 6.7
    },
    "maximum_temperature_24": null,
    "maximum_temperature_6": null,
    "minimum_temperature_24": null,
    "minimum_temperature_6": null,
    "precip_24_hours": null,
    "precip_36_hours": null,
    "precip_hourly": {
      "repr": "P0001",
      "spoken": "zero point zero one",
      "value": 0.01
    },
    "pressure_tendency": null,
    "sea_level_pressure": {
      "repr": "SLP102",
      "spoken": "one zero one zero point two",
      "value": 1010.2
    },
    "snow_depth": null,
    "sunshine_minutes": null,
    "temperature_decimal": {
      "repr": "0083",
      "spoken": "eight point three",
      "value": 8.3
    }
  },
  "runway_visibility": [],
  "sanitized": "KAWO 302256Z 16005KT 10SM -RA BKN036 OVC047 08/07 A2981 RMK AO2 SLP102 P0001 T00830067",
  "station": "KAWO",
  "temperature": {
    "repr": "08",
    "spoken": "eight",
    "value": 8
  },
  "time": {
    "dt": "2024-10-30T22:56:00Z",
    "repr": "302256Z"
  },
  "units": {
    "accumulation": "in",
    "altimeter": "inHg",
    "altitude": "ft",
    "temperature": "C",
    "visibility": "sm",
    "wind_speed": "kt"
  },
  "visibility": {
    "repr": "10",
    "spoken": "one zero",
    "value": 10
  },
  "wind_direction": {
    "repr": "160",
    "spoken": "one six zero",
    "value": 160
  },
  "wind_gust": null,
  "wind_speed": {
    "repr": "05",
    "spoken": "five",
    "value": 5
  },
  "wind_variable_direction": [],
  "wx_codes": [
    {
      "repr": "-RA",
      "value": "Light Rain"
    }
  ]
}
