{
  "altimeter": {
    "repr": "A3036",
    "spoken": "three zero point three six",
    "value": 30.36
  },
  "clouds": [
    {
      "altitude": 60,
      "modifier": null,
      "repr": "OVC060",
      "type": "OVC"
    }
  ],
  "density_altitude": -1728,
  "dewpoint": {
    "repr": "03",
    "spoken": "three",
    "value": 3
  },
  "flight_rules": "LIFR",
  "meta": {
    "stations_updated": "2024-10-29",
    "timestamp": "2024-11-27T14:07:28.924713Z"
  },
  "other": [],
  "pressure_altitude": -298,
  "raw": "KAWO 271356Z AUTO 15003KT 3/4SM BR OVC060 03/03 A3036 RMK AO2 SLP288 T00280028",
  "relative_humidity": 1,
  "remarks": "RMK AO2 SLP288 T00280028",
  "remarks_info": {
    "codes": [
      {
        "repr": "AO2",
        "value": "Automated with precipitation sensor"
      }
    ],
    "dewpoint_decimal": {
      "repr": "0028",
      "spoken": "two point eight",
      "value": 2.8
    },
    "maximum_temperature_24": null,
    "maximum_temperature_6": null,
    "minimum_temperature_24": null,
    "minimum_temperature_6": null,
    "precip_24_hours": null,
    "precip_36_hours": null,
    "precip_hourly": null,
    "pressure_tendency": null,
    "sea_level_pressure": {
      "repr": "SLP288",
      "spoken": "one zero two eight point eight",
      "value": 1028.8
    },
    "snow_depth": null,
    "sunshine_minutes": null,
    "temperature_decimal": {
      "repr": "0028",
      "spoken": "two point eight",
      "value": 2.8
    }
  },
  "runway_visibility": [],
  "sanitized": "KAWO 271356Z 15003KT 3/4SM BR OVC060 03/03 A3036 RMK AO2 SLP288 T00280028",
  "station": "KAWO",
  "temperature": {
    "repr": "03",
    "spoken": "three",
    "value": 3
  },
  "time": {
    "dt": "2024-11-27T13:56:00Z",
    "repr": "271356Z"
  },
  "units": {
    "accumulation": "in",
    "altimeter": "inHg",
    "altitude": "ft",
    "temperature": "C",
    "visibility": "sm",
    "wind_speed": "kt"
  },
  "visibility": {
    "denominator": 4,
    "normalized": "3/4",
    "numerator": 3,
    "repr": "3/4",
    "spoken": "three quarters",
    "value": 0.75
  },
  "wind_direction": {
    "repr": "150",
    "spoken": "one five zero",
    "value": 150
  },
  "wind_gust": null,
  "wind_speed": {
    "repr": "03",
    "spoken": "three",
    "value": 3
  },
  "wind_variable_direction": [],
  "wx_codes": [
    {
      "repr": "BR",
      "value": "Mist"
    }
  ]
}
