{
  "meta": {
    "timestamp": "2022-12-19T21:02:16.780662Z",
    "stations_updated": "2022-09-05"
  },
  "altimeter": {
    "repr": "A3030",
    "value": 30.3,
    "spoken": "three zero point three zero"
  },
  "clouds": [
    {
      "repr": "OVC014",
      "type": "OVC",
      "altitude": 14,
      "modifier": null
    }
  ],
  "flight_rules": "MVFR",
  "other": [],
  "visibility": {
    "repr": "9",
    "value": 9,
    "spoken": "nine"
  },
  "wind_direction": {
    "repr": "320",
    "value": 320,
    "spoken": "three two zero"
  },
  "wind_gust": null,
  "wind_speed": {
    "repr": "04",
    "value": 4,
    "spoken": "four"
  },
  "wx_codes": [
    {
      "repr": "-SN",
      "value": "Light Snow"
    }
  ],
  "raw": "KAWO 192056Z AUTO 32004KT 9SM -SN OVC014 M02/M03 A3030 RMK AO2 UPB39E43SNE39B43 SLP266 P0000 60000 T10171033 50001 FZRANO",
  "sanitized": "KAWO 192056Z 32004KT 9SM -SN OVC014 M02/M03 A3030 RMK AO2 UPB39E43SNE39B43 SLP266 P0000 60000 T10171033 50001 FZRANO",
  "station": "KAWO",
  "time": {
    "repr": "192056Z",
    "dt": "2022-12-19T20:56:00Z"
  },
  "remarks": "RMK AO2 UPB39E43SNE39B43 SLP266 P0000 60000 T10171033 50001 FZRANO",
  "dewpoint": {
    "repr": "M03",
    "value": -3,
    "spoken": "minus three"
  },
  "relative_humidity": 0.8882256742551983,
  "remarks_info": {
    "maximum_temperature_6": null,
    "minimum_temperature_6": null,
    "pressure_tendency": {
      "repr": "50001",
      "tendency": "Increasing, then decreasing",
      "change": 0.1
    },
    "precip_36_hours": {
      "repr": "60000",
      "value": 0,
      "spoken": "zero"
    },
    "precip_24_hours": null,
    "sunshine_minutes": null,
    "codes": [
      {
        "repr": "AO2",
        "value": "Automated with precipitation sensor"
      },
      {
        "repr": "FZRANO",
        "value": "Freezing rain information not available"
      },
      {
        "repr": "P0000",
        "value": "Trace amount of rain in the last hour"
      }
    ],
    "dewpoint_decimal": {
      "repr": "1033",
      "value": -3.3,
      "spoken": "minus three point three"
    },
    "maximum_temperature_24": null,
    "minimum_temperature_24": null,
    "precip_hourly": null,
    "sea_level_pressure": {
      "repr": "SLP266",
      "value": 1026.6,
      "spoken": "one zero two six point six"
    },
    "snow_depth": null,
    "temperature_decimal": {
      "repr": "1017",
      "value": -1.7,
      "spoken": "minus one point seven"
    }
  },
  "runway_visibility": [],
  "temperature": {
    "repr": "M02",
    "value": -2,
    "spoken": "minus two"
  },
  "wind_variable_direction": [],
  "density_altitude": -2208,
  "pressure_altitude": -238,
  "units": {
    "accumulation": "in",
    "altimeter": "inHg",
    "altitude": "ft",
    "temperature": "C",
    "visibility": "sm",
    "wind_speed": "kt"
  }
}
