{
  "meta": {
    "timestamp": "2023-05-22T04:27:17.684212Z",
    "stations_updated": "2023-03-11",
    "cache-timestamp": "2023-05-22T04:26:38.050000Z"
  },
  "altimeter": {
    "repr": "A3019",
    "value": 30.19,
    "spoken": "three zero point one nine"
  },
  "clouds": [
    {
      "repr": "FEW026",
      "type": "FEW",
      "altitude": 26,
      "modifier": null
    },
    {
      "repr": "BKN035",
      "type": "BKN",
      "altitude": 35,
      "modifier": null
    },
    {
      "repr": "OVC050",
      "type": "OVC",
      "altitude": 50,
      "modifier": null
    }
  ],
  "flight_rules": "VFR",
  "other": [],
  "visibility": {
    "repr": "6",
    "value": 6,
    "spoken": "six"
  },
  "wind_direction": {
    "repr": "360",
    "value": 360,
    "spoken": "three six zero"
  },
  "wind_gust": null,
  "wind_speed": {
    "repr": "06",
    "value": 6,
    "spoken": "six"
  },
  "wx_codes": [
    {
      "repr": "HZ",
      "value": "Haze"
    }
  ],
  "raw": "KAWO 220356Z AUTO 36006KT 6SM HZ FEW026 BKN035 OVC050 12/08 A3019 RMK AO2 SLP229 T01170078",
  "sanitized": "KAWO 220356Z 36006KT 6SM HZ FEW026 BKN035 OVC050 12/08 A3019 RMK AO2 SLP229 T01170078",
  "station": "KAWO",
  "time": {
    "repr": "220356Z",
    "dt": "2023-05-22T03:56:00Z"
  },
  "remarks": "RMK AO2 SLP229 T01170078",
  "dewpoint": {
    "repr": "08",
    "value": 8,
    "spoken": "eight"
  },
  "relative_humidity": 0.7697775130100308,
  "remarks_info": {
    "maximum_temperature_6": null,
    "minimum_temperature_6": null,
    "pressure_tendency": null,
    "precip_36_hours": null,
    "precip_24_hours": null,
    "sunshine_minutes": null,
    "codes": [
      {
        "repr": "AO2",
        "value": "Automated with precipitation sensor"
      }
    ],
    "dewpoint_decimal": {
      "repr": "0078",
      "value": 7.8,
      "spoken": "seven point eight"
    },
    "maximum_temperature_24": null,
    "minimum_temperature_24": null,
    "precip_hourly": null,
    "sea_level_pressure": {
      "repr": "SLP229",
      "value": 1022.9,
      "spoken": "one zero two two point nine"
    },
    "snow_depth": null,
    "temperature_decimal": {
      "repr": "0117",
      "value": 11.7,
      "spoken": "one one point seven"
    }
  },
  "runway_visibility": [],
  "temperature": {
    "repr": "12",
    "value": 12,
    "spoken": "one two"
  },
  "wind_variable_direction": [],
  "density_altitude": -490,
  "pressure_altitude": -128,
  "units": {
    "accumulation": "in",
    "altimeter": "inHg",
    "altitude": "ft",
    "temperature": "C",
    "visibility": "sm",
    "wind_speed": "kt"
  }
}
