{
  "meta": {
    "timestamp": "2023-10-24T08:08:09.703810Z",
    "stations_updated": "2023-10-01",
    "cache-timestamp": "2023-10-24T08:08:03.858000Z"
  },
  "altimeter": {
    "repr": "A3006",
    "value": 30.06,
    "spoken": "three zero point zero six"
  },
  "clouds": [
    {
      "repr": "BKN039",
      "type": "BKN",
      "altitude": 39,
      "modifier": null
    },
    {
      "repr": "OVC050",
      "type": "OVC",
      "altitude": 50,
      "modifier": null
    }
  ],
  "flight_rules": "VFR",
  "other": [],
  "visibility": {
    "repr": "10",
    "value": 10,
    "spoken": "one zero"
  },
  "wind_direction": {
    "repr": "150",
    "value": 150,
    "spoken": "one five zero"
  },
  "wind_gust": null,
  "wind_speed": {
    "repr": "04",
    "value": 4,
    "spoken": "four"
  },
  "wx_codes": [],
  "raw": "KAWO 240756Z AUTO 15004KT 10SM BKN039 OVC050 07/05 A3006 RMK AO2 SLP183 T00720050 401330056",
  "sanitized": "KAWO 240756Z 15004KT 10SM BKN039 OVC050 07/05 A3006 RMK AO2 SLP183 T00720050 401330056",
  "station": "KAWO",
  "time": {
    "repr": "240756Z",
    "dt": "2023-10-24T07:56:00Z"
  },
  "remarks": "RMK AO2 SLP183 T00720050 401330056",
  "dewpoint": {
    "repr": "05",
    "value": 5,
    "spoken": "five"
  },
  "relative_humidity": 0.8590382146577359,
  "remarks_info": {
    "maximum_temperature_6": null,
    "minimum_temperature_6": null,
    "pressure_tendency": null,
    "precip_36_hours": null,
    "precip_24_hours": null,
    "sunshine_minutes": null,
    "codes": [
      {
        "repr": "AO2",
        "value": "Automated with precipitation sensor"
      }
    ],
    "dewpoint_decimal": {
      "repr": "0050",
      "value": 5,
      "spoken": "five point zero"
    },
    "maximum_temperature_24": {
      "repr": "0133",
      "value": 13.3,
      "spoken": "one three point three"
    },
    "minimum_temperature_24": {
      "repr": "0056",
      "value": 5.6,
      "spoken": "five point six"
    },
    "precip_hourly": null,
    "sea_level_pressure": {
      "repr": "SLP183",
      "value": 1018.3,
      "spoken": "one zero one eight point three"
    },
    "snow_depth": null,
    "temperature_decimal": {
      "repr": "0072",
      "value": 7.2,
      "spoken": "seven point two"
    }
  },
  "runway_visibility": [],
  "temperature": {
    "repr": "07",
    "value": 7,
    "spoken": "seven"
  },
  "wind_variable_direction": [],
  "density_altitude": -900,
  "pressure_altitude": 2,
  "units": {
    "accumulation": "in",
    "altimeter": "inHg",
    "altitude": "ft",
    "temperature": "C",
    "visibility": "sm",
    "wind_speed": "kt"
  }
}
