{
  "altimeter": {
    "repr": "A3010",
    "spoken": "three zero point one zero",
    "value": 30.1
  },
  "clouds": [
    {
      "altitude": 50,
      "modifier": null,
      "repr": "FEW050",
      "type": "FEW"
    }
  ],
  "density_altitude": 800,
  "dewpoint": {
    "repr": "12",
    "spoken": "one two",
    "value": 12
  },
  "flight_rules": "VFR",
  "meta": {
    "stations_updated": "2024-06-12",
    "timestamp": "2024-07-24T22:28:32.033948Z"
  },
  "other": [],
  "pressure_altitude": -38,
  "raw": "KAWO 242156Z AUTO 32014G19KT 10SM FEW050 22/12 A3010 RMK AO2 SLP197 T02170122",
  "relative_humidity": 0.5472910677463987,
  "remarks": "RMK AO2 SLP197 T02170122",
  "remarks_info": {
    "codes": [
      {
        "repr": "AO2",
        "value": "Automated with precipitation sensor"
      }
    ],
    "dewpoint_decimal": {
      "repr": "0122",
      "spoken": "one two point two",
      "value": 12.2
    },
    "maximum_temperature_24": null,
    "maximum_temperature_6": null,
    "minimum_temperature_24": null,
    "minimum_temperature_6": null,
    "precip_24_hours": null,
    "precip_36_hours": null,
    "precip_hourly": null,
    "pressure_tendency": null,
    "sea_level_pressure": {
      "repr": "SLP197",
      "spoken": "one zero one nine point seven",
      "value": 1019.7
    },
    "snow_depth": null,
    "sunshine_minutes": null,
    "temperature_decimal": {
      "repr": "0217",
      "spoken": "two one point seven",
      "value": 21.7
    }
  },
  "runway_visibility": [],
  "sanitized": "KAWO 242156Z 32014G19KT 10SM FEW050 22/12 A3010 RMK AO2 SLP197 T02170122",
  "station": "KAWO",
  "temperature": {
    "repr": "22",
    "spoken": "two two",
    "value": 22
  },
  "time": {
    "dt": "2024-07-24T21:56:00Z",
    "repr": "242156Z"
  },
  "units": {
    "accumulation": "in",
    "altimeter": "inHg",
    "altitude": "ft",
    "temperature": "C",
    "visibility": "sm",
    "wind_speed": "kt"
  },
  "visibility": {
    "repr": "10",
    "spoken": "one zero",
    "value": 10
  },
  "wind_direction": {
    "repr": "320",
    "spoken": "three two zero",
    "value": 320
  },
  "wind_gust": {
    "repr": "19",
    "spoken": "one nine",
    "value": 19
  },
  "wind_speed": {
    "repr": "14",
    "spoken": "one four",
    "value": 14
  },
  "wind_variable_direction": [],
  "wx_codes": []
}
