{
  "altimeter": {
    "repr": "A2951",
    "spoken": "two nine point five one",
    "value": 29.51
  },
  "clouds": [
    {
      "altitude": 25,
      "modifier": null,
      "repr": "SCT025",
      "type": "SCT"
    },
    {
      "altitude": 31,
      "modifier": null,
      "repr": "SCT031",
      "type": "SCT"
    },
    {
      "altitude": 55,
      "modifier": null,
      "repr": "OVC055",
      "type": "OVC"
    }
  ],
  "density_altitude": 118,
  "dewpoint": {
    "repr": "09",
    "spoken": "nine",
    "value": 9
  },
  "flight_rules": "VFR",
  "meta": {
    "stations_updated": "2024-10-29",
    "timestamp": "2024-11-11T12:50:51.616339Z"
  },
  "other": [],
  "pressure_altitude": 552,
  "raw": "KAWO 111156Z AUTO 16011KT 10SM -RA SCT025 SCT031 OVC055 11/09 A2951 RMK AO2 SLP999 6//// 7//// T01110094 10122 20094 55016",
  "relative_humidity": 0.8926151927981825,
  "remarks": "RMK AO2 SLP999 6//// 7//// T01110094 10122 20094 55016",
  "remarks_info": {
    "codes": [
      {
        "repr": "AO2",
        "value": "Automated with precipitation sensor"
      }
    ],
    "dewpoint_decimal": {
      "repr": "0094",
      "spoken": "nine point four",
      "value": 9.4
    },
    "maximum_temperature_24": null,
    "maximum_temperature_6": {
      "repr": "10122",
      "spoken": "one two point two",
      "value": 12.2
    },
    "minimum_temperature_24": null,
    "minimum_temperature_6": {
      "repr": "20094",
      "spoken": "nine point four",
      "value": 9.4
    },
    "precip_24_hours": null,
    "precip_36_hours": null,
    "precip_hourly": null,
    "pressure_tendency": {
      "change": 1.6,
      "repr": "55016",
      "tendency": "Decreasing, then increasing"
    },
    "sea_level_pressure": {
      "repr": "SLP999",
      "spoken": "nine nine nine point nine",
      "value": 999.9
    },
    "snow_depth": null,
    "sunshine_minutes": null,
    "temperature_decimal": {
      "repr": "0111",
      "spoken": "one one point one",
      "value": 11.1
    }
  },
  "runway_visibility": [],
  "sanitized": "KAWO 111156Z 16011KT 10SM -RA SCT025 SCT031 OVC055 11/09 A2951 RMK AO2 SLP999 6//// 7//// T01110094 10122 20094 55016",
  "station": "KAWO",
  "temperature": {
    "repr": "11",
    "spoken": "one one",
    "value": 11
  },
  "time": {
    "dt": "2024-11-11T11:56:00Z",
    "repr": "111156Z"
  },
  "units": {
    "accumulation": "in",
    "altimeter": "inHg",
    "altitude": "ft",
    "temperature": "C",
    "visibility": "sm",
    "wind_speed": "kt"
  },
  "visibility": {
    "repr": "10",
    "spoken": "one zero",
    "value": 10
  },
  "wind_direction": {
    "repr": "160",
    "spoken": "one six zero",
    "value": 160
  },
  "wind_gust": null,
  "wind_speed": {
    "repr": "11",
    "spoken": "one one",
    "value": 11
  },
  "wind_variable_direction": [],
  "wx_codes": [
    {
      "repr": "-RA",
      "value": "Light Rain"
    }
  ]
}
