{
  "meta": {
    "timestamp": "2022-08-30T00:39:11.594289Z",
    "stations_updated": "2022-07-17"
  },
  "altimeter": {
    "repr": "A2996",
    "value": 29.96,
    "spoken": "two nine point nine six"
  },
  "clouds": [],
  "flight_rules": "VFR",
  "other": [],
  "visibility": {
    "repr": "10",
    "value": 10,
    "spoken": "one zero"
  },
  "wind_direction": {
    "repr": "310",
    "value": 310,
    "spoken": "three one zero"
  },
  "wind_gust": null,
  "wind_speed": {
    "repr": "10",
    "value": 10,
    "spoken": "one zero"
  },
  "wx_codes": [],
  "raw": "KAWO 292356Z AUTO 31010KT 10SM CLR 28/13 A2996 RMK AO2 SLP149 T02830128 10283 20217 57015",
  "sanitized": "KAWO 292356Z 31010KT 10SM 28/13 A2996 RMK AO2 SLP149 T02830128 10283 20217 57015",
  "station": "KAWO",
  "time": {
    "repr": "292356Z",
    "dt": "2022-08-29T23:56:00Z"
  },
  "remarks": "RMK AO2 SLP149 T02830128 10283 20217 57015",
  "dewpoint": {
    "repr": "13",
    "value": 13,
    "spoken": "one three"
  },
  "relative_humidity": 0.383910240770597,
  "remarks_info": {
    "maximum_temperature_6": {
      "repr": "10283",
      "value": 28.3,
      "spoken": "two eight point three"
    },
    "minimum_temperature_6": {
      "repr": "20217",
      "value": 21.7,
      "spoken": "two one point seven"
    },
    "pressure_tendency": {
      "repr": "57015",
      "tendency": "Decreasing steadily or unsteadily",
      "change": 1.5
    },
    "precip_36_hours": null,
    "precip_24_hours": null,
    "sunshine_minutes": null,
    "codes": [
      {
        "repr": "AO2",
        "value": "Automated with precipitation sensor"
      }
    ],
    "dewpoint_decimal": {
      "repr": "0128",
      "value": 12.8,
      "spoken": "one two point eight"
    },
    "maximum_temperature_24": null,
    "minimum_temperature_24": null,
    "precip_hourly": null,
    "sea_level_pressure": {
      "repr": "SLP149",
      "value": 1014.9,
      "spoken": "one zero one four point nine"
    },
    "snow_depth": null,
    "temperature_decimal": {
      "repr": "0283",
      "value": 28.3,
      "spoken": "two eight point three"
    }
  },
  "runway_visibility": [],
  "temperature": {
    "repr": "28",
    "value": 28,
    "spoken": "two eight"
  },
  "wind_variable_direction": [],
  "density_altitude": 1732,
  "pressure_altitude": 102,
  "units": {
    "accumulation": "in",
    "altimeter": "inHg",
    "altitude": "ft",
    "temperature": "C",
    "visibility": "sm",
    "wind_speed": "kt"
  }
}
