{
  "altimeter": {
    "repr": "A2998",
    "spoken": "two nine point nine eight",
    "value": 29.98
  },
  "clouds": [
    {
      "altitude": 60,
      "modifier": null,
      "repr": "OVC060",
      "type": "OVC"
    }
  ],
  "density_altitude": -1684,
  "dewpoint": {
    "repr": "M01",
    "spoken": "minus one",
    "value": -1
  },
  "flight_rules": "VFR",
  "meta": {
    "cache-timestamp": "2024-02-14T13:02:02.952000Z",
    "stations_updated": "2024-01-01",
    "timestamp": "2024-02-14T13:02:36.856596Z"
  },
  "other": [],
  "pressure_altitude": 82,
  "raw": "KAWO 141156Z AUTO 00000KT 10SM OVC060 00/M01 A2998 RMK AO2 SLP158 T00001006 10022 21006 56014 FZRANO",
  "relative_humidity": 0.9572912555144957,
  "remarks": "RMK AO2 SLP158 T00001006 10022 21006 56014 FZRANO",
  "remarks_info": {
    "codes": [
      {
        "repr": "AO2",
        "value": "Automated with precipitation sensor"
      },
      {
        "repr": "FZRANO",
        "value": "Freezing rain information not available"
      }
    ],
    "dewpoint_decimal": {
      "repr": "1006",
      "spoken": "minus zero point six",
      "value": -0.6
    },
    "maximum_temperature_24": null,
    "maximum_temperature_6": {
      "repr": "10022",
      "spoken": "two point two",
      "value": 2.2
    },
    "minimum_temperature_24": null,
    "minimum_temperature_6": {
      "repr": "21006",
      "spoken": "minus zero point six",
      "value": -0.6
    },
    "precip_24_hours": null,
    "precip_36_hours": null,
    "precip_hourly": null,
    "pressure_tendency": {
      "change": 1.4,
      "repr": "56014",
      "tendency": "Decreasing, then steady"
    },
    "sea_level_pressure": {
      "repr": "SLP158",
      "spoken": "one zero one five point eight",
      "value": 1015.8
    },
    "snow_depth": null,
    "sunshine_minutes": null,
    "temperature_decimal": {
      "repr": "0000",
      "spoken": "zero",
      "value": 0
    }
  },
  "runway_visibility": [],
  "sanitized": "KAWO 141156Z 00000KT 10SM OVC060 00/M01 A2998 RMK AO2 SLP158 T00001006 10022 21006 56014 FZRANO",
  "station": "KAWO",
  "temperature": {
    "repr": "00",
    "spoken": "zero",
    "value": 0
  },
  "time": {
    "dt": "2024-02-14T11:56:00Z",
    "repr": "141156Z"
  },
  "units": {
    "accumulation": "in",
    "altimeter": "inHg",
    "altitude": "ft",
    "temperature": "C",
    "visibility": "sm",
    "wind_speed": "kt"
  },
  "visibility": {
    "repr": "10",
    "spoken": "one zero",
    "value": 10
  },
  "wind_direction": {
    "repr": "000",
    "spoken": "zero zero zero",
    "value": 0
  },
  "wind_gust": null,
  "wind_speed": {
    "repr": "00",
    "spoken": "zero",
    "value": 0
  },
  "wind_variable_direction": [],
  "wx_codes": []
}
