{
  "altimeter": {
    "repr": "A2990",
    "spoken": "two nine point nine zero",
    "value": 29.9
  },
  "clouds": [
    {
      "altitude": 9,
      "modifier": null,
      "repr": "FEW009",
      "type": "FEW"
    },
    {
      "altitude": 17,
      "modifier": null,
      "repr": "BKN017",
      "type": "BKN"
    },
    {
      "altitude": 24,
      "modifier": null,
      "repr": "OVC024",
      "type": "OVC"
    }
  ],
  "density_altitude": -608,
  "dewpoint": {
    "repr": "08",
    "spoken": "eight",
    "value": 8
  },
  "flight_rules": "IFR",
  "meta": {
    "stations_updated": "2024-10-29",
    "timestamp": "2024-11-04T19:01:19.253300Z"
  },
  "other": [],
  "pressure_altitude": 162,
  "raw": "KAWO 041856Z AUTO 20008KT 2 1/2SM RA BR FEW009 BKN017 OVC024 08/08 A2990 RMK AO2 PK WND 16027/1809 SLP131 T00830078",
  "relative_humidity": 0.9665731399975396,
  "remarks": "RMK AO2 PK WND 16027/1809 SLP131 T00830078",
  "remarks_info": {
    "codes": [
      {
        "repr": "AO2",
        "value": "Automated with precipitation sensor"
      }
    ],
    "dewpoint_decimal": {
      "repr": "0078",
      "spoken": "seven point eight",
      "value": 7.8
    },
    "maximum_temperature_24": null,
    "maximum_temperature_6": null,
    "minimum_temperature_24": null,
    "minimum_temperature_6": null,
    "precip_24_hours": null,
    "precip_36_hours": null,
    "precip_hourly": null,
    "pressure_tendency": null,
    "sea_level_pressure": {
      "repr": "SLP131",
      "spoken": "one zero one three point one",
      "value": 1013.1
    },
    "snow_depth": null,
    "sunshine_minutes": null,
    "temperature_decimal": {
      "repr": "0083",
      "spoken": "eight point three",
      "value": 8.3
    }
  },
  "runway_visibility": [],
  "sanitized": "KAWO 041856Z 20008KT 2 1/2SM RA BR FEW009 BKN017 OVC024 08/08 A2990 RMK AO2 PK WND 16027/1809 SLP131 T00830078",
  "station": "KAWO",
  "temperature": {
    "repr": "08",
    "spoken": "eight",
    "value": 8
  },
  "time": {
    "dt": "2024-11-04T18:56:00Z",
    "repr": "041856Z"
  },
  "units": {
    "accumulation": "in",
    "altimeter": "inHg",
    "altitude": "ft",
    "temperature": "C",
    "visibility": "sm",
    "wind_speed": "kt"
  },
  "visibility": {
    "denominator": 2,
    "normalized": "2 1/2",
    "numerator": 5,
    "repr": "5/2",
    "spoken": "two and one half",
    "value": 2.5
  },
  "wind_direction": {
    "repr": "200",
    "spoken": "two zero zero",
    "value": 200
  },
  "wind_gust": null,
  "wind_speed": {
    "repr": "08",
    "spoken": "eight",
    "value": 8
  },
  "wind_variable_direction": [],
  "wx_codes": [
    {
      "repr": "RA",
      "value": "Rain"
    },
    {
      "repr": "BR",
      "value": "Mist"
    }
  ]
}
