{
  "altimeter": {
    "repr": "A3020",
    "spoken": "three zero point two zero",
    "value": 30.2
  },
  "clouds": [
    {
      "altitude": 37,
      "modifier": null,
      "repr": "BKN037",
      "type": "BKN"
    },
    {
      "altitude": 48,
      "modifier": null,
      "repr": "BKN048",
      "type": "BKN"
    },
    {
      "altitude": 60,
      "modifier": null,
      "repr": "OVC060",
      "type": "OVC"
    }
  ],
  "density_altitude": -440,
  "dewpoint": {
    "repr": "05",
    "spoken": "five",
    "value": 5
  },
  "flight_rules": "VFR",
  "meta": {
    "cache-timestamp": "2024-04-07T22:40:05.218000Z",
    "stations_updated": "2024-01-01",
    "timestamp": "2024-04-07T22:40:35.195547Z"
  },
  "other": [],
  "pressure_altitude": -138,
  "raw": "KAWO 072156Z AUTO 13005KT 10SM BKN037 BKN048 OVC060 12/05 A3020 RMK AO2 SLP231 T01220050",
  "relative_humidity": 0.6141348708764632,
  "remarks": "RMK AO2 SLP231 T01220050",
  "remarks_info": {
    "codes": [
      {
        "repr": "AO2",
        "value": "Automated with precipitation sensor"
      }
    ],
    "dewpoint_decimal": {
      "repr": "0050",
      "spoken": "five point zero",
      "value": 5
    },
    "maximum_temperature_24": null,
    "maximum_temperature_6": null,
    "minimum_temperature_24": null,
    "minimum_temperature_6": null,
    "precip_24_hours": null,
    "precip_36_hours": null,
    "precip_hourly": null,
    "pressure_tendency": null,
    "sea_level_pressure": {
      "repr": "SLP231",
      "spoken": "one zero two three point one",
      "value": 1023.1
    },
    "snow_depth": null,
    "sunshine_minutes": null,
    "temperature_decimal": {
      "repr": "0122",
      "spoken": "one two point two",
      "value": 12.2
    }
  },
  "runway_visibility": [],
  "sanitized": "KAWO 072156Z 13005KT 10SM BKN037 BKN048 OVC060 12/05 A3020 RMK AO2 SLP231 T01220050",
  "station": "KAWO",
  "temperature": {
    "repr": "12",
    "spoken": "one two",
    "value": 12
  },
  "time": {
    "dt": "2024-04-07T21:56:00Z",
    "repr": "072156Z"
  },
  "units": {
    "accumulation": "in",
    "altimeter": "inHg",
    "altitude": "ft",
    "temperature": "C",
    "visibility": "sm",
    "wind_speed": "kt"
  },
  "visibility": {
    "repr": "10",
    "spoken": "one zero",
    "value": 10
  },
  "wind_direction": {
    "repr": "130",
    "spoken": "one three zero",
    "value": 130
  },
  "wind_gust": null,
  "wind_speed": {
    "repr": "05",
    "spoken": "five",
    "value": 5
  },
  "wind_variable_direction": [],
  "wx_codes": []
}
