{
  "meta": {
    "timestamp": "2023-02-27T04:44:26.213181Z",
    "stations_updated": "2023-01-30",
    "cache-timestamp": "2023-02-27T04:44:06.489000Z"
  },
  "altimeter": {
    "repr": "A2973",
    "value": 29.73,
    "spoken": "two nine point seven three"
  },
  "clouds": [
    {
      "repr": "FEW003",
      "type": "FEW",
      "altitude": 3,
      "modifier": null
    },
    {
      "repr": "BKN019",
      "type": "BKN",
      "altitude": 19,
      "modifier": null
    },
    {
      "repr": "OVC025",
      "type": "OVC",
      "altitude": 25,
      "modifier": null
    }
  ],
  "flight_rules": "MVFR",
  "other": [],
  "visibility": {
    "repr": "10",
    "value": 10,
    "spoken": "one zero"
  },
  "wind_direction": {
    "repr": "010",
    "value": 10,
    "spoken": "zero one zero"
  },
  "wind_gust": null,
  "wind_speed": {
    "repr": "05",
    "value": 5,
    "spoken": "five"
  },
  "wx_codes": [],
  "raw": "KAWO 270438Z AUTO 01005KT 10SM FEW003 BKN019 OVC025 01/M01 A2973 RMK AO2 RAE29 P0000 FZRANO",
  "sanitized": "KAWO 270438Z 01005KT 10SM FEW003 BKN019 OVC025 01/M01 A2973 RMK AO2 RAE29 P0000 FZRANO",
  "station": "KAWO",
  "time": {
    "repr": "270438Z",
    "dt": "2023-02-27T04:38:00Z"
  },
  "remarks": "RMK AO2 RAE29 P0000 FZRANO",
  "dewpoint": {
    "repr": "M01",
    "value": -1,
    "spoken": "minus one"
  },
  "relative_humidity": 0.8649047289729658,
  "remarks_info": {
    "maximum_temperature_6": null,
    "minimum_temperature_6": null,
    "pressure_tendency": null,
    "precip_36_hours": null,
    "precip_24_hours": null,
    "sunshine_minutes": null,
    "codes": [
      {
        "repr": "AO2",
        "value": "Automated with precipitation sensor"
      },
      {
        "repr": "FZRANO",
        "value": "Freezing rain information not available"
      },
      {
        "repr": "P0000",
        "value": "Trace amount of rain in the last hour"
      },
      {
        "repr": "RAE29",
        "value": "Rain ended at :29"
      }
    ],
    "dewpoint_decimal": null,
    "maximum_temperature_24": null,
    "minimum_temperature_24": null,
    "precip_hourly": null,
    "sea_level_pressure": null,
    "snow_depth": null,
    "temperature_decimal": null
  },
  "runway_visibility": [],
  "temperature": {
    "repr": "01",
    "value": 1,
    "spoken": "one"
  },
  "wind_variable_direction": [],
  "density_altitude": -1314,
  "pressure_altitude": 332,
  "units": {
    "accumulation": "in",
    "altimeter": "inHg",
    "altitude": "ft",
    "temperature": "C",
    "visibility": "sm",
    "wind_speed": "kt"
  }
}
