{
  "meta": {
    "timestamp": "2023-05-26T10:40:55.953813Z",
    "stations_updated": "2023-03-11",
    "cache-timestamp": "2023-05-26T10:40:05.942000Z"
  },
  "altimeter": {
    "repr": "A2990",
    "value": 29.9,
    "spoken": "two nine point nine zero"
  },
  "clouds": [],
  "flight_rules": "VFR",
  "other": [],
  "visibility": {
    "repr": "10",
    "value": 10,
    "spoken": "one zero"
  },
  "wind_direction": {
    "repr": "000",
    "value": 0,
    "spoken": "zero zero zero"
  },
  "wind_gust": null,
  "wind_speed": {
    "repr": "00",
    "value": 0,
    "spoken": "zero"
  },
  "wx_codes": [],
  "raw": "KBLI 260953Z AUTO 00000KT 10SM CLR 13/13 A2990 RMK AO2 SLP131 T01280128",
  "sanitized": "KBLI 260953Z 00000KT 10SM 13/13 A2990 RMK AO2 SLP131 T01280128",
  "station": "KBLI",
  "time": {
    "repr": "260953Z",
    "dt": "2023-05-26T09:53:00Z"
  },
  "remarks": "RMK AO2 SLP131 T01280128",
  "dewpoint": {
    "repr": "13",
    "value": 13,
    "spoken": "one three"
  },
  "relative_humidity": 1,
  "remarks_info": {
    "maximum_temperature_6": null,
    "minimum_temperature_6": null,
    "pressure_tendency": null,
    "precip_36_hours": null,
    "precip_24_hours": null,
    "sunshine_minutes": null,
    "codes": [
      {
        "repr": "AO2",
        "value": "Automated with precipitation sensor"
      }
    ],
    "dewpoint_decimal": {
      "repr": "0128",
      "value": 12.8,
      "spoken": "one two point eight"
    },
    "maximum_temperature_24": null,
    "minimum_temperature_24": null,
    "precip_hourly": null,
    "sea_level_pressure": {
      "repr": "SLP131",
      "value": 1013.1,
      "spoken": "one zero one three point one"
    },
    "snow_depth": null,
    "temperature_decimal": {
      "repr": "0128",
      "value": 12.8,
      "spoken": "one two point eight"
    }
  },
  "runway_visibility": [],
  "temperature": {
    "repr": "13",
    "value": 13,
    "spoken": "one three"
  },
  "wind_variable_direction": [],
  "density_altitude": -33,
  "pressure_altitude": 190,
  "units": {
    "accumulation": "in",
    "altimeter": "inHg",
    "altitude": "ft",
    "temperature": "C",
    "visibility": "sm",
    "wind_speed": "kt"
  }
}
