{
  "altimeter": {
    "repr": "A2981",
    "spoken": "two nine point eight one",
    "value": 29.81
  },
  "clouds": [
    {
      "altitude": 9,
      "modifier": null,
      "repr": "OVC009",
      "type": "OVC"
    }
  ],
  "density_altitude": 57,
  "dewpoint": {
    "repr": "12",
    "spoken": "one two",
    "value": 12
  },
  "flight_rules": "IFR",
  "meta": {
    "cache-timestamp": "2023-12-05T11:40:02.713000Z",
    "stations_updated": "2023-10-28",
    "timestamp": "2023-12-05T11:40:30.213056Z"
  },
  "other": [],
  "pressure_altitude": 280,
  "raw": "KBLI 051122Z AUTO VRB05KT 1 3/4SM RA BR OVC009 13/12 A2981 RMK AO2 RAB04 CIG 006V011 P0004 T01280122",
  "relative_humidity": 0.9613738290736719,
  "remarks": "RMK AO2 RAB04 CIG 006V011 P0004 T01280122",
  "remarks_info": {
    "codes": [
      {
        "repr": "AO2",
        "value": "Automated with precipitation sensor"
      },
      {
        "repr": "RAB04",
        "value": "Rain began at :04"
      }
    ],
    "dewpoint_decimal": {
      "repr": "0122",
      "spoken": "one two point two",
      "value": 12.2
    },
    "maximum_temperature_24": null,
    "maximum_temperature_6": null,
    "minimum_temperature_24": null,
    "minimum_temperature_6": null,
    "precip_24_hours": null,
    "precip_36_hours": null,
    "precip_hourly": {
      "repr": "P0004",
      "spoken": "zero point zero four",
      "value": 0.04
    },
    "pressure_tendency": null,
    "sea_level_pressure": null,
    "snow_depth": null,
    "sunshine_minutes": null,
    "temperature_decimal": {
      "repr": "0128",
      "spoken": "one two point eight",
      "value": 12.8
    }
  },
  "runway_visibility": [],
  "sanitized": "KBLI 051122Z VRB05KT 1 3/4SM RA BR OVC009 13/12 A2981 RMK AO2 RAB04 CIG 006V011 P0004 T01280122",
  "station": "KBLI",
  "temperature": {
    "repr": "13",
    "spoken": "one three",
    "value": 13
  },
  "time": {
    "dt": "2023-12-05T11:22:00Z",
    "repr": "051122Z"
  },
  "units": {
    "accumulation": "in",
    "altimeter": "inHg",
    "altitude": "ft",
    "temperature": "C",
    "visibility": "sm",
    "wind_speed": "kt"
  },
  "visibility": {
    "denominator": 4,
    "normalized": "1 3/4",
    "numerator": 7,
    "repr": "7/4",
    "spoken": "one and three quarters",
    "value": 1.75
  },
  "wind_direction": {
    "repr": "VRB",
    "spoken": "variable",
    "value": null
  },
  "wind_gust": null,
  "wind_speed": {
    "repr": "05",
    "spoken": "five",
    "value": 5
  },
  "wind_variable_direction": [],
  "wx_codes": [
    {
      "repr": "RA",
      "value": "Rain"
    },
    {
      "repr": "BR",
      "value": "Mist"
    }
  ]
}
