{
  "altimeter": {
    "repr": "A2967",
    "spoken": "two nine point six seven",
    "value": 29.67
  },
  "clouds": [
    {
      "altitude": 24,
      "modifier": null,
      "repr": "SCT024",
      "type": "SCT"
    },
    {
      "altitude": 28,
      "modifier": null,
      "repr": "BKN028",
      "type": "BKN"
    },
    {
      "altitude": 34,
      "modifier": null,
      "repr": "OVC034",
      "type": "OVC"
    }
  ],
  "density_altitude": -535,
  "dewpoint": {
    "repr": "06",
    "spoken": "six",
    "value": 6
  },
  "flight_rules": "MVFR",
  "meta": {
    "cache-timestamp": "2024-03-28T03:24:04.138000Z",
    "stations_updated": "2024-01-01",
    "timestamp": "2024-03-28T03:24:39.944137Z"
  },
  "other": [],
  "pressure_altitude": 420,
  "raw": "KBLI 280253Z 09006KT 10SM -RA SCT024 BKN028 OVC034 07/06 A2967 RMK AO2 RAB03E16B30GRB02E05 SLP055 P0014 60030 T00670056 53002",
  "relative_humidity": 0.9268723723701822,
  "remarks": "RMK AO2 RAB03E16B30GRB02E05 SLP055 P0014 60030 T00670056 53002",
  "remarks_info": {
    "codes": [
      {
        "repr": "AO2",
        "value": "Automated with precipitation sensor"
      }
    ],
    "dewpoint_decimal": {
      "repr": "0056",
      "spoken": "five point six",
      "value": 5.6
    },
    "maximum_temperature_24": null,
    "maximum_temperature_6": null,
    "minimum_temperature_24": null,
    "minimum_temperature_6": null,
    "precip_24_hours": null,
    "precip_36_hours": {
      "repr": "60030",
      "spoken": "zero point three",
      "value": 0.3
    },
    "precip_hourly": {
      "repr": "P0014",
      "spoken": "zero point one four",
      "value": 0.14
    },
    "pressure_tendency": {
      "change": 0.2,
      "repr": "53002",
      "tendency": "Decreasing or steady, then increasing"
    },
    "sea_level_pressure": {
      "repr": "SLP055",
      "spoken": "one zero zero five point five",
      "value": 1005.5
    },
    "snow_depth": null,
    "sunshine_minutes": null,
    "temperature_decimal": {
      "repr": "0067",
      "spoken": "six point seven",
      "value": 6.7
    }
  },
  "runway_visibility": [],
  "sanitized": "KBLI 280253Z 09006KT 10SM -RA SCT024 BKN028 OVC034 07/06 A2967 RMK AO2 RAB03E16B30GRB02E05 SLP055 P0014 60030 T00670056 53002",
  "station": "KBLI",
  "temperature": {
    "repr": "07",
    "spoken": "seven",
    "value": 7
  },
  "time": {
    "dt": "2024-03-28T02:53:00Z",
    "repr": "280253Z"
  },
  "units": {
    "accumulation": "in",
    "altimeter": "inHg",
    "altitude": "ft",
    "temperature": "C",
    "visibility": "sm",
    "wind_speed": "kt"
  },
  "visibility": {
    "repr": "10",
    "spoken": "one zero",
    "value": 10
  },
  "wind_direction": {
    "repr": "090",
    "spoken": "zero nine zero",
    "value": 90
  },
  "wind_gust": null,
  "wind_speed": {
    "repr": "06",
    "spoken": "six",
    "value": 6
  },
  "wind_variable_direction": [],
  "wx_codes": [
    {
      "repr": "-RA",
      "value": "Light Rain"
    }
  ]
}
