{
  "altimeter": {
    "repr": "A3008",
    "spoken": "three zero point zero eight",
    "value": 30.08
  },
  "clouds": [
    {
      "altitude": 37,
      "modifier": null,
      "repr": "FEW037",
      "type": "FEW"
    },
    {
      "altitude": 95,
      "modifier": null,
      "repr": "OVC095",
      "type": "OVC"
    }
  ],
  "density_altitude": 255,
  "dewpoint": {
    "repr": "16",
    "spoken": "one six",
    "value": 16
  },
  "flight_rules": "VFR",
  "meta": {
    "stations_updated": "2024-06-12",
    "timestamp": "2024-09-24T03:44:39.882181Z"
  },
  "other": [],
  "pressure_altitude": 10,
  "raw": "KBLI 240253Z 00000KT 10SM FEW037 OVC095 17/16 A3008 RMK AO2 SLP191 T01670161 58012",
  "relative_humidity": 0.9625025139209752,
  "remarks": "RMK AO2 SLP191 T01670161 58012",
  "remarks_info": {
    "codes": [
      {
        "repr": "AO2",
        "value": "Automated with precipitation sensor"
      }
    ],
    "dewpoint_decimal": {
      "repr": "0161",
      "spoken": "one six point one",
      "value": 16.1
    },
    "maximum_temperature_24": null,
    "maximum_temperature_6": null,
    "minimum_temperature_24": null,
    "minimum_temperature_6": null,
    "precip_24_hours": null,
    "precip_36_hours": null,
    "precip_hourly": null,
    "pressure_tendency": {
      "change": 1.2,
      "repr": "58012",
      "tendency": "Steady or increasing, then decreasing"
    },
    "sea_level_pressure": {
      "repr": "SLP191",
      "spoken": "one zero one nine point one",
      "value": 1019.1
    },
    "snow_depth": null,
    "sunshine_minutes": null,
    "temperature_decimal": {
      "repr": "0167",
      "spoken": "one six point seven",
      "value": 16.7
    }
  },
  "runway_visibility": [],
  "sanitized": "KBLI 240253Z 00000KT 10SM FEW037 OVC095 17/16 A3008 RMK AO2 SLP191 T01670161 58012",
  "station": "KBLI",
  "temperature": {
    "repr": "17",
    "spoken": "one seven",
    "value": 17
  },
  "time": {
    "dt": "2024-09-24T02:53:00Z",
    "repr": "240253Z"
  },
  "units": {
    "accumulation": "in",
    "altimeter": "inHg",
    "altitude": "ft",
    "temperature": "C",
    "visibility": "sm",
    "wind_speed": "kt"
  },
  "visibility": {
    "repr": "10",
    "spoken": "one zero",
    "value": 10
  },
  "wind_direction": {
    "repr": "000",
    "spoken": "zero zero zero",
    "value": 0
  },
  "wind_gust": null,
  "wind_speed": {
    "repr": "00",
    "spoken": "zero",
    "value": 0
  },
  "wind_variable_direction": [],
  "wx_codes": []
}
