{
  "meta": {
    "timestamp": "2023-02-08T21:24:20.702495Z",
    "stations_updated": "2023-01-30",
    "cache-timestamp": "2023-02-08T21:24:04.351000Z"
  },
  "altimeter": {
    "repr": "A3050",
    "value": 30.5,
    "spoken": "three zero point five zero"
  },
  "clouds": [
    {
      "repr": "SCT024",
      "type": "SCT",
      "altitude": 24,
      "modifier": null
    }
  ],
  "flight_rules": "VFR",
  "other": [],
  "visibility": {
    "repr": "10",
    "value": 10,
    "spoken": "one zero"
  },
  "wind_direction": {
    "repr": "180",
    "value": 180,
    "spoken": "one eight zero"
  },
  "wind_gust": null,
  "wind_speed": {
    "repr": "06",
    "value": 6,
    "spoken": "six"
  },
  "wx_codes": [],
  "raw": "KBLI 082053Z 18006KT 10SM SCT024 08/03 A3050 RMK AO2 SLP335 T00780033 50005",
  "sanitized": "KBLI 082053Z 18006KT 10SM SCT024 08/03 A3050 RMK AO2 SLP335 T00780033 50005",
  "station": "KBLI",
  "time": {
    "repr": "082053Z",
    "dt": "2023-02-08T20:53:00Z"
  },
  "remarks": "RMK AO2 SLP335 T00780033 50005",
  "dewpoint": {
    "repr": "03",
    "value": 3,
    "spoken": "three"
  },
  "relative_humidity": 0.731846990709336,
  "remarks_info": {
    "maximum_temperature_6": null,
    "minimum_temperature_6": null,
    "pressure_tendency": {
      "repr": "50005",
      "tendency": "Increasing, then decreasing",
      "change": 0.5
    },
    "precip_36_hours": null,
    "precip_24_hours": null,
    "sunshine_minutes": null,
    "codes": [
      {
        "repr": "AO2",
        "value": "Automated with precipitation sensor"
      }
    ],
    "dewpoint_decimal": {
      "repr": "0033",
      "value": 3.3,
      "spoken": "three point three"
    },
    "maximum_temperature_24": null,
    "minimum_temperature_24": null,
    "precip_hourly": null,
    "sea_level_pressure": {
      "repr": "SLP335",
      "value": 1033.5,
      "spoken": "one zero three three point five"
    },
    "snow_depth": null,
    "temperature_decimal": {
      "repr": "0078",
      "value": 7.8,
      "spoken": "seven point eight"
    }
  },
  "runway_visibility": [],
  "temperature": {
    "repr": "08",
    "value": 8,
    "spoken": "eight"
  },
  "wind_variable_direction": [],
  "density_altitude": -1233,
  "pressure_altitude": -410,
  "units": {
    "accumulation": "in",
    "altimeter": "inHg",
    "altitude": "ft",
    "temperature": "C",
    "visibility": "sm",
    "wind_speed": "kt"
  }
}
