{
  "altimeter": {
    "repr": "A2980",
    "spoken": "two nine point eight zero",
    "value": 29.8
  },
  "clouds": [
    {
      "altitude": 8,
      "modifier": null,
      "repr": "OVC008",
      "type": "OVC"
    }
  ],
  "density_altitude": -533,
  "dewpoint": {
    "repr": "08",
    "spoken": "eight",
    "value": 8
  },
  "flight_rules": "IFR",
  "meta": {
    "stations_updated": "2024-12-02",
    "timestamp": "2024-12-18T14:07:27.799835Z"
  },
  "other": [],
  "pressure_altitude": 290,
  "raw": "KBLI 181353Z AUTO 27009G20KT 220V300 10SM OVC008 08/08 A2980 RMK AO2 RAE40 SLP098 P0011 T00780078",
  "relative_humidity": 1,
  "remarks": "RMK AO2 RAE40 SLP098 P0011 T00780078",
  "remarks_info": {
    "codes": [
      {
        "repr": "AO2",
        "value": "Automated with precipitation sensor"
      },
      {
        "repr": "RAE40",
        "value": "Rain ended at :40"
      }
    ],
    "dewpoint_decimal": {
      "repr": "0078",
      "spoken": "seven point eight",
      "value": 7.8
    },
    "maximum_temperature_24": null,
    "maximum_temperature_6": null,
    "minimum_temperature_24": null,
    "minimum_temperature_6": null,
    "precip_24_hours": null,
    "precip_36_hours": null,
    "precip_hourly": {
      "repr": "P0011",
      "spoken": "zero point one one",
      "value": 0.11
    },
    "pressure_tendency": null,
    "sea_level_pressure": {
      "repr": "SLP098",
      "spoken": "one zero zero nine point eight",
      "value": 1009.8
    },
    "snow_depth": null,
    "sunshine_minutes": null,
    "temperature_decimal": {
      "repr": "0078",
      "spoken": "seven point eight",
      "value": 7.8
    }
  },
  "runway_visibility": [],
  "sanitized": "KBLI 181353Z 27009G20KT 220V300 10SM OVC008 08/08 A2980 RMK AO2 RAE40 SLP098 P0011 T00780078",
  "station": "KBLI",
  "temperature": {
    "repr": "08",
    "spoken": "eight",
    "value": 8
  },
  "time": {
    "dt": "2024-12-18T13:53:00Z",
    "repr": "181353Z"
  },
  "units": {
    "accumulation": "in",
    "altimeter": "inHg",
    "altitude": "ft",
    "temperature": "C",
    "visibility": "sm",
    "wind_speed": "kt"
  },
  "visibility": {
    "repr": "10",
    "spoken": "one zero",
    "value": 10
  },
  "wind_direction": {
    "repr": "270",
    "spoken": "two seven zero",
    "value": 270
  },
  "wind_gust": {
    "repr": "20",
    "spoken": "two zero",
    "value": 20
  },
  "wind_speed": {
    "repr": "09",
    "spoken": "nine",
    "value": 9
  },
  "wind_variable_direction": [
    {
      "repr": "220",
      "spoken": "two two zero",
      "value": 220
    },
    {
      "repr": "300",
      "spoken": "three zero zero",
      "value": 300
    }
  ],
  "wx_codes": []
}
