{
  "altimeter": {
    "repr": "A2995",
    "spoken": "two nine point nine five",
    "value": 29.95
  },
  "clouds": [],
  "density_altitude": 853,
  "dewpoint": {
    "repr": "13",
    "spoken": "one three",
    "value": 13
  },
  "flight_rules": "VFR",
  "meta": {
    "cache-timestamp": "2024-06-21T18:42:02.839000Z",
    "stations_updated": "2024-05-13",
    "timestamp": "2024-06-21T18:42:21.855246Z"
  },
  "other": [],
  "pressure_altitude": 140,
  "raw": "KBLI 211753Z 24003KT 10SM CLR 21/13 A2995 RMK AO2 SLP148 T02060133 10206 20100 58005",
  "relative_humidity": 0.6293161583113158,
  "remarks": "RMK AO2 SLP148 T02060133 10206 20100 58005",
  "remarks_info": {
    "codes": [
      {
        "repr": "AO2",
        "value": "Automated with precipitation sensor"
      }
    ],
    "dewpoint_decimal": {
      "repr": "0133",
      "spoken": "one three point three",
      "value": 13.3
    },
    "maximum_temperature_24": null,
    "maximum_temperature_6": {
      "repr": "10206",
      "spoken": "two zero point six",
      "value": 20.6
    },
    "minimum_temperature_24": null,
    "minimum_temperature_6": {
      "repr": "20100",
      "spoken": "one zero point zero",
      "value": 10
    },
    "precip_24_hours": null,
    "precip_36_hours": null,
    "precip_hourly": null,
    "pressure_tendency": {
      "change": 0.5,
      "repr": "58005",
      "tendency": "Steady or increasing, then decreasing"
    },
    "sea_level_pressure": {
      "repr": "SLP148",
      "spoken": "one zero one four point eight",
      "value": 1014.8
    },
    "snow_depth": null,
    "sunshine_minutes": null,
    "temperature_decimal": {
      "repr": "0206",
      "spoken": "two zero point six",
      "value": 20.6
    }
  },
  "runway_visibility": [],
  "sanitized": "KBLI 211753Z 24003KT 10SM 21/13 A2995 RMK AO2 SLP148 T02060133 10206 20100 58005",
  "station": "KBLI",
  "temperature": {
    "repr": "21",
    "spoken": "two one",
    "value": 21
  },
  "time": {
    "dt": "2024-06-21T17:53:00Z",
    "repr": "211753Z"
  },
  "units": {
    "accumulation": "in",
    "altimeter": "inHg",
    "altitude": "ft",
    "temperature": "C",
    "visibility": "sm",
    "wind_speed": "kt"
  },
  "visibility": {
    "repr": "10",
    "spoken": "one zero",
    "value": 10
  },
  "wind_direction": {
    "repr": "240",
    "spoken": "two four zero",
    "value": 240
  },
  "wind_gust": null,
  "wind_speed": {
    "repr": "03",
    "spoken": "three",
    "value": 3
  },
  "wind_variable_direction": [],
  "wx_codes": []
}
