{
  "meta": {
    "timestamp": "2022-12-20T15:42:01.863538Z",
    "stations_updated": "2022-09-05"
  },
  "altimeter": {
    "repr": "A3006",
    "value": 30.06,
    "spoken": "three zero point zero six"
  },
  "clouds": [
    {
      "repr": "VV009",
      "type": "VV",
      "altitude": 9,
      "modifier": null
    }
  ],
  "flight_rules": "LIFR",
  "other": [],
  "visibility": {
    "repr": "1/2",
    "value": 0.5,
    "spoken": "one half",
    "numerator": 1,
    "denominator": 2,
    "normalized": "1/2"
  },
  "wind_direction": {
    "repr": "020",
    "value": 20,
    "spoken": "zero two zero"
  },
  "wind_gust": {
    "repr": "25",
    "value": 25,
    "spoken": "two five"
  },
  "wind_speed": {
    "repr": "12",
    "value": 12,
    "spoken": "one two"
  },
  "wx_codes": [
    {
      "repr": "SN",
      "value": "Snow"
    },
    {
      "repr": "FZFG",
      "value": "Freezing Fog"
    }
  ],
  "raw": "KBLI 201527Z 02012G25KT 1/2SM R16/4000V5000FT SN FZFG VV009 M09/M09 A3006 RMK AO2 P0002 T10891089",
  "sanitized": "KBLI 201527Z 02012G25KT 1/2SM R16/4000V5000FT SN FZFG VV009 M09/M09 A3006 RMK AO2 P0002 T10891089",
  "station": "KBLI",
  "time": {
    "repr": "201527Z",
    "dt": "2022-12-20T15:27:00Z"
  },
  "remarks": "RMK AO2 P0002 T10891089",
  "dewpoint": {
    "repr": "M09",
    "value": -9,
    "spoken": "minus nine"
  },
  "relative_humidity": 1,
  "remarks_info": {
    "maximum_temperature_6": null,
    "minimum_temperature_6": null,
    "pressure_tendency": null,
    "precip_36_hours": null,
    "precip_24_hours": null,
    "sunshine_minutes": null,
    "codes": [
      {
        "repr": "AO2",
        "value": "Automated with precipitation sensor"
      }
    ],
    "dewpoint_decimal": {
      "repr": "1089",
      "value": -8.9,
      "spoken": "minus eight point nine"
    },
    "maximum_temperature_24": null,
    "minimum_temperature_24": null,
    "precip_hourly": {
      "repr": "P0002",
      "value": 0.02,
      "spoken": "zero point zero two"
    },
    "sea_level_pressure": null,
    "snow_depth": null,
    "temperature_decimal": {
      "repr": "1089",
      "value": -8.9,
      "spoken": "minus eight point nine"
    }
  },
  "runway_visibility": [
    {
      "repr": "R16/4000V5000FT",
      "runway": "16",
      "visibility": null,
      "variable_visibility": [
        {
          "repr": "4000",
          "value": 4000,
          "spoken": "four thousand"
        },
        {
          "repr": "5000",
          "value": 5000,
          "spoken": "five thousand"
        }
      ],
      "trend": null
    }
  ],
  "temperature": {
    "repr": "M09",
    "value": -9,
    "spoken": "minus nine"
  },
  "wind_variable_direction": [],
  "density_altitude": -2797,
  "pressure_altitude": 30,
  "units": {
    "accumulation": "in",
    "altimeter": "inHg",
    "altitude": "ft",
    "temperature": "C",
    "visibility": "sm",
    "wind_speed": "kt"
  }
}
