{
  "altimeter": {
    "repr": "A3009",
    "spoken": "three zero point zero nine",
    "value": 30.09
  },
  "clouds": [
    {
      "altitude": 47,
      "modifier": null,
      "repr": "OVC047",
      "type": "OVC"
    }
  ],
  "density_altitude": 173,
  "dewpoint": {
    "repr": "07",
    "spoken": "seven",
    "value": 7
  },
  "flight_rules": "VFR",
  "meta": {
    "stations_updated": "2024-05-13",
    "timestamp": "2024-06-12T00:29:27.885571Z"
  },
  "other": [],
  "pressure_altitude": 0,
  "raw": "KBLI 112353Z 28009G16KT 10SM OVC047 16/07 A3009 RMK AO2 SLP195 T01610067 10178 20156 53018",
  "relative_humidity": 0.5364997086361686,
  "remarks": "RMK AO2 SLP195 T01610067 10178 20156 53018",
  "remarks_info": {
    "codes": [
      {
        "repr": "AO2",
        "value": "Automated with precipitation sensor"
      }
    ],
    "dewpoint_decimal": {
      "repr": "0067",
      "spoken": "six point seven",
      "value": 6.7
    },
    "maximum_temperature_24": null,
    "maximum_temperature_6": {
      "repr": "10178",
      "spoken": "one seven point eight",
      "value": 17.8
    },
    "minimum_temperature_24": null,
    "minimum_temperature_6": {
      "repr": "20156",
      "spoken": "one five point six",
      "value": 15.6
    },
    "precip_24_hours": null,
    "precip_36_hours": null,
    "precip_hourly": null,
    "pressure_tendency": {
      "change": 1.8,
      "repr": "53018",
      "tendency": "Decreasing or steady, then increasing"
    },
    "sea_level_pressure": {
      "repr": "SLP195",
      "spoken": "one zero one nine point five",
      "value": 1019.5
    },
    "snow_depth": null,
    "sunshine_minutes": null,
    "temperature_decimal": {
      "repr": "0161",
      "spoken": "one six point one",
      "value": 16.1
    }
  },
  "runway_visibility": [],
  "sanitized": "KBLI 112353Z 28009G16KT 10SM OVC047 16/07 A3009 RMK AO2 SLP195 T01610067 10178 20156 53018",
  "station": "KBLI",
  "temperature": {
    "repr": "16",
    "spoken": "one six",
    "value": 16
  },
  "time": {
    "dt": "2024-06-11T23:53:00Z",
    "repr": "112353Z"
  },
  "units": {
    "accumulation": "in",
    "altimeter": "inHg",
    "altitude": "ft",
    "temperature": "C",
    "visibility": "sm",
    "wind_speed": "kt"
  },
  "visibility": {
    "repr": "10",
    "spoken": "one zero",
    "value": 10
  },
  "wind_direction": {
    "repr": "280",
    "spoken": "two eight zero",
    "value": 280
  },
  "wind_gust": {
    "repr": "16",
    "spoken": "one six",
    "value": 16
  },
  "wind_speed": {
    "repr": "09",
    "spoken": "nine",
    "value": 9
  },
  "wind_variable_direction": [],
  "wx_codes": []
}
