{
  "altimeter": {
    "repr": "A3017",
    "spoken": "three zero point one seven",
    "value": 30.17
  },
  "clouds": [
    {
      "altitude": 60,
      "modifier": null,
      "repr": "OVC060",
      "type": "OVC"
    }
  ],
  "density_altitude": -2103,
  "dewpoint": {
    "repr": "M03",
    "spoken": "minus three",
    "value": -3
  },
  "flight_rules": "VFR",
  "meta": {
    "cache-timestamp": "2024-03-07T12:09:17.450000Z",
    "stations_updated": "2024-01-01",
    "timestamp": "2024-03-07T12:09:23.038510Z"
  },
  "other": [],
  "pressure_altitude": -80,
  "raw": "KBLI 071153Z AUTO 01003KT 7SM OVC060 M02/M03 A3017 RMK AO2 SLP226 I1000 I6000 T10221028 11006 21028 51007",
  "relative_humidity": 0.956525227573871,
  "remarks": "RMK AO2 SLP226 I1000 I6000 T10221028 11006 21028 51007",
  "remarks_info": {
    "codes": [
      {
        "repr": "AO2",
        "value": "Automated with precipitation sensor"
      }
    ],
    "dewpoint_decimal": {
      "repr": "1028",
      "spoken": "minus two point eight",
      "value": -2.8
    },
    "maximum_temperature_24": null,
    "maximum_temperature_6": {
      "repr": "11006",
      "spoken": "minus zero point six",
      "value": -0.6
    },
    "minimum_temperature_24": null,
    "minimum_temperature_6": {
      "repr": "21028",
      "spoken": "minus two point eight",
      "value": -2.8
    },
    "precip_24_hours": null,
    "precip_36_hours": null,
    "precip_hourly": null,
    "pressure_tendency": {
      "change": 0.7,
      "repr": "51007",
      "tendency": "Increasing, then steady"
    },
    "sea_level_pressure": {
      "repr": "SLP226",
      "spoken": "one zero two two point six",
      "value": 1022.6
    },
    "snow_depth": null,
    "sunshine_minutes": null,
    "temperature_decimal": {
      "repr": "1022",
      "spoken": "minus two point two",
      "value": -2.2
    }
  },
  "runway_visibility": [],
  "sanitized": "KBLI 071153Z 01003KT 7SM OVC060 M02/M03 A3017 RMK AO2 SLP226 I1000 I6000 T10221028 11006 21028 51007",
  "station": "KBLI",
  "temperature": {
    "repr": "M02",
    "spoken": "minus two",
    "value": -2
  },
  "time": {
    "dt": "2024-03-07T11:53:00Z",
    "repr": "071153Z"
  },
  "units": {
    "accumulation": "in",
    "altimeter": "inHg",
    "altitude": "ft",
    "temperature": "C",
    "visibility": "sm",
    "wind_speed": "kt"
  },
  "visibility": {
    "repr": "7",
    "spoken": "seven",
    "value": 7
  },
  "wind_direction": {
    "repr": "010",
    "spoken": "zero one zero",
    "value": 10
  },
  "wind_gust": null,
  "wind_speed": {
    "repr": "03",
    "spoken": "three",
    "value": 3
  },
  "wind_variable_direction": [],
  "wx_codes": []
}
