{
  "meta": {
    "timestamp": "2022-12-28T11:40:35.424165Z",
    "stations_updated": "2022-09-05",
    "cache-timestamp": "2022-12-28T11:40:08.387000Z"
  },
  "altimeter": {
    "repr": "A2957",
    "value": 29.57,
    "spoken": "two nine point five seven"
  },
  "clouds": [
    {
      "repr": "OVC070",
      "type": "OVC",
      "altitude": 70,
      "modifier": null
    }
  ],
  "flight_rules": "VFR",
  "other": [],
  "visibility": {
    "repr": "10",
    "value": 10,
    "spoken": "one zero"
  },
  "wind_direction": {
    "repr": "200",
    "value": 200,
    "spoken": "two zero zero"
  },
  "wind_gust": {
    "repr": "22",
    "value": 22,
    "spoken": "two two"
  },
  "wind_speed": {
    "repr": "10",
    "value": 10,
    "spoken": "one zero"
  },
  "wx_codes": [],
  "raw": "KBLI 281053Z AUTO 20010G22KT 160V240 10SM OVC070 07/05 A2957 RMK AO2 SLP020 T00720050",
  "sanitized": "KBLI 281053Z 20010G22KT 160V240 10SM OVC070 07/05 A2957 RMK AO2 SLP020 T00720050",
  "station": "KBLI",
  "time": {
    "repr": "281053Z",
    "dt": "2022-12-28T10:53:00Z"
  },
  "remarks": "RMK AO2 SLP020 T00720050",
  "dewpoint": {
    "repr": "05",
    "value": 5,
    "spoken": "five"
  },
  "relative_humidity": 0.8590382146577359,
  "remarks_info": {
    "maximum_temperature_6": null,
    "minimum_temperature_6": null,
    "pressure_tendency": null,
    "precip_36_hours": null,
    "precip_24_hours": null,
    "sunshine_minutes": null,
    "codes": [
      {
        "repr": "AO2",
        "value": "Automated with precipitation sensor"
      }
    ],
    "dewpoint_decimal": {
      "repr": "0050",
      "value": 5,
      "spoken": "five point zero"
    },
    "maximum_temperature_24": null,
    "minimum_temperature_24": null,
    "precip_hourly": null,
    "sea_level_pressure": {
      "repr": "SLP020",
      "value": 1002,
      "spoken": "one zero zero two point zero"
    },
    "snow_depth": null,
    "temperature_decimal": {
      "repr": "0072",
      "value": 7.2,
      "spoken": "seven point two"
    }
  },
  "runway_visibility": [],
  "temperature": {
    "repr": "07",
    "value": 7,
    "spoken": "seven"
  },
  "wind_variable_direction": [
    {
      "repr": "160",
      "value": 160,
      "spoken": "one six zero"
    },
    {
      "repr": "240",
      "value": 240,
      "spoken": "two four zero"
    }
  ],
  "density_altitude": -375,
  "pressure_altitude": 520,
  "units": {
    "accumulation": "in",
    "altimeter": "inHg",
    "altitude": "ft",
    "temperature": "C",
    "visibility": "sm",
    "wind_speed": "kt"
  }
}
