{
  "meta": {
    "timestamp": "2022-08-30T21:43:59.879447Z",
    "stations_updated": "2022-07-17"
  },
  "altimeter": {
    "repr": "A2998",
    "value": 29.98,
    "spoken": "two nine point nine eight"
  },
  "clouds": [],
  "flight_rules": "VFR",
  "other": [],
  "visibility": {
    "repr": "10",
    "value": 10,
    "spoken": "one zero"
  },
  "wind_direction": {
    "repr": "280",
    "value": 280,
    "spoken": "two eight zero"
  },
  "wind_gust": null,
  "wind_speed": {
    "repr": "09",
    "value": 9,
    "spoken": "nine"
  },
  "wx_codes": [],
  "raw": "KBLI 302053Z 28009KT 10SM CLR 27/18 A2998 RMK AO2 SLP156 T02720183 58012",
  "sanitized": "KBLI 302053Z 28009KT 10SM 27/18 A2998 RMK AO2 SLP156 T02720183 58012",
  "station": "KBLI",
  "time": {
    "repr": "302053Z",
    "dt": "2022-08-30T20:53:00Z"
  },
  "remarks": "RMK AO2 SLP156 T02720183 58012",
  "dewpoint": {
    "repr": "18",
    "value": 18,
    "spoken": "one eight"
  },
  "relative_humidity": 0.5825497854301382,
  "remarks_info": {
    "maximum_temperature_6": null,
    "minimum_temperature_6": null,
    "pressure_tendency": {
      "repr": "58012",
      "tendency": "Steady or increasing, then decreasing",
      "change": 1.2
    },
    "precip_36_hours": null,
    "precip_24_hours": null,
    "sunshine_minutes": null,
    "codes": [
      {
        "repr": "AO2",
        "value": "Automated with precipitation sensor"
      }
    ],
    "dewpoint_decimal": {
      "repr": "0183",
      "value": 18.3,
      "spoken": "one eight point three"
    },
    "maximum_temperature_24": null,
    "minimum_temperature_24": null,
    "precip_hourly": null,
    "sea_level_pressure": {
      "repr": "SLP156",
      "value": 1015.6,
      "spoken": "one zero one five point six"
    },
    "snow_depth": null,
    "temperature_decimal": {
      "repr": "0272",
      "value": 27.2,
      "spoken": "two seven point two"
    }
  },
  "runway_visibility": [],
  "temperature": {
    "repr": "27",
    "value": 27,
    "spoken": "two seven"
  },
  "wind_variable_direction": [],
  "density_altitude": 1615,
  "pressure_altitude": 110,
  "units": {
    "accumulation": "in",
    "altimeter": "inHg",
    "altitude": "ft",
    "temperature": "C",
    "visibility": "sm",
    "wind_speed": "kt"
  }
}
