{
  "altimeter": {
    "repr": "A2953",
    "spoken": "two nine point five three",
    "value": 29.53
  },
  "clouds": [
    {
      "altitude": 17,
      "modifier": null,
      "repr": "SCT017",
      "type": "SCT"
    },
    {
      "altitude": 25,
      "modifier": null,
      "repr": "OVC025",
      "type": "OVC"
    }
  ],
  "density_altitude": -203,
  "dewpoint": {
    "repr": "07",
    "spoken": "seven",
    "value": 7
  },
  "flight_rules": "MVFR",
  "meta": {
    "stations_updated": "2024-10-29",
    "timestamp": "2024-11-17T09:41:57.230476Z"
  },
  "other": [],
  "pressure_altitude": 560,
  "raw": "KBLI 170853Z AUTO 17013G23KT 10SM SCT017 OVC025 08/07 A2953 RMK AO2 SLP007 60003 T00830067 56013",
  "relative_humidity": 0.8964857337002037,
  "remarks": "RMK AO2 SLP007 60003 T00830067 56013",
  "remarks_info": {
    "codes": [
      {
        "repr": "AO2",
        "value": "Automated with precipitation sensor"
      }
    ],
    "dewpoint_decimal": {
      "repr": "0067",
      "spoken": "six point seven",
      "value": 6.7
    },
    "maximum_temperature_24": null,
    "maximum_temperature_6": null,
    "minimum_temperature_24": null,
    "minimum_temperature_6": null,
    "precip_24_hours": null,
    "precip_36_hours": {
      "repr": "60003",
      "spoken": "zero point zero three",
      "value": 0.03
    },
    "precip_hourly": null,
    "pressure_tendency": {
      "change": 1.3,
      "repr": "56013",
      "tendency": "Decreasing, then steady"
    },
    "sea_level_pressure": {
      "repr": "SLP007",
      "spoken": "one zero zero zero point seven",
      "value": 1000.7
    },
    "snow_depth": null,
    "sunshine_minutes": null,
    "temperature_decimal": {
      "repr": "0083",
      "spoken": "eight point three",
      "value": 8.3
    }
  },
  "runway_visibility": [],
  "sanitized": "KBLI 170853Z 17013G23KT 10SM SCT017 OVC025 08/07 A2953 RMK AO2 SLP007 60003 T00830067 56013",
  "station": "KBLI",
  "temperature": {
    "repr": "08",
    "spoken": "eight",
    "value": 8
  },
  "time": {
    "dt": "2024-11-17T08:53:00Z",
    "repr": "170853Z"
  },
  "units": {
    "accumulation": "in",
    "altimeter": "inHg",
    "altitude": "ft",
    "temperature": "C",
    "visibility": "sm",
    "wind_speed": "kt"
  },
  "visibility": {
    "repr": "10",
    "spoken": "one zero",
    "value": 10
  },
  "wind_direction": {
    "repr": "170",
    "spoken": "one seven zero",
    "value": 170
  },
  "wind_gust": {
    "repr": "23",
    "spoken": "two three",
    "value": 23
  },
  "wind_speed": {
    "repr": "13",
    "spoken": "one three",
    "value": 13
  },
  "wind_variable_direction": [],
  "wx_codes": []
}
