{
  "meta": {
    "timestamp": "2023-03-06T12:10:22.087843Z",
    "stations_updated": "2023-01-30",
    "cache-timestamp": "2023-03-06T12:10:06.185000Z"
  },
  "altimeter": {
    "repr": "A2994",
    "value": 29.94,
    "spoken": "two nine point nine four"
  },
  "clouds": [
    {
      "repr": "OVC050",
      "type": "OVC",
      "altitude": 50,
      "modifier": null
    }
  ],
  "flight_rules": "VFR",
  "other": [],
  "visibility": {
    "repr": "10",
    "value": 10,
    "spoken": "one zero"
  },
  "wind_direction": {
    "repr": "120",
    "value": 120,
    "spoken": "one two zero"
  },
  "wind_gust": null,
  "wind_speed": {
    "repr": "06",
    "value": 6,
    "spoken": "six"
  },
  "wx_codes": [],
  "raw": "KBLI 061153Z AUTO 12006KT 10SM OVC050 05/02 A2994 RMK AO2 RAB24E30 SLP147 P0000 60000 T00500022 10061 20033 53005",
  "sanitized": "KBLI 061153Z 12006KT 10SM OVC050 05/02 A2994 RMK AO2 RAB24E30 SLP147 P0000 60000 T00500022 10061 20033 53005",
  "station": "KBLI",
  "time": {
    "repr": "061153Z",
    "dt": "2023-03-06T11:53:00Z"
  },
  "remarks": "RMK AO2 RAB24E30 SLP147 P0000 60000 T00500022 10061 20033 53005",
  "dewpoint": {
    "repr": "02",
    "value": 2,
    "spoken": "two"
  },
  "relative_humidity": 0.820931292196258,
  "remarks_info": {
    "maximum_temperature_6": {
      "repr": "10061",
      "value": 6.1,
      "spoken": "six point one"
    },
    "minimum_temperature_6": {
      "repr": "20033",
      "value": 3.3,
      "spoken": "three point three"
    },
    "pressure_tendency": {
      "repr": "53005",
      "tendency": "Decreasing or steady, then increasing",
      "change": 0.5
    },
    "precip_36_hours": {
      "repr": "60000",
      "value": 0,
      "spoken": "zero"
    },
    "precip_24_hours": null,
    "sunshine_minutes": null,
    "codes": [
      {
        "repr": "AO2",
        "value": "Automated with precipitation sensor"
      },
      {
        "repr": "P0000",
        "value": "Trace amount of rain in the last hour"
      }
    ],
    "dewpoint_decimal": {
      "repr": "0022",
      "value": 2.2,
      "spoken": "two point two"
    },
    "maximum_temperature_24": null,
    "minimum_temperature_24": null,
    "precip_hourly": null,
    "sea_level_pressure": {
      "repr": "SLP147",
      "value": 1014.7,
      "spoken": "one zero one four point seven"
    },
    "snow_depth": null,
    "temperature_decimal": {
      "repr": "0050",
      "value": 5,
      "spoken": "five point zero"
    }
  },
  "runway_visibility": [],
  "temperature": {
    "repr": "05",
    "value": 5,
    "spoken": "five"
  },
  "wind_variable_direction": [],
  "density_altitude": -1009,
  "pressure_altitude": 150,
  "units": {
    "accumulation": "in",
    "altimeter": "inHg",
    "altitude": "ft",
    "temperature": "C",
    "visibility": "sm",
    "wind_speed": "kt"
  }
}
