{
  "meta": {
    "timestamp": "2023-10-06T13:40:38.415211Z",
    "stations_updated": "2023-10-01",
    "cache-timestamp": "2023-10-06T13:40:04.758000Z"
  },
  "altimeter": {
    "repr": "A3025",
    "value": 30.25,
    "spoken": "three zero point two five"
  },
  "clouds": [
    {
      "repr": "VV001",
      "type": "VV",
      "altitude": 1,
      "modifier": null
    }
  ],
  "flight_rules": "LIFR",
  "other": [],
  "visibility": {
    "repr": "1/2",
    "value": 0.5,
    "spoken": "one half",
    "numerator": 1,
    "denominator": 2,
    "normalized": "1/2"
  },
  "wind_direction": {
    "repr": "000",
    "value": 0,
    "spoken": "zero zero zero"
  },
  "wind_gust": null,
  "wind_speed": {
    "repr": "00",
    "value": 0,
    "spoken": "zero"
  },
  "wx_codes": [
    {
      "repr": "FG",
      "value": "Fog"
    }
  ],
  "raw": "KBLI 061329Z AUTO 00000KT 1/2SM R16/1800V2800FT FG VV001 08/08 A3025 RMK AO2 T00780078",
  "sanitized": "KBLI 061329Z 00000KT 1/2SM R16/1800V2800FT FG VV001 08/08 A3025 RMK AO2 T00780078",
  "station": "KBLI",
  "time": {
    "repr": "061329Z",
    "dt": "2023-10-06T13:29:00Z"
  },
  "remarks": "RMK AO2 T00780078",
  "dewpoint": {
    "repr": "08",
    "value": 8,
    "spoken": "eight"
  },
  "relative_humidity": 1,
  "remarks_info": {
    "maximum_temperature_6": null,
    "minimum_temperature_6": null,
    "pressure_tendency": null,
    "precip_36_hours": null,
    "precip_24_hours": null,
    "sunshine_minutes": null,
    "codes": [
      {
        "repr": "AO2",
        "value": "Automated with precipitation sensor"
      }
    ],
    "dewpoint_decimal": {
      "repr": "0078",
      "value": 7.8,
      "spoken": "seven point eight"
    },
    "maximum_temperature_24": null,
    "minimum_temperature_24": null,
    "precip_hourly": null,
    "sea_level_pressure": null,
    "snow_depth": null,
    "temperature_decimal": {
      "repr": "0078",
      "value": 7.8,
      "spoken": "seven point eight"
    }
  },
  "runway_visibility": [
    {
      "repr": "R16/1800V2800FT",
      "runway": "16",
      "visibility": null,
      "variable_visibility": [
        {
          "repr": "1800",
          "value": 1800,
          "spoken": "one eight hundred"
        },
        {
          "repr": "2800",
          "value": 2800,
          "spoken": "two eight hundred"
        }
      ],
      "trend": null
    }
  ],
  "temperature": {
    "repr": "08",
    "value": 8,
    "spoken": "eight"
  },
  "wind_variable_direction": [],
  "density_altitude": -983,
  "pressure_altitude": -160,
  "units": {
    "accumulation": "in",
    "altimeter": "inHg",
    "altitude": "ft",
    "temperature": "C",
    "visibility": "sm",
    "wind_speed": "kt"
  }
}
