{
  "meta": {
    "timestamp": "2023-02-24T18:44:39.391380Z",
    "stations_updated": "2023-01-30",
    "cache-timestamp": "2023-02-24T18:44:05.777000Z"
  },
  "altimeter": {
    "repr": "A3019",
    "value": 30.19,
    "spoken": "three zero point one nine"
  },
  "clouds": [],
  "flight_rules": "VFR",
  "other": [],
  "visibility": {
    "repr": "10",
    "value": 10,
    "spoken": "one zero"
  },
  "wind_direction": {
    "repr": "030",
    "value": 30,
    "spoken": "zero three zero"
  },
  "wind_gust": {
    "repr": "18",
    "value": 18,
    "spoken": "one eight"
  },
  "wind_speed": {
    "repr": "13",
    "value": 13,
    "spoken": "one three"
  },
  "wx_codes": [],
  "raw": "KBLI 241753Z 03013G18KT 10SM CLR M03/M16 A3019 RMK AO2 SLP234 T10331161 11028 21067 53007",
  "sanitized": "KBLI 241753Z 03013G18KT 10SM M03/M16 A3019 RMK AO2 SLP234 T10331161 11028 21067 53007",
  "station": "KBLI",
  "time": {
    "repr": "241753Z",
    "dt": "2023-02-24T17:53:00Z"
  },
  "remarks": "RMK AO2 SLP234 T10331161 11028 21067 53007",
  "dewpoint": {
    "repr": "M16",
    "value": -16,
    "spoken": "minus one six"
  },
  "relative_humidity": 0.36484523955769627,
  "remarks_info": {
    "maximum_temperature_6": {
      "repr": "11028",
      "value": -2.8,
      "spoken": "minus two point eight"
    },
    "minimum_temperature_6": {
      "repr": "21067",
      "value": -6.7,
      "spoken": "minus six point seven"
    },
    "pressure_tendency": {
      "repr": "53007",
      "tendency": "Decreasing or steady, then increasing",
      "change": 0.7
    },
    "precip_36_hours": null,
    "precip_24_hours": null,
    "sunshine_minutes": null,
    "codes": [
      {
        "repr": "AO2",
        "value": "Automated with precipitation sensor"
      }
    ],
    "dewpoint_decimal": {
      "repr": "1161",
      "value": -16.1,
      "spoken": "minus one six point one"
    },
    "maximum_temperature_24": null,
    "minimum_temperature_24": null,
    "precip_hourly": null,
    "sea_level_pressure": {
      "repr": "SLP234",
      "value": 1023.4,
      "spoken": "one zero two three point four"
    },
    "snow_depth": null,
    "temperature_decimal": {
      "repr": "1033",
      "value": -3.3,
      "spoken": "minus three point three"
    }
  },
  "runway_visibility": [],
  "temperature": {
    "repr": "M03",
    "value": -3,
    "spoken": "minus three"
  },
  "wind_variable_direction": [],
  "density_altitude": -2255,
  "pressure_altitude": -100,
  "units": {
    "accumulation": "in",
    "altimeter": "inHg",
    "altitude": "ft",
    "temperature": "C",
    "visibility": "sm",
    "wind_speed": "kt"
  }
}
