{
  "altimeter": {
    "repr": "A2966",
    "spoken": "two nine point six six",
    "value": 29.66
  },
  "clouds": [
    {
      "altitude": 42,
      "modifier": null,
      "repr": "SCT042",
      "type": "SCT"
    },
    {
      "altitude": 60,
      "modifier": null,
      "repr": "BKN060",
      "type": "BKN"
    },
    {
      "altitude": 80,
      "modifier": null,
      "repr": "OVC080",
      "type": "OVC"
    }
  ],
  "density_altitude": -333,
  "dewpoint": {
    "repr": "04",
    "spoken": "four",
    "value": 4
  },
  "flight_rules": "VFR",
  "meta": {
    "stations_updated": "2024-12-02",
    "timestamp": "2024-12-13T21:27:36.414373Z"
  },
  "other": [],
  "pressure_altitude": 430,
  "raw": "KBLI 132053Z 11004KT 10SM SCT042 BKN060 OVC080 08/04 A2966 RMK AO2 RAB09E18 SLP052 P0000 60000 T00830044 58021",
  "relative_humidity": 0.7642778368365473,
  "remarks": "RMK AO2 RAB09E18 SLP052 P0000 60000 T00830044 58021",
  "remarks_info": {
    "codes": [
      {
        "repr": "AO2",
        "value": "Automated with precipitation sensor"
      },
      {
        "repr": "P0000",
        "value": "Trace amount of rain in the last hour"
      }
    ],
    "dewpoint_decimal": {
      "repr": "0044",
      "spoken": "four point four",
      "value": 4.4
    },
    "maximum_temperature_24": null,
    "maximum_temperature_6": null,
    "minimum_temperature_24": null,
    "minimum_temperature_6": null,
    "precip_24_hours": null,
    "precip_36_hours": {
      "repr": "60000",
      "spoken": "zero",
      "value": 0
    },
    "precip_hourly": null,
    "pressure_tendency": {
      "change": 2.1,
      "repr": "58021",
      "tendency": "Steady or increasing, then decreasing"
    },
    "sea_level_pressure": {
      "repr": "SLP052",
      "spoken": "one zero zero five point two",
      "value": 1005.2
    },
    "snow_depth": null,
    "sunshine_minutes": null,
    "temperature_decimal": {
      "repr": "0083",
      "spoken": "eight point three",
      "value": 8.3
    }
  },
  "runway_visibility": [],
  "sanitized": "KBLI 132053Z 11004KT 10SM SCT042 BKN060 OVC080 08/04 A2966 RMK AO2 RAB09E18 SLP052 P0000 60000 T00830044 58021",
  "station": "KBLI",
  "temperature": {
    "repr": "08",
    "spoken": "eight",
    "value": 8
  },
  "time": {
    "dt": "2024-12-13T20:53:00Z",
    "repr": "132053Z"
  },
  "units": {
    "accumulation": "in",
    "altimeter": "inHg",
    "altitude": "ft",
    "temperature": "C",
    "visibility": "sm",
    "wind_speed": "kt"
  },
  "visibility": {
    "repr": "10",
    "spoken": "one zero",
    "value": 10
  },
  "wind_direction": {
    "repr": "110",
    "spoken": "one one zero",
    "value": 110
  },
  "wind_gust": null,
  "wind_speed": {
    "repr": "04",
    "spoken": "four",
    "value": 4
  },
  "wind_variable_direction": [],
  "wx_codes": []
}
