{
  "meta": {
    "timestamp": "2023-05-27T13:03:51.617380Z",
    "stations_updated": "2023-03-11",
    "cache-timestamp": "2023-05-27T13:02:51.900000Z"
  },
  "altimeter": {
    "repr": "A2991",
    "value": 29.91,
    "spoken": "two nine point nine one"
  },
  "clouds": [],
  "flight_rules": "VFR",
  "other": [],
  "visibility": {
    "repr": "10",
    "value": 10,
    "spoken": "one zero"
  },
  "wind_direction": {
    "repr": "190",
    "value": 190,
    "spoken": "one nine zero"
  },
  "wind_gust": null,
  "wind_speed": {
    "repr": "08",
    "value": 8,
    "spoken": "eight"
  },
  "wx_codes": [],
  "raw": "KBLI 271153Z AUTO 19008KT 10SM CLR 13/12 A2991 RMK AO2 SLP133 T01280117 10161 20122 51012",
  "sanitized": "KBLI 271153Z 19008KT 10SM 13/12 A2991 RMK AO2 SLP133 T01280117 10161 20122 51012",
  "station": "KBLI",
  "time": {
    "repr": "271153Z",
    "dt": "2023-05-27T11:53:00Z"
  },
  "remarks": "RMK AO2 SLP133 T01280117 10161 20122 51012",
  "dewpoint": {
    "repr": "12",
    "value": 12,
    "spoken": "one two"
  },
  "relative_humidity": 0.9301959082873248,
  "remarks_info": {
    "maximum_temperature_6": {
      "repr": "10161",
      "value": 16.1,
      "spoken": "one six point one"
    },
    "minimum_temperature_6": {
      "repr": "20122",
      "value": 12.2,
      "spoken": "one two point two"
    },
    "pressure_tendency": {
      "repr": "51012",
      "tendency": "Increasing, then steady",
      "change": 1.2
    },
    "precip_36_hours": null,
    "precip_24_hours": null,
    "sunshine_minutes": null,
    "codes": [
      {
        "repr": "AO2",
        "value": "Automated with precipitation sensor"
      }
    ],
    "dewpoint_decimal": {
      "repr": "0117",
      "value": 11.7,
      "spoken": "one one point seven"
    },
    "maximum_temperature_24": null,
    "minimum_temperature_24": null,
    "precip_hourly": null,
    "sea_level_pressure": {
      "repr": "SLP133",
      "value": 1013.3,
      "spoken": "one zero one three point three"
    },
    "snow_depth": null,
    "temperature_decimal": {
      "repr": "0128",
      "value": 12.8,
      "spoken": "one two point eight"
    }
  },
  "runway_visibility": [],
  "temperature": {
    "repr": "13",
    "value": 13,
    "spoken": "one three"
  },
  "wind_variable_direction": [],
  "density_altitude": -43,
  "pressure_altitude": 180,
  "units": {
    "accumulation": "in",
    "altimeter": "inHg",
    "altitude": "ft",
    "temperature": "C",
    "visibility": "sm",
    "wind_speed": "kt"
  }
}
