{
  "meta": {
    "timestamp": "2022-12-10T16:48:59.709608Z",
    "stations_updated": "2022-09-05"
  },
  "altimeter": {
    "repr": "A2929",
    "value": 29.29,
    "spoken": "two nine point two nine"
  },
  "clouds": [
    {
      "repr": "SCT038",
      "type": "SCT",
      "altitude": 38,
      "modifier": null
    },
    {
      "repr": "OVC050",
      "type": "OVC",
      "altitude": 50,
      "modifier": null
    }
  ],
  "flight_rules": "VFR",
  "other": [],
  "visibility": {
    "repr": "10",
    "value": 10,
    "spoken": "one zero"
  },
  "wind_direction": {
    "repr": "140",
    "value": 140,
    "spoken": "one four zero"
  },
  "wind_gust": {
    "repr": "25",
    "value": 25,
    "spoken": "two five"
  },
  "wind_speed": {
    "repr": "11",
    "value": 11,
    "spoken": "one one"
  },
  "wx_codes": [
    {
      "repr": "-RA",
      "value": "Light Rain"
    }
  ],
  "raw": "KBLI 101553Z 14011G25KT 10SM -RA SCT038 OVC050 09/04 A2929 RMK AO2 PK WND 13030/1531 RAB35 SLP925 P0000 T00890044",
  "sanitized": "KBLI 101553Z 14011G25KT 10SM -RA SCT038 OVC050 09/04 A2929 RMK AO2 PK WND 13030/1531 RAB35 SLP925 P0000 T00890044",
  "station": "KBLI",
  "time": {
    "repr": "101553Z",
    "dt": "2022-12-10T15:53:00Z"
  },
  "remarks": "RMK AO2 PK WND 13030/1531 RAB35 SLP925 P0000 T00890044",
  "dewpoint": {
    "repr": "04",
    "value": 4,
    "spoken": "four"
  },
  "relative_humidity": 0.7338548215781783,
  "remarks_info": {
    "maximum_temperature_6": null,
    "minimum_temperature_6": null,
    "pressure_tendency": null,
    "precip_36_hours": null,
    "precip_24_hours": null,
    "sunshine_minutes": null,
    "codes": [
      {
        "repr": "AO2",
        "value": "Automated with precipitation sensor"
      },
      {
        "repr": "P0000",
        "value": "Trace amount of rain in the last hour"
      },
      {
        "repr": "RAB35",
        "value": "Rain began at :35"
      }
    ],
    "dewpoint_decimal": {
      "repr": "0044",
      "value": 4.4,
      "spoken": "four point four"
    },
    "maximum_temperature_24": null,
    "minimum_temperature_24": null,
    "precip_hourly": null,
    "sea_level_pressure": {
      "repr": "SLP925",
      "value": 992.5,
      "spoken": "nine nine two point five"
    },
    "snow_depth": null,
    "temperature_decimal": {
      "repr": "0089",
      "value": 8.9,
      "spoken": "eight point nine"
    }
  },
  "runway_visibility": [],
  "temperature": {
    "repr": "09",
    "value": 9,
    "spoken": "nine"
  },
  "wind_variable_direction": [],
  "density_altitude": 109,
  "pressure_altitude": 800,
  "units": {
    "accumulation": "in",
    "altimeter": "inHg",
    "altitude": "ft",
    "temperature": "C",
    "visibility": "sm",
    "wind_speed": "kt"
  }
}
