{
  "meta": {
    "timestamp": "2022-12-05T12:09:10.019551Z",
    "stations_updated": "2022-09-05"
  },
  "altimeter": {
    "repr": "A3004",
    "value": 30.04,
    "spoken": "three zero point zero four"
  },
  "clouds": [
    {
      "repr": "SCT029",
      "type": "SCT",
      "altitude": 29,
      "modifier": null
    }
  ],
  "flight_rules": "VFR",
  "other": [],
  "visibility": {
    "repr": "10",
    "value": 10,
    "spoken": "one zero"
  },
  "wind_direction": {
    "repr": "350",
    "value": 350,
    "spoken": "three five zero"
  },
  "wind_gust": null,
  "wind_speed": {
    "repr": "03",
    "value": 3,
    "spoken": "three"
  },
  "wx_codes": [],
  "raw": "KBLI 051153Z AUTO 35003KT 10SM SCT029 M04/M07 A3004 RMK AO2 SLP182 T10441067 11033 21061 51000 $",
  "sanitized": "KBLI 051153Z 35003KT 10SM SCT029 M04/M07 A3004 RMK AO2 SLP182 T10441067 11033 21061 51000 $",
  "station": "KBLI",
  "time": {
    "repr": "051153Z",
    "dt": "2022-12-05T11:53:00Z"
  },
  "remarks": "RMK AO2 SLP182 T10441067 11033 21061 51000 $",
  "dewpoint": {
    "repr": "M07",
    "value": -7,
    "spoken": "minus seven"
  },
  "relative_humidity": 0.8396382269622233,
  "remarks_info": {
    "maximum_temperature_6": {
      "repr": "11033",
      "value": -3.3,
      "spoken": "minus three point three"
    },
    "minimum_temperature_6": {
      "repr": "21061",
      "value": -6.1,
      "spoken": "minus six point one"
    },
    "pressure_tendency": {
      "repr": "51000",
      "tendency": "Increasing, then steady",
      "change": 0
    },
    "precip_36_hours": null,
    "precip_24_hours": null,
    "sunshine_minutes": null,
    "codes": [
      {
        "repr": "$",
        "value": "ASOS requires maintenance"
      },
      {
        "repr": "AO2",
        "value": "Automated with precipitation sensor"
      }
    ],
    "dewpoint_decimal": {
      "repr": "1067",
      "value": -6.7,
      "spoken": "minus six point seven"
    },
    "maximum_temperature_24": null,
    "minimum_temperature_24": null,
    "precip_hourly": null,
    "sea_level_pressure": {
      "repr": "SLP182",
      "value": 1018.2,
      "spoken": "one zero one eight point two"
    },
    "snow_depth": null,
    "temperature_decimal": {
      "repr": "1044",
      "value": -4.4,
      "spoken": "minus four point four"
    }
  },
  "runway_visibility": [],
  "temperature": {
    "repr": "M04",
    "value": -4,
    "spoken": "minus four"
  },
  "wind_variable_direction": [],
  "density_altitude": -2237,
  "pressure_altitude": 50,
  "units": {
    "accumulation": "in",
    "altimeter": "inHg",
    "altitude": "ft",
    "temperature": "C",
    "visibility": "sm",
    "wind_speed": "kt"
  }
}
