{
  "altimeter": {
    "repr": "A2964",
    "spoken": "two nine point six four",
    "value": 29.64
  },
  "clouds": [],
  "density_altitude": -181,
  "dewpoint": {
    "repr": "06",
    "spoken": "six",
    "value": 6
  },
  "flight_rules": "VFR",
  "meta": {
    "stations_updated": "2024-12-02",
    "timestamp": "2024-12-27T00:35:59.762895Z"
  },
  "other": [],
  "pressure_altitude": 450,
  "raw": "KBLI 262353Z 19004KT 10SM CLR 09/06 A2964 RMK AO2 SLP045 60007 T00940056 10094 20061 51022",
  "relative_humidity": 0.7714099217957385,
  "remarks": "RMK AO2 SLP045 60007 T00940056 10094 20061 51022",
  "remarks_info": {
    "codes": [
      {
        "repr": "AO2",
        "value": "Automated with precipitation sensor"
      }
    ],
    "dewpoint_decimal": {
      "repr": "0056",
      "spoken": "five point six",
      "value": 5.6
    },
    "maximum_temperature_24": null,
    "maximum_temperature_6": {
      "repr": "10094",
      "spoken": "nine point four",
      "value": 9.4
    },
    "minimum_temperature_24": null,
    "minimum_temperature_6": {
      "repr": "20061",
      "spoken": "six point one",
      "value": 6.1
    },
    "precip_24_hours": null,
    "precip_36_hours": {
      "repr": "60007",
      "spoken": "zero point zero seven",
      "value": 0.07
    },
    "precip_hourly": null,
    "pressure_tendency": {
      "change": 2.2,
      "repr": "51022",
      "tendency": "Increasing, then steady"
    },
    "sea_level_pressure": {
      "repr": "SLP045",
      "spoken": "one zero zero four point five",
      "value": 1004.5
    },
    "snow_depth": null,
    "sunshine_minutes": null,
    "temperature_decimal": {
      "repr": "0094",
      "spoken": "nine point four",
      "value": 9.4
    }
  },
  "runway_visibility": [],
  "sanitized": "KBLI 262353Z 19004KT 10SM 09/06 A2964 RMK AO2 SLP045 60007 T00940056 10094 20061 51022",
  "station": "KBLI",
  "temperature": {
    "repr": "09",
    "spoken": "nine",
    "value": 9
  },
  "time": {
    "dt": "2024-12-26T23:53:00Z",
    "repr": "262353Z"
  },
  "units": {
    "accumulation": "in",
    "altimeter": "inHg",
    "altitude": "ft",
    "temperature": "C",
    "visibility": "sm",
    "wind_speed": "kt"
  },
  "visibility": {
    "repr": "10",
    "spoken": "one zero",
    "value": 10
  },
  "wind_direction": {
    "repr": "190",
    "spoken": "one nine zero",
    "value": 190
  },
  "wind_gust": null,
  "wind_speed": {
    "repr": "04",
    "spoken": "four",
    "value": 4
  },
  "wind_variable_direction": [],
  "wx_codes": []
}
