{
  "meta": {
    "timestamp": "2023-05-21T10:40:53.287458Z",
    "stations_updated": "2023-03-11",
    "cache-timestamp": "2023-05-21T10:40:04.147000Z"
  },
  "altimeter": {
    "repr": "A3010",
    "value": 30.1,
    "spoken": "three zero point one zero"
  },
  "clouds": [
    {
      "repr": "OVC075",
      "type": "OVC",
      "altitude": 75,
      "modifier": null
    }
  ],
  "flight_rules": "VFR",
  "other": [],
  "visibility": {
    "repr": "10",
    "value": 10,
    "spoken": "one zero"
  },
  "wind_direction": {
    "repr": "180",
    "value": 180,
    "spoken": "one eight zero"
  },
  "wind_gust": null,
  "wind_speed": {
    "repr": "08",
    "value": 8,
    "spoken": "eight"
  },
  "wx_codes": [],
  "raw": "KBLI 210953Z AUTO 18008KT 10SM OVC075 13/11 A3010 RMK AO2 SLP199 T01280106",
  "sanitized": "KBLI 210953Z 18008KT 10SM OVC075 13/11 A3010 RMK AO2 SLP199 T01280106",
  "station": "KBLI",
  "time": {
    "repr": "210953Z",
    "dt": "2023-05-21T09:53:00Z"
  },
  "remarks": "RMK AO2 SLP199 T01280106",
  "dewpoint": {
    "repr": "11",
    "value": 11,
    "spoken": "one one"
  },
  "relative_humidity": 0.8647225145629146,
  "remarks_info": {
    "maximum_temperature_6": null,
    "minimum_temperature_6": null,
    "pressure_tendency": null,
    "precip_36_hours": null,
    "precip_24_hours": null,
    "sunshine_minutes": null,
    "codes": [
      {
        "repr": "AO2",
        "value": "Automated with precipitation sensor"
      }
    ],
    "dewpoint_decimal": {
      "repr": "0106",
      "value": 10.6,
      "spoken": "one zero point six"
    },
    "maximum_temperature_24": null,
    "minimum_temperature_24": null,
    "precip_hourly": null,
    "sea_level_pressure": {
      "repr": "SLP199",
      "value": 1019.9,
      "spoken": "one zero one nine point nine"
    },
    "snow_depth": null,
    "temperature_decimal": {
      "repr": "0128",
      "value": 12.8,
      "spoken": "one two point eight"
    }
  },
  "runway_visibility": [],
  "temperature": {
    "repr": "13",
    "value": 13,
    "spoken": "one three"
  },
  "wind_variable_direction": [],
  "density_altitude": -233,
  "pressure_altitude": -10,
  "units": {
    "accumulation": "in",
    "altimeter": "inHg",
    "altitude": "ft",
    "temperature": "C",
    "visibility": "sm",
    "wind_speed": "kt"
  }
}
