{
  "meta": {
    "timestamp": "2022-12-20T06:31:42.827585Z",
    "stations_updated": "2022-09-05"
  },
  "altimeter": {
    "repr": "A3025",
    "value": 30.25,
    "spoken": "three zero point two five"
  },
  "clouds": [
    {
      "repr": "VV011",
      "type": "VV",
      "altitude": 11,
      "modifier": null
    }
  ],
  "flight_rules": "LIFR",
  "other": [],
  "visibility": {
    "repr": "1/2",
    "value": 0.5,
    "spoken": "one half",
    "numerator": 1,
    "denominator": 2,
    "normalized": "1/2"
  },
  "wind_direction": {
    "repr": "040",
    "value": 40,
    "spoken": "zero four zero"
  },
  "wind_gust": {
    "repr": "22",
    "value": 22,
    "spoken": "two two"
  },
  "wind_speed": {
    "repr": "12",
    "value": 12,
    "spoken": "one two"
  },
  "wx_codes": [
    {
      "repr": "SN",
      "value": "Snow"
    },
    {
      "repr": "FZFG",
      "value": "Freezing Fog"
    }
  ],
  "raw": "KBLI 200625Z 04012G22KT 1/2SM R16/4500V6000FT SN FZFG VV011 M09/M09 A3025 RMK AO2 P0000 T10891094",
  "sanitized": "KBLI 200625Z 04012G22KT 1/2SM R16/4500V6000FT SN FZFG VV011 M09/M09 A3025 RMK AO2 P0000 T10891094",
  "station": "KBLI",
  "time": {
    "repr": "200625Z",
    "dt": "2022-12-20T06:25:00Z"
  },
  "remarks": "RMK AO2 P0000 T10891094",
  "dewpoint": {
    "repr": "M09",
    "value": -9,
    "spoken": "minus nine"
  },
  "relative_humidity": 0.9615852717129055,
  "remarks_info": {
    "maximum_temperature_6": null,
    "minimum_temperature_6": null,
    "pressure_tendency": null,
    "precip_36_hours": null,
    "precip_24_hours": null,
    "sunshine_minutes": null,
    "codes": [
      {
        "repr": "AO2",
        "value": "Automated with precipitation sensor"
      },
      {
        "repr": "P0000",
        "value": "Trace amount of rain in the last hour"
      }
    ],
    "dewpoint_decimal": {
      "repr": "1094",
      "value": -9.4,
      "spoken": "minus nine point four"
    },
    "maximum_temperature_24": null,
    "minimum_temperature_24": null,
    "precip_hourly": null,
    "sea_level_pressure": null,
    "snow_depth": null,
    "temperature_decimal": {
      "repr": "1089",
      "value": -8.9,
      "spoken": "minus eight point nine"
    }
  },
  "runway_visibility": [
    {
      "repr": "R16/4500V6000FT",
      "runway": "16",
      "visibility": null,
      "variable_visibility": [
        {
          "repr": "4500",
          "value": 4500,
          "spoken": "four five hundred"
        },
        {
          "repr": "6000",
          "value": 6000,
          "spoken": "six thousand"
        }
      ],
      "trend": null
    }
  ],
  "temperature": {
    "repr": "M09",
    "value": -9,
    "spoken": "minus nine"
  },
  "wind_variable_direction": [],
  "density_altitude": -2987,
  "pressure_altitude": -160,
  "units": {
    "accumulation": "in",
    "altimeter": "inHg",
    "altitude": "ft",
    "temperature": "C",
    "visibility": "sm",
    "wind_speed": "kt"
  }
}
