{
  "meta": {
    "timestamp": "2022-11-03T08:41:09.815115Z",
    "stations_updated": "2022-09-05"
  },
  "altimeter": {
    "repr": "A3017",
    "value": 30.17,
    "spoken": "three zero point one seven"
  },
  "clouds": [],
  "flight_rules": "VFR",
  "other": [],
  "visibility": {
    "repr": "6",
    "value": 6,
    "spoken": "six"
  },
  "wind_direction": {
    "repr": "000",
    "value": 0,
    "spoken": "zero zero zero"
  },
  "wind_gust": null,
  "wind_speed": {
    "repr": "00",
    "value": 0,
    "spoken": "zero"
  },
  "wx_codes": [
    {
      "repr": "BR",
      "value": "Mist"
    }
  ],
  "raw": "KBLI 030753Z AUTO 00000KT 6SM BR CLR 00/00 A3017 RMK AO2 SLP226 T00000000 401000000",
  "sanitized": "KBLI 030753Z 00000KT 6SM BR 00/00 A3017 RMK AO2 SLP226 T00000000 401000000",
  "station": "KBLI",
  "time": {
    "repr": "030753Z",
    "dt": "2022-11-03T07:53:00Z"
  },
  "remarks": "RMK AO2 SLP226 T00000000 401000000",
  "dewpoint": {
    "repr": "00",
    "value": 0,
    "spoken": "zero"
  },
  "relative_humidity": 1,
  "remarks_info": {
    "maximum_temperature_6": null,
    "minimum_temperature_6": null,
    "pressure_tendency": null,
    "precip_36_hours": null,
    "precip_24_hours": null,
    "sunshine_minutes": null,
    "codes": [
      {
        "repr": "AO2",
        "value": "Automated with precipitation sensor"
      }
    ],
    "dewpoint_decimal": {
      "repr": "0000",
      "value": 0,
      "spoken": "zero"
    },
    "maximum_temperature_24": {
      "repr": "0100",
      "value": 10,
      "spoken": "one zero point zero"
    },
    "minimum_temperature_24": {
      "repr": "0000",
      "value": 0,
      "spoken": "zero"
    },
    "precip_hourly": null,
    "sea_level_pressure": {
      "repr": "SLP226",
      "value": 1022.6,
      "spoken": "one zero two two point six"
    },
    "snow_depth": null,
    "temperature_decimal": {
      "repr": "0000",
      "value": 0,
      "spoken": "zero"
    }
  },
  "runway_visibility": [],
  "temperature": {
    "repr": "00",
    "value": 0,
    "spoken": "zero"
  },
  "wind_variable_direction": [],
  "density_altitude": -1839,
  "pressure_altitude": -80,
  "units": {
    "accumulation": "in",
    "altimeter": "inHg",
    "altitude": "ft",
    "temperature": "C",
    "visibility": "sm",
    "wind_speed": "kt"
  }
}
