{
  "meta": {
    "timestamp": "2022-12-01T08:34:37.375064Z",
    "stations_updated": "2022-09-05",
    "cache-timestamp": "2022-12-01T08:34:04.978000Z"
  },
  "altimeter": {
    "repr": "A2957",
    "value": 29.57,
    "spoken": "two nine point five seven"
  },
  "clouds": [],
  "flight_rules": "VFR",
  "other": [],
  "visibility": {
    "repr": "10",
    "value": 10,
    "spoken": "one zero"
  },
  "wind_direction": {
    "repr": "040",
    "value": 40,
    "spoken": "zero four zero"
  },
  "wind_gust": null,
  "wind_speed": {
    "repr": "04",
    "value": 4,
    "spoken": "four"
  },
  "wx_codes": [],
  "raw": "KBLI 010753Z AUTO 04004KT 10SM CLR M03/M03 A2957 RMK AO2 SLP023 T10281033 400561028",
  "sanitized": "KBLI 010753Z 04004KT 10SM M03/M03 A2957 RMK AO2 SLP023 T10281033 400561028",
  "station": "KBLI",
  "time": {
    "repr": "010753Z",
    "dt": "2022-12-01T07:53:00Z"
  },
  "remarks": "RMK AO2 SLP023 T10281033 400561028",
  "dewpoint": {
    "repr": "M03",
    "value": -3,
    "spoken": "minus three"
  },
  "relative_humidity": 0.9634740523958434,
  "remarks_info": {
    "maximum_temperature_6": null,
    "minimum_temperature_6": null,
    "pressure_tendency": null,
    "precip_36_hours": null,
    "precip_24_hours": null,
    "sunshine_minutes": null,
    "codes": [
      {
        "repr": "AO2",
        "value": "Automated with precipitation sensor"
      }
    ],
    "dewpoint_decimal": {
      "repr": "1033",
      "value": -3.3,
      "spoken": "minus three point three"
    },
    "maximum_temperature_24": {
      "repr": "0056",
      "value": 5.6,
      "spoken": "five point six"
    },
    "minimum_temperature_24": {
      "repr": "1028",
      "value": -2.8,
      "spoken": "minus two point eight"
    },
    "precip_hourly": null,
    "sea_level_pressure": {
      "repr": "SLP023",
      "value": 1002.3,
      "spoken": "one zero zero two point three"
    },
    "snow_depth": null,
    "temperature_decimal": {
      "repr": "1028",
      "value": -2.8,
      "spoken": "minus two point eight"
    }
  },
  "runway_visibility": [],
  "temperature": {
    "repr": "M03",
    "value": -3,
    "spoken": "minus three"
  },
  "wind_variable_direction": [],
  "density_altitude": -1575,
  "pressure_altitude": 520,
  "units": {
    "accumulation": "in",
    "altimeter": "inHg",
    "altitude": "ft",
    "temperature": "C",
    "visibility": "sm",
    "wind_speed": "kt"
  }
}
