{
  "meta": {
    "timestamp": "2023-06-26T06:08:51.239759Z",
    "stations_updated": "2023-06-06",
    "cache-timestamp": "2023-06-26T06:08:03.314000Z"
  },
  "altimeter": {
    "repr": "A3002",
    "value": 30.02,
    "spoken": "three zero point zero two"
  },
  "clouds": [],
  "flight_rules": "VFR",
  "other": [],
  "visibility": {
    "repr": "10",
    "value": 10,
    "spoken": "one zero"
  },
  "wind_direction": {
    "repr": "190",
    "value": 190,
    "spoken": "one nine zero"
  },
  "wind_gust": null,
  "wind_speed": {
    "repr": "06",
    "value": 6,
    "spoken": "six"
  },
  "wx_codes": [],
  "raw": "KBLI 260553Z AUTO 19006KT 10SM CLR 14/13 A3002 RMK AO2 SLP172 T01440128 10233 20144 53000",
  "sanitized": "KBLI 260553Z 19006KT 10SM 14/13 A3002 RMK AO2 SLP172 T01440128 10233 20144 53000",
  "station": "KBLI",
  "time": {
    "repr": "260553Z",
    "dt": "2023-06-26T05:53:00Z"
  },
  "remarks": "RMK AO2 SLP172 T01440128 10233 20144 53000",
  "dewpoint": {
    "repr": "13",
    "value": 13,
    "spoken": "one three"
  },
  "relative_humidity": 0.9010909286896165,
  "remarks_info": {
    "maximum_temperature_6": {
      "repr": "10233",
      "value": 23.3,
      "spoken": "two three point three"
    },
    "minimum_temperature_6": {
      "repr": "20144",
      "value": 14.4,
      "spoken": "one four point four"
    },
    "pressure_tendency": {
      "repr": "53000",
      "tendency": "Decreasing or steady, then increasing",
      "change": 0
    },
    "precip_36_hours": null,
    "precip_24_hours": null,
    "sunshine_minutes": null,
    "codes": [
      {
        "repr": "AO2",
        "value": "Automated with precipitation sensor"
      }
    ],
    "dewpoint_decimal": {
      "repr": "0128",
      "value": 12.8,
      "spoken": "one two point eight"
    },
    "maximum_temperature_24": null,
    "minimum_temperature_24": null,
    "precip_hourly": null,
    "sea_level_pressure": {
      "repr": "SLP172",
      "value": 1017.2,
      "spoken": "one zero one seven point two"
    },
    "snow_depth": null,
    "temperature_decimal": {
      "repr": "0144",
      "value": 14.4,
      "spoken": "one four point four"
    }
  },
  "runway_visibility": [],
  "temperature": {
    "repr": "14",
    "value": 14,
    "spoken": "one four"
  },
  "wind_variable_direction": [],
  "density_altitude": 39,
  "pressure_altitude": 70,
  "units": {
    "accumulation": "in",
    "altimeter": "inHg",
    "altitude": "ft",
    "temperature": "C",
    "visibility": "sm",
    "wind_speed": "kt"
  }
}
