{
  "meta": {
    "timestamp": "2022-09-14T08:43:22.236268Z",
    "stations_updated": "2022-09-05"
  },
  "altimeter": {
    "repr": "A2987",
    "value": 29.87,
    "spoken": "two nine point eight seven"
  },
  "clouds": [],
  "flight_rules": "VFR",
  "other": [],
  "visibility": {
    "repr": "9",
    "value": 9,
    "spoken": "nine"
  },
  "wind_direction": {
    "repr": "000",
    "value": 0,
    "spoken": "zero zero zero"
  },
  "wind_gust": null,
  "wind_speed": {
    "repr": "00",
    "value": 0,
    "spoken": "zero"
  },
  "wx_codes": [],
  "raw": "KBLI 140753Z AUTO 00000KT 9SM CLR 14/13 A2987 RMK AO2 SLP119 T01390133 402060106",
  "sanitized": "KBLI 140753Z 00000KT 9SM 14/13 A2987 RMK AO2 SLP119 T01390133 402060106",
  "station": "KBLI",
  "time": {
    "repr": "140753Z",
    "dt": "2022-09-14T07:53:00Z"
  },
  "remarks": "RMK AO2 SLP119 T01390133 402060106",
  "dewpoint": {
    "repr": "13",
    "value": 13,
    "spoken": "one three"
  },
  "relative_humidity": 0.9616972468637218,
  "remarks_info": {
    "maximum_temperature_6": null,
    "minimum_temperature_6": null,
    "pressure_tendency": null,
    "precip_36_hours": null,
    "precip_24_hours": null,
    "sunshine_minutes": null,
    "codes": [
      {
        "repr": "AO2",
        "value": "Automated with precipitation sensor"
      }
    ],
    "dewpoint_decimal": {
      "repr": "0133",
      "value": 13.3,
      "spoken": "one three point three"
    },
    "maximum_temperature_24": {
      "repr": "0206",
      "value": 20.6,
      "spoken": "two zero point six"
    },
    "minimum_temperature_24": {
      "repr": "0106",
      "value": 10.6,
      "spoken": "one zero point six"
    },
    "precip_hourly": null,
    "sea_level_pressure": {
      "repr": "SLP119",
      "value": 1011.9,
      "spoken": "one zero one one point nine"
    },
    "snow_depth": null,
    "temperature_decimal": {
      "repr": "0139",
      "value": 13.9,
      "spoken": "one three point nine"
    }
  },
  "runway_visibility": [],
  "temperature": {
    "repr": "14",
    "value": 14,
    "spoken": "one four"
  },
  "wind_variable_direction": [],
  "density_altitude": 129,
  "pressure_altitude": 220,
  "units": {
    "accumulation": "in",
    "altimeter": "inHg",
    "altitude": "ft",
    "temperature": "C",
    "visibility": "sm",
    "wind_speed": "kt"
  }
}
