{
  "altimeter": {
    "repr": "A3011",
    "spoken": "three zero point one one",
    "value": 30.11
  },
  "clouds": [],
  "density_altitude": 225,
  "dewpoint": {
    "repr": "13",
    "spoken": "one three",
    "value": 13
  },
  "flight_rules": "VFR",
  "meta": {
    "stations_updated": "2024-06-12",
    "timestamp": "2024-07-19T09:26:07.451857Z"
  },
  "other": [],
  "pressure_altitude": -20,
  "raw": "KBLI 190853Z AUTO 18004KT 10SM CLR 17/13 A3011 RMK AO2 SLP199 T01670133 51013",
  "relative_humidity": 0.8033751811322976,
  "remarks": "RMK AO2 SLP199 T01670133 51013",
  "remarks_info": {
    "codes": [
      {
        "repr": "AO2",
        "value": "Automated with precipitation sensor"
      }
    ],
    "dewpoint_decimal": {
      "repr": "0133",
      "spoken": "one three point three",
      "value": 13.3
    },
    "maximum_temperature_24": null,
    "maximum_temperature_6": null,
    "minimum_temperature_24": null,
    "minimum_temperature_6": null,
    "precip_24_hours": null,
    "precip_36_hours": null,
    "precip_hourly": null,
    "pressure_tendency": {
      "change": 1.3,
      "repr": "51013",
      "tendency": "Increasing, then steady"
    },
    "sea_level_pressure": {
      "repr": "SLP199",
      "spoken": "one zero one nine point nine",
      "value": 1019.9
    },
    "snow_depth": null,
    "sunshine_minutes": null,
    "temperature_decimal": {
      "repr": "0167",
      "spoken": "one six point seven",
      "value": 16.7
    }
  },
  "runway_visibility": [],
  "sanitized": "KBLI 190853Z 18004KT 10SM 17/13 A3011 RMK AO2 SLP199 T01670133 51013",
  "station": "KBLI",
  "temperature": {
    "repr": "17",
    "spoken": "one seven",
    "value": 17
  },
  "time": {
    "dt": "2024-07-19T08:53:00Z",
    "repr": "190853Z"
  },
  "units": {
    "accumulation": "in",
    "altimeter": "inHg",
    "altitude": "ft",
    "temperature": "C",
    "visibility": "sm",
    "wind_speed": "kt"
  },
  "visibility": {
    "repr": "10",
    "spoken": "one zero",
    "value": 10
  },
  "wind_direction": {
    "repr": "180",
    "spoken": "one eight zero",
    "value": 180
  },
  "wind_gust": null,
  "wind_speed": {
    "repr": "04",
    "spoken": "four",
    "value": 4
  },
  "wind_variable_direction": [],
  "wx_codes": []
}
