{
  "meta": {
    "timestamp": "2023-02-22T18:44:25.517758Z",
    "stations_updated": "2023-01-30",
    "cache-timestamp": "2023-02-22T18:44:07.007000Z"
  },
  "altimeter": {
    "repr": "A2965",
    "value": 29.65,
    "spoken": "two nine point six five"
  },
  "clouds": [
    {
      "repr": "OVC050",
      "type": "OVC",
      "altitude": 50,
      "modifier": null
    }
  ],
  "flight_rules": "VFR",
  "other": [],
  "visibility": {
    "repr": "10",
    "value": 10,
    "spoken": "one zero"
  },
  "wind_direction": {
    "repr": "030",
    "value": 30,
    "spoken": "zero three zero"
  },
  "wind_gust": {
    "repr": "38",
    "value": 38,
    "spoken": "three eight"
  },
  "wind_speed": {
    "repr": "23",
    "value": 23,
    "spoken": "two three"
  },
  "wx_codes": [],
  "raw": "KBLI 221753Z 03023G38KT 10SM OVC050 M02/M12 A2965 RMK AO2 PK WND 03041/1736 SLP050 T10221122 11022 21022 53011",
  "sanitized": "KBLI 221753Z 03023G38KT 10SM OVC050 M02/M12 A2965 RMK AO2 PK WND 03041/1736 SLP050 T10221122 11022 21022 53011",
  "station": "KBLI",
  "time": {
    "repr": "221753Z",
    "dt": "2023-02-22T17:53:00Z"
  },
  "remarks": "RMK AO2 PK WND 03041/1736 SLP050 T10221122 11022 21022 53011",
  "dewpoint": {
    "repr": "M12",
    "value": -12,
    "spoken": "minus one two"
  },
  "relative_humidity": 0.46259283681225344,
  "remarks_info": {
    "maximum_temperature_6": {
      "repr": "11022",
      "value": -2.2,
      "spoken": "minus two point two"
    },
    "minimum_temperature_6": {
      "repr": "21022",
      "value": -2.2,
      "spoken": "minus two point two"
    },
    "pressure_tendency": {
      "repr": "53011",
      "tendency": "Decreasing or steady, then increasing",
      "change": 1.1
    },
    "precip_36_hours": null,
    "precip_24_hours": null,
    "sunshine_minutes": null,
    "codes": [
      {
        "repr": "AO2",
        "value": "Automated with precipitation sensor"
      }
    ],
    "dewpoint_decimal": {
      "repr": "1122",
      "value": -12.2,
      "spoken": "minus one two point two"
    },
    "maximum_temperature_24": null,
    "minimum_temperature_24": null,
    "precip_hourly": null,
    "sea_level_pressure": {
      "repr": "SLP050",
      "value": 1005,
      "spoken": "one zero zero five point zero"
    },
    "snow_depth": null,
    "temperature_decimal": {
      "repr": "1022",
      "value": -2.2,
      "spoken": "minus two point two"
    }
  },
  "runway_visibility": [],
  "temperature": {
    "repr": "M02",
    "value": -2,
    "spoken": "minus two"
  },
  "wind_variable_direction": [],
  "density_altitude": -1583,
  "pressure_altitude": 440,
  "units": {
    "accumulation": "in",
    "altimeter": "inHg",
    "altitude": "ft",
    "temperature": "C",
    "visibility": "sm",
    "wind_speed": "kt"
  }
}
