{
  "meta": {
    "timestamp": "2022-11-29T12:09:45.800177Z",
    "stations_updated": "2022-09-05"
  },
  "altimeter": {
    "repr": "A3005",
    "value": 30.05,
    "spoken": "three zero point zero five"
  },
  "clouds": [
    {
      "repr": "BKN029",
      "type": "BKN",
      "altitude": 29,
      "modifier": null
    }
  ],
  "flight_rules": "MVFR",
  "other": [],
  "visibility": {
    "repr": "10",
    "value": 10,
    "spoken": "one zero"
  },
  "wind_direction": {
    "repr": "040",
    "value": 40,
    "spoken": "zero four zero"
  },
  "wind_gust": null,
  "wind_speed": {
    "repr": "05",
    "value": 5,
    "spoken": "five"
  },
  "wx_codes": [],
  "raw": "KBLI 291153Z AUTO 04005KT 10SM BKN029 M03/M10 A3005 RMK AO2 SLP188 T10331100 11022 21044 51007",
  "sanitized": "KBLI 291153Z 04005KT 10SM BKN029 M03/M10 A3005 RMK AO2 SLP188 T10331100 11022 21044 51007",
  "station": "KBLI",
  "time": {
    "repr": "291153Z",
    "dt": "2022-11-29T11:53:00Z"
  },
  "remarks": "RMK AO2 SLP188 T10331100 11022 21044 51007",
  "dewpoint": {
    "repr": "M10",
    "value": -10,
    "spoken": "minus one zero"
  },
  "relative_humidity": 0.5981073762646053,
  "remarks_info": {
    "maximum_temperature_6": {
      "repr": "11022",
      "value": -2.2,
      "spoken": "minus two point two"
    },
    "minimum_temperature_6": {
      "repr": "21044",
      "value": -4.4,
      "spoken": "minus four point four"
    },
    "pressure_tendency": {
      "repr": "51007",
      "tendency": "Increasing, then steady",
      "change": 0.7
    },
    "precip_36_hours": null,
    "precip_24_hours": null,
    "sunshine_minutes": null,
    "codes": [
      {
        "repr": "AO2",
        "value": "Automated with precipitation sensor"
      }
    ],
    "dewpoint_decimal": {
      "repr": "1100",
      "value": -10,
      "spoken": "minus one zero point zero"
    },
    "maximum_temperature_24": null,
    "minimum_temperature_24": null,
    "precip_hourly": null,
    "sea_level_pressure": {
      "repr": "SLP188",
      "value": 1018.8,
      "spoken": "one zero one eight point eight"
    },
    "snow_depth": null,
    "temperature_decimal": {
      "repr": "1033",
      "value": -3.3,
      "spoken": "minus three point three"
    }
  },
  "runway_visibility": [],
  "temperature": {
    "repr": "M03",
    "value": -3,
    "spoken": "minus three"
  },
  "wind_variable_direction": [],
  "density_altitude": -2115,
  "pressure_altitude": 40,
  "units": {
    "accumulation": "in",
    "altimeter": "inHg",
    "altitude": "ft",
    "temperature": "C",
    "visibility": "sm",
    "wind_speed": "kt"
  }
}
