{
  "altimeter": {
    "repr": "A2981",
    "spoken": "two nine point eight one",
    "value": 29.81
  },
  "clouds": [
    {
      "altitude": 16,
      "modifier": null,
      "repr": "FEW016",
      "type": "FEW"
    },
    {
      "altitude": 55,
      "modifier": null,
      "repr": "BKN055",
      "type": "BKN"
    },
    {
      "altitude": 85,
      "modifier": null,
      "repr": "OVC085",
      "type": "OVC"
    }
  ],
  "density_altitude": -279,
  "dewpoint": {
    "repr": "08",
    "spoken": "eight",
    "value": 8
  },
  "flight_rules": "VFR",
  "meta": {
    "stations_updated": "2024-06-12",
    "timestamp": "2024-10-28T06:49:24.544453Z"
  },
  "other": [],
  "pressure_altitude": 280,
  "raw": "KBLI 280642Z AUTO 18010G22KT 10SM -RA FEW016 BKN055 OVC085 10/08 A2981 RMK AO2 PK WND 15026/0616 RAB0558E14B32 P0001 T01000083",
  "relative_humidity": 0.8917307313199454,
  "remarks": "RMK AO2 PK WND 15026/0616 RAB0558E14B32 P0001 T01000083",
  "remarks_info": {
    "codes": [
      {
        "repr": "AO2",
        "value": "Automated with precipitation sensor"
      }
    ],
    "dewpoint_decimal": {
      "repr": "0083",
      "spoken": "eight point three",
      "value": 8.3
    },
    "maximum_temperature_24": null,
    "maximum_temperature_6": null,
    "minimum_temperature_24": null,
    "minimum_temperature_6": null,
    "precip_24_hours": null,
    "precip_36_hours": null,
    "precip_hourly": {
      "repr": "P0001",
      "spoken": "zero point zero one",
      "value": 0.01
    },
    "pressure_tendency": null,
    "sea_level_pressure": null,
    "snow_depth": null,
    "sunshine_minutes": null,
    "temperature_decimal": {
      "repr": "0100",
      "spoken": "one zero point zero",
      "value": 10
    }
  },
  "runway_visibility": [],
  "sanitized": "KBLI 280642Z 18010G22KT 10SM -RA FEW016 BKN055 OVC085 10/08 A2981 RMK AO2 PK WND 15026/0616 RAB0558E14B32 P0001 T01000083",
  "station": "KBLI",
  "temperature": {
    "repr": "10",
    "spoken": "one zero",
    "value": 10
  },
  "time": {
    "dt": "2024-10-28T06:42:00Z",
    "repr": "280642Z"
  },
  "units": {
    "accumulation": "in",
    "altimeter": "inHg",
    "altitude": "ft",
    "temperature": "C",
    "visibility": "sm",
    "wind_speed": "kt"
  },
  "visibility": {
    "repr": "10",
    "spoken": "one zero",
    "value": 10
  },
  "wind_direction": {
    "repr": "180",
    "spoken": "one eight zero",
    "value": 180
  },
  "wind_gust": {
    "repr": "22",
    "spoken": "two two",
    "value": 22
  },
  "wind_speed": {
    "repr": "10",
    "spoken": "one zero",
    "value": 10
  },
  "wind_variable_direction": [],
  "wx_codes": [
    {
      "repr": "-RA",
      "value": "Light Rain"
    }
  ]
}
