{
  "altimeter": {
    "repr": "A3003",
    "spoken": "three zero point zero three",
    "value": 30.03
  },
  "clouds": [
    {
      "altitude": 6,
      "modifier": null,
      "repr": "BKN006",
      "type": "BKN"
    },
    {
      "altitude": 43,
      "modifier": null,
      "repr": "OVC043",
      "type": "OVC"
    }
  ],
  "density_altitude": -1771,
  "dewpoint": {
    "repr": "M01",
    "spoken": "minus one",
    "value": -1
  },
  "flight_rules": "LIFR",
  "meta": {
    "cache-timestamp": "2024-01-07T16:28:03.059000Z",
    "stations_updated": "2023-10-28",
    "timestamp": "2024-01-07T16:29:01.741925Z"
  },
  "other": [],
  "pressure_altitude": 60,
  "raw": "KBLI 071605Z 36003KT 1/2SM R16/2800V3500FT FZFG BKN006 OVC043 M01/M01 A3003 RMK AO2 T10061006",
  "relative_humidity": 1,
  "remarks": "RMK AO2 T10061006",
  "remarks_info": {
    "codes": [
      {
        "repr": "AO2",
        "value": "Automated with precipitation sensor"
      }
    ],
    "dewpoint_decimal": {
      "repr": "1006",
      "spoken": "minus zero point six",
      "value": -0.6
    },
    "maximum_temperature_24": null,
    "maximum_temperature_6": null,
    "minimum_temperature_24": null,
    "minimum_temperature_6": null,
    "precip_24_hours": null,
    "precip_36_hours": null,
    "precip_hourly": null,
    "pressure_tendency": null,
    "sea_level_pressure": null,
    "snow_depth": null,
    "sunshine_minutes": null,
    "temperature_decimal": {
      "repr": "1006",
      "spoken": "minus zero point six",
      "value": -0.6
    }
  },
  "runway_visibility": [
    {
      "repr": "R16/2800V3500FT",
      "runway": "16",
      "trend": null,
      "variable_visibility": [
        {
          "repr": "2800",
          "spoken": "two eight hundred",
          "value": 2800
        },
        {
          "repr": "3500",
          "spoken": "three five hundred",
          "value": 3500
        }
      ],
      "visibility": null
    }
  ],
  "sanitized": "KBLI 071605Z 36003KT 1/2SM R16/2800V3500FT FZFG BKN006 OVC043 M01/M01 A3003 RMK AO2 T10061006",
  "station": "KBLI",
  "temperature": {
    "repr": "M01",
    "spoken": "minus one",
    "value": -1
  },
  "time": {
    "dt": "2024-01-07T16:05:00Z",
    "repr": "071605Z"
  },
  "units": {
    "accumulation": "in",
    "altimeter": "inHg",
    "altitude": "ft",
    "temperature": "C",
    "visibility": "sm",
    "wind_speed": "kt"
  },
  "visibility": {
    "denominator": 2,
    "normalized": "1/2",
    "numerator": 1,
    "repr": "1/2",
    "spoken": "one half",
    "value": 0.5
  },
  "wind_direction": {
    "repr": "360",
    "spoken": "three six zero",
    "value": 360
  },
  "wind_gust": null,
  "wind_speed": {
    "repr": "03",
    "spoken": "three",
    "value": 3
  },
  "wind_variable_direction": [],
  "wx_codes": [
    {
      "repr": "FZFG",
      "value": "Freezing Fog"
    }
  ]
}
