{
  "meta": {
    "timestamp": "2023-02-23T18:07:04.399855Z",
    "stations_updated": "2023-01-30",
    "cache-timestamp": "2023-02-23T18:06:07.620000Z"
  },
  "altimeter": {
    "repr": "A2982",
    "value": 29.82,
    "spoken": "two nine point eight two"
  },
  "clouds": [],
  "flight_rules": "VFR",
  "other": [],
  "visibility": {
    "repr": "10",
    "value": 10,
    "spoken": "one zero"
  },
  "wind_direction": {
    "repr": "040",
    "value": 40,
    "spoken": "zero four zero"
  },
  "wind_gust": {
    "repr": "37",
    "value": 37,
    "spoken": "three seven"
  },
  "wind_speed": {
    "repr": "25",
    "value": 25,
    "spoken": "two five"
  },
  "wx_codes": [],
  "raw": "KBLI 231753Z 04025G37KT 10SM CLR M04/M17 A2982 RMK AO2 PK WND 04041/1709 SLP110 T10391167 11039 21056 53021",
  "sanitized": "KBLI 231753Z 04025G37KT 10SM M04/M17 A2982 RMK AO2 PK WND 04041/1709 SLP110 T10391167 11039 21056 53021",
  "station": "KBLI",
  "time": {
    "repr": "231753Z",
    "dt": "2023-02-23T17:53:00Z"
  },
  "remarks": "RMK AO2 PK WND 04041/1709 SLP110 T10391167 11039 21056 53021",
  "dewpoint": {
    "repr": "M17",
    "value": -17,
    "spoken": "minus one seven"
  },
  "relative_humidity": 0.36295332938797026,
  "remarks_info": {
    "maximum_temperature_6": {
      "repr": "11039",
      "value": -3.9,
      "spoken": "minus three point nine"
    },
    "minimum_temperature_6": {
      "repr": "21056",
      "value": -5.6,
      "spoken": "minus five point six"
    },
    "pressure_tendency": {
      "repr": "53021",
      "tendency": "Decreasing or steady, then increasing",
      "change": 2.1
    },
    "precip_36_hours": null,
    "precip_24_hours": null,
    "sunshine_minutes": null,
    "codes": [
      {
        "repr": "AO2",
        "value": "Automated with precipitation sensor"
      }
    ],
    "dewpoint_decimal": {
      "repr": "1167",
      "value": -16.7,
      "spoken": "minus one six point seven"
    },
    "maximum_temperature_24": null,
    "minimum_temperature_24": null,
    "precip_hourly": null,
    "sea_level_pressure": {
      "repr": "SLP110",
      "value": 1011,
      "spoken": "one zero one one point zero"
    },
    "snow_depth": null,
    "temperature_decimal": {
      "repr": "1039",
      "value": -3.9,
      "spoken": "minus three point nine"
    }
  },
  "runway_visibility": [],
  "temperature": {
    "repr": "M04",
    "value": -4,
    "spoken": "minus four"
  },
  "wind_variable_direction": [],
  "density_altitude": -1957,
  "pressure_altitude": 270,
  "units": {
    "accumulation": "in",
    "altimeter": "inHg",
    "altitude": "ft",
    "temperature": "C",
    "visibility": "sm",
    "wind_speed": "kt"
  }
}
