{
  "altimeter": {
    "repr": "A2996",
    "spoken": "two nine point nine six",
    "value": 29.96
  },
  "clouds": [
    {
      "altitude": 6,
      "modifier": null,
      "repr": "FEW006",
      "type": "FEW"
    },
    {
      "altitude": 18,
      "modifier": null,
      "repr": "BKN018",
      "type": "BKN"
    },
    {
      "altitude": 44,
      "modifier": null,
      "repr": "OVC044",
      "type": "OVC"
    }
  ],
  "density_altitude": 99,
  "dewpoint": {
    "repr": "14",
    "spoken": "one four",
    "value": 14
  },
  "flight_rules": "MVFR",
  "meta": {
    "stations_updated": "2024-06-12",
    "timestamp": "2024-10-08T22:31:14.337067Z"
  },
  "other": [],
  "pressure_altitude": 130,
  "raw": "KBLI 082217Z 33004KT 10SM FEW006 BKN018 OVC044 14/14 A2996 RMK AO2 RAE02 P0000 T01440139",
  "relative_humidity": 0.968111988465146,
  "remarks": "RMK AO2 RAE02 P0000 T01440139",
  "remarks_info": {
    "codes": [
      {
        "repr": "AO2",
        "value": "Automated with precipitation sensor"
      },
      {
        "repr": "P0000",
        "value": "Trace amount of rain in the last hour"
      },
      {
        "repr": "RAE02",
        "value": "Rain ended at :02"
      }
    ],
    "dewpoint_decimal": {
      "repr": "0139",
      "spoken": "one three point nine",
      "value": 13.9
    },
    "maximum_temperature_24": null,
    "maximum_temperature_6": null,
    "minimum_temperature_24": null,
    "minimum_temperature_6": null,
    "precip_24_hours": null,
    "precip_36_hours": null,
    "precip_hourly": null,
    "pressure_tendency": null,
    "sea_level_pressure": null,
    "snow_depth": null,
    "sunshine_minutes": null,
    "temperature_decimal": {
      "repr": "0144",
      "spoken": "one four point four",
      "value": 14.4
    }
  },
  "runway_visibility": [],
  "sanitized": "KBLI 082217Z 33004KT 10SM FEW006 BKN018 OVC044 14/14 A2996 RMK AO2 RAE02 P0000 T01440139",
  "station": "KBLI",
  "temperature": {
    "repr": "14",
    "spoken": "one four",
    "value": 14
  },
  "time": {
    "dt": "2024-10-08T22:17:00Z",
    "repr": "082217Z"
  },
  "units": {
    "accumulation": "in",
    "altimeter": "inHg",
    "altitude": "ft",
    "temperature": "C",
    "visibility": "sm",
    "wind_speed": "kt"
  },
  "visibility": {
    "repr": "10",
    "spoken": "one zero",
    "value": 10
  },
  "wind_direction": {
    "repr": "330",
    "spoken": "three three zero",
    "value": 330
  },
  "wind_gust": null,
  "wind_speed": {
    "repr": "04",
    "spoken": "four",
    "value": 4
  },
  "wind_variable_direction": [],
  "wx_codes": []
}
