{
  "altimeter": {
    "repr": "A2967",
    "spoken": "two nine point six seven",
    "value": 29.67
  },
  "clouds": [
    {
      "altitude": 13,
      "modifier": null,
      "repr": "OVC013",
      "type": "OVC"
    }
  ],
  "density_altitude": -667,
  "dewpoint": {
    "repr": "06",
    "spoken": "six",
    "value": 6
  },
  "flight_rules": "IFR",
  "meta": {
    "stations_updated": "2023-10-28",
    "timestamp": "2024-01-23T04:07:12.438594Z"
  },
  "other": [],
  "pressure_altitude": 420,
  "raw": "KBLI 230353Z 00000KT 1 1/2SM RA BR OVC013 06/06 A2967 RMK AO2 SLP057 P0015 T00560056 $",
  "relative_humidity": 1,
  "remarks": "RMK AO2 SLP057 P0015 T00560056 $",
  "remarks_info": {
    "codes": [
      {
        "repr": "$",
        "value": "ASOS requires maintenance"
      },
      {
        "repr": "AO2",
        "value": "Automated with precipitation sensor"
      }
    ],
    "dewpoint_decimal": {
      "repr": "0056",
      "spoken": "five point six",
      "value": 5.6
    },
    "maximum_temperature_24": null,
    "maximum_temperature_6": null,
    "minimum_temperature_24": null,
    "minimum_temperature_6": null,
    "precip_24_hours": null,
    "precip_36_hours": null,
    "precip_hourly": {
      "repr": "P0015",
      "spoken": "zero point one five",
      "value": 0.15
    },
    "pressure_tendency": null,
    "sea_level_pressure": {
      "repr": "SLP057",
      "spoken": "one zero zero five point seven",
      "value": 1005.7
    },
    "snow_depth": null,
    "sunshine_minutes": null,
    "temperature_decimal": {
      "repr": "0056",
      "spoken": "five point six",
      "value": 5.6
    }
  },
  "runway_visibility": [],
  "sanitized": "KBLI 230353Z 00000KT 1 1/2SM RA BR OVC013 06/06 A2967 RMK AO2 SLP057 P0015 T00560056 $",
  "station": "KBLI",
  "temperature": {
    "repr": "06",
    "spoken": "six",
    "value": 6
  },
  "time": {
    "dt": "2024-01-23T03:53:00Z",
    "repr": "230353Z"
  },
  "units": {
    "accumulation": "in",
    "altimeter": "inHg",
    "altitude": "ft",
    "temperature": "C",
    "visibility": "sm",
    "wind_speed": "kt"
  },
  "visibility": {
    "denominator": 2,
    "normalized": "1 1/2",
    "numerator": 3,
    "repr": "3/2",
    "spoken": "one and one half",
    "value": 1.5
  },
  "wind_direction": {
    "repr": "000",
    "spoken": "zero zero zero",
    "value": 0
  },
  "wind_gust": null,
  "wind_speed": {
    "repr": "00",
    "spoken": "zero",
    "value": 0
  },
  "wind_variable_direction": [],
  "wx_codes": [
    {
      "repr": "RA",
      "value": "Rain"
    },
    {
      "repr": "BR",
      "value": "Mist"
    }
  ]
}
