{
  "meta": {
    "timestamp": "2023-01-10T22:40:32.553647Z",
    "stations_updated": "2022-12-27",
    "cache-timestamp": "2023-01-10T22:40:06.027000Z"
  },
  "altimeter": {
    "repr": "A2961",
    "value": 29.61,
    "spoken": "two nine point six one"
  },
  "clouds": [],
  "flight_rules": "VFR",
  "other": [],
  "visibility": {
    "repr": "10",
    "value": 10,
    "spoken": "one zero"
  },
  "wind_direction": {
    "repr": "030",
    "value": 30,
    "spoken": "zero three zero"
  },
  "wind_gust": null,
  "wind_speed": {
    "repr": "10",
    "value": 10,
    "spoken": "one zero"
  },
  "wx_codes": [],
  "raw": "KBLI 102153Z 03010KT 10SM CLR 11/05 A2961 RMK AO2 SLP034 T01060050 $",
  "sanitized": "KBLI 102153Z 03010KT 10SM 11/05 A2961 RMK AO2 SLP034 T01060050 $",
  "station": "KBLI",
  "time": {
    "repr": "102153Z",
    "dt": "2023-01-10T21:53:00Z"
  },
  "remarks": "RMK AO2 SLP034 T01060050 $",
  "dewpoint": {
    "repr": "05",
    "value": 5,
    "spoken": "five"
  },
  "relative_humidity": 0.6827776337945851,
  "remarks_info": {
    "maximum_temperature_6": null,
    "minimum_temperature_6": null,
    "pressure_tendency": null,
    "precip_36_hours": null,
    "precip_24_hours": null,
    "sunshine_minutes": null,
    "codes": [
      {
        "repr": "$",
        "value": "ASOS requires maintenance"
      },
      {
        "repr": "AO2",
        "value": "Automated with precipitation sensor"
      }
    ],
    "dewpoint_decimal": {
      "repr": "0050",
      "value": 5,
      "spoken": "five point zero"
    },
    "maximum_temperature_24": null,
    "minimum_temperature_24": null,
    "precip_hourly": null,
    "sea_level_pressure": {
      "repr": "SLP034",
      "value": 1003.4,
      "spoken": "one zero zero three point four"
    },
    "snow_depth": null,
    "temperature_decimal": {
      "repr": "0106",
      "value": 10.6,
      "spoken": "one zero point six"
    }
  },
  "runway_visibility": [],
  "temperature": {
    "repr": "11",
    "value": 11,
    "spoken": "one one"
  },
  "wind_variable_direction": [],
  "density_altitude": -7,
  "pressure_altitude": 480,
  "units": {
    "accumulation": "in",
    "altimeter": "inHg",
    "altitude": "ft",
    "temperature": "C",
    "visibility": "sm",
    "wind_speed": "kt"
  }
}
