{
  "altimeter": {
    "repr": "A3011",
    "spoken": "three zero point one one",
    "value": 30.11
  },
  "clouds": [],
  "density_altitude": -3315,
  "dewpoint": {
    "repr": "M21",
    "spoken": "minus two one",
    "value": -21
  },
  "flight_rules": "VFR",
  "meta": {
    "cache-timestamp": "2024-01-13T15:40:05.698000Z",
    "stations_updated": "2023-10-28",
    "timestamp": "2024-01-13T15:40:42.926261Z"
  },
  "other": [],
  "pressure_altitude": -20,
  "raw": "KBLI 131453Z 02007KT 10SM CLR M13/M21 A3011 RMK AO2 SLP210 T11281211 56030",
  "relative_humidity": 0.4985580521611392,
  "remarks": "RMK AO2 SLP210 T11281211 56030",
  "remarks_info": {
    "codes": [
      {
        "repr": "AO2",
        "value": "Automated with precipitation sensor"
      }
    ],
    "dewpoint_decimal": {
      "repr": "1211",
      "spoken": "minus two one point one",
      "value": -21.1
    },
    "maximum_temperature_24": null,
    "maximum_temperature_6": null,
    "minimum_temperature_24": null,
    "minimum_temperature_6": null,
    "precip_24_hours": null,
    "precip_36_hours": null,
    "precip_hourly": null,
    "pressure_tendency": {
      "change": 3,
      "repr": "56030",
      "tendency": "Decreasing, then steady"
    },
    "sea_level_pressure": {
      "repr": "SLP210",
      "spoken": "one zero two one point zero",
      "value": 1021
    },
    "snow_depth": null,
    "sunshine_minutes": null,
    "temperature_decimal": {
      "repr": "1128",
      "spoken": "minus one two point eight",
      "value": -12.8
    }
  },
  "runway_visibility": [],
  "sanitized": "KBLI 131453Z 02007KT 10SM M13/M21 A3011 RMK AO2 SLP210 T11281211 56030",
  "station": "KBLI",
  "temperature": {
    "repr": "M13",
    "spoken": "minus one three",
    "value": -13
  },
  "time": {
    "dt": "2024-01-13T14:53:00Z",
    "repr": "131453Z"
  },
  "units": {
    "accumulation": "in",
    "altimeter": "inHg",
    "altitude": "ft",
    "temperature": "C",
    "visibility": "sm",
    "wind_speed": "kt"
  },
  "visibility": {
    "repr": "10",
    "spoken": "one zero",
    "value": 10
  },
  "wind_direction": {
    "repr": "020",
    "spoken": "zero two zero",
    "value": 20
  },
  "wind_gust": null,
  "wind_speed": {
    "repr": "07",
    "spoken": "seven",
    "value": 7
  },
  "wind_variable_direction": [],
  "wx_codes": []
}
