{
  "meta": {
    "timestamp": "2022-11-20T08:45:58.171208Z",
    "stations_updated": "2022-09-05"
  },
  "altimeter": {
    "repr": "A3028",
    "value": 30.28,
    "spoken": "three zero point two eight"
  },
  "clouds": [],
  "flight_rules": "VFR",
  "other": [],
  "visibility": {
    "repr": "9",
    "value": 9,
    "spoken": "nine"
  },
  "wind_direction": {
    "repr": "000",
    "value": 0,
    "spoken": "zero zero zero"
  },
  "wind_gust": null,
  "wind_speed": {
    "repr": "00",
    "value": 0,
    "spoken": "zero"
  },
  "wx_codes": [],
  "raw": "KBLI 200753Z AUTO 00000KT 9SM CLR M02/M05 A3028 RMK AO2 SLP264 T10221050 400781044",
  "sanitized": "KBLI 200753Z 00000KT 9SM M02/M05 A3028 RMK AO2 SLP264 T10221050 400781044",
  "station": "KBLI",
  "time": {
    "repr": "200753Z",
    "dt": "2022-11-20T07:53:00Z"
  },
  "remarks": "RMK AO2 SLP264 T10221050 400781044",
  "dewpoint": {
    "repr": "M05",
    "value": -5,
    "spoken": "minus five"
  },
  "relative_humidity": 0.8111211201333303,
  "remarks_info": {
    "maximum_temperature_6": null,
    "minimum_temperature_6": null,
    "pressure_tendency": null,
    "precip_36_hours": null,
    "precip_24_hours": null,
    "sunshine_minutes": null,
    "codes": [
      {
        "repr": "AO2",
        "value": "Automated with precipitation sensor"
      }
    ],
    "dewpoint_decimal": {
      "repr": "1050",
      "value": -5,
      "spoken": "minus five point zero"
    },
    "maximum_temperature_24": {
      "repr": "0078",
      "value": 7.8,
      "spoken": "seven point eight"
    },
    "minimum_temperature_24": {
      "repr": "1044",
      "value": -4.4,
      "spoken": "minus four point four"
    },
    "precip_hourly": null,
    "sea_level_pressure": {
      "repr": "SLP264",
      "value": 1026.4,
      "spoken": "one zero two six point four"
    },
    "snow_depth": null,
    "temperature_decimal": {
      "repr": "1022",
      "value": -2.2,
      "spoken": "minus two point two"
    }
  },
  "runway_visibility": [],
  "temperature": {
    "repr": "M02",
    "value": -2,
    "spoken": "minus two"
  },
  "wind_variable_direction": [],
  "density_altitude": -2213,
  "pressure_altitude": -190,
  "units": {
    "accumulation": "in",
    "altimeter": "inHg",
    "altitude": "ft",
    "temperature": "C",
    "visibility": "sm",
    "wind_speed": "kt"
  }
}
