{
  "meta": {
    "timestamp": "2023-06-12T12:42:39.380968Z",
    "stations_updated": "2023-06-06",
    "cache-timestamp": "2023-06-12T12:42:03.495000Z"
  },
  "altimeter": {
    "repr": "A3000",
    "value": 30,
    "spoken": "three zero point zero zero"
  },
  "clouds": [],
  "flight_rules": "MVFR",
  "other": [],
  "visibility": {
    "repr": "4",
    "value": 4,
    "spoken": "four"
  },
  "wind_direction": {
    "repr": "000",
    "value": 0,
    "spoken": "zero zero zero"
  },
  "wind_gust": null,
  "wind_speed": {
    "repr": "00",
    "value": 0,
    "spoken": "zero"
  },
  "wx_codes": [
    {
      "repr": "BR",
      "value": "Mist"
    }
  ],
  "raw": "KBLI 121236Z AUTO 00000KT 4SM R16/3500VP6000FT BR CLR 12/12 A3000 RMK AO2 T01170117",
  "sanitized": "KBLI 121236Z 00000KT 4SM R16/3500VP6000FT BR 12/12 A3000 RMK AO2 T01170117",
  "station": "KBLI",
  "time": {
    "repr": "121236Z",
    "dt": "2023-06-12T12:36:00Z"
  },
  "remarks": "RMK AO2 T01170117",
  "dewpoint": {
    "repr": "12",
    "value": 12,
    "spoken": "one two"
  },
  "relative_humidity": 1,
  "remarks_info": {
    "maximum_temperature_6": null,
    "minimum_temperature_6": null,
    "pressure_tendency": null,
    "precip_36_hours": null,
    "precip_24_hours": null,
    "sunshine_minutes": null,
    "codes": [
      {
        "repr": "AO2",
        "value": "Automated with precipitation sensor"
      }
    ],
    "dewpoint_decimal": {
      "repr": "0117",
      "value": 11.7,
      "spoken": "one one point seven"
    },
    "maximum_temperature_24": null,
    "minimum_temperature_24": null,
    "precip_hourly": null,
    "sea_level_pressure": null,
    "snow_depth": null,
    "temperature_decimal": {
      "repr": "0117",
      "value": 11.7,
      "spoken": "one one point seven"
    }
  },
  "runway_visibility": [
    {
      "repr": "R16/3500VP6000FT",
      "runway": "16",
      "visibility": null,
      "variable_visibility": [
        {
          "repr": "3500",
          "value": 3500,
          "spoken": "three five hundred"
        },
        {
          "repr": "P6000",
          "value": null,
          "spoken": "greater than six thousand"
        }
      ],
      "trend": null
    }
  ],
  "temperature": {
    "repr": "12",
    "value": 12,
    "spoken": "one two"
  },
  "wind_variable_direction": [],
  "density_altitude": -265,
  "pressure_altitude": 90,
  "units": {
    "accumulation": "in",
    "altimeter": "inHg",
    "altitude": "ft",
    "temperature": "C",
    "visibility": "sm",
    "wind_speed": "kt"
  }
}
