{
  "altimeter": {
    "repr": "A3068",
    "spoken": "three zero point six eight",
    "value": 30.68
  },
  "clouds": [],
  "density_altitude": -2553,
  "dewpoint": {
    "repr": "M03",
    "spoken": "minus three",
    "value": -3
  },
  "flight_rules": "VFR",
  "meta": {
    "cache-timestamp": "2025-01-23T06:09:41.476000Z",
    "stations_updated": "2024-12-02",
    "timestamp": "2025-01-23T06:10:11.491196Z"
  },
  "other": [],
  "pressure_altitude": -590,
  "raw": "KBLI 230553Z 00000KT 10SM CLR M02/M03 A3068 RMK AO2 SLP398 T10171028 10039 21022 58006",
  "relative_humidity": 0.9218989053690371,
  "remarks": "RMK AO2 SLP398 T10171028 10039 21022 58006",
  "remarks_info": {
    "codes": [
      {
        "repr": "AO2",
        "value": "Automated with precipitation sensor"
      }
    ],
    "dewpoint_decimal": {
      "repr": "1028",
      "spoken": "minus two point eight",
      "value": -2.8
    },
    "maximum_temperature_24": null,
    "maximum_temperature_6": {
      "repr": "10039",
      "spoken": "three point nine",
      "value": 3.9
    },
    "minimum_temperature_24": null,
    "minimum_temperature_6": {
      "repr": "21022",
      "spoken": "minus two point two",
      "value": -2.2
    },
    "precip_24_hours": null,
    "precip_36_hours": null,
    "precip_hourly": null,
    "pressure_tendency": {
      "change": 0.6,
      "repr": "58006",
      "tendency": "Steady or increasing, then decreasing"
    },
    "sea_level_pressure": {
      "repr": "SLP398",
      "spoken": "one zero three nine point eight",
      "value": 1039.8
    },
    "snow_depth": null,
    "sunshine_minutes": null,
    "temperature_decimal": {
      "repr": "1017",
      "spoken": "minus one point seven",
      "value": -1.7
    }
  },
  "runway_visibility": [],
  "sanitized": "KBLI 230553Z 00000KT 10SM M02/M03 A3068 RMK AO2 SLP398 T10171028 10039 21022 58006",
  "station": "KBLI",
  "temperature": {
    "repr": "M02",
    "spoken": "minus two",
    "value": -2
  },
  "time": {
    "dt": "2025-01-23T05:53:00Z",
    "repr": "230553Z"
  },
  "units": {
    "accumulation": "in",
    "altimeter": "inHg",
    "altitude": "ft",
    "temperature": "C",
    "visibility": "sm",
    "wind_speed": "kt"
  },
  "visibility": {
    "repr": "10",
    "spoken": "one zero",
    "value": 10
  },
  "wind_direction": {
    "repr": "000",
    "spoken": "zero zero zero",
    "value": 0
  },
  "wind_gust": null,
  "wind_speed": {
    "repr": "00",
    "spoken": "zero",
    "value": 0
  },
  "wind_variable_direction": [],
  "wx_codes": []
}
