{
  "meta": {
    "timestamp": "2022-11-16T09:29:50.932104Z",
    "stations_updated": "2022-09-05"
  },
  "altimeter": {
    "repr": "A3060",
    "value": 30.6,
    "spoken": "three zero point six zero"
  },
  "clouds": [
    {
      "repr": "VV002",
      "type": "VV",
      "altitude": 2,
      "modifier": null
    }
  ],
  "flight_rules": "LIFR",
  "other": [],
  "visibility": {
    "repr": "3/4",
    "value": 0.75,
    "spoken": "three quarters",
    "numerator": 3,
    "denominator": 4,
    "normalized": "3/4"
  },
  "wind_direction": {
    "repr": "000",
    "value": 0,
    "spoken": "zero zero zero"
  },
  "wind_gust": null,
  "wind_speed": {
    "repr": "00",
    "value": 0,
    "spoken": "zero"
  },
  "wx_codes": [
    {
      "repr": "BR",
      "value": "Mist"
    }
  ],
  "raw": "KBLI 160924Z AUTO 00000KT 3/4SM R16/1400V2200FT BR VV002 M02/M02 A3060 RMK AO2 T10221022",
  "sanitized": "KBLI 160924Z 00000KT 3/4SM R16/1400V2200FT BR VV002 M02/M02 A3060 RMK AO2 T10221022",
  "station": "KBLI",
  "time": {
    "repr": "160924Z",
    "dt": "2022-11-16T09:24:00Z"
  },
  "remarks": "RMK AO2 T10221022",
  "dewpoint": {
    "repr": "M02",
    "value": -2,
    "spoken": "minus two"
  },
  "relative_humidity": 1,
  "remarks_info": {
    "maximum_temperature_6": null,
    "minimum_temperature_6": null,
    "pressure_tendency": null,
    "precip_36_hours": null,
    "precip_24_hours": null,
    "sunshine_minutes": null,
    "codes": [
      {
        "repr": "AO2",
        "value": "Automated with precipitation sensor"
      }
    ],
    "dewpoint_decimal": {
      "repr": "1022",
      "value": -2.2,
      "spoken": "minus two point two"
    },
    "maximum_temperature_24": null,
    "minimum_temperature_24": null,
    "precip_hourly": null,
    "sea_level_pressure": null,
    "snow_depth": null,
    "temperature_decimal": {
      "repr": "1022",
      "value": -2.2,
      "spoken": "minus two point two"
    }
  },
  "runway_visibility": [
    {
      "repr": "R16/1400V2200FT",
      "runway": "16",
      "visibility": null,
      "variable_visibility": [
        {
          "repr": "1400",
          "value": 1400,
          "spoken": "one four hundred"
        },
        {
          "repr": "2200",
          "value": 2200,
          "spoken": "two two hundred"
        }
      ],
      "trend": null
    }
  ],
  "temperature": {
    "repr": "M02",
    "value": -2,
    "spoken": "minus two"
  },
  "wind_variable_direction": [],
  "density_altitude": -2533,
  "pressure_altitude": -510,
  "units": {
    "accumulation": "in",
    "altimeter": "inHg",
    "altitude": "ft",
    "temperature": "C",
    "visibility": "sm",
    "wind_speed": "kt"
  }
}
