{
  "meta": {
    "timestamp": "2022-11-23T12:09:52.444805Z",
    "stations_updated": "2022-09-05"
  },
  "altimeter": {
    "repr": "A3027",
    "value": 30.27,
    "spoken": "three zero point two seven"
  },
  "clouds": [
    {
      "repr": "BKN018",
      "type": "BKN",
      "altitude": 18,
      "modifier": null
    },
    {
      "repr": "BKN027",
      "type": "BKN",
      "altitude": 27,
      "modifier": null
    },
    {
      "repr": "OVC035",
      "type": "OVC",
      "altitude": 35,
      "modifier": null
    }
  ],
  "flight_rules": "MVFR",
  "other": [],
  "visibility": {
    "repr": "10",
    "value": 10,
    "spoken": "one zero"
  },
  "wind_direction": {
    "repr": "180",
    "value": 180,
    "spoken": "one eight zero"
  },
  "wind_gust": null,
  "wind_speed": {
    "repr": "04",
    "value": 4,
    "spoken": "four"
  },
  "wx_codes": [],
  "raw": "KBLI 231153Z AUTO 18004KT 10SM BKN018 BKN027 OVC035 08/08 A3027 RMK AO2 SLP257 70063 T00830078 10083 20061 51022",
  "sanitized": "KBLI 231153Z 18004KT 10SM BKN018 BKN027 OVC035 08/08 A3027 RMK AO2 SLP257 70063 T00830078 10083 20061 51022",
  "station": "KBLI",
  "time": {
    "repr": "231153Z",
    "dt": "2022-11-23T11:53:00Z"
  },
  "remarks": "RMK AO2 SLP257 70063 T00830078 10083 20061 51022",
  "dewpoint": {
    "repr": "08",
    "value": 8,
    "spoken": "eight"
  },
  "relative_humidity": 0.9665731399975396,
  "remarks_info": {
    "maximum_temperature_6": {
      "repr": "10083",
      "value": 8.3,
      "spoken": "eight point three"
    },
    "minimum_temperature_6": {
      "repr": "20061",
      "value": 6.1,
      "spoken": "six point one"
    },
    "pressure_tendency": {
      "repr": "51022",
      "tendency": "Increasing, then steady",
      "change": 2.2
    },
    "precip_36_hours": null,
    "precip_24_hours": {
      "repr": "70063",
      "value": 0.63,
      "spoken": "zero point six three"
    },
    "sunshine_minutes": null,
    "codes": [
      {
        "repr": "AO2",
        "value": "Automated with precipitation sensor"
      }
    ],
    "dewpoint_decimal": {
      "repr": "0078",
      "value": 7.8,
      "spoken": "seven point eight"
    },
    "maximum_temperature_24": null,
    "minimum_temperature_24": null,
    "precip_hourly": null,
    "sea_level_pressure": {
      "repr": "SLP257",
      "value": 1025.7,
      "spoken": "one zero two five point seven"
    },
    "snow_depth": null,
    "temperature_decimal": {
      "repr": "0083",
      "value": 8.3,
      "spoken": "eight point three"
    }
  },
  "runway_visibility": [],
  "temperature": {
    "repr": "08",
    "value": 8,
    "spoken": "eight"
  },
  "wind_variable_direction": [],
  "density_altitude": -943,
  "pressure_altitude": -180,
  "units": {
    "accumulation": "in",
    "altimeter": "inHg",
    "altitude": "ft",
    "temperature": "C",
    "visibility": "sm",
    "wind_speed": "kt"
  }
}
