{
  "altimeter": {
    "repr": "A3007",
    "spoken": "three zero point zero seven",
    "value": 30.07
  },
  "clouds": [],
  "density_altitude": 1261,
  "dewpoint": {
    "repr": "14",
    "spoken": "one four",
    "value": 14
  },
  "flight_rules": "VFR",
  "meta": {
    "stations_updated": "2024-06-12",
    "timestamp": "2024-08-02T23:02:24.995369Z"
  },
  "other": [],
  "pressure_altitude": 20,
  "raw": "KBLI 022253Z 20006KT 10SM CLR 25/14 A3007 RMK AO2 SLP186 T02500139",
  "relative_humidity": 0.5010527282433236,
  "remarks": "RMK AO2 SLP186 T02500139",
  "remarks_info": {
    "codes": [
      {
        "repr": "AO2",
        "value": "Automated with precipitation sensor"
      }
    ],
    "dewpoint_decimal": {
      "repr": "0139",
      "spoken": "one three point nine",
      "value": 13.9
    },
    "maximum_temperature_24": null,
    "maximum_temperature_6": null,
    "minimum_temperature_24": null,
    "minimum_temperature_6": null,
    "precip_24_hours": null,
    "precip_36_hours": null,
    "precip_hourly": null,
    "pressure_tendency": null,
    "sea_level_pressure": {
      "repr": "SLP186",
      "spoken": "one zero one eight point six",
      "value": 1018.6
    },
    "snow_depth": null,
    "sunshine_minutes": null,
    "temperature_decimal": {
      "repr": "0250",
      "spoken": "two five point zero",
      "value": 25
    }
  },
  "runway_visibility": [],
  "sanitized": "KBLI 022253Z 20006KT 10SM 25/14 A3007 RMK AO2 SLP186 T02500139",
  "station": "KBLI",
  "temperature": {
    "repr": "25",
    "spoken": "two five",
    "value": 25
  },
  "time": {
    "dt": "2024-08-02T22:53:00Z",
    "repr": "022253Z"
  },
  "units": {
    "accumulation": "in",
    "altimeter": "inHg",
    "altitude": "ft",
    "temperature": "C",
    "visibility": "sm",
    "wind_speed": "kt"
  },
  "visibility": {
    "repr": "10",
    "spoken": "one zero",
    "value": 10
  },
  "wind_direction": {
    "repr": "200",
    "spoken": "two zero zero",
    "value": 200
  },
  "wind_gust": null,
  "wind_speed": {
    "repr": "06",
    "spoken": "six",
    "value": 6
  },
  "wind_variable_direction": [],
  "wx_codes": []
}
