{
  "altimeter": {
    "repr": "A2968",
    "spoken": "two nine point six eight",
    "value": 29.68
  },
  "clouds": [
    {
      "altitude": 3,
      "modifier": null,
      "repr": "VV003",
      "type": "VV"
    }
  ],
  "density_altitude": -1013,
  "dewpoint": {
    "repr": "02",
    "spoken": "two",
    "value": 2
  },
  "flight_rules": "LIFR",
  "meta": {
    "cache-timestamp": "2024-03-24T11:20:05.164000Z",
    "stations_updated": "2024-01-01",
    "timestamp": "2024-03-24T11:20:34.511777Z"
  },
  "other": [],
  "pressure_altitude": 410,
  "raw": "KBLI 241053Z 36003KT 1/4SM R16/1800V2800FT FG VV003 03/02 A2968 RMK AO2 SLP058 T00280022",
  "relative_humidity": 0.958237479247377,
  "remarks": "RMK AO2 SLP058 T00280022",
  "remarks_info": {
    "codes": [
      {
        "repr": "AO2",
        "value": "Automated with precipitation sensor"
      }
    ],
    "dewpoint_decimal": {
      "repr": "0022",
      "spoken": "two point two",
      "value": 2.2
    },
    "maximum_temperature_24": null,
    "maximum_temperature_6": null,
    "minimum_temperature_24": null,
    "minimum_temperature_6": null,
    "precip_24_hours": null,
    "precip_36_hours": null,
    "precip_hourly": null,
    "pressure_tendency": null,
    "sea_level_pressure": {
      "repr": "SLP058",
      "spoken": "one zero zero five point eight",
      "value": 1005.8
    },
    "snow_depth": null,
    "sunshine_minutes": null,
    "temperature_decimal": {
      "repr": "0028",
      "spoken": "two point eight",
      "value": 2.8
    }
  },
  "runway_visibility": [
    {
      "repr": "R16/1800V2800FT",
      "runway": "16",
      "trend": null,
      "variable_visibility": [
        {
          "repr": "1800",
          "spoken": "one eight hundred",
          "value": 1800
        },
        {
          "repr": "2800",
          "spoken": "two eight hundred",
          "value": 2800
        }
      ],
      "visibility": null
    }
  ],
  "sanitized": "KBLI 241053Z 36003KT 1/4SM R16/1800V2800FT FG VV003 03/02 A2968 RMK AO2 SLP058 T00280022",
  "station": "KBLI",
  "temperature": {
    "repr": "03",
    "spoken": "three",
    "value": 3
  },
  "time": {
    "dt": "2024-03-24T10:53:00Z",
    "repr": "241053Z"
  },
  "units": {
    "accumulation": "in",
    "altimeter": "inHg",
    "altitude": "ft",
    "temperature": "C",
    "visibility": "sm",
    "wind_speed": "kt"
  },
  "visibility": {
    "denominator": 4,
    "normalized": "1/4",
    "numerator": 1,
    "repr": "1/4",
    "spoken": "one quarter",
    "value": 0.25
  },
  "wind_direction": {
    "repr": "360",
    "spoken": "three six zero",
    "value": 360
  },
  "wind_gust": null,
  "wind_speed": {
    "repr": "03",
    "spoken": "three",
    "value": 3
  },
  "wind_variable_direction": [],
  "wx_codes": [
    {
      "repr": "FG",
      "value": "Fog"
    }
  ]
}
