{
  "altimeter": {
    "repr": "A3003",
    "spoken": "three zero point zero three",
    "value": 30.03
  },
  "clouds": [],
  "density_altitude": -1099,
  "dewpoint": {
    "repr": "M04",
    "spoken": "minus four",
    "value": -4
  },
  "flight_rules": "VFR",
  "meta": {
    "cache-timestamp": "2024-02-17T18:06:05.402000Z",
    "stations_updated": "2024-01-01",
    "timestamp": "2024-02-17T18:06:21.282486Z"
  },
  "other": [],
  "pressure_altitude": 60,
  "raw": "KBLI 171753Z 00000KT 10SM CLR 05/M04 A3003 RMK AO2 SLP176 T00501039 10056 21011 58004",
  "relative_humidity": 0.5256340343225183,
  "remarks": "RMK AO2 SLP176 T00501039 10056 21011 58004",
  "remarks_info": {
    "codes": [
      {
        "repr": "AO2",
        "value": "Automated with precipitation sensor"
      }
    ],
    "dewpoint_decimal": {
      "repr": "1039",
      "spoken": "minus three point nine",
      "value": -3.9
    },
    "maximum_temperature_24": null,
    "maximum_temperature_6": {
      "repr": "10056",
      "spoken": "five point six",
      "value": 5.6
    },
    "minimum_temperature_24": null,
    "minimum_temperature_6": {
      "repr": "21011",
      "spoken": "minus one point one",
      "value": -1.1
    },
    "precip_24_hours": null,
    "precip_36_hours": null,
    "precip_hourly": null,
    "pressure_tendency": {
      "change": 0.4,
      "repr": "58004",
      "tendency": "Steady or increasing, then decreasing"
    },
    "sea_level_pressure": {
      "repr": "SLP176",
      "spoken": "one zero one seven point six",
      "value": 1017.6
    },
    "snow_depth": null,
    "sunshine_minutes": null,
    "temperature_decimal": {
      "repr": "0050",
      "spoken": "five point zero",
      "value": 5
    }
  },
  "runway_visibility": [],
  "sanitized": "KBLI 171753Z 00000KT 10SM 05/M04 A3003 RMK AO2 SLP176 T00501039 10056 21011 58004",
  "station": "KBLI",
  "temperature": {
    "repr": "05",
    "spoken": "five",
    "value": 5
  },
  "time": {
    "dt": "2024-02-17T17:53:00Z",
    "repr": "171753Z"
  },
  "units": {
    "accumulation": "in",
    "altimeter": "inHg",
    "altitude": "ft",
    "temperature": "C",
    "visibility": "sm",
    "wind_speed": "kt"
  },
  "visibility": {
    "repr": "10",
    "spoken": "one zero",
    "value": 10
  },
  "wind_direction": {
    "repr": "000",
    "spoken": "zero zero zero",
    "value": 0
  },
  "wind_gust": null,
  "wind_speed": {
    "repr": "00",
    "spoken": "zero",
    "value": 0
  },
  "wind_variable_direction": [],
  "wx_codes": []
}
