{
  "meta": {
    "timestamp": "2022-12-22T06:31:19.483855Z",
    "stations_updated": "2022-09-05"
  },
  "altimeter": {
    "repr": "A3062",
    "value": 30.62,
    "spoken": "three zero point six two"
  },
  "clouds": [],
  "flight_rules": "VFR",
  "other": [],
  "visibility": {
    "repr": "10",
    "value": 10,
    "spoken": "one zero"
  },
  "wind_direction": {
    "repr": "030",
    "value": 30,
    "spoken": "zero three zero"
  },
  "wind_gust": {
    "repr": "36",
    "value": 36,
    "spoken": "three six"
  },
  "wind_speed": {
    "repr": "22",
    "value": 22,
    "spoken": "two two"
  },
  "wx_codes": [
    {
      "repr": "BLSN",
      "value": "Blowing Snow"
    }
  ],
  "raw": "KBLI 220553Z 03022G36KT 10SM BLSN CLR M11/M21 A3062 RMK AO2 PK WND 03036/0545 SLP382 T11111206 11100 21117 51006",
  "sanitized": "KBLI 220553Z 03022G36KT 10SM BLSN M11/M21 A3062 RMK AO2 PK WND 03036/0545 SLP382 T11111206 11100 21117 51006",
  "station": "KBLI",
  "time": {
    "repr": "220553Z",
    "dt": "2022-12-22T05:53:00Z"
  },
  "remarks": "RMK AO2 PK WND 03036/0545 SLP382 T11111206 11100 21117 51006",
  "dewpoint": {
    "repr": "M21",
    "value": -21,
    "spoken": "minus two one"
  },
  "relative_humidity": 0.45426921642923984,
  "remarks_info": {
    "maximum_temperature_6": {
      "repr": "11100",
      "value": -10,
      "spoken": "minus one zero point zero"
    },
    "minimum_temperature_6": {
      "repr": "21117",
      "value": -11.7,
      "spoken": "minus one one point seven"
    },
    "pressure_tendency": {
      "repr": "51006",
      "tendency": "Increasing, then steady",
      "change": 0.6
    },
    "precip_36_hours": null,
    "precip_24_hours": null,
    "sunshine_minutes": null,
    "codes": [
      {
        "repr": "AO2",
        "value": "Automated with precipitation sensor"
      }
    ],
    "dewpoint_decimal": {
      "repr": "1206",
      "value": -20.6,
      "spoken": "minus two zero point six"
    },
    "maximum_temperature_24": null,
    "minimum_temperature_24": null,
    "precip_hourly": null,
    "sea_level_pressure": {
      "repr": "SLP382",
      "value": 1038.2,
      "spoken": "one zero three eight point two"
    },
    "snow_depth": null,
    "temperature_decimal": {
      "repr": "1111",
      "value": -11.1,
      "spoken": "minus one one point one"
    }
  },
  "runway_visibility": [],
  "temperature": {
    "repr": "M11",
    "value": -11,
    "spoken": "minus one one"
  },
  "wind_variable_direction": [],
  "density_altitude": -3621,
  "pressure_altitude": -530,
  "units": {
    "accumulation": "in",
    "altimeter": "inHg",
    "altitude": "ft",
    "temperature": "C",
    "visibility": "sm",
    "wind_speed": "kt"
  }
}
