{
  "meta": {
    "timestamp": "2023-10-23T03:23:43.756704Z",
    "stations_updated": "2023-10-01"
  },
  "altimeter": {
    "repr": "A2995",
    "value": 29.95,
    "spoken": "two nine point nine five"
  },
  "clouds": [
    {
      "repr": "FEW013",
      "type": "FEW",
      "altitude": 13,
      "modifier": null
    }
  ],
  "flight_rules": "VFR",
  "other": [],
  "visibility": {
    "repr": "10",
    "value": 10,
    "spoken": "one zero"
  },
  "wind_direction": {
    "repr": "230",
    "value": 230,
    "spoken": "two three zero"
  },
  "wind_gust": null,
  "wind_speed": {
    "repr": "03",
    "value": 3,
    "spoken": "three"
  },
  "wx_codes": [],
  "raw": "KBLI 230253Z 23003KT 10SM FEW013 07/07 A2995 RMK AO2 SLP151 T00720067 53014 KBLI 230153Z 00000KT 10SM SCT013 08/07 A2993 RMK AO2 SLP142 T00780072 KBLI 230139Z 00000KT 10SM SCT013 08/08 A2992 RMK AO2 T00830078",
  "sanitized": "KBLI 230253Z 23003KT 10SM FEW013 07/07 A2995 RMK AO2 SLP151 T00720067 53014 KBLI 230153Z 00000KT 10SM SCT013 08/07 A2993 RMK AO2 SLP142 T00780072 KBLI 230139Z 00000KT 10SM SCT013 08/08 A2992 RMK AO2 T00830078",
  "station": "KBLI",
  "time": {
    "repr": "230253Z",
    "dt": "2023-10-23T02:53:00Z"
  },
  "remarks": "RMK AO2 SLP151 T00720067 53014 KBLI 230153Z 00000KT 10SM SCT013 08/07 A2993 RMK AO2 SLP142 T00780072 KBLI 230139Z 00000KT 10SM SCT013 08/08 A2992 RMK AO2 T00830078",
  "dewpoint": {
    "repr": "07",
    "value": 7,
    "spoken": "seven"
  },
  "relative_humidity": 0.9665731399975396,
  "remarks_info": {
    "maximum_temperature_6": null,
    "minimum_temperature_6": null,
    "pressure_tendency": {
      "repr": "53014",
      "tendency": "Decreasing or steady, then increasing",
      "change": 1.4
    },
    "precip_36_hours": null,
    "precip_24_hours": null,
    "sunshine_minutes": null,
    "codes": [
      {
        "repr": "AO2",
        "value": "Automated with precipitation sensor"
      },
      {
        "repr": "AO2",
        "value": "Automated with precipitation sensor"
      },
      {
        "repr": "AO2",
        "value": "Automated with precipitation sensor"
      }
    ],
    "dewpoint_decimal": {
      "repr": "0078",
      "value": 7.8,
      "spoken": "seven point eight"
    },
    "maximum_temperature_24": null,
    "minimum_temperature_24": null,
    "precip_hourly": null,
    "sea_level_pressure": {
      "repr": "SLP151",
      "value": 1015.1,
      "spoken": "one zero one five point one"
    },
    "snow_depth": null,
    "temperature_decimal": {
      "repr": "0083",
      "value": 8.3,
      "spoken": "eight point three"
    }
  },
  "runway_visibility": [],
  "temperature": {
    "repr": "07",
    "value": 7,
    "spoken": "seven"
  },
  "wind_variable_direction": [],
  "density_altitude": -623,
  "pressure_altitude": 140,
  "units": {
    "accumulation": "in",
    "altimeter": "inHg",
    "altitude": "ft",
    "temperature": "C",
    "visibility": "sm",
    "wind_speed": "kt"
  }
}
