{
  "altimeter": {
    "repr": "A2977",
    "spoken": "two nine point seven seven",
    "value": 29.77
  },
  "clouds": [
    {
      "altitude": 16,
      "modifier": null,
      "repr": "SCT016",
      "type": "SCT"
    },
    {
      "altitude": 21,
      "modifier": null,
      "repr": "OVC021",
      "type": "OVC"
    }
  ],
  "density_altitude": -911,
  "dewpoint": {
    "repr": "03",
    "spoken": "three",
    "value": 3
  },
  "flight_rules": "MVFR",
  "meta": {
    "cache-timestamp": "2023-12-01T07:40:04.085000Z",
    "stations_updated": "2023-10-28",
    "timestamp": "2023-12-01T07:40:46.006792Z"
  },
  "other": [],
  "pressure_altitude": 320,
  "raw": "KBLI 010653Z AUTO 17008KT 10SM SCT016 OVC021 04/03 A2977 RMK AO2 RAE21 SLP090 P0000 T00440033",
  "relative_humidity": 0.9255582325082627,
  "remarks": "RMK AO2 RAE21 SLP090 P0000 T00440033",
  "remarks_info": {
    "codes": [
      {
        "repr": "AO2",
        "value": "Automated with precipitation sensor"
      },
      {
        "repr": "P0000",
        "value": "Trace amount of rain in the last hour"
      },
      {
        "repr": "RAE21",
        "value": "Rain ended at :21"
      }
    ],
    "dewpoint_decimal": {
      "repr": "0033",
      "spoken": "three point three",
      "value": 3.3
    },
    "maximum_temperature_24": null,
    "maximum_temperature_6": null,
    "minimum_temperature_24": null,
    "minimum_temperature_6": null,
    "precip_24_hours": null,
    "precip_36_hours": null,
    "precip_hourly": null,
    "pressure_tendency": null,
    "sea_level_pressure": {
      "repr": "SLP090",
      "spoken": "one zero zero nine point zero",
      "value": 1009
    },
    "snow_depth": null,
    "sunshine_minutes": null,
    "temperature_decimal": {
      "repr": "0044",
      "spoken": "four point four",
      "value": 4.4
    }
  },
  "runway_visibility": [],
  "sanitized": "KBLI 010653Z 17008KT 10SM SCT016 OVC021 04/03 A2977 RMK AO2 RAE21 SLP090 P0000 T00440033",
  "station": "KBLI",
  "temperature": {
    "repr": "04",
    "spoken": "four",
    "value": 4
  },
  "time": {
    "dt": "2023-12-01T06:53:00Z",
    "repr": "010653Z"
  },
  "units": {
    "accumulation": "in",
    "altimeter": "inHg",
    "altitude": "ft",
    "temperature": "C",
    "visibility": "sm",
    "wind_speed": "kt"
  },
  "visibility": {
    "repr": "10",
    "spoken": "one zero",
    "value": 10
  },
  "wind_direction": {
    "repr": "170",
    "spoken": "one seven zero",
    "value": 170
  },
  "wind_gust": null,
  "wind_speed": {
    "repr": "08",
    "spoken": "eight",
    "value": 8
  },
  "wind_variable_direction": [],
  "wx_codes": []
}
