{
  "meta": {
    "timestamp": "2022-11-10T19:40:42.671481Z",
    "stations_updated": "2022-09-05"
  },
  "altimeter": {
    "repr": "A3041",
    "value": 30.41,
    "spoken": "three zero point four one"
  },
  "clouds": [
    {
      "repr": "OVC055",
      "type": "OVC",
      "altitude": 55,
      "modifier": null
    }
  ],
  "flight_rules": "VFR",
  "other": [],
  "visibility": {
    "repr": "10",
    "value": 10,
    "spoken": "one zero"
  },
  "wind_direction": {
    "repr": "030",
    "value": 30,
    "spoken": "zero three zero"
  },
  "wind_gust": null,
  "wind_speed": {
    "repr": "07",
    "value": 7,
    "spoken": "seven"
  },
  "wx_codes": [],
  "raw": "KBLI 101853Z 03007KT 10SM OVC055 03/M02 A3041 RMK AO2 SLP306 T00331022",
  "sanitized": "KBLI 101853Z 03007KT 10SM OVC055 03/M02 A3041 RMK AO2 SLP306 T00331022",
  "station": "KBLI",
  "time": {
    "repr": "101853Z",
    "dt": "2022-11-10T18:53:00Z"
  },
  "remarks": "RMK AO2 SLP306 T00331022",
  "dewpoint": {
    "repr": "M02",
    "value": -2,
    "spoken": "minus two"
  },
  "relative_humidity": 0.6720849077701927,
  "remarks_info": {
    "maximum_temperature_6": null,
    "minimum_temperature_6": null,
    "pressure_tendency": null,
    "precip_36_hours": null,
    "precip_24_hours": null,
    "sunshine_minutes": null,
    "codes": [
      {
        "repr": "AO2",
        "value": "Automated with precipitation sensor"
      }
    ],
    "dewpoint_decimal": {
      "repr": "1022",
      "value": -2.2,
      "spoken": "minus two point two"
    },
    "maximum_temperature_24": null,
    "minimum_temperature_24": null,
    "precip_hourly": null,
    "sea_level_pressure": {
      "repr": "SLP306",
      "value": 1030.6,
      "spoken": "one zero three zero point six"
    },
    "snow_depth": null,
    "temperature_decimal": {
      "repr": "0033",
      "value": 3.3,
      "spoken": "three point three"
    }
  },
  "runway_visibility": [],
  "temperature": {
    "repr": "03",
    "value": 3,
    "spoken": "three"
  },
  "wind_variable_direction": [],
  "density_altitude": -1683,
  "pressure_altitude": -320,
  "units": {
    "accumulation": "in",
    "altimeter": "inHg",
    "altitude": "ft",
    "temperature": "C",
    "visibility": "sm",
    "wind_speed": "kt"
  }
}
