{
  "altimeter": {
    "repr": "A2968",
    "spoken": "two nine point six eight",
    "value": 29.68
  },
  "clouds": [
    {
      "altitude": 23,
      "modifier": null,
      "repr": "BKN023",
      "type": "BKN"
    },
    {
      "altitude": 70,
      "modifier": null,
      "repr": "OVC070",
      "type": "OVC"
    }
  ],
  "density_altitude": -413,
  "dewpoint": {
    "repr": "03",
    "spoken": "three",
    "value": 3
  },
  "flight_rules": "MVFR",
  "meta": {
    "cache-timestamp": "2024-03-11T03:06:04.943000Z",
    "stations_updated": "2024-01-01",
    "timestamp": "2024-03-11T03:06:30.137537Z"
  },
  "other": [],
  "pressure_altitude": 410,
  "raw": "KBLI 110253Z 16015G25KT 10SM BKN023 OVC070 08/03 A2968 RMK AO2 PK WND 16032/0203 SLP059 T00780033 53017",
  "relative_humidity": 0.731846990709336,
  "remarks": "RMK AO2 PK WND 16032/0203 SLP059 T00780033 53017",
  "remarks_info": {
    "codes": [
      {
        "repr": "AO2",
        "value": "Automated with precipitation sensor"
      }
    ],
    "dewpoint_decimal": {
      "repr": "0033",
      "spoken": "three point three",
      "value": 3.3
    },
    "maximum_temperature_24": null,
    "maximum_temperature_6": null,
    "minimum_temperature_24": null,
    "minimum_temperature_6": null,
    "precip_24_hours": null,
    "precip_36_hours": null,
    "precip_hourly": null,
    "pressure_tendency": {
      "change": 1.7,
      "repr": "53017",
      "tendency": "Decreasing or steady, then increasing"
    },
    "sea_level_pressure": {
      "repr": "SLP059",
      "spoken": "one zero zero five point nine",
      "value": 1005.9
    },
    "snow_depth": null,
    "sunshine_minutes": null,
    "temperature_decimal": {
      "repr": "0078",
      "spoken": "seven point eight",
      "value": 7.8
    }
  },
  "runway_visibility": [],
  "sanitized": "KBLI 110253Z 16015G25KT 10SM BKN023 OVC070 08/03 A2968 RMK AO2 PK WND 16032/0203 SLP059 T00780033 53017",
  "station": "KBLI",
  "temperature": {
    "repr": "08",
    "spoken": "eight",
    "value": 8
  },
  "time": {
    "dt": "2024-03-11T02:53:00Z",
    "repr": "110253Z"
  },
  "units": {
    "accumulation": "in",
    "altimeter": "inHg",
    "altitude": "ft",
    "temperature": "C",
    "visibility": "sm",
    "wind_speed": "kt"
  },
  "visibility": {
    "repr": "10",
    "spoken": "one zero",
    "value": 10
  },
  "wind_direction": {
    "repr": "160",
    "spoken": "one six zero",
    "value": 160
  },
  "wind_gust": {
    "repr": "25",
    "spoken": "two five",
    "value": 25
  },
  "wind_speed": {
    "repr": "15",
    "spoken": "one five",
    "value": 15
  },
  "wind_variable_direction": [],
  "wx_codes": []
}
