{
  "altimeter": {
    "repr": "A3015",
    "spoken": "three zero point one five",
    "value": 30.15
  },
  "clouds": [
    {
      "altitude": 60,
      "modifier": null,
      "repr": "SCT060",
      "type": "SCT"
    },
    {
      "altitude": 90,
      "modifier": null,
      "repr": "OVC090",
      "type": "OVC"
    }
  ],
  "density_altitude": -955,
  "dewpoint": {
    "repr": "06",
    "spoken": "six",
    "value": 6
  },
  "flight_rules": "VFR",
  "meta": {
    "cache-timestamp": "2024-02-24T11:20:05.462000Z",
    "stations_updated": "2024-01-01",
    "timestamp": "2024-02-24T11:20:31.087768Z"
  },
  "other": [],
  "pressure_altitude": -60,
  "raw": "KBLI 241053Z AUTO 17006KT 10SM -RA SCT060 OVC090 07/06 A3015 RMK AO2 RAB16 SLP219 P0000 T00720061",
  "relative_humidity": 0.9271535108565763,
  "remarks": "RMK AO2 RAB16 SLP219 P0000 T00720061",
  "remarks_info": {
    "codes": [
      {
        "repr": "AO2",
        "value": "Automated with precipitation sensor"
      },
      {
        "repr": "P0000",
        "value": "Trace amount of rain in the last hour"
      },
      {
        "repr": "RAB16",
        "value": "Rain began at :16"
      }
    ],
    "dewpoint_decimal": {
      "repr": "0061",
      "spoken": "six point one",
      "value": 6.1
    },
    "maximum_temperature_24": null,
    "maximum_temperature_6": null,
    "minimum_temperature_24": null,
    "minimum_temperature_6": null,
    "precip_24_hours": null,
    "precip_36_hours": null,
    "precip_hourly": null,
    "pressure_tendency": null,
    "sea_level_pressure": {
      "repr": "SLP219",
      "spoken": "one zero two one point nine",
      "value": 1021.9
    },
    "snow_depth": null,
    "sunshine_minutes": null,
    "temperature_decimal": {
      "repr": "0072",
      "spoken": "seven point two",
      "value": 7.2
    }
  },
  "runway_visibility": [],
  "sanitized": "KBLI 241053Z 17006KT 10SM -RA SCT060 OVC090 07/06 A3015 RMK AO2 RAB16 SLP219 P0000 T00720061",
  "station": "KBLI",
  "temperature": {
    "repr": "07",
    "spoken": "seven",
    "value": 7
  },
  "time": {
    "dt": "2024-02-24T10:53:00Z",
    "repr": "241053Z"
  },
  "units": {
    "accumulation": "in",
    "altimeter": "inHg",
    "altitude": "ft",
    "temperature": "C",
    "visibility": "sm",
    "wind_speed": "kt"
  },
  "visibility": {
    "repr": "10",
    "spoken": "one zero",
    "value": 10
  },
  "wind_direction": {
    "repr": "170",
    "spoken": "one seven zero",
    "value": 170
  },
  "wind_gust": null,
  "wind_speed": {
    "repr": "06",
    "spoken": "six",
    "value": 6
  },
  "wind_variable_direction": [],
  "wx_codes": [
    {
      "repr": "-RA",
      "value": "Light Rain"
    }
  ]
}
