{
  "altimeter": {
    "repr": "A3014",
    "spoken": "three zero point one four",
    "value": 30.14
  },
  "clouds": [],
  "density_altitude": -813,
  "dewpoint": {
    "repr": "08",
    "spoken": "eight",
    "value": 8
  },
  "flight_rules": "VFR",
  "meta": {
    "stations_updated": "2024-06-12",
    "timestamp": "2024-10-13T08:43:46.237473Z"
  },
  "other": [],
  "pressure_altitude": -50,
  "raw": "KBLI 130753Z AUTO 30003KT 10SM CLR 08/08 A3014 RMK AO2 SLP215 T00830078 401940044",
  "relative_humidity": 0.9665731399975396,
  "remarks": "RMK AO2 SLP215 T00830078 401940044",
  "remarks_info": {
    "codes": [
      {
        "repr": "AO2",
        "value": "Automated with precipitation sensor"
      }
    ],
    "dewpoint_decimal": {
      "repr": "0078",
      "spoken": "seven point eight",
      "value": 7.8
    },
    "maximum_temperature_24": {
      "repr": "0194",
      "spoken": "one nine point four",
      "value": 19.4
    },
    "maximum_temperature_6": null,
    "minimum_temperature_24": {
      "repr": "0044",
      "spoken": "four point four",
      "value": 4.4
    },
    "minimum_temperature_6": null,
    "precip_24_hours": null,
    "precip_36_hours": null,
    "precip_hourly": null,
    "pressure_tendency": null,
    "sea_level_pressure": {
      "repr": "SLP215",
      "spoken": "one zero two one point five",
      "value": 1021.5
    },
    "snow_depth": null,
    "sunshine_minutes": null,
    "temperature_decimal": {
      "repr": "0083",
      "spoken": "eight point three",
      "value": 8.3
    }
  },
  "runway_visibility": [],
  "sanitized": "KBLI 130753Z 30003KT 10SM 08/08 A3014 RMK AO2 SLP215 T00830078 401940044",
  "station": "KBLI",
  "temperature": {
    "repr": "08",
    "spoken": "eight",
    "value": 8
  },
  "time": {
    "dt": "2024-10-13T07:53:00Z",
    "repr": "130753Z"
  },
  "units": {
    "accumulation": "in",
    "altimeter": "inHg",
    "altitude": "ft",
    "temperature": "C",
    "visibility": "sm",
    "wind_speed": "kt"
  },
  "visibility": {
    "repr": "10",
    "spoken": "one zero",
    "value": 10
  },
  "wind_direction": {
    "repr": "300",
    "spoken": "three zero zero",
    "value": 300
  },
  "wind_gust": null,
  "wind_speed": {
    "repr": "03",
    "spoken": "three",
    "value": 3
  },
  "wind_variable_direction": [],
  "wx_codes": []
}
