{
  "altimeter": {
    "repr": "A3022",
    "spoken": "three zero point two two",
    "value": 30.22
  },
  "clouds": [],
  "density_altitude": -3617,
  "dewpoint": {
    "repr": "M27",
    "spoken": "minus two seven",
    "value": -27
  },
  "flight_rules": "VFR",
  "meta": {
    "stations_updated": "2023-10-28",
    "timestamp": "2024-01-12T13:07:48.542841Z"
  },
  "other": [],
  "pressure_altitude": -130,
  "raw": "KBLI 121253Z AUTO 03020G40KT 10SM CLR M14/M27 A3022 RMK AO2 PK WND 05045/1225 SLP247 T11441267",
  "relative_humidity": 0.3445531624316797,
  "remarks": "RMK AO2 PK WND 05045/1225 SLP247 T11441267",
  "remarks_info": {
    "codes": [
      {
        "repr": "AO2",
        "value": "Automated with precipitation sensor"
      }
    ],
    "dewpoint_decimal": {
      "repr": "1267",
      "spoken": "minus two six point seven",
      "value": -26.7
    },
    "maximum_temperature_24": null,
    "maximum_temperature_6": null,
    "minimum_temperature_24": null,
    "minimum_temperature_6": null,
    "precip_24_hours": null,
    "precip_36_hours": null,
    "precip_hourly": null,
    "pressure_tendency": null,
    "sea_level_pressure": {
      "repr": "SLP247",
      "spoken": "one zero two four point seven",
      "value": 1024.7
    },
    "snow_depth": null,
    "sunshine_minutes": null,
    "temperature_decimal": {
      "repr": "1144",
      "spoken": "minus one four point four",
      "value": -14.4
    }
  },
  "runway_visibility": [],
  "sanitized": "KBLI 121253Z 03020G40KT 10SM M14/M27 A3022 RMK AO2 PK WND 05045/1225 SLP247 T11441267",
  "station": "KBLI",
  "temperature": {
    "repr": "M14",
    "spoken": "minus one four",
    "value": -14
  },
  "time": {
    "dt": "2024-01-12T12:53:00Z",
    "repr": "121253Z"
  },
  "units": {
    "accumulation": "in",
    "altimeter": "inHg",
    "altitude": "ft",
    "temperature": "C",
    "visibility": "sm",
    "wind_speed": "kt"
  },
  "visibility": {
    "repr": "10",
    "spoken": "one zero",
    "value": 10
  },
  "wind_direction": {
    "repr": "030",
    "spoken": "zero three zero",
    "value": 30
  },
  "wind_gust": {
    "repr": "40",
    "spoken": "four zero",
    "value": 40
  },
  "wind_speed": {
    "repr": "20",
    "spoken": "two zero",
    "value": 20
  },
  "wind_variable_direction": [],
  "wx_codes": []
}
