{
  "meta": {
    "timestamp": "2022-09-10T00:35:59.821877Z",
    "stations_updated": "2022-07-17"
  },
  "altimeter": {
    "repr": "A2994",
    "value": 29.94,
    "spoken": "two nine point nine four"
  },
  "clouds": [
    {
      "repr": "FEW065",
      "type": "FEW",
      "altitude": 65,
      "modifier": null
    }
  ],
  "flight_rules": "VFR",
  "other": [],
  "visibility": {
    "repr": "8",
    "value": 8,
    "spoken": "eight"
  },
  "wind_direction": {
    "repr": "290",
    "value": 290,
    "spoken": "two nine zero"
  },
  "wind_gust": null,
  "wind_speed": {
    "repr": "08",
    "value": 8,
    "spoken": "eight"
  },
  "wx_codes": [],
  "raw": "KBLI 092353Z 29008KT 8SM FEW065 24/12 A2994 RMK AO2 SLP143 T02390122 10283 20239 56018 $",
  "sanitized": "KBLI 092353Z 29008KT 8SM FEW065 24/12 A2994 RMK AO2 SLP143 T02390122 10283 20239 56018 $",
  "station": "KBLI",
  "time": {
    "repr": "092353Z",
    "dt": "2022-09-09T23:53:00Z"
  },
  "remarks": "RMK AO2 SLP143 T02390122 10283 20239 56018 $",
  "dewpoint": {
    "repr": "12",
    "value": 12,
    "spoken": "one two"
  },
  "relative_humidity": 0.4789032543771187,
  "remarks_info": {
    "maximum_temperature_6": {
      "repr": "10283",
      "value": 28.3,
      "spoken": "two eight point three"
    },
    "minimum_temperature_6": {
      "repr": "20239",
      "value": 23.9,
      "spoken": "two three point nine"
    },
    "pressure_tendency": {
      "repr": "56018",
      "tendency": "Decreasing, then steady",
      "change": 1.8
    },
    "precip_36_hours": null,
    "precip_24_hours": null,
    "sunshine_minutes": null,
    "codes": [
      {
        "repr": "$",
        "value": "ASOS requires maintenance"
      },
      {
        "repr": "AO2",
        "value": "Automated with precipitation sensor"
      }
    ],
    "dewpoint_decimal": {
      "repr": "0122",
      "value": 12.2,
      "spoken": "one two point two"
    },
    "maximum_temperature_24": null,
    "minimum_temperature_24": null,
    "precip_hourly": null,
    "sea_level_pressure": {
      "repr": "SLP143",
      "value": 1014.3,
      "spoken": "one zero one four point three"
    },
    "snow_depth": null,
    "temperature_decimal": {
      "repr": "0239",
      "value": 23.9,
      "spoken": "two three point nine"
    }
  },
  "runway_visibility": [],
  "temperature": {
    "repr": "24",
    "value": 24,
    "spoken": "two four"
  },
  "wind_variable_direction": [],
  "density_altitude": 1259,
  "pressure_altitude": 150,
  "units": {
    "accumulation": "in",
    "altimeter": "inHg",
    "altitude": "ft",
    "temperature": "C",
    "visibility": "sm",
    "wind_speed": "kt"
  }
}
