{
  "altimeter": {
    "repr": "A2989",
    "spoken": "two nine point eight nine",
    "value": 29.89
  },
  "clouds": [
    {
      "altitude": 25,
      "modifier": null,
      "repr": "FEW025",
      "type": "FEW"
    }
  ],
  "density_altitude": -155,
  "dewpoint": {
    "repr": "07",
    "spoken": "seven",
    "value": 7
  },
  "flight_rules": "VFR",
  "meta": {
    "stations_updated": "2024-10-29",
    "timestamp": "2024-11-12T22:30:31.200457Z"
  },
  "other": [],
  "pressure_altitude": 200,
  "raw": "KBLI 122153Z 17010G18KT 10SM FEW025 12/07 A2989 RMK AO2 PK WND 14027/2130 SLP129 T01170067",
  "relative_humidity": 0.7139599994869216,
  "remarks": "RMK AO2 PK WND 14027/2130 SLP129 T01170067",
  "remarks_info": {
    "codes": [
      {
        "repr": "AO2",
        "value": "Automated with precipitation sensor"
      }
    ],
    "dewpoint_decimal": {
      "repr": "0067",
      "spoken": "six point seven",
      "value": 6.7
    },
    "maximum_temperature_24": null,
    "maximum_temperature_6": null,
    "minimum_temperature_24": null,
    "minimum_temperature_6": null,
    "precip_24_hours": null,
    "precip_36_hours": null,
    "precip_hourly": null,
    "pressure_tendency": null,
    "sea_level_pressure": {
      "repr": "SLP129",
      "spoken": "one zero one two point nine",
      "value": 1012.9
    },
    "snow_depth": null,
    "sunshine_minutes": null,
    "temperature_decimal": {
      "repr": "0117",
      "spoken": "one one point seven",
      "value": 11.7
    }
  },
  "runway_visibility": [],
  "sanitized": "KBLI 122153Z 17010G18KT 10SM FEW025 12/07 A2989 RMK AO2 PK WND 14027/2130 SLP129 T01170067",
  "station": "KBLI",
  "temperature": {
    "repr": "12",
    "spoken": "one two",
    "value": 12
  },
  "time": {
    "dt": "2024-11-12T21:53:00Z",
    "repr": "122153Z"
  },
  "units": {
    "accumulation": "in",
    "altimeter": "inHg",
    "altitude": "ft",
    "temperature": "C",
    "visibility": "sm",
    "wind_speed": "kt"
  },
  "visibility": {
    "repr": "10",
    "spoken": "one zero",
    "value": 10
  },
  "wind_direction": {
    "repr": "170",
    "spoken": "one seven zero",
    "value": 170
  },
  "wind_gust": {
    "repr": "18",
    "spoken": "one eight",
    "value": 18
  },
  "wind_speed": {
    "repr": "10",
    "spoken": "one zero",
    "value": 10
  },
  "wind_variable_direction": [],
  "wx_codes": []
}
