{
  "altimeter": {
    "repr": "A2969",
    "spoken": "two nine point six nine",
    "value": 29.69
  },
  "clouds": [],
  "density_altitude": -1155,
  "dewpoint": {
    "repr": "00",
    "spoken": "zero",
    "value": 0
  },
  "flight_rules": "VFR",
  "meta": {
    "cache-timestamp": "2024-01-20T12:08:03.660000Z",
    "stations_updated": "2023-10-28",
    "timestamp": "2024-01-20T12:08:29.185146Z"
  },
  "other": [],
  "pressure_altitude": 400,
  "raw": "KBLI 201153Z AUTO 00000KT 10SM CLR 02/00 A2969 RMK AO2 SLP064 70015 T00170000 10022 21006 56021",
  "relative_humidity": 0.8846986887746675,
  "remarks": "RMK AO2 SLP064 70015 T00170000 10022 21006 56021",
  "remarks_info": {
    "codes": [
      {
        "repr": "AO2",
        "value": "Automated with precipitation sensor"
      }
    ],
    "dewpoint_decimal": {
      "repr": "0000",
      "spoken": "zero",
      "value": 0
    },
    "maximum_temperature_24": null,
    "maximum_temperature_6": {
      "repr": "10022",
      "spoken": "two point two",
      "value": 2.2
    },
    "minimum_temperature_24": null,
    "minimum_temperature_6": {
      "repr": "21006",
      "spoken": "minus zero point six",
      "value": -0.6
    },
    "precip_24_hours": {
      "repr": "70015",
      "spoken": "zero point one five",
      "value": 0.15
    },
    "precip_36_hours": null,
    "precip_hourly": null,
    "pressure_tendency": {
      "change": 2.1,
      "repr": "56021",
      "tendency": "Decreasing, then steady"
    },
    "sea_level_pressure": {
      "repr": "SLP064",
      "spoken": "one zero zero six point four",
      "value": 1006.4
    },
    "snow_depth": null,
    "sunshine_minutes": null,
    "temperature_decimal": {
      "repr": "0017",
      "spoken": "one point seven",
      "value": 1.7
    }
  },
  "runway_visibility": [],
  "sanitized": "KBLI 201153Z 00000KT 10SM 02/00 A2969 RMK AO2 SLP064 70015 T00170000 10022 21006 56021",
  "station": "KBLI",
  "temperature": {
    "repr": "02",
    "spoken": "two",
    "value": 2
  },
  "time": {
    "dt": "2024-01-20T11:53:00Z",
    "repr": "201153Z"
  },
  "units": {
    "accumulation": "in",
    "altimeter": "inHg",
    "altitude": "ft",
    "temperature": "C",
    "visibility": "sm",
    "wind_speed": "kt"
  },
  "visibility": {
    "repr": "10",
    "spoken": "one zero",
    "value": 10
  },
  "wind_direction": {
    "repr": "000",
    "spoken": "zero zero zero",
    "value": 0
  },
  "wind_gust": null,
  "wind_speed": {
    "repr": "00",
    "spoken": "zero",
    "value": 0
  },
  "wind_variable_direction": [],
  "wx_codes": []
}
