{
  "altimeter": {
    "repr": "A2981",
    "spoken": "two nine point eight one",
    "value": 29.81
  },
  "clouds": [
    {
      "altitude": 4,
      "modifier": null,
      "repr": "BKN004",
      "type": "BKN"
    },
    {
      "altitude": 15,
      "modifier": null,
      "repr": "BKN015",
      "type": "BKN"
    }
  ],
  "density_altitude": -483,
  "dewpoint": {
    "repr": "08",
    "spoken": "eight",
    "value": 8
  },
  "flight_rules": "LIFR",
  "meta": {
    "cache-timestamp": "2023-12-06T18:40:03.968000Z",
    "stations_updated": "2023-10-28",
    "timestamp": "2023-12-06T18:40:31.385023Z"
  },
  "other": [],
  "pressure_altitude": 280,
  "raw": "KBLI 061816Z 20005KT 7SM BKN004 BKN015 08/08 A2981 RMK AO2 T00830083",
  "relative_humidity": 1,
  "remarks": "RMK AO2 T00830083",
  "remarks_info": {
    "codes": [
      {
        "repr": "AO2",
        "value": "Automated with precipitation sensor"
      }
    ],
    "dewpoint_decimal": {
      "repr": "0083",
      "spoken": "eight point three",
      "value": 8.3
    },
    "maximum_temperature_24": null,
    "maximum_temperature_6": null,
    "minimum_temperature_24": null,
    "minimum_temperature_6": null,
    "precip_24_hours": null,
    "precip_36_hours": null,
    "precip_hourly": null,
    "pressure_tendency": null,
    "sea_level_pressure": null,
    "snow_depth": null,
    "sunshine_minutes": null,
    "temperature_decimal": {
      "repr": "0083",
      "spoken": "eight point three",
      "value": 8.3
    }
  },
  "runway_visibility": [],
  "sanitized": "KBLI 061816Z 20005KT 7SM BKN004 BKN015 08/08 A2981 RMK AO2 T00830083",
  "station": "KBLI",
  "temperature": {
    "repr": "08",
    "spoken": "eight",
    "value": 8
  },
  "time": {
    "dt": "2023-12-06T18:16:00Z",
    "repr": "061816Z"
  },
  "units": {
    "accumulation": "in",
    "altimeter": "inHg",
    "altitude": "ft",
    "temperature": "C",
    "visibility": "sm",
    "wind_speed": "kt"
  },
  "visibility": {
    "repr": "7",
    "spoken": "seven",
    "value": 7
  },
  "wind_direction": {
    "repr": "200",
    "spoken": "two zero zero",
    "value": 200
  },
  "wind_gust": null,
  "wind_speed": {
    "repr": "05",
    "spoken": "five",
    "value": 5
  },
  "wind_variable_direction": [],
  "wx_codes": []
}
