{
  "altimeter": {
    "repr": "A2995",
    "spoken": "two nine point nine five",
    "value": 29.95
  },
  "clouds": [
    {
      "altitude": 75,
      "modifier": null,
      "repr": "SCT075",
      "type": "SCT"
    }
  ],
  "density_altitude": 49,
  "dewpoint": {
    "repr": "11",
    "spoken": "one one",
    "value": 11
  },
  "flight_rules": "VFR",
  "meta": {
    "stations_updated": "2024-06-12",
    "timestamp": "2024-09-20T03:43:16.619565Z"
  },
  "other": [],
  "pressure_altitude": 140,
  "raw": "KBLI 200253Z 18009KT 10SM SCT075 14/11 A2995 RMK AO2 SLP150 T01390111 58005",
  "relative_humidity": 0.8320736463097704,
  "remarks": "RMK AO2 SLP150 T01390111 58005",
  "remarks_info": {
    "codes": [
      {
        "repr": "AO2",
        "value": "Automated with precipitation sensor"
      }
    ],
    "dewpoint_decimal": {
      "repr": "0111",
      "spoken": "one one point one",
      "value": 11.1
    },
    "maximum_temperature_24": null,
    "maximum_temperature_6": null,
    "minimum_temperature_24": null,
    "minimum_temperature_6": null,
    "precip_24_hours": null,
    "precip_36_hours": null,
    "precip_hourly": null,
    "pressure_tendency": {
      "change": 0.5,
      "repr": "58005",
      "tendency": "Steady or increasing, then decreasing"
    },
    "sea_level_pressure": {
      "repr": "SLP150",
      "spoken": "one zero one five point zero",
      "value": 1015
    },
    "snow_depth": null,
    "sunshine_minutes": null,
    "temperature_decimal": {
      "repr": "0139",
      "spoken": "one three point nine",
      "value": 13.9
    }
  },
  "runway_visibility": [],
  "sanitized": "KBLI 200253Z 18009KT 10SM SCT075 14/11 A2995 RMK AO2 SLP150 T01390111 58005",
  "station": "KBLI",
  "temperature": {
    "repr": "14",
    "spoken": "one four",
    "value": 14
  },
  "time": {
    "dt": "2024-09-20T02:53:00Z",
    "repr": "200253Z"
  },
  "units": {
    "accumulation": "in",
    "altimeter": "inHg",
    "altitude": "ft",
    "temperature": "C",
    "visibility": "sm",
    "wind_speed": "kt"
  },
  "visibility": {
    "repr": "10",
    "spoken": "one zero",
    "value": 10
  },
  "wind_direction": {
    "repr": "180",
    "spoken": "one eight zero",
    "value": 180
  },
  "wind_gust": null,
  "wind_speed": {
    "repr": "09",
    "spoken": "nine",
    "value": 9
  },
  "wind_variable_direction": [],
  "wx_codes": []
}
