{
  "altimeter": {
    "repr": "A2999",
    "spoken": "two nine point nine nine",
    "value": 29.99
  },
  "clouds": [
    {
      "altitude": 95,
      "modifier": null,
      "repr": "SCT095",
      "type": "SCT"
    }
  ],
  "density_altitude": -2859,
  "dewpoint": {
    "repr": "M22",
    "spoken": "minus two two",
    "value": -22
  },
  "flight_rules": "VFR",
  "meta": {
    "cache-timestamp": "2024-01-12T05:02:03.862000Z",
    "stations_updated": "2023-10-28",
    "timestamp": "2024-01-12T05:02:55.756422Z"
  },
  "other": [],
  "pressure_altitude": 100,
  "raw": "KBLI 120453Z 04027G42KT 10SM SCT095 M10/M22 A2999 RMK AO2 PK WND 03045/0429 SLP167 T11001217",
  "relative_humidity": 0.3783199691235067,
  "remarks": "RMK AO2 PK WND 03045/0429 SLP167 T11001217",
  "remarks_info": {
    "codes": [
      {
        "repr": "AO2",
        "value": "Automated with precipitation sensor"
      }
    ],
    "dewpoint_decimal": {
      "repr": "1217",
      "spoken": "minus two one point seven",
      "value": -21.7
    },
    "maximum_temperature_24": null,
    "maximum_temperature_6": null,
    "minimum_temperature_24": null,
    "minimum_temperature_6": null,
    "precip_24_hours": null,
    "precip_36_hours": null,
    "precip_hourly": null,
    "pressure_tendency": null,
    "sea_level_pressure": {
      "repr": "SLP167",
      "spoken": "one zero one six point seven",
      "value": 1016.7
    },
    "snow_depth": null,
    "sunshine_minutes": null,
    "temperature_decimal": {
      "repr": "1100",
      "spoken": "minus one zero point zero",
      "value": -10
    }
  },
  "runway_visibility": [],
  "sanitized": "KBLI 120453Z 04027G42KT 10SM SCT095 M10/M22 A2999 RMK AO2 PK WND 03045/0429 SLP167 T11001217",
  "station": "KBLI",
  "temperature": {
    "repr": "M10",
    "spoken": "minus one zero",
    "value": -10
  },
  "time": {
    "dt": "2024-01-12T04:53:00Z",
    "repr": "120453Z"
  },
  "units": {
    "accumulation": "in",
    "altimeter": "inHg",
    "altitude": "ft",
    "temperature": "C",
    "visibility": "sm",
    "wind_speed": "kt"
  },
  "visibility": {
    "repr": "10",
    "spoken": "one zero",
    "value": 10
  },
  "wind_direction": {
    "repr": "040",
    "spoken": "zero four zero",
    "value": 40
  },
  "wind_gust": {
    "repr": "42",
    "spoken": "four two",
    "value": 42
  },
  "wind_speed": {
    "repr": "27",
    "spoken": "two seven",
    "value": 27
  },
  "wind_variable_direction": [],
  "wx_codes": []
}
