{
  "meta": {
    "timestamp": "2023-03-24T14:40:49.049897Z",
    "stations_updated": "2023-03-11",
    "cache-timestamp": "2023-03-24T14:40:06.651000Z"
  },
  "altimeter": {
    "repr": "A3006",
    "value": 30.06,
    "spoken": "three zero point zero six"
  },
  "clouds": [
    {
      "repr": "SCT009",
      "type": "SCT",
      "altitude": 9,
      "modifier": null
    },
    {
      "repr": "OVC014",
      "type": "OVC",
      "altitude": 14,
      "modifier": null
    }
  ],
  "flight_rules": "MVFR",
  "other": [],
  "visibility": {
    "repr": "3",
    "value": 3,
    "spoken": "three"
  },
  "wind_direction": {
    "repr": "200",
    "value": 200,
    "spoken": "two zero zero"
  },
  "wind_gust": null,
  "wind_speed": {
    "repr": "05",
    "value": 5,
    "spoken": "five"
  },
  "wx_codes": [
    {
      "repr": "RA",
      "value": "Rain"
    },
    {
      "repr": "BR",
      "value": "Mist"
    }
  ],
  "raw": "KBLI 241406Z 20005KT 3SM RA BR SCT009 OVC014 03/03 A3006 RMK AO2 P0005 T00280028",
  "sanitized": "KBLI 241406Z 20005KT 3SM RA BR SCT009 OVC014 03/03 A3006 RMK AO2 P0005 T00280028",
  "station": "KBLI",
  "time": {
    "repr": "241406Z",
    "dt": "2023-03-24T14:06:00Z"
  },
  "remarks": "RMK AO2 P0005 T00280028",
  "dewpoint": {
    "repr": "03",
    "value": 3,
    "spoken": "three"
  },
  "relative_humidity": 1,
  "remarks_info": {
    "maximum_temperature_6": null,
    "minimum_temperature_6": null,
    "pressure_tendency": null,
    "precip_36_hours": null,
    "precip_24_hours": null,
    "sunshine_minutes": null,
    "codes": [
      {
        "repr": "AO2",
        "value": "Automated with precipitation sensor"
      }
    ],
    "dewpoint_decimal": {
      "repr": "0028",
      "value": 2.8,
      "spoken": "two point eight"
    },
    "maximum_temperature_24": null,
    "minimum_temperature_24": null,
    "precip_hourly": {
      "repr": "P0005",
      "value": 0.05,
      "spoken": "zero point zero five"
    },
    "sea_level_pressure": null,
    "snow_depth": null,
    "temperature_decimal": {
      "repr": "0028",
      "value": 2.8,
      "spoken": "two point eight"
    }
  },
  "runway_visibility": [],
  "temperature": {
    "repr": "03",
    "value": 3,
    "spoken": "three"
  },
  "wind_variable_direction": [],
  "density_altitude": -1393,
  "pressure_altitude": 30,
  "units": {
    "accumulation": "in",
    "altimeter": "inHg",
    "altitude": "ft",
    "temperature": "C",
    "visibility": "sm",
    "wind_speed": "kt"
  }
}
