{
  "meta": {
    "timestamp": "2023-08-28T22:25:32.861869Z",
    "stations_updated": "2023-08-05",
    "cache-timestamp": "2023-08-28T22:25:18.251000Z"
  },
  "altimeter": {
    "repr": "A3006",
    "value": 30.06,
    "spoken": "three zero point zero six"
  },
  "clouds": [
    {
      "repr": "BKN016",
      "type": "BKN",
      "altitude": 16,
      "modifier": null
    }
  ],
  "flight_rules": "MVFR",
  "other": [],
  "visibility": {
    "repr": "9",
    "value": 9,
    "spoken": "nine"
  },
  "wind_direction": {
    "repr": "190",
    "value": 190,
    "spoken": "one nine zero"
  },
  "wind_gust": {
    "repr": "21",
    "value": 21,
    "spoken": "two one"
  },
  "wind_speed": {
    "repr": "10",
    "value": 10,
    "spoken": "one zero"
  },
  "wx_codes": [
    {
      "repr": "FU",
      "value": "Smoke"
    }
  ],
  "raw": "KBLI 282153Z 19010G21KT 9SM FU BKN016 19/16 A3006 RMK AO2 LTG DSNT S AND SW RAB10E19 SLP185 P0000 T01890161",
  "sanitized": "KBLI 282153Z 19010G21KT 9SM FU BKN016 19/16 A3006 RMK AO2 LTG DSNT S AND SW RAB10E19 SLP185 P0000 T01890161",
  "station": "KBLI",
  "time": {
    "repr": "282153Z",
    "dt": "2023-08-28T21:53:00Z"
  },
  "remarks": "RMK AO2 LTG DSNT S AND SW RAB10E19 SLP185 P0000 T01890161",
  "dewpoint": {
    "repr": "16",
    "value": 16,
    "spoken": "one six"
  },
  "relative_humidity": 0.8378986491635575,
  "remarks_info": {
    "maximum_temperature_6": null,
    "minimum_temperature_6": null,
    "pressure_tendency": null,
    "precip_36_hours": null,
    "precip_24_hours": null,
    "sunshine_minutes": null,
    "codes": [
      {
        "repr": "AO2",
        "value": "Automated with precipitation sensor"
      },
      {
        "repr": "P0000",
        "value": "Trace amount of rain in the last hour"
      }
    ],
    "dewpoint_decimal": {
      "repr": "0161",
      "value": 16.1,
      "spoken": "one six point one"
    },
    "maximum_temperature_24": null,
    "minimum_temperature_24": null,
    "precip_hourly": null,
    "sea_level_pressure": {
      "repr": "SLP185",
      "value": 1018.5,
      "spoken": "one zero one eight point five"
    },
    "snow_depth": null,
    "temperature_decimal": {
      "repr": "0189",
      "value": 18.9,
      "spoken": "one eight point nine"
    }
  },
  "runway_visibility": [],
  "temperature": {
    "repr": "19",
    "value": 19,
    "spoken": "one nine"
  },
  "wind_variable_direction": [],
  "density_altitude": 539,
  "pressure_altitude": 30,
  "units": {
    "accumulation": "in",
    "altimeter": "inHg",
    "altitude": "ft",
    "temperature": "C",
    "visibility": "sm",
    "wind_speed": "kt"
  }
}
