{
  "meta": {
    "timestamp": "2023-01-04T18:31:25.693518Z",
    "stations_updated": "2022-12-27"
  },
  "altimeter": {
    "repr": "A2989",
    "value": 29.89,
    "spoken": "two nine point eight nine"
  },
  "clouds": [],
  "flight_rules": "VFR",
  "other": [],
  "visibility": {
    "repr": "10",
    "value": 10,
    "spoken": "one zero"
  },
  "wind_direction": {
    "repr": "030",
    "value": 30,
    "spoken": "zero three zero"
  },
  "wind_gust": null,
  "wind_speed": {
    "repr": "09",
    "value": 9,
    "spoken": "nine"
  },
  "wx_codes": [],
  "raw": "KBLI 041753Z 03009KT 10SM CLR 03/M01 A2989 RMK AO2 SLP129 T00331006 10039 20022 58006",
  "sanitized": "KBLI 041753Z 03009KT 10SM 03/M01 A2989 RMK AO2 SLP129 T00331006 10039 20022 58006",
  "station": "KBLI",
  "time": {
    "repr": "041753Z",
    "dt": "2023-01-04T17:53:00Z"
  },
  "remarks": "RMK AO2 SLP129 T00331006 10039 20022 58006",
  "dewpoint": {
    "repr": "M01",
    "value": -1,
    "spoken": "minus one"
  },
  "relative_humidity": 0.7558473622381994,
  "remarks_info": {
    "maximum_temperature_6": {
      "repr": "10039",
      "value": 3.9,
      "spoken": "three point nine"
    },
    "minimum_temperature_6": {
      "repr": "20022",
      "value": 2.2,
      "spoken": "two point two"
    },
    "pressure_tendency": {
      "repr": "58006",
      "tendency": "Steady or increasing, then decreasing",
      "change": 0.6
    },
    "precip_36_hours": null,
    "precip_24_hours": null,
    "sunshine_minutes": null,
    "codes": [
      {
        "repr": "AO2",
        "value": "Automated with precipitation sensor"
      }
    ],
    "dewpoint_decimal": {
      "repr": "1006",
      "value": -0.6,
      "spoken": "minus zero point six"
    },
    "maximum_temperature_24": null,
    "minimum_temperature_24": null,
    "precip_hourly": null,
    "sea_level_pressure": {
      "repr": "SLP129",
      "value": 1012.9,
      "spoken": "one zero one two point nine"
    },
    "snow_depth": null,
    "temperature_decimal": {
      "repr": "0033",
      "value": 3.3,
      "spoken": "three point three"
    }
  },
  "runway_visibility": [],
  "temperature": {
    "repr": "03",
    "value": 3,
    "spoken": "three"
  },
  "wind_variable_direction": [],
  "density_altitude": -1163,
  "pressure_altitude": 200,
  "units": {
    "accumulation": "in",
    "altimeter": "inHg",
    "altitude": "ft",
    "temperature": "C",
    "visibility": "sm",
    "wind_speed": "kt"
  }
}
