{
  "altimeter": {
    "repr": "A2978",
    "spoken": "two nine point seven eight",
    "value": 29.78
  },
  "clouds": [
    {
      "altitude": 27,
      "modifier": null,
      "repr": "BKN027",
      "type": "BKN"
    },
    {
      "altitude": 33,
      "modifier": null,
      "repr": "OVC033",
      "type": "OVC"
    }
  ],
  "density_altitude": 555,
  "dewpoint": {
    "repr": "13",
    "spoken": "one three",
    "value": 13
  },
  "flight_rules": "MVFR",
  "meta": {
    "stations_updated": "2024-06-12",
    "timestamp": "2024-10-20T17:40:59.352025Z"
  },
  "other": [],
  "pressure_altitude": 310,
  "raw": "KBLI 201653Z 16011G23KT 10SM BKN027 OVC033 17/13 A2978 RMK AO2 PK WND 16029/1637 SLP090 T01670128",
  "relative_humidity": 0.7775405681030445,
  "remarks": "RMK AO2 PK WND 16029/1637 SLP090 T01670128",
  "remarks_info": {
    "codes": [
      {
        "repr": "AO2",
        "value": "Automated with precipitation sensor"
      }
    ],
    "dewpoint_decimal": {
      "repr": "0128",
      "spoken": "one two point eight",
      "value": 12.8
    },
    "maximum_temperature_24": null,
    "maximum_temperature_6": null,
    "minimum_temperature_24": null,
    "minimum_temperature_6": null,
    "precip_24_hours": null,
    "precip_36_hours": null,
    "precip_hourly": null,
    "pressure_tendency": null,
    "sea_level_pressure": {
      "repr": "SLP090",
      "spoken": "one zero zero nine point zero",
      "value": 1009
    },
    "snow_depth": null,
    "sunshine_minutes": null,
    "temperature_decimal": {
      "repr": "0167",
      "spoken": "one six point seven",
      "value": 16.7
    }
  },
  "runway_visibility": [],
  "sanitized": "KBLI 201653Z 16011G23KT 10SM BKN027 OVC033 17/13 A2978 RMK AO2 PK WND 16029/1637 SLP090 T01670128",
  "station": "KBLI",
  "temperature": {
    "repr": "17",
    "spoken": "one seven",
    "value": 17
  },
  "time": {
    "dt": "2024-10-20T16:53:00Z",
    "repr": "201653Z"
  },
  "units": {
    "accumulation": "in",
    "altimeter": "inHg",
    "altitude": "ft",
    "temperature": "C",
    "visibility": "sm",
    "wind_speed": "kt"
  },
  "visibility": {
    "repr": "10",
    "spoken": "one zero",
    "value": 10
  },
  "wind_direction": {
    "repr": "160",
    "spoken": "one six zero",
    "value": 160
  },
  "wind_gust": {
    "repr": "23",
    "spoken": "two three",
    "value": 23
  },
  "wind_speed": {
    "repr": "11",
    "spoken": "one one",
    "value": 11
  },
  "wind_variable_direction": [],
  "wx_codes": []
}
