{
  "meta": {
    "timestamp": "2023-03-01T10:06:18.854335Z",
    "stations_updated": "2023-01-30",
    "cache-timestamp": "2023-03-01T10:06:05.452000Z"
  },
  "altimeter": {
    "repr": "A2991",
    "value": 29.91,
    "spoken": "two nine point nine one"
  },
  "clouds": [
    {
      "repr": "VV001",
      "type": "VV",
      "altitude": 1,
      "modifier": null
    }
  ],
  "flight_rules": "LIFR",
  "other": [],
  "visibility": {
    "repr": "1/4",
    "value": 0.25,
    "spoken": "one quarter",
    "numerator": 1,
    "denominator": 4,
    "normalized": "1/4"
  },
  "wind_direction": {
    "repr": "000",
    "value": 0,
    "spoken": "zero zero zero"
  },
  "wind_gust": null,
  "wind_speed": {
    "repr": "00",
    "value": 0,
    "spoken": "zero"
  },
  "wx_codes": [
    {
      "repr": "FZFG",
      "value": "Freezing Fog"
    }
  ],
  "raw": "KBLI 010953Z AUTO 00000KT 1/4SM R16/1400V5000FT FZFG VV001 M03/M03 A2991 RMK AO2 SLP137 T10281028",
  "sanitized": "KBLI 010953Z 00000KT 1/4SM R16/1400V5000FT FZFG VV001 M03/M03 A2991 RMK AO2 SLP137 T10281028",
  "station": "KBLI",
  "time": {
    "repr": "010953Z",
    "dt": "2023-03-01T09:53:00Z"
  },
  "remarks": "RMK AO2 SLP137 T10281028",
  "dewpoint": {
    "repr": "M03",
    "value": -3,
    "spoken": "minus three"
  },
  "relative_humidity": 1,
  "remarks_info": {
    "maximum_temperature_6": null,
    "minimum_temperature_6": null,
    "pressure_tendency": null,
    "precip_36_hours": null,
    "precip_24_hours": null,
    "sunshine_minutes": null,
    "codes": [
      {
        "repr": "AO2",
        "value": "Automated with precipitation sensor"
      }
    ],
    "dewpoint_decimal": {
      "repr": "1028",
      "value": -2.8,
      "spoken": "minus two point eight"
    },
    "maximum_temperature_24": null,
    "minimum_temperature_24": null,
    "precip_hourly": null,
    "sea_level_pressure": {
      "repr": "SLP137",
      "value": 1013.7,
      "spoken": "one zero one three point seven"
    },
    "snow_depth": null,
    "temperature_decimal": {
      "repr": "1028",
      "value": -2.8,
      "spoken": "minus two point eight"
    }
  },
  "runway_visibility": [
    {
      "repr": "R16/1400V5000FT",
      "runway": "16",
      "visibility": null,
      "variable_visibility": [
        {
          "repr": "1400",
          "value": 1400,
          "spoken": "one four hundred"
        },
        {
          "repr": "5000",
          "value": 5000,
          "spoken": "five thousand"
        }
      ],
      "trend": null
    }
  ],
  "temperature": {
    "repr": "M03",
    "value": -3,
    "spoken": "minus three"
  },
  "wind_variable_direction": [],
  "density_altitude": -1915,
  "pressure_altitude": 180,
  "units": {
    "accumulation": "in",
    "altimeter": "inHg",
    "altitude": "ft",
    "temperature": "C",
    "visibility": "sm",
    "wind_speed": "kt"
  }
}
