{
  "altimeter": {
    "repr": "A3032",
    "spoken": "three zero point three two",
    "value": 30.32
  },
  "clouds": [],
  "density_altitude": -717,
  "dewpoint": {
    "repr": "M02",
    "spoken": "minus two",
    "value": -2
  },
  "flight_rules": "VFR",
  "meta": {
    "cache-timestamp": "2024-04-17T01:34:04.246000Z",
    "stations_updated": "2024-01-01",
    "timestamp": "2024-04-17T01:34:45.918645Z"
  },
  "other": [],
  "pressure_altitude": -230,
  "raw": "KBLI 170053Z 24005KT 10SM CLR 11/M02 A3032 RMK AO2 SLP277 T01061022",
  "relative_humidity": 0.4072933438482549,
  "remarks": "RMK AO2 SLP277 T01061022",
  "remarks_info": {
    "codes": [
      {
        "repr": "AO2",
        "value": "Automated with precipitation sensor"
      }
    ],
    "dewpoint_decimal": {
      "repr": "1022",
      "spoken": "minus two point two",
      "value": -2.2
    },
    "maximum_temperature_24": null,
    "maximum_temperature_6": null,
    "minimum_temperature_24": null,
    "minimum_temperature_6": null,
    "precip_24_hours": null,
    "precip_36_hours": null,
    "precip_hourly": null,
    "pressure_tendency": null,
    "sea_level_pressure": {
      "repr": "SLP277",
      "spoken": "one zero two seven point seven",
      "value": 1027.7
    },
    "snow_depth": null,
    "sunshine_minutes": null,
    "temperature_decimal": {
      "repr": "0106",
      "spoken": "one zero point six",
      "value": 10.6
    }
  },
  "runway_visibility": [],
  "sanitized": "KBLI 170053Z 24005KT 10SM 11/M02 A3032 RMK AO2 SLP277 T01061022",
  "station": "KBLI",
  "temperature": {
    "repr": "11",
    "spoken": "one one",
    "value": 11
  },
  "time": {
    "dt": "2024-04-17T00:53:00Z",
    "repr": "170053Z"
  },
  "units": {
    "accumulation": "in",
    "altimeter": "inHg",
    "altitude": "ft",
    "temperature": "C",
    "visibility": "sm",
    "wind_speed": "kt"
  },
  "visibility": {
    "repr": "10",
    "spoken": "one zero",
    "value": 10
  },
  "wind_direction": {
    "repr": "240",
    "spoken": "two four zero",
    "value": 240
  },
  "wind_gust": null,
  "wind_speed": {
    "repr": "05",
    "spoken": "five",
    "value": 5
  },
  "wind_variable_direction": [],
  "wx_codes": []
}
