{
  "altimeter": {
    "repr": "A2995",
    "spoken": "two nine point nine five",
    "value": 29.95
  },
  "clouds": [],
  "density_altitude": -683,
  "dewpoint": {
    "repr": "03",
    "spoken": "three",
    "value": 3
  },
  "flight_rules": "VFR",
  "meta": {
    "cache-timestamp": "2023-12-27T04:40:03.889000Z",
    "stations_updated": "2023-10-28",
    "timestamp": "2023-12-27T04:40:36.425425Z"
  },
  "other": [],
  "pressure_altitude": 140,
  "raw": "KBLI 270353Z 02006KT 10SM CLR 08/03 A2995 RMK AO2 SLP151 T00780033",
  "relative_humidity": 0.731846990709336,
  "remarks": "RMK AO2 SLP151 T00780033",
  "remarks_info": {
    "codes": [
      {
        "repr": "AO2",
        "value": "Automated with precipitation sensor"
      }
    ],
    "dewpoint_decimal": {
      "repr": "0033",
      "spoken": "three point three",
      "value": 3.3
    },
    "maximum_temperature_24": null,
    "maximum_temperature_6": null,
    "minimum_temperature_24": null,
    "minimum_temperature_6": null,
    "precip_24_hours": null,
    "precip_36_hours": null,
    "precip_hourly": null,
    "pressure_tendency": null,
    "sea_level_pressure": {
      "repr": "SLP151",
      "spoken": "one zero one five point one",
      "value": 1015.1
    },
    "snow_depth": null,
    "sunshine_minutes": null,
    "temperature_decimal": {
      "repr": "0078",
      "spoken": "seven point eight",
      "value": 7.8
    }
  },
  "runway_visibility": [],
  "sanitized": "KBLI 270353Z 02006KT 10SM 08/03 A2995 RMK AO2 SLP151 T00780033",
  "station": "KBLI",
  "temperature": {
    "repr": "08",
    "spoken": "eight",
    "value": 8
  },
  "time": {
    "dt": "2023-12-27T03:53:00Z",
    "repr": "270353Z"
  },
  "units": {
    "accumulation": "in",
    "altimeter": "inHg",
    "altitude": "ft",
    "temperature": "C",
    "visibility": "sm",
    "wind_speed": "kt"
  },
  "visibility": {
    "repr": "10",
    "spoken": "one zero",
    "value": 10
  },
  "wind_direction": {
    "repr": "020",
    "spoken": "zero two zero",
    "value": 20
  },
  "wind_gust": null,
  "wind_speed": {
    "repr": "06",
    "spoken": "six",
    "value": 6
  },
  "wind_variable_direction": [],
  "wx_codes": []
}
