{
  "altimeter": {
    "repr": "A2986",
    "spoken": "two nine point eight six",
    "value": 29.86
  },
  "clouds": [
    {
      "altitude": 20,
      "modifier": null,
      "repr": "SCT020",
      "type": "SCT"
    },
    {
      "altitude": 40,
      "modifier": null,
      "repr": "BKN040",
      "type": "BKN"
    },
    {
      "altitude": 50,
      "modifier": null,
      "repr": "BKN050",
      "type": "BKN"
    }
  ],
  "density_altitude": 67,
  "dewpoint": {
    "repr": "12",
    "spoken": "one two",
    "value": 12
  },
  "flight_rules": "VFR",
  "meta": {
    "stations_updated": "2024-05-13",
    "timestamp": "2024-06-04T21:02:00.237247Z"
  },
  "other": [],
  "pressure_altitude": 230,
  "raw": "KBLI 042053Z 18006KT 8SM -RA SCT020 BKN040 BKN050 13/12 A2986 RMK AO2 RAB05 SLP118 P0003 60003 T01330122 51024",
  "relative_humidity": 0.9304583596468419,
  "remarks": "RMK AO2 RAB05 SLP118 P0003 60003 T01330122 51024",
  "remarks_info": {
    "codes": [
      {
        "repr": "AO2",
        "value": "Automated with precipitation sensor"
      },
      {
        "repr": "RAB05",
        "value": "Rain began at :05"
      }
    ],
    "dewpoint_decimal": {
      "repr": "0122",
      "spoken": "one two point two",
      "value": 12.2
    },
    "maximum_temperature_24": null,
    "maximum_temperature_6": null,
    "minimum_temperature_24": null,
    "minimum_temperature_6": null,
    "precip_24_hours": null,
    "precip_36_hours": {
      "repr": "60003",
      "spoken": "zero point zero three",
      "value": 0.03
    },
    "precip_hourly": {
      "repr": "P0003",
      "spoken": "zero point zero three",
      "value": 0.03
    },
    "pressure_tendency": {
      "change": 2.4,
      "repr": "51024",
      "tendency": "Increasing, then steady"
    },
    "sea_level_pressure": {
      "repr": "SLP118",
      "spoken": "one zero one one point eight",
      "value": 1011.8
    },
    "snow_depth": null,
    "sunshine_minutes": null,
    "temperature_decimal": {
      "repr": "0133",
      "spoken": "one three point three",
      "value": 13.3
    }
  },
  "runway_visibility": [],
  "sanitized": "KBLI 042053Z 18006KT 8SM -RA SCT020 BKN040 BKN050 13/12 A2986 RMK AO2 RAB05 SLP118 P0003 60003 T01330122 51024",
  "station": "KBLI",
  "temperature": {
    "repr": "13",
    "spoken": "one three",
    "value": 13
  },
  "time": {
    "dt": "2024-06-04T20:53:00Z",
    "repr": "042053Z"
  },
  "units": {
    "accumulation": "in",
    "altimeter": "inHg",
    "altitude": "ft",
    "temperature": "C",
    "visibility": "sm",
    "wind_speed": "kt"
  },
  "visibility": {
    "repr": "8",
    "spoken": "eight",
    "value": 8
  },
  "wind_direction": {
    "repr": "180",
    "spoken": "one eight zero",
    "value": 180
  },
  "wind_gust": null,
  "wind_speed": {
    "repr": "06",
    "spoken": "six",
    "value": 6
  },
  "wind_variable_direction": [],
  "wx_codes": [
    {
      "repr": "-RA",
      "value": "Light Rain"
    }
  ]
}
