{
  "meta": {
    "timestamp": "2022-11-13T08:36:06.969530Z",
    "stations_updated": "2022-09-05"
  },
  "altimeter": {
    "repr": "A3033",
    "value": 30.33,
    "spoken": "three zero point three three"
  },
  "clouds": [
    {
      "repr": "OVC085",
      "type": "OVC",
      "altitude": 85,
      "modifier": null
    }
  ],
  "flight_rules": "VFR",
  "other": [],
  "visibility": {
    "repr": "9",
    "value": 9,
    "spoken": "nine"
  },
  "wind_direction": {
    "repr": "000",
    "value": 0,
    "spoken": "zero zero zero"
  },
  "wind_gust": null,
  "wind_speed": {
    "repr": "00",
    "value": 0,
    "spoken": "zero"
  },
  "wx_codes": [],
  "raw": "KBLI 130753Z AUTO 00000KT 9SM OVC085 03/03 A3033 RMK AO2 SLP279 T00330028 400941017",
  "sanitized": "KBLI 130753Z 00000KT 9SM OVC085 03/03 A3033 RMK AO2 SLP279 T00330028 400941017",
  "station": "KBLI",
  "time": {
    "repr": "130753Z",
    "dt": "2022-11-13T07:53:00Z"
  },
  "remarks": "RMK AO2 SLP279 T00330028 400941017",
  "dewpoint": {
    "repr": "03",
    "value": 3,
    "spoken": "three"
  },
  "relative_humidity": 0.9652276930831346,
  "remarks_info": {
    "maximum_temperature_6": null,
    "minimum_temperature_6": null,
    "pressure_tendency": null,
    "precip_36_hours": null,
    "precip_24_hours": null,
    "sunshine_minutes": null,
    "codes": [
      {
        "repr": "AO2",
        "value": "Automated with precipitation sensor"
      }
    ],
    "dewpoint_decimal": {
      "repr": "0028",
      "value": 2.8,
      "spoken": "two point eight"
    },
    "maximum_temperature_24": {
      "repr": "0094",
      "value": 9.4,
      "spoken": "nine point four"
    },
    "minimum_temperature_24": {
      "repr": "1017",
      "value": -1.7,
      "spoken": "minus one point seven"
    },
    "precip_hourly": null,
    "sea_level_pressure": {
      "repr": "SLP279",
      "value": 1027.9,
      "spoken": "one zero two seven point nine"
    },
    "snow_depth": null,
    "temperature_decimal": {
      "repr": "0033",
      "value": 3.3,
      "spoken": "three point three"
    }
  },
  "runway_visibility": [],
  "temperature": {
    "repr": "03",
    "value": 3,
    "spoken": "three"
  },
  "wind_variable_direction": [],
  "density_altitude": -1603,
  "pressure_altitude": -240,
  "units": {
    "accumulation": "in",
    "altimeter": "inHg",
    "altitude": "ft",
    "temperature": "C",
    "visibility": "sm",
    "wind_speed": "kt"
  }
}
