{
  "meta": {
    "timestamp": "2023-03-08T12:49:21.231155Z",
    "stations_updated": "2023-01-30"
  },
  "altimeter": {
    "repr": "A2993",
    "value": 29.93,
    "spoken": "two nine point nine three"
  },
  "clouds": [],
  "flight_rules": "VFR",
  "other": [],
  "visibility": {
    "repr": "10",
    "value": 10,
    "spoken": "one zero"
  },
  "wind_direction": {
    "repr": "000",
    "value": 0,
    "spoken": "zero zero zero"
  },
  "wind_gust": null,
  "wind_speed": {
    "repr": "00",
    "value": 0,
    "spoken": "zero"
  },
  "wx_codes": [],
  "raw": "KBLI 081153Z AUTO 00000KT 10SM CLR 01/M02 A2993 RMK AO2 SLP146 T00061017 10050 21017 56008",
  "sanitized": "KBLI 081153Z 00000KT 10SM 01/M02 A2993 RMK AO2 SLP146 T00061017 10050 21017 56008",
  "station": "KBLI",
  "time": {
    "repr": "081153Z",
    "dt": "2023-03-08T11:53:00Z"
  },
  "remarks": "RMK AO2 SLP146 T00061017 10050 21017 56008",
  "dewpoint": {
    "repr": "M02",
    "value": -2,
    "spoken": "minus two"
  },
  "relative_humidity": 0.8456381001619683,
  "remarks_info": {
    "maximum_temperature_6": {
      "repr": "10050",
      "value": 5,
      "spoken": "five point zero"
    },
    "minimum_temperature_6": {
      "repr": "21017",
      "value": -1.7,
      "spoken": "minus one point seven"
    },
    "pressure_tendency": {
      "repr": "56008",
      "tendency": "Decreasing, then steady",
      "change": 0.8
    },
    "precip_36_hours": null,
    "precip_24_hours": null,
    "sunshine_minutes": null,
    "codes": [
      {
        "repr": "AO2",
        "value": "Automated with precipitation sensor"
      }
    ],
    "dewpoint_decimal": {
      "repr": "1017",
      "value": -1.7,
      "spoken": "minus one point seven"
    },
    "maximum_temperature_24": null,
    "minimum_temperature_24": null,
    "precip_hourly": null,
    "sea_level_pressure": {
      "repr": "SLP146",
      "value": 1014.6,
      "spoken": "one zero one four point six"
    },
    "snow_depth": null,
    "temperature_decimal": {
      "repr": "0006",
      "value": 0.6,
      "spoken": "zero point six"
    }
  },
  "runway_visibility": [],
  "temperature": {
    "repr": "01",
    "value": 1,
    "spoken": "one"
  },
  "wind_variable_direction": [],
  "density_altitude": -1527,
  "pressure_altitude": 160,
  "units": {
    "accumulation": "in",
    "altimeter": "inHg",
    "altitude": "ft",
    "temperature": "C",
    "visibility": "sm",
    "wind_speed": "kt"
  }
}
