{
  "altimeter": {
    "repr": "A3000",
    "spoken": "three zero point zero zero",
    "value": 30
  },
  "clouds": [],
  "density_altitude": -1741,
  "dewpoint": {
    "repr": "M01",
    "spoken": "minus one",
    "value": -1
  },
  "flight_rules": "VFR",
  "meta": {
    "cache-timestamp": "2023-11-15T05:26:05.373000Z",
    "stations_updated": "2023-10-28",
    "timestamp": "2023-11-15T05:26:35.653572Z"
  },
  "other": [],
  "pressure_altitude": 90,
  "raw": "KBLI 150453Z 00000KT 10SM CLR M01/M01 A3000 RMK AO2 SLP169 T10061011",
  "relative_humidity": 0.9641214064863484,
  "remarks": "RMK AO2 SLP169 T10061011",
  "remarks_info": {
    "codes": [
      {
        "repr": "AO2",
        "value": "Automated with precipitation sensor"
      }
    ],
    "dewpoint_decimal": {
      "repr": "1011",
      "spoken": "minus one point one",
      "value": -1.1
    },
    "maximum_temperature_24": null,
    "maximum_temperature_6": null,
    "minimum_temperature_24": null,
    "minimum_temperature_6": null,
    "precip_24_hours": null,
    "precip_36_hours": null,
    "precip_hourly": null,
    "pressure_tendency": null,
    "sea_level_pressure": {
      "repr": "SLP169",
      "spoken": "one zero one six point nine",
      "value": 1016.9
    },
    "snow_depth": null,
    "sunshine_minutes": null,
    "temperature_decimal": {
      "repr": "1006",
      "spoken": "minus zero point six",
      "value": -0.6
    }
  },
  "runway_visibility": [],
  "sanitized": "KBLI 150453Z 00000KT 10SM M01/M01 A3000 RMK AO2 SLP169 T10061011",
  "station": "KBLI",
  "temperature": {
    "repr": "M01",
    "spoken": "minus one",
    "value": -1
  },
  "time": {
    "dt": "2023-11-15T04:53:00Z",
    "repr": "150453Z"
  },
  "units": {
    "accumulation": "in",
    "altimeter": "inHg",
    "altitude": "ft",
    "temperature": "C",
    "visibility": "sm",
    "wind_speed": "kt"
  },
  "visibility": {
    "repr": "10",
    "spoken": "one zero",
    "value": 10
  },
  "wind_direction": {
    "repr": "000",
    "spoken": "zero zero zero",
    "value": 0
  },
  "wind_gust": null,
  "wind_speed": {
    "repr": "00",
    "spoken": "zero",
    "value": 0
  },
  "wind_variable_direction": [],
  "wx_codes": []
}
