{
  "meta": {
    "timestamp": "2023-05-11T03:01:54.533398Z",
    "stations_updated": "2023-03-11",
    "cache-timestamp": "2023-05-11T03:01:39.646000Z"
  },
  "altimeter": {
    "repr": "A3001",
    "value": 30.01,
    "spoken": "three zero point zero one"
  },
  "clouds": [],
  "flight_rules": "VFR",
  "other": [],
  "visibility": {
    "repr": "10",
    "value": 10,
    "spoken": "one zero"
  },
  "wind_direction": {
    "repr": "VRB",
    "value": null,
    "spoken": "variable"
  },
  "wind_gust": null,
  "wind_speed": {
    "repr": "03",
    "value": 3,
    "spoken": "three"
  },
  "wx_codes": [],
  "raw": "KBLI 110253Z VRB03KT 10SM CLR 18/08 A3001 RMK AO2 SLP168 T01780083 55002",
  "sanitized": "KBLI 110253Z VRB03KT 10SM 18/08 A3001 RMK AO2 SLP168 T01780083 55002",
  "station": "KBLI",
  "time": {
    "repr": "110253Z",
    "dt": "2023-05-11T02:53:00Z"
  },
  "remarks": "RMK AO2 SLP168 T01780083 55002",
  "dewpoint": {
    "repr": "08",
    "value": 8,
    "spoken": "eight"
  },
  "relative_humidity": 0.5372742846631848,
  "remarks_info": {
    "maximum_temperature_6": null,
    "minimum_temperature_6": null,
    "pressure_tendency": {
      "repr": "55002",
      "tendency": "Decreasing, then increasing",
      "change": 0.2
    },
    "precip_36_hours": null,
    "precip_24_hours": null,
    "sunshine_minutes": null,
    "codes": [
      {
        "repr": "AO2",
        "value": "Automated with precipitation sensor"
      }
    ],
    "dewpoint_decimal": {
      "repr": "0083",
      "value": 8.3,
      "spoken": "eight point three"
    },
    "maximum_temperature_24": null,
    "minimum_temperature_24": null,
    "precip_hourly": null,
    "sea_level_pressure": {
      "repr": "SLP168",
      "value": 1016.8,
      "spoken": "one zero one six point eight"
    },
    "snow_depth": null,
    "temperature_decimal": {
      "repr": "0178",
      "value": 17.8,
      "spoken": "one seven point eight"
    }
  },
  "runway_visibility": [],
  "temperature": {
    "repr": "18",
    "value": 18,
    "spoken": "one eight"
  },
  "wind_variable_direction": [],
  "density_altitude": 457,
  "pressure_altitude": 80,
  "units": {
    "accumulation": "in",
    "altimeter": "inHg",
    "altitude": "ft",
    "temperature": "C",
    "visibility": "sm",
    "wind_speed": "kt"
  }
}
