{
  "meta": {
    "timestamp": "2022-07-27T21:01:59.922954Z",
    "stations_updated": "2022-07-17"
  },
  "altimeter": {
    "repr": "A2998",
    "value": 29.98,
    "spoken": "two nine point nine eight"
  },
  "clouds": [],
  "flight_rules": "VFR",
  "other": [],
  "visibility": {
    "repr": "10",
    "value": 10,
    "spoken": "one zero"
  },
  "wind_direction": {
    "repr": "170",
    "value": 170,
    "spoken": "one seven zero"
  },
  "wind_gust": null,
  "wind_speed": {
    "repr": "08",
    "value": 8,
    "spoken": "eight"
  },
  "wx_codes": [],
  "raw": "KBLI 272053Z 17008KT 10SM CLR 26/18 A2998 RMK AO2 SLP156 T02610178 58004",
  "sanitized": "KBLI 272053Z 17008KT 10SM 26/18 A2998 RMK AO2 SLP156 T02610178 58004",
  "station": "KBLI",
  "time": {
    "repr": "272053Z",
    "dt": "2022-07-27T20:53:00Z"
  },
  "remarks": "RMK AO2 SLP156 T02610178 58004",
  "dewpoint": {
    "repr": "18",
    "value": 18,
    "spoken": "one eight"
  },
  "relative_humidity": 0.6023374919629105,
  "remarks_info": {
    "maximum_temperature_6": null,
    "minimum_temperature_6": null,
    "pressure_tendency": {
      "repr": "58004",
      "tendency": "Steady or increasing, then decreasing",
      "change": 0.4
    },
    "precip_36_hours": null,
    "precip_24_hours": null,
    "sunshine_minutes": null,
    "codes": [
      {
        "repr": "AO2",
        "value": "Automated with precipitation sensor"
      }
    ],
    "dewpoint_decimal": {
      "repr": "0178",
      "value": 17.8,
      "spoken": "one seven point eight"
    },
    "maximum_temperature_24": null,
    "minimum_temperature_24": null,
    "precip_hourly": null,
    "sea_level_pressure": {
      "repr": "SLP156",
      "value": 1015.6,
      "spoken": "one zero one five point six"
    },
    "snow_depth": null,
    "temperature_decimal": {
      "repr": "0261",
      "value": 26.1,
      "spoken": "two six point one"
    }
  },
  "runway_visibility": [],
  "temperature": {
    "repr": "26",
    "value": 26,
    "spoken": "two six"
  },
  "wind_variable_direction": [],
  "density_altitude": 1483,
  "pressure_altitude": 110,
  "units": {
    "accumulation": "in",
    "altimeter": "inHg",
    "altitude": "ft",
    "temperature": "C",
    "visibility": "sm",
    "wind_speed": "kt"
  }
}
