{
  "meta": {
    "timestamp": "2023-05-03T03:40:33.157288Z",
    "stations_updated": "2023-03-11",
    "cache-timestamp": "2023-05-03T03:40:06.353000Z"
  },
  "altimeter": {
    "repr": "A2972",
    "value": 29.72,
    "spoken": "two nine point seven two"
  },
  "clouds": [],
  "flight_rules": "VFR",
  "other": [],
  "visibility": {
    "repr": "10",
    "value": 10,
    "spoken": "one zero"
  },
  "wind_direction": {
    "repr": "200",
    "value": 200,
    "spoken": "two zero zero"
  },
  "wind_gust": null,
  "wind_speed": {
    "repr": "06",
    "value": 6,
    "spoken": "six"
  },
  "wx_codes": [],
  "raw": "KBLI 030253Z 20006KT 10SM CLR 18/11 A2972 RMK AO2 SLP070 T01780106 53008",
  "sanitized": "KBLI 030253Z 20006KT 10SM 18/11 A2972 RMK AO2 SLP070 T01780106 53008",
  "station": "KBLI",
  "time": {
    "repr": "030253Z",
    "dt": "2023-05-03T02:53:00Z"
  },
  "remarks": "RMK AO2 SLP070 T01780106 53008",
  "dewpoint": {
    "repr": "11",
    "value": 11,
    "spoken": "one one"
  },
  "relative_humidity": 0.6271449055486711,
  "remarks_info": {
    "maximum_temperature_6": null,
    "minimum_temperature_6": null,
    "pressure_tendency": {
      "repr": "53008",
      "tendency": "Decreasing or steady, then increasing",
      "change": 0.8
    },
    "precip_36_hours": null,
    "precip_24_hours": null,
    "sunshine_minutes": null,
    "codes": [
      {
        "repr": "AO2",
        "value": "Automated with precipitation sensor"
      }
    ],
    "dewpoint_decimal": {
      "repr": "0106",
      "value": 10.6,
      "spoken": "one zero point six"
    },
    "maximum_temperature_24": null,
    "minimum_temperature_24": null,
    "precip_hourly": null,
    "sea_level_pressure": {
      "repr": "SLP070",
      "value": 1007,
      "spoken": "one zero zero seven point zero"
    },
    "snow_depth": null,
    "temperature_decimal": {
      "repr": "0178",
      "value": 17.8,
      "spoken": "one seven point eight"
    }
  },
  "runway_visibility": [],
  "temperature": {
    "repr": "18",
    "value": 18,
    "spoken": "one eight"
  },
  "wind_variable_direction": [],
  "density_altitude": 747,
  "pressure_altitude": 370,
  "units": {
    "accumulation": "in",
    "altimeter": "inHg",
    "altitude": "ft",
    "temperature": "C",
    "visibility": "sm",
    "wind_speed": "kt"
  }
}
