{
  "altimeter": {
    "repr": "A3001",
    "spoken": "three zero point zero one",
    "value": 30.01
  },
  "clouds": [],
  "density_altitude": 1393,
  "dewpoint": {
    "repr": "17",
    "spoken": "one seven",
    "value": 17
  },
  "flight_rules": "VFR",
  "meta": {
    "cache-timestamp": "2024-08-02T00:12:26.167000Z",
    "stations_updated": "2024-06-12",
    "timestamp": "2024-08-02T00:30:35.221132Z",
    "warning": "Unable to fetch report. This cached data might be out of date. To return an error instead, set ?onfail=error"
  },
  "other": [],
  "pressure_altitude": 80,
  "raw": "KBLI 012353Z 30008KT 10SM CLR 26/17 A3001 RMK AO2 SLP165 T02560172 10261 20233 56013",
  "relative_humidity": 0.5973922906702268,
  "remarks": "RMK AO2 SLP165 T02560172 10261 20233 56013",
  "remarks_info": {
    "codes": [
      {
        "repr": "AO2",
        "value": "Automated with precipitation sensor"
      }
    ],
    "dewpoint_decimal": {
      "repr": "0172",
      "spoken": "one seven point two",
      "value": 17.2
    },
    "maximum_temperature_24": null,
    "maximum_temperature_6": {
      "repr": "10261",
      "spoken": "two six point one",
      "value": 26.1
    },
    "minimum_temperature_24": null,
    "minimum_temperature_6": {
      "repr": "20233",
      "spoken": "two three point three",
      "value": 23.3
    },
    "precip_24_hours": null,
    "precip_36_hours": null,
    "precip_hourly": null,
    "pressure_tendency": {
      "change": 1.3,
      "repr": "56013",
      "tendency": "Decreasing, then steady"
    },
    "sea_level_pressure": {
      "repr": "SLP165",
      "spoken": "one zero one six point five",
      "value": 1016.5
    },
    "snow_depth": null,
    "sunshine_minutes": null,
    "temperature_decimal": {
      "repr": "0256",
      "spoken": "two five point six",
      "value": 25.6
    }
  },
  "runway_visibility": [],
  "sanitized": "KBLI 012353Z 30008KT 10SM 26/17 A3001 RMK AO2 SLP165 T02560172 10261 20233 56013",
  "station": "KBLI",
  "temperature": {
    "repr": "26",
    "spoken": "two six",
    "value": 26
  },
  "time": {
    "dt": "2024-08-01T23:53:00Z",
    "repr": "012353Z"
  },
  "units": {
    "accumulation": "in",
    "altimeter": "inHg",
    "altitude": "ft",
    "temperature": "C",
    "visibility": "sm",
    "wind_speed": "kt"
  },
  "visibility": {
    "repr": "10",
    "spoken": "one zero",
    "value": 10
  },
  "wind_direction": {
    "repr": "300",
    "spoken": "three zero zero",
    "value": 300
  },
  "wind_gust": null,
  "wind_speed": {
    "repr": "08",
    "spoken": "eight",
    "value": 8
  },
  "wind_variable_direction": [],
  "wx_codes": []
}
