{
  "altimeter": {
    "repr": "A2999",
    "spoken": "two nine point nine nine",
    "value": 29.99
  },
  "clouds": [
    {
      "altitude": 60,
      "modifier": null,
      "repr": "OVC060",
      "type": "OVC"
    }
  ],
  "density_altitude": -255,
  "dewpoint": {
    "repr": "11",
    "spoken": "one one",
    "value": 11
  },
  "flight_rules": "VFR",
  "meta": {
    "cache-timestamp": "2024-06-15T08:42:02.967000Z",
    "stations_updated": "2024-05-13",
    "timestamp": "2024-06-15T08:42:21.204285Z"
  },
  "other": [],
  "pressure_altitude": 100,
  "raw": "KBLI 150753Z AUTO 00000KT 10SM OVC060 12/11 A2999 RMK AO2 RAE0659 SLP163 P0000 T01170111 401720106",
  "relative_humidity": 0.9610463260900074,
  "remarks": "RMK AO2 RAE0659 SLP163 P0000 T01170111 401720106",
  "remarks_info": {
    "codes": [
      {
        "repr": "AO2",
        "value": "Automated with precipitation sensor"
      },
      {
        "repr": "P0000",
        "value": "Trace amount of rain in the last hour"
      }
    ],
    "dewpoint_decimal": {
      "repr": "0111",
      "spoken": "one one point one",
      "value": 11.1
    },
    "maximum_temperature_24": {
      "repr": "0172",
      "spoken": "one seven point two",
      "value": 17.2
    },
    "maximum_temperature_6": null,
    "minimum_temperature_24": {
      "repr": "0106",
      "spoken": "one zero point six",
      "value": 10.6
    },
    "minimum_temperature_6": null,
    "precip_24_hours": null,
    "precip_36_hours": null,
    "precip_hourly": null,
    "pressure_tendency": null,
    "sea_level_pressure": {
      "repr": "SLP163",
      "spoken": "one zero one six point three",
      "value": 1016.3
    },
    "snow_depth": null,
    "sunshine_minutes": null,
    "temperature_decimal": {
      "repr": "0117",
      "spoken": "one one point seven",
      "value": 11.7
    }
  },
  "runway_visibility": [],
  "sanitized": "KBLI 150753Z 00000KT 10SM OVC060 12/11 A2999 RMK AO2 RAE0659 SLP163 P0000 T01170111 401720106",
  "station": "KBLI",
  "temperature": {
    "repr": "12",
    "spoken": "one two",
    "value": 12
  },
  "time": {
    "dt": "2024-06-15T07:53:00Z",
    "repr": "150753Z"
  },
  "units": {
    "accumulation": "in",
    "altimeter": "inHg",
    "altitude": "ft",
    "temperature": "C",
    "visibility": "sm",
    "wind_speed": "kt"
  },
  "visibility": {
    "repr": "10",
    "spoken": "one zero",
    "value": 10
  },
  "wind_direction": {
    "repr": "000",
    "spoken": "zero zero zero",
    "value": 0
  },
  "wind_gust": null,
  "wind_speed": {
    "repr": "00",
    "spoken": "zero",
    "value": 0
  },
  "wind_variable_direction": [],
  "wx_codes": []
}
