{
  "meta": {
    "timestamp": "2023-02-24T14:02:21.420239Z",
    "stations_updated": "2023-01-30"
  },
  "altimeter": {
    "repr": "A3015",
    "value": 30.15,
    "spoken": "three zero point one five"
  },
  "clouds": [],
  "flight_rules": "VFR",
  "other": [],
  "visibility": {
    "repr": "10",
    "value": 10,
    "spoken": "one zero"
  },
  "wind_direction": {
    "repr": "040",
    "value": 40,
    "spoken": "zero four zero"
  },
  "wind_gust": {
    "repr": "20",
    "value": 20,
    "spoken": "two zero"
  },
  "wind_speed": {
    "repr": "13",
    "value": 13,
    "spoken": "one three"
  },
  "wx_codes": [],
  "raw": "KBLI 241353Z AUTO 04013G20KT 10SM CLR M07/M17 A3015 RMK AO2 SLP222 T10671172",
  "sanitized": "KBLI 241353Z 04013G20KT 10SM M07/M17 A3015 RMK AO2 SLP222 T10671172",
  "station": "KBLI",
  "time": {
    "repr": "241353Z",
    "dt": "2023-02-24T13:53:00Z"
  },
  "remarks": "RMK AO2 SLP222 T10671172",
  "dewpoint": {
    "repr": "M17",
    "value": -17,
    "spoken": "minus one seven"
  },
  "relative_humidity": 0.43039144321732126,
  "remarks_info": {
    "maximum_temperature_6": null,
    "minimum_temperature_6": null,
    "pressure_tendency": null,
    "precip_36_hours": null,
    "precip_24_hours": null,
    "sunshine_minutes": null,
    "codes": [
      {
        "repr": "AO2",
        "value": "Automated with precipitation sensor"
      }
    ],
    "dewpoint_decimal": {
      "repr": "1172",
      "value": -17.2,
      "spoken": "minus one seven point two"
    },
    "maximum_temperature_24": null,
    "minimum_temperature_24": null,
    "precip_hourly": null,
    "sea_level_pressure": {
      "repr": "SLP222",
      "value": 1022.2,
      "spoken": "one zero two two point two"
    },
    "snow_depth": null,
    "temperature_decimal": {
      "repr": "1067",
      "value": -6.7,
      "spoken": "minus six point seven"
    }
  },
  "runway_visibility": [],
  "temperature": {
    "repr": "M07",
    "value": -7,
    "spoken": "minus seven"
  },
  "wind_variable_direction": [],
  "density_altitude": -2623,
  "pressure_altitude": -60,
  "units": {
    "accumulation": "in",
    "altimeter": "inHg",
    "altitude": "ft",
    "temperature": "C",
    "visibility": "sm",
    "wind_speed": "kt"
  }
}
