{
  "meta": {
    "timestamp": "2022-11-19T15:02:27.251082Z",
    "stations_updated": "2022-09-05"
  },
  "altimeter": {
    "repr": "A3035",
    "value": 30.35,
    "spoken": "three zero point three five"
  },
  "clouds": [],
  "flight_rules": "VFR",
  "other": [],
  "visibility": {
    "repr": "10",
    "value": 10,
    "spoken": "one zero"
  },
  "wind_direction": {
    "repr": "020",
    "value": 20,
    "spoken": "zero two zero"
  },
  "wind_gust": null,
  "wind_speed": {
    "repr": "03",
    "value": 3,
    "spoken": "three"
  },
  "wx_codes": [],
  "raw": "KBLI 191453Z 02003KT 10SM CLR M03/M06 A3035 RMK AO2 SLP287 T10331061 56011",
  "sanitized": "KBLI 191453Z 02003KT 10SM M03/M06 A3035 RMK AO2 SLP287 T10331061 56011",
  "station": "KBLI",
  "time": {
    "repr": "191453Z",
    "dt": "2022-11-19T14:53:00Z"
  },
  "remarks": "RMK AO2 SLP287 T10331061 56011",
  "dewpoint": {
    "repr": "M06",
    "value": -6,
    "spoken": "minus six"
  },
  "relative_humidity": 0.8095546711683594,
  "remarks_info": {
    "maximum_temperature_6": null,
    "minimum_temperature_6": null,
    "pressure_tendency": {
      "repr": "56011",
      "tendency": "Decreasing, then steady",
      "change": 1.1
    },
    "precip_36_hours": null,
    "precip_24_hours": null,
    "sunshine_minutes": null,
    "codes": [
      {
        "repr": "AO2",
        "value": "Automated with precipitation sensor"
      }
    ],
    "dewpoint_decimal": {
      "repr": "1061",
      "value": -6.1,
      "spoken": "minus six point one"
    },
    "maximum_temperature_24": null,
    "minimum_temperature_24": null,
    "precip_hourly": null,
    "sea_level_pressure": {
      "repr": "SLP287",
      "value": 1028.7,
      "spoken": "one zero two eight point seven"
    },
    "snow_depth": null,
    "temperature_decimal": {
      "repr": "1033",
      "value": -3.3,
      "spoken": "minus three point three"
    }
  },
  "runway_visibility": [],
  "temperature": {
    "repr": "M03",
    "value": -3,
    "spoken": "minus three"
  },
  "wind_variable_direction": [],
  "density_altitude": -2415,
  "pressure_altitude": -260,
  "units": {
    "accumulation": "in",
    "altimeter": "inHg",
    "altitude": "ft",
    "temperature": "C",
    "visibility": "sm",
    "wind_speed": "kt"
  }
}
