{
  "meta": {
    "timestamp": "2022-07-29T08:49:36.427810Z",
    "stations_updated": "2022-07-17"
  },
  "altimeter": {
    "repr": "A2989",
    "value": 29.89,
    "spoken": "two nine point eight nine"
  },
  "clouds": [],
  "flight_rules": "VFR",
  "other": [],
  "visibility": {
    "repr": "10",
    "value": 10,
    "spoken": "one zero"
  },
  "wind_direction": {
    "repr": "190",
    "value": 190,
    "spoken": "one nine zero"
  },
  "wind_gust": null,
  "wind_speed": {
    "repr": "04",
    "value": 4,
    "spoken": "four"
  },
  "wx_codes": [],
  "raw": "KBLI 290753Z AUTO 19004KT 10SM CLR 19/18 A2989 RMK AO2 SLP126 T01890178 403000156",
  "sanitized": "KBLI 290753Z 19004KT 10SM 19/18 A2989 RMK AO2 SLP126 T01890178 403000156",
  "station": "KBLI",
  "time": {
    "repr": "290753Z",
    "dt": "2022-07-29T07:53:00Z"
  },
  "remarks": "RMK AO2 SLP126 T01890178 403000156",
  "dewpoint": {
    "repr": "18",
    "value": 18,
    "spoken": "one eight"
  },
  "relative_humidity": 0.9333005963455446,
  "remarks_info": {
    "maximum_temperature_6": null,
    "minimum_temperature_6": null,
    "pressure_tendency": null,
    "precip_36_hours": null,
    "precip_24_hours": null,
    "sunshine_minutes": null,
    "codes": [
      {
        "repr": "AO2",
        "value": "Automated with precipitation sensor"
      }
    ],
    "dewpoint_decimal": {
      "repr": "0178",
      "value": 17.8,
      "spoken": "one seven point eight"
    },
    "maximum_temperature_24": {
      "repr": "0300",
      "value": 30,
      "spoken": "three zero point zero"
    },
    "minimum_temperature_24": {
      "repr": "0156",
      "value": 15.6,
      "spoken": "one five point six"
    },
    "precip_hourly": null,
    "sea_level_pressure": {
      "repr": "SLP126",
      "value": 1012.6,
      "spoken": "one zero one two point six"
    },
    "snow_depth": null,
    "temperature_decimal": {
      "repr": "0189",
      "value": 18.9,
      "spoken": "one eight point nine"
    }
  },
  "runway_visibility": [],
  "temperature": {
    "repr": "19",
    "value": 19,
    "spoken": "one nine"
  },
  "wind_variable_direction": [],
  "density_altitude": 709,
  "pressure_altitude": 200,
  "units": {
    "accumulation": "in",
    "altimeter": "inHg",
    "altitude": "ft",
    "temperature": "C",
    "visibility": "sm",
    "wind_speed": "kt"
  }
}
