{
  "meta": {
    "timestamp": "2023-01-19T04:43:43.255620Z",
    "stations_updated": "2023-01-16"
  },
  "altimeter": {
    "repr": "A2999",
    "value": 29.99,
    "spoken": "two nine point nine nine"
  },
  "clouds": [
    {
      "repr": "SCT026",
      "type": "SCT",
      "altitude": 26,
      "modifier": null
    },
    {
      "repr": "BKN039",
      "type": "BKN",
      "altitude": 39,
      "modifier": null
    },
    {
      "repr": "OVC060",
      "type": "OVC",
      "altitude": 60,
      "modifier": null
    }
  ],
  "flight_rules": "VFR",
  "other": [],
  "visibility": {
    "repr": "10",
    "value": 10,
    "spoken": "one zero"
  },
  "wind_direction": {
    "repr": "310",
    "value": 310,
    "spoken": "three one zero"
  },
  "wind_gust": null,
  "wind_speed": {
    "repr": "04",
    "value": 4,
    "spoken": "four"
  },
  "wx_codes": [
    {
      "repr": "-RA",
      "value": "Light Rain"
    }
  ],
  "raw": "KBLI 190420Z 31004KT 10SM -RA SCT026 BKN039 OVC060 06/05 A2999 RMK AO2 RAB15 TSB0355E10 OCNL LGTCG W P0000 T00610050",
  "sanitized": "KBLI 190420Z 31004KT 10SM -RA SCT026 BKN039 OVC060 06/05 A2999 RMK AO2 RAB15 TSB0355E10 OCNL LGTCG W P0000 T00610050",
  "station": "KBLI",
  "time": {
    "repr": "190420Z",
    "dt": "2023-01-19T04:20:00Z"
  },
  "remarks": "RMK AO2 RAB15 TSB0355E10 OCNL LGTCG W P0000 T00610050",
  "dewpoint": {
    "repr": "05",
    "value": 5,
    "spoken": "five"
  },
  "relative_humidity": 0.9265328822020961,
  "remarks_info": {
    "maximum_temperature_6": null,
    "minimum_temperature_6": null,
    "pressure_tendency": null,
    "precip_36_hours": null,
    "precip_24_hours": null,
    "sunshine_minutes": null,
    "codes": [
      {
        "repr": "AO2",
        "value": "Automated with precipitation sensor"
      },
      {
        "repr": "P0000",
        "value": "Trace amount of rain in the last hour"
      },
      {
        "repr": "RAB15",
        "value": "Rain began at :15"
      }
    ],
    "dewpoint_decimal": {
      "repr": "0050",
      "value": 5,
      "spoken": "five point zero"
    },
    "maximum_temperature_24": null,
    "minimum_temperature_24": null,
    "precip_hourly": null,
    "sea_level_pressure": null,
    "snow_depth": null,
    "temperature_decimal": {
      "repr": "0061",
      "value": 6.1,
      "spoken": "six point one"
    }
  },
  "runway_visibility": [],
  "temperature": {
    "repr": "06",
    "value": 6,
    "spoken": "six"
  },
  "wind_variable_direction": [],
  "density_altitude": -927,
  "pressure_altitude": 100,
  "units": {
    "accumulation": "in",
    "altimeter": "inHg",
    "altitude": "ft",
    "temperature": "C",
    "visibility": "sm",
    "wind_speed": "kt"
  }
}
