{
  "meta": {
    "timestamp": "2022-12-21T02:28:59.114920Z",
    "stations_updated": "2022-09-05"
  },
  "altimeter": {
    "repr": "A3019",
    "value": 30.19,
    "spoken": "three zero point one nine"
  },
  "clouds": [
    {
      "repr": "OVC020",
      "type": "OVC",
      "altitude": 20,
      "modifier": null
    }
  ],
  "flight_rules": "MVFR",
  "other": [],
  "visibility": {
    "repr": "10",
    "value": 10,
    "spoken": "one zero"
  },
  "wind_direction": {
    "repr": "030",
    "value": 30,
    "spoken": "zero three zero"
  },
  "wind_gust": {
    "repr": "21",
    "value": 21,
    "spoken": "two one"
  },
  "wind_speed": {
    "repr": "08",
    "value": 8,
    "spoken": "eight"
  },
  "wx_codes": [],
  "raw": "KBLI 210153Z 03008G21KT 10SM OVC020 M08/M12 A3019 RMK AO2 SLP235 T10781122",
  "sanitized": "KBLI 210153Z 03008G21KT 10SM OVC020 M08/M12 A3019 RMK AO2 SLP235 T10781122",
  "station": "KBLI",
  "time": {
    "repr": "210153Z",
    "dt": "2022-12-21T01:53:00Z"
  },
  "remarks": "RMK AO2 SLP235 T10781122",
  "dewpoint": {
    "repr": "M12",
    "value": -12,
    "spoken": "minus one two"
  },
  "relative_humidity": 0.7066225911133874,
  "remarks_info": {
    "maximum_temperature_6": null,
    "minimum_temperature_6": null,
    "pressure_tendency": null,
    "precip_36_hours": null,
    "precip_24_hours": null,
    "sunshine_minutes": null,
    "codes": [
      {
        "repr": "AO2",
        "value": "Automated with precipitation sensor"
      }
    ],
    "dewpoint_decimal": {
      "repr": "1122",
      "value": -12.2,
      "spoken": "minus one two point two"
    },
    "maximum_temperature_24": null,
    "minimum_temperature_24": null,
    "precip_hourly": null,
    "sea_level_pressure": {
      "repr": "SLP235",
      "value": 1023.5,
      "spoken": "one zero two three point five"
    },
    "snow_depth": null,
    "temperature_decimal": {
      "repr": "1078",
      "value": -7.8,
      "spoken": "minus seven point eight"
    }
  },
  "runway_visibility": [],
  "temperature": {
    "repr": "M08",
    "value": -8,
    "spoken": "minus eight"
  },
  "wind_variable_direction": [],
  "density_altitude": -2795,
  "pressure_altitude": -100,
  "units": {
    "accumulation": "in",
    "altimeter": "inHg",
    "altitude": "ft",
    "temperature": "C",
    "visibility": "sm",
    "wind_speed": "kt"
  }
}
