{
  "meta": {
    "timestamp": "2023-01-29T00:32:29.678055Z",
    "stations_updated": "2023-01-16"
  },
  "altimeter": {
    "repr": "A3018",
    "value": 30.18,
    "spoken": "three zero point one eight"
  },
  "clouds": [],
  "flight_rules": "VFR",
  "other": [],
  "visibility": {
    "repr": "10",
    "value": 10,
    "spoken": "one zero"
  },
  "wind_direction": {
    "repr": "040",
    "value": 40,
    "spoken": "zero four zero"
  },
  "wind_gust": {
    "repr": "38",
    "value": 38,
    "spoken": "three eight"
  },
  "wind_speed": {
    "repr": "19",
    "value": 19,
    "spoken": "one nine"
  },
  "wx_codes": [],
  "raw": "KBLI 282353Z 04019G38KT 10SM CLR 06/M08 A3018 RMK AO2 PK WND 01038/2344 SLP228 T00611078 10083 20033 53014",
  "sanitized": "KBLI 282353Z 04019G38KT 10SM 06/M08 A3018 RMK AO2 PK WND 01038/2344 SLP228 T00611078 10083 20033 53014",
  "station": "KBLI",
  "time": {
    "repr": "282353Z",
    "dt": "2023-01-28T23:53:00Z"
  },
  "remarks": "RMK AO2 PK WND 01038/2344 SLP228 T00611078 10083 20033 53014",
  "dewpoint": {
    "repr": "M08",
    "value": -8,
    "spoken": "minus eight"
  },
  "relative_humidity": 0.36182639809855077,
  "remarks_info": {
    "maximum_temperature_6": {
      "repr": "10083",
      "value": 8.3,
      "spoken": "eight point three"
    },
    "minimum_temperature_6": {
      "repr": "20033",
      "value": 3.3,
      "spoken": "three point three"
    },
    "pressure_tendency": {
      "repr": "53014",
      "tendency": "Decreasing or steady, then increasing",
      "change": 1.4
    },
    "precip_36_hours": null,
    "precip_24_hours": null,
    "sunshine_minutes": null,
    "codes": [
      {
        "repr": "AO2",
        "value": "Automated with precipitation sensor"
      }
    ],
    "dewpoint_decimal": {
      "repr": "1078",
      "value": -7.8,
      "spoken": "minus seven point eight"
    },
    "maximum_temperature_24": null,
    "minimum_temperature_24": null,
    "precip_hourly": null,
    "sea_level_pressure": {
      "repr": "SLP228",
      "value": 1022.8,
      "spoken": "one zero two two point eight"
    },
    "snow_depth": null,
    "temperature_decimal": {
      "repr": "0061",
      "value": 6.1,
      "spoken": "six point one"
    }
  },
  "runway_visibility": [],
  "temperature": {
    "repr": "06",
    "value": 6,
    "spoken": "six"
  },
  "wind_variable_direction": [],
  "density_altitude": -1117,
  "pressure_altitude": -90,
  "units": {
    "accumulation": "in",
    "altimeter": "inHg",
    "altitude": "ft",
    "temperature": "C",
    "visibility": "sm",
    "wind_speed": "kt"
  }
}
