{
  "meta": {
    "timestamp": "2023-04-08T19:00:41.365960Z",
    "stations_updated": "2023-03-11",
    "cache-timestamp": "2023-04-08T19:00:06.999000Z"
  },
  "altimeter": {
    "repr": "A2992",
    "value": 29.92,
    "spoken": "two nine point nine two"
  },
  "clouds": [
    {
      "repr": "FEW060",
      "type": "FEW",
      "altitude": 60,
      "modifier": null
    },
    {
      "repr": "OVC080",
      "type": "OVC",
      "altitude": 80,
      "modifier": null
    }
  ],
  "flight_rules": "VFR",
  "other": [],
  "visibility": {
    "repr": "10",
    "value": 10,
    "spoken": "one zero"
  },
  "wind_direction": {
    "repr": "170",
    "value": 170,
    "spoken": "one seven zero"
  },
  "wind_gust": {
    "repr": "32",
    "value": 32,
    "spoken": "three two"
  },
  "wind_speed": {
    "repr": "22",
    "value": 22,
    "spoken": "two two"
  },
  "wx_codes": [],
  "raw": "KBLI 081753Z 17022G32KT 10SM FEW060 OVC080 11/03 A2992 RMK AO2 PK WND 15032/1753 SLP139 60000 T01060033 10106 20094 53017",
  "sanitized": "KBLI 081753Z 17022G32KT 10SM FEW060 OVC080 11/03 A2992 RMK AO2 PK WND 15032/1753 SLP139 60000 T01060033 10106 20094 53017",
  "station": "KBLI",
  "time": {
    "repr": "081753Z",
    "dt": "2023-04-08T17:53:00Z"
  },
  "remarks": "RMK AO2 PK WND 15032/1753 SLP139 60000 T01060033 10106 20094 53017",
  "dewpoint": {
    "repr": "03",
    "value": 3,
    "spoken": "three"
  },
  "relative_humidity": 0.6060147150150282,
  "remarks_info": {
    "maximum_temperature_6": {
      "repr": "10106",
      "value": 10.6,
      "spoken": "one zero point six"
    },
    "minimum_temperature_6": {
      "repr": "20094",
      "value": 9.4,
      "spoken": "nine point four"
    },
    "pressure_tendency": {
      "repr": "53017",
      "tendency": "Decreasing or steady, then increasing",
      "change": 1.7
    },
    "precip_36_hours": {
      "repr": "60000",
      "value": 0,
      "spoken": "zero"
    },
    "precip_24_hours": null,
    "sunshine_minutes": null,
    "codes": [
      {
        "repr": "AO2",
        "value": "Automated with precipitation sensor"
      }
    ],
    "dewpoint_decimal": {
      "repr": "0033",
      "value": 3.3,
      "spoken": "three point three"
    },
    "maximum_temperature_24": null,
    "minimum_temperature_24": null,
    "precip_hourly": null,
    "sea_level_pressure": {
      "repr": "SLP139",
      "value": 1013.9,
      "spoken": "one zero one three point nine"
    },
    "snow_depth": null,
    "temperature_decimal": {
      "repr": "0106",
      "value": 10.6,
      "spoken": "one zero point six"
    }
  },
  "runway_visibility": [],
  "temperature": {
    "repr": "11",
    "value": 11,
    "spoken": "one one"
  },
  "wind_variable_direction": [],
  "density_altitude": -317,
  "pressure_altitude": 170,
  "units": {
    "accumulation": "in",
    "altimeter": "inHg",
    "altitude": "ft",
    "temperature": "C",
    "visibility": "sm",
    "wind_speed": "kt"
  }
}
