{
  "meta": {
    "timestamp": "2023-05-11T08:06:34.684733Z",
    "stations_updated": "2023-03-11",
    "cache-timestamp": "2023-05-11T08:06:06.018000Z"
  },
  "altimeter": {
    "repr": "A3007",
    "value": 30.07,
    "spoken": "three zero point zero seven"
  },
  "clouds": [],
  "flight_rules": "VFR",
  "other": [],
  "visibility": {
    "repr": "10",
    "value": 10,
    "spoken": "one zero"
  },
  "wind_direction": {
    "repr": "220",
    "value": 220,
    "spoken": "two two zero"
  },
  "wind_gust": null,
  "wind_speed": {
    "repr": "03",
    "value": 3,
    "spoken": "three"
  },
  "wx_codes": [],
  "raw": "KBLI 110753Z AUTO 22003KT 10SM CLR 11/11 A3007 RMK AO2 SLP188 T01110106 402110056",
  "sanitized": "KBLI 110753Z 22003KT 10SM 11/11 A3007 RMK AO2 SLP188 T01110106 402110056",
  "station": "KBLI",
  "time": {
    "repr": "110753Z",
    "dt": "2023-05-11T07:53:00Z"
  },
  "remarks": "RMK AO2 SLP188 T01110106 402110056",
  "dewpoint": {
    "repr": "11",
    "value": 11,
    "spoken": "one one"
  },
  "relative_humidity": 0.9672929424668637,
  "remarks_info": {
    "maximum_temperature_6": null,
    "minimum_temperature_6": null,
    "pressure_tendency": null,
    "precip_36_hours": null,
    "precip_24_hours": null,
    "sunshine_minutes": null,
    "codes": [
      {
        "repr": "AO2",
        "value": "Automated with precipitation sensor"
      }
    ],
    "dewpoint_decimal": {
      "repr": "0106",
      "value": 10.6,
      "spoken": "one zero point six"
    },
    "maximum_temperature_24": {
      "repr": "0211",
      "value": 21.1,
      "spoken": "two one point one"
    },
    "minimum_temperature_24": {
      "repr": "0056",
      "value": 5.6,
      "spoken": "five point six"
    },
    "precip_hourly": null,
    "sea_level_pressure": {
      "repr": "SLP188",
      "value": 1018.8,
      "spoken": "one zero one eight point eight"
    },
    "snow_depth": null,
    "temperature_decimal": {
      "repr": "0111",
      "value": 11.1,
      "spoken": "one one point one"
    }
  },
  "runway_visibility": [],
  "temperature": {
    "repr": "11",
    "value": 11,
    "spoken": "one one"
  },
  "wind_variable_direction": [],
  "density_altitude": -407,
  "pressure_altitude": 20,
  "units": {
    "accumulation": "in",
    "altimeter": "inHg",
    "altitude": "ft",
    "temperature": "C",
    "visibility": "sm",
    "wind_speed": "kt"
  }
}
