{
  "meta": {
    "timestamp": "2022-12-27T13:28:04.782169Z",
    "stations_updated": "2022-09-05"
  },
  "altimeter": {
    "repr": "A2885",
    "value": 28.85,
    "spoken": "two eight point eight five"
  },
  "clouds": [
    {
      "repr": "FEW031",
      "type": "FEW",
      "altitude": 31,
      "modifier": null
    },
    {
      "repr": "BKN070",
      "type": "BKN",
      "altitude": 70,
      "modifier": null
    },
    {
      "repr": "OVC095",
      "type": "OVC",
      "altitude": 95,
      "modifier": null
    }
  ],
  "flight_rules": "VFR",
  "other": [],
  "visibility": {
    "repr": "10",
    "value": 10,
    "spoken": "one zero"
  },
  "wind_direction": {
    "repr": "150",
    "value": 150,
    "spoken": "one five zero"
  },
  "wind_gust": {
    "repr": "22",
    "value": 22,
    "spoken": "two two"
  },
  "wind_speed": {
    "repr": "13",
    "value": 13,
    "spoken": "one three"
  },
  "wx_codes": [
    {
      "repr": "-RA",
      "value": "Light Rain"
    }
  ],
  "raw": "KBLI 271253Z AUTO 15013G22KT 10SM -RA FEW031 BKN070 OVC095 14/10 A2885 RMK AO2 PK WND 14026/1154 RAB26 SLP775 P0000 T01390100",
  "sanitized": "KBLI 271253Z 15013G22KT 10SM -RA FEW031 BKN070 OVC095 14/10 A2885 RMK AO2 PK WND 14026/1154 RAB26 SLP775 P0000 T01390100",
  "station": "KBLI",
  "time": {
    "repr": "271253Z",
    "dt": "2022-12-27T12:53:00Z"
  },
  "remarks": "RMK AO2 PK WND 14026/1154 RAB26 SLP775 P0000 T01390100",
  "dewpoint": {
    "repr": "10",
    "value": 10,
    "spoken": "one zero"
  },
  "relative_humidity": 0.7732398150715801,
  "remarks_info": {
    "maximum_temperature_6": null,
    "minimum_temperature_6": null,
    "pressure_tendency": null,
    "precip_36_hours": null,
    "precip_24_hours": null,
    "sunshine_minutes": null,
    "codes": [
      {
        "repr": "AO2",
        "value": "Automated with precipitation sensor"
      },
      {
        "repr": "P0000",
        "value": "Trace amount of rain in the last hour"
      },
      {
        "repr": "RAB26",
        "value": "Rain began at :26"
      }
    ],
    "dewpoint_decimal": {
      "repr": "0100",
      "value": 10,
      "spoken": "one zero point zero"
    },
    "maximum_temperature_24": null,
    "minimum_temperature_24": null,
    "precip_hourly": null,
    "sea_level_pressure": {
      "repr": "SLP775",
      "value": 977.5,
      "spoken": "nine seven seven point five"
    },
    "snow_depth": null,
    "temperature_decimal": {
      "repr": "0139",
      "value": 13.9,
      "spoken": "one three point nine"
    }
  },
  "runway_visibility": [],
  "temperature": {
    "repr": "14",
    "value": 14,
    "spoken": "one four"
  },
  "wind_variable_direction": [],
  "density_altitude": 1149,
  "pressure_altitude": 1240,
  "units": {
    "accumulation": "in",
    "altimeter": "inHg",
    "altitude": "ft",
    "temperature": "C",
    "visibility": "sm",
    "wind_speed": "kt"
  }
}
