{
  "meta": {
    "timestamp": "2022-11-24T21:01:41.206113Z",
    "stations_updated": "2022-09-05"
  },
  "altimeter": {
    "repr": "A3022",
    "value": 30.22,
    "spoken": "three zero point two two"
  },
  "clouds": [],
  "flight_rules": "VFR",
  "other": [],
  "visibility": {
    "repr": "10",
    "value": 10,
    "spoken": "one zero"
  },
  "wind_direction": {
    "repr": "000",
    "value": 0,
    "spoken": "zero zero zero"
  },
  "wind_gust": null,
  "wind_speed": {
    "repr": "00",
    "value": 0,
    "spoken": "zero"
  },
  "wx_codes": [],
  "raw": "KBLI 242053Z 00000KT 10SM CLR 11/05 A3022 RMK AO2 SLP240 T01110050 58021",
  "sanitized": "KBLI 242053Z 00000KT 10SM 11/05 A3022 RMK AO2 SLP240 T01110050 58021",
  "station": "KBLI",
  "time": {
    "repr": "242053Z",
    "dt": "2022-11-24T20:53:00Z"
  },
  "remarks": "RMK AO2 SLP240 T01110050 58021",
  "dewpoint": {
    "repr": "05",
    "value": 5,
    "spoken": "five"
  },
  "relative_humidity": 0.660445986443727,
  "remarks_info": {
    "maximum_temperature_6": null,
    "minimum_temperature_6": null,
    "pressure_tendency": {
      "repr": "58021",
      "tendency": "Steady or increasing, then decreasing",
      "change": 2.1
    },
    "precip_36_hours": null,
    "precip_24_hours": null,
    "sunshine_minutes": null,
    "codes": [
      {
        "repr": "AO2",
        "value": "Automated with precipitation sensor"
      }
    ],
    "dewpoint_decimal": {
      "repr": "0050",
      "value": 5,
      "spoken": "five point zero"
    },
    "maximum_temperature_24": null,
    "minimum_temperature_24": null,
    "precip_hourly": null,
    "sea_level_pressure": {
      "repr": "SLP240",
      "value": 1024,
      "spoken": "one zero two four point zero"
    },
    "snow_depth": null,
    "temperature_decimal": {
      "repr": "0111",
      "value": 11.1,
      "spoken": "one one point one"
    }
  },
  "runway_visibility": [],
  "temperature": {
    "repr": "11",
    "value": 11,
    "spoken": "one one"
  },
  "wind_variable_direction": [],
  "density_altitude": -557,
  "pressure_altitude": -130,
  "units": {
    "accumulation": "in",
    "altimeter": "inHg",
    "altitude": "ft",
    "temperature": "C",
    "visibility": "sm",
    "wind_speed": "kt"
  }
}
