{
  "meta": {
    "timestamp": "2022-12-16T23:25:30.660006Z",
    "stations_updated": "2022-09-05"
  },
  "altimeter": {
    "repr": "A3032",
    "value": 30.32,
    "spoken": "three zero point three two"
  },
  "clouds": [
    {
      "repr": "VV002",
      "type": "VV",
      "altitude": 2,
      "modifier": null
    }
  ],
  "flight_rules": "LIFR",
  "other": [],
  "visibility": {
    "repr": "M1/4",
    "value": null,
    "spoken": "less than one quarter"
  },
  "wind_direction": {
    "repr": "040",
    "value": 40,
    "spoken": "zero four zero"
  },
  "wind_gust": null,
  "wind_speed": {
    "repr": "04",
    "value": 4,
    "spoken": "four"
  },
  "wx_codes": [
    {
      "repr": "FG",
      "value": "Fog"
    }
  ],
  "raw": "KBLI 162313Z 04004KT M1/4SM R16/1600V1800FT FG VV002 01/01 A3032 RMK AO2 T00110011",
  "sanitized": "KBLI 162313Z 04004KT M1/4SM R16/1600V1800FT FG VV002 01/01 A3032 RMK AO2 T00110011",
  "station": "KBLI",
  "time": {
    "repr": "162313Z",
    "dt": "2022-12-16T23:13:00Z"
  },
  "remarks": "RMK AO2 T00110011",
  "dewpoint": {
    "repr": "01",
    "value": 1,
    "spoken": "one"
  },
  "relative_humidity": 1,
  "remarks_info": {
    "maximum_temperature_6": null,
    "minimum_temperature_6": null,
    "pressure_tendency": null,
    "precip_36_hours": null,
    "precip_24_hours": null,
    "sunshine_minutes": null,
    "codes": [
      {
        "repr": "AO2",
        "value": "Automated with precipitation sensor"
      }
    ],
    "dewpoint_decimal": {
      "repr": "0011",
      "value": 1.1,
      "spoken": "one point one"
    },
    "maximum_temperature_24": null,
    "minimum_temperature_24": null,
    "precip_hourly": null,
    "sea_level_pressure": null,
    "snow_depth": null,
    "temperature_decimal": {
      "repr": "0011",
      "value": 1.1,
      "spoken": "one point one"
    }
  },
  "runway_visibility": [
    {
      "repr": "R16/1600V1800FT",
      "runway": "16",
      "visibility": null,
      "variable_visibility": [
        {
          "repr": "1600",
          "value": 1600,
          "spoken": "one six hundred"
        },
        {
          "repr": "1800",
          "value": 1800,
          "spoken": "one eight hundred"
        }
      ],
      "trend": null
    }
  ],
  "temperature": {
    "repr": "01",
    "value": 1,
    "spoken": "one"
  },
  "wind_variable_direction": [],
  "density_altitude": -1857,
  "pressure_altitude": -230,
  "units": {
    "accumulation": "in",
    "altimeter": "inHg",
    "altitude": "ft",
    "temperature": "C",
    "visibility": "sm",
    "wind_speed": "kt"
  }
}
