{
  "meta": {
    "timestamp": "2023-09-08T13:40:36.437238Z",
    "stations_updated": "2023-08-05",
    "cache-timestamp": "2023-09-08T13:40:07.167000Z"
  },
  "altimeter": {
    "repr": "A3011",
    "value": 30.11,
    "spoken": "three zero point one one"
  },
  "clouds": [
    {
      "repr": "BKN004",
      "type": "BKN",
      "altitude": 4,
      "modifier": null
    },
    {
      "repr": "OVC055",
      "type": "OVC",
      "altitude": 55,
      "modifier": null
    }
  ],
  "flight_rules": "LIFR",
  "other": [],
  "visibility": {
    "repr": "9",
    "value": 9,
    "spoken": "nine"
  },
  "wind_direction": {
    "repr": "190",
    "value": 190,
    "spoken": "one nine zero"
  },
  "wind_gust": null,
  "wind_speed": {
    "repr": "03",
    "value": 3,
    "spoken": "three"
  },
  "wx_codes": [],
  "raw": "KBLI 081301Z AUTO 19003KT 9SM BKN004 OVC055 12/12 A3011 RMK AO2 T01170117",
  "sanitized": "KBLI 081301Z 19003KT 9SM BKN004 OVC055 12/12 A3011 RMK AO2 T01170117",
  "station": "KBLI",
  "time": {
    "repr": "081301Z",
    "dt": "2023-09-08T13:01:00Z"
  },
  "remarks": "RMK AO2 T01170117",
  "dewpoint": {
    "repr": "12",
    "value": 12,
    "spoken": "one two"
  },
  "relative_humidity": 1,
  "remarks_info": {
    "maximum_temperature_6": null,
    "minimum_temperature_6": null,
    "pressure_tendency": null,
    "precip_36_hours": null,
    "precip_24_hours": null,
    "sunshine_minutes": null,
    "codes": [
      {
        "repr": "AO2",
        "value": "Automated with precipitation sensor"
      }
    ],
    "dewpoint_decimal": {
      "repr": "0117",
      "value": 11.7,
      "spoken": "one one point seven"
    },
    "maximum_temperature_24": null,
    "minimum_temperature_24": null,
    "precip_hourly": null,
    "sea_level_pressure": null,
    "snow_depth": null,
    "temperature_decimal": {
      "repr": "0117",
      "value": 11.7,
      "spoken": "one one point seven"
    }
  },
  "runway_visibility": [],
  "temperature": {
    "repr": "12",
    "value": 12,
    "spoken": "one two"
  },
  "wind_variable_direction": [],
  "density_altitude": -375,
  "pressure_altitude": -20,
  "units": {
    "accumulation": "in",
    "altimeter": "inHg",
    "altitude": "ft",
    "temperature": "C",
    "visibility": "sm",
    "wind_speed": "kt"
  }
}
