{
  "altimeter": {
    "repr": "A3013",
    "spoken": "three zero point one three",
    "value": 30.13
  },
  "clouds": [
    {
      "altitude": 100,
      "modifier": null,
      "repr": "FEW100",
      "type": "FEW"
    }
  ],
  "density_altitude": -1871,
  "dewpoint": {
    "repr": "M01",
    "spoken": "minus one",
    "value": -1
  },
  "flight_rules": "IFR",
  "meta": {
    "cache-timestamp": "2023-12-16T10:40:03.864000Z",
    "stations_updated": "2023-10-28",
    "timestamp": "2023-12-16T10:40:42.137102Z"
  },
  "other": [],
  "pressure_altitude": -40,
  "raw": "KBLI 161023Z AUTO 00000KT 1 1/2SM R16/2800VP6000FT BR FEW100 M01/M01 A3013 RMK AO2 VIS 1/2V5 T10061006",
  "relative_humidity": 1,
  "remarks": "RMK AO2 VIS 1/2V5 T10061006",
  "remarks_info": {
    "codes": [
      {
        "repr": "AO2",
        "value": "Automated with precipitation sensor"
      }
    ],
    "dewpoint_decimal": {
      "repr": "1006",
      "spoken": "minus zero point six",
      "value": -0.6
    },
    "maximum_temperature_24": null,
    "maximum_temperature_6": null,
    "minimum_temperature_24": null,
    "minimum_temperature_6": null,
    "precip_24_hours": null,
    "precip_36_hours": null,
    "precip_hourly": null,
    "pressure_tendency": null,
    "sea_level_pressure": null,
    "snow_depth": null,
    "sunshine_minutes": null,
    "temperature_decimal": {
      "repr": "1006",
      "spoken": "minus zero point six",
      "value": -0.6
    }
  },
  "runway_visibility": [
    {
      "repr": "R16/2800VP6000FT",
      "runway": "16",
      "trend": null,
      "variable_visibility": [
        {
          "repr": "2800",
          "spoken": "two eight hundred",
          "value": 2800
        },
        {
          "repr": "P6000",
          "spoken": "greater than six thousand",
          "value": null
        }
      ],
      "visibility": null
    }
  ],
  "sanitized": "KBLI 161023Z 00000KT 1 1/2SM R16/2800VP6000FT BR FEW100 M01/M01 A3013 RMK AO2 VIS 1/2V5 T10061006",
  "station": "KBLI",
  "temperature": {
    "repr": "M01",
    "spoken": "minus one",
    "value": -1
  },
  "time": {
    "dt": "2023-12-16T10:23:00Z",
    "repr": "161023Z"
  },
  "units": {
    "accumulation": "in",
    "altimeter": "inHg",
    "altitude": "ft",
    "temperature": "C",
    "visibility": "sm",
    "wind_speed": "kt"
  },
  "visibility": {
    "denominator": 2,
    "normalized": "1 1/2",
    "numerator": 3,
    "repr": "3/2",
    "spoken": "one and one half",
    "value": 1.5
  },
  "wind_direction": {
    "repr": "000",
    "spoken": "zero zero zero",
    "value": 0
  },
  "wind_gust": null,
  "wind_speed": {
    "repr": "00",
    "spoken": "zero",
    "value": 0
  },
  "wind_variable_direction": [],
  "wx_codes": [
    {
      "repr": "BR",
      "value": "Mist"
    }
  ]
}
