{
  "meta": {
    "timestamp": "2022-09-19T00:35:42.461810Z",
    "stations_updated": "2022-09-05"
  },
  "altimeter": {
    "repr": "A2976",
    "value": 29.76,
    "spoken": "two nine point seven six"
  },
  "clouds": [],
  "flight_rules": "VFR",
  "other": [],
  "visibility": {
    "repr": "10",
    "value": 10,
    "spoken": "one zero"
  },
  "wind_direction": {
    "repr": "280",
    "value": 280,
    "spoken": "two eight zero"
  },
  "wind_gust": null,
  "wind_speed": {
    "repr": "06",
    "value": 6,
    "spoken": "six"
  },
  "wx_codes": [],
  "raw": "KBLI 182353Z 28006KT 10SM CLR 21/08 A2976 RMK AO2 SLP081 T02110078 10244 20211 57011",
  "sanitized": "KBLI 182353Z 28006KT 10SM 21/08 A2976 RMK AO2 SLP081 T02110078 10244 20211 57011",
  "station": "KBLI",
  "time": {
    "repr": "182353Z",
    "dt": "2022-09-18T23:53:00Z"
  },
  "remarks": "RMK AO2 SLP081 T02110078 10244 20211 57011",
  "dewpoint": {
    "repr": "08",
    "value": 8,
    "spoken": "eight"
  },
  "relative_humidity": 0.4229053399628372,
  "remarks_info": {
    "maximum_temperature_6": {
      "repr": "10244",
      "value": 24.4,
      "spoken": "two four point four"
    },
    "minimum_temperature_6": {
      "repr": "20211",
      "value": 21.1,
      "spoken": "two one point one"
    },
    "pressure_tendency": {
      "repr": "57011",
      "tendency": "Decreasing steadily or unsteadily",
      "change": 1.1
    },
    "precip_36_hours": null,
    "precip_24_hours": null,
    "sunshine_minutes": null,
    "codes": [
      {
        "repr": "AO2",
        "value": "Automated with precipitation sensor"
      }
    ],
    "dewpoint_decimal": {
      "repr": "0078",
      "value": 7.8,
      "spoken": "seven point eight"
    },
    "maximum_temperature_24": null,
    "minimum_temperature_24": null,
    "precip_hourly": null,
    "sea_level_pressure": {
      "repr": "SLP081",
      "value": 1008.1,
      "spoken": "one zero zero eight point one"
    },
    "snow_depth": null,
    "temperature_decimal": {
      "repr": "0211",
      "value": 21.1,
      "spoken": "two one point one"
    }
  },
  "runway_visibility": [],
  "temperature": {
    "repr": "21",
    "value": 21,
    "spoken": "two one"
  },
  "wind_variable_direction": [],
  "density_altitude": 1103,
  "pressure_altitude": 330,
  "units": {
    "accumulation": "in",
    "altimeter": "inHg",
    "altitude": "ft",
    "temperature": "C",
    "visibility": "sm",
    "wind_speed": "kt"
  }
}
