{
  "meta": {
    "timestamp": "2022-08-24T18:15:22.126373Z",
    "stations_updated": "2022-07-17",
    "cache-timestamp": "2022-08-24T18:14:35.092000Z"
  },
  "altimeter": {
    "repr": "A2994",
    "value": 29.94,
    "spoken": "two nine point nine four"
  },
  "clouds": [],
  "flight_rules": "VFR",
  "other": [],
  "visibility": {
    "repr": "10",
    "value": 10,
    "spoken": "one zero"
  },
  "wind_direction": {
    "repr": "240",
    "value": 240,
    "spoken": "two four zero"
  },
  "wind_gust": null,
  "wind_speed": {
    "repr": "04",
    "value": 4,
    "spoken": "four"
  },
  "wx_codes": [],
  "raw": "KBLI 241753Z 24004KT 10SM CLR 22/18 A2994 RMK AO2 SLP144 T02220178 10222 20133 57009",
  "sanitized": "KBLI 241753Z 24004KT 10SM 22/18 A2994 RMK AO2 SLP144 T02220178 10222 20133 57009",
  "station": "KBLI",
  "time": {
    "repr": "241753Z",
    "dt": "2022-08-24T17:53:00Z"
  },
  "remarks": "RMK AO2 SLP144 T02220178 10222 20133 57009",
  "dewpoint": {
    "repr": "18",
    "value": 18,
    "spoken": "one eight"
  },
  "relative_humidity": 0.7613344918962063,
  "remarks_info": {
    "maximum_temperature_6": {
      "repr": "10222",
      "value": 22.2,
      "spoken": "two two point two"
    },
    "minimum_temperature_6": {
      "repr": "20133",
      "value": 13.3,
      "spoken": "one three point three"
    },
    "pressure_tendency": {
      "repr": "57009",
      "tendency": "Decreasing steadily or unsteadily",
      "change": 0.9
    },
    "precip_36_hours": null,
    "precip_24_hours": null,
    "sunshine_minutes": null,
    "codes": [
      {
        "repr": "AO2",
        "value": "Automated with precipitation sensor"
      }
    ],
    "dewpoint_decimal": {
      "repr": "0178",
      "value": 17.8,
      "spoken": "one seven point eight"
    },
    "maximum_temperature_24": null,
    "minimum_temperature_24": null,
    "precip_hourly": null,
    "sea_level_pressure": {
      "repr": "SLP144",
      "value": 1014.4,
      "spoken": "one zero one four point four"
    },
    "snow_depth": null,
    "temperature_decimal": {
      "repr": "0222",
      "value": 22.2,
      "spoken": "two two point two"
    }
  },
  "runway_visibility": [],
  "temperature": {
    "repr": "22",
    "value": 22,
    "spoken": "two two"
  },
  "wind_variable_direction": [],
  "density_altitude": 1055,
  "pressure_altitude": 150,
  "units": {
    "accumulation": "in",
    "altimeter": "inHg",
    "altitude": "ft",
    "temperature": "C",
    "visibility": "sm",
    "wind_speed": "kt"
  }
}
