{
  "meta": {
    "timestamp": "2022-12-02T15:42:49.599535Z",
    "stations_updated": "2022-09-05",
    "cache-timestamp": "2022-12-02T15:26:49.080000Z",
    "warning": "Unable to fetch report. This cached data might be out of date. To return an error instead, set ?onfail=error"
  },
  "altimeter": {
    "repr": "A3005",
    "value": 30.05,
    "spoken": "three zero point zero five"
  },
  "clouds": [
    {
      "repr": "BKN031",
      "type": "BKN",
      "altitude": 31,
      "modifier": null
    },
    {
      "repr": "OVC080",
      "type": "OVC",
      "altitude": 80,
      "modifier": null
    }
  ],
  "flight_rules": "VFR",
  "other": [],
  "visibility": {
    "repr": "10",
    "value": 10,
    "spoken": "one zero"
  },
  "wind_direction": {
    "repr": "040",
    "value": 40,
    "spoken": "zero four zero"
  },
  "wind_gust": null,
  "wind_speed": {
    "repr": "09",
    "value": 9,
    "spoken": "nine"
  },
  "wx_codes": [],
  "raw": "KBLI 021453Z 04009KT 10SM BKN031 OVC080 M05/M11 A3005 RMK AO2 SLP187 T10501106 51003",
  "sanitized": "KBLI 021453Z 04009KT 10SM BKN031 OVC080 M05/M11 A3005 RMK AO2 SLP187 T10501106 51003",
  "station": "KBLI",
  "time": {
    "repr": "021453Z",
    "dt": "2022-12-02T14:53:00Z"
  },
  "remarks": "RMK AO2 SLP187 T10501106 51003",
  "dewpoint": {
    "repr": "M11",
    "value": -11,
    "spoken": "minus one one"
  },
  "relative_humidity": 0.6480573066726458,
  "remarks_info": {
    "maximum_temperature_6": null,
    "minimum_temperature_6": null,
    "pressure_tendency": {
      "repr": "51003",
      "tendency": "Increasing, then steady",
      "change": 0.3
    },
    "precip_36_hours": null,
    "precip_24_hours": null,
    "sunshine_minutes": null,
    "codes": [
      {
        "repr": "AO2",
        "value": "Automated with precipitation sensor"
      }
    ],
    "dewpoint_decimal": {
      "repr": "1106",
      "value": -10.6,
      "spoken": "minus one zero point six"
    },
    "maximum_temperature_24": null,
    "minimum_temperature_24": null,
    "precip_hourly": null,
    "sea_level_pressure": {
      "repr": "SLP187",
      "value": 1018.7,
      "spoken": "one zero one eight point seven"
    },
    "snow_depth": null,
    "temperature_decimal": {
      "repr": "1050",
      "value": -5,
      "spoken": "minus five point zero"
    }
  },
  "runway_visibility": [],
  "temperature": {
    "repr": "M05",
    "value": -5,
    "spoken": "minus five"
  },
  "wind_variable_direction": [],
  "density_altitude": -2319,
  "pressure_altitude": 40,
  "units": {
    "accumulation": "in",
    "altimeter": "inHg",
    "altitude": "ft",
    "temperature": "C",
    "visibility": "sm",
    "wind_speed": "kt"
  }
}
