{
  "altimeter": {
    "repr": "A2973",
    "spoken": "two nine point seven three",
    "value": 29.73
  },
  "clouds": [
    {
      "altitude": 20,
      "modifier": null,
      "repr": "SCT020",
      "type": "SCT"
    },
    {
      "altitude": 37,
      "modifier": null,
      "repr": "BKN037",
      "type": "BKN"
    },
    {
      "altitude": 65,
      "modifier": null,
      "repr": "OVC065",
      "type": "OVC"
    }
  ],
  "density_altitude": -331,
  "dewpoint": {
    "repr": "07",
    "spoken": "seven",
    "value": 7
  },
  "flight_rules": "VFR",
  "meta": {
    "stations_updated": "2024-10-29",
    "timestamp": "2024-11-12T09:41:44.902109Z"
  },
  "other": [],
  "pressure_altitude": 360,
  "raw": "KBLI 120906Z AUTO 16017G28KT 9SM -RA SCT020 BKN037 OVC065 09/07 A2973 RMK AO2 PK WND 17028/0902 P0001 T00890072",
  "relative_humidity": 0.8908355350985154,
  "remarks": "RMK AO2 PK WND 17028/0902 P0001 T00890072",
  "remarks_info": {
    "codes": [
      {
        "repr": "AO2",
        "value": "Automated with precipitation sensor"
      }
    ],
    "dewpoint_decimal": {
      "repr": "0072",
      "spoken": "seven point two",
      "value": 7.2
    },
    "maximum_temperature_24": null,
    "maximum_temperature_6": null,
    "minimum_temperature_24": null,
    "minimum_temperature_6": null,
    "precip_24_hours": null,
    "precip_36_hours": null,
    "precip_hourly": {
      "repr": "P0001",
      "spoken": "zero point zero one",
      "value": 0.01
    },
    "pressure_tendency": null,
    "sea_level_pressure": null,
    "snow_depth": null,
    "sunshine_minutes": null,
    "temperature_decimal": {
      "repr": "0089",
      "spoken": "eight point nine",
      "value": 8.9
    }
  },
  "runway_visibility": [],
  "sanitized": "KBLI 120906Z 16017G28KT 9SM -RA SCT020 BKN037 OVC065 09/07 A2973 RMK AO2 PK WND 17028/0902 P0001 T00890072",
  "station": "KBLI",
  "temperature": {
    "repr": "09",
    "spoken": "nine",
    "value": 9
  },
  "time": {
    "dt": "2024-11-12T09:06:00Z",
    "repr": "120906Z"
  },
  "units": {
    "accumulation": "in",
    "altimeter": "inHg",
    "altitude": "ft",
    "temperature": "C",
    "visibility": "sm",
    "wind_speed": "kt"
  },
  "visibility": {
    "repr": "9",
    "spoken": "nine",
    "value": 9
  },
  "wind_direction": {
    "repr": "160",
    "spoken": "one six zero",
    "value": 160
  },
  "wind_gust": {
    "repr": "28",
    "spoken": "two eight",
    "value": 28
  },
  "wind_speed": {
    "repr": "17",
    "spoken": "one seven",
    "value": 17
  },
  "wind_variable_direction": [],
  "wx_codes": [
    {
      "repr": "-RA",
      "value": "Light Rain"
    }
  ]
}
