{
  "altimeter": {
    "repr": "A3002",
    "spoken": "three zero point zero two",
    "value": 30.02
  },
  "clouds": [],
  "density_altitude": 1515,
  "dewpoint": {
    "repr": "12",
    "spoken": "one two",
    "value": 12
  },
  "flight_rules": "VFR",
  "meta": {
    "stations_updated": "2024-06-12",
    "timestamp": "2024-07-21T02:49:39.538457Z"
  },
  "other": [],
  "pressure_altitude": 70,
  "raw": "KBLI 210153Z VRB03KT 10SM CLR 27/12 A3002 RMK AO2 SLP170 T02670117",
  "relative_humidity": 0.39220623035842245,
  "remarks": "RMK AO2 SLP170 T02670117",
  "remarks_info": {
    "codes": [
      {
        "repr": "AO2",
        "value": "Automated with precipitation sensor"
      }
    ],
    "dewpoint_decimal": {
      "repr": "0117",
      "spoken": "one one point seven",
      "value": 11.7
    },
    "maximum_temperature_24": null,
    "maximum_temperature_6": null,
    "minimum_temperature_24": null,
    "minimum_temperature_6": null,
    "precip_24_hours": null,
    "precip_36_hours": null,
    "precip_hourly": null,
    "pressure_tendency": null,
    "sea_level_pressure": {
      "repr": "SLP170",
      "spoken": "one zero one seven point zero",
      "value": 1017
    },
    "snow_depth": null,
    "sunshine_minutes": null,
    "temperature_decimal": {
      "repr": "0267",
      "spoken": "two six point seven",
      "value": 26.7
    }
  },
  "runway_visibility": [],
  "sanitized": "KBLI 210153Z VRB03KT 10SM 27/12 A3002 RMK AO2 SLP170 T02670117",
  "station": "KBLI",
  "temperature": {
    "repr": "27",
    "spoken": "two seven",
    "value": 27
  },
  "time": {
    "dt": "2024-07-21T01:53:00Z",
    "repr": "210153Z"
  },
  "units": {
    "accumulation": "in",
    "altimeter": "inHg",
    "altitude": "ft",
    "temperature": "C",
    "visibility": "sm",
    "wind_speed": "kt"
  },
  "visibility": {
    "repr": "10",
    "spoken": "one zero",
    "value": 10
  },
  "wind_direction": {
    "repr": "VRB",
    "spoken": "variable",
    "value": null
  },
  "wind_gust": null,
  "wind_speed": {
    "repr": "03",
    "spoken": "three",
    "value": 3
  },
  "wind_variable_direction": [],
  "wx_codes": []
}
