{
  "altimeter": {
    "repr": "A2958",
    "spoken": "two nine point five eight",
    "value": 29.58
  },
  "clouds": [
    {
      "altitude": 28,
      "modifier": null,
      "repr": "SCT028",
      "type": "SCT"
    },
    {
      "altitude": 70,
      "modifier": null,
      "repr": "OVC070",
      "type": "OVC"
    }
  ],
  "density_altitude": 23,
  "dewpoint": {
    "repr": "08",
    "spoken": "eight",
    "value": 8
  },
  "flight_rules": "VFR",
  "meta": {
    "cache-timestamp": "2023-11-07T02:08:05.141000Z",
    "stations_updated": "2023-10-28",
    "timestamp": "2023-11-07T02:08:39.402502Z"
  },
  "other": [],
  "pressure_altitude": 510,
  "raw": "KBLI 070153Z 17006KT 10SM -RA SCT028 OVC070 11/08 A2958 RMK AO2 RAB13 SLP023 P0000 T01060078",
  "relative_humidity": 0.828062043990444,
  "remarks": "RMK AO2 RAB13 SLP023 P0000 T01060078",
  "remarks_info": {
    "codes": [
      {
        "repr": "AO2",
        "value": "Automated with precipitation sensor"
      },
      {
        "repr": "P0000",
        "value": "Trace amount of rain in the last hour"
      },
      {
        "repr": "RAB13",
        "value": "Rain began at :13"
      }
    ],
    "dewpoint_decimal": {
      "repr": "0078",
      "spoken": "seven point eight",
      "value": 7.8
    },
    "maximum_temperature_24": null,
    "maximum_temperature_6": null,
    "minimum_temperature_24": null,
    "minimum_temperature_6": null,
    "precip_24_hours": null,
    "precip_36_hours": null,
    "precip_hourly": null,
    "pressure_tendency": null,
    "sea_level_pressure": {
      "repr": "SLP023",
      "spoken": "one zero zero two point three",
      "value": 1002.3
    },
    "snow_depth": null,
    "sunshine_minutes": null,
    "temperature_decimal": {
      "repr": "0106",
      "spoken": "one zero point six",
      "value": 10.6
    }
  },
  "runway_visibility": [],
  "sanitized": "KBLI 070153Z 17006KT 10SM -RA SCT028 OVC070 11/08 A2958 RMK AO2 RAB13 SLP023 P0000 T01060078",
  "station": "KBLI",
  "temperature": {
    "repr": "11",
    "spoken": "one one",
    "value": 11
  },
  "time": {
    "dt": "2023-11-07T01:53:00Z",
    "repr": "070153Z"
  },
  "units": {
    "accumulation": "in",
    "altimeter": "inHg",
    "altitude": "ft",
    "temperature": "C",
    "visibility": "sm",
    "wind_speed": "kt"
  },
  "visibility": {
    "repr": "10",
    "spoken": "one zero",
    "value": 10
  },
  "wind_direction": {
    "repr": "170",
    "spoken": "one seven zero",
    "value": 170
  },
  "wind_gust": null,
  "wind_speed": {
    "repr": "06",
    "spoken": "six",
    "value": 6
  },
  "wind_variable_direction": [],
  "wx_codes": [
    {
      "repr": "-RA",
      "value": "Light Rain"
    }
  ]
}
