{
  "altimeter": {
    "repr": "A3022",
    "spoken": "three zero point two two",
    "value": 30.22
  },
  "clouds": [
    {
      "altitude": 23,
      "modifier": null,
      "repr": "FEW023",
      "type": "FEW"
    },
    {
      "altitude": 29,
      "modifier": null,
      "repr": "BKN029",
      "type": "BKN"
    },
    {
      "altitude": 36,
      "modifier": null,
      "repr": "OVC036",
      "type": "OVC"
    }
  ],
  "density_altitude": -893,
  "dewpoint": {
    "repr": "04",
    "spoken": "four",
    "value": 4
  },
  "flight_rules": "MVFR",
  "meta": {
    "cache-timestamp": "2024-04-15T18:40:05.637000Z",
    "stations_updated": "2024-01-01",
    "timestamp": "2024-04-15T18:40:31.484046Z"
  },
  "other": [],
  "pressure_altitude": -130,
  "raw": "KBLI 151753Z VRB03KT 10SM FEW023 BKN029 OVC036 08/04 A3022 RMK AO2 SLP242 60001 T00830044 10094 20078 51010",
  "relative_humidity": 0.7642778368365473,
  "remarks": "RMK AO2 SLP242 60001 T00830044 10094 20078 51010",
  "remarks_info": {
    "codes": [
      {
        "repr": "AO2",
        "value": "Automated with precipitation sensor"
      }
    ],
    "dewpoint_decimal": {
      "repr": "0044",
      "spoken": "four point four",
      "value": 4.4
    },
    "maximum_temperature_24": null,
    "maximum_temperature_6": {
      "repr": "10094",
      "spoken": "nine point four",
      "value": 9.4
    },
    "minimum_temperature_24": null,
    "minimum_temperature_6": {
      "repr": "20078",
      "spoken": "seven point eight",
      "value": 7.8
    },
    "precip_24_hours": null,
    "precip_36_hours": {
      "repr": "60001",
      "spoken": "zero point zero one",
      "value": 0.01
    },
    "precip_hourly": null,
    "pressure_tendency": {
      "change": 1,
      "repr": "51010",
      "tendency": "Increasing, then steady"
    },
    "sea_level_pressure": {
      "repr": "SLP242",
      "spoken": "one zero two four point two",
      "value": 1024.2
    },
    "snow_depth": null,
    "sunshine_minutes": null,
    "temperature_decimal": {
      "repr": "0083",
      "spoken": "eight point three",
      "value": 8.3
    }
  },
  "runway_visibility": [],
  "sanitized": "KBLI 151753Z VRB03KT 10SM FEW023 BKN029 OVC036 08/04 A3022 RMK AO2 SLP242 60001 T00830044 10094 20078 51010",
  "station": "KBLI",
  "temperature": {
    "repr": "08",
    "spoken": "eight",
    "value": 8
  },
  "time": {
    "dt": "2024-04-15T17:53:00Z",
    "repr": "151753Z"
  },
  "units": {
    "accumulation": "in",
    "altimeter": "inHg",
    "altitude": "ft",
    "temperature": "C",
    "visibility": "sm",
    "wind_speed": "kt"
  },
  "visibility": {
    "repr": "10",
    "spoken": "one zero",
    "value": 10
  },
  "wind_direction": {
    "repr": "VRB",
    "spoken": "variable",
    "value": null
  },
  "wind_gust": null,
  "wind_speed": {
    "repr": "03",
    "spoken": "three",
    "value": 3
  },
  "wind_variable_direction": [],
  "wx_codes": []
}
