{
  "meta": {
    "timestamp": "2023-10-18T12:09:39.374634Z",
    "stations_updated": "2023-10-01"
  },
  "altimeter": {
    "repr": "A3004",
    "value": 30.04,
    "spoken": "three zero point zero four"
  },
  "clouds": [
    {
      "repr": "FEW055",
      "type": "FEW",
      "altitude": 55,
      "modifier": null
    },
    {
      "repr": "OVC070",
      "type": "OVC",
      "altitude": 70,
      "modifier": null
    }
  ],
  "flight_rules": "VFR",
  "other": [],
  "visibility": {
    "repr": "10",
    "value": 10,
    "spoken": "one zero"
  },
  "wind_direction": {
    "repr": "010",
    "value": 10,
    "spoken": "zero one zero"
  },
  "wind_gust": null,
  "wind_speed": {
    "repr": "05",
    "value": 5,
    "spoken": "five"
  },
  "wx_codes": [
    {
      "repr": "-RA",
      "value": "Light Rain"
    }
  ],
  "raw": "KBLI 181153Z AUTO 01005KT 10SM -RA FEW055 OVC070 11/10 A3004 RMK AO2 RAB24 SLP180 P0000 60011 70045 T01060100 10106 20106 56007 KBLI 181053Z AUTO 02005KT 10SM OVC070 11/10 A3004 RMK AO2 RAE09 SLP180 P0001 T01060100",
  "sanitized": "KBLI 181153Z 01005KT 10SM -RA FEW055 OVC070 11/10 A3004 RMK AO2 RAB24 SLP180 P0000 60011 70045 T01060100 10106 20106 56007 KBLI 181053Z AUTO 02005KT 10SM OVC070 11/10 A3004 RMK AO2 RAE09 SLP180 P0001 T01060100",
  "station": "KBLI",
  "time": {
    "repr": "181153Z",
    "dt": "2023-10-18T11:53:00Z"
  },
  "remarks": "RMK AO2 RAB24 SLP180 P0000 60011 70045 T01060100 10106 20106 56007 KBLI 181053Z AUTO 02005KT 10SM OVC070 11/10 A3004 RMK AO2 RAE09 SLP180 P0001 T01060100",
  "dewpoint": {
    "repr": "10",
    "value": 10,
    "spoken": "one zero"
  },
  "relative_humidity": 0.9607146693216029,
  "remarks_info": {
    "maximum_temperature_6": {
      "repr": "10106",
      "value": 10.6,
      "spoken": "one zero point six"
    },
    "minimum_temperature_6": {
      "repr": "20106",
      "value": 10.6,
      "spoken": "one zero point six"
    },
    "pressure_tendency": {
      "repr": "56007",
      "tendency": "Decreasing, then steady",
      "change": 0.7
    },
    "precip_36_hours": {
      "repr": "60011",
      "value": 0.11,
      "spoken": "zero point one one"
    },
    "precip_24_hours": {
      "repr": "70045",
      "value": 0.45,
      "spoken": "zero point four five"
    },
    "sunshine_minutes": null,
    "codes": [
      {
        "repr": "AO2",
        "value": "Automated with precipitation sensor"
      },
      {
        "repr": "AO2",
        "value": "Automated with precipitation sensor"
      },
      {
        "repr": "P0000",
        "value": "Trace amount of rain in the last hour"
      },
      {
        "repr": "RAB24",
        "value": "Rain began at :24"
      },
      {
        "repr": "RAE09",
        "value": "Rain ended at :09"
      }
    ],
    "dewpoint_decimal": {
      "repr": "0100",
      "value": 10,
      "spoken": "one zero point zero"
    },
    "maximum_temperature_24": null,
    "minimum_temperature_24": null,
    "precip_hourly": {
      "repr": "P0001",
      "value": 0.01,
      "spoken": "zero point zero one"
    },
    "sea_level_pressure": {
      "repr": "SLP180",
      "value": 1018,
      "spoken": "one zero one eight point zero"
    },
    "snow_depth": null,
    "temperature_decimal": {
      "repr": "0106",
      "value": 10.6,
      "spoken": "one zero point six"
    }
  },
  "runway_visibility": [],
  "temperature": {
    "repr": "11",
    "value": 11,
    "spoken": "one one"
  },
  "wind_variable_direction": [],
  "density_altitude": -437,
  "pressure_altitude": 50,
  "units": {
    "accumulation": "in",
    "altimeter": "inHg",
    "altitude": "ft",
    "temperature": "C",
    "visibility": "sm",
    "wind_speed": "kt"
  }
}
