{
  "altimeter": {
    "repr": "A2992",
    "spoken": "two nine point nine two",
    "value": 29.92
  },
  "clouds": [
    {
      "altitude": 13,
      "modifier": null,
      "repr": "FEW013",
      "type": "FEW"
    },
    {
      "altitude": 60,
      "modifier": null,
      "repr": "BKN060",
      "type": "BKN"
    },
    {
      "altitude": 80,
      "modifier": null,
      "repr": "OVC080",
      "type": "OVC"
    }
  ],
  "density_altitude": -389,
  "dewpoint": {
    "repr": "09",
    "spoken": "nine",
    "value": 9
  },
  "flight_rules": "VFR",
  "meta": {
    "stations_updated": "2024-12-02",
    "timestamp": "2024-12-07T20:07:46.988216Z"
  },
  "other": [],
  "pressure_altitude": 170,
  "raw": "KBLI 071953Z 17009KT 10SM -RA FEW013 BKN060 OVC080 10/09 A2992 RMK AO2 SLP139 P0004 T01000094",
  "relative_humidity": 0.9605319898773285,
  "remarks": "RMK AO2 SLP139 P0004 T01000094",
  "remarks_info": {
    "codes": [
      {
        "repr": "AO2",
        "value": "Automated with precipitation sensor"
      }
    ],
    "dewpoint_decimal": {
      "repr": "0094",
      "spoken": "nine point four",
      "value": 9.4
    },
    "maximum_temperature_24": null,
    "maximum_temperature_6": null,
    "minimum_temperature_24": null,
    "minimum_temperature_6": null,
    "precip_24_hours": null,
    "precip_36_hours": null,
    "precip_hourly": {
      "repr": "P0004",
      "spoken": "zero point zero four",
      "value": 0.04
    },
    "pressure_tendency": null,
    "sea_level_pressure": {
      "repr": "SLP139",
      "spoken": "one zero one three point nine",
      "value": 1013.9
    },
    "snow_depth": null,
    "sunshine_minutes": null,
    "temperature_decimal": {
      "repr": "0100",
      "spoken": "one zero point zero",
      "value": 10
    }
  },
  "runway_visibility": [],
  "sanitized": "KBLI 071953Z 17009KT 10SM -RA FEW013 BKN060 OVC080 10/09 A2992 RMK AO2 SLP139 P0004 T01000094",
  "station": "KBLI",
  "temperature": {
    "repr": "10",
    "spoken": "one zero",
    "value": 10
  },
  "time": {
    "dt": "2024-12-07T19:53:00Z",
    "repr": "071953Z"
  },
  "units": {
    "accumulation": "in",
    "altimeter": "inHg",
    "altitude": "ft",
    "temperature": "C",
    "visibility": "sm",
    "wind_speed": "kt"
  },
  "visibility": {
    "repr": "10",
    "spoken": "one zero",
    "value": 10
  },
  "wind_direction": {
    "repr": "170",
    "spoken": "one seven zero",
    "value": 170
  },
  "wind_gust": null,
  "wind_speed": {
    "repr": "09",
    "spoken": "nine",
    "value": 9
  },
  "wind_variable_direction": [],
  "wx_codes": [
    {
      "repr": "-RA",
      "value": "Light Rain"
    }
  ]
}
