{
  "meta": {
    "timestamp": "2023-06-24T20:40:45.815847Z",
    "stations_updated": "2023-06-06",
    "cache-timestamp": "2023-06-24T20:40:03.751000Z"
  },
  "altimeter": {
    "repr": "A3013",
    "value": 30.13,
    "spoken": "three zero point one three"
  },
  "clouds": [],
  "flight_rules": "VFR",
  "other": [],
  "visibility": {
    "repr": "10",
    "value": 10,
    "spoken": "one zero"
  },
  "wind_direction": {
    "repr": "190",
    "value": 190,
    "spoken": "one nine zero"
  },
  "wind_gust": null,
  "wind_speed": {
    "repr": "07",
    "value": 7,
    "spoken": "seven"
  },
  "wx_codes": [],
  "raw": "KBLI 241953Z 19007KT 160V230 10SM CLR 16/12 A3013 RMK AO2 SLP210 T01610117",
  "sanitized": "KBLI 241953Z 19007KT 160V230 10SM 16/12 A3013 RMK AO2 SLP210 T01610117",
  "station": "KBLI",
  "time": {
    "repr": "241953Z",
    "dt": "2023-06-24T19:53:00Z"
  },
  "remarks": "RMK AO2 SLP210 T01610117",
  "dewpoint": {
    "repr": "12",
    "value": 12,
    "spoken": "one two"
  },
  "relative_humidity": 0.7514422502965397,
  "remarks_info": {
    "maximum_temperature_6": null,
    "minimum_temperature_6": null,
    "pressure_tendency": null,
    "precip_36_hours": null,
    "precip_24_hours": null,
    "sunshine_minutes": null,
    "codes": [
      {
        "repr": "AO2",
        "value": "Automated with precipitation sensor"
      }
    ],
    "dewpoint_decimal": {
      "repr": "0117",
      "value": 11.7,
      "spoken": "one one point seven"
    },
    "maximum_temperature_24": null,
    "minimum_temperature_24": null,
    "precip_hourly": null,
    "sea_level_pressure": {
      "repr": "SLP210",
      "value": 1021,
      "spoken": "one zero two one point zero"
    },
    "snow_depth": null,
    "temperature_decimal": {
      "repr": "0161",
      "value": 16.1,
      "spoken": "one six point one"
    }
  },
  "runway_visibility": [],
  "temperature": {
    "repr": "16",
    "value": 16,
    "spoken": "one six"
  },
  "wind_variable_direction": [
    {
      "repr": "160",
      "value": 160,
      "spoken": "one six zero"
    },
    {
      "repr": "230",
      "value": 230,
      "spoken": "two three zero"
    }
  ],
  "density_altitude": 133,
  "pressure_altitude": -40,
  "units": {
    "accumulation": "in",
    "altimeter": "inHg",
    "altitude": "ft",
    "temperature": "C",
    "visibility": "sm",
    "wind_speed": "kt"
  }
}
