{
  "altimeter": {
    "repr": "A2979",
    "spoken": "two nine point seven nine",
    "value": 29.79
  },
  "clouds": [],
  "density_altitude": 1541,
  "dewpoint": {
    "repr": "18",
    "spoken": "one eight",
    "value": 18
  },
  "flight_rules": "VFR",
  "meta": {
    "stations_updated": "2024-06-12",
    "timestamp": "2024-08-17T22:02:34.018764Z"
  },
  "other": [],
  "pressure_altitude": 300,
  "raw": "KBLI 172153Z 29008KT 10SM CLR 25/18 A2979 RMK AO2 SLP091 T02500178",
  "relative_humidity": 0.6430360464401954,
  "remarks": "RMK AO2 SLP091 T02500178",
  "remarks_info": {
    "codes": [
      {
        "repr": "AO2",
        "value": "Automated with precipitation sensor"
      }
    ],
    "dewpoint_decimal": {
      "repr": "0178",
      "spoken": "one seven point eight",
      "value": 17.8
    },
    "maximum_temperature_24": null,
    "maximum_temperature_6": null,
    "minimum_temperature_24": null,
    "minimum_temperature_6": null,
    "precip_24_hours": null,
    "precip_36_hours": null,
    "precip_hourly": null,
    "pressure_tendency": null,
    "sea_level_pressure": {
      "repr": "SLP091",
      "spoken": "one zero zero nine point one",
      "value": 1009.1
    },
    "snow_depth": null,
    "sunshine_minutes": null,
    "temperature_decimal": {
      "repr": "0250",
      "spoken": "two five point zero",
      "value": 25
    }
  },
  "runway_visibility": [],
  "sanitized": "KBLI 172153Z 29008KT 10SM 25/18 A2979 RMK AO2 SLP091 T02500178",
  "station": "KBLI",
  "temperature": {
    "repr": "25",
    "spoken": "two five",
    "value": 25
  },
  "time": {
    "dt": "2024-08-17T21:53:00Z",
    "repr": "172153Z"
  },
  "units": {
    "accumulation": "in",
    "altimeter": "inHg",
    "altitude": "ft",
    "temperature": "C",
    "visibility": "sm",
    "wind_speed": "kt"
  },
  "visibility": {
    "repr": "10",
    "spoken": "one zero",
    "value": 10
  },
  "wind_direction": {
    "repr": "290",
    "spoken": "two nine zero",
    "value": 290
  },
  "wind_gust": null,
  "wind_speed": {
    "repr": "08",
    "spoken": "eight",
    "value": 8
  },
  "wind_variable_direction": [],
  "wx_codes": []
}
