{
  "altimeter": {
    "repr": "A3074",
    "spoken": "three zero point seven four",
    "value": 30.74
  },
  "clouds": [],
  "density_altitude": -2805,
  "dewpoint": {
    "repr": "M04",
    "spoken": "minus four",
    "value": -4
  },
  "flight_rules": "VFR",
  "meta": {
    "stations_updated": "2024-12-02",
    "timestamp": "2025-01-22T14:07:20.512992Z"
  },
  "other": [],
  "pressure_altitude": -650,
  "raw": "KBLI 221353Z AUTO 03004KT 10SM CLR M03/M04 A3074 RMK AO2 SLP419 T10331044",
  "relative_humidity": 0.9208950648123322,
  "remarks": "RMK AO2 SLP419 T10331044",
  "remarks_info": {
    "codes": [
      {
        "repr": "AO2",
        "value": "Automated with precipitation sensor"
      }
    ],
    "dewpoint_decimal": {
      "repr": "1044",
      "spoken": "minus four point four",
      "value": -4.4
    },
    "maximum_temperature_24": null,
    "maximum_temperature_6": null,
    "minimum_temperature_24": null,
    "minimum_temperature_6": null,
    "precip_24_hours": null,
    "precip_36_hours": null,
    "precip_hourly": null,
    "pressure_tendency": null,
    "sea_level_pressure": {
      "repr": "SLP419",
      "spoken": "one zero four one point nine",
      "value": 1041.9
    },
    "snow_depth": null,
    "sunshine_minutes": null,
    "temperature_decimal": {
      "repr": "1033",
      "spoken": "minus three point three",
      "value": -3.3
    }
  },
  "runway_visibility": [],
  "sanitized": "KBLI 221353Z 03004KT 10SM M03/M04 A3074 RMK AO2 SLP419 T10331044",
  "station": "KBLI",
  "temperature": {
    "repr": "M03",
    "spoken": "minus three",
    "value": -3
  },
  "time": {
    "dt": "2025-01-22T13:53:00Z",
    "repr": "221353Z"
  },
  "units": {
    "accumulation": "in",
    "altimeter": "inHg",
    "altitude": "ft",
    "temperature": "C",
    "visibility": "sm",
    "wind_speed": "kt"
  },
  "visibility": {
    "repr": "10",
    "spoken": "one zero",
    "value": 10
  },
  "wind_direction": {
    "repr": "030",
    "spoken": "zero three zero",
    "value": 30
  },
  "wind_gust": null,
  "wind_speed": {
    "repr": "04",
    "spoken": "four",
    "value": 4
  },
  "wind_variable_direction": [],
  "wx_codes": []
}
