{
  "meta": {
    "timestamp": "2023-03-03T18:43:25.361854Z",
    "stations_updated": "2023-01-30"
  },
  "altimeter": {
    "repr": "A2994",
    "value": 29.94,
    "spoken": "two nine point nine four"
  },
  "clouds": [
    {
      "repr": "BKN016",
      "type": "BKN",
      "altitude": 16,
      "modifier": null
    },
    {
      "repr": "BKN042",
      "type": "BKN",
      "altitude": 42,
      "modifier": null
    },
    {
      "repr": "OVC070",
      "type": "OVC",
      "altitude": 70,
      "modifier": null
    }
  ],
  "flight_rules": "MVFR",
  "other": [],
  "visibility": {
    "repr": "10",
    "value": 10,
    "spoken": "one zero"
  },
  "wind_direction": {
    "repr": "170",
    "value": 170,
    "spoken": "one seven zero"
  },
  "wind_gust": {
    "repr": "19",
    "value": 19,
    "spoken": "one nine"
  },
  "wind_speed": {
    "repr": "11",
    "value": 11,
    "spoken": "one one"
  },
  "wx_codes": [],
  "raw": "KBLI 031753Z 17011G19KT 10SM BKN016 BKN042 OVC070 04/02 A2994 RMK AO2 SLP146 60000 T00440022 10050 20033 58000",
  "sanitized": "KBLI 031753Z 17011G19KT 10SM BKN016 BKN042 OVC070 04/02 A2994 RMK AO2 SLP146 60000 T00440022 10050 20033 58000",
  "station": "KBLI",
  "time": {
    "repr": "031753Z",
    "dt": "2023-03-03T17:53:00Z"
  },
  "remarks": "RMK AO2 SLP146 60000 T00440022 10050 20033 58000",
  "dewpoint": {
    "repr": "02",
    "value": 2,
    "spoken": "two"
  },
  "relative_humidity": 0.8560648690888376,
  "remarks_info": {
    "maximum_temperature_6": {
      "repr": "10050",
      "value": 5,
      "spoken": "five point zero"
    },
    "minimum_temperature_6": {
      "repr": "20033",
      "value": 3.3,
      "spoken": "three point three"
    },
    "pressure_tendency": {
      "repr": "58000",
      "tendency": "Steady or increasing, then decreasing",
      "change": 0
    },
    "precip_36_hours": {
      "repr": "60000",
      "value": 0,
      "spoken": "zero"
    },
    "precip_24_hours": null,
    "sunshine_minutes": null,
    "codes": [
      {
        "repr": "AO2",
        "value": "Automated with precipitation sensor"
      }
    ],
    "dewpoint_decimal": {
      "repr": "0022",
      "value": 2.2,
      "spoken": "two point two"
    },
    "maximum_temperature_24": null,
    "minimum_temperature_24": null,
    "precip_hourly": null,
    "sea_level_pressure": {
      "repr": "SLP146",
      "value": 1014.6,
      "spoken": "one zero one four point six"
    },
    "snow_depth": null,
    "temperature_decimal": {
      "repr": "0044",
      "value": 4.4,
      "spoken": "four point four"
    }
  },
  "runway_visibility": [],
  "temperature": {
    "repr": "04",
    "value": 4,
    "spoken": "four"
  },
  "wind_variable_direction": [],
  "density_altitude": -1081,
  "pressure_altitude": 150,
  "units": {
    "accumulation": "in",
    "altimeter": "inHg",
    "altitude": "ft",
    "temperature": "C",
    "visibility": "sm",
    "wind_speed": "kt"
  }
}
