{
  "meta": {
    "timestamp": "2022-12-27T19:40:48.808146Z",
    "stations_updated": "2022-09-05"
  },
  "altimeter": {
    "repr": "A2887",
    "value": 28.87,
    "spoken": "two eight point eight seven"
  },
  "clouds": [
    {
      "repr": "SCT036",
      "type": "SCT",
      "altitude": 36,
      "modifier": null
    },
    {
      "repr": "BKN043",
      "type": "BKN",
      "altitude": 43,
      "modifier": null
    },
    {
      "repr": "OVC085",
      "type": "OVC",
      "altitude": 85,
      "modifier": null
    }
  ],
  "flight_rules": "VFR",
  "other": [],
  "visibility": {
    "repr": "6",
    "value": 6,
    "spoken": "six"
  },
  "wind_direction": {
    "repr": "160",
    "value": 160,
    "spoken": "one six zero"
  },
  "wind_gust": {
    "repr": "36",
    "value": 36,
    "spoken": "three six"
  },
  "wind_speed": {
    "repr": "24",
    "value": 24,
    "spoken": "two four"
  },
  "wx_codes": [
    {
      "repr": "-RA",
      "value": "Light Rain"
    }
  ],
  "raw": "KBLI 271853Z 16024G36KT 6SM -RA SCT036 BKN043 OVC085 12/08 A2887 RMK AO2 PK WND 13044/1755 RAB05 SLP783 P0000 T01220083",
  "sanitized": "KBLI 271853Z 16024G36KT 6SM -RA SCT036 BKN043 OVC085 12/08 A2887 RMK AO2 PK WND 13044/1755 RAB05 SLP783 P0000 T01220083",
  "station": "KBLI",
  "time": {
    "repr": "271853Z",
    "dt": "2022-12-27T18:53:00Z"
  },
  "remarks": "RMK AO2 PK WND 13044/1755 RAB05 SLP783 P0000 T01220083",
  "dewpoint": {
    "repr": "08",
    "value": 8,
    "spoken": "eight"
  },
  "relative_humidity": 0.7705709408156373,
  "remarks_info": {
    "maximum_temperature_6": null,
    "minimum_temperature_6": null,
    "pressure_tendency": null,
    "precip_36_hours": null,
    "precip_24_hours": null,
    "sunshine_minutes": null,
    "codes": [
      {
        "repr": "AO2",
        "value": "Automated with precipitation sensor"
      },
      {
        "repr": "P0000",
        "value": "Trace amount of rain in the last hour"
      },
      {
        "repr": "RAB05",
        "value": "Rain began at :05"
      }
    ],
    "dewpoint_decimal": {
      "repr": "0083",
      "value": 8.3,
      "spoken": "eight point three"
    },
    "maximum_temperature_24": null,
    "minimum_temperature_24": null,
    "precip_hourly": null,
    "sea_level_pressure": {
      "repr": "SLP783",
      "value": 978.3,
      "spoken": "nine seven eight point three"
    },
    "snow_depth": null,
    "temperature_decimal": {
      "repr": "0122",
      "value": 12.2,
      "spoken": "one two point two"
    }
  },
  "runway_visibility": [],
  "temperature": {
    "repr": "12",
    "value": 12,
    "spoken": "one two"
  },
  "wind_variable_direction": [],
  "density_altitude": 925,
  "pressure_altitude": 1220,
  "units": {
    "accumulation": "in",
    "altimeter": "inHg",
    "altitude": "ft",
    "temperature": "C",
    "visibility": "sm",
    "wind_speed": "kt"
  }
}
