{
  "meta": {
    "timestamp": "2022-12-23T11:22:40.772601Z",
    "stations_updated": "2022-09-05"
  },
  "altimeter": {
    "repr": "A2999",
    "value": 29.99,
    "spoken": "two nine point nine nine"
  },
  "clouds": [
    {
      "repr": "OVC033",
      "type": "OVC",
      "altitude": 33,
      "modifier": null
    }
  ],
  "flight_rules": "VFR",
  "other": [],
  "visibility": {
    "repr": "6",
    "value": 6,
    "spoken": "six"
  },
  "wind_direction": {
    "repr": "050",
    "value": 50,
    "spoken": "zero five zero"
  },
  "wind_gust": null,
  "wind_speed": {
    "repr": "09",
    "value": 9,
    "spoken": "nine"
  },
  "wx_codes": [
    {
      "repr": "UP",
      "value": "Unknown Precip"
    },
    {
      "repr": "BR",
      "value": "Mist"
    }
  ],
  "raw": "KBLI 231110Z AUTO 05009KT 6SM UP BR OVC033 M06/M07 A2999 RMK AO2 UPB04FZRAE04 P0000 I1000 T10561072",
  "sanitized": "KBLI 231110Z 05009KT 6SM UP BR OVC033 M06/M07 A2999 RMK AO2 UPB04FZRAE04 P0000 I1000 T10561072",
  "station": "KBLI",
  "time": {
    "repr": "231110Z",
    "dt": "2022-12-23T11:10:00Z"
  },
  "remarks": "RMK AO2 UPB04FZRAE04 P0000 I1000 T10561072",
  "dewpoint": {
    "repr": "M07",
    "value": -7,
    "spoken": "minus seven"
  },
  "relative_humidity": 0.8847405257669102,
  "remarks_info": {
    "maximum_temperature_6": null,
    "minimum_temperature_6": null,
    "pressure_tendency": null,
    "precip_36_hours": null,
    "precip_24_hours": null,
    "sunshine_minutes": null,
    "codes": [
      {
        "repr": "AO2",
        "value": "Automated with precipitation sensor"
      },
      {
        "repr": "P0000",
        "value": "Trace amount of rain in the last hour"
      }
    ],
    "dewpoint_decimal": {
      "repr": "1072",
      "value": -7.2,
      "spoken": "minus seven point two"
    },
    "maximum_temperature_24": null,
    "minimum_temperature_24": null,
    "precip_hourly": null,
    "sea_level_pressure": null,
    "snow_depth": null,
    "temperature_decimal": {
      "repr": "1056",
      "value": -5.6,
      "spoken": "minus five point six"
    }
  },
  "runway_visibility": [],
  "temperature": {
    "repr": "M06",
    "value": -6,
    "spoken": "minus six"
  },
  "wind_variable_direction": [],
  "density_altitude": -2331,
  "pressure_altitude": 100,
  "units": {
    "accumulation": "in",
    "altimeter": "inHg",
    "altitude": "ft",
    "temperature": "C",
    "visibility": "sm",
    "wind_speed": "kt"
  }
}
