{
  "altimeter": {
    "repr": "A3044",
    "spoken": "three zero point four four",
    "value": 30.44
  },
  "clouds": [],
  "density_altitude": -2373,
  "dewpoint": {
    "repr": "M04",
    "spoken": "minus four",
    "value": -4
  },
  "flight_rules": "VFR",
  "meta": {
    "stations_updated": "2024-12-02",
    "timestamp": "2025-01-27T06:10:59.852471Z"
  },
  "other": [],
  "pressure_altitude": -350,
  "raw": "KBLI 270553Z 00000KT 10SM CLR M02/M04 A3044 RMK AO2 SLP319 T10221039 10067 21028 51009 $",
  "relative_humidity": 0.8811613732885916,
  "remarks": "RMK AO2 SLP319 T10221039 10067 21028 51009 $",
  "remarks_info": {
    "codes": [
      {
        "repr": "$",
        "value": "ASOS requires maintenance"
      },
      {
        "repr": "AO2",
        "value": "Automated with precipitation sensor"
      }
    ],
    "dewpoint_decimal": {
      "repr": "1039",
      "spoken": "minus three point nine",
      "value": -3.9
    },
    "maximum_temperature_24": null,
    "maximum_temperature_6": {
      "repr": "10067",
      "spoken": "six point seven",
      "value": 6.7
    },
    "minimum_temperature_24": null,
    "minimum_temperature_6": {
      "repr": "21028",
      "spoken": "minus two point eight",
      "value": -2.8
    },
    "precip_24_hours": null,
    "precip_36_hours": null,
    "precip_hourly": null,
    "pressure_tendency": {
      "change": 0.9,
      "repr": "51009",
      "tendency": "Increasing, then steady"
    },
    "sea_level_pressure": {
      "repr": "SLP319",
      "spoken": "one zero three one point nine",
      "value": 1031.9
    },
    "snow_depth": null,
    "sunshine_minutes": null,
    "temperature_decimal": {
      "repr": "1022",
      "spoken": "minus two point two",
      "value": -2.2
    }
  },
  "runway_visibility": [],
  "sanitized": "KBLI 270553Z 00000KT 10SM M02/M04 A3044 RMK AO2 SLP319 T10221039 10067 21028 51009 $",
  "station": "KBLI",
  "temperature": {
    "repr": "M02",
    "spoken": "minus two",
    "value": -2
  },
  "time": {
    "dt": "2025-01-27T05:53:00Z",
    "repr": "270553Z"
  },
  "units": {
    "accumulation": "in",
    "altimeter": "inHg",
    "altitude": "ft",
    "temperature": "C",
    "visibility": "sm",
    "wind_speed": "kt"
  },
  "visibility": {
    "repr": "10",
    "spoken": "one zero",
    "value": 10
  },
  "wind_direction": {
    "repr": "000",
    "spoken": "zero zero zero",
    "value": 0
  },
  "wind_gust": null,
  "wind_speed": {
    "repr": "00",
    "spoken": "zero",
    "value": 0
  },
  "wind_variable_direction": [],
  "wx_codes": []
}
