{
  "meta": {
    "timestamp": "2023-01-15T14:24:20.121603Z",
    "stations_updated": "2022-12-27",
    "cache-timestamp": "2023-01-15T14:24:05.613000Z"
  },
  "altimeter": {
    "repr": "A2927",
    "value": 29.27,
    "spoken": "two nine point two seven"
  },
  "clouds": [
    {
      "repr": "BKN085",
      "type": "BKN",
      "altitude": 85,
      "modifier": null
    }
  ],
  "flight_rules": "VFR",
  "other": [],
  "visibility": {
    "repr": "10",
    "value": 10,
    "spoken": "one zero"
  },
  "wind_direction": {
    "repr": "030",
    "value": 30,
    "spoken": "zero three zero"
  },
  "wind_gust": null,
  "wind_speed": {
    "repr": "06",
    "value": 6,
    "spoken": "six"
  },
  "wx_codes": [],
  "raw": "KBLI 151353Z AUTO 03006KT 10SM BKN085 07/05 A2927 RMK AO2 SLP921 T00670050",
  "sanitized": "KBLI 151353Z 03006KT 10SM BKN085 07/05 A2927 RMK AO2 SLP921 T00670050",
  "station": "KBLI",
  "time": {
    "repr": "151353Z",
    "dt": "2023-01-15T13:53:00Z"
  },
  "remarks": "RMK AO2 SLP921 T00670050",
  "dewpoint": {
    "repr": "05",
    "value": 5,
    "spoken": "five"
  },
  "relative_humidity": 0.8890122546203816,
  "remarks_info": {
    "maximum_temperature_6": null,
    "minimum_temperature_6": null,
    "pressure_tendency": null,
    "precip_36_hours": null,
    "precip_24_hours": null,
    "sunshine_minutes": null,
    "codes": [
      {
        "repr": "AO2",
        "value": "Automated with precipitation sensor"
      }
    ],
    "dewpoint_decimal": {
      "repr": "0050",
      "value": 5,
      "spoken": "five point zero"
    },
    "maximum_temperature_24": null,
    "minimum_temperature_24": null,
    "precip_hourly": null,
    "sea_level_pressure": {
      "repr": "SLP921",
      "value": 992.1,
      "spoken": "nine nine two point one"
    },
    "snow_depth": null,
    "temperature_decimal": {
      "repr": "0067",
      "value": 6.7,
      "spoken": "six point seven"
    }
  },
  "runway_visibility": [],
  "temperature": {
    "repr": "07",
    "value": 7,
    "spoken": "seven"
  },
  "wind_variable_direction": [],
  "density_altitude": -135,
  "pressure_altitude": 820,
  "units": {
    "accumulation": "in",
    "altimeter": "inHg",
    "altitude": "ft",
    "temperature": "C",
    "visibility": "sm",
    "wind_speed": "kt"
  }
}
