{
  "meta": {
    "timestamp": "2023-10-18T11:01:19.495353Z",
    "stations_updated": "2023-10-01"
  },
  "altimeter": {
    "repr": "A3004",
    "value": 30.04,
    "spoken": "three zero point zero four"
  },
  "clouds": [
    {
      "repr": "OVC070",
      "type": "OVC",
      "altitude": 70,
      "modifier": null
    }
  ],
  "flight_rules": "VFR",
  "other": [],
  "visibility": {
    "repr": "10",
    "value": 10,
    "spoken": "one zero"
  },
  "wind_direction": {
    "repr": "020",
    "value": 20,
    "spoken": "zero two zero"
  },
  "wind_gust": null,
  "wind_speed": {
    "repr": "05",
    "value": 5,
    "spoken": "five"
  },
  "wx_codes": [],
  "raw": "KBLI 181053Z AUTO 02005KT 10SM OVC070 11/10 A3004 RMK AO2 RAE09 SLP180 P0001 T01060100 KBLI 180953Z AUTO 04005KT 9SM -RA BKN060 OVC070 11/10 A3006 RMK AO2 RAB06 SLP186 P0001 T01060100",
  "sanitized": "KBLI 181053Z 02005KT 10SM OVC070 11/10 A3004 RMK AO2 RAE09 SLP180 P0001 T01060100 KBLI 180953Z AUTO 04005KT 9SM -RA BKN060 OVC070 11/10 A3006 RMK AO2 RAB06 SLP186 P0001 T01060100",
  "station": "KBLI",
  "time": {
    "repr": "181053Z",
    "dt": "2023-10-18T10:53:00Z"
  },
  "remarks": "RMK AO2 RAE09 SLP180 P0001 T01060100 KBLI 180953Z AUTO 04005KT 9SM -RA BKN060 OVC070 11/10 A3006 RMK AO2 RAB06 SLP186 P0001 T01060100",
  "dewpoint": {
    "repr": "10",
    "value": 10,
    "spoken": "one zero"
  },
  "relative_humidity": 0.9607146693216029,
  "remarks_info": {
    "maximum_temperature_6": null,
    "minimum_temperature_6": null,
    "pressure_tendency": null,
    "precip_36_hours": null,
    "precip_24_hours": null,
    "sunshine_minutes": null,
    "codes": [
      {
        "repr": "AO2",
        "value": "Automated with precipitation sensor"
      },
      {
        "repr": "AO2",
        "value": "Automated with precipitation sensor"
      },
      {
        "repr": "RAB06",
        "value": "Rain began at :06"
      },
      {
        "repr": "RAE09",
        "value": "Rain ended at :09"
      }
    ],
    "dewpoint_decimal": {
      "repr": "0100",
      "value": 10,
      "spoken": "one zero point zero"
    },
    "maximum_temperature_24": null,
    "minimum_temperature_24": null,
    "precip_hourly": {
      "repr": "P0001",
      "value": 0.01,
      "spoken": "zero point zero one"
    },
    "sea_level_pressure": {
      "repr": "SLP180",
      "value": 1018,
      "spoken": "one zero one eight point zero"
    },
    "snow_depth": null,
    "temperature_decimal": {
      "repr": "0106",
      "value": 10.6,
      "spoken": "one zero point six"
    }
  },
  "runway_visibility": [],
  "temperature": {
    "repr": "11",
    "value": 11,
    "spoken": "one one"
  },
  "wind_variable_direction": [],
  "density_altitude": -437,
  "pressure_altitude": 50,
  "units": {
    "accumulation": "in",
    "altimeter": "inHg",
    "altitude": "ft",
    "temperature": "C",
    "visibility": "sm",
    "wind_speed": "kt"
  }
}
