{
  "meta": {
    "timestamp": "2023-01-30T03:27:30.969752Z",
    "stations_updated": "2023-01-16"
  },
  "altimeter": {
    "repr": "A3047",
    "value": 30.47,
    "spoken": "three zero point four seven"
  },
  "clouds": [],
  "flight_rules": "VFR",
  "other": [],
  "visibility": {
    "repr": "10",
    "value": 10,
    "spoken": "one zero"
  },
  "wind_direction": {
    "repr": "020",
    "value": 20,
    "spoken": "zero two zero"
  },
  "wind_gust": null,
  "wind_speed": {
    "repr": "03",
    "value": 3,
    "spoken": "three"
  },
  "wx_codes": [],
  "raw": "KBLI 300253Z 02003KT 10SM CLR M02/M11 A3047 RMK AO2 SLP327 T10221106 56005",
  "sanitized": "KBLI 300253Z 02003KT 10SM M02/M11 A3047 RMK AO2 SLP327 T10221106 56005",
  "station": "KBLI",
  "time": {
    "repr": "300253Z",
    "dt": "2023-01-30T02:53:00Z"
  },
  "remarks": "RMK AO2 SLP327 T10221106 56005",
  "dewpoint": {
    "repr": "M11",
    "value": -11,
    "spoken": "minus one one"
  },
  "relative_humidity": 0.5256529684989055,
  "remarks_info": {
    "maximum_temperature_6": null,
    "minimum_temperature_6": null,
    "pressure_tendency": {
      "repr": "56005",
      "tendency": "Decreasing, then steady",
      "change": 0.5
    },
    "precip_36_hours": null,
    "precip_24_hours": null,
    "sunshine_minutes": null,
    "codes": [
      {
        "repr": "AO2",
        "value": "Automated with precipitation sensor"
      }
    ],
    "dewpoint_decimal": {
      "repr": "1106",
      "value": -10.6,
      "spoken": "minus one zero point six"
    },
    "maximum_temperature_24": null,
    "minimum_temperature_24": null,
    "precip_hourly": null,
    "sea_level_pressure": {
      "repr": "SLP327",
      "value": 1032.7,
      "spoken": "one zero three two point seven"
    },
    "snow_depth": null,
    "temperature_decimal": {
      "repr": "1022",
      "value": -2.2,
      "spoken": "minus two point two"
    }
  },
  "runway_visibility": [],
  "temperature": {
    "repr": "M02",
    "value": -2,
    "spoken": "minus two"
  },
  "wind_variable_direction": [],
  "density_altitude": -2403,
  "pressure_altitude": -380,
  "units": {
    "accumulation": "in",
    "altimeter": "inHg",
    "altitude": "ft",
    "temperature": "C",
    "visibility": "sm",
    "wind_speed": "kt"
  }
}
