{
  "altimeter": {
    "repr": "A2973",
    "spoken": "two nine point seven three",
    "value": 29.73
  },
  "clouds": [
    {
      "altitude": 17,
      "modifier": null,
      "repr": "OVC017",
      "type": "OVC"
    }
  ],
  "density_altitude": -331,
  "dewpoint": {
    "repr": "08",
    "spoken": "eight",
    "value": 8
  },
  "flight_rules": "MVFR",
  "meta": {
    "cache-timestamp": "2024-04-26T09:06:02.954000Z",
    "stations_updated": "2024-01-01",
    "timestamp": "2024-04-26T09:06:39.973826Z"
  },
  "other": [],
  "pressure_altitude": 360,
  "raw": "KBLI 260838Z AUTO 07005KT 3SM RA BR OVC017 09/08 A2973 RMK AO2 P0010 T00890083 $",
  "relative_humidity": 0.9601937753627737,
  "remarks": "RMK AO2 P0010 T00890083 $",
  "remarks_info": {
    "codes": [
      {
        "repr": "$",
        "value": "ASOS requires maintenance"
      },
      {
        "repr": "AO2",
        "value": "Automated with precipitation sensor"
      }
    ],
    "dewpoint_decimal": {
      "repr": "0083",
      "spoken": "eight point three",
      "value": 8.3
    },
    "maximum_temperature_24": null,
    "maximum_temperature_6": null,
    "minimum_temperature_24": null,
    "minimum_temperature_6": null,
    "precip_24_hours": null,
    "precip_36_hours": null,
    "precip_hourly": {
      "repr": "P0010",
      "spoken": "zero point one",
      "value": 0.1
    },
    "pressure_tendency": null,
    "sea_level_pressure": null,
    "snow_depth": null,
    "sunshine_minutes": null,
    "temperature_decimal": {
      "repr": "0089",
      "spoken": "eight point nine",
      "value": 8.9
    }
  },
  "runway_visibility": [],
  "sanitized": "KBLI 260838Z 07005KT 3SM RA BR OVC017 09/08 A2973 RMK AO2 P0010 T00890083 $",
  "station": "KBLI",
  "temperature": {
    "repr": "09",
    "spoken": "nine",
    "value": 9
  },
  "time": {
    "dt": "2024-04-26T08:38:00Z",
    "repr": "260838Z"
  },
  "units": {
    "accumulation": "in",
    "altimeter": "inHg",
    "altitude": "ft",
    "temperature": "C",
    "visibility": "sm",
    "wind_speed": "kt"
  },
  "visibility": {
    "repr": "3",
    "spoken": "three",
    "value": 3
  },
  "wind_direction": {
    "repr": "070",
    "spoken": "zero seven zero",
    "value": 70
  },
  "wind_gust": null,
  "wind_speed": {
    "repr": "05",
    "spoken": "five",
    "value": 5
  },
  "wind_variable_direction": [],
  "wx_codes": [
    {
      "repr": "RA",
      "value": "Rain"
    },
    {
      "repr": "BR",
      "value": "Mist"
    }
  ]
}
