{
  "altimeter": {
    "repr": "A3016",
    "spoken": "three zero point one six",
    "value": 30.16
  },
  "clouds": [
    {
      "altitude": 2,
      "modifier": null,
      "repr": "VV002",
      "type": "VV"
    }
  ],
  "density_altitude": -1157,
  "dewpoint": {
    "repr": "06",
    "spoken": "six",
    "value": 6
  },
  "flight_rules": "LIFR",
  "meta": {
    "cache-timestamp": "2023-12-11T06:40:03.960000Z",
    "stations_updated": "2023-10-28",
    "timestamp": "2023-12-11T06:40:45.574374Z"
  },
  "other": [],
  "pressure_altitude": -70,
  "raw": "KBLI 110619Z 33003KT 1/2SM R16/3000V4000FT FG VV002 06/06 A3016 RMK AO2 T00560056",
  "relative_humidity": 1,
  "remarks": "RMK AO2 T00560056",
  "remarks_info": {
    "codes": [
      {
        "repr": "AO2",
        "value": "Automated with precipitation sensor"
      }
    ],
    "dewpoint_decimal": {
      "repr": "0056",
      "spoken": "five point six",
      "value": 5.6
    },
    "maximum_temperature_24": null,
    "maximum_temperature_6": null,
    "minimum_temperature_24": null,
    "minimum_temperature_6": null,
    "precip_24_hours": null,
    "precip_36_hours": null,
    "precip_hourly": null,
    "pressure_tendency": null,
    "sea_level_pressure": null,
    "snow_depth": null,
    "sunshine_minutes": null,
    "temperature_decimal": {
      "repr": "0056",
      "spoken": "five point six",
      "value": 5.6
    }
  },
  "runway_visibility": [
    {
      "repr": "R16/3000V4000FT",
      "runway": "16",
      "trend": null,
      "variable_visibility": [
        {
          "repr": "3000",
          "spoken": "three thousand",
          "value": 3000
        },
        {
          "repr": "4000",
          "spoken": "four thousand",
          "value": 4000
        }
      ],
      "visibility": null
    }
  ],
  "sanitized": "KBLI 110619Z 33003KT 1/2SM R16/3000V4000FT FG VV002 06/06 A3016 RMK AO2 T00560056",
  "station": "KBLI",
  "temperature": {
    "repr": "06",
    "spoken": "six",
    "value": 6
  },
  "time": {
    "dt": "2023-12-11T06:19:00Z",
    "repr": "110619Z"
  },
  "units": {
    "accumulation": "in",
    "altimeter": "inHg",
    "altitude": "ft",
    "temperature": "C",
    "visibility": "sm",
    "wind_speed": "kt"
  },
  "visibility": {
    "denominator": 2,
    "normalized": "1/2",
    "numerator": 1,
    "repr": "1/2",
    "spoken": "one half",
    "value": 0.5
  },
  "wind_direction": {
    "repr": "330",
    "spoken": "three three zero",
    "value": 330
  },
  "wind_gust": null,
  "wind_speed": {
    "repr": "03",
    "spoken": "three",
    "value": 3
  },
  "wind_variable_direction": [],
  "wx_codes": [
    {
      "repr": "FG",
      "value": "Fog"
    }
  ]
}
