{
  "meta": {
    "timestamp": "2022-09-22T00:35:05.232121Z",
    "stations_updated": "2022-09-05"
  },
  "altimeter": {
    "repr": "A2987",
    "value": 29.87,
    "spoken": "two nine point eight seven"
  },
  "clouds": [],
  "flight_rules": "VFR",
  "other": [],
  "visibility": {
    "repr": "10",
    "value": 10,
    "spoken": "one zero"
  },
  "wind_direction": {
    "repr": "VRB",
    "value": null,
    "spoken": "variable"
  },
  "wind_gust": null,
  "wind_speed": {
    "repr": "03",
    "value": 3,
    "spoken": "three"
  },
  "wx_codes": [],
  "raw": "KBLI 212353Z VRB03KT 10SM CLR 23/04 A2987 RMK AO2 SLP121 T02330044 10244 20194 56011",
  "sanitized": "KBLI 212353Z VRB03KT 10SM 23/04 A2987 RMK AO2 SLP121 T02330044 10244 20194 56011",
  "station": "KBLI",
  "time": {
    "repr": "212353Z",
    "dt": "2022-09-21T23:53:00Z"
  },
  "remarks": "RMK AO2 SLP121 T02330044 10244 20194 56011",
  "dewpoint": {
    "repr": "04",
    "value": 4,
    "spoken": "four"
  },
  "relative_humidity": 0.2924334336783156,
  "remarks_info": {
    "maximum_temperature_6": {
      "repr": "10244",
      "value": 24.4,
      "spoken": "two four point four"
    },
    "minimum_temperature_6": {
      "repr": "20194",
      "value": 19.4,
      "spoken": "one nine point four"
    },
    "pressure_tendency": {
      "repr": "56011",
      "tendency": "Decreasing, then steady",
      "change": 1.1
    },
    "precip_36_hours": null,
    "precip_24_hours": null,
    "sunshine_minutes": null,
    "codes": [
      {
        "repr": "AO2",
        "value": "Automated with precipitation sensor"
      }
    ],
    "dewpoint_decimal": {
      "repr": "0044",
      "value": 4.4,
      "spoken": "four point four"
    },
    "maximum_temperature_24": null,
    "minimum_temperature_24": null,
    "precip_hourly": null,
    "sea_level_pressure": {
      "repr": "SLP121",
      "value": 1012.1,
      "spoken": "one zero one two point one"
    },
    "snow_depth": null,
    "temperature_decimal": {
      "repr": "0233",
      "value": 23.3,
      "spoken": "two three point three"
    }
  },
  "runway_visibility": [],
  "temperature": {
    "repr": "23",
    "value": 23,
    "spoken": "two three"
  },
  "wind_variable_direction": [],
  "density_altitude": 1257,
  "pressure_altitude": 220,
  "units": {
    "accumulation": "in",
    "altimeter": "inHg",
    "altitude": "ft",
    "temperature": "C",
    "visibility": "sm",
    "wind_speed": "kt"
  }
}
