{
  "altimeter": {
    "repr": "A2991",
    "spoken": "two nine point nine one",
    "value": 29.91
  },
  "clouds": [
    {
      "altitude": 55,
      "modifier": null,
      "repr": "OVC055",
      "type": "OVC"
    }
  ],
  "density_altitude": -1111,
  "dewpoint": {
    "repr": "M10",
    "spoken": "minus one zero",
    "value": -10
  },
  "flight_rules": "VFR",
  "meta": {
    "stations_updated": "2024-01-01",
    "timestamp": "2024-02-15T15:23:06.384743Z"
  },
  "other": [],
  "pressure_altitude": 180,
  "raw": "KBLI 151453Z 05014G25KT 10SM OVC055 04/M10 A2991 RMK AO2 PK WND 03026/1429 SLP137 T00391100 51019",
  "relative_humidity": 0.3551219275232764,
  "remarks": "RMK AO2 PK WND 03026/1429 SLP137 T00391100 51019",
  "remarks_info": {
    "codes": [
      {
        "repr": "AO2",
        "value": "Automated with precipitation sensor"
      }
    ],
    "dewpoint_decimal": {
      "repr": "1100",
      "spoken": "minus one zero point zero",
      "value": -10
    },
    "maximum_temperature_24": null,
    "maximum_temperature_6": null,
    "minimum_temperature_24": null,
    "minimum_temperature_6": null,
    "precip_24_hours": null,
    "precip_36_hours": null,
    "precip_hourly": null,
    "pressure_tendency": {
      "change": 1.9,
      "repr": "51019",
      "tendency": "Increasing, then steady"
    },
    "sea_level_pressure": {
      "repr": "SLP137",
      "spoken": "one zero one three point seven",
      "value": 1013.7
    },
    "snow_depth": null,
    "sunshine_minutes": null,
    "temperature_decimal": {
      "repr": "0039",
      "spoken": "three point nine",
      "value": 3.9
    }
  },
  "runway_visibility": [],
  "sanitized": "KBLI 151453Z 05014G25KT 10SM OVC055 04/M10 A2991 RMK AO2 PK WND 03026/1429 SLP137 T00391100 51019",
  "station": "KBLI",
  "temperature": {
    "repr": "04",
    "spoken": "four",
    "value": 4
  },
  "time": {
    "dt": "2024-02-15T14:53:00Z",
    "repr": "151453Z"
  },
  "units": {
    "accumulation": "in",
    "altimeter": "inHg",
    "altitude": "ft",
    "temperature": "C",
    "visibility": "sm",
    "wind_speed": "kt"
  },
  "visibility": {
    "repr": "10",
    "spoken": "one zero",
    "value": 10
  },
  "wind_direction": {
    "repr": "050",
    "spoken": "zero five zero",
    "value": 50
  },
  "wind_gust": {
    "repr": "25",
    "spoken": "two five",
    "value": 25
  },
  "wind_speed": {
    "repr": "14",
    "spoken": "one four",
    "value": 14
  },
  "wind_variable_direction": [],
  "wx_codes": []
}
