{
  "meta": {
    "timestamp": "2023-04-21T19:20:39.037329Z",
    "stations_updated": "2023-03-11",
    "cache-timestamp": "2023-04-21T19:20:04.466000Z"
  },
  "altimeter": {
    "repr": "A3038",
    "value": 30.38,
    "spoken": "three zero point three eight"
  },
  "clouds": [
    {
      "repr": "BKN025",
      "type": "BKN",
      "altitude": 25,
      "modifier": null
    },
    {
      "repr": "OVC047",
      "type": "OVC",
      "altitude": 47,
      "modifier": null
    }
  ],
  "flight_rules": "MVFR",
  "other": [],
  "visibility": {
    "repr": "10",
    "value": 10,
    "spoken": "one zero"
  },
  "wind_direction": {
    "repr": "210",
    "value": 210,
    "spoken": "two one zero"
  },
  "wind_gust": null,
  "wind_speed": {
    "repr": "08",
    "value": 8,
    "spoken": "eight"
  },
  "wx_codes": [],
  "raw": "KBLI 211853Z 21008KT 180V240 10SM BKN025 OVC047 11/06 A3038 RMK AO2 SLP295 T01060061",
  "sanitized": "KBLI 211853Z 21008KT 180V240 10SM BKN025 OVC047 11/06 A3038 RMK AO2 SLP295 T01060061",
  "station": "KBLI",
  "time": {
    "repr": "211853Z",
    "dt": "2023-04-21T18:53:00Z"
  },
  "remarks": "RMK AO2 SLP295 T01060061",
  "dewpoint": {
    "repr": "06",
    "value": 6,
    "spoken": "six"
  },
  "relative_humidity": 0.7369167861283278,
  "remarks_info": {
    "maximum_temperature_6": null,
    "minimum_temperature_6": null,
    "pressure_tendency": null,
    "precip_36_hours": null,
    "precip_24_hours": null,
    "sunshine_minutes": null,
    "codes": [
      {
        "repr": "AO2",
        "value": "Automated with precipitation sensor"
      }
    ],
    "dewpoint_decimal": {
      "repr": "0061",
      "value": 6.1,
      "spoken": "six point one"
    },
    "maximum_temperature_24": null,
    "minimum_temperature_24": null,
    "precip_hourly": null,
    "sea_level_pressure": {
      "repr": "SLP295",
      "value": 1029.5,
      "spoken": "one zero two nine point five"
    },
    "snow_depth": null,
    "temperature_decimal": {
      "repr": "0106",
      "value": 10.6,
      "spoken": "one zero point six"
    }
  },
  "runway_visibility": [],
  "temperature": {
    "repr": "11",
    "value": 11,
    "spoken": "one one"
  },
  "wind_variable_direction": [
    {
      "repr": "180",
      "value": 180,
      "spoken": "one eight zero"
    },
    {
      "repr": "240",
      "value": 240,
      "spoken": "two four zero"
    }
  ],
  "density_altitude": -777,
  "pressure_altitude": -290,
  "units": {
    "accumulation": "in",
    "altimeter": "inHg",
    "altitude": "ft",
    "temperature": "C",
    "visibility": "sm",
    "wind_speed": "kt"
  }
}
