{
  "altimeter": {
    "repr": "A2999",
    "spoken": "two nine point nine nine",
    "value": 29.99
  },
  "clouds": [
    {
      "altitude": 20,
      "modifier": null,
      "repr": "SCT020",
      "type": "SCT"
    },
    {
      "altitude": 40,
      "modifier": null,
      "repr": "OVC040",
      "type": "OVC"
    }
  ],
  "density_altitude": -387,
  "dewpoint": {
    "repr": "10",
    "spoken": "one zero",
    "value": 10
  },
  "flight_rules": "VFR",
  "meta": {
    "stations_updated": "2024-06-12",
    "timestamp": "2024-09-15T15:40:32.844926Z"
  },
  "other": [],
  "pressure_altitude": 100,
  "raw": "KBLI 151453Z 00000KT 10SM SCT020 OVC040 11/10 A2999 RMK AO2 SLP161 T01060100 53012",
  "relative_humidity": 0.9607146693216029,
  "remarks": "RMK AO2 SLP161 T01060100 53012",
  "remarks_info": {
    "codes": [
      {
        "repr": "AO2",
        "value": "Automated with precipitation sensor"
      }
    ],
    "dewpoint_decimal": {
      "repr": "0100",
      "spoken": "one zero point zero",
      "value": 10
    },
    "maximum_temperature_24": null,
    "maximum_temperature_6": null,
    "minimum_temperature_24": null,
    "minimum_temperature_6": null,
    "precip_24_hours": null,
    "precip_36_hours": null,
    "precip_hourly": null,
    "pressure_tendency": {
      "change": 1.2,
      "repr": "53012",
      "tendency": "Decreasing or steady, then increasing"
    },
    "sea_level_pressure": {
      "repr": "SLP161",
      "spoken": "one zero one six point one",
      "value": 1016.1
    },
    "snow_depth": null,
    "sunshine_minutes": null,
    "temperature_decimal": {
      "repr": "0106",
      "spoken": "one zero point six",
      "value": 10.6
    }
  },
  "runway_visibility": [],
  "sanitized": "KBLI 151453Z 00000KT 10SM SCT020 OVC040 11/10 A2999 RMK AO2 SLP161 T01060100 53012",
  "station": "KBLI",
  "temperature": {
    "repr": "11",
    "spoken": "one one",
    "value": 11
  },
  "time": {
    "dt": "2024-09-15T14:53:00Z",
    "repr": "151453Z"
  },
  "units": {
    "accumulation": "in",
    "altimeter": "inHg",
    "altitude": "ft",
    "temperature": "C",
    "visibility": "sm",
    "wind_speed": "kt"
  },
  "visibility": {
    "repr": "10",
    "spoken": "one zero",
    "value": 10
  },
  "wind_direction": {
    "repr": "000",
    "spoken": "zero zero zero",
    "value": 0
  },
  "wind_gust": null,
  "wind_speed": {
    "repr": "00",
    "spoken": "zero",
    "value": 0
  },
  "wind_variable_direction": [],
  "wx_codes": []
}
