{
  "altimeter": {
    "repr": "A3018",
    "spoken": "three zero point one eight",
    "value": 30.18
  },
  "clouds": [
    {
      "altitude": 65,
      "modifier": null,
      "repr": "FEW065",
      "type": "FEW"
    }
  ],
  "density_altitude": -781,
  "dewpoint": {
    "repr": "05",
    "spoken": "five",
    "value": 5
  },
  "flight_rules": "VFR",
  "meta": {
    "cache-timestamp": "2024-05-29T08:29:26.176000Z",
    "stations_updated": "2024-05-13",
    "timestamp": "2024-05-29T08:29:55.290388Z"
  },
  "other": [],
  "pressure_altitude": -90,
  "raw": "KBLI 290753Z AUTO 19003KT 10SM FEW065 09/05 A3018 RMK AO2 SLP228 T00890050 401330078",
  "relative_humidity": 0.7652617676246976,
  "remarks": "RMK AO2 SLP228 T00890050 401330078",
  "remarks_info": {
    "codes": [
      {
        "repr": "AO2",
        "value": "Automated with precipitation sensor"
      }
    ],
    "dewpoint_decimal": {
      "repr": "0050",
      "spoken": "five point zero",
      "value": 5
    },
    "maximum_temperature_24": {
      "repr": "0133",
      "spoken": "one three point three",
      "value": 13.3
    },
    "maximum_temperature_6": null,
    "minimum_temperature_24": {
      "repr": "0078",
      "spoken": "seven point eight",
      "value": 7.8
    },
    "minimum_temperature_6": null,
    "precip_24_hours": null,
    "precip_36_hours": null,
    "precip_hourly": null,
    "pressure_tendency": null,
    "sea_level_pressure": {
      "repr": "SLP228",
      "spoken": "one zero two two point eight",
      "value": 1022.8
    },
    "snow_depth": null,
    "sunshine_minutes": null,
    "temperature_decimal": {
      "repr": "0089",
      "spoken": "eight point nine",
      "value": 8.9
    }
  },
  "runway_visibility": [],
  "sanitized": "KBLI 290753Z 19003KT 10SM FEW065 09/05 A3018 RMK AO2 SLP228 T00890050 401330078",
  "station": "KBLI",
  "temperature": {
    "repr": "09",
    "spoken": "nine",
    "value": 9
  },
  "time": {
    "dt": "2024-05-29T07:53:00Z",
    "repr": "290753Z"
  },
  "units": {
    "accumulation": "in",
    "altimeter": "inHg",
    "altitude": "ft",
    "temperature": "C",
    "visibility": "sm",
    "wind_speed": "kt"
  },
  "visibility": {
    "repr": "10",
    "spoken": "one zero",
    "value": 10
  },
  "wind_direction": {
    "repr": "190",
    "spoken": "one nine zero",
    "value": 190
  },
  "wind_gust": null,
  "wind_speed": {
    "repr": "03",
    "spoken": "three",
    "value": 3
  },
  "wind_variable_direction": [],
  "wx_codes": []
}
