{
  "meta": {
    "timestamp": "2023-09-30T13:22:06.499424Z",
    "stations_updated": "2023-08-05",
    "cache-timestamp": "2023-09-30T13:22:04.056000Z"
  },
  "altimeter": {
    "repr": "A3001",
    "value": 30.01,
    "spoken": "three zero point zero one"
  },
  "clouds": [
    {
      "repr": "VV003",
      "type": "VV",
      "altitude": 3,
      "modifier": null
    }
  ],
  "flight_rules": "LIFR",
  "other": [],
  "visibility": {
    "repr": "1/2",
    "value": 0.5,
    "spoken": "one half",
    "numerator": 1,
    "denominator": 2,
    "normalized": "1/2"
  },
  "wind_direction": {
    "repr": "000",
    "value": 0,
    "spoken": "zero zero zero"
  },
  "wind_gust": null,
  "wind_speed": {
    "repr": "00",
    "value": 0,
    "spoken": "zero"
  },
  "wx_codes": [
    {
      "repr": "FG",
      "value": "Fog"
    }
  ],
  "raw": "KBLI 301311Z AUTO 00000KT 1/2SM R16/3000V5000FT FG VV003 03/03 A3001 RMK AO2 T00330033",
  "sanitized": "KBLI 301311Z 00000KT 1/2SM R16/3000V5000FT FG VV003 03/03 A3001 RMK AO2 T00330033",
  "station": "KBLI",
  "time": {
    "repr": "301311Z",
    "dt": "2023-09-30T13:11:00Z"
  },
  "remarks": "RMK AO2 T00330033",
  "dewpoint": {
    "repr": "03",
    "value": 3,
    "spoken": "three"
  },
  "relative_humidity": 1,
  "remarks_info": {
    "maximum_temperature_6": null,
    "minimum_temperature_6": null,
    "pressure_tendency": null,
    "precip_36_hours": null,
    "precip_24_hours": null,
    "sunshine_minutes": null,
    "codes": [
      {
        "repr": "AO2",
        "value": "Automated with precipitation sensor"
      }
    ],
    "dewpoint_decimal": {
      "repr": "0033",
      "value": 3.3,
      "spoken": "three point three"
    },
    "maximum_temperature_24": null,
    "minimum_temperature_24": null,
    "precip_hourly": null,
    "sea_level_pressure": null,
    "snow_depth": null,
    "temperature_decimal": {
      "repr": "0033",
      "value": 3.3,
      "spoken": "three point three"
    }
  },
  "runway_visibility": [
    {
      "repr": "R16/3000V5000FT",
      "runway": "16",
      "visibility": null,
      "variable_visibility": [
        {
          "repr": "3000",
          "value": 3000,
          "spoken": "three thousand"
        },
        {
          "repr": "5000",
          "value": 5000,
          "spoken": "five thousand"
        }
      ],
      "trend": null
    }
  ],
  "temperature": {
    "repr": "03",
    "value": 3,
    "spoken": "three"
  },
  "wind_variable_direction": [],
  "density_altitude": -1283,
  "pressure_altitude": 80,
  "units": {
    "accumulation": "in",
    "altimeter": "inHg",
    "altitude": "ft",
    "temperature": "C",
    "visibility": "sm",
    "wind_speed": "kt"
  }
}
