{
  "meta": {
    "timestamp": "2023-03-10T09:03:24.353237Z",
    "stations_updated": "2023-01-30"
  },
  "altimeter": {
    "repr": "A2939",
    "value": 29.39,
    "spoken": "two nine point three nine"
  },
  "clouds": [
    {
      "repr": "OVC090",
      "type": "OVC",
      "altitude": 90,
      "modifier": null
    }
  ],
  "flight_rules": "VFR",
  "other": [],
  "visibility": {
    "repr": "10",
    "value": 10,
    "spoken": "one zero"
  },
  "wind_direction": {
    "repr": "030",
    "value": 30,
    "spoken": "zero three zero"
  },
  "wind_gust": {
    "repr": "23",
    "value": 23,
    "spoken": "two three"
  },
  "wind_speed": {
    "repr": "14",
    "value": 14,
    "spoken": "one four"
  },
  "wx_codes": [],
  "raw": "KBLI 100853Z AUTO 03014G23KT 10SM OVC090 08/M03 A2939 RMK AO2 PK WND 03028/0813 SLP961 T00781033 56038",
  "sanitized": "KBLI 100853Z 03014G23KT 10SM OVC090 08/M03 A2939 RMK AO2 PK WND 03028/0813 SLP961 T00781033 56038",
  "station": "KBLI",
  "time": {
    "repr": "100853Z",
    "dt": "2023-03-10T08:53:00Z"
  },
  "remarks": "RMK AO2 PK WND 03028/0813 SLP961 T00781033 56038",
  "dewpoint": {
    "repr": "M03",
    "value": -3,
    "spoken": "minus three"
  },
  "relative_humidity": 0.45329495564150124,
  "remarks_info": {
    "maximum_temperature_6": null,
    "minimum_temperature_6": null,
    "pressure_tendency": {
      "repr": "56038",
      "tendency": "Decreasing, then steady",
      "change": 3.8
    },
    "precip_36_hours": null,
    "precip_24_hours": null,
    "sunshine_minutes": null,
    "codes": [
      {
        "repr": "AO2",
        "value": "Automated with precipitation sensor"
      }
    ],
    "dewpoint_decimal": {
      "repr": "1033",
      "value": -3.3,
      "spoken": "minus three point three"
    },
    "maximum_temperature_24": null,
    "minimum_temperature_24": null,
    "precip_hourly": null,
    "sea_level_pressure": {
      "repr": "SLP961",
      "value": 996.1,
      "spoken": "nine nine six point one"
    },
    "snow_depth": null,
    "temperature_decimal": {
      "repr": "0078",
      "value": 7.8,
      "spoken": "seven point eight"
    }
  },
  "runway_visibility": [],
  "temperature": {
    "repr": "08",
    "value": 8,
    "spoken": "eight"
  },
  "wind_variable_direction": [],
  "density_altitude": -123,
  "pressure_altitude": 700,
  "units": {
    "accumulation": "in",
    "altimeter": "inHg",
    "altitude": "ft",
    "temperature": "C",
    "visibility": "sm",
    "wind_speed": "kt"
  }
}
