{
  "meta": {
    "timestamp": "2023-02-19T07:01:26.625215Z",
    "stations_updated": "2023-01-30"
  },
  "altimeter": {
    "repr": "A3021",
    "value": 30.21,
    "spoken": "three zero point two one"
  },
  "clouds": [
    {
      "repr": "OVC032",
      "type": "OVC",
      "altitude": 32,
      "modifier": null
    }
  ],
  "flight_rules": "VFR",
  "other": [],
  "visibility": {
    "repr": "10",
    "value": 10,
    "spoken": "one zero"
  },
  "wind_direction": {
    "repr": "170",
    "value": 170,
    "spoken": "one seven zero"
  },
  "wind_gust": null,
  "wind_speed": {
    "repr": "04",
    "value": 4,
    "spoken": "four"
  },
  "wx_codes": [],
  "raw": "KBLI 190653Z AUTO 17004KT 10SM OVC032 05/04 A3021 RMK AO2 SLP237 T00500044",
  "sanitized": "KBLI 190653Z 17004KT 10SM OVC032 05/04 A3021 RMK AO2 SLP237 T00500044",
  "station": "KBLI",
  "time": {
    "repr": "190653Z",
    "dt": "2023-02-19T06:53:00Z"
  },
  "remarks": "RMK AO2 SLP237 T00500044",
  "dewpoint": {
    "repr": "04",
    "value": 4,
    "spoken": "four"
  },
  "relative_humidity": 0.958959211899474,
  "remarks_info": {
    "maximum_temperature_6": null,
    "minimum_temperature_6": null,
    "pressure_tendency": null,
    "precip_36_hours": null,
    "precip_24_hours": null,
    "sunshine_minutes": null,
    "codes": [
      {
        "repr": "AO2",
        "value": "Automated with precipitation sensor"
      }
    ],
    "dewpoint_decimal": {
      "repr": "0044",
      "value": 4.4,
      "spoken": "four point four"
    },
    "maximum_temperature_24": null,
    "minimum_temperature_24": null,
    "precip_hourly": null,
    "sea_level_pressure": {
      "repr": "SLP237",
      "value": 1023.7,
      "spoken": "one zero two three point seven"
    },
    "snow_depth": null,
    "temperature_decimal": {
      "repr": "0050",
      "value": 5,
      "spoken": "five point zero"
    }
  },
  "runway_visibility": [],
  "temperature": {
    "repr": "05",
    "value": 5,
    "spoken": "five"
  },
  "wind_variable_direction": [],
  "density_altitude": -1279,
  "pressure_altitude": -120,
  "units": {
    "accumulation": "in",
    "altimeter": "inHg",
    "altitude": "ft",
    "temperature": "C",
    "visibility": "sm",
    "wind_speed": "kt"
  }
}
