{
  "meta": {
    "timestamp": "2022-12-03T15:26:20.946496Z",
    "stations_updated": "2022-09-05"
  },
  "altimeter": {
    "repr": "A3012",
    "value": 30.12,
    "spoken": "three zero point one two"
  },
  "clouds": [
    {
      "repr": "BKN050",
      "type": "BKN",
      "altitude": 50,
      "modifier": null
    },
    {
      "repr": "OVC055",
      "type": "OVC",
      "altitude": 55,
      "modifier": null
    }
  ],
  "flight_rules": "VFR",
  "other": [],
  "visibility": {
    "repr": "10",
    "value": 10,
    "spoken": "one zero"
  },
  "wind_direction": {
    "repr": "030",
    "value": 30,
    "spoken": "zero three zero"
  },
  "wind_gust": null,
  "wind_speed": {
    "repr": "10",
    "value": 10,
    "spoken": "one zero"
  },
  "wx_codes": [],
  "raw": "KBLI 031453Z 03010KT 10SM BKN050 OVC055 M01/M08 A3012 RMK AO2 SLP209 T10061078 53011 $",
  "sanitized": "KBLI 031453Z 03010KT 10SM BKN050 OVC055 M01/M08 A3012 RMK AO2 SLP209 T10061078 53011 $",
  "station": "KBLI",
  "time": {
    "repr": "031453Z",
    "dt": "2022-12-03T14:53:00Z"
  },
  "remarks": "RMK AO2 SLP209 T10061078 53011 $",
  "dewpoint": {
    "repr": "M08",
    "value": -8,
    "spoken": "minus eight"
  },
  "relative_humidity": 0.5821051301667359,
  "remarks_info": {
    "maximum_temperature_6": null,
    "minimum_temperature_6": null,
    "pressure_tendency": {
      "repr": "53011",
      "tendency": "Decreasing or steady, then increasing",
      "change": 1.1
    },
    "precip_36_hours": null,
    "precip_24_hours": null,
    "sunshine_minutes": null,
    "codes": [
      {
        "repr": "$",
        "value": "ASOS requires maintenance"
      },
      {
        "repr": "AO2",
        "value": "Automated with precipitation sensor"
      }
    ],
    "dewpoint_decimal": {
      "repr": "1078",
      "value": -7.8,
      "spoken": "minus seven point eight"
    },
    "maximum_temperature_24": null,
    "minimum_temperature_24": null,
    "precip_hourly": null,
    "sea_level_pressure": {
      "repr": "SLP209",
      "value": 1020.9,
      "spoken": "one zero two zero point nine"
    },
    "snow_depth": null,
    "temperature_decimal": {
      "repr": "1006",
      "value": -0.6,
      "spoken": "minus zero point six"
    }
  },
  "runway_visibility": [],
  "temperature": {
    "repr": "M01",
    "value": -1,
    "spoken": "minus one"
  },
  "wind_variable_direction": [],
  "density_altitude": -1861,
  "pressure_altitude": -30,
  "units": {
    "accumulation": "in",
    "altimeter": "inHg",
    "altitude": "ft",
    "temperature": "C",
    "visibility": "sm",
    "wind_speed": "kt"
  }
}
