{
  "altimeter": {
    "repr": "A2976",
    "spoken": "two nine point seven six",
    "value": 29.76
  },
  "clouds": [
    {
      "altitude": 31,
      "modifier": null,
      "repr": "FEW031",
      "type": "FEW"
    },
    {
      "altitude": 40,
      "modifier": null,
      "repr": "SCT040",
      "type": "SCT"
    },
    {
      "altitude": 70,
      "modifier": null,
      "repr": "OVC070",
      "type": "OVC"
    }
  ],
  "density_altitude": -565,
  "dewpoint": {
    "repr": "03",
    "spoken": "three",
    "value": 3
  },
  "flight_rules": "VFR",
  "meta": {
    "stations_updated": "2024-12-02",
    "timestamp": "2024-12-25T20:27:53.999212Z"
  },
  "other": [],
  "pressure_altitude": 330,
  "raw": "KBLI 251953Z 16019G31KT 10SM FEW031 SCT040 OVC070 07/03 A2976 RMK AO2 PK WND 15037/1919 RAB31E42 SLP085 P0000 T00720033",
  "relative_humidity": 0.7624587758529988,
  "remarks": "RMK AO2 PK WND 15037/1919 RAB31E42 SLP085 P0000 T00720033",
  "remarks_info": {
    "codes": [
      {
        "repr": "AO2",
        "value": "Automated with precipitation sensor"
      },
      {
        "repr": "P0000",
        "value": "Trace amount of rain in the last hour"
      }
    ],
    "dewpoint_decimal": {
      "repr": "0033",
      "spoken": "three point three",
      "value": 3.3
    },
    "maximum_temperature_24": null,
    "maximum_temperature_6": null,
    "minimum_temperature_24": null,
    "minimum_temperature_6": null,
    "precip_24_hours": null,
    "precip_36_hours": null,
    "precip_hourly": null,
    "pressure_tendency": null,
    "sea_level_pressure": {
      "repr": "SLP085",
      "spoken": "one zero zero eight point five",
      "value": 1008.5
    },
    "snow_depth": null,
    "sunshine_minutes": null,
    "temperature_decimal": {
      "repr": "0072",
      "spoken": "seven point two",
      "value": 7.2
    }
  },
  "runway_visibility": [],
  "sanitized": "KBLI 251953Z 16019G31KT 10SM FEW031 SCT040 OVC070 07/03 A2976 RMK AO2 PK WND 15037/1919 RAB31E42 SLP085 P0000 T00720033",
  "station": "KBLI",
  "temperature": {
    "repr": "07",
    "spoken": "seven",
    "value": 7
  },
  "time": {
    "dt": "2024-12-25T19:53:00Z",
    "repr": "251953Z"
  },
  "units": {
    "accumulation": "in",
    "altimeter": "inHg",
    "altitude": "ft",
    "temperature": "C",
    "visibility": "sm",
    "wind_speed": "kt"
  },
  "visibility": {
    "repr": "10",
    "spoken": "one zero",
    "value": 10
  },
  "wind_direction": {
    "repr": "160",
    "spoken": "one six zero",
    "value": 160
  },
  "wind_gust": {
    "repr": "31",
    "spoken": "three one",
    "value": 31
  },
  "wind_speed": {
    "repr": "19",
    "spoken": "one nine",
    "value": 19
  },
  "wind_variable_direction": [],
  "wx_codes": []
}
