{
  "altimeter": {
    "repr": "A3031",
    "spoken": "three zero point three one",
    "value": 30.31
  },
  "clouds": [],
  "density_altitude": -179,
  "dewpoint": {
    "repr": "07",
    "spoken": "seven",
    "value": 7
  },
  "flight_rules": "VFR",
  "meta": {
    "stations_updated": "2024-06-12",
    "timestamp": "2024-10-02T23:40:38.907890Z"
  },
  "other": [],
  "pressure_altitude": -220,
  "raw": "KBLI 022253Z 18006KT 10SM CLR 15/07 A3031 RMK AO2 SLP271 T01500067",
  "relative_humidity": 0.575704348876107,
  "remarks": "RMK AO2 SLP271 T01500067",
  "remarks_info": {
    "codes": [
      {
        "repr": "AO2",
        "value": "Automated with precipitation sensor"
      }
    ],
    "dewpoint_decimal": {
      "repr": "0067",
      "spoken": "six point seven",
      "value": 6.7
    },
    "maximum_temperature_24": null,
    "maximum_temperature_6": null,
    "minimum_temperature_24": null,
    "minimum_temperature_6": null,
    "precip_24_hours": null,
    "precip_36_hours": null,
    "precip_hourly": null,
    "pressure_tendency": null,
    "sea_level_pressure": {
      "repr": "SLP271",
      "spoken": "one zero two seven point one",
      "value": 1027.1
    },
    "snow_depth": null,
    "sunshine_minutes": null,
    "temperature_decimal": {
      "repr": "0150",
      "spoken": "one five point zero",
      "value": 15
    }
  },
  "runway_visibility": [],
  "sanitized": "KBLI 022253Z 18006KT 10SM 15/07 A3031 RMK AO2 SLP271 T01500067",
  "station": "KBLI",
  "temperature": {
    "repr": "15",
    "spoken": "one five",
    "value": 15
  },
  "time": {
    "dt": "2024-10-02T22:53:00Z",
    "repr": "022253Z"
  },
  "units": {
    "accumulation": "in",
    "altimeter": "inHg",
    "altitude": "ft",
    "temperature": "C",
    "visibility": "sm",
    "wind_speed": "kt"
  },
  "visibility": {
    "repr": "10",
    "spoken": "one zero",
    "value": 10
  },
  "wind_direction": {
    "repr": "180",
    "spoken": "one eight zero",
    "value": 180
  },
  "wind_gust": null,
  "wind_speed": {
    "repr": "06",
    "spoken": "six",
    "value": 6
  },
  "wind_variable_direction": [],
  "wx_codes": []
}
