{
  "altimeter": {
    "repr": "A2999",
    "spoken": "two nine point nine nine",
    "value": 29.99
  },
  "clouds": [],
  "density_altitude": 669,
  "dewpoint": {
    "repr": "18",
    "spoken": "one eight",
    "value": 18
  },
  "flight_rules": "VFR",
  "meta": {
    "stations_updated": "2024-06-12",
    "timestamp": "2024-08-02T04:08:08.558260Z"
  },
  "other": [],
  "pressure_altitude": 100,
  "raw": "KBLI 020353Z 00000KT 10SM CLR 19/18 A2999 RMK AO2 SLP161 T01940178",
  "relative_humidity": 0.9046444079273394,
  "remarks": "RMK AO2 SLP161 T01940178",
  "remarks_info": {
    "codes": [
      {
        "repr": "AO2",
        "value": "Automated with precipitation sensor"
      }
    ],
    "dewpoint_decimal": {
      "repr": "0178",
      "spoken": "one seven point eight",
      "value": 17.8
    },
    "maximum_temperature_24": null,
    "maximum_temperature_6": null,
    "minimum_temperature_24": null,
    "minimum_temperature_6": null,
    "precip_24_hours": null,
    "precip_36_hours": null,
    "precip_hourly": null,
    "pressure_tendency": null,
    "sea_level_pressure": {
      "repr": "SLP161",
      "spoken": "one zero one six point one",
      "value": 1016.1
    },
    "snow_depth": null,
    "sunshine_minutes": null,
    "temperature_decimal": {
      "repr": "0194",
      "spoken": "one nine point four",
      "value": 19.4
    }
  },
  "runway_visibility": [],
  "sanitized": "KBLI 020353Z 00000KT 10SM 19/18 A2999 RMK AO2 SLP161 T01940178",
  "station": "KBLI",
  "temperature": {
    "repr": "19",
    "spoken": "one nine",
    "value": 19
  },
  "time": {
    "dt": "2024-08-02T03:53:00Z",
    "repr": "020353Z"
  },
  "units": {
    "accumulation": "in",
    "altimeter": "inHg",
    "altitude": "ft",
    "temperature": "C",
    "visibility": "sm",
    "wind_speed": "kt"
  },
  "visibility": {
    "repr": "10",
    "spoken": "one zero",
    "value": 10
  },
  "wind_direction": {
    "repr": "000",
    "spoken": "zero zero zero",
    "value": 0
  },
  "wind_gust": null,
  "wind_speed": {
    "repr": "00",
    "spoken": "zero",
    "value": 0
  },
  "wind_variable_direction": [],
  "wx_codes": []
}
