{
  "altimeter": {
    "repr": "A3032",
    "spoken": "three zero point three two",
    "value": 30.32
  },
  "clouds": [],
  "density_altitude": -3657,
  "dewpoint": {
    "repr": "M27",
    "spoken": "minus two seven",
    "value": -27
  },
  "flight_rules": "VFR",
  "meta": {
    "cache-timestamp": "2024-01-12T19:20:05.296000Z",
    "stations_updated": "2023-10-28",
    "timestamp": "2024-01-12T19:20:37.188870Z"
  },
  "other": [],
  "pressure_altitude": -230,
  "raw": "KBLI 121853Z 04026G41KT 10SM CLR M14/M27 A3032 RMK AO2 PK WND 06047/1833 SLP281 T11391272",
  "relative_humidity": 0.3159150489521481,
  "remarks": "RMK AO2 PK WND 06047/1833 SLP281 T11391272",
  "remarks_info": {
    "codes": [
      {
        "repr": "AO2",
        "value": "Automated with precipitation sensor"
      }
    ],
    "dewpoint_decimal": {
      "repr": "1272",
      "spoken": "minus two seven point two",
      "value": -27.2
    },
    "maximum_temperature_24": null,
    "maximum_temperature_6": null,
    "minimum_temperature_24": null,
    "minimum_temperature_6": null,
    "precip_24_hours": null,
    "precip_36_hours": null,
    "precip_hourly": null,
    "pressure_tendency": null,
    "sea_level_pressure": {
      "repr": "SLP281",
      "spoken": "one zero two eight point one",
      "value": 1028.1
    },
    "snow_depth": null,
    "sunshine_minutes": null,
    "temperature_decimal": {
      "repr": "1139",
      "spoken": "minus one three point nine",
      "value": -13.9
    }
  },
  "runway_visibility": [],
  "sanitized": "KBLI 121853Z 04026G41KT 10SM M14/M27 A3032 RMK AO2 PK WND 06047/1833 SLP281 T11391272",
  "station": "KBLI",
  "temperature": {
    "repr": "M14",
    "spoken": "minus one four",
    "value": -14
  },
  "time": {
    "dt": "2024-01-12T18:53:00Z",
    "repr": "121853Z"
  },
  "units": {
    "accumulation": "in",
    "altimeter": "inHg",
    "altitude": "ft",
    "temperature": "C",
    "visibility": "sm",
    "wind_speed": "kt"
  },
  "visibility": {
    "repr": "10",
    "spoken": "one zero",
    "value": 10
  },
  "wind_direction": {
    "repr": "040",
    "spoken": "zero four zero",
    "value": 40
  },
  "wind_gust": {
    "repr": "41",
    "spoken": "four one",
    "value": 41
  },
  "wind_speed": {
    "repr": "26",
    "spoken": "two six",
    "value": 26
  },
  "wind_variable_direction": [],
  "wx_codes": []
}
