{
  "altimeter": {
    "repr": "A2976",
    "spoken": "two nine point seven six",
    "value": 29.76
  },
  "clouds": [],
  "density_altitude": 1643,
  "dewpoint": {
    "repr": "17",
    "spoken": "one seven",
    "value": 17
  },
  "flight_rules": "VFR",
  "meta": {
    "stations_updated": "2024-06-12",
    "timestamp": "2024-08-17T23:23:36.750631Z"
  },
  "other": [],
  "pressure_altitude": 330,
  "raw": "KBLI 172253Z 30009KT 10SM CLR 26/17 A2976 RMK AO2 SLP083 T02560167",
  "relative_humidity": 0.5787436017397019,
  "remarks": "RMK AO2 SLP083 T02560167",
  "remarks_info": {
    "codes": [
      {
        "repr": "AO2",
        "value": "Automated with precipitation sensor"
      }
    ],
    "dewpoint_decimal": {
      "repr": "0167",
      "spoken": "one six point seven",
      "value": 16.7
    },
    "maximum_temperature_24": null,
    "maximum_temperature_6": null,
    "minimum_temperature_24": null,
    "minimum_temperature_6": null,
    "precip_24_hours": null,
    "precip_36_hours": null,
    "precip_hourly": null,
    "pressure_tendency": null,
    "sea_level_pressure": {
      "repr": "SLP083",
      "spoken": "one zero zero eight point three",
      "value": 1008.3
    },
    "snow_depth": null,
    "sunshine_minutes": null,
    "temperature_decimal": {
      "repr": "0256",
      "spoken": "two five point six",
      "value": 25.6
    }
  },
  "runway_visibility": [],
  "sanitized": "KBLI 172253Z 30009KT 10SM 26/17 A2976 RMK AO2 SLP083 T02560167",
  "station": "KBLI",
  "temperature": {
    "repr": "26",
    "spoken": "two six",
    "value": 26
  },
  "time": {
    "dt": "2024-08-17T22:53:00Z",
    "repr": "172253Z"
  },
  "units": {
    "accumulation": "in",
    "altimeter": "inHg",
    "altitude": "ft",
    "temperature": "C",
    "visibility": "sm",
    "wind_speed": "kt"
  },
  "visibility": {
    "repr": "10",
    "spoken": "one zero",
    "value": 10
  },
  "wind_direction": {
    "repr": "300",
    "spoken": "three zero zero",
    "value": 300
  },
  "wind_gust": null,
  "wind_speed": {
    "repr": "09",
    "spoken": "nine",
    "value": 9
  },
  "wind_variable_direction": [],
  "wx_codes": []
}
