{
  "meta": {
    "timestamp": "2023-07-03T07:02:25.866593Z",
    "stations_updated": "2023-06-06",
    "cache-timestamp": "2023-07-03T07:02:17.239000Z"
  },
  "altimeter": {
    "repr": "A3004",
    "value": 30.04,
    "spoken": "three zero point zero four"
  },
  "clouds": [],
  "flight_rules": "VFR",
  "other": [],
  "visibility": {
    "repr": "10",
    "value": 10,
    "spoken": "one zero"
  },
  "wind_direction": {
    "repr": "000",
    "value": 0,
    "spoken": "zero zero zero"
  },
  "wind_gust": null,
  "wind_speed": {
    "repr": "00",
    "value": 0,
    "spoken": "zero"
  },
  "wx_codes": [],
  "raw": "KBLI 030553Z AUTO 00000KT 10SM CLR 13/12 A3004 RMK AO2 SLP179 T01330117 10239 20133 58001",
  "sanitized": "KBLI 030553Z 00000KT 10SM 13/12 A3004 RMK AO2 SLP179 T01330117 10239 20133 58001",
  "station": "KBLI",
  "time": {
    "repr": "030553Z",
    "dt": "2023-07-03T05:53:00Z"
  },
  "remarks": "RMK AO2 SLP179 T01330117 10239 20133 58001",
  "dewpoint": {
    "repr": "12",
    "value": 12,
    "spoken": "one two"
  },
  "relative_humidity": 0.9002830457837466,
  "remarks_info": {
    "maximum_temperature_6": {
      "repr": "10239",
      "value": 23.9,
      "spoken": "two three point nine"
    },
    "minimum_temperature_6": {
      "repr": "20133",
      "value": 13.3,
      "spoken": "one three point three"
    },
    "pressure_tendency": {
      "repr": "58001",
      "tendency": "Steady or increasing, then decreasing",
      "change": 0.1
    },
    "precip_36_hours": null,
    "precip_24_hours": null,
    "sunshine_minutes": null,
    "codes": [
      {
        "repr": "AO2",
        "value": "Automated with precipitation sensor"
      }
    ],
    "dewpoint_decimal": {
      "repr": "0117",
      "value": 11.7,
      "spoken": "one one point seven"
    },
    "maximum_temperature_24": null,
    "minimum_temperature_24": null,
    "precip_hourly": null,
    "sea_level_pressure": {
      "repr": "SLP179",
      "value": 1017.9,
      "spoken": "one zero one seven point nine"
    },
    "snow_depth": null,
    "temperature_decimal": {
      "repr": "0133",
      "value": 13.3,
      "spoken": "one three point three"
    }
  },
  "runway_visibility": [],
  "temperature": {
    "repr": "13",
    "value": 13,
    "spoken": "one three"
  },
  "wind_variable_direction": [],
  "density_altitude": -113,
  "pressure_altitude": 50,
  "units": {
    "accumulation": "in",
    "altimeter": "inHg",
    "altitude": "ft",
    "temperature": "C",
    "visibility": "sm",
    "wind_speed": "kt"
  }
}
