{
  "altimeter": {
    "repr": "A3002",
    "spoken": "three zero point zero two",
    "value": 30.02
  },
  "clouds": [],
  "density_altitude": 1515,
  "dewpoint": {
    "repr": "17",
    "spoken": "one seven",
    "value": 17
  },
  "flight_rules": "VFR",
  "meta": {
    "cache-timestamp": "2024-09-06T20:26:41.306000Z",
    "stations_updated": "2024-06-12",
    "timestamp": "2024-09-06T20:27:16.164699Z"
  },
  "other": [],
  "pressure_altitude": 70,
  "raw": "KBLI 061953Z 00000KT 10SM CLR 27/17 A3002 RMK AO2 SLP172 T02670172",
  "relative_humidity": 0.5597452501502059,
  "remarks": "RMK AO2 SLP172 T02670172",
  "remarks_info": {
    "codes": [
      {
        "repr": "AO2",
        "value": "Automated with precipitation sensor"
      }
    ],
    "dewpoint_decimal": {
      "repr": "0172",
      "spoken": "one seven point two",
      "value": 17.2
    },
    "maximum_temperature_24": null,
    "maximum_temperature_6": null,
    "minimum_temperature_24": null,
    "minimum_temperature_6": null,
    "precip_24_hours": null,
    "precip_36_hours": null,
    "precip_hourly": null,
    "pressure_tendency": null,
    "sea_level_pressure": {
      "repr": "SLP172",
      "spoken": "one zero one seven point two",
      "value": 1017.2
    },
    "snow_depth": null,
    "sunshine_minutes": null,
    "temperature_decimal": {
      "repr": "0267",
      "spoken": "two six point seven",
      "value": 26.7
    }
  },
  "runway_visibility": [],
  "sanitized": "KBLI 061953Z 00000KT 10SM 27/17 A3002 RMK AO2 SLP172 T02670172",
  "station": "KBLI",
  "temperature": {
    "repr": "27",
    "spoken": "two seven",
    "value": 27
  },
  "time": {
    "dt": "2024-09-06T19:53:00Z",
    "repr": "061953Z"
  },
  "units": {
    "accumulation": "in",
    "altimeter": "inHg",
    "altitude": "ft",
    "temperature": "C",
    "visibility": "sm",
    "wind_speed": "kt"
  },
  "visibility": {
    "repr": "10",
    "spoken": "one zero",
    "value": 10
  },
  "wind_direction": {
    "repr": "000",
    "spoken": "zero zero zero",
    "value": 0
  },
  "wind_gust": null,
  "wind_speed": {
    "repr": "00",
    "spoken": "zero",
    "value": 0
  },
  "wind_variable_direction": [],
  "wx_codes": []
}
