{
  "meta": {
    "timestamp": "2022-07-30T23:02:07.774310Z",
    "stations_updated": "2022-07-17"
  },
  "altimeter": {
    "repr": "A2989",
    "value": 29.89,
    "spoken": "two nine point eight nine"
  },
  "clouds": [],
  "flight_rules": "VFR",
  "other": [],
  "visibility": {
    "repr": "10",
    "value": 10,
    "spoken": "one zero"
  },
  "wind_direction": {
    "repr": "VRB",
    "value": null,
    "spoken": "variable"
  },
  "wind_gust": null,
  "wind_speed": {
    "repr": "04",
    "value": 4,
    "spoken": "four"
  },
  "wx_codes": [],
  "raw": "KBLI 302253Z VRB04KT 10SM CLR 29/20 A2989 RMK AO2 SLP126 T02940200",
  "sanitized": "KBLI 302253Z VRB04KT 10SM 29/20 A2989 RMK AO2 SLP126 T02940200",
  "station": "KBLI",
  "time": {
    "repr": "302253Z",
    "dt": "2022-07-30T22:53:00Z"
  },
  "remarks": "RMK AO2 SLP126 T02940200",
  "dewpoint": {
    "repr": "20",
    "value": 20,
    "spoken": "two zero"
  },
  "relative_humidity": 0.5698147886348309,
  "remarks_info": {
    "maximum_temperature_6": null,
    "minimum_temperature_6": null,
    "pressure_tendency": null,
    "precip_36_hours": null,
    "precip_24_hours": null,
    "sunshine_minutes": null,
    "codes": [
      {
        "repr": "AO2",
        "value": "Automated with precipitation sensor"
      }
    ],
    "dewpoint_decimal": {
      "repr": "0200",
      "value": 20,
      "spoken": "two zero point zero"
    },
    "maximum_temperature_24": null,
    "minimum_temperature_24": null,
    "precip_hourly": null,
    "sea_level_pressure": {
      "repr": "SLP126",
      "value": 1012.6,
      "spoken": "one zero one two point six"
    },
    "snow_depth": null,
    "temperature_decimal": {
      "repr": "0294",
      "value": 29.4,
      "spoken": "two nine point four"
    }
  },
  "runway_visibility": [],
  "temperature": {
    "repr": "29",
    "value": 29,
    "spoken": "two nine"
  },
  "wind_variable_direction": [],
  "density_altitude": 1969,
  "pressure_altitude": 200,
  "units": {
    "accumulation": "in",
    "altimeter": "inHg",
    "altitude": "ft",
    "temperature": "C",
    "visibility": "sm",
    "wind_speed": "kt"
  }
}
