{
  "meta": {
    "timestamp": "2023-10-10T21:01:29.409478Z",
    "stations_updated": "2023-10-01"
  },
  "altimeter": {
    "repr": "A2943",
    "value": 29.43,
    "spoken": "two nine point four three"
  },
  "clouds": [
    {
      "repr": "OVC036",
      "type": "OVC",
      "altitude": 36,
      "modifier": null
    }
  ],
  "flight_rules": "VFR",
  "other": [],
  "visibility": {
    "repr": "10",
    "value": 10,
    "spoken": "one zero"
  },
  "wind_direction": {
    "repr": "VRB",
    "value": null,
    "spoken": "variable"
  },
  "wind_gust": null,
  "wind_speed": {
    "repr": "04",
    "value": 4,
    "spoken": "four"
  },
  "wx_codes": [],
  "raw": "KBLI 102053Z VRB04KT 10SM OVC036 14/09 A2943 RMK AO2 SLP971 60001 T01390094 56014",
  "sanitized": "KBLI 102053Z VRB04KT 10SM OVC036 14/09 A2943 RMK AO2 SLP971 60001 T01390094 56014",
  "station": "KBLI",
  "time": {
    "repr": "102053Z",
    "dt": "2023-10-10T20:53:00Z"
  },
  "remarks": "RMK AO2 SLP971 60001 T01390094 56014",
  "dewpoint": {
    "repr": "09",
    "value": 9,
    "spoken": "nine"
  },
  "relative_humidity": 0.7427215782230824,
  "remarks_info": {
    "maximum_temperature_6": null,
    "minimum_temperature_6": null,
    "pressure_tendency": {
      "repr": "56014",
      "tendency": "Decreasing, then steady",
      "change": 1.4
    },
    "precip_36_hours": {
      "repr": "60001",
      "value": 0.01,
      "spoken": "zero point zero one"
    },
    "precip_24_hours": null,
    "sunshine_minutes": null,
    "codes": [
      {
        "repr": "AO2",
        "value": "Automated with precipitation sensor"
      }
    ],
    "dewpoint_decimal": {
      "repr": "0094",
      "value": 9.4,
      "spoken": "nine point four"
    },
    "maximum_temperature_24": null,
    "minimum_temperature_24": null,
    "precip_hourly": null,
    "sea_level_pressure": {
      "repr": "SLP971",
      "value": 997.1,
      "spoken": "nine nine seven point one"
    },
    "snow_depth": null,
    "temperature_decimal": {
      "repr": "0139",
      "value": 13.9,
      "spoken": "one three point nine"
    }
  },
  "runway_visibility": [],
  "temperature": {
    "repr": "14",
    "value": 14,
    "spoken": "one four"
  },
  "wind_variable_direction": [],
  "density_altitude": 569,
  "pressure_altitude": 660,
  "units": {
    "accumulation": "in",
    "altimeter": "inHg",
    "altitude": "ft",
    "temperature": "C",
    "visibility": "sm",
    "wind_speed": "kt"
  }
}
