{
  "meta": {
    "timestamp": "2022-08-13T14:41:58.114617Z",
    "stations_updated": "2022-07-17"
  },
  "altimeter": {
    "repr": "A3013",
    "value": 30.13,
    "spoken": "three zero point one three"
  },
  "clouds": [],
  "flight_rules": "VFR",
  "other": [],
  "visibility": {
    "repr": "10",
    "value": 10,
    "spoken": "one zero"
  },
  "wind_direction": {
    "repr": "170",
    "value": 170,
    "spoken": "one seven zero"
  },
  "wind_gust": {
    "repr": "18",
    "value": 18,
    "spoken": "one eight"
  },
  "wind_speed": {
    "repr": "11",
    "value": 11,
    "spoken": "one one"
  },
  "wx_codes": [],
  "raw": "KBLI 131353Z 17011G18KT 10SM CLR 17/13 A3013 RMK AO2 SLP207 T01720128",
  "sanitized": "KBLI 131353Z 17011G18KT 10SM 17/13 A3013 RMK AO2 SLP207 T01720128",
  "station": "KBLI",
  "time": {
    "repr": "131353Z",
    "dt": "2022-08-13T13:53:00Z"
  },
  "remarks": "RMK AO2 SLP207 T01720128",
  "dewpoint": {
    "repr": "13",
    "value": 13,
    "spoken": "one three"
  },
  "relative_humidity": 0.7532682224235424,
  "remarks_info": {
    "maximum_temperature_6": null,
    "minimum_temperature_6": null,
    "pressure_tendency": null,
    "precip_36_hours": null,
    "precip_24_hours": null,
    "sunshine_minutes": null,
    "codes": [
      {
        "repr": "AO2",
        "value": "Automated with precipitation sensor"
      }
    ],
    "dewpoint_decimal": {
      "repr": "0128",
      "value": 12.8,
      "spoken": "one two point eight"
    },
    "maximum_temperature_24": null,
    "minimum_temperature_24": null,
    "precip_hourly": null,
    "sea_level_pressure": {
      "repr": "SLP207",
      "value": 1020.7,
      "spoken": "one zero two zero point seven"
    },
    "snow_depth": null,
    "temperature_decimal": {
      "repr": "0172",
      "value": 17.2,
      "spoken": "one seven point two"
    }
  },
  "runway_visibility": [],
  "temperature": {
    "repr": "17",
    "value": 17,
    "spoken": "one seven"
  },
  "wind_variable_direction": [],
  "density_altitude": 265,
  "pressure_altitude": -40,
  "units": {
    "accumulation": "in",
    "altimeter": "inHg",
    "altitude": "ft",
    "temperature": "C",
    "visibility": "sm",
    "wind_speed": "kt"
  }
}
