{
  "meta": {
    "timestamp": "2023-02-18T18:41:54.422641Z",
    "stations_updated": "2023-01-30"
  },
  "altimeter": {
    "repr": "A3009",
    "value": 30.09,
    "spoken": "three zero point zero nine"
  },
  "clouds": [
    {
      "repr": "BKN008",
      "type": "BKN",
      "altitude": 8,
      "modifier": null
    },
    {
      "repr": "BKN011",
      "type": "BKN",
      "altitude": 11,
      "modifier": null
    },
    {
      "repr": "OVC019",
      "type": "OVC",
      "altitude": 19,
      "modifier": null
    }
  ],
  "flight_rules": "IFR",
  "other": [],
  "visibility": {
    "repr": "5",
    "value": 5,
    "spoken": "five"
  },
  "wind_direction": {
    "repr": "170",
    "value": 170,
    "spoken": "one seven zero"
  },
  "wind_gust": null,
  "wind_speed": {
    "repr": "06",
    "value": 6,
    "spoken": "six"
  },
  "wx_codes": [
    {
      "repr": "BR",
      "value": "Mist"
    }
  ],
  "raw": "KBLI 181837Z 17006KT 5SM BR BKN008 BKN011 OVC019 07/07 A3009 RMK AO2 RAE31 P0000 T00670067",
  "sanitized": "KBLI 181837Z 17006KT 5SM BR BKN008 BKN011 OVC019 07/07 A3009 RMK AO2 RAE31 P0000 T00670067",
  "station": "KBLI",
  "time": {
    "repr": "181837Z",
    "dt": "2023-02-18T18:37:00Z"
  },
  "remarks": "RMK AO2 RAE31 P0000 T00670067",
  "dewpoint": {
    "repr": "07",
    "value": 7,
    "spoken": "seven"
  },
  "relative_humidity": 1,
  "remarks_info": {
    "maximum_temperature_6": null,
    "minimum_temperature_6": null,
    "pressure_tendency": null,
    "precip_36_hours": null,
    "precip_24_hours": null,
    "sunshine_minutes": null,
    "codes": [
      {
        "repr": "AO2",
        "value": "Automated with precipitation sensor"
      },
      {
        "repr": "P0000",
        "value": "Trace amount of rain in the last hour"
      },
      {
        "repr": "RAE31",
        "value": "Rain ended at :31"
      }
    ],
    "dewpoint_decimal": {
      "repr": "0067",
      "value": 6.7,
      "spoken": "six point seven"
    },
    "maximum_temperature_24": null,
    "minimum_temperature_24": null,
    "precip_hourly": null,
    "sea_level_pressure": null,
    "snow_depth": null,
    "temperature_decimal": {
      "repr": "0067",
      "value": 6.7,
      "spoken": "six point seven"
    }
  },
  "runway_visibility": [],
  "temperature": {
    "repr": "07",
    "value": 7,
    "spoken": "seven"
  },
  "wind_variable_direction": [],
  "density_altitude": -955,
  "pressure_altitude": 0,
  "units": {
    "accumulation": "in",
    "altimeter": "inHg",
    "altitude": "ft",
    "temperature": "C",
    "visibility": "sm",
    "wind_speed": "kt"
  }
}
