{
  "altimeter": {
    "repr": "A3052",
    "spoken": "three zero point five two",
    "value": 30.52
  },
  "clouds": [
    {
      "altitude": 10,
      "modifier": null,
      "repr": "SCT010",
      "type": "SCT"
    },
    {
      "altitude": 49,
      "modifier": null,
      "repr": "BKN049",
      "type": "BKN"
    }
  ],
  "density_altitude": -1325,
  "dewpoint": {
    "repr": "06",
    "spoken": "six",
    "value": 6
  },
  "flight_rules": "VFR",
  "meta": {
    "stations_updated": "2024-12-02",
    "timestamp": "2024-12-09T21:42:04.489367Z"
  },
  "other": [],
  "pressure_altitude": -430,
  "raw": "KBLI 092053Z 34003KT 10SM SCT010 BKN049 07/06 A3052 RMK AO2 SLP342 T00720056 53002 $",
  "relative_humidity": 0.8956218363001711,
  "remarks": "RMK AO2 SLP342 T00720056 53002 $",
  "remarks_info": {
    "codes": [
      {
        "repr": "$",
        "value": "ASOS requires maintenance"
      },
      {
        "repr": "AO2",
        "value": "Automated with precipitation sensor"
      }
    ],
    "dewpoint_decimal": {
      "repr": "0056",
      "spoken": "five point six",
      "value": 5.6
    },
    "maximum_temperature_24": null,
    "maximum_temperature_6": null,
    "minimum_temperature_24": null,
    "minimum_temperature_6": null,
    "precip_24_hours": null,
    "precip_36_hours": null,
    "precip_hourly": null,
    "pressure_tendency": {
      "change": 0.2,
      "repr": "53002",
      "tendency": "Decreasing or steady, then increasing"
    },
    "sea_level_pressure": {
      "repr": "SLP342",
      "spoken": "one zero three four point two",
      "value": 1034.2
    },
    "snow_depth": null,
    "sunshine_minutes": null,
    "temperature_decimal": {
      "repr": "0072",
      "spoken": "seven point two",
      "value": 7.2
    }
  },
  "runway_visibility": [],
  "sanitized": "KBLI 092053Z 34003KT 10SM SCT010 BKN049 07/06 A3052 RMK AO2 SLP342 T00720056 53002 $",
  "station": "KBLI",
  "temperature": {
    "repr": "07",
    "spoken": "seven",
    "value": 7
  },
  "time": {
    "dt": "2024-12-09T20:53:00Z",
    "repr": "092053Z"
  },
  "units": {
    "accumulation": "in",
    "altimeter": "inHg",
    "altitude": "ft",
    "temperature": "C",
    "visibility": "sm",
    "wind_speed": "kt"
  },
  "visibility": {
    "repr": "10",
    "spoken": "one zero",
    "value": 10
  },
  "wind_direction": {
    "repr": "340",
    "spoken": "three four zero",
    "value": 340
  },
  "wind_gust": null,
  "wind_speed": {
    "repr": "03",
    "spoken": "three",
    "value": 3
  },
  "wind_variable_direction": [],
  "wx_codes": []
}
