{
  "meta": {
    "timestamp": "2022-07-29T00:32:17.622511Z",
    "stations_updated": "2022-07-17",
    "cache-timestamp": "2022-07-29T00:31:28.336000Z"
  },
  "altimeter": {
    "repr": "A2991",
    "value": 29.91,
    "spoken": "two nine point nine one"
  },
  "clouds": [],
  "flight_rules": "VFR",
  "other": [],
  "visibility": {
    "repr": "10",
    "value": 10,
    "spoken": "one zero"
  },
  "wind_direction": {
    "repr": "250",
    "value": 250,
    "spoken": "two five zero"
  },
  "wind_gust": null,
  "wind_speed": {
    "repr": "03",
    "value": 3,
    "spoken": "three"
  },
  "wx_codes": [],
  "raw": "KBLI 282353Z 25003KT 10SM CLR 29/21 A2991 RMK AO2 SLP133 T02940206 10300 20217 58014",
  "sanitized": "KBLI 282353Z 25003KT 10SM 29/21 A2991 RMK AO2 SLP133 T02940206 10300 20217 58014",
  "station": "KBLI",
  "time": {
    "repr": "282353Z",
    "dt": "2022-07-28T23:53:00Z"
  },
  "remarks": "RMK AO2 SLP133 T02940206 10300 20217 58014",
  "dewpoint": {
    "repr": "21",
    "value": 21,
    "spoken": "two one"
  },
  "relative_humidity": 0.5913501347194161,
  "remarks_info": {
    "maximum_temperature_6": {
      "repr": "10300",
      "value": 30,
      "spoken": "three zero point zero"
    },
    "minimum_temperature_6": {
      "repr": "20217",
      "value": 21.7,
      "spoken": "two one point seven"
    },
    "pressure_tendency": {
      "repr": "58014",
      "tendency": "Steady or increasing, then decreasing",
      "change": 1.4
    },
    "precip_36_hours": null,
    "precip_24_hours": null,
    "sunshine_minutes": null,
    "codes": [
      {
        "repr": "AO2",
        "value": "Automated with precipitation sensor"
      }
    ],
    "dewpoint_decimal": {
      "repr": "0206",
      "value": 20.6,
      "spoken": "two zero point six"
    },
    "maximum_temperature_24": null,
    "minimum_temperature_24": null,
    "precip_hourly": null,
    "sea_level_pressure": {
      "repr": "SLP133",
      "value": 1013.3,
      "spoken": "one zero one three point three"
    },
    "snow_depth": null,
    "temperature_decimal": {
      "repr": "0294",
      "value": 29.4,
      "spoken": "two nine point four"
    }
  },
  "runway_visibility": [],
  "temperature": {
    "repr": "29",
    "value": 29,
    "spoken": "two nine"
  },
  "wind_variable_direction": [],
  "density_altitude": 1949,
  "pressure_altitude": 180,
  "units": {
    "accumulation": "in",
    "altimeter": "inHg",
    "altitude": "ft",
    "temperature": "C",
    "visibility": "sm",
    "wind_speed": "kt"
  }
}
