{
  "meta": {
    "timestamp": "2023-07-26T06:06:38.096450Z",
    "stations_updated": "2023-06-06",
    "cache-timestamp": "2023-07-26T06:06:03.320000Z"
  },
  "altimeter": {
    "repr": "A3017",
    "value": 30.17,
    "spoken": "three zero point one seven"
  },
  "clouds": [],
  "flight_rules": "VFR",
  "other": [],
  "visibility": {
    "repr": "10",
    "value": 10,
    "spoken": "one zero"
  },
  "wind_direction": {
    "repr": "200",
    "value": 200,
    "spoken": "two zero zero"
  },
  "wind_gust": null,
  "wind_speed": {
    "repr": "05",
    "value": 5,
    "spoken": "five"
  },
  "wx_codes": [],
  "raw": "KBLI 260553Z AUTO 20005KT 10SM CLR 16/13 A3017 RMK AO2 SLP223 6//// T01560133 10189 20150 58001 PNO $",
  "sanitized": "KBLI 260553Z 20005KT 10SM 16/13 A3017 RMK AO2 SLP223 6//// T01560133 10189 20150 58001 PNO $",
  "station": "KBLI",
  "time": {
    "repr": "260553Z",
    "dt": "2023-07-26T05:53:00Z"
  },
  "remarks": "RMK AO2 SLP223 6//// T01560133 10189 20150 58001 PNO $",
  "dewpoint": {
    "repr": "13",
    "value": 13,
    "spoken": "one three"
  },
  "relative_humidity": 0.8618010791257771,
  "remarks_info": {
    "maximum_temperature_6": {
      "repr": "10189",
      "value": 18.9,
      "spoken": "one eight point nine"
    },
    "minimum_temperature_6": {
      "repr": "20150",
      "value": 15,
      "spoken": "one five point zero"
    },
    "pressure_tendency": {
      "repr": "58001",
      "tendency": "Steady or increasing, then decreasing",
      "change": 0.1
    },
    "precip_36_hours": null,
    "precip_24_hours": null,
    "sunshine_minutes": null,
    "codes": [
      {
        "repr": "$",
        "value": "ASOS requires maintenance"
      },
      {
        "repr": "AO2",
        "value": "Automated with precipitation sensor"
      },
      {
        "repr": "PNO",
        "value": "Precipitation amount not available"
      }
    ],
    "dewpoint_decimal": {
      "repr": "0133",
      "value": 13.3,
      "spoken": "one three point three"
    },
    "maximum_temperature_24": null,
    "minimum_temperature_24": null,
    "precip_hourly": null,
    "sea_level_pressure": {
      "repr": "SLP223",
      "value": 1022.3,
      "spoken": "one zero two two point three"
    },
    "snow_depth": null,
    "temperature_decimal": {
      "repr": "0156",
      "value": 15.6,
      "spoken": "one five point six"
    }
  },
  "runway_visibility": [],
  "temperature": {
    "repr": "16",
    "value": 16,
    "spoken": "one six"
  },
  "wind_variable_direction": [],
  "density_altitude": 33,
  "pressure_altitude": -80,
  "units": {
    "accumulation": "in",
    "altimeter": "inHg",
    "altitude": "ft",
    "temperature": "C",
    "visibility": "sm",
    "wind_speed": "kt"
  }
}
