{
  "altimeter": {
    "repr": "A3040",
    "spoken": "three zero point four zero",
    "value": 30.4
  },
  "clouds": [
    {
      "altitude": 110,
      "modifier": null,
      "repr": "SCT110",
      "type": "SCT"
    }
  ],
  "density_altitude": -1601,
  "dewpoint": {
    "repr": "04",
    "spoken": "four",
    "value": 4
  },
  "flight_rules": "VFR",
  "meta": {
    "stations_updated": "2024-10-29",
    "timestamp": "2024-11-06T05:30:29.090016Z"
  },
  "other": [],
  "pressure_altitude": -310,
  "raw": "KBLI 060453Z 00000KT 10SM SCT110 04/04 A3040 RMK AO2 SLP303 T00390039",
  "relative_humidity": 1,
  "remarks": "RMK AO2 SLP303 T00390039",
  "remarks_info": {
    "codes": [
      {
        "repr": "AO2",
        "value": "Automated with precipitation sensor"
      }
    ],
    "dewpoint_decimal": {
      "repr": "0039",
      "spoken": "three point nine",
      "value": 3.9
    },
    "maximum_temperature_24": null,
    "maximum_temperature_6": null,
    "minimum_temperature_24": null,
    "minimum_temperature_6": null,
    "precip_24_hours": null,
    "precip_36_hours": null,
    "precip_hourly": null,
    "pressure_tendency": null,
    "sea_level_pressure": {
      "repr": "SLP303",
      "spoken": "one zero three zero point three",
      "value": 1030.3
    },
    "snow_depth": null,
    "sunshine_minutes": null,
    "temperature_decimal": {
      "repr": "0039",
      "spoken": "three point nine",
      "value": 3.9
    }
  },
  "runway_visibility": [],
  "sanitized": "KBLI 060453Z 00000KT 10SM SCT110 04/04 A3040 RMK AO2 SLP303 T00390039",
  "station": "KBLI",
  "temperature": {
    "repr": "04",
    "spoken": "four",
    "value": 4
  },
  "time": {
    "dt": "2024-11-06T04:53:00Z",
    "repr": "060453Z"
  },
  "units": {
    "accumulation": "in",
    "altimeter": "inHg",
    "altitude": "ft",
    "temperature": "C",
    "visibility": "sm",
    "wind_speed": "kt"
  },
  "visibility": {
    "repr": "10",
    "spoken": "one zero",
    "value": 10
  },
  "wind_direction": {
    "repr": "000",
    "spoken": "zero zero zero",
    "value": 0
  },
  "wind_gust": null,
  "wind_speed": {
    "repr": "00",
    "spoken": "zero",
    "value": 0
  },
  "wind_variable_direction": [],
  "wx_codes": []
}
