{
  "meta": {
    "timestamp": "2023-04-13T02:24:45.442547Z",
    "stations_updated": "2023-03-11",
    "cache-timestamp": "2023-04-13T02:24:05.161000Z"
  },
  "altimeter": {
    "repr": "A3003",
    "value": 30.03,
    "spoken": "three zero point zero three"
  },
  "clouds": [
    {
      "repr": "FEW060",
      "type": "FEW",
      "altitude": 60,
      "modifier": null
    }
  ],
  "flight_rules": "VFR",
  "other": [],
  "visibility": {
    "repr": "10",
    "value": 10,
    "spoken": "one zero"
  },
  "wind_direction": {
    "repr": "VRB",
    "value": null,
    "spoken": "variable"
  },
  "wind_gust": null,
  "wind_speed": {
    "repr": "03",
    "value": 3,
    "spoken": "three"
  },
  "wx_codes": [],
  "raw": "KBLI 130153Z VRB03KT 10SM FEW060 11/01 A3003 RMK AO2 SLP178 T01060006",
  "sanitized": "KBLI 130153Z VRB03KT 10SM FEW060 11/01 A3003 RMK AO2 SLP178 T01060006",
  "station": "KBLI",
  "time": {
    "repr": "130153Z",
    "dt": "2023-04-13T01:53:00Z"
  },
  "remarks": "RMK AO2 SLP178 T01060006",
  "dewpoint": {
    "repr": "01",
    "value": 1,
    "spoken": "one"
  },
  "relative_humidity": 0.49973055034040226,
  "remarks_info": {
    "maximum_temperature_6": null,
    "minimum_temperature_6": null,
    "pressure_tendency": null,
    "precip_36_hours": null,
    "precip_24_hours": null,
    "sunshine_minutes": null,
    "codes": [
      {
        "repr": "AO2",
        "value": "Automated with precipitation sensor"
      }
    ],
    "dewpoint_decimal": {
      "repr": "0006",
      "value": 0.6,
      "spoken": "zero point six"
    },
    "maximum_temperature_24": null,
    "minimum_temperature_24": null,
    "precip_hourly": null,
    "sea_level_pressure": {
      "repr": "SLP178",
      "value": 1017.8,
      "spoken": "one zero one seven point eight"
    },
    "snow_depth": null,
    "temperature_decimal": {
      "repr": "0106",
      "value": 10.6,
      "spoken": "one zero point six"
    }
  },
  "runway_visibility": [],
  "temperature": {
    "repr": "11",
    "value": 11,
    "spoken": "one one"
  },
  "wind_variable_direction": [],
  "density_altitude": -427,
  "pressure_altitude": 60,
  "units": {
    "accumulation": "in",
    "altimeter": "inHg",
    "altitude": "ft",
    "temperature": "C",
    "visibility": "sm",
    "wind_speed": "kt"
  }
}
