{
  "meta": {
    "timestamp": "2022-12-24T21:40:34.510107Z",
    "stations_updated": "2022-09-05"
  },
  "altimeter": {
    "repr": "A2989",
    "value": 29.89,
    "spoken": "two nine point eight nine"
  },
  "clouds": [
    {
      "repr": "OVC060",
      "type": "OVC",
      "altitude": 60,
      "modifier": null
    }
  ],
  "flight_rules": "VFR",
  "other": [],
  "visibility": {
    "repr": "8",
    "value": 8,
    "spoken": "eight"
  },
  "wind_direction": {
    "repr": "180",
    "value": 180,
    "spoken": "one eight zero"
  },
  "wind_gust": {
    "repr": "32",
    "value": 32,
    "spoken": "three two"
  },
  "wind_speed": {
    "repr": "15",
    "value": 15,
    "spoken": "one five"
  },
  "wx_codes": [
    {
      "repr": "-RA",
      "value": "Light Rain"
    }
  ],
  "raw": "KBLI 242053Z 18015G32KT 8SM -RA OVC060 11/09 A2989 RMK AO2 PK WND 17034/2018 RAB06 SLP129 P0000 60006 T01060089 53002 $",
  "sanitized": "KBLI 242053Z 18015G32KT 8SM -RA OVC060 11/09 A2989 RMK AO2 PK WND 17034/2018 RAB06 SLP129 P0000 60006 T01060089 53002 $",
  "station": "KBLI",
  "time": {
    "repr": "242053Z",
    "dt": "2022-12-24T20:53:00Z"
  },
  "remarks": "RMK AO2 PK WND 17034/2018 RAB06 SLP129 P0000 60006 T01060089 53002 $",
  "dewpoint": {
    "repr": "09",
    "value": 9,
    "spoken": "nine"
  },
  "relative_humidity": 0.8922144848734106,
  "remarks_info": {
    "maximum_temperature_6": null,
    "minimum_temperature_6": null,
    "pressure_tendency": {
      "repr": "53002",
      "tendency": "Decreasing or steady, then increasing",
      "change": 0.2
    },
    "precip_36_hours": {
      "repr": "60006",
      "value": 0.06,
      "spoken": "zero point zero six"
    },
    "precip_24_hours": null,
    "sunshine_minutes": null,
    "codes": [
      {
        "repr": "$",
        "value": "ASOS requires maintenance"
      },
      {
        "repr": "AO2",
        "value": "Automated with precipitation sensor"
      },
      {
        "repr": "P0000",
        "value": "Trace amount of rain in the last hour"
      },
      {
        "repr": "RAB06",
        "value": "Rain began at :06"
      }
    ],
    "dewpoint_decimal": {
      "repr": "0089",
      "value": 8.9,
      "spoken": "eight point nine"
    },
    "maximum_temperature_24": null,
    "minimum_temperature_24": null,
    "precip_hourly": null,
    "sea_level_pressure": {
      "repr": "SLP129",
      "value": 1012.9,
      "spoken": "one zero one two point nine"
    },
    "snow_depth": null,
    "temperature_decimal": {
      "repr": "0106",
      "value": 10.6,
      "spoken": "one zero point six"
    }
  },
  "runway_visibility": [],
  "temperature": {
    "repr": "11",
    "value": 11,
    "spoken": "one one"
  },
  "wind_variable_direction": [],
  "density_altitude": -287,
  "pressure_altitude": 200,
  "units": {
    "accumulation": "in",
    "altimeter": "inHg",
    "altitude": "ft",
    "temperature": "C",
    "visibility": "sm",
    "wind_speed": "kt"
  }
}
