{
  "meta": {
    "timestamp": "2022-11-08T05:36:57.944294Z",
    "stations_updated": "2022-09-05"
  },
  "altimeter": {
    "repr": "A2978",
    "value": 29.78,
    "spoken": "two nine point seven eight"
  },
  "clouds": [
    {
      "repr": "BKN038",
      "type": "BKN",
      "altitude": 38,
      "modifier": null
    },
    {
      "repr": "OVC047",
      "type": "OVC",
      "altitude": 47,
      "modifier": null
    }
  ],
  "flight_rules": "VFR",
  "other": [],
  "visibility": {
    "repr": "9",
    "value": 9,
    "spoken": "nine"
  },
  "wind_direction": {
    "repr": "040",
    "value": 40,
    "spoken": "zero four zero"
  },
  "wind_gust": {
    "repr": "35",
    "value": 35,
    "spoken": "three five"
  },
  "wind_speed": {
    "repr": "18",
    "value": 18,
    "spoken": "one eight"
  },
  "wx_codes": [
    {
      "repr": "-SN",
      "value": "Light Snow"
    }
  ],
  "raw": "KBLI 080453Z 04018G35KT 9SM -SN BKN038 OVC047 01/M11 A2978 RMK AO2 PK WND 05037/0435 SNB39 SLP095 P0000 T00061111 $",
  "sanitized": "KBLI 080453Z 04018G35KT 9SM -SN BKN038 OVC047 01/M11 A2978 RMK AO2 PK WND 05037/0435 SNB39 SLP095 P0000 T00061111 $",
  "station": "KBLI",
  "time": {
    "repr": "080453Z",
    "dt": "2022-11-08T04:53:00Z"
  },
  "remarks": "RMK AO2 PK WND 05037/0435 SNB39 SLP095 P0000 T00061111 $",
  "dewpoint": {
    "repr": "M11",
    "value": -11,
    "spoken": "minus one one"
  },
  "relative_humidity": 0.41172648803076345,
  "remarks_info": {
    "maximum_temperature_6": null,
    "minimum_temperature_6": null,
    "pressure_tendency": null,
    "precip_36_hours": null,
    "precip_24_hours": null,
    "sunshine_minutes": null,
    "codes": [
      {
        "repr": "$",
        "value": "ASOS requires maintenance"
      },
      {
        "repr": "AO2",
        "value": "Automated with precipitation sensor"
      },
      {
        "repr": "P0000",
        "value": "Trace amount of rain in the last hour"
      },
      {
        "repr": "SNB39",
        "value": "Snow began at :39"
      }
    ],
    "dewpoint_decimal": {
      "repr": "1111",
      "value": -11.1,
      "spoken": "minus one one point one"
    },
    "maximum_temperature_24": null,
    "minimum_temperature_24": null,
    "precip_hourly": null,
    "sea_level_pressure": {
      "repr": "SLP095",
      "value": 1009.5,
      "spoken": "one zero zero nine point five"
    },
    "snow_depth": null,
    "temperature_decimal": {
      "repr": "0006",
      "value": 0.6,
      "spoken": "zero point six"
    }
  },
  "runway_visibility": [],
  "temperature": {
    "repr": "01",
    "value": 1,
    "spoken": "one"
  },
  "wind_variable_direction": [],
  "density_altitude": -1377,
  "pressure_altitude": 310,
  "units": {
    "accumulation": "in",
    "altimeter": "inHg",
    "altitude": "ft",
    "temperature": "C",
    "visibility": "sm",
    "wind_speed": "kt"
  }
}
