{
  "meta": {
    "timestamp": "2023-10-19T11:01:30.396362Z",
    "stations_updated": "2023-10-01"
  },
  "altimeter": {
    "repr": "A2998",
    "value": 29.98,
    "spoken": "two nine point nine eight"
  },
  "clouds": [
    {
      "repr": "SCT001",
      "type": "SCT",
      "altitude": 1,
      "modifier": null
    }
  ],
  "flight_rules": "VFR",
  "other": [],
  "visibility": {
    "repr": "10",
    "value": 10,
    "spoken": "one zero"
  },
  "wind_direction": {
    "repr": "180",
    "value": 180,
    "spoken": "one eight zero"
  },
  "wind_gust": null,
  "wind_speed": {
    "repr": "07",
    "value": 7,
    "spoken": "seven"
  },
  "wx_codes": [],
  "raw": "KBLI 191053Z AUTO 18007KT 10SM SCT001 12/12 A2998 RMK AO2 SLP159 T01170117 KBLI 191047Z AUTO 17007KT 7SM SCT001 12/11 A2998 RMK AO2 KBLI 191044Z AUTO 16008KT 2 1/2SM BR BKN001 11/11 A2998 RMK AO2 T01110111 KBLI 191039Z AUTO 16005KT 3/4SM R16/3500VP6000FT BR VV001 10/10 A2999 RMK AO2 T01000100 KBLI 191029Z AUTO 09003KT 1/4SM R16/1800V3500FT FG VV001 09/09 A2999 RMK AO2 T00940094 KBLI 191008Z AUTO 00000KT 1/4SM R16/1400V1800FT FG VV001 11/11 A3000 RMK AO2 T01060106 KBLI 190953Z AUTO 00000KT 1/4SM R16/2200V3500FT FG OVC002 11/11 A3001 RMK AO2 SLP168 T01060106 KBLI 190949Z AUTO 00000KT 1/2SM R16/2200V3000FT FG OVC002 11/11 A3001 RMK AO2 KBLI 190944Z AUTO 00000KT 1 3/4SM R16/2200VP6000FT BR OVC002 11/11 A3001 RMK AO2 T01060106 KBLI 190926Z AUTO 00000KT 3SM BR BKN002 BKN049 11/11 A3001 RMK AO2 T01060106 KBLI 190916Z AUTO 00000KT 2 1/2SM BR SCT002 BKN050 11/11 A3000 RMK AO2 VIS 1 1/4V5 T01060106",
  "sanitized": "KBLI 191053Z 18007KT 10SM SCT001 12/12 A2998 RMK AO2 SLP159 T01170117 KBLI 191047Z AUTO 17007KT 7SM SCT001 12/11 A2998 RMK AO2 KBLI 191044Z AUTO 16008KT 2 1/2SM BR BKN001 11/11 A2998 RMK AO2 T01110111 KBLI 191039Z AUTO 16005KT 3/4SM R16/3500VP6000FT BR VV001 10/10 A2999 RMK AO2 T01000100 KBLI 191029Z AUTO 09003KT 1/4SM R16/1800V3500FT FG VV001 09/09 A2999 RMK AO2 T00940094 KBLI 191008Z AUTO 00000KT 1/4SM R16/1400V1800FT FG VV001 11/11 A3000 RMK AO2 T01060106 KBLI 190953Z AUTO 00000KT 1/4SM R16/2200V3500FT FG OVC002 11/11 A3001 RMK AO2 SLP168 T01060106 KBLI 190949Z AUTO 00000KT 1/2SM R16/2200V3000FT FG OVC002 11/11 A3001 RMK AO2 KBLI 190944Z AUTO 00000KT 1 3/4SM R16/2200VP6000FT BR OVC002 11/11 A3001 RMK AO2 T01060106 KBLI 190926Z AUTO 00000KT 3SM BR BKN002 BKN049 11/11 A3001 RMK AO2 T01060106 KBLI 190916Z AUTO 00000KT 2 1/2SM BR SCT002 BKN050 11/11 A3000 RMK AO2 VIS 1 1/4V5 T01060106",
  "station": "KBLI",
  "time": {
    "repr": "191053Z",
    "dt": "2023-10-19T10:53:00Z"
  },
  "remarks": "RMK AO2 SLP159 T01170117 KBLI 191047Z AUTO 17007KT 7SM SCT001 12/11 A2998 RMK AO2 KBLI 191044Z AUTO 16008KT 2 1/2SM BR BKN001 11/11 A2998 RMK AO2 T01110111 KBLI 191039Z AUTO 16005KT 3/4SM R16/3500VP6000FT BR VV001 10/10 A2999 RMK AO2 T01000100 KBLI 191029Z AUTO 09003KT 1/4SM R16/1800V3500FT FG VV001 09/09 A2999 RMK AO2 T00940094 KBLI 191008Z AUTO 00000KT 1/4SM R16/1400V1800FT FG VV001 11/11 A3000 RMK AO2 T01060106 KBLI 190953Z AUTO 00000KT 1/4SM R16/2200V3500FT FG OVC002 11/11 A3001 RMK AO2 SLP168 T01060106 KBLI 190949Z AUTO 00000KT 1/2SM R16/2200V3000FT FG OVC002 11/11 A3001 RMK AO2 KBLI 190944Z AUTO 00000KT 1 3/4SM R16/2200VP6000FT BR OVC002 11/11 A3001 RMK AO2 T01060106 KBLI 190926Z AUTO 00000KT 3SM BR BKN002 BKN049 11/11 A3001 RMK AO2 T01060106 KBLI 190916Z AUTO 00000KT 2 1/2SM BR SCT002 BKN050 11/11 A3000 RMK AO2 VIS 1 1/4V5 T01060106",
  "dewpoint": {
    "repr": "12",
    "value": 12,
    "spoken": "one two"
  },
  "relative_humidity": 1,
  "remarks_info": {
    "maximum_temperature_6": null,
    "minimum_temperature_6": null,
    "pressure_tendency": null,
    "precip_36_hours": null,
    "precip_24_hours": null,
    "sunshine_minutes": null,
    "codes": [
      {
        "repr": "AO2",
        "value": "Automated with precipitation sensor"
      },
      {
        "repr": "AO2",
        "value": "Automated with precipitation sensor"
      },
      {
        "repr": "AO2",
        "value": "Automated with precipitation sensor"
      },
      {
        "repr": "AO2",
        "value": "Automated with precipitation sensor"
      },
      {
        "repr": "AO2",
        "value": "Automated with precipitation sensor"
      },
      {
        "repr": "AO2",
        "value": "Automated with precipitation sensor"
      },
      {
        "repr": "AO2",
        "value": "Automated with precipitation sensor"
      },
      {
        "repr": "AO2",
        "value": "Automated with precipitation sensor"
      },
      {
        "repr": "AO2",
        "value": "Automated with precipitation sensor"
      },
      {
        "repr": "AO2",
        "value": "Automated with precipitation sensor"
      },
      {
        "repr": "AO2",
        "value": "Automated with precipitation sensor"
      }
    ],
    "dewpoint_decimal": {
      "repr": "0106",
      "value": 10.6,
      "spoken": "one zero point six"
    },
    "maximum_temperature_24": null,
    "minimum_temperature_24": null,
    "precip_hourly": null,
    "sea_level_pressure": {
      "repr": "SLP159",
      "value": 1015.9,
      "spoken": "one zero one five point nine"
    },
    "snow_depth": null,
    "temperature_decimal": {
      "repr": "0106",
      "value": 10.6,
      "spoken": "one zero point six"
    }
  },
  "runway_visibility": [],
  "temperature": {
    "repr": "12",
    "value": 12,
    "spoken": "one two"
  },
  "wind_variable_direction": [],
  "density_altitude": -377,
  "pressure_altitude": 110,
  "units": {
    "accumulation": "in",
    "altimeter": "inHg",
    "altitude": "ft",
    "temperature": "C",
    "visibility": "sm",
    "wind_speed": "kt"
  }
}
