{
  "meta": {
    "timestamp": "2022-12-26T15:26:11.533938Z",
    "stations_updated": "2022-09-05"
  },
  "altimeter": {
    "repr": "A2961",
    "value": 29.61,
    "spoken": "two nine point six one"
  },
  "clouds": [
    {
      "repr": "SCT018",
      "type": "SCT",
      "altitude": 18,
      "modifier": null
    },
    {
      "repr": "BKN036",
      "type": "BKN",
      "altitude": 36,
      "modifier": null
    },
    {
      "repr": "OVC095",
      "type": "OVC",
      "altitude": 95,
      "modifier": null
    }
  ],
  "flight_rules": "VFR",
  "other": [],
  "visibility": {
    "repr": "6",
    "value": 6,
    "spoken": "six"
  },
  "wind_direction": {
    "repr": "180",
    "value": 180,
    "spoken": "one eight zero"
  },
  "wind_gust": {
    "repr": "33",
    "value": 33,
    "spoken": "three three"
  },
  "wind_speed": {
    "repr": "18",
    "value": 18,
    "spoken": "one eight"
  },
  "wx_codes": [
    {
      "repr": "-RA",
      "value": "Light Rain"
    },
    {
      "repr": "BR",
      "value": "Mist"
    }
  ],
  "raw": "KBLI 261522Z 18018G33KT 6SM -RA BR SCT018 BKN036 OVC095 13/12 A2961 RMK AO2 PK WND 19035/1503 P0001 T01280117",
  "sanitized": "KBLI 261522Z 18018G33KT 6SM -RA BR SCT018 BKN036 OVC095 13/12 A2961 RMK AO2 PK WND 19035/1503 P0001 T01280117",
  "station": "KBLI",
  "time": {
    "repr": "261522Z",
    "dt": "2022-12-26T15:22:00Z"
  },
  "remarks": "RMK AO2 PK WND 19035/1503 P0001 T01280117",
  "dewpoint": {
    "repr": "12",
    "value": 12,
    "spoken": "one two"
  },
  "relative_humidity": 0.9301959082873248,
  "remarks_info": {
    "maximum_temperature_6": null,
    "minimum_temperature_6": null,
    "pressure_tendency": null,
    "precip_36_hours": null,
    "precip_24_hours": null,
    "sunshine_minutes": null,
    "codes": [
      {
        "repr": "AO2",
        "value": "Automated with precipitation sensor"
      }
    ],
    "dewpoint_decimal": {
      "repr": "0117",
      "value": 11.7,
      "spoken": "one one point seven"
    },
    "maximum_temperature_24": null,
    "minimum_temperature_24": null,
    "precip_hourly": {
      "repr": "P0001",
      "value": 0.01,
      "spoken": "zero point zero one"
    },
    "sea_level_pressure": null,
    "snow_depth": null,
    "temperature_decimal": {
      "repr": "0128",
      "value": 12.8,
      "spoken": "one two point eight"
    }
  },
  "runway_visibility": [],
  "temperature": {
    "repr": "13",
    "value": 13,
    "spoken": "one three"
  },
  "wind_variable_direction": [],
  "density_altitude": 257,
  "pressure_altitude": 480,
  "units": {
    "accumulation": "in",
    "altimeter": "inHg",
    "altitude": "ft",
    "temperature": "C",
    "visibility": "sm",
    "wind_speed": "kt"
  }
}
