{
  "meta": {
    "timestamp": "2023-02-23T02:05:59.526036Z",
    "stations_updated": "2023-01-30"
  },
  "altimeter": {
    "repr": "A2963",
    "value": 29.63,
    "spoken": "two nine point six three"
  },
  "clouds": [
    {
      "repr": "BKN050",
      "type": "BKN",
      "altitude": 50,
      "modifier": null
    },
    {
      "repr": "OVC060",
      "type": "OVC",
      "altitude": 60,
      "modifier": null
    }
  ],
  "flight_rules": "VFR",
  "other": [],
  "visibility": {
    "repr": "10",
    "value": 10,
    "spoken": "one zero"
  },
  "wind_direction": {
    "repr": "030",
    "value": 30,
    "spoken": "zero three zero"
  },
  "wind_gust": {
    "repr": "35",
    "value": 35,
    "spoken": "three five"
  },
  "wind_speed": {
    "repr": "19",
    "value": 19,
    "spoken": "one nine"
  },
  "wx_codes": [],
  "raw": "KBLI 230153Z 03019G35KT 10SM BKN050 OVC060 M02/M13 A2963 RMK AO2 PK WND 03036/0134 SLP044 T10221128",
  "sanitized": "KBLI 230153Z 03019G35KT 10SM BKN050 OVC060 M02/M13 A2963 RMK AO2 PK WND 03036/0134 SLP044 T10221128",
  "station": "KBLI",
  "time": {
    "repr": "230153Z",
    "dt": "2023-02-23T01:53:00Z"
  },
  "remarks": "RMK AO2 PK WND 03036/0134 SLP044 T10221128",
  "dewpoint": {
    "repr": "M13",
    "value": -13,
    "spoken": "minus one three"
  },
  "relative_humidity": 0.44074546156498107,
  "remarks_info": {
    "maximum_temperature_6": null,
    "minimum_temperature_6": null,
    "pressure_tendency": null,
    "precip_36_hours": null,
    "precip_24_hours": null,
    "sunshine_minutes": null,
    "codes": [
      {
        "repr": "AO2",
        "value": "Automated with precipitation sensor"
      }
    ],
    "dewpoint_decimal": {
      "repr": "1128",
      "value": -12.8,
      "spoken": "minus one two point eight"
    },
    "maximum_temperature_24": null,
    "minimum_temperature_24": null,
    "precip_hourly": null,
    "sea_level_pressure": {
      "repr": "SLP044",
      "value": 1004.4,
      "spoken": "one zero zero four point four"
    },
    "snow_depth": null,
    "temperature_decimal": {
      "repr": "1022",
      "value": -2.2,
      "spoken": "minus two point two"
    }
  },
  "runway_visibility": [],
  "temperature": {
    "repr": "M02",
    "value": -2,
    "spoken": "minus two"
  },
  "wind_variable_direction": [],
  "density_altitude": -1563,
  "pressure_altitude": 460,
  "units": {
    "accumulation": "in",
    "altimeter": "inHg",
    "altitude": "ft",
    "temperature": "C",
    "visibility": "sm",
    "wind_speed": "kt"
  }
}
