{
  "meta": {
    "timestamp": "2023-04-03T12:08:55.019027Z",
    "stations_updated": "2023-03-11",
    "cache-timestamp": "2023-04-03T12:08:48.897000Z"
  },
  "altimeter": {
    "repr": "A2998",
    "value": 29.98,
    "spoken": "two nine point nine eight"
  },
  "clouds": [
    {
      "repr": "SCT021",
      "type": "SCT",
      "altitude": 21,
      "modifier": null
    },
    {
      "repr": "BKN080",
      "type": "BKN",
      "altitude": 80,
      "modifier": null
    }
  ],
  "flight_rules": "VFR",
  "other": [],
  "visibility": {
    "repr": "7",
    "value": 7,
    "spoken": "seven"
  },
  "wind_direction": {
    "repr": "000",
    "value": 0,
    "spoken": "zero zero zero"
  },
  "wind_gust": null,
  "wind_speed": {
    "repr": "00",
    "value": 0,
    "spoken": "zero"
  },
  "wx_codes": [],
  "raw": "KBLI 031153Z AUTO 00000KT 7SM SCT021 BKN080 02/02 A2998 RMK AO2 SLP163 70005 T00170017 10028 20006 53006",
  "sanitized": "KBLI 031153Z 00000KT 7SM SCT021 BKN080 02/02 A2998 RMK AO2 SLP163 70005 T00170017 10028 20006 53006",
  "station": "KBLI",
  "time": {
    "repr": "031153Z",
    "dt": "2023-04-03T11:53:00Z"
  },
  "remarks": "RMK AO2 SLP163 70005 T00170017 10028 20006 53006",
  "dewpoint": {
    "repr": "02",
    "value": 2,
    "spoken": "two"
  },
  "relative_humidity": 1,
  "remarks_info": {
    "maximum_temperature_6": {
      "repr": "10028",
      "value": 2.8,
      "spoken": "two point eight"
    },
    "minimum_temperature_6": {
      "repr": "20006",
      "value": 0.6,
      "spoken": "zero point six"
    },
    "pressure_tendency": {
      "repr": "53006",
      "tendency": "Decreasing or steady, then increasing",
      "change": 0.6
    },
    "precip_36_hours": null,
    "precip_24_hours": {
      "repr": "70005",
      "value": 0.05,
      "spoken": "zero point zero five"
    },
    "sunshine_minutes": null,
    "codes": [
      {
        "repr": "AO2",
        "value": "Automated with precipitation sensor"
      }
    ],
    "dewpoint_decimal": {
      "repr": "0017",
      "value": 1.7,
      "spoken": "one point seven"
    },
    "maximum_temperature_24": null,
    "minimum_temperature_24": null,
    "precip_hourly": null,
    "sea_level_pressure": {
      "repr": "SLP163",
      "value": 1016.3,
      "spoken": "one zero one six point three"
    },
    "snow_depth": null,
    "temperature_decimal": {
      "repr": "0017",
      "value": 1.7,
      "spoken": "one point seven"
    }
  },
  "runway_visibility": [],
  "temperature": {
    "repr": "02",
    "value": 2,
    "spoken": "two"
  },
  "wind_variable_direction": [],
  "density_altitude": -1445,
  "pressure_altitude": 110,
  "units": {
    "accumulation": "in",
    "altimeter": "inHg",
    "altitude": "ft",
    "temperature": "C",
    "visibility": "sm",
    "wind_speed": "kt"
  }
}
