{
  "meta": {
    "timestamp": "2022-12-30T15:25:59.342341Z",
    "stations_updated": "2022-12-27"
  },
  "altimeter": {
    "repr": "A2941",
    "value": 29.41,
    "spoken": "two nine point four one"
  },
  "clouds": [],
  "flight_rules": "VFR",
  "other": [],
  "visibility": {
    "repr": "10",
    "value": 10,
    "spoken": "one zero"
  },
  "wind_direction": {
    "repr": "180",
    "value": 180,
    "spoken": "one eight zero"
  },
  "wind_gust": {
    "repr": "21",
    "value": 21,
    "spoken": "two one"
  },
  "wind_speed": {
    "repr": "13",
    "value": 13,
    "spoken": "one three"
  },
  "wx_codes": [],
  "raw": "KBLI 301453Z 18013G21KT 10SM CLR 09/08 A2941 RMK AO2 PK WND 17028/1426 SLP968 60007 T00890078 51017",
  "sanitized": "KBLI 301453Z 18013G21KT 10SM 09/08 A2941 RMK AO2 PK WND 17028/1426 SLP968 60007 T00890078 51017",
  "station": "KBLI",
  "time": {
    "repr": "301453Z",
    "dt": "2022-12-30T14:53:00Z"
  },
  "remarks": "RMK AO2 PK WND 17028/1426 SLP968 60007 T00890078 51017",
  "dewpoint": {
    "repr": "08",
    "value": 8,
    "spoken": "eight"
  },
  "relative_humidity": 0.9280975124584884,
  "remarks_info": {
    "maximum_temperature_6": null,
    "minimum_temperature_6": null,
    "pressure_tendency": {
      "repr": "51017",
      "tendency": "Increasing, then steady",
      "change": 1.7
    },
    "precip_36_hours": {
      "repr": "60007",
      "value": 0.07,
      "spoken": "zero point zero seven"
    },
    "precip_24_hours": null,
    "sunshine_minutes": null,
    "codes": [
      {
        "repr": "AO2",
        "value": "Automated with precipitation sensor"
      }
    ],
    "dewpoint_decimal": {
      "repr": "0078",
      "value": 7.8,
      "spoken": "seven point eight"
    },
    "maximum_temperature_24": null,
    "minimum_temperature_24": null,
    "precip_hourly": null,
    "sea_level_pressure": {
      "repr": "SLP968",
      "value": 996.8,
      "spoken": "nine nine six point eight"
    },
    "snow_depth": null,
    "temperature_decimal": {
      "repr": "0089",
      "value": 8.9,
      "spoken": "eight point nine"
    }
  },
  "runway_visibility": [],
  "temperature": {
    "repr": "09",
    "value": 9,
    "spoken": "nine"
  },
  "wind_variable_direction": [],
  "density_altitude": -11,
  "pressure_altitude": 680,
  "units": {
    "accumulation": "in",
    "altimeter": "inHg",
    "altitude": "ft",
    "temperature": "C",
    "visibility": "sm",
    "wind_speed": "kt"
  }
}
