{
  "meta": {
    "timestamp": "2023-10-21T13:40:41.972978Z",
    "stations_updated": "2023-10-01",
    "cache-timestamp": "2023-10-21T13:40:04.050000Z"
  },
  "altimeter": {
    "repr": "A2991",
    "value": 29.91,
    "spoken": "two nine point nine one"
  },
  "clouds": [
    {
      "repr": "VV002",
      "type": "VV",
      "altitude": 2,
      "modifier": null
    }
  ],
  "flight_rules": "LIFR",
  "other": [],
  "visibility": {
    "repr": "1/4",
    "value": 0.25,
    "spoken": "one quarter",
    "numerator": 1,
    "denominator": 4,
    "normalized": "1/4"
  },
  "wind_direction": {
    "repr": "000",
    "value": 0,
    "spoken": "zero zero zero"
  },
  "wind_gust": null,
  "wind_speed": {
    "repr": "00",
    "value": 0,
    "spoken": "zero"
  },
  "wx_codes": [
    {
      "repr": "FG",
      "value": "Fog"
    }
  ],
  "raw": "KBLI 211253Z AUTO 00000KT 1/4SM R16/1200V1400FT FG VV002 11/11 A2991 RMK AO2 SLP136 T01110111",
  "sanitized": "KBLI 211253Z 00000KT 1/4SM R16/1200V1400FT FG VV002 11/11 A2991 RMK AO2 SLP136 T01110111",
  "station": "KBLI",
  "time": {
    "repr": "211253Z",
    "dt": "2023-10-21T12:53:00Z"
  },
  "remarks": "RMK AO2 SLP136 T01110111",
  "dewpoint": {
    "repr": "11",
    "value": 11,
    "spoken": "one one"
  },
  "relative_humidity": 1,
  "remarks_info": {
    "maximum_temperature_6": null,
    "minimum_temperature_6": null,
    "pressure_tendency": null,
    "precip_36_hours": null,
    "precip_24_hours": null,
    "sunshine_minutes": null,
    "codes": [
      {
        "repr": "AO2",
        "value": "Automated with precipitation sensor"
      }
    ],
    "dewpoint_decimal": {
      "repr": "0111",
      "value": 11.1,
      "spoken": "one one point one"
    },
    "maximum_temperature_24": null,
    "minimum_temperature_24": null,
    "precip_hourly": null,
    "sea_level_pressure": {
      "repr": "SLP136",
      "value": 1013.6,
      "spoken": "one zero one three point six"
    },
    "snow_depth": null,
    "temperature_decimal": {
      "repr": "0111",
      "value": 11.1,
      "spoken": "one one point one"
    }
  },
  "runway_visibility": [
    {
      "repr": "R16/1200V1400FT",
      "runway": "16",
      "visibility": null,
      "variable_visibility": [
        {
          "repr": "1200",
          "value": 1200,
          "spoken": "one two hundred"
        },
        {
          "repr": "1400",
          "value": 1400,
          "spoken": "one four hundred"
        }
      ],
      "trend": null
    }
  ],
  "temperature": {
    "repr": "11",
    "value": 11,
    "spoken": "one one"
  },
  "wind_variable_direction": [],
  "density_altitude": -247,
  "pressure_altitude": 180,
  "units": {
    "accumulation": "in",
    "altimeter": "inHg",
    "altitude": "ft",
    "temperature": "C",
    "visibility": "sm",
    "wind_speed": "kt"
  }
}
