{
  "altimeter": {
    "repr": "A3022",
    "spoken": "three zero point two two",
    "value": 30.22
  },
  "clouds": [
    {
      "altitude": 26,
      "modifier": null,
      "repr": "FEW026",
      "type": "FEW"
    },
    {
      "altitude": 70,
      "modifier": null,
      "repr": "BKN070",
      "type": "BKN"
    }
  ],
  "density_altitude": -89,
  "dewpoint": {
    "repr": "12",
    "spoken": "one two",
    "value": 12
  },
  "flight_rules": "VFR",
  "meta": {
    "stations_updated": "2024-06-12",
    "timestamp": "2024-07-02T16:32:41.761593Z"
  },
  "other": [],
  "pressure_altitude": -130,
  "raw": "KBLI 021620Z 18012G20KT 10SM FEW026 BKN070 15/12 A3022 RMK AO2 T01500117",
  "relative_humidity": 0.8063537863323292,
  "remarks": "RMK AO2 T01500117",
  "remarks_info": {
    "codes": [
      {
        "repr": "AO2",
        "value": "Automated with precipitation sensor"
      }
    ],
    "dewpoint_decimal": {
      "repr": "0117",
      "spoken": "one one point seven",
      "value": 11.7
    },
    "maximum_temperature_24": null,
    "maximum_temperature_6": null,
    "minimum_temperature_24": null,
    "minimum_temperature_6": null,
    "precip_24_hours": null,
    "precip_36_hours": null,
    "precip_hourly": null,
    "pressure_tendency": null,
    "sea_level_pressure": null,
    "snow_depth": null,
    "sunshine_minutes": null,
    "temperature_decimal": {
      "repr": "0150",
      "spoken": "one five point zero",
      "value": 15
    }
  },
  "runway_visibility": [],
  "sanitized": "KBLI 021620Z 18012G20KT 10SM FEW026 BKN070 15/12 A3022 RMK AO2 T01500117",
  "station": "KBLI",
  "temperature": {
    "repr": "15",
    "spoken": "one five",
    "value": 15
  },
  "time": {
    "dt": "2024-07-02T16:20:00Z",
    "repr": "021620Z"
  },
  "units": {
    "accumulation": "in",
    "altimeter": "inHg",
    "altitude": "ft",
    "temperature": "C",
    "visibility": "sm",
    "wind_speed": "kt"
  },
  "visibility": {
    "repr": "10",
    "spoken": "one zero",
    "value": 10
  },
  "wind_direction": {
    "repr": "180",
    "spoken": "one eight zero",
    "value": 180
  },
  "wind_gust": {
    "repr": "20",
    "spoken": "two zero",
    "value": 20
  },
  "wind_speed": {
    "repr": "12",
    "spoken": "one two",
    "value": 12
  },
  "wind_variable_direction": [],
  "wx_codes": []
}
