{
  "meta": {
    "timestamp": "2023-03-31T15:02:08.049551Z",
    "stations_updated": "2023-03-11"
  },
  "altimeter": {
    "repr": "A2989",
    "value": 29.89,
    "spoken": "two nine point eight nine"
  },
  "clouds": [
    {
      "repr": "BKN020",
      "type": "BKN",
      "altitude": 20,
      "modifier": null
    },
    {
      "repr": "OVC027",
      "type": "OVC",
      "altitude": 27,
      "modifier": null
    }
  ],
  "flight_rules": "MVFR",
  "other": [],
  "visibility": {
    "repr": "4",
    "value": 4,
    "spoken": "four"
  },
  "wind_direction": {
    "repr": "120",
    "value": 120,
    "spoken": "one two zero"
  },
  "wind_gust": null,
  "wind_speed": {
    "repr": "06",
    "value": 6,
    "spoken": "six"
  },
  "wx_codes": [
    {
      "repr": "-RA",
      "value": "Light Rain"
    },
    {
      "repr": "BR",
      "value": "Mist"
    }
  ],
  "raw": "KBLI 311453Z 12006KT 4SM -RA BR BKN020 OVC027 06/06 A2989 RMK AO2 SLP129 P0002 60002 T00560056 53001",
  "sanitized": "KBLI 311453Z 12006KT 4SM -RA BR BKN020 OVC027 06/06 A2989 RMK AO2 SLP129 P0002 60002 T00560056 53001",
  "station": "KBLI",
  "time": {
    "repr": "311453Z",
    "dt": "2023-03-31T14:53:00Z"
  },
  "remarks": "RMK AO2 SLP129 P0002 60002 T00560056 53001",
  "dewpoint": {
    "repr": "06",
    "value": 6,
    "spoken": "six"
  },
  "relative_humidity": 1,
  "remarks_info": {
    "maximum_temperature_6": null,
    "minimum_temperature_6": null,
    "pressure_tendency": {
      "repr": "53001",
      "tendency": "Decreasing or steady, then increasing",
      "change": 0.1
    },
    "precip_36_hours": {
      "repr": "60002",
      "value": 0.02,
      "spoken": "zero point zero two"
    },
    "precip_24_hours": null,
    "sunshine_minutes": null,
    "codes": [
      {
        "repr": "AO2",
        "value": "Automated with precipitation sensor"
      }
    ],
    "dewpoint_decimal": {
      "repr": "0056",
      "value": 5.6,
      "spoken": "five point six"
    },
    "maximum_temperature_24": null,
    "minimum_temperature_24": null,
    "precip_hourly": {
      "repr": "P0002",
      "value": 0.02,
      "spoken": "zero point zero two"
    },
    "sea_level_pressure": {
      "repr": "SLP129",
      "value": 1012.9,
      "spoken": "one zero one two point nine"
    },
    "snow_depth": null,
    "temperature_decimal": {
      "repr": "0056",
      "value": 5.6,
      "spoken": "five point six"
    }
  },
  "runway_visibility": [],
  "temperature": {
    "repr": "06",
    "value": 6,
    "spoken": "six"
  },
  "wind_variable_direction": [],
  "density_altitude": -887,
  "pressure_altitude": 200,
  "units": {
    "accumulation": "in",
    "altimeter": "inHg",
    "altitude": "ft",
    "temperature": "C",
    "visibility": "sm",
    "wind_speed": "kt"
  }
}
