{
  "meta": {
    "timestamp": "2023-02-26T18:42:08.686034Z",
    "stations_updated": "2023-01-30",
    "cache-timestamp": "2023-02-26T18:42:05.662000Z"
  },
  "altimeter": {
    "repr": "A2950",
    "value": 29.5,
    "spoken": "two nine point five zero"
  },
  "clouds": [
    {
      "repr": "BKN029",
      "type": "BKN",
      "altitude": 29,
      "modifier": null
    },
    {
      "repr": "OVC035",
      "type": "OVC",
      "altitude": 35,
      "modifier": null
    }
  ],
  "flight_rules": "MVFR",
  "other": [],
  "visibility": {
    "repr": "10",
    "value": 10,
    "spoken": "one zero"
  },
  "wind_direction": {
    "repr": "VRB",
    "value": null,
    "spoken": "variable"
  },
  "wind_gust": null,
  "wind_speed": {
    "repr": "03",
    "value": 3,
    "spoken": "three"
  },
  "wx_codes": [],
  "raw": "KBLI 261753Z VRB03KT 10SM BKN029 OVC035 04/01 A2950 RMK AO2 SLP997 60003 T00390011 10039 20022 51037 $",
  "sanitized": "KBLI 261753Z VRB03KT 10SM BKN029 OVC035 04/01 A2950 RMK AO2 SLP997 60003 T00390011 10039 20022 51037 $",
  "station": "KBLI",
  "time": {
    "repr": "261753Z",
    "dt": "2023-02-26T17:53:00Z"
  },
  "remarks": "RMK AO2 SLP997 60003 T00390011 10039 20022 51037 $",
  "dewpoint": {
    "repr": "01",
    "value": 1,
    "spoken": "one"
  },
  "relative_humidity": 0.8194806632025191,
  "remarks_info": {
    "maximum_temperature_6": {
      "repr": "10039",
      "value": 3.9,
      "spoken": "three point nine"
    },
    "minimum_temperature_6": {
      "repr": "20022",
      "value": 2.2,
      "spoken": "two point two"
    },
    "pressure_tendency": {
      "repr": "51037",
      "tendency": "Increasing, then steady",
      "change": 3.7
    },
    "precip_36_hours": {
      "repr": "60003",
      "value": 0.03,
      "spoken": "zero point zero three"
    },
    "precip_24_hours": null,
    "sunshine_minutes": null,
    "codes": [
      {
        "repr": "$",
        "value": "ASOS requires maintenance"
      },
      {
        "repr": "AO2",
        "value": "Automated with precipitation sensor"
      }
    ],
    "dewpoint_decimal": {
      "repr": "0011",
      "value": 1.1,
      "spoken": "one point one"
    },
    "maximum_temperature_24": null,
    "minimum_temperature_24": null,
    "precip_hourly": null,
    "sea_level_pressure": {
      "repr": "SLP997",
      "value": 999.7,
      "spoken": "nine nine nine point seven"
    },
    "snow_depth": null,
    "temperature_decimal": {
      "repr": "0039",
      "value": 3.9,
      "spoken": "three point nine"
    }
  },
  "runway_visibility": [],
  "temperature": {
    "repr": "04",
    "value": 4,
    "spoken": "four"
  },
  "wind_variable_direction": [],
  "density_altitude": -701,
  "pressure_altitude": 590,
  "units": {
    "accumulation": "in",
    "altimeter": "inHg",
    "altitude": "ft",
    "temperature": "C",
    "visibility": "sm",
    "wind_speed": "kt"
  }
}
