{
  "meta": {
    "timestamp": "2023-06-02T18:26:53.199026Z",
    "stations_updated": "2023-05-30",
    "cache-timestamp": "2023-06-02T18:26:06.180000Z"
  },
  "altimeter": {
    "repr": "A3011",
    "value": 30.11,
    "spoken": "three zero point one one"
  },
  "clouds": [
    {
      "repr": "FEW050",
      "type": "FEW",
      "altitude": 50,
      "modifier": null
    }
  ],
  "flight_rules": "VFR",
  "other": [],
  "visibility": {
    "repr": "10",
    "value": 10,
    "spoken": "one zero"
  },
  "wind_direction": {
    "repr": "200",
    "value": 200,
    "spoken": "two zero zero"
  },
  "wind_gust": {
    "repr": "16",
    "value": 16,
    "spoken": "one six"
  },
  "wind_speed": {
    "repr": "07",
    "value": 7,
    "spoken": "seven"
  },
  "wx_codes": [],
  "raw": "KBLI 021753Z 20007G16KT 170V240 10SM FEW050 16/09 A3011 RMK AO2 SLP202 T01560094 10156 20083 51004",
  "sanitized": "KBLI 021753Z 20007G16KT 170V240 10SM FEW050 16/09 A3011 RMK AO2 SLP202 T01560094 10156 20083 51004",
  "station": "KBLI",
  "time": {
    "repr": "021753Z",
    "dt": "2023-06-02T17:53:00Z"
  },
  "remarks": "RMK AO2 SLP202 T01560094 10156 20083 51004",
  "dewpoint": {
    "repr": "09",
    "value": 9,
    "spoken": "nine"
  },
  "relative_humidity": 0.6655714776038613,
  "remarks_info": {
    "maximum_temperature_6": {
      "repr": "10156",
      "value": 15.6,
      "spoken": "one five point six"
    },
    "minimum_temperature_6": {
      "repr": "20083",
      "value": 8.3,
      "spoken": "eight point three"
    },
    "pressure_tendency": {
      "repr": "51004",
      "tendency": "Increasing, then steady",
      "change": 0.4
    },
    "precip_36_hours": null,
    "precip_24_hours": null,
    "sunshine_minutes": null,
    "codes": [
      {
        "repr": "AO2",
        "value": "Automated with precipitation sensor"
      }
    ],
    "dewpoint_decimal": {
      "repr": "0094",
      "value": 9.4,
      "spoken": "nine point four"
    },
    "maximum_temperature_24": null,
    "minimum_temperature_24": null,
    "precip_hourly": null,
    "sea_level_pressure": {
      "repr": "SLP202",
      "value": 1020.2,
      "spoken": "one zero two zero point two"
    },
    "snow_depth": null,
    "temperature_decimal": {
      "repr": "0156",
      "value": 15.6,
      "spoken": "one five point six"
    }
  },
  "runway_visibility": [],
  "temperature": {
    "repr": "16",
    "value": 16,
    "spoken": "one six"
  },
  "wind_variable_direction": [
    {
      "repr": "170",
      "value": 170,
      "spoken": "one seven zero"
    },
    {
      "repr": "240",
      "value": 240,
      "spoken": "two four zero"
    }
  ],
  "density_altitude": 93,
  "pressure_altitude": -20,
  "units": {
    "accumulation": "in",
    "altimeter": "inHg",
    "altitude": "ft",
    "temperature": "C",
    "visibility": "sm",
    "wind_speed": "kt"
  }
}
