{
  "meta": {
    "timestamp": "2023-07-23T20:22:22.153284Z",
    "stations_updated": "2023-06-06",
    "cache-timestamp": "2023-07-23T20:22:03.178000Z"
  },
  "altimeter": {
    "repr": "A2997",
    "value": 29.97,
    "spoken": "two nine point nine seven"
  },
  "clouds": [],
  "flight_rules": "VFR",
  "other": [],
  "visibility": {
    "repr": "10",
    "value": 10,
    "spoken": "one zero"
  },
  "wind_direction": {
    "repr": "190",
    "value": 190,
    "spoken": "one nine zero"
  },
  "wind_gust": null,
  "wind_speed": {
    "repr": "07",
    "value": 7,
    "spoken": "seven"
  },
  "wx_codes": [],
  "raw": "KBLI 231953Z 19007KT 160V230 10SM CLR 22/13 A2997 RMK AO2 SLP152 T02220128",
  "sanitized": "KBLI 231953Z 19007KT 160V230 10SM 22/13 A2997 RMK AO2 SLP152 T02220128",
  "station": "KBLI",
  "time": {
    "repr": "231953Z",
    "dt": "2023-07-23T19:53:00Z"
  },
  "remarks": "RMK AO2 SLP152 T02220128",
  "dewpoint": {
    "repr": "13",
    "value": 13,
    "spoken": "one three"
  },
  "relative_humidity": 0.552162156032833,
  "remarks_info": {
    "maximum_temperature_6": null,
    "minimum_temperature_6": null,
    "pressure_tendency": null,
    "precip_36_hours": null,
    "precip_24_hours": null,
    "sunshine_minutes": null,
    "codes": [
      {
        "repr": "AO2",
        "value": "Automated with precipitation sensor"
      }
    ],
    "dewpoint_decimal": {
      "repr": "0128",
      "value": 12.8,
      "spoken": "one two point eight"
    },
    "maximum_temperature_24": null,
    "minimum_temperature_24": null,
    "precip_hourly": null,
    "sea_level_pressure": {
      "repr": "SLP152",
      "value": 1015.2,
      "spoken": "one zero one five point two"
    },
    "snow_depth": null,
    "temperature_decimal": {
      "repr": "0222",
      "value": 22.2,
      "spoken": "two two point two"
    }
  },
  "runway_visibility": [],
  "temperature": {
    "repr": "22",
    "value": 22,
    "spoken": "two two"
  },
  "wind_variable_direction": [
    {
      "repr": "160",
      "value": 160,
      "spoken": "one six zero"
    },
    {
      "repr": "230",
      "value": 230,
      "spoken": "two three zero"
    }
  ],
  "density_altitude": 1025,
  "pressure_altitude": 120,
  "units": {
    "accumulation": "in",
    "altimeter": "inHg",
    "altitude": "ft",
    "temperature": "C",
    "visibility": "sm",
    "wind_speed": "kt"
  }
}
