{
  "altimeter": {
    "repr": "A3008",
    "spoken": "three zero point zero eight",
    "value": 30.08
  },
  "clouds": [
    {
      "altitude": 16,
      "modifier": null,
      "repr": "BKN016",
      "type": "BKN"
    },
    {
      "altitude": 35,
      "modifier": null,
      "repr": "BKN035",
      "type": "BKN"
    }
  ],
  "density_altitude": -345,
  "dewpoint": {
    "repr": "11",
    "spoken": "one one",
    "value": 11
  },
  "flight_rules": "MVFR",
  "meta": {
    "cache-timestamp": "2023-11-03T08:40:05.689000Z",
    "stations_updated": "2023-10-28",
    "timestamp": "2023-11-03T08:40:30.767703Z"
  },
  "other": [],
  "pressure_altitude": 10,
  "raw": "KBLI 030753Z AUTO 16010KT 10SM BKN016 BKN035 12/11 A3008 RMK AO2 RAE31 SLP193 P0002 T01170106 401610072",
  "relative_humidity": 0.9296133286105723,
  "remarks": "RMK AO2 RAE31 SLP193 P0002 T01170106 401610072",
  "remarks_info": {
    "codes": [
      {
        "repr": "AO2",
        "value": "Automated with precipitation sensor"
      },
      {
        "repr": "RAE31",
        "value": "Rain ended at :31"
      }
    ],
    "dewpoint_decimal": {
      "repr": "0106",
      "spoken": "one zero point six",
      "value": 10.6
    },
    "maximum_temperature_24": {
      "repr": "0161",
      "spoken": "one six point one",
      "value": 16.1
    },
    "maximum_temperature_6": null,
    "minimum_temperature_24": {
      "repr": "0072",
      "spoken": "seven point two",
      "value": 7.2
    },
    "minimum_temperature_6": null,
    "precip_24_hours": null,
    "precip_36_hours": null,
    "precip_hourly": {
      "repr": "P0002",
      "spoken": "zero point zero two",
      "value": 0.02
    },
    "pressure_tendency": null,
    "sea_level_pressure": {
      "repr": "SLP193",
      "spoken": "one zero one nine point three",
      "value": 1019.3
    },
    "snow_depth": null,
    "sunshine_minutes": null,
    "temperature_decimal": {
      "repr": "0117",
      "spoken": "one one point seven",
      "value": 11.7
    }
  },
  "runway_visibility": [],
  "sanitized": "KBLI 030753Z 16010KT 10SM BKN016 BKN035 12/11 A3008 RMK AO2 RAE31 SLP193 P0002 T01170106 401610072",
  "station": "KBLI",
  "temperature": {
    "repr": "12",
    "spoken": "one two",
    "value": 12
  },
  "time": {
    "dt": "2023-11-03T07:53:00Z",
    "repr": "030753Z"
  },
  "units": {
    "accumulation": "in",
    "altimeter": "inHg",
    "altitude": "ft",
    "temperature": "C",
    "visibility": "sm",
    "wind_speed": "kt"
  },
  "visibility": {
    "repr": "10",
    "spoken": "one zero",
    "value": 10
  },
  "wind_direction": {
    "repr": "160",
    "spoken": "one six zero",
    "value": 160
  },
  "wind_gust": null,
  "wind_speed": {
    "repr": "10",
    "spoken": "one zero",
    "value": 10
  },
  "wind_variable_direction": [],
  "wx_codes": []
}
