{
  "altimeter": {
    "repr": "A3012",
    "spoken": "three zero point one two",
    "value": 30.12
  },
  "clouds": [],
  "density_altitude": -2389,
  "dewpoint": {
    "repr": "M05",
    "spoken": "minus five",
    "value": -5
  },
  "flight_rules": "VFR",
  "meta": {
    "stations_updated": "2024-12-02",
    "timestamp": "2025-01-29T12:13:03.594050Z"
  },
  "other": [],
  "pressure_altitude": -30,
  "raw": "KBLI 291153Z AUTO 00000KT 7SM CLR M05/M05 A3012 RMK AO2 SLP210 I1000 I6000 T10501050 11022 21050 58007",
  "relative_humidity": 1.0,
  "remarks": "RMK AO2 SLP210 I1000 I6000 T10501050 11022 21050 58007",
  "remarks_info": {
    "codes": [
      {
        "repr": "AO2",
        "value": "Automated with precipitation sensor"
      }
    ],
    "dewpoint_decimal": {
      "repr": "1050",
      "spoken": "minus five point zero",
      "value": -5.0
    },
    "maximum_temperature_24": null,
    "maximum_temperature_6": {
      "repr": "11022",
      "spoken": "minus two point two",
      "value": -2.2
    },
    "minimum_temperature_24": null,
    "minimum_temperature_6": {
      "repr": "21050",
      "spoken": "minus five point zero",
      "value": -5.0
    },
    "precip_24_hours": null,
    "precip_36_hours": null,
    "precip_hourly": null,
    "pressure_tendency": {
      "change": 0.7,
      "repr": "58007",
      "tendency": "Steady or increasing, then decreasing"
    },
    "sea_level_pressure": {
      "repr": "SLP210",
      "spoken": "one zero two one point zero",
      "value": 1021.0
    },
    "snow_depth": null,
    "sunshine_minutes": null,
    "temperature_decimal": {
      "repr": "1050",
      "spoken": "minus five point zero",
      "value": -5.0
    }
  },
  "runway_visibility": [],
  "sanitized": "KBLI 291153Z 00000KT 7SM M05/M05 A3012 RMK AO2 SLP210 I1000 I6000 T10501050 11022 21050 58007",
  "station": "KBLI",
  "temperature": {
    "repr": "M05",
    "spoken": "minus five",
    "value": -5
  },
  "time": {
    "dt": "2025-01-29T11:53:00Z",
    "repr": "291153Z"
  },
  "units": {
    "accumulation": "in",
    "altimeter": "inHg",
    "altitude": "ft",
    "temperature": "C",
    "visibility": "sm",
    "wind_speed": "kt"
  },
  "visibility": {
    "repr": "7",
    "spoken": "seven",
    "value": 7
  },
  "wind_direction": {
    "repr": "000",
    "spoken": "zero zero zero",
    "value": 0
  },
  "wind_gust": null,
  "wind_speed": {
    "repr": "00",
    "spoken": "zero",
    "value": 0
  },
  "wind_variable_direction": [],
  "wx_codes": []
}
