{
  "meta": {
    "timestamp": "2023-07-15T08:28:46.332976Z",
    "stations_updated": "2023-06-06",
    "cache-timestamp": "2023-07-15T08:28:03.920000Z"
  },
  "altimeter": {
    "repr": "A3008",
    "value": 30.08,
    "spoken": "three zero point zero eight"
  },
  "clouds": [],
  "flight_rules": "VFR",
  "other": [],
  "visibility": {
    "repr": "10",
    "value": 10,
    "spoken": "one zero"
  },
  "wind_direction": {
    "repr": "190",
    "value": 190,
    "spoken": "one nine zero"
  },
  "wind_gust": null,
  "wind_speed": {
    "repr": "04",
    "value": 4,
    "spoken": "four"
  },
  "wx_codes": [],
  "raw": "KBLI 150753Z AUTO 19004KT 10SM CLR 17/13 A3008 RMK AO2 SLP189 T01720133 402500139",
  "sanitized": "KBLI 150753Z 19004KT 10SM 17/13 A3008 RMK AO2 SLP189 T01720133 402500139",
  "station": "KBLI",
  "time": {
    "repr": "150753Z",
    "dt": "2023-07-15T07:53:00Z"
  },
  "remarks": "RMK AO2 SLP189 T01720133 402500139",
  "dewpoint": {
    "repr": "13",
    "value": 13,
    "spoken": "one three"
  },
  "relative_humidity": 0.7782963609308653,
  "remarks_info": {
    "maximum_temperature_6": null,
    "minimum_temperature_6": null,
    "pressure_tendency": null,
    "precip_36_hours": null,
    "precip_24_hours": null,
    "sunshine_minutes": null,
    "codes": [
      {
        "repr": "AO2",
        "value": "Automated with precipitation sensor"
      }
    ],
    "dewpoint_decimal": {
      "repr": "0133",
      "value": 13.3,
      "spoken": "one three point three"
    },
    "maximum_temperature_24": {
      "repr": "0250",
      "value": 25,
      "spoken": "two five point zero"
    },
    "minimum_temperature_24": {
      "repr": "0139",
      "value": 13.9,
      "spoken": "one three point nine"
    },
    "precip_hourly": null,
    "sea_level_pressure": {
      "repr": "SLP189",
      "value": 1018.9,
      "spoken": "one zero one eight point nine"
    },
    "snow_depth": null,
    "temperature_decimal": {
      "repr": "0172",
      "value": 17.2,
      "spoken": "one seven point two"
    }
  },
  "runway_visibility": [],
  "temperature": {
    "repr": "17",
    "value": 17,
    "spoken": "one seven"
  },
  "wind_variable_direction": [],
  "density_altitude": 315,
  "pressure_altitude": 10,
  "units": {
    "accumulation": "in",
    "altimeter": "inHg",
    "altitude": "ft",
    "temperature": "C",
    "visibility": "sm",
    "wind_speed": "kt"
  }
}
