{
  "altimeter": {
    "repr": "A3054",
    "spoken": "three zero point five four",
    "value": 30.54
  },
  "clouds": [
    {
      "altitude": 1,
      "modifier": null,
      "repr": "VV001",
      "type": "VV"
    }
  ],
  "density_altitude": -1945,
  "dewpoint": {
    "repr": "02",
    "spoken": "two",
    "value": 2
  },
  "flight_rules": "LIFR",
  "meta": {
    "stations_updated": "2024-12-02",
    "timestamp": "2025-01-07T03:20:03.475881Z"
  },
  "other": [],
  "pressure_altitude": -450,
  "raw": "KBLI 070253Z 00000KT 1/4SM R16/1200FT FG VV001 02/02 A3054 RMK AO2 SLP351 T00220022 53004",
  "relative_humidity": 1,
  "remarks": "RMK AO2 SLP351 T00220022 53004",
  "remarks_info": {
    "codes": [
      {
        "repr": "AO2",
        "value": "Automated with precipitation sensor"
      }
    ],
    "dewpoint_decimal": {
      "repr": "0022",
      "spoken": "two point two",
      "value": 2.2
    },
    "maximum_temperature_24": null,
    "maximum_temperature_6": null,
    "minimum_temperature_24": null,
    "minimum_temperature_6": null,
    "precip_24_hours": null,
    "precip_36_hours": null,
    "precip_hourly": null,
    "pressure_tendency": {
      "change": 0.4,
      "repr": "53004",
      "tendency": "Decreasing or steady, then increasing"
    },
    "sea_level_pressure": {
      "repr": "SLP351",
      "spoken": "one zero three five point one",
      "value": 1035.1
    },
    "snow_depth": null,
    "sunshine_minutes": null,
    "temperature_decimal": {
      "repr": "0022",
      "spoken": "two point two",
      "value": 2.2
    }
  },
  "runway_visibility": [
    {
      "repr": "R16/1200FT",
      "runway": "16",
      "trend": null,
      "variable_visibility": [],
      "visibility": {
        "repr": "1200",
        "spoken": "one two hundred",
        "value": 1200
      }
    }
  ],
  "sanitized": "KBLI 070253Z 00000KT 1/4SM R16/1200FT FG VV001 02/02 A3054 RMK AO2 SLP351 T00220022 53004",
  "station": "KBLI",
  "temperature": {
    "repr": "02",
    "spoken": "two",
    "value": 2
  },
  "time": {
    "dt": "2025-01-07T02:53:00Z",
    "repr": "070253Z"
  },
  "units": {
    "accumulation": "in",
    "altimeter": "inHg",
    "altitude": "ft",
    "temperature": "C",
    "visibility": "sm",
    "wind_speed": "kt"
  },
  "visibility": {
    "denominator": 4,
    "normalized": "1/4",
    "numerator": 1,
    "repr": "1/4",
    "spoken": "one quarter",
    "value": 0.25
  },
  "wind_direction": {
    "repr": "000",
    "spoken": "zero zero zero",
    "value": 0
  },
  "wind_gust": null,
  "wind_speed": {
    "repr": "00",
    "spoken": "zero",
    "value": 0
  },
  "wind_variable_direction": [],
  "wx_codes": [
    {
      "repr": "FG",
      "value": "Fog"
    }
  ]
}
