{
  "altimeter": {
    "repr": "A3037",
    "spoken": "three zero point three seven",
    "value": 30.37
  },
  "clouds": [
    {
      "altitude": 2,
      "modifier": null,
      "repr": "VV002",
      "type": "VV"
    }
  ],
  "density_altitude": -1775,
  "dewpoint": {
    "repr": "02",
    "spoken": "two",
    "value": 2
  },
  "flight_rules": "LIFR",
  "meta": {
    "cache-timestamp": "2024-02-23T12:49:17.547000Z",
    "stations_updated": "2024-01-01",
    "timestamp": "2024-02-23T12:49:33.577912Z"
  },
  "other": [],
  "pressure_altitude": -280,
  "raw": "KBLI 231242Z AUTO 01003KT 1/4SM R16/1600V2600FT FG VV002 02/02 A3037 RMK AO2 T00220022",
  "relative_humidity": 1,
  "remarks": "RMK AO2 T00220022",
  "remarks_info": {
    "codes": [
      {
        "repr": "AO2",
        "value": "Automated with precipitation sensor"
      }
    ],
    "dewpoint_decimal": {
      "repr": "0022",
      "spoken": "two point two",
      "value": 2.2
    },
    "maximum_temperature_24": null,
    "maximum_temperature_6": null,
    "minimum_temperature_24": null,
    "minimum_temperature_6": null,
    "precip_24_hours": null,
    "precip_36_hours": null,
    "precip_hourly": null,
    "pressure_tendency": null,
    "sea_level_pressure": null,
    "snow_depth": null,
    "sunshine_minutes": null,
    "temperature_decimal": {
      "repr": "0022",
      "spoken": "two point two",
      "value": 2.2
    }
  },
  "runway_visibility": [
    {
      "repr": "R16/1600V2600FT",
      "runway": "16",
      "trend": null,
      "variable_visibility": [
        {
          "repr": "1600",
          "spoken": "one six hundred",
          "value": 1600
        },
        {
          "repr": "2600",
          "spoken": "two six hundred",
          "value": 2600
        }
      ],
      "visibility": null
    }
  ],
  "sanitized": "KBLI 231242Z 01003KT 1/4SM R16/1600V2600FT FG VV002 02/02 A3037 RMK AO2 T00220022",
  "station": "KBLI",
  "temperature": {
    "repr": "02",
    "spoken": "two",
    "value": 2
  },
  "time": {
    "dt": "2024-02-23T12:42:00Z",
    "repr": "231242Z"
  },
  "units": {
    "accumulation": "in",
    "altimeter": "inHg",
    "altitude": "ft",
    "temperature": "C",
    "visibility": "sm",
    "wind_speed": "kt"
  },
  "visibility": {
    "denominator": 4,
    "normalized": "1/4",
    "numerator": 1,
    "repr": "1/4",
    "spoken": "one quarter",
    "value": 0.25
  },
  "wind_direction": {
    "repr": "010",
    "spoken": "zero one zero",
    "value": 10
  },
  "wind_gust": null,
  "wind_speed": {
    "repr": "03",
    "spoken": "three",
    "value": 3
  },
  "wind_variable_direction": [],
  "wx_codes": [
    {
      "repr": "FG",
      "value": "Fog"
    }
  ]
}
