{
  "altimeter": {
    "repr": "A2996",
    "spoken": "two nine point nine six",
    "value": 29.96
  },
  "clouds": [],
  "density_altitude": 843,
  "dewpoint": {
    "repr": "15",
    "spoken": "one five",
    "value": 15
  },
  "flight_rules": "VFR",
  "meta": {
    "stations_updated": "2024-06-12",
    "timestamp": "2024-08-11T01:55:00.771254Z"
  },
  "other": [],
  "pressure_altitude": 130,
  "raw": "KBLI 110053Z 20007KT 10SM CLR 21/15 A2996 RMK AO2 SLP150 T02060150",
  "relative_humidity": 0.7026229396682411,
  "remarks": "RMK AO2 SLP150 T02060150",
  "remarks_info": {
    "codes": [
      {
        "repr": "AO2",
        "value": "Automated with precipitation sensor"
      }
    ],
    "dewpoint_decimal": {
      "repr": "0150",
      "spoken": "one five point zero",
      "value": 15
    },
    "maximum_temperature_24": null,
    "maximum_temperature_6": null,
    "minimum_temperature_24": null,
    "minimum_temperature_6": null,
    "precip_24_hours": null,
    "precip_36_hours": null,
    "precip_hourly": null,
    "pressure_tendency": null,
    "sea_level_pressure": {
      "repr": "SLP150",
      "spoken": "one zero one five point zero",
      "value": 1015
    },
    "snow_depth": null,
    "sunshine_minutes": null,
    "temperature_decimal": {
      "repr": "0206",
      "spoken": "two zero point six",
      "value": 20.6
    }
  },
  "runway_visibility": [],
  "sanitized": "KBLI 110053Z 20007KT 10SM 21/15 A2996 RMK AO2 SLP150 T02060150",
  "station": "KBLI",
  "temperature": {
    "repr": "21",
    "spoken": "two one",
    "value": 21
  },
  "time": {
    "dt": "2024-08-11T00:53:00Z",
    "repr": "110053Z"
  },
  "units": {
    "accumulation": "in",
    "altimeter": "inHg",
    "altitude": "ft",
    "temperature": "C",
    "visibility": "sm",
    "wind_speed": "kt"
  },
  "visibility": {
    "repr": "10",
    "spoken": "one zero",
    "value": 10
  },
  "wind_direction": {
    "repr": "200",
    "spoken": "two zero zero",
    "value": 200
  },
  "wind_gust": null,
  "wind_speed": {
    "repr": "07",
    "spoken": "seven",
    "value": 7
  },
  "wind_variable_direction": [],
  "wx_codes": []
}
