{
  "altimeter": {
    "repr": "A2990",
    "spoken": "two nine point nine zero",
    "value": 29.9
  },
  "clouds": [
    {
      "altitude": 31,
      "modifier": null,
      "repr": "BKN031",
      "type": "BKN"
    },
    {
      "altitude": 60,
      "modifier": null,
      "repr": "BKN060",
      "type": "BKN"
    },
    {
      "altitude": 70,
      "modifier": null,
      "repr": "OVC070",
      "type": "OVC"
    }
  ],
  "density_altitude": -369,
  "dewpoint": {
    "repr": "05",
    "spoken": "five",
    "value": 5
  },
  "flight_rules": "VFR",
  "meta": {
    "stations_updated": "2023-10-28",
    "timestamp": "2023-11-11T03:25:07.311852Z"
  },
  "other": [],
  "pressure_altitude": 190,
  "raw": "KBLI 110253Z 16019G32KT 10SM BKN031 BKN060 OVC070 10/05 A2990 RMK AO2 PK WND 15035/0212 RAB0154E42 SLP132 P0000 60000 T01000050 56036",
  "relative_humidity": 0.7106976250052686,
  "remarks": "RMK AO2 PK WND 15035/0212 RAB0154E42 SLP132 P0000 60000 T01000050 56036",
  "remarks_info": {
    "codes": [
      {
        "repr": "AO2",
        "value": "Automated with precipitation sensor"
      },
      {
        "repr": "P0000",
        "value": "Trace amount of rain in the last hour"
      }
    ],
    "dewpoint_decimal": {
      "repr": "0050",
      "spoken": "five point zero",
      "value": 5
    },
    "maximum_temperature_24": null,
    "maximum_temperature_6": null,
    "minimum_temperature_24": null,
    "minimum_temperature_6": null,
    "precip_24_hours": null,
    "precip_36_hours": {
      "repr": "60000",
      "spoken": "zero",
      "value": 0
    },
    "precip_hourly": null,
    "pressure_tendency": {
      "change": 3.6,
      "repr": "56036",
      "tendency": "Decreasing, then steady"
    },
    "sea_level_pressure": {
      "repr": "SLP132",
      "spoken": "one zero one three point two",
      "value": 1013.2
    },
    "snow_depth": null,
    "sunshine_minutes": null,
    "temperature_decimal": {
      "repr": "0100",
      "spoken": "one zero point zero",
      "value": 10
    }
  },
  "runway_visibility": [],
  "sanitized": "KBLI 110253Z 16019G32KT 10SM BKN031 BKN060 OVC070 10/05 A2990 RMK AO2 PK WND 15035/0212 RAB0154E42 SLP132 P0000 60000 T01000050 56036",
  "station": "KBLI",
  "temperature": {
    "repr": "10",
    "spoken": "one zero",
    "value": 10
  },
  "time": {
    "dt": "2023-11-11T02:53:00Z",
    "repr": "110253Z"
  },
  "units": {
    "accumulation": "in",
    "altimeter": "inHg",
    "altitude": "ft",
    "temperature": "C",
    "visibility": "sm",
    "wind_speed": "kt"
  },
  "visibility": {
    "repr": "10",
    "spoken": "one zero",
    "value": 10
  },
  "wind_direction": {
    "repr": "160",
    "spoken": "one six zero",
    "value": 160
  },
  "wind_gust": {
    "repr": "32",
    "spoken": "three two",
    "value": 32
  },
  "wind_speed": {
    "repr": "19",
    "spoken": "one nine",
    "value": 19
  },
  "wind_variable_direction": [],
  "wx_codes": []
}
