{
  "meta": {
    "timestamp": "2023-08-31T15:01:27.793496Z",
    "stations_updated": "2023-08-05"
  },
  "altimeter": {
    "repr": "A2991",
    "value": 29.91,
    "spoken": "two nine point nine one"
  },
  "clouds": [
    {
      "repr": "BKN002",
      "type": "BKN",
      "altitude": 2,
      "modifier": null
    },
    {
      "repr": "OVC110",
      "type": "OVC",
      "altitude": 110,
      "modifier": null
    }
  ],
  "flight_rules": "LIFR",
  "other": [],
  "visibility": {
    "repr": "1/4",
    "value": 0.25,
    "spoken": "one quarter",
    "numerator": 1,
    "denominator": 4,
    "normalized": "1/4"
  },
  "wind_direction": {
    "repr": "000",
    "value": 0,
    "spoken": "zero zero zero"
  },
  "wind_gust": null,
  "wind_speed": {
    "repr": "00",
    "value": 0,
    "spoken": "zero"
  },
  "wx_codes": [
    {
      "repr": "FG",
      "value": "Fog"
    }
  ],
  "raw": "KBLI 311457Z 00000KT 1/4SM R16/1200V2400FT FG BKN002 OVC110 14/14 A2991 RMK AO2 T01440144",
  "sanitized": "KBLI 311457Z 00000KT 1/4SM R16/1200V2400FT FG BKN002 OVC110 14/14 A2991 RMK AO2 T01440144",
  "station": "KBLI",
  "time": {
    "repr": "311457Z",
    "dt": "2023-08-31T14:57:00Z"
  },
  "remarks": "RMK AO2 T01440144",
  "dewpoint": {
    "repr": "14",
    "value": 14,
    "spoken": "one four"
  },
  "relative_humidity": 1,
  "remarks_info": {
    "maximum_temperature_6": null,
    "minimum_temperature_6": null,
    "pressure_tendency": null,
    "precip_36_hours": null,
    "precip_24_hours": null,
    "sunshine_minutes": null,
    "codes": [
      {
        "repr": "AO2",
        "value": "Automated with precipitation sensor"
      }
    ],
    "dewpoint_decimal": {
      "repr": "0144",
      "value": 14.4,
      "spoken": "one four point four"
    },
    "maximum_temperature_24": null,
    "minimum_temperature_24": null,
    "precip_hourly": null,
    "sea_level_pressure": null,
    "snow_depth": null,
    "temperature_decimal": {
      "repr": "0144",
      "value": 14.4,
      "spoken": "one four point four"
    }
  },
  "runway_visibility": [
    {
      "repr": "R16/1200V2400FT",
      "runway": "16",
      "visibility": null,
      "variable_visibility": [
        {
          "repr": "1200",
          "value": 1200,
          "spoken": "one two hundred"
        },
        {
          "repr": "2400",
          "value": 2400,
          "spoken": "two four hundred"
        }
      ],
      "trend": null
    }
  ],
  "temperature": {
    "repr": "14",
    "value": 14,
    "spoken": "one four"
  },
  "wind_variable_direction": [],
  "density_altitude": 149,
  "pressure_altitude": 180,
  "units": {
    "accumulation": "in",
    "altimeter": "inHg",
    "altitude": "ft",
    "temperature": "C",
    "visibility": "sm",
    "wind_speed": "kt"
  }
}
