{
  "meta": {
    "timestamp": "2023-04-30T23:01:13.792566Z",
    "stations_updated": "2023-03-11"
  },
  "altimeter": {
    "repr": "A2990",
    "value": 29.9,
    "spoken": "two nine point nine zero"
  },
  "clouds": [
    {
      "repr": "OVC120",
      "type": "OVC",
      "altitude": 120,
      "modifier": null
    }
  ],
  "flight_rules": "VFR",
  "other": [],
  "visibility": {
    "repr": "10",
    "value": 10,
    "spoken": "one zero"
  },
  "wind_direction": {
    "repr": "180",
    "value": 180,
    "spoken": "one eight zero"
  },
  "wind_gust": null,
  "wind_speed": {
    "repr": "08",
    "value": 8,
    "spoken": "eight"
  },
  "wx_codes": [],
  "raw": "KBLI 302253Z 18008KT 10SM OVC120 13/11 A2990 RMK AO2 SLP130 T01280106 $",
  "sanitized": "KBLI 302253Z 18008KT 10SM OVC120 13/11 A2990 RMK AO2 SLP130 T01280106 $",
  "station": "KBLI",
  "time": {
    "repr": "302253Z",
    "dt": "2023-04-30T22:53:00Z"
  },
  "remarks": "RMK AO2 SLP130 T01280106 $",
  "dewpoint": {
    "repr": "11",
    "value": 11,
    "spoken": "one one"
  },
  "relative_humidity": 0.8647225145629146,
  "remarks_info": {
    "maximum_temperature_6": null,
    "minimum_temperature_6": null,
    "pressure_tendency": null,
    "precip_36_hours": null,
    "precip_24_hours": null,
    "sunshine_minutes": null,
    "codes": [
      {
        "repr": "$",
        "value": "ASOS requires maintenance"
      },
      {
        "repr": "AO2",
        "value": "Automated with precipitation sensor"
      }
    ],
    "dewpoint_decimal": {
      "repr": "0106",
      "value": 10.6,
      "spoken": "one zero point six"
    },
    "maximum_temperature_24": null,
    "minimum_temperature_24": null,
    "precip_hourly": null,
    "sea_level_pressure": {
      "repr": "SLP130",
      "value": 1013,
      "spoken": "one zero one three point zero"
    },
    "snow_depth": null,
    "temperature_decimal": {
      "repr": "0128",
      "value": 12.8,
      "spoken": "one two point eight"
    }
  },
  "runway_visibility": [],
  "temperature": {
    "repr": "13",
    "value": 13,
    "spoken": "one three"
  },
  "wind_variable_direction": [],
  "density_altitude": -33,
  "pressure_altitude": 190,
  "units": {
    "accumulation": "in",
    "altimeter": "inHg",
    "altitude": "ft",
    "temperature": "C",
    "visibility": "sm",
    "wind_speed": "kt"
  }
}
