{
  "meta": {
    "timestamp": "2022-11-19T18:33:56.566924Z",
    "stations_updated": "2022-09-05"
  },
  "altimeter": {
    "repr": "A3034",
    "value": 30.34,
    "spoken": "three zero point three four"
  },
  "clouds": [],
  "flight_rules": "VFR",
  "other": [],
  "visibility": {
    "repr": "10",
    "value": 10,
    "spoken": "one zero"
  },
  "wind_direction": {
    "repr": "020",
    "value": 20,
    "spoken": "zero two zero"
  },
  "wind_gust": null,
  "wind_speed": {
    "repr": "06",
    "value": 6,
    "spoken": "six"
  },
  "wx_codes": [],
  "raw": "KBLI 191753Z 02006KT 10SM CLR 02/M04 A3034 RMK AO2 SLP283 T00221039 10022 21039 58003",
  "sanitized": "KBLI 191753Z 02006KT 10SM 02/M04 A3034 RMK AO2 SLP283 T00221039 10022 21039 58003",
  "station": "KBLI",
  "time": {
    "repr": "191753Z",
    "dt": "2022-11-19T17:53:00Z"
  },
  "remarks": "RMK AO2 SLP283 T00221039 10022 21039 58003",
  "dewpoint": {
    "repr": "M04",
    "value": -4,
    "spoken": "minus four"
  },
  "relative_humidity": 0.6402899235528913,
  "remarks_info": {
    "maximum_temperature_6": {
      "repr": "10022",
      "value": 2.2,
      "spoken": "two point two"
    },
    "minimum_temperature_6": {
      "repr": "21039",
      "value": -3.9,
      "spoken": "minus three point nine"
    },
    "pressure_tendency": {
      "repr": "58003",
      "tendency": "Steady or increasing, then decreasing",
      "change": 0.3
    },
    "precip_36_hours": null,
    "precip_24_hours": null,
    "sunshine_minutes": null,
    "codes": [
      {
        "repr": "AO2",
        "value": "Automated with precipitation sensor"
      }
    ],
    "dewpoint_decimal": {
      "repr": "1039",
      "value": -3.9,
      "spoken": "minus three point nine"
    },
    "maximum_temperature_24": null,
    "minimum_temperature_24": null,
    "precip_hourly": null,
    "sea_level_pressure": {
      "repr": "SLP283",
      "value": 1028.3,
      "spoken": "one zero two eight point three"
    },
    "snow_depth": null,
    "temperature_decimal": {
      "repr": "0022",
      "value": 2.2,
      "spoken": "two point two"
    }
  },
  "runway_visibility": [],
  "temperature": {
    "repr": "02",
    "value": 2,
    "spoken": "two"
  },
  "wind_variable_direction": [],
  "density_altitude": -1745,
  "pressure_altitude": -250,
  "units": {
    "accumulation": "in",
    "altimeter": "inHg",
    "altitude": "ft",
    "temperature": "C",
    "visibility": "sm",
    "wind_speed": "kt"
  }
}
