{
  "meta": {
    "timestamp": "2023-02-23T12:50:45.016385Z",
    "stations_updated": "2023-01-30",
    "cache-timestamp": "2023-02-23T12:50:07.421000Z"
  },
  "altimeter": {
    "repr": "A2971",
    "value": 29.71,
    "spoken": "two nine point seven one"
  },
  "clouds": [
    {
      "repr": "OVC070",
      "type": "OVC",
      "altitude": 70,
      "modifier": null
    }
  ],
  "flight_rules": "VFR",
  "other": [],
  "visibility": {
    "repr": "10",
    "value": 10,
    "spoken": "one zero"
  },
  "wind_direction": {
    "repr": "040",
    "value": 40,
    "spoken": "zero four zero"
  },
  "wind_gust": {
    "repr": "40",
    "value": 40,
    "spoken": "four zero"
  },
  "wind_speed": {
    "repr": "25",
    "value": 25,
    "spoken": "two five"
  },
  "wx_codes": [],
  "raw": "KBLI 231153Z AUTO 04025G40KT 10SM OVC070 M05/M17 A2971 RMK AO2 PK WND 04040/1144 SLP071 T10501167 11033 21050 53005",
  "sanitized": "KBLI 231153Z 04025G40KT 10SM OVC070 M05/M17 A2971 RMK AO2 PK WND 04040/1144 SLP071 T10501167 11033 21050 53005",
  "station": "KBLI",
  "time": {
    "repr": "231153Z",
    "dt": "2023-02-23T11:53:00Z"
  },
  "remarks": "RMK AO2 PK WND 04040/1144 SLP071 T10501167 11033 21050 53005",
  "dewpoint": {
    "repr": "M17",
    "value": -17,
    "spoken": "minus one seven"
  },
  "relative_humidity": 0.39429432451542995,
  "remarks_info": {
    "maximum_temperature_6": {
      "repr": "11033",
      "value": -3.3,
      "spoken": "minus three point three"
    },
    "minimum_temperature_6": {
      "repr": "21050",
      "value": -5,
      "spoken": "minus five point zero"
    },
    "pressure_tendency": {
      "repr": "53005",
      "tendency": "Decreasing or steady, then increasing",
      "change": 0.5
    },
    "precip_36_hours": null,
    "precip_24_hours": null,
    "sunshine_minutes": null,
    "codes": [
      {
        "repr": "AO2",
        "value": "Automated with precipitation sensor"
      }
    ],
    "dewpoint_decimal": {
      "repr": "1167",
      "value": -16.7,
      "spoken": "minus one six point seven"
    },
    "maximum_temperature_24": null,
    "minimum_temperature_24": null,
    "precip_hourly": null,
    "sea_level_pressure": {
      "repr": "SLP071",
      "value": 1007.1,
      "spoken": "one zero zero seven point one"
    },
    "snow_depth": null,
    "temperature_decimal": {
      "repr": "1050",
      "value": -5,
      "spoken": "minus five point zero"
    }
  },
  "runway_visibility": [],
  "temperature": {
    "repr": "M05",
    "value": -5,
    "spoken": "minus five"
  },
  "wind_variable_direction": [],
  "density_altitude": -1979,
  "pressure_altitude": 380,
  "units": {
    "accumulation": "in",
    "altimeter": "inHg",
    "altitude": "ft",
    "temperature": "C",
    "visibility": "sm",
    "wind_speed": "kt"
  }
}
