{
  "meta": {
    "timestamp": "2022-12-21T23:02:01.728794Z",
    "stations_updated": "2022-09-05"
  },
  "altimeter": {
    "repr": "A3056",
    "value": 30.56,
    "spoken": "three zero point five six"
  },
  "clouds": [],
  "flight_rules": "VFR",
  "other": [],
  "visibility": {
    "repr": "10",
    "value": 10,
    "spoken": "one zero"
  },
  "wind_direction": {
    "repr": "040",
    "value": 40,
    "spoken": "zero four zero"
  },
  "wind_gust": {
    "repr": "40",
    "value": 40,
    "spoken": "four zero"
  },
  "wind_speed": {
    "repr": "24",
    "value": 24,
    "spoken": "two four"
  },
  "wx_codes": [],
  "raw": "KBLI 212253Z 04024G40KT 10SM CLR M10/M18 A3056 RMK AO2 PK WND 06041/2226 SLP362 T11001183",
  "sanitized": "KBLI 212253Z 04024G40KT 10SM M10/M18 A3056 RMK AO2 PK WND 06041/2226 SLP362 T11001183",
  "station": "KBLI",
  "time": {
    "repr": "212253Z",
    "dt": "2022-12-21T22:53:00Z"
  },
  "remarks": "RMK AO2 PK WND 06041/2226 SLP362 T11001183",
  "dewpoint": {
    "repr": "M18",
    "value": -18,
    "spoken": "minus one eight"
  },
  "relative_humidity": 0.5070536426436403,
  "remarks_info": {
    "maximum_temperature_6": null,
    "minimum_temperature_6": null,
    "pressure_tendency": null,
    "precip_36_hours": null,
    "precip_24_hours": null,
    "sunshine_minutes": null,
    "codes": [
      {
        "repr": "AO2",
        "value": "Automated with precipitation sensor"
      }
    ],
    "dewpoint_decimal": {
      "repr": "1183",
      "value": -18.3,
      "spoken": "minus one eight point three"
    },
    "maximum_temperature_24": null,
    "minimum_temperature_24": null,
    "precip_hourly": null,
    "sea_level_pressure": {
      "repr": "SLP362",
      "value": 1036.2,
      "spoken": "one zero three six point two"
    },
    "snow_depth": null,
    "temperature_decimal": {
      "repr": "1100",
      "value": -10,
      "spoken": "minus one zero point zero"
    }
  },
  "runway_visibility": [],
  "temperature": {
    "repr": "M10",
    "value": -10,
    "spoken": "minus one zero"
  },
  "wind_variable_direction": [],
  "density_altitude": -3429,
  "pressure_altitude": -470,
  "units": {
    "accumulation": "in",
    "altimeter": "inHg",
    "altitude": "ft",
    "temperature": "C",
    "visibility": "sm",
    "wind_speed": "kt"
  }
}
