{
  "meta": {
    "timestamp": "2023-03-04T08:06:39.845289Z",
    "stations_updated": "2023-01-30",
    "cache-timestamp": "2023-03-04T08:06:05.727000Z"
  },
  "altimeter": {
    "repr": "A2968",
    "value": 29.68,
    "spoken": "two nine point six eight"
  },
  "clouds": [
    {
      "repr": "SCT025",
      "type": "SCT",
      "altitude": 25,
      "modifier": null
    },
    {
      "repr": "OVC030",
      "type": "OVC",
      "altitude": 30,
      "modifier": null
    }
  ],
  "flight_rules": "MVFR",
  "other": [],
  "visibility": {
    "repr": "10",
    "value": 10,
    "spoken": "one zero"
  },
  "wind_direction": {
    "repr": "080",
    "value": 80,
    "spoken": "zero eight zero"
  },
  "wind_gust": null,
  "wind_speed": {
    "repr": "04",
    "value": 4,
    "spoken": "four"
  },
  "wx_codes": [],
  "raw": "KBLI 040753Z AUTO 08004KT 10SM SCT025 OVC030 04/02 A2968 RMK AO2 SLP059 T00390017 400670033",
  "sanitized": "KBLI 040753Z 08004KT 10SM SCT025 OVC030 04/02 A2968 RMK AO2 SLP059 T00390017 400670033",
  "station": "KBLI",
  "time": {
    "repr": "040753Z",
    "dt": "2023-03-04T07:53:00Z"
  },
  "remarks": "RMK AO2 SLP059 T00390017 400670033",
  "dewpoint": {
    "repr": "02",
    "value": 2,
    "spoken": "two"
  },
  "relative_humidity": 0.8555243252964272,
  "remarks_info": {
    "maximum_temperature_6": null,
    "minimum_temperature_6": null,
    "pressure_tendency": null,
    "precip_36_hours": null,
    "precip_24_hours": null,
    "sunshine_minutes": null,
    "codes": [
      {
        "repr": "AO2",
        "value": "Automated with precipitation sensor"
      }
    ],
    "dewpoint_decimal": {
      "repr": "0017",
      "value": 1.7,
      "spoken": "one point seven"
    },
    "maximum_temperature_24": {
      "repr": "0067",
      "value": 6.7,
      "spoken": "six point seven"
    },
    "minimum_temperature_24": {
      "repr": "0033",
      "value": 3.3,
      "spoken": "three point three"
    },
    "precip_hourly": null,
    "sea_level_pressure": {
      "repr": "SLP059",
      "value": 1005.9,
      "spoken": "one zero zero five point nine"
    },
    "snow_depth": null,
    "temperature_decimal": {
      "repr": "0039",
      "value": 3.9,
      "spoken": "three point nine"
    }
  },
  "runway_visibility": [],
  "temperature": {
    "repr": "04",
    "value": 4,
    "spoken": "four"
  },
  "wind_variable_direction": [],
  "density_altitude": -881,
  "pressure_altitude": 410,
  "units": {
    "accumulation": "in",
    "altimeter": "inHg",
    "altitude": "ft",
    "temperature": "C",
    "visibility": "sm",
    "wind_speed": "kt"
  }
}
