{
  "altimeter": {
    "repr": "A2996",
    "spoken": "two nine point nine six",
    "value": 29.96
  },
  "clouds": [
    {
      "altitude": 5,
      "modifier": null,
      "repr": "FEW005",
      "type": "FEW"
    },
    {
      "altitude": 11,
      "modifier": null,
      "repr": "SCT011",
      "type": "SCT"
    },
    {
      "altitude": 37,
      "modifier": null,
      "repr": "OVC037",
      "type": "OVC"
    }
  ],
  "density_altitude": -501,
  "dewpoint": {
    "repr": "09",
    "spoken": "nine",
    "value": 9
  },
  "flight_rules": "VFR",
  "meta": {
    "stations_updated": "2024-01-01",
    "timestamp": "2024-04-28T09:40:29.369464Z"
  },
  "other": [],
  "pressure_altitude": 130,
  "raw": "KBLI 280853Z AUTO 19005KT 10SM FEW005 SCT011 OVC037 09/09 A2996 RMK AO2 RAE35 SLP154 P0001 60010 T00940089 58001",
  "relative_humidity": 0.9668587106156139,
  "remarks": "RMK AO2 RAE35 SLP154 P0001 60010 T00940089 58001",
  "remarks_info": {
    "codes": [
      {
        "repr": "AO2",
        "value": "Automated with precipitation sensor"
      },
      {
        "repr": "RAE35",
        "value": "Rain ended at :35"
      }
    ],
    "dewpoint_decimal": {
      "repr": "0089",
      "spoken": "eight point nine",
      "value": 8.9
    },
    "maximum_temperature_24": null,
    "maximum_temperature_6": null,
    "minimum_temperature_24": null,
    "minimum_temperature_6": null,
    "precip_24_hours": null,
    "precip_36_hours": {
      "repr": "60010",
      "spoken": "zero point one",
      "value": 0.1
    },
    "precip_hourly": {
      "repr": "P0001",
      "spoken": "zero point zero one",
      "value": 0.01
    },
    "pressure_tendency": {
      "change": 0.1,
      "repr": "58001",
      "tendency": "Steady or increasing, then decreasing"
    },
    "sea_level_pressure": {
      "repr": "SLP154",
      "spoken": "one zero one five point four",
      "value": 1015.4
    },
    "snow_depth": null,
    "sunshine_minutes": null,
    "temperature_decimal": {
      "repr": "0094",
      "spoken": "nine point four",
      "value": 9.4
    }
  },
  "runway_visibility": [],
  "sanitized": "KBLI 280853Z 19005KT 10SM FEW005 SCT011 OVC037 09/09 A2996 RMK AO2 RAE35 SLP154 P0001 60010 T00940089 58001",
  "station": "KBLI",
  "temperature": {
    "repr": "09",
    "spoken": "nine",
    "value": 9
  },
  "time": {
    "dt": "2024-04-28T08:53:00Z",
    "repr": "280853Z"
  },
  "units": {
    "accumulation": "in",
    "altimeter": "inHg",
    "altitude": "ft",
    "temperature": "C",
    "visibility": "sm",
    "wind_speed": "kt"
  },
  "visibility": {
    "repr": "10",
    "spoken": "one zero",
    "value": 10
  },
  "wind_direction": {
    "repr": "190",
    "spoken": "one nine zero",
    "value": 190
  },
  "wind_gust": null,
  "wind_speed": {
    "repr": "05",
    "spoken": "five",
    "value": 5
  },
  "wind_variable_direction": [],
  "wx_codes": []
}
