{
  "altimeter": {
    "repr": "A3042",
    "spoken": "three zero point four two",
    "value": 30.42
  },
  "clouds": [],
  "density_altitude": -3025,
  "dewpoint": {
    "repr": "M14",
    "spoken": "minus one four",
    "value": -14
  },
  "flight_rules": "VFR",
  "meta": {
    "cache-timestamp": "2024-01-15T16:06:03.026000Z",
    "stations_updated": "2023-10-28",
    "timestamp": "2024-01-15T16:06:32.371060Z"
  },
  "other": [],
  "pressure_altitude": -330,
  "raw": "KBLI 151453Z 03003KT 10SM CLR M08/M14 A3042 RMK AO2 SLP313 T10781139 55000",
  "relative_humidity": 0.6157025975487594,
  "remarks": "RMK AO2 SLP313 T10781139 55000",
  "remarks_info": {
    "codes": [
      {
        "repr": "AO2",
        "value": "Automated with precipitation sensor"
      }
    ],
    "dewpoint_decimal": {
      "repr": "1139",
      "spoken": "minus one three point nine",
      "value": -13.9
    },
    "maximum_temperature_24": null,
    "maximum_temperature_6": null,
    "minimum_temperature_24": null,
    "minimum_temperature_6": null,
    "precip_24_hours": null,
    "precip_36_hours": null,
    "precip_hourly": null,
    "pressure_tendency": {
      "change": 0,
      "repr": "55000",
      "tendency": "Decreasing, then increasing"
    },
    "sea_level_pressure": {
      "repr": "SLP313",
      "spoken": "one zero three one point three",
      "value": 1031.3
    },
    "snow_depth": null,
    "sunshine_minutes": null,
    "temperature_decimal": {
      "repr": "1078",
      "spoken": "minus seven point eight",
      "value": -7.8
    }
  },
  "runway_visibility": [],
  "sanitized": "KBLI 151453Z 03003KT 10SM M08/M14 A3042 RMK AO2 SLP313 T10781139 55000",
  "station": "KBLI",
  "temperature": {
    "repr": "M08",
    "spoken": "minus eight",
    "value": -8
  },
  "time": {
    "dt": "2024-01-15T14:53:00Z",
    "repr": "151453Z"
  },
  "units": {
    "accumulation": "in",
    "altimeter": "inHg",
    "altitude": "ft",
    "temperature": "C",
    "visibility": "sm",
    "wind_speed": "kt"
  },
  "visibility": {
    "repr": "10",
    "spoken": "one zero",
    "value": 10
  },
  "wind_direction": {
    "repr": "030",
    "spoken": "zero three zero",
    "value": 30
  },
  "wind_gust": null,
  "wind_speed": {
    "repr": "03",
    "spoken": "three",
    "value": 3
  },
  "wind_variable_direction": [],
  "wx_codes": []
}
