{
  "meta": {
    "timestamp": "2023-05-23T15:40:36.655246Z",
    "stations_updated": "2023-03-11",
    "cache-timestamp": "2023-05-23T15:40:06.652000Z"
  },
  "altimeter": {
    "repr": "A3015",
    "value": 30.15,
    "spoken": "three zero point one five"
  },
  "clouds": [
    {
      "repr": "OVC022",
      "type": "OVC",
      "altitude": 22,
      "modifier": null
    }
  ],
  "flight_rules": "MVFR",
  "other": [],
  "visibility": {
    "repr": "10",
    "value": 10,
    "spoken": "one zero"
  },
  "wind_direction": {
    "repr": "190",
    "value": 190,
    "spoken": "one nine zero"
  },
  "wind_gust": null,
  "wind_speed": {
    "repr": "07",
    "value": 7,
    "spoken": "seven"
  },
  "wx_codes": [],
  "raw": "KBLI 231453Z 19007KT 10SM OVC022 11/08 A3015 RMK AO2 SLP216 T01110083 53003",
  "sanitized": "KBLI 231453Z 19007KT 10SM OVC022 11/08 A3015 RMK AO2 SLP216 T01110083 53003",
  "station": "KBLI",
  "time": {
    "repr": "231453Z",
    "dt": "2023-05-23T14:53:00Z"
  },
  "remarks": "RMK AO2 SLP216 T01110083 53003",
  "dewpoint": {
    "repr": "08",
    "value": 8,
    "spoken": "eight"
  },
  "relative_humidity": 0.8286786978983101,
  "remarks_info": {
    "maximum_temperature_6": null,
    "minimum_temperature_6": null,
    "pressure_tendency": {
      "repr": "53003",
      "tendency": "Decreasing or steady, then increasing",
      "change": 0.3
    },
    "precip_36_hours": null,
    "precip_24_hours": null,
    "sunshine_minutes": null,
    "codes": [
      {
        "repr": "AO2",
        "value": "Automated with precipitation sensor"
      }
    ],
    "dewpoint_decimal": {
      "repr": "0083",
      "value": 8.3,
      "spoken": "eight point three"
    },
    "maximum_temperature_24": null,
    "minimum_temperature_24": null,
    "precip_hourly": null,
    "sea_level_pressure": {
      "repr": "SLP216",
      "value": 1021.6,
      "spoken": "one zero two one point six"
    },
    "snow_depth": null,
    "temperature_decimal": {
      "repr": "0111",
      "value": 11.1,
      "spoken": "one one point one"
    }
  },
  "runway_visibility": [],
  "temperature": {
    "repr": "11",
    "value": 11,
    "spoken": "one one"
  },
  "wind_variable_direction": [],
  "density_altitude": -487,
  "pressure_altitude": -60,
  "units": {
    "accumulation": "in",
    "altimeter": "inHg",
    "altitude": "ft",
    "temperature": "C",
    "visibility": "sm",
    "wind_speed": "kt"
  }
}
