{
  "meta": {
    "timestamp": "2023-06-01T18:40:44.988938Z",
    "stations_updated": "2023-05-30",
    "cache-timestamp": "2023-06-01T18:40:06.531000Z"
  },
  "altimeter": {
    "repr": "A3008",
    "value": 30.08,
    "spoken": "three zero point zero eight"
  },
  "clouds": [
    {
      "repr": "SCT035",
      "type": "SCT",
      "altitude": 35,
      "modifier": null
    }
  ],
  "flight_rules": "VFR",
  "other": [],
  "visibility": {
    "repr": "10",
    "value": 10,
    "spoken": "one zero"
  },
  "wind_direction": {
    "repr": "170",
    "value": 170,
    "spoken": "one seven zero"
  },
  "wind_gust": null,
  "wind_speed": {
    "repr": "07",
    "value": 7,
    "spoken": "seven"
  },
  "wx_codes": [],
  "raw": "KBLI 011753Z 17007KT 140V230 10SM SCT035 15/10 A3008 RMK AO2 SLP194 T01500100 10150 20094 58004",
  "sanitized": "KBLI 011753Z 17007KT 140V230 10SM SCT035 15/10 A3008 RMK AO2 SLP194 T01500100 10150 20094 58004",
  "station": "KBLI",
  "time": {
    "repr": "011753Z",
    "dt": "2023-06-01T17:53:00Z"
  },
  "remarks": "RMK AO2 SLP194 T01500100 10150 20094 58004",
  "dewpoint": {
    "repr": "10",
    "value": 10,
    "spoken": "one zero"
  },
  "relative_humidity": 0.7201490523980751,
  "remarks_info": {
    "maximum_temperature_6": {
      "repr": "10150",
      "value": 15,
      "spoken": "one five point zero"
    },
    "minimum_temperature_6": {
      "repr": "20094",
      "value": 9.4,
      "spoken": "nine point four"
    },
    "pressure_tendency": {
      "repr": "58004",
      "tendency": "Steady or increasing, then decreasing",
      "change": 0.4
    },
    "precip_36_hours": null,
    "precip_24_hours": null,
    "sunshine_minutes": null,
    "codes": [
      {
        "repr": "AO2",
        "value": "Automated with precipitation sensor"
      }
    ],
    "dewpoint_decimal": {
      "repr": "0100",
      "value": 10,
      "spoken": "one zero point zero"
    },
    "maximum_temperature_24": null,
    "minimum_temperature_24": null,
    "precip_hourly": null,
    "sea_level_pressure": {
      "repr": "SLP194",
      "value": 1019.4,
      "spoken": "one zero one nine point four"
    },
    "snow_depth": null,
    "temperature_decimal": {
      "repr": "0150",
      "value": 15,
      "spoken": "one five point zero"
    }
  },
  "runway_visibility": [],
  "temperature": {
    "repr": "15",
    "value": 15,
    "spoken": "one five"
  },
  "wind_variable_direction": [
    {
      "repr": "140",
      "value": 140,
      "spoken": "one four zero"
    },
    {
      "repr": "230",
      "value": 230,
      "spoken": "two three zero"
    }
  ],
  "density_altitude": 51,
  "pressure_altitude": 10,
  "units": {
    "accumulation": "in",
    "altimeter": "inHg",
    "altitude": "ft",
    "temperature": "C",
    "visibility": "sm",
    "wind_speed": "kt"
  }
}
