{
  "meta": {
    "timestamp": "2022-10-15T09:38:13.355673Z",
    "stations_updated": "2022-09-05"
  },
  "altimeter": {
    "repr": "A2999",
    "value": 29.99,
    "spoken": "two nine point nine nine"
  },
  "clouds": [],
  "flight_rules": "VFR",
  "other": [],
  "visibility": {
    "repr": "6",
    "value": 6,
    "spoken": "six"
  },
  "wind_direction": {
    "repr": "000",
    "value": 0,
    "spoken": "zero zero zero"
  },
  "wind_gust": null,
  "wind_speed": {
    "repr": "00",
    "value": 0,
    "spoken": "zero"
  },
  "wx_codes": [
    {
      "repr": "BR",
      "value": "Mist"
    }
  ],
  "raw": "KBLI 150853Z AUTO 00000KT 6SM R16/4500VP6000FT BR CLR 08/08 A2999 RMK AO2 SLP163 T00780078 56002",
  "sanitized": "KBLI 150853Z 00000KT 6SM R16/4500VP6000FT BR 08/08 A2999 RMK AO2 SLP163 T00780078 56002",
  "station": "KBLI",
  "time": {
    "repr": "150853Z",
    "dt": "2022-10-15T08:53:00Z"
  },
  "remarks": "RMK AO2 SLP163 T00780078 56002",
  "dewpoint": {
    "repr": "08",
    "value": 8,
    "spoken": "eight"
  },
  "relative_humidity": 1,
  "remarks_info": {
    "maximum_temperature_6": null,
    "minimum_temperature_6": null,
    "pressure_tendency": {
      "repr": "56002",
      "tendency": "Decreasing, then steady",
      "change": 0.2
    },
    "precip_36_hours": null,
    "precip_24_hours": null,
    "sunshine_minutes": null,
    "codes": [
      {
        "repr": "AO2",
        "value": "Automated with precipitation sensor"
      }
    ],
    "dewpoint_decimal": {
      "repr": "0078",
      "value": 7.8,
      "spoken": "seven point eight"
    },
    "maximum_temperature_24": null,
    "minimum_temperature_24": null,
    "precip_hourly": null,
    "sea_level_pressure": {
      "repr": "SLP163",
      "value": 1016.3,
      "spoken": "one zero one six point three"
    },
    "snow_depth": null,
    "temperature_decimal": {
      "repr": "0078",
      "value": 7.8,
      "spoken": "seven point eight"
    }
  },
  "runway_visibility": [
    {
      "repr": "R16/4500VP6000FT",
      "runway": "16",
      "visibility": null,
      "variable_visibility": [
        {
          "repr": "4500",
          "value": 4500,
          "spoken": "four five hundred"
        },
        {
          "repr": "P6000",
          "value": null,
          "spoken": "greater than six thousand"
        }
      ],
      "trend": null
    }
  ],
  "temperature": {
    "repr": "08",
    "value": 8,
    "spoken": "eight"
  },
  "wind_variable_direction": [],
  "density_altitude": -723,
  "pressure_altitude": 100,
  "units": {
    "accumulation": "in",
    "altimeter": "inHg",
    "altitude": "ft",
    "temperature": "C",
    "visibility": "sm",
    "wind_speed": "kt"
  }
}
