{
  "altimeter": {
    "repr": "A3033",
    "spoken": "three zero point three three",
    "value": 30.33
  },
  "clouds": [
    {
      "altitude": 7,
      "modifier": null,
      "repr": "BKN007",
      "type": "BKN"
    }
  ],
  "density_altitude": -1003,
  "dewpoint": {
    "repr": "07",
    "spoken": "seven",
    "value": 7
  },
  "flight_rules": "IFR",
  "meta": {
    "cache-timestamp": "2024-02-23T20:40:03.758000Z",
    "stations_updated": "2024-01-01",
    "timestamp": "2024-02-23T20:40:26.840832Z"
  },
  "other": [],
  "pressure_altitude": -240,
  "raw": "KBLI 232014Z 00000KT 9SM BKN007 08/07 A3033 RMK AO2 T00830067",
  "relative_humidity": 0.8964857337002037,
  "remarks": "RMK AO2 T00830067",
  "remarks_info": {
    "codes": [
      {
        "repr": "AO2",
        "value": "Automated with precipitation sensor"
      }
    ],
    "dewpoint_decimal": {
      "repr": "0067",
      "spoken": "six point seven",
      "value": 6.7
    },
    "maximum_temperature_24": null,
    "maximum_temperature_6": null,
    "minimum_temperature_24": null,
    "minimum_temperature_6": null,
    "precip_24_hours": null,
    "precip_36_hours": null,
    "precip_hourly": null,
    "pressure_tendency": null,
    "sea_level_pressure": null,
    "snow_depth": null,
    "sunshine_minutes": null,
    "temperature_decimal": {
      "repr": "0083",
      "spoken": "eight point three",
      "value": 8.3
    }
  },
  "runway_visibility": [],
  "sanitized": "KBLI 232014Z 00000KT 9SM BKN007 08/07 A3033 RMK AO2 T00830067",
  "station": "KBLI",
  "temperature": {
    "repr": "08",
    "spoken": "eight",
    "value": 8
  },
  "time": {
    "dt": "2024-02-23T20:14:00Z",
    "repr": "232014Z"
  },
  "units": {
    "accumulation": "in",
    "altimeter": "inHg",
    "altitude": "ft",
    "temperature": "C",
    "visibility": "sm",
    "wind_speed": "kt"
  },
  "visibility": {
    "repr": "9",
    "spoken": "nine",
    "value": 9
  },
  "wind_direction": {
    "repr": "000",
    "spoken": "zero zero zero",
    "value": 0
  },
  "wind_gust": null,
  "wind_speed": {
    "repr": "00",
    "spoken": "zero",
    "value": 0
  },
  "wind_variable_direction": [],
  "wx_codes": []
}
