{
  "meta": {
    "timestamp": "2022-12-19T04:04:50.363916Z",
    "stations_updated": "2022-09-05"
  },
  "altimeter": {
    "repr": "A3009",
    "value": 30.09,
    "spoken": "three zero point zero nine"
  },
  "clouds": [
    {
      "repr": "FEW010",
      "type": "FEW",
      "altitude": 10,
      "modifier": null
    },
    {
      "repr": "SCT040",
      "type": "SCT",
      "altitude": 40,
      "modifier": null
    },
    {
      "repr": "BKN080",
      "type": "BKN",
      "altitude": 80,
      "modifier": null
    }
  ],
  "flight_rules": "VFR",
  "other": [],
  "visibility": {
    "repr": "10",
    "value": 10,
    "spoken": "one zero"
  },
  "wind_direction": {
    "repr": "030",
    "value": 30,
    "spoken": "zero three zero"
  },
  "wind_gust": {
    "repr": "26",
    "value": 26,
    "spoken": "two six"
  },
  "wind_speed": {
    "repr": "16",
    "value": 16,
    "spoken": "one six"
  },
  "wx_codes": [],
  "raw": "KBLI 190353Z 03016G26KT 10SM FEW010 SCT040 BKN080 M07/M14 A3009 RMK AO2 PK WND 03026/0348 SLP199 T10721139 $",
  "sanitized": "KBLI 190353Z 03016G26KT 10SM FEW010 SCT040 BKN080 M07/M14 A3009 RMK AO2 PK WND 03026/0348 SLP199 T10721139 $",
  "station": "KBLI",
  "time": {
    "repr": "190353Z",
    "dt": "2022-12-19T03:53:00Z"
  },
  "remarks": "RMK AO2 PK WND 03026/0348 SLP199 T10721139 $",
  "dewpoint": {
    "repr": "M14",
    "value": -14,
    "spoken": "minus one four"
  },
  "relative_humidity": 0.5878151843580635,
  "remarks_info": {
    "maximum_temperature_6": null,
    "minimum_temperature_6": null,
    "pressure_tendency": null,
    "precip_36_hours": null,
    "precip_24_hours": null,
    "sunshine_minutes": null,
    "codes": [
      {
        "repr": "$",
        "value": "ASOS requires maintenance"
      },
      {
        "repr": "AO2",
        "value": "Automated with precipitation sensor"
      }
    ],
    "dewpoint_decimal": {
      "repr": "1139",
      "value": -13.9,
      "spoken": "minus one three point nine"
    },
    "maximum_temperature_24": null,
    "minimum_temperature_24": null,
    "precip_hourly": null,
    "sea_level_pressure": {
      "repr": "SLP199",
      "value": 1019.9,
      "spoken": "one zero one nine point nine"
    },
    "snow_depth": null,
    "temperature_decimal": {
      "repr": "1072",
      "value": -7.2,
      "spoken": "minus seven point two"
    }
  },
  "runway_visibility": [],
  "temperature": {
    "repr": "M07",
    "value": -7,
    "spoken": "minus seven"
  },
  "wind_variable_direction": [],
  "density_altitude": -2623,
  "pressure_altitude": 0,
  "units": {
    "accumulation": "in",
    "altimeter": "inHg",
    "altitude": "ft",
    "temperature": "C",
    "visibility": "sm",
    "wind_speed": "kt"
  }
}
