{
  "meta": {
    "timestamp": "2022-12-12T14:40:35.445091Z",
    "stations_updated": "2022-09-05"
  },
  "altimeter": {
    "repr": "A3002",
    "value": 30.02,
    "spoken": "three zero point zero two"
  },
  "clouds": [],
  "flight_rules": "MVFR",
  "other": [],
  "visibility": {
    "repr": "3",
    "value": 3,
    "spoken": "three"
  },
  "wind_direction": {
    "repr": "340",
    "value": 340,
    "spoken": "three four zero"
  },
  "wind_gust": null,
  "wind_speed": {
    "repr": "04",
    "value": 4,
    "spoken": "four"
  },
  "wx_codes": [
    {
      "repr": "BR",
      "value": "Mist"
    }
  ],
  "raw": "KBLI 121408Z AUTO 34004KT 3SM R16/3000VP6000FT BR CLR 02/02 A3002 RMK AO2 T00170017",
  "sanitized": "KBLI 121408Z 34004KT 3SM R16/3000VP6000FT BR 02/02 A3002 RMK AO2 T00170017",
  "station": "KBLI",
  "time": {
    "repr": "121408Z",
    "dt": "2022-12-12T14:08:00Z"
  },
  "remarks": "RMK AO2 T00170017",
  "dewpoint": {
    "repr": "02",
    "value": 2,
    "spoken": "two"
  },
  "relative_humidity": 1,
  "remarks_info": {
    "maximum_temperature_6": null,
    "minimum_temperature_6": null,
    "pressure_tendency": null,
    "precip_36_hours": null,
    "precip_24_hours": null,
    "sunshine_minutes": null,
    "codes": [
      {
        "repr": "AO2",
        "value": "Automated with precipitation sensor"
      }
    ],
    "dewpoint_decimal": {
      "repr": "0017",
      "value": 1.7,
      "spoken": "one point seven"
    },
    "maximum_temperature_24": null,
    "minimum_temperature_24": null,
    "precip_hourly": null,
    "sea_level_pressure": null,
    "snow_depth": null,
    "temperature_decimal": {
      "repr": "0017",
      "value": 1.7,
      "spoken": "one point seven"
    }
  },
  "runway_visibility": [
    {
      "repr": "R16/3000VP6000FT",
      "runway": "16",
      "visibility": null,
      "variable_visibility": [
        {
          "repr": "3000",
          "value": 3000,
          "spoken": "three thousand"
        },
        {
          "repr": "P6000",
          "value": null,
          "spoken": "greater than six thousand"
        }
      ],
      "trend": null
    }
  ],
  "temperature": {
    "repr": "02",
    "value": 2,
    "spoken": "two"
  },
  "wind_variable_direction": [],
  "density_altitude": -1485,
  "pressure_altitude": 70,
  "units": {
    "accumulation": "in",
    "altimeter": "inHg",
    "altitude": "ft",
    "temperature": "C",
    "visibility": "sm",
    "wind_speed": "kt"
  }
}
