{
  "meta": {
    "timestamp": "2023-09-30T08:40:36.117523Z",
    "stations_updated": "2023-08-05",
    "cache-timestamp": "2023-09-30T08:40:02.791000Z"
  },
  "altimeter": {
    "repr": "A2998",
    "value": 29.98,
    "spoken": "two nine point nine eight"
  },
  "clouds": [],
  "flight_rules": "MVFR",
  "other": [],
  "visibility": {
    "repr": "3",
    "value": 3,
    "spoken": "three"
  },
  "wind_direction": {
    "repr": "000",
    "value": 0,
    "spoken": "zero zero zero"
  },
  "wind_gust": null,
  "wind_speed": {
    "repr": "00",
    "value": 0,
    "spoken": "zero"
  },
  "wx_codes": [
    {
      "repr": "BR",
      "value": "Mist"
    }
  ],
  "raw": "KBLI 300834Z AUTO 00000KT 3SM R16/1800V4000FT BR CLR 05/05 A2998 RMK AO2 T00500050",
  "sanitized": "KBLI 300834Z 00000KT 3SM R16/1800V4000FT BR 05/05 A2998 RMK AO2 T00500050",
  "station": "KBLI",
  "time": {
    "repr": "300834Z",
    "dt": "2023-09-30T08:34:00Z"
  },
  "remarks": "RMK AO2 T00500050",
  "dewpoint": {
    "repr": "05",
    "value": 5,
    "spoken": "five"
  },
  "relative_humidity": 1,
  "remarks_info": {
    "maximum_temperature_6": null,
    "minimum_temperature_6": null,
    "pressure_tendency": null,
    "precip_36_hours": null,
    "precip_24_hours": null,
    "sunshine_minutes": null,
    "codes": [
      {
        "repr": "AO2",
        "value": "Automated with precipitation sensor"
      }
    ],
    "dewpoint_decimal": {
      "repr": "0050",
      "value": 5,
      "spoken": "five point zero"
    },
    "maximum_temperature_24": null,
    "minimum_temperature_24": null,
    "precip_hourly": null,
    "sea_level_pressure": null,
    "snow_depth": null,
    "temperature_decimal": {
      "repr": "0050",
      "value": 5,
      "spoken": "five point zero"
    }
  },
  "runway_visibility": [
    {
      "repr": "R16/1800V4000FT",
      "runway": "16",
      "visibility": null,
      "variable_visibility": [
        {
          "repr": "1800",
          "value": 1800,
          "spoken": "one eight hundred"
        },
        {
          "repr": "4000",
          "value": 4000,
          "spoken": "four thousand"
        }
      ],
      "trend": null
    }
  ],
  "temperature": {
    "repr": "05",
    "value": 5,
    "spoken": "five"
  },
  "wind_variable_direction": [],
  "density_altitude": -1049,
  "pressure_altitude": 110,
  "units": {
    "accumulation": "in",
    "altimeter": "inHg",
    "altitude": "ft",
    "temperature": "C",
    "visibility": "sm",
    "wind_speed": "kt"
  }
}
