{
  "meta": {
    "timestamp": "2023-01-13T06:31:35.260125Z",
    "stations_updated": "2022-12-27"
  },
  "altimeter": {
    "repr": "A2978",
    "value": 29.78,
    "spoken": "two nine point seven eight"
  },
  "clouds": [
    {
      "repr": "SCT045",
      "type": "SCT",
      "altitude": 45,
      "modifier": null
    },
    {
      "repr": "BKN070",
      "type": "BKN",
      "altitude": 70,
      "modifier": null
    }
  ],
  "flight_rules": "VFR",
  "other": [],
  "visibility": {
    "repr": "10",
    "value": 10,
    "spoken": "one zero"
  },
  "wind_direction": {
    "repr": "150",
    "value": 150,
    "spoken": "one five zero"
  },
  "wind_gust": {
    "repr": "20",
    "value": 20,
    "spoken": "two zero"
  },
  "wind_speed": {
    "repr": "11",
    "value": 11,
    "spoken": "one one"
  },
  "wx_codes": [],
  "raw": "KBLI 130553Z 15011G20KT 10SM SCT045 BKN070 16/09 A2978 RMK AO2 SLP092 60000 T01560094 10156 20100 58004",
  "sanitized": "KBLI 130553Z 15011G20KT 10SM SCT045 BKN070 16/09 A2978 RMK AO2 SLP092 60000 T01560094 10156 20100 58004",
  "station": "KBLI",
  "time": {
    "repr": "130553Z",
    "dt": "2023-01-13T05:53:00Z"
  },
  "remarks": "RMK AO2 SLP092 60000 T01560094 10156 20100 58004",
  "dewpoint": {
    "repr": "09",
    "value": 9,
    "spoken": "nine"
  },
  "relative_humidity": 0.6655714776038613,
  "remarks_info": {
    "maximum_temperature_6": {
      "repr": "10156",
      "value": 15.6,
      "spoken": "one five point six"
    },
    "minimum_temperature_6": {
      "repr": "20100",
      "value": 10,
      "spoken": "one zero point zero"
    },
    "pressure_tendency": {
      "repr": "58004",
      "tendency": "Steady or increasing, then decreasing",
      "change": 0.4
    },
    "precip_36_hours": {
      "repr": "60000",
      "value": 0,
      "spoken": "zero"
    },
    "precip_24_hours": null,
    "sunshine_minutes": null,
    "codes": [
      {
        "repr": "AO2",
        "value": "Automated with precipitation sensor"
      }
    ],
    "dewpoint_decimal": {
      "repr": "0094",
      "value": 9.4,
      "spoken": "nine point four"
    },
    "maximum_temperature_24": null,
    "minimum_temperature_24": null,
    "precip_hourly": null,
    "sea_level_pressure": {
      "repr": "SLP092",
      "value": 1009.2,
      "spoken": "one zero zero nine point two"
    },
    "snow_depth": null,
    "temperature_decimal": {
      "repr": "0156",
      "value": 15.6,
      "spoken": "one five point six"
    }
  },
  "runway_visibility": [],
  "temperature": {
    "repr": "16",
    "value": 16,
    "spoken": "one six"
  },
  "wind_variable_direction": [],
  "density_altitude": 423,
  "pressure_altitude": 310,
  "units": {
    "accumulation": "in",
    "altimeter": "inHg",
    "altitude": "ft",
    "temperature": "C",
    "visibility": "sm",
    "wind_speed": "kt"
  }
}
