{
  "altimeter": {
    "repr": "A2992",
    "spoken": "two nine point nine two",
    "value": 29.92
  },
  "clouds": [
    {
      "altitude": 38,
      "modifier": null,
      "repr": "OVC038",
      "type": "OVC"
    }
  ],
  "density_altitude": -785,
  "dewpoint": {
    "repr": "06",
    "spoken": "six",
    "value": 6
  },
  "flight_rules": "VFR",
  "meta": {
    "cache-timestamp": "2023-12-22T18:40:04.860000Z",
    "stations_updated": "2023-10-28",
    "timestamp": "2023-12-22T18:40:42.049090Z"
  },
  "other": [],
  "pressure_altitude": 170,
  "raw": "KBLI 221753Z 18008G16KT 7SM -RA OVC038 07/06 A2992 RMK AO2 SLP140 P0002 60011 T00670056 10100 20067 53025",
  "relative_humidity": 0.9268723723701822,
  "remarks": "RMK AO2 SLP140 P0002 60011 T00670056 10100 20067 53025",
  "remarks_info": {
    "codes": [
      {
        "repr": "AO2",
        "value": "Automated with precipitation sensor"
      }
    ],
    "dewpoint_decimal": {
      "repr": "0056",
      "spoken": "five point six",
      "value": 5.6
    },
    "maximum_temperature_24": null,
    "maximum_temperature_6": {
      "repr": "10100",
      "spoken": "one zero point zero",
      "value": 10
    },
    "minimum_temperature_24": null,
    "minimum_temperature_6": {
      "repr": "20067",
      "spoken": "six point seven",
      "value": 6.7
    },
    "precip_24_hours": null,
    "precip_36_hours": {
      "repr": "60011",
      "spoken": "zero point one one",
      "value": 0.11
    },
    "precip_hourly": {
      "repr": "P0002",
      "spoken": "zero point zero two",
      "value": 0.02
    },
    "pressure_tendency": {
      "change": 2.5,
      "repr": "53025",
      "tendency": "Decreasing or steady, then increasing"
    },
    "sea_level_pressure": {
      "repr": "SLP140",
      "spoken": "one zero one four point zero",
      "value": 1014
    },
    "snow_depth": null,
    "sunshine_minutes": null,
    "temperature_decimal": {
      "repr": "0067",
      "spoken": "six point seven",
      "value": 6.7
    }
  },
  "runway_visibility": [],
  "sanitized": "KBLI 221753Z 18008G16KT 7SM -RA OVC038 07/06 A2992 RMK AO2 SLP140 P0002 60011 T00670056 10100 20067 53025",
  "station": "KBLI",
  "temperature": {
    "repr": "07",
    "spoken": "seven",
    "value": 7
  },
  "time": {
    "dt": "2023-12-22T17:53:00Z",
    "repr": "221753Z"
  },
  "units": {
    "accumulation": "in",
    "altimeter": "inHg",
    "altitude": "ft",
    "temperature": "C",
    "visibility": "sm",
    "wind_speed": "kt"
  },
  "visibility": {
    "repr": "7",
    "spoken": "seven",
    "value": 7
  },
  "wind_direction": {
    "repr": "180",
    "spoken": "one eight zero",
    "value": 180
  },
  "wind_gust": {
    "repr": "16",
    "spoken": "one six",
    "value": 16
  },
  "wind_speed": {
    "repr": "08",
    "spoken": "eight",
    "value": 8
  },
  "wind_variable_direction": [],
  "wx_codes": [
    {
      "repr": "-RA",
      "value": "Light Rain"
    }
  ]
}
