{
  "altimeter": {
    "repr": "A3008",
    "spoken": "three zero point zero eight",
    "value": 30.08
  },
  "clouds": [],
  "density_altitude": -2949,
  "dewpoint": {
    "repr": "M17",
    "spoken": "minus one seven",
    "value": -17
  },
  "flight_rules": "VFR",
  "meta": {
    "stations_updated": "2023-10-28",
    "timestamp": "2024-01-14T12:53:05.094497Z"
  },
  "other": [],
  "pressure_altitude": 10,
  "raw": "KBLI 141153Z AUTO 36004KT 10SM CLR M10/M17 A3008 RMK AO2 SLP198 T11001172 11089 21111 51025",
  "relative_humidity": 0.556399611808513,
  "remarks": "RMK AO2 SLP198 T11001172 11089 21111 51025",
  "remarks_info": {
    "codes": [
      {
        "repr": "AO2",
        "value": "Automated with precipitation sensor"
      }
    ],
    "dewpoint_decimal": {
      "repr": "1172",
      "spoken": "minus one seven point two",
      "value": -17.2
    },
    "maximum_temperature_24": null,
    "maximum_temperature_6": {
      "repr": "11089",
      "spoken": "minus eight point nine",
      "value": -8.9
    },
    "minimum_temperature_24": null,
    "minimum_temperature_6": {
      "repr": "21111",
      "spoken": "minus one one point one",
      "value": -11.1
    },
    "precip_24_hours": null,
    "precip_36_hours": null,
    "precip_hourly": null,
    "pressure_tendency": {
      "change": 2.5,
      "repr": "51025",
      "tendency": "Increasing, then steady"
    },
    "sea_level_pressure": {
      "repr": "SLP198",
      "spoken": "one zero one nine point eight",
      "value": 1019.8
    },
    "snow_depth": null,
    "sunshine_minutes": null,
    "temperature_decimal": {
      "repr": "1100",
      "spoken": "minus one zero point zero",
      "value": -10
    }
  },
  "runway_visibility": [],
  "sanitized": "KBLI 141153Z 36004KT 10SM M10/M17 A3008 RMK AO2 SLP198 T11001172 11089 21111 51025",
  "station": "KBLI",
  "temperature": {
    "repr": "M10",
    "spoken": "minus one zero",
    "value": -10
  },
  "time": {
    "dt": "2024-01-14T11:53:00Z",
    "repr": "141153Z"
  },
  "units": {
    "accumulation": "in",
    "altimeter": "inHg",
    "altitude": "ft",
    "temperature": "C",
    "visibility": "sm",
    "wind_speed": "kt"
  },
  "visibility": {
    "repr": "10",
    "spoken": "one zero",
    "value": 10
  },
  "wind_direction": {
    "repr": "360",
    "spoken": "three six zero",
    "value": 360
  },
  "wind_gust": null,
  "wind_speed": {
    "repr": "04",
    "spoken": "four",
    "value": 4
  },
  "wind_variable_direction": [],
  "wx_codes": []
}
