{
  "meta": {
    "timestamp": "2023-01-14T07:01:17.442997Z",
    "stations_updated": "2022-12-27"
  },
  "altimeter": {
    "repr": "A2962",
    "value": 29.62,
    "spoken": "two nine point six two"
  },
  "clouds": [
    {
      "repr": "BKN032",
      "type": "BKN",
      "altitude": 32,
      "modifier": null
    },
    {
      "repr": "OVC049",
      "type": "OVC",
      "altitude": 49,
      "modifier": null
    }
  ],
  "flight_rules": "VFR",
  "other": [],
  "visibility": {
    "repr": "9",
    "value": 9,
    "spoken": "nine"
  },
  "wind_direction": {
    "repr": "170",
    "value": 170,
    "spoken": "one seven zero"
  },
  "wind_gust": {
    "repr": "22",
    "value": 22,
    "spoken": "two two"
  },
  "wind_speed": {
    "repr": "12",
    "value": 12,
    "spoken": "one two"
  },
  "wx_codes": [
    {
      "repr": "-RA",
      "value": "Light Rain"
    }
  ],
  "raw": "KBLI 140653Z AUTO 17012G22KT 9SM -RA BKN032 OVC049 12/09 A2962 RMK AO2 SLP035 P0000 T01170089",
  "sanitized": "KBLI 140653Z 17012G22KT 9SM -RA BKN032 OVC049 12/09 A2962 RMK AO2 SLP035 P0000 T01170089",
  "station": "KBLI",
  "time": {
    "repr": "140653Z",
    "dt": "2023-01-14T06:53:00Z"
  },
  "remarks": "RMK AO2 SLP035 P0000 T01170089",
  "dewpoint": {
    "repr": "09",
    "value": 9,
    "spoken": "nine"
  },
  "relative_humidity": 0.8294144771177383,
  "remarks_info": {
    "maximum_temperature_6": null,
    "minimum_temperature_6": null,
    "pressure_tendency": null,
    "precip_36_hours": null,
    "precip_24_hours": null,
    "sunshine_minutes": null,
    "codes": [
      {
        "repr": "AO2",
        "value": "Automated with precipitation sensor"
      },
      {
        "repr": "P0000",
        "value": "Trace amount of rain in the last hour"
      }
    ],
    "dewpoint_decimal": {
      "repr": "0089",
      "value": 8.9,
      "spoken": "eight point nine"
    },
    "maximum_temperature_24": null,
    "minimum_temperature_24": null,
    "precip_hourly": null,
    "sea_level_pressure": {
      "repr": "SLP035",
      "value": 1003.5,
      "spoken": "one zero zero three point five"
    },
    "snow_depth": null,
    "temperature_decimal": {
      "repr": "0117",
      "value": 11.7,
      "spoken": "one one point seven"
    }
  },
  "runway_visibility": [],
  "temperature": {
    "repr": "12",
    "value": 12,
    "spoken": "one two"
  },
  "wind_variable_direction": [],
  "density_altitude": 115,
  "pressure_altitude": 470,
  "units": {
    "accumulation": "in",
    "altimeter": "inHg",
    "altitude": "ft",
    "temperature": "C",
    "visibility": "sm",
    "wind_speed": "kt"
  }
}
