{
  "meta": {
    "timestamp": "2022-12-07T00:28:02.349298Z",
    "stations_updated": "2022-09-05"
  },
  "altimeter": {
    "repr": "A3012",
    "value": 30.12,
    "spoken": "three zero point one two"
  },
  "clouds": [
    {
      "repr": "SCT012",
      "type": "SCT",
      "altitude": 12,
      "modifier": null
    },
    {
      "repr": "OVC020",
      "type": "OVC",
      "altitude": 20,
      "modifier": null
    }
  ],
  "flight_rules": "MVFR",
  "other": [],
  "visibility": {
    "repr": "10",
    "value": 10,
    "spoken": "one zero"
  },
  "wind_direction": {
    "repr": "170",
    "value": 170,
    "spoken": "one seven zero"
  },
  "wind_gust": null,
  "wind_speed": {
    "repr": "04",
    "value": 4,
    "spoken": "four"
  },
  "wx_codes": [
    {
      "repr": "-RA",
      "value": "Light Rain"
    }
  ],
  "raw": "KBLI 062353Z 17004KT 10SM -RA SCT012 OVC020 04/01 A3012 RMK AO2 RAE29B51 SLP207 P0000 60002 T00390011 10044 20006 55000",
  "sanitized": "KBLI 062353Z 17004KT 10SM -RA SCT012 OVC020 04/01 A3012 RMK AO2 RAE29B51 SLP207 P0000 60002 T00390011 10044 20006 55000",
  "station": "KBLI",
  "time": {
    "repr": "062353Z",
    "dt": "2022-12-06T23:53:00Z"
  },
  "remarks": "RMK AO2 RAE29B51 SLP207 P0000 60002 T00390011 10044 20006 55000",
  "dewpoint": {
    "repr": "01",
    "value": 1,
    "spoken": "one"
  },
  "relative_humidity": 0.8194806632025191,
  "remarks_info": {
    "maximum_temperature_6": {
      "repr": "10044",
      "value": 4.4,
      "spoken": "four point four"
    },
    "minimum_temperature_6": {
      "repr": "20006",
      "value": 0.6,
      "spoken": "zero point six"
    },
    "pressure_tendency": {
      "repr": "55000",
      "tendency": "Decreasing, then increasing",
      "change": 0
    },
    "precip_36_hours": {
      "repr": "60002",
      "value": 0.02,
      "spoken": "zero point zero two"
    },
    "precip_24_hours": null,
    "sunshine_minutes": null,
    "codes": [
      {
        "repr": "AO2",
        "value": "Automated with precipitation sensor"
      },
      {
        "repr": "P0000",
        "value": "Trace amount of rain in the last hour"
      }
    ],
    "dewpoint_decimal": {
      "repr": "0011",
      "value": 1.1,
      "spoken": "one point one"
    },
    "maximum_temperature_24": null,
    "minimum_temperature_24": null,
    "precip_hourly": null,
    "sea_level_pressure": {
      "repr": "SLP207",
      "value": 1020.7,
      "spoken": "one zero two zero point seven"
    },
    "snow_depth": null,
    "temperature_decimal": {
      "repr": "0039",
      "value": 3.9,
      "spoken": "three point nine"
    }
  },
  "runway_visibility": [],
  "temperature": {
    "repr": "04",
    "value": 4,
    "spoken": "four"
  },
  "wind_variable_direction": [],
  "density_altitude": -1321,
  "pressure_altitude": -30,
  "units": {
    "accumulation": "in",
    "altimeter": "inHg",
    "altitude": "ft",
    "temperature": "C",
    "visibility": "sm",
    "wind_speed": "kt"
  }
}
