{
  "altimeter": {
    "repr": "A3033",
    "spoken": "three zero point three three",
    "value": 30.33
  },
  "clouds": [],
  "density_altitude": -3595,
  "dewpoint": {
    "repr": "M27",
    "spoken": "minus two seven",
    "value": -27
  },
  "flight_rules": "VFR",
  "meta": {
    "cache-timestamp": "2024-01-12T21:20:05.581000Z",
    "stations_updated": "2023-10-28",
    "timestamp": "2024-01-12T21:20:32.994696Z"
  },
  "other": [],
  "pressure_altitude": -240,
  "raw": "KBLI 122053Z 04025G40KT 10SM CLR M13/M27 A3033 RMK AO2 PK WND 06043/2027 SLP285 T11331267 51005",
  "relative_humidity": 0.3149790009863549,
  "remarks": "RMK AO2 PK WND 06043/2027 SLP285 T11331267 51005",
  "remarks_info": {
    "codes": [
      {
        "repr": "AO2",
        "value": "Automated with precipitation sensor"
      }
    ],
    "dewpoint_decimal": {
      "repr": "1267",
      "spoken": "minus two six point seven",
      "value": -26.7
    },
    "maximum_temperature_24": null,
    "maximum_temperature_6": null,
    "minimum_temperature_24": null,
    "minimum_temperature_6": null,
    "precip_24_hours": null,
    "precip_36_hours": null,
    "precip_hourly": null,
    "pressure_tendency": {
      "change": 0.5,
      "repr": "51005",
      "tendency": "Increasing, then steady"
    },
    "sea_level_pressure": {
      "repr": "SLP285",
      "spoken": "one zero two eight point five",
      "value": 1028.5
    },
    "snow_depth": null,
    "sunshine_minutes": null,
    "temperature_decimal": {
      "repr": "1133",
      "spoken": "minus one three point three",
      "value": -13.3
    }
  },
  "runway_visibility": [],
  "sanitized": "KBLI 122053Z 04025G40KT 10SM M13/M27 A3033 RMK AO2 PK WND 06043/2027 SLP285 T11331267 51005",
  "station": "KBLI",
  "temperature": {
    "repr": "M13",
    "spoken": "minus one three",
    "value": -13
  },
  "time": {
    "dt": "2024-01-12T20:53:00Z",
    "repr": "122053Z"
  },
  "units": {
    "accumulation": "in",
    "altimeter": "inHg",
    "altitude": "ft",
    "temperature": "C",
    "visibility": "sm",
    "wind_speed": "kt"
  },
  "visibility": {
    "repr": "10",
    "spoken": "one zero",
    "value": 10
  },
  "wind_direction": {
    "repr": "040",
    "spoken": "zero four zero",
    "value": 40
  },
  "wind_gust": {
    "repr": "40",
    "spoken": "four zero",
    "value": 40
  },
  "wind_speed": {
    "repr": "25",
    "spoken": "two five",
    "value": 25
  },
  "wind_variable_direction": [],
  "wx_codes": []
}
