{
  "altimeter": {
    "repr": "A3013",
    "spoken": "three zero point one three",
    "value": 30.13
  },
  "clouds": [
    {
      "altitude": 26,
      "modifier": null,
      "repr": "SCT026",
      "type": "SCT"
    },
    {
      "altitude": 60,
      "modifier": null,
      "repr": "SCT060",
      "type": "SCT"
    },
    {
      "altitude": 80,
      "modifier": null,
      "repr": "OVC080",
      "type": "OVC"
    }
  ],
  "density_altitude": -935,
  "dewpoint": {
    "repr": "03",
    "spoken": "three",
    "value": 3
  },
  "flight_rules": "VFR",
  "meta": {
    "stations_updated": "2023-10-28",
    "timestamp": "2024-01-05T21:21:10.872740Z"
  },
  "other": [],
  "pressure_altitude": -40,
  "raw": "KBLI 052053Z 16015G26KT 10SM SCT026 SCT060 OVC080 07/03 A3013 RMK AO2 PK WND 14028/2032 RAB37E49 SLP212 P0000 60002 T00720033 58031",
  "relative_humidity": 0.7624587758529988,
  "remarks": "RMK AO2 PK WND 14028/2032 RAB37E49 SLP212 P0000 60002 T00720033 58031",
  "remarks_info": {
    "codes": [
      {
        "repr": "AO2",
        "value": "Automated with precipitation sensor"
      },
      {
        "repr": "P0000",
        "value": "Trace amount of rain in the last hour"
      }
    ],
    "dewpoint_decimal": {
      "repr": "0033",
      "spoken": "three point three",
      "value": 3.3
    },
    "maximum_temperature_24": null,
    "maximum_temperature_6": null,
    "minimum_temperature_24": null,
    "minimum_temperature_6": null,
    "precip_24_hours": null,
    "precip_36_hours": {
      "repr": "60002",
      "spoken": "zero point zero two",
      "value": 0.02
    },
    "precip_hourly": null,
    "pressure_tendency": {
      "change": 3.1,
      "repr": "58031",
      "tendency": "Steady or increasing, then decreasing"
    },
    "sea_level_pressure": {
      "repr": "SLP212",
      "spoken": "one zero two one point two",
      "value": 1021.2
    },
    "snow_depth": null,
    "sunshine_minutes": null,
    "temperature_decimal": {
      "repr": "0072",
      "spoken": "seven point two",
      "value": 7.2
    }
  },
  "runway_visibility": [],
  "sanitized": "KBLI 052053Z 16015G26KT 10SM SCT026 SCT060 OVC080 07/03 A3013 RMK AO2 PK WND 14028/2032 RAB37E49 SLP212 P0000 60002 T00720033 58031",
  "station": "KBLI",
  "temperature": {
    "repr": "07",
    "spoken": "seven",
    "value": 7
  },
  "time": {
    "dt": "2024-01-05T20:53:00Z",
    "repr": "052053Z"
  },
  "units": {
    "accumulation": "in",
    "altimeter": "inHg",
    "altitude": "ft",
    "temperature": "C",
    "visibility": "sm",
    "wind_speed": "kt"
  },
  "visibility": {
    "repr": "10",
    "spoken": "one zero",
    "value": 10
  },
  "wind_direction": {
    "repr": "160",
    "spoken": "one six zero",
    "value": 160
  },
  "wind_gust": {
    "repr": "26",
    "spoken": "two six",
    "value": 26
  },
  "wind_speed": {
    "repr": "15",
    "spoken": "one five",
    "value": 15
  },
  "wind_variable_direction": [],
  "wx_codes": []
}
