{
  "altimeter": {
    "repr": "A3044",
    "spoken": "three zero point four four",
    "value": 30.44
  },
  "clouds": [
    {
      "altitude": 31,
      "modifier": null,
      "repr": "FEW031",
      "type": "FEW"
    }
  ],
  "density_altitude": -441,
  "dewpoint": {
    "repr": "07",
    "spoken": "seven",
    "value": 7
  },
  "flight_rules": "VFR",
  "meta": {
    "cache-timestamp": "2024-05-08T19:40:04.721000Z",
    "stations_updated": "2024-01-01",
    "timestamp": "2024-05-08T19:40:30.887657Z"
  },
  "other": [],
  "pressure_altitude": -350,
  "raw": "KBLI 081853Z VRB03KT 10SM FEW031 14/07 A3044 RMK AO2 SLP314 T01390067",
  "relative_humidity": 0.6181463723079327,
  "remarks": "RMK AO2 SLP314 T01390067",
  "remarks_info": {
    "codes": [
      {
        "repr": "AO2",
        "value": "Automated with precipitation sensor"
      }
    ],
    "dewpoint_decimal": {
      "repr": "0067",
      "spoken": "six point seven",
      "value": 6.7
    },
    "maximum_temperature_24": null,
    "maximum_temperature_6": null,
    "minimum_temperature_24": null,
    "minimum_temperature_6": null,
    "precip_24_hours": null,
    "precip_36_hours": null,
    "precip_hourly": null,
    "pressure_tendency": null,
    "sea_level_pressure": {
      "repr": "SLP314",
      "spoken": "one zero three one point four",
      "value": 1031.4
    },
    "snow_depth": null,
    "sunshine_minutes": null,
    "temperature_decimal": {
      "repr": "0139",
      "spoken": "one three point nine",
      "value": 13.9
    }
  },
  "runway_visibility": [],
  "sanitized": "KBLI 081853Z VRB03KT 10SM FEW031 14/07 A3044 RMK AO2 SLP314 T01390067",
  "station": "KBLI",
  "temperature": {
    "repr": "14",
    "spoken": "one four",
    "value": 14
  },
  "time": {
    "dt": "2024-05-08T18:53:00Z",
    "repr": "081853Z"
  },
  "units": {
    "accumulation": "in",
    "altimeter": "inHg",
    "altitude": "ft",
    "temperature": "C",
    "visibility": "sm",
    "wind_speed": "kt"
  },
  "visibility": {
    "repr": "10",
    "spoken": "one zero",
    "value": 10
  },
  "wind_direction": {
    "repr": "VRB",
    "spoken": "variable",
    "value": null
  },
  "wind_gust": null,
  "wind_speed": {
    "repr": "03",
    "spoken": "three",
    "value": 3
  },
  "wind_variable_direction": [],
  "wx_codes": []
}
