{
  "altimeter": {
    "repr": "A3022",
    "spoken": "three zero point two two",
    "value": 30.22
  },
  "clouds": [],
  "density_altitude": -2153,
  "dewpoint": {
    "repr": "M03",
    "spoken": "minus three",
    "value": -3
  },
  "flight_rules": "VFR",
  "meta": {
    "cache-timestamp": "2023-10-31T12:40:04.935000Z",
    "stations_updated": "2023-10-28",
    "timestamp": "2023-10-31T12:41:46.213996Z",
    "warning": "Unable to fetch report. This cached data might be out of date. To return an error instead, set ?onfail=error"
  },
  "other": [],
  "pressure_altitude": -130,
  "raw": "KBLI 311153Z AUTO 00000KT 8SM CLR M02/M03 A3022 RMK AO2 SLP243 I1000 I6001 T10221028 10006 21022 58005",
  "relative_humidity": 0.956525227573871,
  "remarks": "RMK AO2 SLP243 I1000 I6001 T10221028 10006 21022 58005",
  "remarks_info": {
    "codes": [
      {
        "repr": "AO2",
        "value": "Automated with precipitation sensor"
      }
    ],
    "dewpoint_decimal": {
      "repr": "1028",
      "spoken": "minus two point eight",
      "value": -2.8
    },
    "maximum_temperature_24": null,
    "maximum_temperature_6": {
      "repr": "10006",
      "spoken": "zero point six",
      "value": 0.6
    },
    "minimum_temperature_24": null,
    "minimum_temperature_6": {
      "repr": "21022",
      "spoken": "minus two point two",
      "value": -2.2
    },
    "precip_24_hours": null,
    "precip_36_hours": null,
    "precip_hourly": null,
    "pressure_tendency": {
      "change": 0.5,
      "repr": "58005",
      "tendency": "Steady or increasing, then decreasing"
    },
    "sea_level_pressure": {
      "repr": "SLP243",
      "spoken": "one zero two four point three",
      "value": 1024.3
    },
    "snow_depth": null,
    "sunshine_minutes": null,
    "temperature_decimal": {
      "repr": "1022",
      "spoken": "minus two point two",
      "value": -2.2
    }
  },
  "runway_visibility": [],
  "sanitized": "KBLI 311153Z 00000KT 8SM M02/M03 A3022 RMK AO2 SLP243 I1000 I6001 T10221028 10006 21022 58005",
  "station": "KBLI",
  "temperature": {
    "repr": "M02",
    "spoken": "minus two",
    "value": -2
  },
  "time": {
    "dt": "2023-10-31T11:53:00Z",
    "repr": "311153Z"
  },
  "units": {
    "accumulation": "in",
    "altimeter": "inHg",
    "altitude": "ft",
    "temperature": "C",
    "visibility": "sm",
    "wind_speed": "kt"
  },
  "visibility": {
    "repr": "8",
    "spoken": "eight",
    "value": 8
  },
  "wind_direction": {
    "repr": "000",
    "spoken": "zero zero zero",
    "value": 0
  },
  "wind_gust": null,
  "wind_speed": {
    "repr": "00",
    "spoken": "zero",
    "value": 0
  },
  "wind_variable_direction": [],
  "wx_codes": []
}
