{
  "meta": {
    "timestamp": "2023-01-30T00:24:53.585794Z",
    "stations_updated": "2023-01-16",
    "cache-timestamp": "2023-01-30T00:24:06.106000Z"
  },
  "altimeter": {
    "repr": "A3048",
    "value": 30.48,
    "spoken": "three zero point four eight"
  },
  "clouds": [],
  "flight_rules": "VFR",
  "other": [],
  "visibility": {
    "repr": "10",
    "value": 10,
    "spoken": "one zero"
  },
  "wind_direction": {
    "repr": "020",
    "value": 20,
    "spoken": "zero two zero"
  },
  "wind_gust": null,
  "wind_speed": {
    "repr": "06",
    "value": 6,
    "spoken": "six"
  },
  "wx_codes": [],
  "raw": "KBLI 292353Z 02006KT 10SM CLR 03/M12 A3048 RMK AO2 SLP333 T00281117 10033 20006 56008",
  "sanitized": "KBLI 292353Z 02006KT 10SM 03/M12 A3048 RMK AO2 SLP333 T00281117 10033 20006 56008",
  "station": "KBLI",
  "time": {
    "repr": "292353Z",
    "dt": "2023-01-29T23:53:00Z"
  },
  "remarks": "RMK AO2 SLP333 T00281117 10033 20006 56008",
  "dewpoint": {
    "repr": "M12",
    "value": -12,
    "spoken": "minus one two"
  },
  "relative_humidity": 0.3352890695037089,
  "remarks_info": {
    "maximum_temperature_6": {
      "repr": "10033",
      "value": 3.3,
      "spoken": "three point three"
    },
    "minimum_temperature_6": {
      "repr": "20006",
      "value": 0.6,
      "spoken": "zero point six"
    },
    "pressure_tendency": {
      "repr": "56008",
      "tendency": "Decreasing, then steady",
      "change": 0.8
    },
    "precip_36_hours": null,
    "precip_24_hours": null,
    "sunshine_minutes": null,
    "codes": [
      {
        "repr": "AO2",
        "value": "Automated with precipitation sensor"
      }
    ],
    "dewpoint_decimal": {
      "repr": "1117",
      "value": -11.7,
      "spoken": "minus one one point seven"
    },
    "maximum_temperature_24": null,
    "minimum_temperature_24": null,
    "precip_hourly": null,
    "sea_level_pressure": {
      "repr": "SLP333",
      "value": 1033.3,
      "spoken": "one zero three three point three"
    },
    "snow_depth": null,
    "temperature_decimal": {
      "repr": "0028",
      "value": 2.8,
      "spoken": "two point eight"
    }
  },
  "runway_visibility": [],
  "temperature": {
    "repr": "03",
    "value": 3,
    "spoken": "three"
  },
  "wind_variable_direction": [],
  "density_altitude": -1813,
  "pressure_altitude": -390,
  "units": {
    "accumulation": "in",
    "altimeter": "inHg",
    "altitude": "ft",
    "temperature": "C",
    "visibility": "sm",
    "wind_speed": "kt"
  }
}
