{
  "meta": {
    "timestamp": "2023-01-29T19:40:42.621099Z",
    "stations_updated": "2023-01-16",
    "cache-timestamp": "2023-01-29T19:40:06.175000Z"
  },
  "altimeter": {
    "repr": "A3054",
    "value": 30.54,
    "spoken": "three zero point five four"
  },
  "clouds": [],
  "flight_rules": "VFR",
  "other": [],
  "visibility": {
    "repr": "10",
    "value": 10,
    "spoken": "one zero"
  },
  "wind_direction": {
    "repr": "040",
    "value": 40,
    "spoken": "zero four zero"
  },
  "wind_gust": {
    "repr": "21",
    "value": 21,
    "spoken": "two one"
  },
  "wind_speed": {
    "repr": "13",
    "value": 13,
    "spoken": "one three"
  },
  "wx_codes": [],
  "raw": "KBLI 291853Z 04013G21KT 10SM CLR 02/M16 A3054 RMK AO2 PK WND 03030/1843 SLP351 T00171156",
  "sanitized": "KBLI 291853Z 04013G21KT 10SM 02/M16 A3054 RMK AO2 PK WND 03030/1843 SLP351 T00171156",
  "station": "KBLI",
  "time": {
    "repr": "291853Z",
    "dt": "2023-01-29T18:53:00Z"
  },
  "remarks": "RMK AO2 PK WND 03030/1843 SLP351 T00171156",
  "dewpoint": {
    "repr": "M16",
    "value": -16,
    "spoken": "minus one six"
  },
  "relative_humidity": 0.2639386333103667,
  "remarks_info": {
    "maximum_temperature_6": null,
    "minimum_temperature_6": null,
    "pressure_tendency": null,
    "precip_36_hours": null,
    "precip_24_hours": null,
    "sunshine_minutes": null,
    "codes": [
      {
        "repr": "AO2",
        "value": "Automated with precipitation sensor"
      }
    ],
    "dewpoint_decimal": {
      "repr": "1156",
      "value": -15.6,
      "spoken": "minus one five point six"
    },
    "maximum_temperature_24": null,
    "minimum_temperature_24": null,
    "precip_hourly": null,
    "sea_level_pressure": {
      "repr": "SLP351",
      "value": 1035.1,
      "spoken": "one zero three five point one"
    },
    "snow_depth": null,
    "temperature_decimal": {
      "repr": "0017",
      "value": 1.7,
      "spoken": "one point seven"
    }
  },
  "runway_visibility": [],
  "temperature": {
    "repr": "02",
    "value": 2,
    "spoken": "two"
  },
  "wind_variable_direction": [],
  "density_altitude": -2005,
  "pressure_altitude": -450,
  "units": {
    "accumulation": "in",
    "altimeter": "inHg",
    "altitude": "ft",
    "temperature": "C",
    "visibility": "sm",
    "wind_speed": "kt"
  }
}
