{
  "meta": {
    "timestamp": "2023-01-15T17:01:22.752178Z",
    "stations_updated": "2022-12-27"
  },
  "altimeter": {
    "repr": "A2931",
    "value": 29.31,
    "spoken": "two nine point three one"
  },
  "clouds": [
    {
      "repr": "OVC100",
      "type": "OVC",
      "altitude": 100,
      "modifier": null
    }
  ],
  "flight_rules": "VFR",
  "other": [],
  "visibility": {
    "repr": "10",
    "value": 10,
    "spoken": "one zero"
  },
  "wind_direction": {
    "repr": "040",
    "value": 40,
    "spoken": "zero four zero"
  },
  "wind_gust": null,
  "wind_speed": {
    "repr": "03",
    "value": 3,
    "spoken": "three"
  },
  "wx_codes": [],
  "raw": "KBLI 151653Z 04003KT 10SM OVC100 04/04 A2931 RMK AO2 SLP932 T00440044",
  "sanitized": "KBLI 151653Z 04003KT 10SM OVC100 04/04 A2931 RMK AO2 SLP932 T00440044",
  "station": "KBLI",
  "time": {
    "repr": "151653Z",
    "dt": "2023-01-15T16:53:00Z"
  },
  "remarks": "RMK AO2 SLP932 T00440044",
  "dewpoint": {
    "repr": "04",
    "value": 4,
    "spoken": "four"
  },
  "relative_humidity": 1,
  "remarks_info": {
    "maximum_temperature_6": null,
    "minimum_temperature_6": null,
    "pressure_tendency": null,
    "precip_36_hours": null,
    "precip_24_hours": null,
    "sunshine_minutes": null,
    "codes": [
      {
        "repr": "AO2",
        "value": "Automated with precipitation sensor"
      }
    ],
    "dewpoint_decimal": {
      "repr": "0044",
      "value": 4.4,
      "spoken": "four point four"
    },
    "maximum_temperature_24": null,
    "minimum_temperature_24": null,
    "precip_hourly": null,
    "sea_level_pressure": {
      "repr": "SLP932",
      "value": 993.2,
      "spoken": "nine nine three point two"
    },
    "snow_depth": null,
    "temperature_decimal": {
      "repr": "0044",
      "value": 4.4,
      "spoken": "four point four"
    }
  },
  "runway_visibility": [],
  "temperature": {
    "repr": "04",
    "value": 4,
    "spoken": "four"
  },
  "wind_variable_direction": [],
  "density_altitude": -451,
  "pressure_altitude": 780,
  "units": {
    "accumulation": "in",
    "altimeter": "inHg",
    "altitude": "ft",
    "temperature": "C",
    "visibility": "sm",
    "wind_speed": "kt"
  }
}
