{
  "altimeter": {
    "repr": "A2962",
    "spoken": "two nine point six two",
    "value": 29.62
  },
  "clouds": [
    {
      "altitude": 47,
      "modifier": null,
      "repr": "SCT047",
      "type": "SCT"
    }
  ],
  "density_altitude": -161,
  "dewpoint": {
    "repr": "04",
    "spoken": "four",
    "value": 4
  },
  "flight_rules": "VFR",
  "meta": {
    "stations_updated": "2024-10-29",
    "timestamp": "2024-11-23T12:12:49.030732Z"
  },
  "other": [],
  "pressure_altitude": 470,
  "raw": "KBLI 231153Z AUTO 15012G18KT 10SM SCT047 09/04 A2962 RMK AO2 SLP036 70006 T00940039 10106 20089 50004",
  "relative_humidity": 0.6850766702695293,
  "remarks": "RMK AO2 SLP036 70006 T00940039 10106 20089 50004",
  "remarks_info": {
    "codes": [
      {
        "repr": "AO2",
        "value": "Automated with precipitation sensor"
      }
    ],
    "dewpoint_decimal": {
      "repr": "0039",
      "spoken": "three point nine",
      "value": 3.9
    },
    "maximum_temperature_24": null,
    "maximum_temperature_6": {
      "repr": "10106",
      "spoken": "one zero point six",
      "value": 10.6
    },
    "minimum_temperature_24": null,
    "minimum_temperature_6": {
      "repr": "20089",
      "spoken": "eight point nine",
      "value": 8.9
    },
    "precip_24_hours": {
      "repr": "70006",
      "spoken": "zero point zero six",
      "value": 0.06
    },
    "precip_36_hours": null,
    "precip_hourly": null,
    "pressure_tendency": {
      "change": 0.4,
      "repr": "50004",
      "tendency": "Increasing, then decreasing"
    },
    "sea_level_pressure": {
      "repr": "SLP036",
      "spoken": "one zero zero three point six",
      "value": 1003.6
    },
    "snow_depth": null,
    "sunshine_minutes": null,
    "temperature_decimal": {
      "repr": "0094",
      "spoken": "nine point four",
      "value": 9.4
    }
  },
  "runway_visibility": [],
  "sanitized": "KBLI 231153Z 15012G18KT 10SM SCT047 09/04 A2962 RMK AO2 SLP036 70006 T00940039 10106 20089 50004",
  "station": "KBLI",
  "temperature": {
    "repr": "09",
    "spoken": "nine",
    "value": 9
  },
  "time": {
    "dt": "2024-11-23T11:53:00Z",
    "repr": "231153Z"
  },
  "units": {
    "accumulation": "in",
    "altimeter": "inHg",
    "altitude": "ft",
    "temperature": "C",
    "visibility": "sm",
    "wind_speed": "kt"
  },
  "visibility": {
    "repr": "10",
    "spoken": "one zero",
    "value": 10
  },
  "wind_direction": {
    "repr": "150",
    "spoken": "one five zero",
    "value": 150
  },
  "wind_gust": {
    "repr": "18",
    "spoken": "one eight",
    "value": 18
  },
  "wind_speed": {
    "repr": "12",
    "spoken": "one two",
    "value": 12
  },
  "wind_variable_direction": [],
  "wx_codes": []
}
