{
  "meta": {
    "timestamp": "2022-08-19T18:41:48.811337Z",
    "stations_updated": "2022-07-17",
    "cache-timestamp": "2022-08-19T18:41:15.218000Z"
  },
  "altimeter": {
    "repr": "A2992",
    "value": 29.92,
    "spoken": "two nine point nine two"
  },
  "clouds": [],
  "flight_rules": "VFR",
  "other": [],
  "visibility": {
    "repr": "10",
    "value": 10,
    "spoken": "one zero"
  },
  "wind_direction": {
    "repr": "190",
    "value": 190,
    "spoken": "one nine zero"
  },
  "wind_gust": null,
  "wind_speed": {
    "repr": "05",
    "value": 5,
    "spoken": "five"
  },
  "wx_codes": [],
  "raw": "KBLI 191753Z 19005KT 10SM CLR 21/18 A2992 RMK AO2 SLP138 T02110178 10217 20200 50003",
  "sanitized": "KBLI 191753Z 19005KT 10SM 21/18 A2992 RMK AO2 SLP138 T02110178 10217 20200 50003",
  "station": "KBLI",
  "time": {
    "repr": "191753Z",
    "dt": "2022-08-19T17:53:00Z"
  },
  "remarks": "RMK AO2 SLP138 T02110178 10217 20200 50003",
  "dewpoint": {
    "repr": "18",
    "value": 18,
    "spoken": "one eight"
  },
  "relative_humidity": 0.8143524211974863,
  "remarks_info": {
    "maximum_temperature_6": {
      "repr": "10217",
      "value": 21.7,
      "spoken": "two one point seven"
    },
    "minimum_temperature_6": {
      "repr": "20200",
      "value": 20,
      "spoken": "two zero point zero"
    },
    "pressure_tendency": {
      "repr": "50003",
      "tendency": "Increasing, then decreasing",
      "change": 0.3
    },
    "precip_36_hours": null,
    "precip_24_hours": null,
    "sunshine_minutes": null,
    "codes": [
      {
        "repr": "AO2",
        "value": "Automated with precipitation sensor"
      }
    ],
    "dewpoint_decimal": {
      "repr": "0178",
      "value": 17.8,
      "spoken": "one seven point eight"
    },
    "maximum_temperature_24": null,
    "minimum_temperature_24": null,
    "precip_hourly": null,
    "sea_level_pressure": {
      "repr": "SLP138",
      "value": 1013.8,
      "spoken": "one zero one three point eight"
    },
    "snow_depth": null,
    "temperature_decimal": {
      "repr": "0211",
      "value": 21.1,
      "spoken": "two one point one"
    }
  },
  "runway_visibility": [],
  "temperature": {
    "repr": "21",
    "value": 21,
    "spoken": "two one"
  },
  "wind_variable_direction": [],
  "density_altitude": 943,
  "pressure_altitude": 170,
  "units": {
    "accumulation": "in",
    "altimeter": "inHg",
    "altitude": "ft",
    "temperature": "C",
    "visibility": "sm",
    "wind_speed": "kt"
  }
}
