{
  "meta": {
    "timestamp": "2023-05-02T08:06:52.036676Z",
    "stations_updated": "2023-03-11",
    "cache-timestamp": "2023-05-02T08:06:06.554000Z"
  },
  "altimeter": {
    "repr": "A2984",
    "value": 29.84,
    "spoken": "two nine point eight four"
  },
  "clouds": [
    {
      "repr": "BKN006",
      "type": "BKN",
      "altitude": 6,
      "modifier": null
    }
  ],
  "flight_rules": "IFR",
  "other": [],
  "visibility": {
    "repr": "5/2",
    "value": 2.5,
    "spoken": "two and one half",
    "numerator": 5,
    "denominator": 2,
    "normalized": "2 1/2"
  },
  "wind_direction": {
    "repr": "000",
    "value": 0,
    "spoken": "zero zero zero"
  },
  "wind_gust": null,
  "wind_speed": {
    "repr": "00",
    "value": 0,
    "spoken": "zero"
  },
  "wx_codes": [
    {
      "repr": "BR",
      "value": "Mist"
    }
  ],
  "raw": "KBLI 020753Z AUTO 00000KT 2 1/2SM BR BKN006 11/11 A2984 RMK AO2 CIG 004V008 SLP110 T01110111 401670094",
  "sanitized": "KBLI 020753Z 00000KT 2 1/2SM BR BKN006 11/11 A2984 RMK AO2 CIG 004V008 SLP110 T01110111 401670094",
  "station": "KBLI",
  "time": {
    "repr": "020753Z",
    "dt": "2023-05-02T07:53:00Z"
  },
  "remarks": "RMK AO2 CIG 004V008 SLP110 T01110111 401670094",
  "dewpoint": {
    "repr": "11",
    "value": 11,
    "spoken": "one one"
  },
  "relative_humidity": 1,
  "remarks_info": {
    "maximum_temperature_6": null,
    "minimum_temperature_6": null,
    "pressure_tendency": null,
    "precip_36_hours": null,
    "precip_24_hours": null,
    "sunshine_minutes": null,
    "codes": [
      {
        "repr": "AO2",
        "value": "Automated with precipitation sensor"
      }
    ],
    "dewpoint_decimal": {
      "repr": "0111",
      "value": 11.1,
      "spoken": "one one point one"
    },
    "maximum_temperature_24": {
      "repr": "0167",
      "value": 16.7,
      "spoken": "one six point seven"
    },
    "minimum_temperature_24": {
      "repr": "0094",
      "value": 9.4,
      "spoken": "nine point four"
    },
    "precip_hourly": null,
    "sea_level_pressure": {
      "repr": "SLP110",
      "value": 1011,
      "spoken": "one zero one one point zero"
    },
    "snow_depth": null,
    "temperature_decimal": {
      "repr": "0111",
      "value": 11.1,
      "spoken": "one one point one"
    }
  },
  "runway_visibility": [],
  "temperature": {
    "repr": "11",
    "value": 11,
    "spoken": "one one"
  },
  "wind_variable_direction": [],
  "density_altitude": -177,
  "pressure_altitude": 250,
  "units": {
    "accumulation": "in",
    "altimeter": "inHg",
    "altitude": "ft",
    "temperature": "C",
    "visibility": "sm",
    "wind_speed": "kt"
  }
}
