{
  "altimeter": {
    "repr": "A3021",
    "spoken": "three zero point two one",
    "value": 30.21
  },
  "clouds": [
    {
      "altitude": 1,
      "modifier": null,
      "repr": "VV001",
      "type": "VV"
    }
  ],
  "density_altitude": -2143,
  "dewpoint": {
    "repr": "M03",
    "spoken": "minus three",
    "value": -3
  },
  "flight_rules": "LIFR",
  "meta": {
    "cache-timestamp": "2023-11-27T10:40:03.773000Z",
    "stations_updated": "2023-10-28",
    "timestamp": "2023-11-27T10:40:31.726621Z"
  },
  "other": [],
  "pressure_altitude": -120,
  "raw": "KBLI 271014Z AUTO 00000KT 1SM R16/3000V4000FT BR VV001 M02/M03 A3021 RMK AO2 T10221028",
  "relative_humidity": 0.956525227573871,
  "remarks": "RMK AO2 T10221028",
  "remarks_info": {
    "codes": [
      {
        "repr": "AO2",
        "value": "Automated with precipitation sensor"
      }
    ],
    "dewpoint_decimal": {
      "repr": "1028",
      "spoken": "minus two point eight",
      "value": -2.8
    },
    "maximum_temperature_24": null,
    "maximum_temperature_6": null,
    "minimum_temperature_24": null,
    "minimum_temperature_6": null,
    "precip_24_hours": null,
    "precip_36_hours": null,
    "precip_hourly": null,
    "pressure_tendency": null,
    "sea_level_pressure": null,
    "snow_depth": null,
    "sunshine_minutes": null,
    "temperature_decimal": {
      "repr": "1022",
      "spoken": "minus two point two",
      "value": -2.2
    }
  },
  "runway_visibility": [
    {
      "repr": "R16/3000V4000FT",
      "runway": "16",
      "trend": null,
      "variable_visibility": [
        {
          "repr": "3000",
          "spoken": "three thousand",
          "value": 3000
        },
        {
          "repr": "4000",
          "spoken": "four thousand",
          "value": 4000
        }
      ],
      "visibility": null
    }
  ],
  "sanitized": "KBLI 271014Z 00000KT 1SM R16/3000V4000FT BR VV001 M02/M03 A3021 RMK AO2 T10221028",
  "station": "KBLI",
  "temperature": {
    "repr": "M02",
    "spoken": "minus two",
    "value": -2
  },
  "time": {
    "dt": "2023-11-27T10:14:00Z",
    "repr": "271014Z"
  },
  "units": {
    "accumulation": "in",
    "altimeter": "inHg",
    "altitude": "ft",
    "temperature": "C",
    "visibility": "sm",
    "wind_speed": "kt"
  },
  "visibility": {
    "repr": "1",
    "spoken": "one",
    "value": 1
  },
  "wind_direction": {
    "repr": "000",
    "spoken": "zero zero zero",
    "value": 0
  },
  "wind_gust": null,
  "wind_speed": {
    "repr": "00",
    "spoken": "zero",
    "value": 0
  },
  "wind_variable_direction": [],
  "wx_codes": [
    {
      "repr": "BR",
      "value": "Mist"
    }
  ]
}
