{
  "meta": {
    "timestamp": "2023-10-22T22:01:19.641077Z",
    "stations_updated": "2023-10-01"
  },
  "altimeter": {
    "repr": "A2990",
    "value": 29.9,
    "spoken": "two nine point nine zero"
  },
  "clouds": [
    {
      "repr": "OVC008",
      "type": "OVC",
      "altitude": 8,
      "modifier": null
    }
  ],
  "flight_rules": "IFR",
  "other": [],
  "visibility": {
    "repr": "10",
    "value": 10,
    "spoken": "one zero"
  },
  "wind_direction": {
    "repr": "230",
    "value": 230,
    "spoken": "two three zero"
  },
  "wind_gust": null,
  "wind_speed": {
    "repr": "05",
    "value": 5,
    "spoken": "five"
  },
  "wx_codes": [],
  "raw": "KBLI 222153Z 23005KT 10SM OVC008 11/09 A2990 RMK AO2 SLP133 T01060094 KBLI 222053Z COR 26004KT 10SM SCT007 OVC012 12/09 A2991 RMK AO2 SLP134 T01170094 58001 KBLI 222019Z 30005KT 10SM SCT008 OVC010 11/09 A2991 RMK AO2 T01110094",
  "sanitized": "KBLI 222153Z 23005KT 10SM OVC008 11/09 A2990 RMK AO2 SLP133 T01060094 KBLI 222053Z COR 26004KT 10SM SCT007 OVC012 12/09 A2991 RMK AO2 SLP134 T01170094 58001 KBLI 222019Z 30005KT 10SM SCT008 OVC010 11/09 A2991 RMK AO2 T01110094",
  "station": "KBLI",
  "time": {
    "repr": "222153Z",
    "dt": "2023-10-22T21:53:00Z"
  },
  "remarks": "RMK AO2 SLP133 T01060094 KBLI 222053Z COR 26004KT 10SM SCT007 OVC012 12/09 A2991 RMK AO2 SLP134 T01170094 58001 KBLI 222019Z 30005KT 10SM SCT008 OVC010 11/09 A2991 RMK AO2 T01110094",
  "dewpoint": {
    "repr": "09",
    "value": 9,
    "spoken": "nine"
  },
  "relative_humidity": 0.8926151927981825,
  "remarks_info": {
    "maximum_temperature_6": null,
    "minimum_temperature_6": null,
    "pressure_tendency": {
      "repr": "58001",
      "tendency": "Steady or increasing, then decreasing",
      "change": 0.1
    },
    "precip_36_hours": null,
    "precip_24_hours": null,
    "sunshine_minutes": null,
    "codes": [
      {
        "repr": "AO2",
        "value": "Automated with precipitation sensor"
      },
      {
        "repr": "AO2",
        "value": "Automated with precipitation sensor"
      },
      {
        "repr": "AO2",
        "value": "Automated with precipitation sensor"
      }
    ],
    "dewpoint_decimal": {
      "repr": "0094",
      "value": 9.4,
      "spoken": "nine point four"
    },
    "maximum_temperature_24": null,
    "minimum_temperature_24": null,
    "precip_hourly": null,
    "sea_level_pressure": {
      "repr": "SLP133",
      "value": 1013.3,
      "spoken": "one zero one three point three"
    },
    "snow_depth": null,
    "temperature_decimal": {
      "repr": "0111",
      "value": 11.1,
      "spoken": "one one point one"
    }
  },
  "runway_visibility": [],
  "temperature": {
    "repr": "11",
    "value": 11,
    "spoken": "one one"
  },
  "wind_variable_direction": [],
  "density_altitude": -237,
  "pressure_altitude": 190,
  "units": {
    "accumulation": "in",
    "altimeter": "inHg",
    "altitude": "ft",
    "temperature": "C",
    "visibility": "sm",
    "wind_speed": "kt"
  }
}
