{
  "meta": {
    "timestamp": "2023-03-22T14:40:55.359431Z",
    "stations_updated": "2023-03-11",
    "cache-timestamp": "2023-03-22T14:40:06.684000Z"
  },
  "altimeter": {
    "repr": "A2980",
    "value": 29.8,
    "spoken": "two nine point eight zero"
  },
  "clouds": [
    {
      "repr": "VV002",
      "type": "VV",
      "altitude": 2,
      "modifier": null
    }
  ],
  "flight_rules": "LIFR",
  "other": [],
  "visibility": {
    "repr": "1/4",
    "value": 0.25,
    "spoken": "one quarter",
    "numerator": 1,
    "denominator": 4,
    "normalized": "1/4"
  },
  "wind_direction": {
    "repr": "000",
    "value": 0,
    "spoken": "zero zero zero"
  },
  "wind_gust": null,
  "wind_speed": {
    "repr": "00",
    "value": 0,
    "spoken": "zero"
  },
  "wx_codes": [
    {
      "repr": "FG",
      "value": "Fog"
    }
  ],
  "raw": "KBLI 221353Z 00000KT 1/4SM R16/1600V2200FT FG VV002 03/03 A2980 RMK AO2 SLP098 T00280028",
  "sanitized": "KBLI 221353Z 00000KT 1/4SM R16/1600V2200FT FG VV002 03/03 A2980 RMK AO2 SLP098 T00280028",
  "station": "KBLI",
  "time": {
    "repr": "221353Z",
    "dt": "2023-03-22T13:53:00Z"
  },
  "remarks": "RMK AO2 SLP098 T00280028",
  "dewpoint": {
    "repr": "03",
    "value": 3,
    "spoken": "three"
  },
  "relative_humidity": 1,
  "remarks_info": {
    "maximum_temperature_6": null,
    "minimum_temperature_6": null,
    "pressure_tendency": null,
    "precip_36_hours": null,
    "precip_24_hours": null,
    "sunshine_minutes": null,
    "codes": [
      {
        "repr": "AO2",
        "value": "Automated with precipitation sensor"
      }
    ],
    "dewpoint_decimal": {
      "repr": "0028",
      "value": 2.8,
      "spoken": "two point eight"
    },
    "maximum_temperature_24": null,
    "minimum_temperature_24": null,
    "precip_hourly": null,
    "sea_level_pressure": {
      "repr": "SLP098",
      "value": 1009.8,
      "spoken": "one zero zero nine point eight"
    },
    "snow_depth": null,
    "temperature_decimal": {
      "repr": "0028",
      "value": 2.8,
      "spoken": "two point eight"
    }
  },
  "runway_visibility": [
    {
      "repr": "R16/1600V2200FT",
      "runway": "16",
      "visibility": null,
      "variable_visibility": [
        {
          "repr": "1600",
          "value": 1600,
          "spoken": "one six hundred"
        },
        {
          "repr": "2200",
          "value": 2200,
          "spoken": "two two hundred"
        }
      ],
      "trend": null
    }
  ],
  "temperature": {
    "repr": "03",
    "value": 3,
    "spoken": "three"
  },
  "wind_variable_direction": [],
  "density_altitude": -1133,
  "pressure_altitude": 290,
  "units": {
    "accumulation": "in",
    "altimeter": "inHg",
    "altitude": "ft",
    "temperature": "C",
    "visibility": "sm",
    "wind_speed": "kt"
  }
}
