{
  "altimeter": {
    "repr": "A2995",
    "spoken": "two nine point nine five",
    "value": 29.95
  },
  "clouds": [
    {
      "altitude": 10,
      "modifier": null,
      "repr": "BKN010",
      "type": "BKN"
    },
    {
      "altitude": 16,
      "modifier": null,
      "repr": "BKN016",
      "type": "BKN"
    }
  ],
  "density_altitude": 445,
  "dewpoint": {
    "repr": "15",
    "spoken": "one five",
    "value": 15
  },
  "flight_rules": "MVFR",
  "meta": {
    "stations_updated": "2024-06-12",
    "timestamp": "2024-09-02T22:29:53.673971Z"
  },
  "other": [],
  "pressure_altitude": 140,
  "raw": "KBLI 022153Z 18005KT 10SM BKN010 BKN016 17/15 A2995 RMK AO2 SLP149 T01720150 $",
  "relative_humidity": 0.8689573115645615,
  "remarks": "RMK AO2 SLP149 T01720150 $",
  "remarks_info": {
    "codes": [
      {
        "repr": "$",
        "value": "ASOS requires maintenance"
      },
      {
        "repr": "AO2",
        "value": "Automated with precipitation sensor"
      }
    ],
    "dewpoint_decimal": {
      "repr": "0150",
      "spoken": "one five point zero",
      "value": 15
    },
    "maximum_temperature_24": null,
    "maximum_temperature_6": null,
    "minimum_temperature_24": null,
    "minimum_temperature_6": null,
    "precip_24_hours": null,
    "precip_36_hours": null,
    "precip_hourly": null,
    "pressure_tendency": null,
    "sea_level_pressure": {
      "repr": "SLP149",
      "spoken": "one zero one four point nine",
      "value": 1014.9
    },
    "snow_depth": null,
    "sunshine_minutes": null,
    "temperature_decimal": {
      "repr": "0172",
      "spoken": "one seven point two",
      "value": 17.2
    }
  },
  "runway_visibility": [],
  "sanitized": "KBLI 022153Z 18005KT 10SM BKN010 BKN016 17/15 A2995 RMK AO2 SLP149 T01720150 $",
  "station": "KBLI",
  "temperature": {
    "repr": "17",
    "spoken": "one seven",
    "value": 17
  },
  "time": {
    "dt": "2024-09-02T21:53:00Z",
    "repr": "022153Z"
  },
  "units": {
    "accumulation": "in",
    "altimeter": "inHg",
    "altitude": "ft",
    "temperature": "C",
    "visibility": "sm",
    "wind_speed": "kt"
  },
  "visibility": {
    "repr": "10",
    "spoken": "one zero",
    "value": 10
  },
  "wind_direction": {
    "repr": "180",
    "spoken": "one eight zero",
    "value": 180
  },
  "wind_gust": null,
  "wind_speed": {
    "repr": "05",
    "spoken": "five",
    "value": 5
  },
  "wind_variable_direction": [],
  "wx_codes": []
}
