{
  "meta": {
    "timestamp": "2023-01-20T08:43:21.618551Z",
    "stations_updated": "2023-01-16"
  },
  "altimeter": {
    "repr": "A3048",
    "value": 30.48,
    "spoken": "three zero point four eight"
  },
  "clouds": [
    {
      "repr": "BKN044",
      "type": "BKN",
      "altitude": 44,
      "modifier": null
    },
    {
      "repr": "OVC120",
      "type": "OVC",
      "altitude": 120,
      "modifier": null
    }
  ],
  "flight_rules": "VFR",
  "other": [],
  "visibility": {
    "repr": "10",
    "value": 10,
    "spoken": "one zero"
  },
  "wind_direction": {
    "repr": "000",
    "value": 0,
    "spoken": "zero zero zero"
  },
  "wind_gust": null,
  "wind_speed": {
    "repr": "00",
    "value": 0,
    "spoken": "zero"
  },
  "wx_codes": [],
  "raw": "KBLI 200753Z AUTO 00000KT 10SM BKN044 OVC120 03/03 A3048 RMK AO2 SLP331 T00280028 400720000",
  "sanitized": "KBLI 200753Z 00000KT 10SM BKN044 OVC120 03/03 A3048 RMK AO2 SLP331 T00280028 400720000",
  "station": "KBLI",
  "time": {
    "repr": "200753Z",
    "dt": "2023-01-20T07:53:00Z"
  },
  "remarks": "RMK AO2 SLP331 T00280028 400720000",
  "dewpoint": {
    "repr": "03",
    "value": 3,
    "spoken": "three"
  },
  "relative_humidity": 1,
  "remarks_info": {
    "maximum_temperature_6": null,
    "minimum_temperature_6": null,
    "pressure_tendency": null,
    "precip_36_hours": null,
    "precip_24_hours": null,
    "sunshine_minutes": null,
    "codes": [
      {
        "repr": "AO2",
        "value": "Automated with precipitation sensor"
      }
    ],
    "dewpoint_decimal": {
      "repr": "0028",
      "value": 2.8,
      "spoken": "two point eight"
    },
    "maximum_temperature_24": {
      "repr": "0072",
      "value": 7.2,
      "spoken": "seven point two"
    },
    "minimum_temperature_24": {
      "repr": "0000",
      "value": 0,
      "spoken": "zero"
    },
    "precip_hourly": null,
    "sea_level_pressure": {
      "repr": "SLP331",
      "value": 1033.1,
      "spoken": "one zero three three point one"
    },
    "snow_depth": null,
    "temperature_decimal": {
      "repr": "0028",
      "value": 2.8,
      "spoken": "two point eight"
    }
  },
  "runway_visibility": [],
  "temperature": {
    "repr": "03",
    "value": 3,
    "spoken": "three"
  },
  "wind_variable_direction": [],
  "density_altitude": -1813,
  "pressure_altitude": -390,
  "units": {
    "accumulation": "in",
    "altimeter": "inHg",
    "altitude": "ft",
    "temperature": "C",
    "visibility": "sm",
    "wind_speed": "kt"
  }
}
