{
  "altimeter": {
    "repr": "A2982",
    "spoken": "two nine point eight two",
    "value": 29.82
  },
  "clouds": [
    {
      "altitude": 50,
      "modifier": null,
      "repr": "BKN050",
      "type": "BKN"
    },
    {
      "altitude": 65,
      "modifier": null,
      "repr": "OVC065",
      "type": "OVC"
    }
  ],
  "density_altitude": -2161,
  "dewpoint": {
    "repr": "M14",
    "spoken": "minus one four",
    "value": -14
  },
  "flight_rules": "VFR",
  "meta": {
    "stations_updated": "2023-10-28",
    "timestamp": "2024-01-11T23:23:57.690374Z"
  },
  "other": [],
  "pressure_altitude": 270,
  "raw": "KBLI 112253Z 03028G46KT 10SM BKN050 OVC065 M06/M14 A2982 RMK AO2 PK WND 03046/2251 UPB07E17 SLP109 P0000 T10561144",
  "relative_humidity": 0.49922310904594935,
  "remarks": "RMK AO2 PK WND 03046/2251 UPB07E17 SLP109 P0000 T10561144",
  "remarks_info": {
    "codes": [
      {
        "repr": "AO2",
        "value": "Automated with precipitation sensor"
      },
      {
        "repr": "P0000",
        "value": "Trace amount of rain in the last hour"
      }
    ],
    "dewpoint_decimal": {
      "repr": "1144",
      "spoken": "minus one four point four",
      "value": -14.4
    },
    "maximum_temperature_24": null,
    "maximum_temperature_6": null,
    "minimum_temperature_24": null,
    "minimum_temperature_6": null,
    "precip_24_hours": null,
    "precip_36_hours": null,
    "precip_hourly": null,
    "pressure_tendency": null,
    "sea_level_pressure": {
      "repr": "SLP109",
      "spoken": "one zero one zero point nine",
      "value": 1010.9
    },
    "snow_depth": null,
    "sunshine_minutes": null,
    "temperature_decimal": {
      "repr": "1056",
      "spoken": "minus five point six",
      "value": -5.6
    }
  },
  "runway_visibility": [],
  "sanitized": "KBLI 112253Z 03028G46KT 10SM BKN050 OVC065 M06/M14 A2982 RMK AO2 PK WND 03046/2251 UPB07E17 SLP109 P0000 T10561144",
  "station": "KBLI",
  "temperature": {
    "repr": "M06",
    "spoken": "minus six",
    "value": -6
  },
  "time": {
    "dt": "2024-01-11T22:53:00Z",
    "repr": "112253Z"
  },
  "units": {
    "accumulation": "in",
    "altimeter": "inHg",
    "altitude": "ft",
    "temperature": "C",
    "visibility": "sm",
    "wind_speed": "kt"
  },
  "visibility": {
    "repr": "10",
    "spoken": "one zero",
    "value": 10
  },
  "wind_direction": {
    "repr": "030",
    "spoken": "zero three zero",
    "value": 30
  },
  "wind_gust": {
    "repr": "46",
    "spoken": "four six",
    "value": 46
  },
  "wind_speed": {
    "repr": "28",
    "spoken": "two eight",
    "value": 28
  },
  "wind_variable_direction": [],
  "wx_codes": []
}
