{
  "meta": {
    "timestamp": "2023-01-25T22:03:11.571296Z",
    "stations_updated": "2023-01-16"
  },
  "altimeter": {
    "repr": "A3070",
    "value": 30.7,
    "spoken": "three zero point seven zero"
  },
  "clouds": [
    {
      "repr": "OVC009",
      "type": "OVC",
      "altitude": 9,
      "modifier": null
    }
  ],
  "flight_rules": "IFR",
  "other": [],
  "visibility": {
    "repr": "10",
    "value": 10,
    "spoken": "one zero"
  },
  "wind_direction": {
    "repr": "300",
    "value": 300,
    "spoken": "three zero zero"
  },
  "wind_gust": null,
  "wind_speed": {
    "repr": "03",
    "value": 3,
    "spoken": "three"
  },
  "wx_codes": [],
  "raw": "KBLI 252153Z 30003KT 10SM OVC009 08/07 A3070 RMK AO2 CIG 006V013 SLP406 T00780072",
  "sanitized": "KBLI 252153Z 30003KT 10SM OVC009 08/07 A3070 RMK AO2 CIG 006V013 SLP406 T00780072",
  "station": "KBLI",
  "time": {
    "repr": "252153Z",
    "dt": "2023-01-25T21:53:00Z"
  },
  "remarks": "RMK AO2 CIG 006V013 SLP406 T00780072",
  "dewpoint": {
    "repr": "07",
    "value": 7,
    "spoken": "seven"
  },
  "relative_humidity": 0.9598512259113078,
  "remarks_info": {
    "maximum_temperature_6": null,
    "minimum_temperature_6": null,
    "pressure_tendency": null,
    "precip_36_hours": null,
    "precip_24_hours": null,
    "sunshine_minutes": null,
    "codes": [
      {
        "repr": "AO2",
        "value": "Automated with precipitation sensor"
      }
    ],
    "dewpoint_decimal": {
      "repr": "0072",
      "value": 7.2,
      "spoken": "seven point two"
    },
    "maximum_temperature_24": null,
    "minimum_temperature_24": null,
    "precip_hourly": null,
    "sea_level_pressure": {
      "repr": "SLP406",
      "value": 1040.6,
      "spoken": "one zero four zero point six"
    },
    "snow_depth": null,
    "temperature_decimal": {
      "repr": "0078",
      "value": 7.8,
      "spoken": "seven point eight"
    }
  },
  "runway_visibility": [],
  "temperature": {
    "repr": "08",
    "value": 8,
    "spoken": "eight"
  },
  "wind_variable_direction": [],
  "density_altitude": -1433,
  "pressure_altitude": -610,
  "units": {
    "accumulation": "in",
    "altimeter": "inHg",
    "altitude": "ft",
    "temperature": "C",
    "visibility": "sm",
    "wind_speed": "kt"
  }
}
