{
  "meta": {
    "timestamp": "2023-03-27T20:40:39.872873Z",
    "stations_updated": "2023-03-11",
    "cache-timestamp": "2023-03-27T20:40:05.651000Z"
  },
  "altimeter": {
    "repr": "A3023",
    "value": 30.23,
    "spoken": "three zero point two three"
  },
  "clouds": [],
  "flight_rules": "VFR",
  "other": [],
  "visibility": {
    "repr": "10",
    "value": 10,
    "spoken": "one zero"
  },
  "wind_direction": {
    "repr": "040",
    "value": 40,
    "spoken": "zero four zero"
  },
  "wind_gust": null,
  "wind_speed": {
    "repr": "08",
    "value": 8,
    "spoken": "eight"
  },
  "wx_codes": [],
  "raw": "KBLI 271953Z 04008KT 360V070 10SM CLR 11/01 A3023 RMK AO2 SLP244 T01110006",
  "sanitized": "KBLI 271953Z 04008KT 360V070 10SM 11/01 A3023 RMK AO2 SLP244 T01110006",
  "station": "KBLI",
  "time": {
    "repr": "271953Z",
    "dt": "2023-03-27T19:53:00Z"
  },
  "remarks": "RMK AO2 SLP244 T01110006",
  "dewpoint": {
    "repr": "01",
    "value": 1,
    "spoken": "one"
  },
  "relative_humidity": 0.48338583447935285,
  "remarks_info": {
    "maximum_temperature_6": null,
    "minimum_temperature_6": null,
    "pressure_tendency": null,
    "precip_36_hours": null,
    "precip_24_hours": null,
    "sunshine_minutes": null,
    "codes": [
      {
        "repr": "AO2",
        "value": "Automated with precipitation sensor"
      }
    ],
    "dewpoint_decimal": {
      "repr": "0006",
      "value": 0.6,
      "spoken": "zero point six"
    },
    "maximum_temperature_24": null,
    "minimum_temperature_24": null,
    "precip_hourly": null,
    "sea_level_pressure": {
      "repr": "SLP244",
      "value": 1024.4,
      "spoken": "one zero two four point four"
    },
    "snow_depth": null,
    "temperature_decimal": {
      "repr": "0111",
      "value": 11.1,
      "spoken": "one one point one"
    }
  },
  "runway_visibility": [],
  "temperature": {
    "repr": "11",
    "value": 11,
    "spoken": "one one"
  },
  "wind_variable_direction": [
    {
      "repr": "360",
      "value": 360,
      "spoken": "three six zero"
    },
    {
      "repr": "070",
      "value": 70,
      "spoken": "zero seven zero"
    }
  ],
  "density_altitude": -567,
  "pressure_altitude": -140,
  "units": {
    "accumulation": "in",
    "altimeter": "inHg",
    "altitude": "ft",
    "temperature": "C",
    "visibility": "sm",
    "wind_speed": "kt"
  }
}
