{
  "altimeter": {
    "repr": "A2981",
    "spoken": "two nine point eight one",
    "value": 29.81
  },
  "clouds": [
    {
      "altitude": 2,
      "modifier": null,
      "repr": "VV002",
      "type": "VV"
    }
  ],
  "density_altitude": -1215,
  "dewpoint": {
    "repr": "02",
    "spoken": "two",
    "value": 2
  },
  "flight_rules": "LIFR",
  "meta": {
    "cache-timestamp": "2024-02-20T09:40:03.014000Z",
    "stations_updated": "2024-01-01",
    "timestamp": "2024-02-20T09:40:36.447211Z"
  },
  "other": [
    "M14KT"
  ],
  "pressure_altitude": 280,
  "raw": "KBLI 200930Z AUTO 00000KT M1/4SM R16/1200V2600FT FG VV002 02/02 A2981 RMK AO2 T00220022",
  "relative_humidity": 1,
  "remarks": "RMK AO2 T00220022",
  "remarks_info": {
    "codes": [
      {
        "repr": "AO2",
        "value": "Automated with precipitation sensor"
      }
    ],
    "dewpoint_decimal": {
      "repr": "0022",
      "spoken": "two point two",
      "value": 2.2
    },
    "maximum_temperature_24": null,
    "maximum_temperature_6": null,
    "minimum_temperature_24": null,
    "minimum_temperature_6": null,
    "precip_24_hours": null,
    "precip_36_hours": null,
    "precip_hourly": null,
    "pressure_tendency": null,
    "sea_level_pressure": null,
    "snow_depth": null,
    "sunshine_minutes": null,
    "temperature_decimal": {
      "repr": "0022",
      "spoken": "two point two",
      "value": 2.2
    }
  },
  "runway_visibility": [
    {
      "repr": "R16/1200V2600FT",
      "runway": "16",
      "trend": null,
      "variable_visibility": [
        {
          "repr": "1200",
          "spoken": "one two hundred",
          "value": 1200
        },
        {
          "repr": "2600",
          "spoken": "two six hundred",
          "value": 2600
        }
      ],
      "visibility": null
    }
  ],
  "sanitized": "KBLI 200930Z 00000KT M14KT R16/1200V2600FT FG VV002 02/02 A2981 RMK AO2 T00220022",
  "station": "KBLI",
  "temperature": {
    "repr": "02",
    "spoken": "two",
    "value": 2
  },
  "time": {
    "dt": "2024-02-20T09:30:00Z",
    "repr": "200930Z"
  },
  "units": {
    "accumulation": "in",
    "altimeter": "inHg",
    "altitude": "ft",
    "temperature": "C",
    "visibility": "sm",
    "wind_speed": "kt"
  },
  "visibility": null,
  "wind_direction": {
    "repr": "000",
    "spoken": "zero zero zero",
    "value": 0
  },
  "wind_gust": null,
  "wind_speed": {
    "repr": "00",
    "spoken": "zero",
    "value": 0
  },
  "wind_variable_direction": [],
  "wx_codes": [
    {
      "repr": "FG",
      "value": "Fog"
    }
  ]
}
