{
  "meta": {
    "timestamp": "2023-03-08T18:44:53.434678Z",
    "stations_updated": "2023-01-30",
    "cache-timestamp": "2023-03-08T18:44:05.439000Z"
  },
  "altimeter": {
    "repr": "A2993",
    "value": 29.93,
    "spoken": "two nine point nine three"
  },
  "clouds": [],
  "flight_rules": "VFR",
  "other": [],
  "visibility": {
    "repr": "10",
    "value": 10,
    "spoken": "one zero"
  },
  "wind_direction": {
    "repr": "170",
    "value": 170,
    "spoken": "one seven zero"
  },
  "wind_gust": null,
  "wind_speed": {
    "repr": "08",
    "value": 8,
    "spoken": "eight"
  },
  "wx_codes": [],
  "raw": "KBLI 081753Z 17008KT 10SM CLR 06/01 A2993 RMK AO2 SLP145 T00560011 10078 21017 53002",
  "sanitized": "KBLI 081753Z 17008KT 10SM 06/01 A2993 RMK AO2 SLP145 T00560011 10078 21017 53002",
  "station": "KBLI",
  "time": {
    "repr": "081753Z",
    "dt": "2023-03-08T17:53:00Z"
  },
  "remarks": "RMK AO2 SLP145 T00560011 10078 21017 53002",
  "dewpoint": {
    "repr": "01",
    "value": 1,
    "spoken": "one"
  },
  "relative_humidity": 0.7277675179367246,
  "remarks_info": {
    "maximum_temperature_6": {
      "repr": "10078",
      "value": 7.8,
      "spoken": "seven point eight"
    },
    "minimum_temperature_6": {
      "repr": "21017",
      "value": -1.7,
      "spoken": "minus one point seven"
    },
    "pressure_tendency": {
      "repr": "53002",
      "tendency": "Decreasing or steady, then increasing",
      "change": 0.2
    },
    "precip_36_hours": null,
    "precip_24_hours": null,
    "sunshine_minutes": null,
    "codes": [
      {
        "repr": "AO2",
        "value": "Automated with precipitation sensor"
      }
    ],
    "dewpoint_decimal": {
      "repr": "0011",
      "value": 1.1,
      "spoken": "one point one"
    },
    "maximum_temperature_24": null,
    "minimum_temperature_24": null,
    "precip_hourly": null,
    "sea_level_pressure": {
      "repr": "SLP145",
      "value": 1014.5,
      "spoken": "one zero one four point five"
    },
    "snow_depth": null,
    "temperature_decimal": {
      "repr": "0056",
      "value": 5.6,
      "spoken": "five point six"
    }
  },
  "runway_visibility": [],
  "temperature": {
    "repr": "06",
    "value": 6,
    "spoken": "six"
  },
  "wind_variable_direction": [],
  "density_altitude": -927,
  "pressure_altitude": 160,
  "units": {
    "accumulation": "in",
    "altimeter": "inHg",
    "altitude": "ft",
    "temperature": "C",
    "visibility": "sm",
    "wind_speed": "kt"
  }
}
