{
  "meta": {
    "timestamp": "2023-10-06T18:40:36.778156Z",
    "stations_updated": "2023-10-01",
    "cache-timestamp": "2023-10-06T18:40:03.669000Z"
  },
  "altimeter": {
    "repr": "A3022",
    "value": 30.22,
    "spoken": "three zero point two two"
  },
  "clouds": [],
  "flight_rules": "VFR",
  "other": [],
  "visibility": {
    "repr": "10",
    "value": 10,
    "spoken": "one zero"
  },
  "wind_direction": {
    "repr": "360",
    "value": 360,
    "spoken": "three six zero"
  },
  "wind_gust": null,
  "wind_speed": {
    "repr": "05",
    "value": 5,
    "spoken": "five"
  },
  "wx_codes": [],
  "raw": "KBLI 061753Z 36005KT 10SM CLR 18/12 A3022 RMK AO2 SLP239 T01780117 10178 20067 58006",
  "sanitized": "KBLI 061753Z 36005KT 10SM 18/12 A3022 RMK AO2 SLP239 T01780117 10178 20067 58006",
  "station": "KBLI",
  "time": {
    "repr": "061753Z",
    "dt": "2023-10-06T17:53:00Z"
  },
  "remarks": "RMK AO2 SLP239 T01780117 10178 20067 58006",
  "dewpoint": {
    "repr": "12",
    "value": 12,
    "spoken": "one two"
  },
  "relative_humidity": 0.6746298554970382,
  "remarks_info": {
    "maximum_temperature_6": {
      "repr": "10178",
      "value": 17.8,
      "spoken": "one seven point eight"
    },
    "minimum_temperature_6": {
      "repr": "20067",
      "value": 6.7,
      "spoken": "six point seven"
    },
    "pressure_tendency": {
      "repr": "58006",
      "tendency": "Steady or increasing, then decreasing",
      "change": 0.6
    },
    "precip_36_hours": null,
    "precip_24_hours": null,
    "sunshine_minutes": null,
    "codes": [
      {
        "repr": "AO2",
        "value": "Automated with precipitation sensor"
      }
    ],
    "dewpoint_decimal": {
      "repr": "0117",
      "value": 11.7,
      "spoken": "one one point seven"
    },
    "maximum_temperature_24": null,
    "minimum_temperature_24": null,
    "precip_hourly": null,
    "sea_level_pressure": {
      "repr": "SLP239",
      "value": 1023.9,
      "spoken": "one zero two three point nine"
    },
    "snow_depth": null,
    "temperature_decimal": {
      "repr": "0178",
      "value": 17.8,
      "spoken": "one seven point eight"
    }
  },
  "runway_visibility": [],
  "temperature": {
    "repr": "18",
    "value": 18,
    "spoken": "one eight"
  },
  "wind_variable_direction": [],
  "density_altitude": 247,
  "pressure_altitude": -130,
  "units": {
    "accumulation": "in",
    "altimeter": "inHg",
    "altitude": "ft",
    "temperature": "C",
    "visibility": "sm",
    "wind_speed": "kt"
  }
}
