{
  "altimeter": {
    "repr": "A2951",
    "spoken": "two nine point five one",
    "value": 29.51
  },
  "clouds": [
    {
      "altitude": 7,
      "modifier": null,
      "repr": "BKN007",
      "type": "BKN"
    },
    {
      "altitude": 23,
      "modifier": null,
      "repr": "OVC023",
      "type": "OVC"
    }
  ],
  "density_altitude": -1383,
  "dewpoint": {
    "repr": "M02",
    "spoken": "minus two",
    "value": -2
  },
  "flight_rules": "IFR",
  "meta": {
    "cache-timestamp": "2024-01-17T13:08:03.690000Z",
    "stations_updated": "2023-10-28",
    "timestamp": "2024-01-17T13:08:22.940832Z"
  },
  "other": [],
  "pressure_altitude": 580,
  "raw": "KBLI 171253Z AUTO 36004KT 1SM R16/P6000FT -SN BR BKN007 OVC023 M02/M02 A2951 RMK AO2 SLP002 P0006 T10171022",
  "relative_humidity": 0.9637998860807256,
  "remarks": "RMK AO2 SLP002 P0006 T10171022",
  "remarks_info": {
    "codes": [
      {
        "repr": "AO2",
        "value": "Automated with precipitation sensor"
      }
    ],
    "dewpoint_decimal": {
      "repr": "1022",
      "spoken": "minus two point two",
      "value": -2.2
    },
    "maximum_temperature_24": null,
    "maximum_temperature_6": null,
    "minimum_temperature_24": null,
    "minimum_temperature_6": null,
    "precip_24_hours": null,
    "precip_36_hours": null,
    "precip_hourly": {
      "repr": "P0006",
      "spoken": "zero point zero six",
      "value": 0.06
    },
    "pressure_tendency": null,
    "sea_level_pressure": {
      "repr": "SLP002",
      "spoken": "one zero zero zero point two",
      "value": 1000.2
    },
    "snow_depth": null,
    "sunshine_minutes": null,
    "temperature_decimal": {
      "repr": "1017",
      "spoken": "minus one point seven",
      "value": -1.7
    }
  },
  "runway_visibility": [
    {
      "repr": "R16/P6000FT",
      "runway": "16",
      "trend": null,
      "variable_visibility": [],
      "visibility": {
        "repr": "P6000",
        "spoken": "greater than six thousand",
        "value": null
      }
    }
  ],
  "sanitized": "KBLI 171253Z 36004KT 1SM R16/P6000FT -SN BR BKN007 OVC023 M02/M02 A2951 RMK AO2 SLP002 P0006 T10171022",
  "station": "KBLI",
  "temperature": {
    "repr": "M02",
    "spoken": "minus two",
    "value": -2
  },
  "time": {
    "dt": "2024-01-17T12:53:00Z",
    "repr": "171253Z"
  },
  "units": {
    "accumulation": "in",
    "altimeter": "inHg",
    "altitude": "ft",
    "temperature": "C",
    "visibility": "sm",
    "wind_speed": "kt"
  },
  "visibility": {
    "repr": "1",
    "spoken": "one",
    "value": 1
  },
  "wind_direction": {
    "repr": "360",
    "spoken": "three six zero",
    "value": 360
  },
  "wind_gust": null,
  "wind_speed": {
    "repr": "04",
    "spoken": "four",
    "value": 4
  },
  "wind_variable_direction": [],
  "wx_codes": [
    {
      "repr": "-SN",
      "value": "Light Snow"
    },
    {
      "repr": "BR",
      "value": "Mist"
    }
  ]
}
