{
  "meta": {
    "timestamp": "2023-05-18T01:50:38.985257Z",
    "stations_updated": "2023-03-11",
    "cache-timestamp": "2023-05-18T01:50:05.563000Z"
  },
  "altimeter": {
    "repr": "A2987",
    "value": 29.87,
    "spoken": "two nine point eight seven"
  },
  "clouds": [],
  "flight_rules": "VFR",
  "other": [],
  "visibility": {
    "repr": "10",
    "value": 10,
    "spoken": "one zero"
  },
  "wind_direction": {
    "repr": "260",
    "value": 260,
    "spoken": "two six zero"
  },
  "wind_gust": null,
  "wind_speed": {
    "repr": "05",
    "value": 5,
    "spoken": "five"
  },
  "wx_codes": [],
  "raw": "KBLI 180053Z 26005KT 10SM CLR 24/15 A2987 RMK AO2 SLP119 T02390150",
  "sanitized": "KBLI 180053Z 26005KT 10SM 24/15 A2987 RMK AO2 SLP119 T02390150",
  "station": "KBLI",
  "time": {
    "repr": "180053Z",
    "dt": "2023-05-18T00:53:00Z"
  },
  "remarks": "RMK AO2 SLP119 T02390150",
  "dewpoint": {
    "repr": "15",
    "value": 15,
    "spoken": "one five"
  },
  "relative_humidity": 0.5746511605575391,
  "remarks_info": {
    "maximum_temperature_6": null,
    "minimum_temperature_6": null,
    "pressure_tendency": null,
    "precip_36_hours": null,
    "precip_24_hours": null,
    "sunshine_minutes": null,
    "codes": [
      {
        "repr": "AO2",
        "value": "Automated with precipitation sensor"
      }
    ],
    "dewpoint_decimal": {
      "repr": "0150",
      "value": 15,
      "spoken": "one five point zero"
    },
    "maximum_temperature_24": null,
    "minimum_temperature_24": null,
    "precip_hourly": null,
    "sea_level_pressure": {
      "repr": "SLP119",
      "value": 1011.9,
      "spoken": "one zero one one point nine"
    },
    "snow_depth": null,
    "temperature_decimal": {
      "repr": "0239",
      "value": 23.9,
      "spoken": "two three point nine"
    }
  },
  "runway_visibility": [],
  "temperature": {
    "repr": "24",
    "value": 24,
    "spoken": "two four"
  },
  "wind_variable_direction": [],
  "density_altitude": 1329,
  "pressure_altitude": 220,
  "units": {
    "accumulation": "in",
    "altimeter": "inHg",
    "altitude": "ft",
    "temperature": "C",
    "visibility": "sm",
    "wind_speed": "kt"
  }
}
