{
  "meta": {
    "timestamp": "2023-03-24T08:28:38.499350Z",
    "stations_updated": "2023-03-11",
    "cache-timestamp": "2023-03-24T08:28:06.215000Z"
  },
  "altimeter": {
    "repr": "A3002",
    "value": 30.02,
    "spoken": "three zero point zero two"
  },
  "clouds": [
    {
      "repr": "FEW021",
      "type": "FEW",
      "altitude": 21,
      "modifier": null
    },
    {
      "repr": "SCT027",
      "type": "SCT",
      "altitude": 27,
      "modifier": null
    },
    {
      "repr": "SCT120",
      "type": "SCT",
      "altitude": 120,
      "modifier": null
    }
  ],
  "flight_rules": "VFR",
  "other": [],
  "visibility": {
    "repr": "10",
    "value": 10,
    "spoken": "one zero"
  },
  "wind_direction": {
    "repr": "190",
    "value": 190,
    "spoken": "one nine zero"
  },
  "wind_gust": null,
  "wind_speed": {
    "repr": "07",
    "value": 7,
    "spoken": "seven"
  },
  "wx_codes": [],
  "raw": "KBLI 240753Z AUTO 19007KT 10SM FEW021 SCT027 SCT120 05/03 A3002 RMK AO2 SLP173 T00500033 401110050",
  "sanitized": "KBLI 240753Z 19007KT 10SM FEW021 SCT027 SCT120 05/03 A3002 RMK AO2 SLP173 T00500033 401110050",
  "station": "KBLI",
  "time": {
    "repr": "240753Z",
    "dt": "2023-03-24T07:53:00Z"
  },
  "remarks": "RMK AO2 SLP173 T00500033 401110050",
  "dewpoint": {
    "repr": "03",
    "value": 3,
    "spoken": "three"
  },
  "relative_humidity": 0.8875725932131937,
  "remarks_info": {
    "maximum_temperature_6": null,
    "minimum_temperature_6": null,
    "pressure_tendency": null,
    "precip_36_hours": null,
    "precip_24_hours": null,
    "sunshine_minutes": null,
    "codes": [
      {
        "repr": "AO2",
        "value": "Automated with precipitation sensor"
      }
    ],
    "dewpoint_decimal": {
      "repr": "0033",
      "value": 3.3,
      "spoken": "three point three"
    },
    "maximum_temperature_24": {
      "repr": "0111",
      "value": 11.1,
      "spoken": "one one point one"
    },
    "minimum_temperature_24": {
      "repr": "0050",
      "value": 5,
      "spoken": "five point zero"
    },
    "precip_hourly": null,
    "sea_level_pressure": {
      "repr": "SLP173",
      "value": 1017.3,
      "spoken": "one zero one seven point three"
    },
    "snow_depth": null,
    "temperature_decimal": {
      "repr": "0050",
      "value": 5,
      "spoken": "five point zero"
    }
  },
  "runway_visibility": [],
  "temperature": {
    "repr": "05",
    "value": 5,
    "spoken": "five"
  },
  "wind_variable_direction": [],
  "density_altitude": -1089,
  "pressure_altitude": 70,
  "units": {
    "accumulation": "in",
    "altimeter": "inHg",
    "altitude": "ft",
    "temperature": "C",
    "visibility": "sm",
    "wind_speed": "kt"
  }
}
