{
  "altimeter": {
    "repr": "A3022",
    "spoken": "three zero point two two",
    "value": 30.22
  },
  "clouds": [
    {
      "altitude": 1,
      "modifier": null,
      "repr": "OVC001",
      "type": "OVC"
    }
  ],
  "density_altitude": -1625,
  "dewpoint": {
    "repr": "02",
    "spoken": "two",
    "value": 2
  },
  "flight_rules": "LIFR",
  "meta": {
    "cache-timestamp": "2024-03-18T14:26:21.876000Z",
    "stations_updated": "2024-01-01",
    "timestamp": "2024-03-18T14:26:57.460172Z"
  },
  "other": [],
  "pressure_altitude": -130,
  "raw": "KBLI 181356Z 00000KT 1 3/4SM R16/1200VP6000FT BR OVC001 02/02 A3022 RMK AO2 T00220017",
  "relative_humidity": 0.9649208694160765,
  "remarks": "RMK AO2 T00220017",
  "remarks_info": {
    "codes": [
      {
        "repr": "AO2",
        "value": "Automated with precipitation sensor"
      }
    ],
    "dewpoint_decimal": {
      "repr": "0017",
      "spoken": "one point seven",
      "value": 1.7
    },
    "maximum_temperature_24": null,
    "maximum_temperature_6": null,
    "minimum_temperature_24": null,
    "minimum_temperature_6": null,
    "precip_24_hours": null,
    "precip_36_hours": null,
    "precip_hourly": null,
    "pressure_tendency": null,
    "sea_level_pressure": null,
    "snow_depth": null,
    "sunshine_minutes": null,
    "temperature_decimal": {
      "repr": "0022",
      "spoken": "two point two",
      "value": 2.2
    }
  },
  "runway_visibility": [
    {
      "repr": "R16/1200VP6000FT",
      "runway": "16",
      "trend": null,
      "variable_visibility": [
        {
          "repr": "1200",
          "spoken": "one two hundred",
          "value": 1200
        },
        {
          "repr": "P6000",
          "spoken": "greater than six thousand",
          "value": null
        }
      ],
      "visibility": null
    }
  ],
  "sanitized": "KBLI 181356Z 00000KT 1 3/4SM R16/1200VP6000FT BR OVC001 02/02 A3022 RMK AO2 T00220017",
  "station": "KBLI",
  "temperature": {
    "repr": "02",
    "spoken": "two",
    "value": 2
  },
  "time": {
    "dt": "2024-03-18T13:56:00Z",
    "repr": "181356Z"
  },
  "units": {
    "accumulation": "in",
    "altimeter": "inHg",
    "altitude": "ft",
    "temperature": "C",
    "visibility": "sm",
    "wind_speed": "kt"
  },
  "visibility": {
    "denominator": 4,
    "normalized": "1 3/4",
    "numerator": 7,
    "repr": "7/4",
    "spoken": "one and three quarters",
    "value": 1.75
  },
  "wind_direction": {
    "repr": "000",
    "spoken": "zero zero zero",
    "value": 0
  },
  "wind_gust": null,
  "wind_speed": {
    "repr": "00",
    "spoken": "zero",
    "value": 0
  },
  "wind_variable_direction": [],
  "wx_codes": [
    {
      "repr": "BR",
      "value": "Mist"
    }
  ]
}
