{
  "meta": {
    "timestamp": "2022-12-04T23:40:33.610133Z",
    "stations_updated": "2022-09-05"
  },
  "altimeter": {
    "repr": "A2997",
    "value": 29.97,
    "spoken": "two nine point nine seven"
  },
  "clouds": [],
  "flight_rules": "VFR",
  "other": [],
  "visibility": {
    "repr": "10",
    "value": 10,
    "spoken": "one zero"
  },
  "wind_direction": {
    "repr": "050",
    "value": 50,
    "spoken": "zero five zero"
  },
  "wind_gust": null,
  "wind_speed": {
    "repr": "06",
    "value": 6,
    "spoken": "six"
  },
  "wx_codes": [],
  "raw": "KBLI 042253Z 05006KT 10SM CLR 03/M10 A2997 RMK AO2 SLP157 T00331100 $",
  "sanitized": "KBLI 042253Z 05006KT 10SM 03/M10 A2997 RMK AO2 SLP157 T00331100 $",
  "station": "KBLI",
  "time": {
    "repr": "042253Z",
    "dt": "2022-12-04T22:53:00Z"
  },
  "remarks": "RMK AO2 SLP157 T00331100 $",
  "dewpoint": {
    "repr": "M10",
    "value": -10,
    "spoken": "minus one zero"
  },
  "relative_humidity": 0.37045866148870726,
  "remarks_info": {
    "maximum_temperature_6": null,
    "minimum_temperature_6": null,
    "pressure_tendency": null,
    "precip_36_hours": null,
    "precip_24_hours": null,
    "sunshine_minutes": null,
    "codes": [
      {
        "repr": "$",
        "value": "ASOS requires maintenance"
      },
      {
        "repr": "AO2",
        "value": "Automated with precipitation sensor"
      }
    ],
    "dewpoint_decimal": {
      "repr": "1100",
      "value": -10,
      "spoken": "minus one zero point zero"
    },
    "maximum_temperature_24": null,
    "minimum_temperature_24": null,
    "precip_hourly": null,
    "sea_level_pressure": {
      "repr": "SLP157",
      "value": 1015.7,
      "spoken": "one zero one five point seven"
    },
    "snow_depth": null,
    "temperature_decimal": {
      "repr": "0033",
      "value": 3.3,
      "spoken": "three point three"
    }
  },
  "runway_visibility": [],
  "temperature": {
    "repr": "03",
    "value": 3,
    "spoken": "three"
  },
  "wind_variable_direction": [],
  "density_altitude": -1243,
  "pressure_altitude": 120,
  "units": {
    "accumulation": "in",
    "altimeter": "inHg",
    "altitude": "ft",
    "temperature": "C",
    "visibility": "sm",
    "wind_speed": "kt"
  }
}
