{
  "meta": {
    "timestamp": "2023-04-04T18:26:40.257123Z",
    "stations_updated": "2023-03-11",
    "cache-timestamp": "2023-04-04T18:26:07.053000Z"
  },
  "altimeter": {
    "repr": "A3017",
    "value": 30.17,
    "spoken": "three zero point one seven"
  },
  "clouds": [
    {
      "repr": "BKN038",
      "type": "BKN",
      "altitude": 38,
      "modifier": null
    }
  ],
  "flight_rules": "VFR",
  "other": [],
  "visibility": {
    "repr": "10",
    "value": 10,
    "spoken": "one zero"
  },
  "wind_direction": {
    "repr": "VRB",
    "value": null,
    "spoken": "variable"
  },
  "wind_gust": null,
  "wind_speed": {
    "repr": "05",
    "value": 5,
    "spoken": "five"
  },
  "wx_codes": [],
  "raw": "KBLI 041753Z VRB05KT 10SM BKN038 06/04 A3017 RMK AO2 SLP223 T00560039 10061 20039 51018",
  "sanitized": "KBLI 041753Z VRB05KT 10SM BKN038 06/04 A3017 RMK AO2 SLP223 T00560039 10061 20039 51018",
  "station": "KBLI",
  "time": {
    "repr": "041753Z",
    "dt": "2023-04-04T17:53:00Z"
  },
  "remarks": "RMK AO2 SLP223 T00560039 10061 20039 51018",
  "dewpoint": {
    "repr": "04",
    "value": 4,
    "spoken": "four"
  },
  "relative_humidity": 0.8880838201753524,
  "remarks_info": {
    "maximum_temperature_6": {
      "repr": "10061",
      "value": 6.1,
      "spoken": "six point one"
    },
    "minimum_temperature_6": {
      "repr": "20039",
      "value": 3.9,
      "spoken": "three point nine"
    },
    "pressure_tendency": {
      "repr": "51018",
      "tendency": "Increasing, then steady",
      "change": 1.8
    },
    "precip_36_hours": null,
    "precip_24_hours": null,
    "sunshine_minutes": null,
    "codes": [
      {
        "repr": "AO2",
        "value": "Automated with precipitation sensor"
      }
    ],
    "dewpoint_decimal": {
      "repr": "0039",
      "value": 3.9,
      "spoken": "three point nine"
    },
    "maximum_temperature_24": null,
    "minimum_temperature_24": null,
    "precip_hourly": null,
    "sea_level_pressure": {
      "repr": "SLP223",
      "value": 1022.3,
      "spoken": "one zero two two point three"
    },
    "snow_depth": null,
    "temperature_decimal": {
      "repr": "0056",
      "value": 5.6,
      "spoken": "five point six"
    }
  },
  "runway_visibility": [],
  "temperature": {
    "repr": "06",
    "value": 6,
    "spoken": "six"
  },
  "wind_variable_direction": [],
  "density_altitude": -1167,
  "pressure_altitude": -80,
  "units": {
    "accumulation": "in",
    "altimeter": "inHg",
    "altitude": "ft",
    "temperature": "C",
    "visibility": "sm",
    "wind_speed": "kt"
  }
}
