{
  "meta": {
    "timestamp": "2022-08-31T20:45:48.037739Z",
    "stations_updated": "2022-07-17"
  },
  "altimeter": {
    "repr": "A2991",
    "value": 29.91,
    "spoken": "two nine point nine one"
  },
  "clouds": [],
  "flight_rules": "VFR",
  "other": [],
  "visibility": {
    "repr": "10",
    "value": 10,
    "spoken": "one zero"
  },
  "wind_direction": {
    "repr": "220",
    "value": 220,
    "spoken": "two two zero"
  },
  "wind_gust": null,
  "wind_speed": {
    "repr": "03",
    "value": 3,
    "spoken": "three"
  },
  "wx_codes": [],
  "raw": "KBLI 311953Z 22003KT 10SM CLR 23/19 A2991 RMK AO2 RAE03B24E37 SLP133 P0001 T02280189",
  "sanitized": "KBLI 311953Z 22003KT 10SM 23/19 A2991 RMK AO2 RAE03B24E37 SLP133 P0001 T02280189",
  "station": "KBLI",
  "time": {
    "repr": "311953Z",
    "dt": "2022-08-31T19:53:00Z"
  },
  "remarks": "RMK AO2 RAE03B24E37 SLP133 P0001 T02280189",
  "dewpoint": {
    "repr": "19",
    "value": 19,
    "spoken": "one nine"
  },
  "relative_humidity": 0.7865174718267653,
  "remarks_info": {
    "maximum_temperature_6": null,
    "minimum_temperature_6": null,
    "pressure_tendency": null,
    "precip_36_hours": null,
    "precip_24_hours": null,
    "sunshine_minutes": null,
    "codes": [
      {
        "repr": "AO2",
        "value": "Automated with precipitation sensor"
      }
    ],
    "dewpoint_decimal": {
      "repr": "0189",
      "value": 18.9,
      "spoken": "one eight point nine"
    },
    "maximum_temperature_24": null,
    "minimum_temperature_24": null,
    "precip_hourly": {
      "repr": "P0001",
      "value": 0.01,
      "spoken": "zero point zero one"
    },
    "sea_level_pressure": {
      "repr": "SLP133",
      "value": 1013.3,
      "spoken": "one zero one three point three"
    },
    "snow_depth": null,
    "temperature_decimal": {
      "repr": "0228",
      "value": 22.8,
      "spoken": "two two point eight"
    }
  },
  "runway_visibility": [],
  "temperature": {
    "repr": "23",
    "value": 23,
    "spoken": "two three"
  },
  "wind_variable_direction": [],
  "density_altitude": 1157,
  "pressure_altitude": 180,
  "units": {
    "accumulation": "in",
    "altimeter": "inHg",
    "altitude": "ft",
    "temperature": "C",
    "visibility": "sm",
    "wind_speed": "kt"
  }
}
