{
  "meta": {
    "timestamp": "2023-02-08T12:09:31.324908Z",
    "stations_updated": "2023-01-30"
  },
  "altimeter": {
    "repr": "A3036",
    "value": 30.36,
    "spoken": "three zero point three six"
  },
  "clouds": [],
  "flight_rules": "VFR",
  "other": [],
  "visibility": {
    "repr": "10",
    "value": 10,
    "spoken": "one zero"
  },
  "wind_direction": {
    "repr": "000",
    "value": 0,
    "spoken": "zero zero zero"
  },
  "wind_gust": null,
  "wind_speed": {
    "repr": "00",
    "value": 0,
    "spoken": "zero"
  },
  "wx_codes": [],
  "raw": "KBLI 081153Z AUTO 00000KT 10SM CLR 03/02 A3036 RMK AO2 SLP288 70012 T00280022 10067 20028 53024",
  "sanitized": "KBLI 081153Z 00000KT 10SM 03/02 A3036 RMK AO2 SLP288 70012 T00280022 10067 20028 53024",
  "station": "KBLI",
  "time": {
    "repr": "081153Z",
    "dt": "2023-02-08T11:53:00Z"
  },
  "remarks": "RMK AO2 SLP288 70012 T00280022 10067 20028 53024",
  "dewpoint": {
    "repr": "02",
    "value": 2,
    "spoken": "two"
  },
  "relative_humidity": 0.958237479247377,
  "remarks_info": {
    "maximum_temperature_6": {
      "repr": "10067",
      "value": 6.7,
      "spoken": "six point seven"
    },
    "minimum_temperature_6": {
      "repr": "20028",
      "value": 2.8,
      "spoken": "two point eight"
    },
    "pressure_tendency": {
      "repr": "53024",
      "tendency": "Decreasing or steady, then increasing",
      "change": 2.4
    },
    "precip_36_hours": null,
    "precip_24_hours": {
      "repr": "70012",
      "value": 0.12,
      "spoken": "zero point one two"
    },
    "sunshine_minutes": null,
    "codes": [
      {
        "repr": "AO2",
        "value": "Automated with precipitation sensor"
      }
    ],
    "dewpoint_decimal": {
      "repr": "0022",
      "value": 2.2,
      "spoken": "two point two"
    },
    "maximum_temperature_24": null,
    "minimum_temperature_24": null,
    "precip_hourly": null,
    "sea_level_pressure": {
      "repr": "SLP288",
      "value": 1028.8,
      "spoken": "one zero two eight point eight"
    },
    "snow_depth": null,
    "temperature_decimal": {
      "repr": "0028",
      "value": 2.8,
      "spoken": "two point eight"
    }
  },
  "runway_visibility": [],
  "temperature": {
    "repr": "03",
    "value": 3,
    "spoken": "three"
  },
  "wind_variable_direction": [],
  "density_altitude": -1693,
  "pressure_altitude": -270,
  "units": {
    "accumulation": "in",
    "altimeter": "inHg",
    "altitude": "ft",
    "temperature": "C",
    "visibility": "sm",
    "wind_speed": "kt"
  }
}
