{
  "meta": {
    "timestamp": "2022-12-15T07:24:42.788836Z",
    "stations_updated": "2022-09-05"
  },
  "altimeter": {
    "repr": "A3051",
    "value": 30.51,
    "spoken": "three zero point five one"
  },
  "clouds": [],
  "flight_rules": "IFR",
  "other": [],
  "visibility": {
    "repr": "5/2",
    "value": 2.5,
    "spoken": "two and one half",
    "numerator": 5,
    "denominator": 2,
    "normalized": "2 1/2"
  },
  "wind_direction": {
    "repr": "000",
    "value": 0,
    "spoken": "zero zero zero"
  },
  "wind_gust": null,
  "wind_speed": {
    "repr": "00",
    "value": 0,
    "spoken": "zero"
  },
  "wx_codes": [
    {
      "repr": "BR",
      "value": "Mist"
    }
  ],
  "raw": "KBLI 150716Z AUTO 00000KT 2 1/2SM BR CLR M01/M01 A3051 RMK AO2 T10111011",
  "sanitized": "KBLI 150716Z 00000KT 2 1/2SM BR M01/M01 A3051 RMK AO2 T10111011",
  "station": "KBLI",
  "time": {
    "repr": "150716Z",
    "dt": "2022-12-15T07:16:00Z"
  },
  "remarks": "RMK AO2 T10111011",
  "dewpoint": {
    "repr": "M01",
    "value": -1,
    "spoken": "minus one"
  },
  "relative_humidity": 1,
  "remarks_info": {
    "maximum_temperature_6": null,
    "minimum_temperature_6": null,
    "pressure_tendency": null,
    "precip_36_hours": null,
    "precip_24_hours": null,
    "sunshine_minutes": null,
    "codes": [
      {
        "repr": "AO2",
        "value": "Automated with precipitation sensor"
      }
    ],
    "dewpoint_decimal": {
      "repr": "1011",
      "value": -1.1,
      "spoken": "minus one point one"
    },
    "maximum_temperature_24": null,
    "minimum_temperature_24": null,
    "precip_hourly": null,
    "sea_level_pressure": null,
    "snow_depth": null,
    "temperature_decimal": {
      "repr": "1011",
      "value": -1.1,
      "spoken": "minus one point one"
    }
  },
  "runway_visibility": [],
  "temperature": {
    "repr": "M01",
    "value": -1,
    "spoken": "minus one"
  },
  "wind_variable_direction": [],
  "density_altitude": -2311,
  "pressure_altitude": -420,
  "units": {
    "accumulation": "in",
    "altimeter": "inHg",
    "altitude": "ft",
    "temperature": "C",
    "visibility": "sm",
    "wind_speed": "kt"
  }
}
