{
  "meta": {
    "timestamp": "2022-12-31T14:01:06.545246Z",
    "stations_updated": "2022-12-27"
  },
  "altimeter": {
    "repr": "A2970",
    "value": 29.7,
    "spoken": "two nine point seven zero"
  },
  "clouds": [
    {
      "repr": "BKN055",
      "type": "BKN",
      "altitude": 55,
      "modifier": null
    },
    {
      "repr": "OVC080",
      "type": "OVC",
      "altitude": 80,
      "modifier": null
    }
  ],
  "flight_rules": "VFR",
  "other": [],
  "visibility": {
    "repr": "10",
    "value": 10,
    "spoken": "one zero"
  },
  "wind_direction": {
    "repr": "VRB",
    "value": null,
    "spoken": "variable"
  },
  "wind_gust": null,
  "wind_speed": {
    "repr": "05",
    "value": 5,
    "spoken": "five"
  },
  "wx_codes": [],
  "raw": "KBLI 311353Z AUTO VRB05KT 10SM BKN055 OVC080 08/06 A2970 RMK AO2 SLP064 T00830061",
  "sanitized": "KBLI 311353Z VRB05KT 10SM BKN055 OVC080 08/06 A2970 RMK AO2 SLP064 T00830061",
  "station": "KBLI",
  "time": {
    "repr": "311353Z",
    "dt": "2022-12-31T13:53:00Z"
  },
  "remarks": "RMK AO2 SLP064 T00830061",
  "dewpoint": {
    "repr": "06",
    "value": 6,
    "spoken": "six"
  },
  "relative_humidity": 0.8601818874011486,
  "remarks_info": {
    "maximum_temperature_6": null,
    "minimum_temperature_6": null,
    "pressure_tendency": null,
    "precip_36_hours": null,
    "precip_24_hours": null,
    "sunshine_minutes": null,
    "codes": [
      {
        "repr": "AO2",
        "value": "Automated with precipitation sensor"
      }
    ],
    "dewpoint_decimal": {
      "repr": "0061",
      "value": 6.1,
      "spoken": "six point one"
    },
    "maximum_temperature_24": null,
    "minimum_temperature_24": null,
    "precip_hourly": null,
    "sea_level_pressure": {
      "repr": "SLP064",
      "value": 1006.4,
      "spoken": "one zero zero six point four"
    },
    "snow_depth": null,
    "temperature_decimal": {
      "repr": "0083",
      "value": 8.3,
      "spoken": "eight point three"
    }
  },
  "runway_visibility": [],
  "temperature": {
    "repr": "08",
    "value": 8,
    "spoken": "eight"
  },
  "wind_variable_direction": [],
  "density_altitude": -373,
  "pressure_altitude": 390,
  "units": {
    "accumulation": "in",
    "altimeter": "inHg",
    "altitude": "ft",
    "temperature": "C",
    "visibility": "sm",
    "wind_speed": "kt"
  }
}
