{
  "meta": {
    "timestamp": "2022-11-23T08:34:01.956448Z",
    "stations_updated": "2022-09-05"
  },
  "altimeter": {
    "repr": "A3017",
    "value": 30.17,
    "spoken": "three zero point one seven"
  },
  "clouds": [
    {
      "repr": "SCT043",
      "type": "SCT",
      "altitude": 43,
      "modifier": null
    },
    {
      "repr": "OVC055",
      "type": "OVC",
      "altitude": 55,
      "modifier": null
    }
  ],
  "flight_rules": "VFR",
  "other": [],
  "visibility": {
    "repr": "10",
    "value": 10,
    "spoken": "one zero"
  },
  "wind_direction": {
    "repr": "140",
    "value": 140,
    "spoken": "one four zero"
  },
  "wind_gust": null,
  "wind_speed": {
    "repr": "03",
    "value": 3,
    "spoken": "three"
  },
  "wx_codes": [],
  "raw": "KBLI 230753Z AUTO 14003KT 10SM SCT043 OVC055 07/07 A3017 RMK AO2 SLP224 T00670067 401110056",
  "sanitized": "KBLI 230753Z 14003KT 10SM SCT043 OVC055 07/07 A3017 RMK AO2 SLP224 T00670067 401110056",
  "station": "KBLI",
  "time": {
    "repr": "230753Z",
    "dt": "2022-11-23T07:53:00Z"
  },
  "remarks": "RMK AO2 SLP224 T00670067 401110056",
  "dewpoint": {
    "repr": "07",
    "value": 7,
    "spoken": "seven"
  },
  "relative_humidity": 1,
  "remarks_info": {
    "maximum_temperature_6": null,
    "minimum_temperature_6": null,
    "pressure_tendency": null,
    "precip_36_hours": null,
    "precip_24_hours": null,
    "sunshine_minutes": null,
    "codes": [
      {
        "repr": "AO2",
        "value": "Automated with precipitation sensor"
      }
    ],
    "dewpoint_decimal": {
      "repr": "0067",
      "value": 6.7,
      "spoken": "six point seven"
    },
    "maximum_temperature_24": {
      "repr": "0111",
      "value": 11.1,
      "spoken": "one one point one"
    },
    "minimum_temperature_24": {
      "repr": "0056",
      "value": 5.6,
      "spoken": "five point six"
    },
    "precip_hourly": null,
    "sea_level_pressure": {
      "repr": "SLP224",
      "value": 1022.4,
      "spoken": "one zero two two point four"
    },
    "snow_depth": null,
    "temperature_decimal": {
      "repr": "0067",
      "value": 6.7,
      "spoken": "six point seven"
    }
  },
  "runway_visibility": [],
  "temperature": {
    "repr": "07",
    "value": 7,
    "spoken": "seven"
  },
  "wind_variable_direction": [],
  "density_altitude": -1035,
  "pressure_altitude": -80,
  "units": {
    "accumulation": "in",
    "altimeter": "inHg",
    "altitude": "ft",
    "temperature": "C",
    "visibility": "sm",
    "wind_speed": "kt"
  }
}
