{
  "altimeter": {
    "repr": "A3010",
    "spoken": "three zero point one zero",
    "value": 30.1
  },
  "clouds": [],
  "density_altitude": 835,
  "dewpoint": {
    "repr": "18",
    "spoken": "one eight",
    "value": 18
  },
  "flight_rules": "VFR",
  "meta": {
    "stations_updated": "2024-06-12",
    "timestamp": "2024-08-02T16:07:01.281059Z"
  },
  "other": [],
  "pressure_altitude": -10,
  "raw": "KBLI 021553Z 00000KT 10SM CLR 22/18 A3010 RMK AO2 SLP198 T02170178",
  "relative_humidity": 0.7849372378536894,
  "remarks": "RMK AO2 SLP198 T02170178",
  "remarks_info": {
    "codes": [
      {
        "repr": "AO2",
        "value": "Automated with precipitation sensor"
      }
    ],
    "dewpoint_decimal": {
      "repr": "0178",
      "spoken": "one seven point eight",
      "value": 17.8
    },
    "maximum_temperature_24": null,
    "maximum_temperature_6": null,
    "minimum_temperature_24": null,
    "minimum_temperature_6": null,
    "precip_24_hours": null,
    "precip_36_hours": null,
    "precip_hourly": null,
    "pressure_tendency": null,
    "sea_level_pressure": {
      "repr": "SLP198",
      "spoken": "one zero one nine point eight",
      "value": 1019.8
    },
    "snow_depth": null,
    "sunshine_minutes": null,
    "temperature_decimal": {
      "repr": "0217",
      "spoken": "two one point seven",
      "value": 21.7
    }
  },
  "runway_visibility": [],
  "sanitized": "KBLI 021553Z 00000KT 10SM 22/18 A3010 RMK AO2 SLP198 T02170178",
  "station": "KBLI",
  "temperature": {
    "repr": "22",
    "spoken": "two two",
    "value": 22
  },
  "time": {
    "dt": "2024-08-02T15:53:00Z",
    "repr": "021553Z"
  },
  "units": {
    "accumulation": "in",
    "altimeter": "inHg",
    "altitude": "ft",
    "temperature": "C",
    "visibility": "sm",
    "wind_speed": "kt"
  },
  "visibility": {
    "repr": "10",
    "spoken": "one zero",
    "value": 10
  },
  "wind_direction": {
    "repr": "000",
    "spoken": "zero zero zero",
    "value": 0
  },
  "wind_gust": null,
  "wind_speed": {
    "repr": "00",
    "spoken": "zero",
    "value": 0
  },
  "wind_variable_direction": [],
  "wx_codes": []
}
