{
  "altimeter": {
    "repr": "A3030",
    "spoken": "three zero point three zero",
    "value": 30.3
  },
  "clouds": [
    {
      "altitude": 37,
      "modifier": null,
      "repr": "FEW037",
      "type": "FEW"
    },
    {
      "altitude": 47,
      "modifier": null,
      "repr": "BKN047",
      "type": "BKN"
    }
  ],
  "density_altitude": -973,
  "dewpoint": {
    "repr": "02",
    "spoken": "two",
    "value": 2
  },
  "flight_rules": "VFR",
  "meta": {
    "cache-timestamp": "2024-04-21T13:40:05.874000Z",
    "stations_updated": "2024-01-01",
    "timestamp": "2024-04-21T13:40:37.651857Z"
  },
  "other": [],
  "pressure_altitude": -210,
  "raw": "KBLI 211253Z AUTO VRB05KT 10SM FEW037 BKN047 08/02 A3030 RMK AO2 SLP268 T00830022",
  "relative_humidity": 0.6542714063389788,
  "remarks": "RMK AO2 SLP268 T00830022",
  "remarks_info": {
    "codes": [
      {
        "repr": "AO2",
        "value": "Automated with precipitation sensor"
      }
    ],
    "dewpoint_decimal": {
      "repr": "0022",
      "spoken": "two point two",
      "value": 2.2
    },
    "maximum_temperature_24": null,
    "maximum_temperature_6": null,
    "minimum_temperature_24": null,
    "minimum_temperature_6": null,
    "precip_24_hours": null,
    "precip_36_hours": null,
    "precip_hourly": null,
    "pressure_tendency": null,
    "sea_level_pressure": {
      "repr": "SLP268",
      "spoken": "one zero two six point eight",
      "value": 1026.8
    },
    "snow_depth": null,
    "sunshine_minutes": null,
    "temperature_decimal": {
      "repr": "0083",
      "spoken": "eight point three",
      "value": 8.3
    }
  },
  "runway_visibility": [],
  "sanitized": "KBLI 211253Z VRB05KT 10SM FEW037 BKN047 08/02 A3030 RMK AO2 SLP268 T00830022",
  "station": "KBLI",
  "temperature": {
    "repr": "08",
    "spoken": "eight",
    "value": 8
  },
  "time": {
    "dt": "2024-04-21T12:53:00Z",
    "repr": "211253Z"
  },
  "units": {
    "accumulation": "in",
    "altimeter": "inHg",
    "altitude": "ft",
    "temperature": "C",
    "visibility": "sm",
    "wind_speed": "kt"
  },
  "visibility": {
    "repr": "10",
    "spoken": "one zero",
    "value": 10
  },
  "wind_direction": {
    "repr": "VRB",
    "spoken": "variable",
    "value": null
  },
  "wind_gust": null,
  "wind_speed": {
    "repr": "05",
    "spoken": "five",
    "value": 5
  },
  "wind_variable_direction": [],
  "wx_codes": []
}
