{
  "altimeter": {
    "repr": "A3000",
    "spoken": "three zero point zero zero",
    "value": 30
  },
  "clouds": [
    {
      "altitude": 4,
      "modifier": null,
      "repr": "SCT004",
      "type": "SCT"
    },
    {
      "altitude": 14,
      "modifier": null,
      "repr": "OVC014",
      "type": "OVC"
    }
  ],
  "density_altitude": -265,
  "dewpoint": {
    "repr": "12",
    "spoken": "one two",
    "value": 12
  },
  "flight_rules": "IFR",
  "meta": {
    "cache-timestamp": "2024-01-28T13:01:29.009000Z",
    "stations_updated": "2023-10-28",
    "timestamp": "2024-01-28T13:01:43.125472Z"
  },
  "other": [],
  "pressure_altitude": 90,
  "raw": "KBLI 281202Z AUTO VRB04KT 1 1/4SM RA BR SCT004 OVC014 12/12 A3000 RMK AO2 P0004 T01170117",
  "relative_humidity": 1,
  "remarks": "RMK AO2 P0004 T01170117",
  "remarks_info": {
    "codes": [
      {
        "repr": "AO2",
        "value": "Automated with precipitation sensor"
      }
    ],
    "dewpoint_decimal": {
      "repr": "0117",
      "spoken": "one one point seven",
      "value": 11.7
    },
    "maximum_temperature_24": null,
    "maximum_temperature_6": null,
    "minimum_temperature_24": null,
    "minimum_temperature_6": null,
    "precip_24_hours": null,
    "precip_36_hours": null,
    "precip_hourly": {
      "repr": "P0004",
      "spoken": "zero point zero four",
      "value": 0.04
    },
    "pressure_tendency": null,
    "sea_level_pressure": null,
    "snow_depth": null,
    "sunshine_minutes": null,
    "temperature_decimal": {
      "repr": "0117",
      "spoken": "one one point seven",
      "value": 11.7
    }
  },
  "runway_visibility": [],
  "sanitized": "KBLI 281202Z VRB04KT 1 1/4SM RA BR SCT004 OVC014 12/12 A3000 RMK AO2 P0004 T01170117",
  "station": "KBLI",
  "temperature": {
    "repr": "12",
    "spoken": "one two",
    "value": 12
  },
  "time": {
    "dt": "2024-01-28T12:02:00Z",
    "repr": "281202Z"
  },
  "units": {
    "accumulation": "in",
    "altimeter": "inHg",
    "altitude": "ft",
    "temperature": "C",
    "visibility": "sm",
    "wind_speed": "kt"
  },
  "visibility": {
    "denominator": 4,
    "normalized": "1 1/4",
    "numerator": 5,
    "repr": "5/4",
    "spoken": "one and one quarter",
    "value": 1.25
  },
  "wind_direction": {
    "repr": "VRB",
    "spoken": "variable",
    "value": null
  },
  "wind_gust": null,
  "wind_speed": {
    "repr": "04",
    "spoken": "four",
    "value": 4
  },
  "wind_variable_direction": [],
  "wx_codes": [
    {
      "repr": "RA",
      "value": "Rain"
    },
    {
      "repr": "BR",
      "value": "Mist"
    }
  ]
}
