{
  "altimeter": {
    "repr": "A3028",
    "spoken": "three zero point two eight",
    "value": 30.28
  },
  "clouds": [],
  "density_altitude": -2549,
  "dewpoint": {
    "repr": "M06",
    "spoken": "minus six",
    "value": -6
  },
  "flight_rules": "VFR",
  "meta": {
    "stations_updated": "2024-12-02",
    "timestamp": "2025-01-28T12:49:08.407714Z"
  },
  "other": [],
  "pressure_altitude": -190,
  "raw": "KBLI 281153Z AUTO 00000KT 9SM CLR M05/M06 A3028 RMK AO2 SLP265 T10501056 11022 21056 58012",
  "relative_humidity": 0.9555203490304921,
  "remarks": "RMK AO2 SLP265 T10501056 11022 21056 58012",
  "remarks_info": {
    "codes": [
      {
        "repr": "AO2",
        "value": "Automated with precipitation sensor"
      }
    ],
    "dewpoint_decimal": {
      "repr": "1056",
      "spoken": "minus five point six",
      "value": -5.6
    },
    "maximum_temperature_24": null,
    "maximum_temperature_6": {
      "repr": "11022",
      "spoken": "minus two point two",
      "value": -2.2
    },
    "minimum_temperature_24": null,
    "minimum_temperature_6": {
      "repr": "21056",
      "spoken": "minus five point six",
      "value": -5.6
    },
    "precip_24_hours": null,
    "precip_36_hours": null,
    "precip_hourly": null,
    "pressure_tendency": {
      "change": 1.2,
      "repr": "58012",
      "tendency": "Steady or increasing, then decreasing"
    },
    "sea_level_pressure": {
      "repr": "SLP265",
      "spoken": "one zero two six point five",
      "value": 1026.5
    },
    "snow_depth": null,
    "sunshine_minutes": null,
    "temperature_decimal": {
      "repr": "1050",
      "spoken": "minus five point zero",
      "value": -5.0
    }
  },
  "runway_visibility": [],
  "sanitized": "KBLI 281153Z 00000KT 9SM M05/M06 A3028 RMK AO2 SLP265 T10501056 11022 21056 58012",
  "station": "KBLI",
  "temperature": {
    "repr": "M05",
    "spoken": "minus five",
    "value": -5
  },
  "time": {
    "dt": "2025-01-28T11:53:00Z",
    "repr": "281153Z"
  },
  "units": {
    "accumulation": "in",
    "altimeter": "inHg",
    "altitude": "ft",
    "temperature": "C",
    "visibility": "sm",
    "wind_speed": "kt"
  },
  "visibility": {
    "repr": "9",
    "spoken": "nine",
    "value": 9
  },
  "wind_direction": {
    "repr": "000",
    "spoken": "zero zero zero",
    "value": 0
  },
  "wind_gust": null,
  "wind_speed": {
    "repr": "00",
    "spoken": "zero",
    "value": 0
  },
  "wind_variable_direction": [],
  "wx_codes": []
}
