{
  "meta": {
    "timestamp": "2023-10-20T10:40:46.938746Z",
    "stations_updated": "2023-10-01",
    "cache-timestamp": "2023-10-20T10:40:03.713000Z"
  },
  "altimeter": {
    "repr": "A3006",
    "value": 30.06,
    "spoken": "three zero point zero six"
  },
  "clouds": [
    {
      "repr": "OVC001",
      "type": "OVC",
      "altitude": 1,
      "modifier": null
    }
  ],
  "flight_rules": "LIFR",
  "other": [],
  "visibility": {
    "repr": "1/2",
    "value": 0.5,
    "spoken": "one half",
    "numerator": 1,
    "denominator": 2,
    "normalized": "1/2"
  },
  "wind_direction": {
    "repr": "240",
    "value": 240,
    "spoken": "two four zero"
  },
  "wind_gust": null,
  "wind_speed": {
    "repr": "03",
    "value": 3,
    "spoken": "three"
  },
  "wx_codes": [
    {
      "repr": "FG",
      "value": "Fog"
    }
  ],
  "raw": "KBLI 201016Z AUTO 24003KT 1/2SM R16/2800V3500FT FG OVC001 12/12 A3006 RMK AO2 T01220122",
  "sanitized": "KBLI 201016Z 24003KT 1/2SM R16/2800V3500FT FG OVC001 12/12 A3006 RMK AO2 T01220122",
  "station": "KBLI",
  "time": {
    "repr": "201016Z",
    "dt": "2023-10-20T10:16:00Z"
  },
  "remarks": "RMK AO2 T01220122",
  "dewpoint": {
    "repr": "12",
    "value": 12,
    "spoken": "one two"
  },
  "relative_humidity": 1,
  "remarks_info": {
    "maximum_temperature_6": null,
    "minimum_temperature_6": null,
    "pressure_tendency": null,
    "precip_36_hours": null,
    "precip_24_hours": null,
    "sunshine_minutes": null,
    "codes": [
      {
        "repr": "AO2",
        "value": "Automated with precipitation sensor"
      }
    ],
    "dewpoint_decimal": {
      "repr": "0122",
      "value": 12.2,
      "spoken": "one two point two"
    },
    "maximum_temperature_24": null,
    "minimum_temperature_24": null,
    "precip_hourly": null,
    "sea_level_pressure": null,
    "snow_depth": null,
    "temperature_decimal": {
      "repr": "0122",
      "value": 12.2,
      "spoken": "one two point two"
    }
  },
  "runway_visibility": [
    {
      "repr": "R16/2800V3500FT",
      "runway": "16",
      "visibility": null,
      "variable_visibility": [
        {
          "repr": "2800",
          "value": 2800,
          "spoken": "two eight hundred"
        },
        {
          "repr": "3500",
          "value": 3500,
          "spoken": "three five hundred"
        }
      ],
      "trend": null
    }
  ],
  "temperature": {
    "repr": "12",
    "value": 12,
    "spoken": "one two"
  },
  "wind_variable_direction": [],
  "density_altitude": -265,
  "pressure_altitude": 30,
  "units": {
    "accumulation": "in",
    "altimeter": "inHg",
    "altitude": "ft",
    "temperature": "C",
    "visibility": "sm",
    "wind_speed": "kt"
  }
}
