{
  "meta": {
    "timestamp": "2023-03-01T18:32:41.673241Z",
    "stations_updated": "2023-01-30"
  },
  "altimeter": {
    "repr": "A3004",
    "value": 30.04,
    "spoken": "three zero point zero four"
  },
  "clouds": [
    {
      "repr": "SCT018",
      "type": "SCT",
      "altitude": 18,
      "modifier": null
    },
    {
      "repr": "OVC060",
      "type": "OVC",
      "altitude": 60,
      "modifier": null
    }
  ],
  "flight_rules": "VFR",
  "other": [],
  "visibility": {
    "repr": "10",
    "value": 10,
    "spoken": "one zero"
  },
  "wind_direction": {
    "repr": "190",
    "value": 190,
    "spoken": "one nine zero"
  },
  "wind_gust": null,
  "wind_speed": {
    "repr": "10",
    "value": 10,
    "spoken": "one zero"
  },
  "wx_codes": [],
  "raw": "KBLI 011753Z 19010KT 10SM SCT018 OVC060 03/01 A3004 RMK AO2 SLP184 I1000 I6002 T00280011 10028 21033 53010",
  "sanitized": "KBLI 011753Z 19010KT 10SM SCT018 OVC060 03/01 A3004 RMK AO2 SLP184 I1000 I6002 T00280011 10028 21033 53010",
  "station": "KBLI",
  "time": {
    "repr": "011753Z",
    "dt": "2023-03-01T17:53:00Z"
  },
  "remarks": "RMK AO2 SLP184 I1000 I6002 T00280011 10028 21033 53010",
  "dewpoint": {
    "repr": "01",
    "value": 1,
    "spoken": "one"
  },
  "relative_humidity": 0.8856685038265605,
  "remarks_info": {
    "maximum_temperature_6": {
      "repr": "10028",
      "value": 2.8,
      "spoken": "two point eight"
    },
    "minimum_temperature_6": {
      "repr": "21033",
      "value": -3.3,
      "spoken": "minus three point three"
    },
    "pressure_tendency": {
      "repr": "53010",
      "tendency": "Decreasing or steady, then increasing",
      "change": 1
    },
    "precip_36_hours": null,
    "precip_24_hours": null,
    "sunshine_minutes": null,
    "codes": [
      {
        "repr": "AO2",
        "value": "Automated with precipitation sensor"
      }
    ],
    "dewpoint_decimal": {
      "repr": "0011",
      "value": 1.1,
      "spoken": "one point one"
    },
    "maximum_temperature_24": null,
    "minimum_temperature_24": null,
    "precip_hourly": null,
    "sea_level_pressure": {
      "repr": "SLP184",
      "value": 1018.4,
      "spoken": "one zero one eight point four"
    },
    "snow_depth": null,
    "temperature_decimal": {
      "repr": "0028",
      "value": 2.8,
      "spoken": "two point eight"
    }
  },
  "runway_visibility": [],
  "temperature": {
    "repr": "03",
    "value": 3,
    "spoken": "three"
  },
  "wind_variable_direction": [],
  "density_altitude": -1373,
  "pressure_altitude": 50,
  "units": {
    "accumulation": "in",
    "altimeter": "inHg",
    "altitude": "ft",
    "temperature": "C",
    "visibility": "sm",
    "wind_speed": "kt"
  }
}
