{
  "meta": {
    "timestamp": "2023-10-21T16:02:11.484071Z",
    "stations_updated": "2023-10-01"
  },
  "altimeter": {
    "repr": "A2991",
    "value": 29.91,
    "spoken": "two nine point nine one"
  },
  "clouds": [
    {
      "repr": "VV002",
      "type": "VV",
      "altitude": 2,
      "modifier": null
    }
  ],
  "flight_rules": "LIFR",
  "other": [],
  "visibility": {
    "repr": "1/4",
    "value": 0.25,
    "spoken": "one quarter",
    "numerator": 1,
    "denominator": 4,
    "normalized": "1/4"
  },
  "wind_direction": {
    "repr": "360",
    "value": 360,
    "spoken": "three six zero"
  },
  "wind_gust": null,
  "wind_speed": {
    "repr": "03",
    "value": 3,
    "spoken": "three"
  },
  "wx_codes": [
    {
      "repr": "FG",
      "value": "Fog"
    }
  ],
  "raw": "KBLI 211553Z 36003KT 1/4SM R16/1800V2200FT FG VV002 11/11 A2991 RMK AO2 SLP136 T01110111 KBLI 211453Z 00000KT 1/4SM R16/1400V1600FT FG VV002 11/11 A2991 RMK AO2 SLP135 T01110111 58003",
  "sanitized": "KBLI 211553Z 36003KT 1/4SM R16/1800V2200FT FG VV002 11/11 A2991 RMK AO2 SLP136 T01110111 KBLI 211453Z 00000KT 1/4SM R16/1400V1600FT FG VV002 11/11 A2991 RMK AO2 SLP135 T01110111 58003",
  "station": "KBLI",
  "time": {
    "repr": "211553Z",
    "dt": "2023-10-21T15:53:00Z"
  },
  "remarks": "RMK AO2 SLP136 T01110111 KBLI 211453Z 00000KT 1/4SM R16/1400V1600FT FG VV002 11/11 A2991 RMK AO2 SLP135 T01110111 58003",
  "dewpoint": {
    "repr": "11",
    "value": 11,
    "spoken": "one one"
  },
  "relative_humidity": 1,
  "remarks_info": {
    "maximum_temperature_6": null,
    "minimum_temperature_6": null,
    "pressure_tendency": {
      "repr": "58003",
      "tendency": "Steady or increasing, then decreasing",
      "change": 0.3
    },
    "precip_36_hours": null,
    "precip_24_hours": null,
    "sunshine_minutes": null,
    "codes": [
      {
        "repr": "AO2",
        "value": "Automated with precipitation sensor"
      },
      {
        "repr": "AO2",
        "value": "Automated with precipitation sensor"
      }
    ],
    "dewpoint_decimal": {
      "repr": "0111",
      "value": 11.1,
      "spoken": "one one point one"
    },
    "maximum_temperature_24": null,
    "minimum_temperature_24": null,
    "precip_hourly": null,
    "sea_level_pressure": {
      "repr": "SLP136",
      "value": 1013.6,
      "spoken": "one zero one three point six"
    },
    "snow_depth": null,
    "temperature_decimal": {
      "repr": "0111",
      "value": 11.1,
      "spoken": "one one point one"
    }
  },
  "runway_visibility": [
    {
      "repr": "R16/1800V2200FT",
      "runway": "16",
      "visibility": null,
      "variable_visibility": [
        {
          "repr": "1800",
          "value": 1800,
          "spoken": "one eight hundred"
        },
        {
          "repr": "2200",
          "value": 2200,
          "spoken": "two two hundred"
        }
      ],
      "trend": null
    }
  ],
  "temperature": {
    "repr": "11",
    "value": 11,
    "spoken": "one one"
  },
  "wind_variable_direction": [],
  "density_altitude": -247,
  "pressure_altitude": 180,
  "units": {
    "accumulation": "in",
    "altimeter": "inHg",
    "altitude": "ft",
    "temperature": "C",
    "visibility": "sm",
    "wind_speed": "kt"
  }
}
