{
  "altimeter": {
    "repr": "A2971",
    "spoken": "two nine point seven one",
    "value": 29.71
  },
  "clouds": [
    {
      "altitude": 35,
      "modifier": null,
      "repr": "SCT035",
      "type": "SCT"
    },
    {
      "altitude": 43,
      "modifier": null,
      "repr": "BKN043",
      "type": "BKN"
    },
    {
      "altitude": 55,
      "modifier": null,
      "repr": "OVC055",
      "type": "OVC"
    }
  ],
  "density_altitude": -107,
  "dewpoint": {
    "repr": "07",
    "spoken": "seven",
    "value": 7
  },
  "flight_rules": "VFR",
  "meta": {
    "stations_updated": "2024-10-29",
    "timestamp": "2024-11-13T05:42:03.125535Z"
  },
  "other": [],
  "pressure_altitude": 380,
  "raw": "KBLI 130453Z 16021G41KT 10SM -RA SCT035 BKN043 OVC055 11/07 A2971 RMK AO2 PK WND 20041/0452 RAE0355B31 SLP068 P0002 T01060067",
  "relative_humidity": 0.7680182474943936,
  "remarks": "RMK AO2 PK WND 20041/0452 RAE0355B31 SLP068 P0002 T01060067",
  "remarks_info": {
    "codes": [
      {
        "repr": "AO2",
        "value": "Automated with precipitation sensor"
      }
    ],
    "dewpoint_decimal": {
      "repr": "0067",
      "spoken": "six point seven",
      "value": 6.7
    },
    "maximum_temperature_24": null,
    "maximum_temperature_6": null,
    "minimum_temperature_24": null,
    "minimum_temperature_6": null,
    "precip_24_hours": null,
    "precip_36_hours": null,
    "precip_hourly": {
      "repr": "P0002",
      "spoken": "zero point zero two",
      "value": 0.02
    },
    "pressure_tendency": null,
    "sea_level_pressure": {
      "repr": "SLP068",
      "spoken": "one zero zero six point eight",
      "value": 1006.8
    },
    "snow_depth": null,
    "sunshine_minutes": null,
    "temperature_decimal": {
      "repr": "0106",
      "spoken": "one zero point six",
      "value": 10.6
    }
  },
  "runway_visibility": [],
  "sanitized": "KBLI 130453Z 16021G41KT 10SM -RA SCT035 BKN043 OVC055 11/07 A2971 RMK AO2 PK WND 20041/0452 RAE0355B31 SLP068 P0002 T01060067",
  "station": "KBLI",
  "temperature": {
    "repr": "11",
    "spoken": "one one",
    "value": 11
  },
  "time": {
    "dt": "2024-11-13T04:53:00Z",
    "repr": "130453Z"
  },
  "units": {
    "accumulation": "in",
    "altimeter": "inHg",
    "altitude": "ft",
    "temperature": "C",
    "visibility": "sm",
    "wind_speed": "kt"
  },
  "visibility": {
    "repr": "10",
    "spoken": "one zero",
    "value": 10
  },
  "wind_direction": {
    "repr": "160",
    "spoken": "one six zero",
    "value": 160
  },
  "wind_gust": {
    "repr": "41",
    "spoken": "four one",
    "value": 41
  },
  "wind_speed": {
    "repr": "21",
    "spoken": "two one",
    "value": 21
  },
  "wind_variable_direction": [],
  "wx_codes": [
    {
      "repr": "-RA",
      "value": "Light Rain"
    }
  ]
}
