{
  "meta": {
    "timestamp": "2023-03-02T08:45:04.300856Z",
    "stations_updated": "2023-01-30",
    "cache-timestamp": "2023-03-02T08:44:06.273000Z"
  },
  "altimeter": {
    "repr": "A2994",
    "value": 29.94,
    "spoken": "two nine point nine four"
  },
  "clouds": [
    {
      "repr": "OVC024",
      "type": "OVC",
      "altitude": 24,
      "modifier": null
    }
  ],
  "flight_rules": "MVFR",
  "other": [],
  "visibility": {
    "repr": "10",
    "value": 10,
    "spoken": "one zero"
  },
  "wind_direction": {
    "repr": "170",
    "value": 170,
    "spoken": "one seven zero"
  },
  "wind_gust": {
    "repr": "22",
    "value": 22,
    "spoken": "two two"
  },
  "wind_speed": {
    "repr": "11",
    "value": 11,
    "spoken": "one one"
  },
  "wx_codes": [
    {
      "repr": "-RA",
      "value": "Light Rain"
    }
  ],
  "raw": "KBLI 020753Z AUTO 17011G22KT 10SM -RA OVC024 04/01 A2994 RMK AO2 RAB47 SLP148 P0000 T00440011 400501039",
  "sanitized": "KBLI 020753Z 17011G22KT 10SM -RA OVC024 04/01 A2994 RMK AO2 RAB47 SLP148 P0000 T00440011 400501039",
  "station": "KBLI",
  "time": {
    "repr": "020753Z",
    "dt": "2023-03-02T07:53:00Z"
  },
  "remarks": "RMK AO2 RAB47 SLP148 P0000 T00440011 400501039",
  "dewpoint": {
    "repr": "01",
    "value": 1,
    "spoken": "one"
  },
  "relative_humidity": 0.79123360148665,
  "remarks_info": {
    "maximum_temperature_6": null,
    "minimum_temperature_6": null,
    "pressure_tendency": null,
    "precip_36_hours": null,
    "precip_24_hours": null,
    "sunshine_minutes": null,
    "codes": [
      {
        "repr": "AO2",
        "value": "Automated with precipitation sensor"
      },
      {
        "repr": "P0000",
        "value": "Trace amount of rain in the last hour"
      },
      {
        "repr": "RAB47",
        "value": "Rain began at :47"
      }
    ],
    "dewpoint_decimal": {
      "repr": "0011",
      "value": 1.1,
      "spoken": "one point one"
    },
    "maximum_temperature_24": {
      "repr": "0050",
      "value": 5,
      "spoken": "five point zero"
    },
    "minimum_temperature_24": {
      "repr": "1039",
      "value": -3.9,
      "spoken": "minus three point nine"
    },
    "precip_hourly": null,
    "sea_level_pressure": {
      "repr": "SLP148",
      "value": 1014.8,
      "spoken": "one zero one four point eight"
    },
    "snow_depth": null,
    "temperature_decimal": {
      "repr": "0044",
      "value": 4.4,
      "spoken": "four point four"
    }
  },
  "runway_visibility": [],
  "temperature": {
    "repr": "04",
    "value": 4,
    "spoken": "four"
  },
  "wind_variable_direction": [],
  "density_altitude": -1081,
  "pressure_altitude": 150,
  "units": {
    "accumulation": "in",
    "altimeter": "inHg",
    "altitude": "ft",
    "temperature": "C",
    "visibility": "sm",
    "wind_speed": "kt"
  }
}
