{
  "meta": {
    "timestamp": "2023-01-15T09:24:05.400072Z",
    "stations_updated": "2022-12-27",
    "cache-timestamp": "2023-01-15T09:24:04.396000Z"
  },
  "altimeter": {
    "repr": "A2933",
    "value": 29.33,
    "spoken": "two nine point three three"
  },
  "clouds": [
    {
      "repr": "SCT060",
      "type": "SCT",
      "altitude": 60,
      "modifier": null
    },
    {
      "repr": "OVC080",
      "type": "OVC",
      "altitude": 80,
      "modifier": null
    }
  ],
  "flight_rules": "VFR",
  "other": [],
  "visibility": {
    "repr": "10",
    "value": 10,
    "spoken": "one zero"
  },
  "wind_direction": {
    "repr": "000",
    "value": 0,
    "spoken": "zero zero zero"
  },
  "wind_gust": null,
  "wind_speed": {
    "repr": "00",
    "value": 0,
    "spoken": "zero"
  },
  "wx_codes": [
    {
      "repr": "-RA",
      "value": "Light Rain"
    }
  ],
  "raw": "KBLI 150853Z AUTO 00000KT 10SM -RA SCT060 OVC080 07/07 A2933 RMK AO2 RAB07 SLP941 P0000 60000 T00720072 51009",
  "sanitized": "KBLI 150853Z 00000KT 10SM -RA SCT060 OVC080 07/07 A2933 RMK AO2 RAB07 SLP941 P0000 60000 T00720072 51009",
  "station": "KBLI",
  "time": {
    "repr": "150853Z",
    "dt": "2023-01-15T08:53:00Z"
  },
  "remarks": "RMK AO2 RAB07 SLP941 P0000 60000 T00720072 51009",
  "dewpoint": {
    "repr": "07",
    "value": 7,
    "spoken": "seven"
  },
  "relative_humidity": 1,
  "remarks_info": {
    "maximum_temperature_6": null,
    "minimum_temperature_6": null,
    "pressure_tendency": {
      "repr": "51009",
      "tendency": "Increasing, then steady",
      "change": 0.9
    },
    "precip_36_hours": {
      "repr": "60000",
      "value": 0,
      "spoken": "zero"
    },
    "precip_24_hours": null,
    "sunshine_minutes": null,
    "codes": [
      {
        "repr": "AO2",
        "value": "Automated with precipitation sensor"
      },
      {
        "repr": "P0000",
        "value": "Trace amount of rain in the last hour"
      },
      {
        "repr": "RAB07",
        "value": "Rain began at :07"
      }
    ],
    "dewpoint_decimal": {
      "repr": "0072",
      "value": 7.2,
      "spoken": "seven point two"
    },
    "maximum_temperature_24": null,
    "minimum_temperature_24": null,
    "precip_hourly": null,
    "sea_level_pressure": {
      "repr": "SLP941",
      "value": 994.1,
      "spoken": "nine nine four point one"
    },
    "snow_depth": null,
    "temperature_decimal": {
      "repr": "0072",
      "value": 7.2,
      "spoken": "seven point two"
    }
  },
  "runway_visibility": [],
  "temperature": {
    "repr": "07",
    "value": 7,
    "spoken": "seven"
  },
  "wind_variable_direction": [],
  "density_altitude": -135,
  "pressure_altitude": 760,
  "units": {
    "accumulation": "in",
    "altimeter": "inHg",
    "altitude": "ft",
    "temperature": "C",
    "visibility": "sm",
    "wind_speed": "kt"
  }
}
