{
  "altimeter": {
    "repr": "A3038",
    "spoken": "three zero point three eight",
    "value": 30.38
  },
  "clouds": [],
  "density_altitude": -2913,
  "dewpoint": {
    "repr": "M14",
    "spoken": "minus one four",
    "value": -14
  },
  "flight_rules": "VFR",
  "meta": {
    "stations_updated": "2023-10-28",
    "timestamp": "2024-01-15T08:41:12.906489Z"
  },
  "other": [],
  "pressure_altitude": -290,
  "raw": "KBLI 150753Z AUTO 02007KT 10SM CLR M07/M14 A3038 RMK AO2 SLP298 T10721144 410281111",
  "relative_humidity": 0.5642593444142429,
  "remarks": "RMK AO2 SLP298 T10721144 410281111",
  "remarks_info": {
    "codes": [
      {
        "repr": "AO2",
        "value": "Automated with precipitation sensor"
      }
    ],
    "dewpoint_decimal": {
      "repr": "1144",
      "spoken": "minus one four point four",
      "value": -14.4
    },
    "maximum_temperature_24": {
      "repr": "1028",
      "spoken": "minus two point eight",
      "value": -2.8
    },
    "maximum_temperature_6": null,
    "minimum_temperature_24": {
      "repr": "1111",
      "spoken": "minus one one point one",
      "value": -11.1
    },
    "minimum_temperature_6": null,
    "precip_24_hours": null,
    "precip_36_hours": null,
    "precip_hourly": null,
    "pressure_tendency": null,
    "sea_level_pressure": {
      "repr": "SLP298",
      "spoken": "one zero two nine point eight",
      "value": 1029.8
    },
    "snow_depth": null,
    "sunshine_minutes": null,
    "temperature_decimal": {
      "repr": "1072",
      "spoken": "minus seven point two",
      "value": -7.2
    }
  },
  "runway_visibility": [],
  "sanitized": "KBLI 150753Z 02007KT 10SM M07/M14 A3038 RMK AO2 SLP298 T10721144 410281111",
  "station": "KBLI",
  "temperature": {
    "repr": "M07",
    "spoken": "minus seven",
    "value": -7
  },
  "time": {
    "dt": "2024-01-15T07:53:00Z",
    "repr": "150753Z"
  },
  "units": {
    "accumulation": "in",
    "altimeter": "inHg",
    "altitude": "ft",
    "temperature": "C",
    "visibility": "sm",
    "wind_speed": "kt"
  },
  "visibility": {
    "repr": "10",
    "spoken": "one zero",
    "value": 10
  },
  "wind_direction": {
    "repr": "020",
    "spoken": "zero two zero",
    "value": 20
  },
  "wind_gust": null,
  "wind_speed": {
    "repr": "07",
    "spoken": "seven",
    "value": 7
  },
  "wind_variable_direction": [],
  "wx_codes": []
}
