{
  "altimeter": {
    "repr": "A3029",
    "spoken": "three zero point two nine",
    "value": 30.29
  },
  "clouds": [],
  "density_altitude": -1491,
  "dewpoint": {
    "repr": "03",
    "spoken": "three",
    "value": 3
  },
  "flight_rules": "VFR",
  "meta": {
    "cache-timestamp": "2024-04-22T09:40:02.795000Z",
    "stations_updated": "2024-01-01",
    "timestamp": "2024-04-22T09:40:27.319440Z"
  },
  "other": [],
  "pressure_altitude": -200,
  "raw": "KBLI 220853Z AUTO 00000KT 10SM CLR 04/03 A3029 RMK AO2 SLP264 T00390028 57002",
  "relative_humidity": 0.9252679300008134,
  "remarks": "RMK AO2 SLP264 T00390028 57002",
  "remarks_info": {
    "codes": [
      {
        "repr": "AO2",
        "value": "Automated with precipitation sensor"
      }
    ],
    "dewpoint_decimal": {
      "repr": "0028",
      "spoken": "two point eight",
      "value": 2.8
    },
    "maximum_temperature_24": null,
    "maximum_temperature_6": null,
    "minimum_temperature_24": null,
    "minimum_temperature_6": null,
    "precip_24_hours": null,
    "precip_36_hours": null,
    "precip_hourly": null,
    "pressure_tendency": {
      "change": 0.2,
      "repr": "57002",
      "tendency": "Decreasing steadily or unsteadily"
    },
    "sea_level_pressure": {
      "repr": "SLP264",
      "spoken": "one zero two six point four",
      "value": 1026.4
    },
    "snow_depth": null,
    "sunshine_minutes": null,
    "temperature_decimal": {
      "repr": "0039",
      "spoken": "three point nine",
      "value": 3.9
    }
  },
  "runway_visibility": [],
  "sanitized": "KBLI 220853Z 00000KT 10SM 04/03 A3029 RMK AO2 SLP264 T00390028 57002",
  "station": "KBLI",
  "temperature": {
    "repr": "04",
    "spoken": "four",
    "value": 4
  },
  "time": {
    "dt": "2024-04-22T08:53:00Z",
    "repr": "220853Z"
  },
  "units": {
    "accumulation": "in",
    "altimeter": "inHg",
    "altitude": "ft",
    "temperature": "C",
    "visibility": "sm",
    "wind_speed": "kt"
  },
  "visibility": {
    "repr": "10",
    "spoken": "one zero",
    "value": 10
  },
  "wind_direction": {
    "repr": "000",
    "spoken": "zero zero zero",
    "value": 0
  },
  "wind_gust": null,
  "wind_speed": {
    "repr": "00",
    "spoken": "zero",
    "value": 0
  },
  "wind_variable_direction": [],
  "wx_codes": []
}
