{
  "altimeter": {
    "repr": "A2982",
    "spoken": "two nine point eight two",
    "value": 29.82
  },
  "clouds": [
    {
      "altitude": 27,
      "modifier": null,
      "repr": "BKN027",
      "type": "BKN"
    },
    {
      "altitude": 50,
      "modifier": null,
      "repr": "BKN050",
      "type": "BKN"
    },
    {
      "altitude": 65,
      "modifier": null,
      "repr": "BKN065",
      "type": "BKN"
    }
  ],
  "density_altitude": 47,
  "dewpoint": {
    "repr": "12",
    "spoken": "one two",
    "value": 12
  },
  "flight_rules": "MVFR",
  "meta": {
    "stations_updated": "2024-05-13",
    "timestamp": "2024-06-02T12:09:14.568706Z"
  },
  "other": [],
  "pressure_altitude": 270,
  "raw": "KBLI 021153Z AUTO 15005KT 10SM BKN027 BKN050 BKN065 13/12 A2982 RMK AO2 SLP105 70015 T01280117 10128 20117 58012",
  "relative_humidity": 0.9301959082873248,
  "remarks": "RMK AO2 SLP105 70015 T01280117 10128 20117 58012",
  "remarks_info": {
    "codes": [
      {
        "repr": "AO2",
        "value": "Automated with precipitation sensor"
      }
    ],
    "dewpoint_decimal": {
      "repr": "0117",
      "spoken": "one one point seven",
      "value": 11.7
    },
    "maximum_temperature_24": null,
    "maximum_temperature_6": {
      "repr": "10128",
      "spoken": "one two point eight",
      "value": 12.8
    },
    "minimum_temperature_24": null,
    "minimum_temperature_6": {
      "repr": "20117",
      "spoken": "one one point seven",
      "value": 11.7
    },
    "precip_24_hours": {
      "repr": "70015",
      "spoken": "zero point one five",
      "value": 0.15
    },
    "precip_36_hours": null,
    "precip_hourly": null,
    "pressure_tendency": {
      "change": 1.2,
      "repr": "58012",
      "tendency": "Steady or increasing, then decreasing"
    },
    "sea_level_pressure": {
      "repr": "SLP105",
      "spoken": "one zero one zero point five",
      "value": 1010.5
    },
    "snow_depth": null,
    "sunshine_minutes": null,
    "temperature_decimal": {
      "repr": "0128",
      "spoken": "one two point eight",
      "value": 12.8
    }
  },
  "runway_visibility": [],
  "sanitized": "KBLI 021153Z 15005KT 10SM BKN027 BKN050 BKN065 13/12 A2982 RMK AO2 SLP105 70015 T01280117 10128 20117 58012",
  "station": "KBLI",
  "temperature": {
    "repr": "13",
    "spoken": "one three",
    "value": 13
  },
  "time": {
    "dt": "2024-06-02T11:53:00Z",
    "repr": "021153Z"
  },
  "units": {
    "accumulation": "in",
    "altimeter": "inHg",
    "altitude": "ft",
    "temperature": "C",
    "visibility": "sm",
    "wind_speed": "kt"
  },
  "visibility": {
    "repr": "10",
    "spoken": "one zero",
    "value": 10
  },
  "wind_direction": {
    "repr": "150",
    "spoken": "one five zero",
    "value": 150
  },
  "wind_gust": null,
  "wind_speed": {
    "repr": "05",
    "spoken": "five",
    "value": 5
  },
  "wind_variable_direction": [],
  "wx_codes": []
}
