{
  "meta": {
    "timestamp": "2022-11-27T07:25:08.805041Z",
    "stations_updated": "2022-09-05"
  },
  "altimeter": {
    "repr": "A2988",
    "value": 29.88,
    "spoken": "two nine point eight eight"
  },
  "clouds": [
    {
      "repr": "FEW015",
      "type": "FEW",
      "altitude": 15,
      "modifier": null
    },
    {
      "repr": "OVC033",
      "type": "OVC",
      "altitude": 33,
      "modifier": null
    }
  ],
  "flight_rules": "MVFR",
  "other": [],
  "visibility": {
    "repr": "4",
    "value": 4,
    "spoken": "four"
  },
  "wind_direction": {
    "repr": "170",
    "value": 170,
    "spoken": "one seven zero"
  },
  "wind_gust": {
    "repr": "35",
    "value": 35,
    "spoken": "three five"
  },
  "wind_speed": {
    "repr": "20",
    "value": 20,
    "spoken": "two zero"
  },
  "wx_codes": [
    {
      "repr": "-RA",
      "value": "Light Rain"
    },
    {
      "repr": "BR",
      "value": "Mist"
    }
  ],
  "raw": "KBLI 270723Z AUTO 17020G35KT 4SM -RA BR FEW015 OVC033 08/07 A2988 RMK AO2 PK WND 18035/0721 P0005 T00780072",
  "sanitized": "KBLI 270723Z 17020G35KT 4SM -RA BR FEW015 OVC033 08/07 A2988 RMK AO2 PK WND 18035/0721 P0005 T00780072",
  "station": "KBLI",
  "time": {
    "repr": "270723Z",
    "dt": "2022-11-27T07:23:00Z"
  },
  "remarks": "RMK AO2 PK WND 18035/0721 P0005 T00780072",
  "dewpoint": {
    "repr": "07",
    "value": 7,
    "spoken": "seven"
  },
  "relative_humidity": 0.9598512259113078,
  "remarks_info": {
    "maximum_temperature_6": null,
    "minimum_temperature_6": null,
    "pressure_tendency": null,
    "precip_36_hours": null,
    "precip_24_hours": null,
    "sunshine_minutes": null,
    "codes": [
      {
        "repr": "AO2",
        "value": "Automated with precipitation sensor"
      }
    ],
    "dewpoint_decimal": {
      "repr": "0072",
      "value": 7.2,
      "spoken": "seven point two"
    },
    "maximum_temperature_24": null,
    "minimum_temperature_24": null,
    "precip_hourly": {
      "repr": "P0005",
      "value": 0.05,
      "spoken": "zero point zero five"
    },
    "sea_level_pressure": null,
    "snow_depth": null,
    "temperature_decimal": {
      "repr": "0078",
      "value": 7.8,
      "spoken": "seven point eight"
    }
  },
  "runway_visibility": [],
  "temperature": {
    "repr": "08",
    "value": 8,
    "spoken": "eight"
  },
  "wind_variable_direction": [],
  "density_altitude": -613,
  "pressure_altitude": 210,
  "units": {
    "accumulation": "in",
    "altimeter": "inHg",
    "altitude": "ft",
    "temperature": "C",
    "visibility": "sm",
    "wind_speed": "kt"
  }
}
