{
  "altimeter": {
    "repr": "A3021",
    "spoken": "three zero point two one",
    "value": 30.21
  },
  "clouds": [],
  "density_altitude": -1075,
  "dewpoint": {
    "repr": "M04",
    "spoken": "minus four",
    "value": -4
  },
  "flight_rules": "VFR",
  "meta": {
    "cache-timestamp": "2024-04-19T08:40:03.489000Z",
    "stations_updated": "2024-01-01",
    "timestamp": "2024-04-19T08:40:43.866239Z"
  },
  "other": [],
  "pressure_altitude": -120,
  "raw": "KBLI 190753Z AUTO 02006KT 10SM CLR 07/M04 A3021 RMK AO2 SLP239 T00671044 401781006",
  "relative_humidity": 0.4500723896672646,
  "remarks": "RMK AO2 SLP239 T00671044 401781006",
  "remarks_info": {
    "codes": [
      {
        "repr": "AO2",
        "value": "Automated with precipitation sensor"
      }
    ],
    "dewpoint_decimal": {
      "repr": "1044",
      "spoken": "minus four point four",
      "value": -4.4
    },
    "maximum_temperature_24": {
      "repr": "0178",
      "spoken": "one seven point eight",
      "value": 17.8
    },
    "maximum_temperature_6": null,
    "minimum_temperature_24": {
      "repr": "1006",
      "spoken": "minus zero point six",
      "value": -0.6
    },
    "minimum_temperature_6": null,
    "precip_24_hours": null,
    "precip_36_hours": null,
    "precip_hourly": null,
    "pressure_tendency": null,
    "sea_level_pressure": {
      "repr": "SLP239",
      "spoken": "one zero two three point nine",
      "value": 1023.9
    },
    "snow_depth": null,
    "sunshine_minutes": null,
    "temperature_decimal": {
      "repr": "0067",
      "spoken": "six point seven",
      "value": 6.7
    }
  },
  "runway_visibility": [],
  "sanitized": "KBLI 190753Z 02006KT 10SM 07/M04 A3021 RMK AO2 SLP239 T00671044 401781006",
  "station": "KBLI",
  "temperature": {
    "repr": "07",
    "spoken": "seven",
    "value": 7
  },
  "time": {
    "dt": "2024-04-19T07:53:00Z",
    "repr": "190753Z"
  },
  "units": {
    "accumulation": "in",
    "altimeter": "inHg",
    "altitude": "ft",
    "temperature": "C",
    "visibility": "sm",
    "wind_speed": "kt"
  },
  "visibility": {
    "repr": "10",
    "spoken": "one zero",
    "value": 10
  },
  "wind_direction": {
    "repr": "020",
    "spoken": "zero two zero",
    "value": 20
  },
  "wind_gust": null,
  "wind_speed": {
    "repr": "06",
    "spoken": "six",
    "value": 6
  },
  "wind_variable_direction": [],
  "wx_codes": []
}
