{
  "altimeter": {
    "repr": "A3009",
    "spoken": "three zero point zero nine",
    "value": 30.09
  },
  "clouds": [],
  "density_altitude": 1109,
  "dewpoint": {
    "repr": "13",
    "spoken": "one three",
    "value": 13
  },
  "flight_rules": "VFR",
  "meta": {
    "stations_updated": "2024-06-12",
    "timestamp": "2024-07-12T00:30:11.073285Z"
  },
  "other": [],
  "pressure_altitude": 0,
  "raw": "KBLI 112353Z VRB03KT 10SM CLR 24/13 A3009 RMK AO2 SLP195 T02390128 10239 20183 58012",
  "relative_humidity": 0.498144675769429,
  "remarks": "RMK AO2 SLP195 T02390128 10239 20183 58012",
  "remarks_info": {
    "codes": [
      {
        "repr": "AO2",
        "value": "Automated with precipitation sensor"
      }
    ],
    "dewpoint_decimal": {
      "repr": "0128",
      "spoken": "one two point eight",
      "value": 12.8
    },
    "maximum_temperature_24": null,
    "maximum_temperature_6": {
      "repr": "10239",
      "spoken": "two three point nine",
      "value": 23.9
    },
    "minimum_temperature_24": null,
    "minimum_temperature_6": {
      "repr": "20183",
      "spoken": "one eight point three",
      "value": 18.3
    },
    "precip_24_hours": null,
    "precip_36_hours": null,
    "precip_hourly": null,
    "pressure_tendency": {
      "change": 1.2,
      "repr": "58012",
      "tendency": "Steady or increasing, then decreasing"
    },
    "sea_level_pressure": {
      "repr": "SLP195",
      "spoken": "one zero one nine point five",
      "value": 1019.5
    },
    "snow_depth": null,
    "sunshine_minutes": null,
    "temperature_decimal": {
      "repr": "0239",
      "spoken": "two three point nine",
      "value": 23.9
    }
  },
  "runway_visibility": [],
  "sanitized": "KBLI 112353Z VRB03KT 10SM 24/13 A3009 RMK AO2 SLP195 T02390128 10239 20183 58012",
  "station": "KBLI",
  "temperature": {
    "repr": "24",
    "spoken": "two four",
    "value": 24
  },
  "time": {
    "dt": "2024-07-11T23:53:00Z",
    "repr": "112353Z"
  },
  "units": {
    "accumulation": "in",
    "altimeter": "inHg",
    "altitude": "ft",
    "temperature": "C",
    "visibility": "sm",
    "wind_speed": "kt"
  },
  "visibility": {
    "repr": "10",
    "spoken": "one zero",
    "value": 10
  },
  "wind_direction": {
    "repr": "VRB",
    "spoken": "variable",
    "value": null
  },
  "wind_gust": null,
  "wind_speed": {
    "repr": "03",
    "spoken": "three",
    "value": 3
  },
  "wind_variable_direction": [],
  "wx_codes": []
}
