{
  "meta": {
    "timestamp": "2023-03-25T06:28:27.719603Z",
    "stations_updated": "2023-03-11",
    "cache-timestamp": "2023-03-25T06:28:06.189000Z"
  },
  "altimeter": {
    "repr": "A3017",
    "value": 30.17,
    "spoken": "three zero point one seven"
  },
  "clouds": [
    {
      "repr": "SCT016",
      "type": "SCT",
      "altitude": 16,
      "modifier": null
    },
    {
      "repr": "OVC023",
      "type": "OVC",
      "altitude": 23,
      "modifier": null
    }
  ],
  "flight_rules": "MVFR",
  "other": [],
  "visibility": {
    "repr": "10",
    "value": 10,
    "spoken": "one zero"
  },
  "wind_direction": {
    "repr": "000",
    "value": 0,
    "spoken": "zero zero zero"
  },
  "wind_gust": null,
  "wind_speed": {
    "repr": "00",
    "value": 0,
    "spoken": "zero"
  },
  "wx_codes": [],
  "raw": "KBLI 250553Z AUTO 00000KT 10SM SCT016 OVC023 04/04 A3017 RMK AO2 SLP227 60002 T00440044 10056 20039 51015",
  "sanitized": "KBLI 250553Z 00000KT 10SM SCT016 OVC023 04/04 A3017 RMK AO2 SLP227 60002 T00440044 10056 20039 51015",
  "station": "KBLI",
  "time": {
    "repr": "250553Z",
    "dt": "2023-03-25T05:53:00Z"
  },
  "remarks": "RMK AO2 SLP227 60002 T00440044 10056 20039 51015",
  "dewpoint": {
    "repr": "04",
    "value": 4,
    "spoken": "four"
  },
  "relative_humidity": 1,
  "remarks_info": {
    "maximum_temperature_6": {
      "repr": "10056",
      "value": 5.6,
      "spoken": "five point six"
    },
    "minimum_temperature_6": {
      "repr": "20039",
      "value": 3.9,
      "spoken": "three point nine"
    },
    "pressure_tendency": {
      "repr": "51015",
      "tendency": "Increasing, then steady",
      "change": 1.5
    },
    "precip_36_hours": {
      "repr": "60002",
      "value": 0.02,
      "spoken": "zero point zero two"
    },
    "precip_24_hours": null,
    "sunshine_minutes": null,
    "codes": [
      {
        "repr": "AO2",
        "value": "Automated with precipitation sensor"
      }
    ],
    "dewpoint_decimal": {
      "repr": "0044",
      "value": 4.4,
      "spoken": "four point four"
    },
    "maximum_temperature_24": null,
    "minimum_temperature_24": null,
    "precip_hourly": null,
    "sea_level_pressure": {
      "repr": "SLP227",
      "value": 1022.7,
      "spoken": "one zero two two point seven"
    },
    "snow_depth": null,
    "temperature_decimal": {
      "repr": "0044",
      "value": 4.4,
      "spoken": "four point four"
    }
  },
  "runway_visibility": [],
  "temperature": {
    "repr": "04",
    "value": 4,
    "spoken": "four"
  },
  "wind_variable_direction": [],
  "density_altitude": -1311,
  "pressure_altitude": -80,
  "units": {
    "accumulation": "in",
    "altimeter": "inHg",
    "altitude": "ft",
    "temperature": "C",
    "visibility": "sm",
    "wind_speed": "kt"
  }
}
