{
  "meta": {
    "timestamp": "2022-12-21T07:23:39.028196Z",
    "stations_updated": "2022-09-05"
  },
  "altimeter": {
    "repr": "A3030",
    "value": 30.3,
    "spoken": "three zero point three zero"
  },
  "clouds": [
    {
      "repr": "OVC025",
      "type": "OVC",
      "altitude": 25,
      "modifier": null
    }
  ],
  "flight_rules": "MVFR",
  "other": [],
  "visibility": {
    "repr": "10",
    "value": 10,
    "spoken": "one zero"
  },
  "wind_direction": {
    "repr": "020",
    "value": 20,
    "spoken": "zero two zero"
  },
  "wind_gust": {
    "repr": "23",
    "value": 23,
    "spoken": "two three"
  },
  "wind_speed": {
    "repr": "13",
    "value": 13,
    "spoken": "one three"
  },
  "wx_codes": [],
  "raw": "KBLI 210653Z AUTO 02013G23KT 10SM OVC025 M08/M17 A3030 RMK AO2 SLP273 T10781172",
  "sanitized": "KBLI 210653Z 02013G23KT 10SM OVC025 M08/M17 A3030 RMK AO2 SLP273 T10781172",
  "station": "KBLI",
  "time": {
    "repr": "210653Z",
    "dt": "2022-12-21T06:53:00Z"
  },
  "remarks": "RMK AO2 SLP273 T10781172",
  "dewpoint": {
    "repr": "M17",
    "value": -17,
    "spoken": "minus one seven"
  },
  "relative_humidity": 0.4684799869569043,
  "remarks_info": {
    "maximum_temperature_6": null,
    "minimum_temperature_6": null,
    "pressure_tendency": null,
    "precip_36_hours": null,
    "precip_24_hours": null,
    "sunshine_minutes": null,
    "codes": [
      {
        "repr": "AO2",
        "value": "Automated with precipitation sensor"
      }
    ],
    "dewpoint_decimal": {
      "repr": "1172",
      "value": -17.2,
      "spoken": "minus one seven point two"
    },
    "maximum_temperature_24": null,
    "minimum_temperature_24": null,
    "precip_hourly": null,
    "sea_level_pressure": {
      "repr": "SLP273",
      "value": 1027.3,
      "spoken": "one zero two seven point three"
    },
    "snow_depth": null,
    "temperature_decimal": {
      "repr": "1078",
      "value": -7.8,
      "spoken": "minus seven point eight"
    }
  },
  "runway_visibility": [],
  "temperature": {
    "repr": "M08",
    "value": -8,
    "spoken": "minus eight"
  },
  "wind_variable_direction": [],
  "density_altitude": -2905,
  "pressure_altitude": -210,
  "units": {
    "accumulation": "in",
    "altimeter": "inHg",
    "altitude": "ft",
    "temperature": "C",
    "visibility": "sm",
    "wind_speed": "kt"
  }
}
