{
  "meta": {
    "timestamp": "2022-10-25T23:37:02.586254Z",
    "stations_updated": "2022-09-05"
  },
  "altimeter": {
    "repr": "A2979",
    "value": 29.79,
    "spoken": "two nine point seven nine"
  },
  "clouds": [
    {
      "repr": "BKN029",
      "type": "BKN",
      "altitude": 29,
      "modifier": null
    },
    {
      "repr": "OVC036",
      "type": "OVC",
      "altitude": 36,
      "modifier": null
    }
  ],
  "flight_rules": "MVFR",
  "other": [],
  "visibility": {
    "repr": "10",
    "value": 10,
    "spoken": "one zero"
  },
  "wind_direction": {
    "repr": "150",
    "value": 150,
    "spoken": "one five zero"
  },
  "wind_gust": {
    "repr": "34",
    "value": 34,
    "spoken": "three four"
  },
  "wind_speed": {
    "repr": "22",
    "value": 22,
    "spoken": "two two"
  },
  "wx_codes": [],
  "raw": "KBLI 252327Z 15022G34KT 10SM BKN029 OVC036 11/06 A2979 RMK AO2 PK WND 17034/2318 T01060061",
  "sanitized": "KBLI 252327Z 15022G34KT 10SM BKN029 OVC036 11/06 A2979 RMK AO2 PK WND 17034/2318 T01060061",
  "station": "KBLI",
  "time": {
    "repr": "252327Z",
    "dt": "2022-10-25T23:27:00Z"
  },
  "remarks": "RMK AO2 PK WND 17034/2318 T01060061",
  "dewpoint": {
    "repr": "06",
    "value": 6,
    "spoken": "six"
  },
  "relative_humidity": 0.7369167861283278,
  "remarks_info": {
    "maximum_temperature_6": null,
    "minimum_temperature_6": null,
    "pressure_tendency": null,
    "precip_36_hours": null,
    "precip_24_hours": null,
    "sunshine_minutes": null,
    "codes": [
      {
        "repr": "AO2",
        "value": "Automated with precipitation sensor"
      }
    ],
    "dewpoint_decimal": {
      "repr": "0061",
      "value": 6.1,
      "spoken": "six point one"
    },
    "maximum_temperature_24": null,
    "minimum_temperature_24": null,
    "precip_hourly": null,
    "sea_level_pressure": null,
    "snow_depth": null,
    "temperature_decimal": {
      "repr": "0106",
      "value": 10.6,
      "spoken": "one zero point six"
    }
  },
  "runway_visibility": [],
  "temperature": {
    "repr": "11",
    "value": 11,
    "spoken": "one one"
  },
  "wind_variable_direction": [],
  "density_altitude": -187,
  "pressure_altitude": 300,
  "units": {
    "accumulation": "in",
    "altimeter": "inHg",
    "altitude": "ft",
    "temperature": "C",
    "visibility": "sm",
    "wind_speed": "kt"
  }
}
