{
  "altimeter": {
    "repr": "A2980",
    "spoken": "two nine point eight zero",
    "value": 29.8
  },
  "clouds": [
    {
      "altitude": 2,
      "modifier": null,
      "repr": "FEW002",
      "type": "FEW"
    },
    {
      "altitude": 13,
      "modifier": null,
      "repr": "BKN013",
      "type": "BKN"
    },
    {
      "altitude": 19,
      "modifier": null,
      "repr": "OVC019",
      "type": "OVC"
    }
  ],
  "density_altitude": -533,
  "dewpoint": {
    "repr": "08",
    "spoken": "eight",
    "value": 8
  },
  "flight_rules": "IFR",
  "meta": {
    "stations_updated": "2023-10-28",
    "timestamp": "2023-12-05T02:21:16.733090Z"
  },
  "other": [],
  "pressure_altitude": 290,
  "raw": "KBLI 050211Z 03006KT 2SM R16/5500VP6000FT RA BR FEW002 BKN013 OVC019 08/08 A2980 RMK AO2 P0007 T00780078",
  "relative_humidity": 1,
  "remarks": "RMK AO2 P0007 T00780078",
  "remarks_info": {
    "codes": [
      {
        "repr": "AO2",
        "value": "Automated with precipitation sensor"
      }
    ],
    "dewpoint_decimal": {
      "repr": "0078",
      "spoken": "seven point eight",
      "value": 7.8
    },
    "maximum_temperature_24": null,
    "maximum_temperature_6": null,
    "minimum_temperature_24": null,
    "minimum_temperature_6": null,
    "precip_24_hours": null,
    "precip_36_hours": null,
    "precip_hourly": {
      "repr": "P0007",
      "spoken": "zero point zero seven",
      "value": 0.07
    },
    "pressure_tendency": null,
    "sea_level_pressure": null,
    "snow_depth": null,
    "sunshine_minutes": null,
    "temperature_decimal": {
      "repr": "0078",
      "spoken": "seven point eight",
      "value": 7.8
    }
  },
  "runway_visibility": [
    {
      "repr": "R16/5500VP6000FT",
      "runway": "16",
      "trend": null,
      "variable_visibility": [
        {
          "repr": "5500",
          "spoken": "five five hundred",
          "value": 5500
        },
        {
          "repr": "P6000",
          "spoken": "greater than six thousand",
          "value": null
        }
      ],
      "visibility": null
    }
  ],
  "sanitized": "KBLI 050211Z 03006KT 2SM R16/5500VP6000FT RA BR FEW002 BKN013 OVC019 08/08 A2980 RMK AO2 P0007 T00780078",
  "station": "KBLI",
  "temperature": {
    "repr": "08",
    "spoken": "eight",
    "value": 8
  },
  "time": {
    "dt": "2023-12-05T02:11:00Z",
    "repr": "050211Z"
  },
  "units": {
    "accumulation": "in",
    "altimeter": "inHg",
    "altitude": "ft",
    "temperature": "C",
    "visibility": "sm",
    "wind_speed": "kt"
  },
  "visibility": {
    "repr": "2",
    "spoken": "two",
    "value": 2
  },
  "wind_direction": {
    "repr": "030",
    "spoken": "zero three zero",
    "value": 30
  },
  "wind_gust": null,
  "wind_speed": {
    "repr": "06",
    "spoken": "six",
    "value": 6
  },
  "wind_variable_direction": [],
  "wx_codes": [
    {
      "repr": "RA",
      "value": "Rain"
    },
    {
      "repr": "BR",
      "value": "Mist"
    }
  ]
}
