{
  "altimeter": {
    "repr": "A3006",
    "spoken": "three zero point zero six",
    "value": 30.06
  },
  "clouds": [
    {
      "altitude": 24,
      "modifier": null,
      "repr": "BKN024",
      "type": "BKN"
    },
    {
      "altitude": 32,
      "modifier": null,
      "repr": "OVC032",
      "type": "OVC"
    }
  ],
  "density_altitude": -793,
  "dewpoint": {
    "repr": "05",
    "spoken": "five",
    "value": 5
  },
  "flight_rules": "MVFR",
  "meta": {
    "stations_updated": "2023-10-28",
    "timestamp": "2024-01-04T20:02:13.242030Z"
  },
  "other": [],
  "pressure_altitude": 30,
  "raw": "KBLI 041953Z 18009G20KT 10SM BKN024 OVC032 08/05 A3006 RMK AO2 PK WND 20027/1916 SLP188 T00780050",
  "relative_humidity": 0.824548883443889,
  "remarks": "RMK AO2 PK WND 20027/1916 SLP188 T00780050",
  "remarks_info": {
    "codes": [
      {
        "repr": "AO2",
        "value": "Automated with precipitation sensor"
      }
    ],
    "dewpoint_decimal": {
      "repr": "0050",
      "spoken": "five point zero",
      "value": 5
    },
    "maximum_temperature_24": null,
    "maximum_temperature_6": null,
    "minimum_temperature_24": null,
    "minimum_temperature_6": null,
    "precip_24_hours": null,
    "precip_36_hours": null,
    "precip_hourly": null,
    "pressure_tendency": null,
    "sea_level_pressure": {
      "repr": "SLP188",
      "spoken": "one zero one eight point eight",
      "value": 1018.8
    },
    "snow_depth": null,
    "sunshine_minutes": null,
    "temperature_decimal": {
      "repr": "0078",
      "spoken": "seven point eight",
      "value": 7.8
    }
  },
  "runway_visibility": [],
  "sanitized": "KBLI 041953Z 18009G20KT 10SM BKN024 OVC032 08/05 A3006 RMK AO2 PK WND 20027/1916 SLP188 T00780050",
  "station": "KBLI",
  "temperature": {
    "repr": "08",
    "spoken": "eight",
    "value": 8
  },
  "time": {
    "dt": "2024-01-04T19:53:00Z",
    "repr": "041953Z"
  },
  "units": {
    "accumulation": "in",
    "altimeter": "inHg",
    "altitude": "ft",
    "temperature": "C",
    "visibility": "sm",
    "wind_speed": "kt"
  },
  "visibility": {
    "repr": "10",
    "spoken": "one zero",
    "value": 10
  },
  "wind_direction": {
    "repr": "180",
    "spoken": "one eight zero",
    "value": 180
  },
  "wind_gust": {
    "repr": "20",
    "spoken": "two zero",
    "value": 20
  },
  "wind_speed": {
    "repr": "09",
    "spoken": "nine",
    "value": 9
  },
  "wind_variable_direction": [],
  "wx_codes": []
}
