{
  "altimeter": {
    "repr": "A3000",
    "spoken": "three zero point zero zero",
    "value": 30
  },
  "clouds": [],
  "density_altitude": -2797,
  "dewpoint": {
    "repr": "M19",
    "spoken": "minus one nine",
    "value": -19
  },
  "flight_rules": "VFR",
  "meta": {
    "cache-timestamp": "2024-01-14T08:40:05.141000Z",
    "stations_updated": "2023-10-28",
    "timestamp": "2024-01-14T08:40:28.540711Z"
  },
  "other": [],
  "pressure_altitude": 90,
  "raw": "KBLI 140753Z AUTO 02006KT 10SM CLR M09/M19 A3000 RMK AO2 SLP170 T10941189 410721139",
  "relative_humidity": 0.45959660535834096,
  "remarks": "RMK AO2 SLP170 T10941189 410721139",
  "remarks_info": {
    "codes": [
      {
        "repr": "AO2",
        "value": "Automated with precipitation sensor"
      }
    ],
    "dewpoint_decimal": {
      "repr": "1189",
      "spoken": "minus one eight point nine",
      "value": -18.9
    },
    "maximum_temperature_24": {
      "repr": "1072",
      "spoken": "minus seven point two",
      "value": -7.2
    },
    "maximum_temperature_6": null,
    "minimum_temperature_24": {
      "repr": "1139",
      "spoken": "minus one three point nine",
      "value": -13.9
    },
    "minimum_temperature_6": null,
    "precip_24_hours": null,
    "precip_36_hours": null,
    "precip_hourly": null,
    "pressure_tendency": null,
    "sea_level_pressure": {
      "repr": "SLP170",
      "spoken": "one zero one seven point zero",
      "value": 1017
    },
    "snow_depth": null,
    "sunshine_minutes": null,
    "temperature_decimal": {
      "repr": "1094",
      "spoken": "minus nine point four",
      "value": -9.4
    }
  },
  "runway_visibility": [],
  "sanitized": "KBLI 140753Z 02006KT 10SM M09/M19 A3000 RMK AO2 SLP170 T10941189 410721139",
  "station": "KBLI",
  "temperature": {
    "repr": "M09",
    "spoken": "minus nine",
    "value": -9
  },
  "time": {
    "dt": "2024-01-14T07:53:00Z",
    "repr": "140753Z"
  },
  "units": {
    "accumulation": "in",
    "altimeter": "inHg",
    "altitude": "ft",
    "temperature": "C",
    "visibility": "sm",
    "wind_speed": "kt"
  },
  "visibility": {
    "repr": "10",
    "spoken": "one zero",
    "value": 10
  },
  "wind_direction": {
    "repr": "020",
    "spoken": "zero two zero",
    "value": 20
  },
  "wind_gust": null,
  "wind_speed": {
    "repr": "06",
    "spoken": "six",
    "value": 6
  },
  "wind_variable_direction": [],
  "wx_codes": []
}
