{
  "altimeter": {
    "repr": "A2982",
    "spoken": "two nine point eight two",
    "value": 29.82
  },
  "clouds": [
    {
      "altitude": 36,
      "modifier": null,
      "repr": "SCT036",
      "type": "SCT"
    },
    {
      "altitude": 110,
      "modifier": null,
      "repr": "BKN110",
      "type": "BKN"
    }
  ],
  "density_altitude": -1021,
  "dewpoint": {
    "repr": "03",
    "spoken": "three",
    "value": 3
  },
  "flight_rules": "VFR",
  "meta": {
    "stations_updated": "2023-10-28",
    "timestamp": "2023-12-03T11:01:06.980175Z"
  },
  "other": [],
  "pressure_altitude": 270,
  "raw": "KBLI 031053Z AUTO 00000KT 10SM SCT036 BKN110 04/03 A2982 RMK AO2 SLP106 T00390028 $",
  "relative_humidity": 0.9252679300008134,
  "remarks": "RMK AO2 SLP106 T00390028 $",
  "remarks_info": {
    "codes": [
      {
        "repr": "$",
        "value": "ASOS requires maintenance"
      },
      {
        "repr": "AO2",
        "value": "Automated with precipitation sensor"
      }
    ],
    "dewpoint_decimal": {
      "repr": "0028",
      "spoken": "two point eight",
      "value": 2.8
    },
    "maximum_temperature_24": null,
    "maximum_temperature_6": null,
    "minimum_temperature_24": null,
    "minimum_temperature_6": null,
    "precip_24_hours": null,
    "precip_36_hours": null,
    "precip_hourly": null,
    "pressure_tendency": null,
    "sea_level_pressure": {
      "repr": "SLP106",
      "spoken": "one zero one zero point six",
      "value": 1010.6
    },
    "snow_depth": null,
    "sunshine_minutes": null,
    "temperature_decimal": {
      "repr": "0039",
      "spoken": "three point nine",
      "value": 3.9
    }
  },
  "runway_visibility": [],
  "sanitized": "KBLI 031053Z 00000KT 10SM SCT036 BKN110 04/03 A2982 RMK AO2 SLP106 T00390028 $",
  "station": "KBLI",
  "temperature": {
    "repr": "04",
    "spoken": "four",
    "value": 4
  },
  "time": {
    "dt": "2023-12-03T10:53:00Z",
    "repr": "031053Z"
  },
  "units": {
    "accumulation": "in",
    "altimeter": "inHg",
    "altitude": "ft",
    "temperature": "C",
    "visibility": "sm",
    "wind_speed": "kt"
  },
  "visibility": {
    "repr": "10",
    "spoken": "one zero",
    "value": 10
  },
  "wind_direction": {
    "repr": "000",
    "spoken": "zero zero zero",
    "value": 0
  },
  "wind_gust": null,
  "wind_speed": {
    "repr": "00",
    "spoken": "zero",
    "value": 0
  },
  "wind_variable_direction": [],
  "wx_codes": []
}
