{
  "meta": {
    "timestamp": "2023-02-21T21:01:59.566357Z",
    "stations_updated": "2023-01-30"
  },
  "altimeter": {
    "repr": "A2949",
    "value": 29.49,
    "spoken": "two nine point four nine"
  },
  "clouds": [
    {
      "repr": "FEW016",
      "type": "FEW",
      "altitude": 16,
      "modifier": null
    },
    {
      "repr": "BKN022",
      "type": "BKN",
      "altitude": 22,
      "modifier": null
    },
    {
      "repr": "OVC029",
      "type": "OVC",
      "altitude": 29,
      "modifier": null
    }
  ],
  "flight_rules": "MVFR",
  "other": [],
  "visibility": {
    "repr": "10",
    "value": 10,
    "spoken": "one zero"
  },
  "wind_direction": {
    "repr": "190",
    "value": 190,
    "spoken": "one nine zero"
  },
  "wind_gust": null,
  "wind_speed": {
    "repr": "05",
    "value": 5,
    "spoken": "five"
  },
  "wx_codes": [],
  "raw": "KBLI 212053Z 19005KT 10SM FEW016 BKN022 OVC029 08/03 A2949 RMK AO2 RAB17E26 SLP994 P0000 60001 T00780028 58010",
  "sanitized": "KBLI 212053Z 19005KT 10SM FEW016 BKN022 OVC029 08/03 A2949 RMK AO2 RAB17E26 SLP994 P0000 60001 T00780028 58010",
  "station": "KBLI",
  "time": {
    "repr": "212053Z",
    "dt": "2023-02-21T20:53:00Z"
  },
  "remarks": "RMK AO2 RAB17E26 SLP994 P0000 60001 T00780028 58010",
  "dewpoint": {
    "repr": "03",
    "value": 3,
    "spoken": "three"
  },
  "relative_humidity": 0.7063989825322067,
  "remarks_info": {
    "maximum_temperature_6": null,
    "minimum_temperature_6": null,
    "pressure_tendency": {
      "repr": "58010",
      "tendency": "Steady or increasing, then decreasing",
      "change": 1
    },
    "precip_36_hours": {
      "repr": "60001",
      "value": 0.01,
      "spoken": "zero point zero one"
    },
    "precip_24_hours": null,
    "sunshine_minutes": null,
    "codes": [
      {
        "repr": "AO2",
        "value": "Automated with precipitation sensor"
      },
      {
        "repr": "P0000",
        "value": "Trace amount of rain in the last hour"
      }
    ],
    "dewpoint_decimal": {
      "repr": "0028",
      "value": 2.8,
      "spoken": "two point eight"
    },
    "maximum_temperature_24": null,
    "minimum_temperature_24": null,
    "precip_hourly": null,
    "sea_level_pressure": {
      "repr": "SLP994",
      "value": 999.4,
      "spoken": "nine nine nine point four"
    },
    "snow_depth": null,
    "temperature_decimal": {
      "repr": "0078",
      "value": 7.8,
      "spoken": "seven point eight"
    }
  },
  "runway_visibility": [],
  "temperature": {
    "repr": "08",
    "value": 8,
    "spoken": "eight"
  },
  "wind_variable_direction": [],
  "density_altitude": -223,
  "pressure_altitude": 600,
  "units": {
    "accumulation": "in",
    "altimeter": "inHg",
    "altitude": "ft",
    "temperature": "C",
    "visibility": "sm",
    "wind_speed": "kt"
  }
}
