{
  "meta": {
    "timestamp": "2023-02-22T09:27:28.724069Z",
    "stations_updated": "2023-01-30"
  },
  "altimeter": {
    "repr": "A2957",
    "value": 29.57,
    "spoken": "two nine point five seven"
  },
  "clouds": [],
  "flight_rules": "VFR",
  "other": [],
  "visibility": {
    "repr": "10",
    "value": 10,
    "spoken": "one zero"
  },
  "wind_direction": {
    "repr": "030",
    "value": 30,
    "spoken": "zero three zero"
  },
  "wind_gust": {
    "repr": "37",
    "value": 37,
    "spoken": "three seven"
  },
  "wind_speed": {
    "repr": "23",
    "value": 23,
    "spoken": "two three"
  },
  "wx_codes": [],
  "raw": "KBLI 220853Z AUTO 03023G37KT 10SM CLR M01/M11 A2957 RMK AO2 PK WND 04040/0805 SLP021 T10111111 51013",
  "sanitized": "KBLI 220853Z 03023G37KT 10SM M01/M11 A2957 RMK AO2 PK WND 04040/0805 SLP021 T10111111 51013",
  "station": "KBLI",
  "time": {
    "repr": "220853Z",
    "dt": "2023-02-22T08:53:00Z"
  },
  "remarks": "RMK AO2 PK WND 04040/0805 SLP021 T10111111 51013",
  "dewpoint": {
    "repr": "M11",
    "value": -11,
    "spoken": "minus one one"
  },
  "relative_humidity": 0.46590321886169084,
  "remarks_info": {
    "maximum_temperature_6": null,
    "minimum_temperature_6": null,
    "pressure_tendency": {
      "repr": "51013",
      "tendency": "Increasing, then steady",
      "change": 1.3
    },
    "precip_36_hours": null,
    "precip_24_hours": null,
    "sunshine_minutes": null,
    "codes": [
      {
        "repr": "AO2",
        "value": "Automated with precipitation sensor"
      }
    ],
    "dewpoint_decimal": {
      "repr": "1111",
      "value": -11.1,
      "spoken": "minus one one point one"
    },
    "maximum_temperature_24": null,
    "minimum_temperature_24": null,
    "precip_hourly": null,
    "sea_level_pressure": {
      "repr": "SLP021",
      "value": 1002.1,
      "spoken": "one zero zero two point one"
    },
    "snow_depth": null,
    "temperature_decimal": {
      "repr": "1011",
      "value": -1.1,
      "spoken": "minus one point one"
    }
  },
  "runway_visibility": [],
  "temperature": {
    "repr": "M01",
    "value": -1,
    "spoken": "minus one"
  },
  "wind_variable_direction": [],
  "density_altitude": -1371,
  "pressure_altitude": 520,
  "units": {
    "accumulation": "in",
    "altimeter": "inHg",
    "altitude": "ft",
    "temperature": "C",
    "visibility": "sm",
    "wind_speed": "kt"
  }
}
