{
  "meta": {
    "timestamp": "2022-12-02T00:28:12.110604Z",
    "stations_updated": "2022-09-05"
  },
  "altimeter": {
    "repr": "A2983",
    "value": 29.83,
    "spoken": "two nine point eight three"
  },
  "clouds": [],
  "flight_rules": "VFR",
  "other": [],
  "visibility": {
    "repr": "10",
    "value": 10,
    "spoken": "one zero"
  },
  "wind_direction": {
    "repr": "030",
    "value": 30,
    "spoken": "zero three zero"
  },
  "wind_gust": null,
  "wind_speed": {
    "repr": "07",
    "value": 7,
    "spoken": "seven"
  },
  "wx_codes": [],
  "raw": "KBLI 012353Z 03007KT 10SM CLR M04/M12 A2983 RMK AO2 SLP111 T10391122 11017 21039 51015",
  "sanitized": "KBLI 012353Z 03007KT 10SM M04/M12 A2983 RMK AO2 SLP111 T10391122 11017 21039 51015",
  "station": "KBLI",
  "time": {
    "repr": "012353Z",
    "dt": "2022-12-01T23:53:00Z"
  },
  "remarks": "RMK AO2 SLP111 T10391122 11017 21039 51015",
  "dewpoint": {
    "repr": "M12",
    "value": -12,
    "spoken": "minus one two"
  },
  "relative_humidity": 0.5249808387376377,
  "remarks_info": {
    "maximum_temperature_6": {
      "repr": "11017",
      "value": -1.7,
      "spoken": "minus one point seven"
    },
    "minimum_temperature_6": {
      "repr": "21039",
      "value": -3.9,
      "spoken": "minus three point nine"
    },
    "pressure_tendency": {
      "repr": "51015",
      "tendency": "Increasing, then steady",
      "change": 1.5
    },
    "precip_36_hours": null,
    "precip_24_hours": null,
    "sunshine_minutes": null,
    "codes": [
      {
        "repr": "AO2",
        "value": "Automated with precipitation sensor"
      }
    ],
    "dewpoint_decimal": {
      "repr": "1122",
      "value": -12.2,
      "spoken": "minus one two point two"
    },
    "maximum_temperature_24": null,
    "minimum_temperature_24": null,
    "precip_hourly": null,
    "sea_level_pressure": {
      "repr": "SLP111",
      "value": 1011.1,
      "spoken": "one zero one one point one"
    },
    "snow_depth": null,
    "temperature_decimal": {
      "repr": "1039",
      "value": -3.9,
      "spoken": "minus three point nine"
    }
  },
  "runway_visibility": [],
  "temperature": {
    "repr": "M04",
    "value": -4,
    "spoken": "minus four"
  },
  "wind_variable_direction": [],
  "density_altitude": -1967,
  "pressure_altitude": 260,
  "units": {
    "accumulation": "in",
    "altimeter": "inHg",
    "altitude": "ft",
    "temperature": "C",
    "visibility": "sm",
    "wind_speed": "kt"
  }
}
