{
  "meta": {
    "timestamp": "2022-11-20T18:46:14.384233Z",
    "stations_updated": "2022-09-05"
  },
  "altimeter": {
    "repr": "A3032",
    "value": 30.32,
    "spoken": "three zero point three two"
  },
  "clouds": [
    {
      "repr": "BKN110",
      "type": "BKN",
      "altitude": 110,
      "modifier": null
    }
  ],
  "flight_rules": "VFR",
  "other": [],
  "visibility": {
    "repr": "10",
    "value": 10,
    "spoken": "one zero"
  },
  "wind_direction": {
    "repr": "000",
    "value": 0,
    "spoken": "zero zero zero"
  },
  "wind_gust": null,
  "wind_speed": {
    "repr": "00",
    "value": 0,
    "spoken": "zero"
  },
  "wx_codes": [],
  "raw": "KBLI 201753Z 00000KT 10SM BKN110 03/M02 A3032 RMK AO2 SLP278 T00281017 10028 21039 51008",
  "sanitized": "KBLI 201753Z 00000KT 10SM BKN110 03/M02 A3032 RMK AO2 SLP278 T00281017 10028 21039 51008",
  "station": "KBLI",
  "time": {
    "repr": "201753Z",
    "dt": "2022-11-20T17:53:00Z"
  },
  "remarks": "RMK AO2 SLP278 T00281017 10028 21039 51008",
  "dewpoint": {
    "repr": "M02",
    "value": -2,
    "spoken": "minus two"
  },
  "relative_humidity": 0.7224495065799694,
  "remarks_info": {
    "maximum_temperature_6": {
      "repr": "10028",
      "value": 2.8,
      "spoken": "two point eight"
    },
    "minimum_temperature_6": {
      "repr": "21039",
      "value": -3.9,
      "spoken": "minus three point nine"
    },
    "pressure_tendency": {
      "repr": "51008",
      "tendency": "Increasing, then steady",
      "change": 0.8
    },
    "precip_36_hours": null,
    "precip_24_hours": null,
    "sunshine_minutes": null,
    "codes": [
      {
        "repr": "AO2",
        "value": "Automated with precipitation sensor"
      }
    ],
    "dewpoint_decimal": {
      "repr": "1017",
      "value": -1.7,
      "spoken": "minus one point seven"
    },
    "maximum_temperature_24": null,
    "minimum_temperature_24": null,
    "precip_hourly": null,
    "sea_level_pressure": {
      "repr": "SLP278",
      "value": 1027.8,
      "spoken": "one zero two seven point eight"
    },
    "snow_depth": null,
    "temperature_decimal": {
      "repr": "0028",
      "value": 2.8,
      "spoken": "two point eight"
    }
  },
  "runway_visibility": [],
  "temperature": {
    "repr": "03",
    "value": 3,
    "spoken": "three"
  },
  "wind_variable_direction": [],
  "density_altitude": -1653,
  "pressure_altitude": -230,
  "units": {
    "accumulation": "in",
    "altimeter": "inHg",
    "altitude": "ft",
    "temperature": "C",
    "visibility": "sm",
    "wind_speed": "kt"
  }
}
