{
  "meta": {
    "timestamp": "2022-11-16T11:01:42.307306Z",
    "stations_updated": "2022-09-05"
  },
  "altimeter": {
    "repr": "A3059",
    "value": 30.59,
    "spoken": "three zero point five nine"
  },
  "clouds": [
    {
      "repr": "VV001",
      "type": "VV",
      "altitude": 1,
      "modifier": null
    }
  ],
  "flight_rules": "LIFR",
  "other": [],
  "visibility": {
    "repr": "1/2",
    "value": 0.5,
    "spoken": "one half",
    "numerator": 1,
    "denominator": 2,
    "normalized": "1/2"
  },
  "wind_direction": {
    "repr": "000",
    "value": 0,
    "spoken": "zero zero zero"
  },
  "wind_gust": null,
  "wind_speed": {
    "repr": "00",
    "value": 0,
    "spoken": "zero"
  },
  "wx_codes": [
    {
      "repr": "FZFG",
      "value": "Freezing Fog"
    }
  ],
  "raw": "KBLI 161053Z AUTO 00000KT 1/2SM R16/2800V4000FT FZFG VV001 M02/M02 A3059 RMK AO2 SLP369 I1001 T10221022",
  "sanitized": "KBLI 161053Z 00000KT 1/2SM R16/2800V4000FT FZFG VV001 M02/M02 A3059 RMK AO2 SLP369 I1001 T10221022",
  "station": "KBLI",
  "time": {
    "repr": "161053Z",
    "dt": "2022-11-16T10:53:00Z"
  },
  "remarks": "RMK AO2 SLP369 I1001 T10221022",
  "dewpoint": {
    "repr": "M02",
    "value": -2,
    "spoken": "minus two"
  },
  "relative_humidity": 1,
  "remarks_info": {
    "maximum_temperature_6": null,
    "minimum_temperature_6": null,
    "pressure_tendency": null,
    "precip_36_hours": null,
    "precip_24_hours": null,
    "sunshine_minutes": null,
    "codes": [
      {
        "repr": "AO2",
        "value": "Automated with precipitation sensor"
      }
    ],
    "dewpoint_decimal": {
      "repr": "1022",
      "value": -2.2,
      "spoken": "minus two point two"
    },
    "maximum_temperature_24": null,
    "minimum_temperature_24": null,
    "precip_hourly": null,
    "sea_level_pressure": {
      "repr": "SLP369",
      "value": 1036.9,
      "spoken": "one zero three six point nine"
    },
    "snow_depth": null,
    "temperature_decimal": {
      "repr": "1022",
      "value": -2.2,
      "spoken": "minus two point two"
    }
  },
  "runway_visibility": [
    {
      "repr": "R16/2800V4000FT",
      "runway": "16",
      "visibility": null,
      "variable_visibility": [
        {
          "repr": "2800",
          "value": 2800,
          "spoken": "two eight hundred"
        },
        {
          "repr": "4000",
          "value": 4000,
          "spoken": "four thousand"
        }
      ],
      "trend": null
    }
  ],
  "temperature": {
    "repr": "M02",
    "value": -2,
    "spoken": "minus two"
  },
  "wind_variable_direction": [],
  "density_altitude": -2523,
  "pressure_altitude": -500,
  "units": {
    "accumulation": "in",
    "altimeter": "inHg",
    "altitude": "ft",
    "temperature": "C",
    "visibility": "sm",
    "wind_speed": "kt"
  }
}
