{
  "altimeter": {
    "repr": "A3019",
    "spoken": "three zero point one nine",
    "value": 30.19
  },
  "clouds": [],
  "density_altitude": 409,
  "dewpoint": {
    "repr": "13",
    "spoken": "one three",
    "value": 13
  },
  "flight_rules": "VFR",
  "meta": {
    "stations_updated": "2024-06-12",
    "timestamp": "2024-08-29T18:08:45.625279Z"
  },
  "other": [],
  "pressure_altitude": -100,
  "raw": "KBLI 291753Z VRB05KT 10SM CLR 19/13 A3019 RMK AO2 SLP228 T01890128 10189 20072 58007 $",
  "relative_humidity": 0.6768815481108411,
  "remarks": "RMK AO2 SLP228 T01890128 10189 20072 58007 $",
  "remarks_info": {
    "codes": [
      {
        "repr": "$",
        "value": "ASOS requires maintenance"
      },
      {
        "repr": "AO2",
        "value": "Automated with precipitation sensor"
      }
    ],
    "dewpoint_decimal": {
      "repr": "0128",
      "spoken": "one two point eight",
      "value": 12.8
    },
    "maximum_temperature_24": null,
    "maximum_temperature_6": {
      "repr": "10189",
      "spoken": "one eight point nine",
      "value": 18.9
    },
    "minimum_temperature_24": null,
    "minimum_temperature_6": {
      "repr": "20072",
      "spoken": "seven point two",
      "value": 7.2
    },
    "precip_24_hours": null,
    "precip_36_hours": null,
    "precip_hourly": null,
    "pressure_tendency": {
      "change": 0.7,
      "repr": "58007",
      "tendency": "Steady or increasing, then decreasing"
    },
    "sea_level_pressure": {
      "repr": "SLP228",
      "spoken": "one zero two two point eight",
      "value": 1022.8
    },
    "snow_depth": null,
    "sunshine_minutes": null,
    "temperature_decimal": {
      "repr": "0189",
      "spoken": "one eight point nine",
      "value": 18.9
    }
  },
  "runway_visibility": [],
  "sanitized": "KBLI 291753Z VRB05KT 10SM 19/13 A3019 RMK AO2 SLP228 T01890128 10189 20072 58007 $",
  "station": "KBLI",
  "temperature": {
    "repr": "19",
    "spoken": "one nine",
    "value": 19
  },
  "time": {
    "dt": "2024-08-29T17:53:00Z",
    "repr": "291753Z"
  },
  "units": {
    "accumulation": "in",
    "altimeter": "inHg",
    "altitude": "ft",
    "temperature": "C",
    "visibility": "sm",
    "wind_speed": "kt"
  },
  "visibility": {
    "repr": "10",
    "spoken": "one zero",
    "value": 10
  },
  "wind_direction": {
    "repr": "VRB",
    "spoken": "variable",
    "value": null
  },
  "wind_gust": null,
  "wind_speed": {
    "repr": "05",
    "spoken": "five",
    "value": 5
  },
  "wind_variable_direction": [],
  "wx_codes": []
}
