{
  "altimeter": {
    "repr": "A2981",
    "spoken": "two nine point eight one",
    "value": 29.81
  },
  "clouds": [
    {
      "altitude": 90,
      "modifier": null,
      "repr": "OVC090",
      "type": "OVC"
    }
  ],
  "density_altitude": -279,
  "dewpoint": {
    "repr": "01",
    "spoken": "one",
    "value": 1
  },
  "flight_rules": "VFR",
  "meta": {
    "cache-timestamp": "2024-04-06T00:26:05.185000Z",
    "stations_updated": "2024-01-01",
    "timestamp": "2024-04-06T00:26:11.580148Z"
  },
  "other": [],
  "pressure_altitude": 280,
  "raw": "KBLI 052353Z 18008KT 10SM OVC090 10/01 A2981 RMK AO2 SLP103 T01000011 10100 20089 51007",
  "relative_humidity": 0.5392494636189656,
  "remarks": "RMK AO2 SLP103 T01000011 10100 20089 51007",
  "remarks_info": {
    "codes": [
      {
        "repr": "AO2",
        "value": "Automated with precipitation sensor"
      }
    ],
    "dewpoint_decimal": {
      "repr": "0011",
      "spoken": "one point one",
      "value": 1.1
    },
    "maximum_temperature_24": null,
    "maximum_temperature_6": {
      "repr": "10100",
      "spoken": "one zero point zero",
      "value": 10
    },
    "minimum_temperature_24": null,
    "minimum_temperature_6": {
      "repr": "20089",
      "spoken": "eight point nine",
      "value": 8.9
    },
    "precip_24_hours": null,
    "precip_36_hours": null,
    "precip_hourly": null,
    "pressure_tendency": {
      "change": 0.7,
      "repr": "51007",
      "tendency": "Increasing, then steady"
    },
    "sea_level_pressure": {
      "repr": "SLP103",
      "spoken": "one zero one zero point three",
      "value": 1010.3
    },
    "snow_depth": null,
    "sunshine_minutes": null,
    "temperature_decimal": {
      "repr": "0100",
      "spoken": "one zero point zero",
      "value": 10
    }
  },
  "runway_visibility": [],
  "sanitized": "KBLI 052353Z 18008KT 10SM OVC090 10/01 A2981 RMK AO2 SLP103 T01000011 10100 20089 51007",
  "station": "KBLI",
  "temperature": {
    "repr": "10",
    "spoken": "one zero",
    "value": 10
  },
  "time": {
    "dt": "2024-04-05T23:53:00Z",
    "repr": "052353Z"
  },
  "units": {
    "accumulation": "in",
    "altimeter": "inHg",
    "altitude": "ft",
    "temperature": "C",
    "visibility": "sm",
    "wind_speed": "kt"
  },
  "visibility": {
    "repr": "10",
    "spoken": "one zero",
    "value": 10
  },
  "wind_direction": {
    "repr": "180",
    "spoken": "one eight zero",
    "value": 180
  },
  "wind_gust": null,
  "wind_speed": {
    "repr": "08",
    "spoken": "eight",
    "value": 8
  },
  "wind_variable_direction": [],
  "wx_codes": []
}
