{
  "meta": {
    "timestamp": "2022-12-22T17:01:59.607901Z",
    "stations_updated": "2022-09-05"
  },
  "altimeter": {
    "repr": "A3049",
    "value": 30.49,
    "spoken": "three zero point four nine"
  },
  "clouds": [],
  "flight_rules": "VFR",
  "other": [],
  "visibility": {
    "repr": "10",
    "value": 10,
    "spoken": "one zero"
  },
  "wind_direction": {
    "repr": "040",
    "value": 40,
    "spoken": "zero four zero"
  },
  "wind_gust": {
    "repr": "26",
    "value": 26,
    "spoken": "two six"
  },
  "wind_speed": {
    "repr": "14",
    "value": 14,
    "spoken": "one four"
  },
  "wx_codes": [],
  "raw": "KBLI 221653Z 04014G26KT 10SM CLR M09/M21 A3049 RMK AO2 PK WND 03026/1650 SLP338 T10941206",
  "sanitized": "KBLI 221653Z 04014G26KT 10SM M09/M21 A3049 RMK AO2 PK WND 03026/1650 SLP338 T10941206",
  "station": "KBLI",
  "time": {
    "repr": "221653Z",
    "dt": "2022-12-22T16:53:00Z"
  },
  "remarks": "RMK AO2 PK WND 03026/1650 SLP338 T10941206",
  "dewpoint": {
    "repr": "M21",
    "value": -21,
    "spoken": "minus two one"
  },
  "relative_humidity": 0.39712230865171366,
  "remarks_info": {
    "maximum_temperature_6": null,
    "minimum_temperature_6": null,
    "pressure_tendency": null,
    "precip_36_hours": null,
    "precip_24_hours": null,
    "sunshine_minutes": null,
    "codes": [
      {
        "repr": "AO2",
        "value": "Automated with precipitation sensor"
      }
    ],
    "dewpoint_decimal": {
      "repr": "1206",
      "value": -20.6,
      "spoken": "minus two zero point six"
    },
    "maximum_temperature_24": null,
    "minimum_temperature_24": null,
    "precip_hourly": null,
    "sea_level_pressure": {
      "repr": "SLP338",
      "value": 1033.8,
      "spoken": "one zero three three point eight"
    },
    "snow_depth": null,
    "temperature_decimal": {
      "repr": "1094",
      "value": -9.4,
      "spoken": "minus nine point four"
    }
  },
  "runway_visibility": [],
  "temperature": {
    "repr": "M09",
    "value": -9,
    "spoken": "minus nine"
  },
  "wind_variable_direction": [],
  "density_altitude": -3287,
  "pressure_altitude": -400,
  "units": {
    "accumulation": "in",
    "altimeter": "inHg",
    "altitude": "ft",
    "temperature": "C",
    "visibility": "sm",
    "wind_speed": "kt"
  }
}
