{
  "meta": {
    "timestamp": "2022-11-17T13:51:13.127586Z",
    "stations_updated": "2022-09-05"
  },
  "altimeter": {
    "repr": "A3041",
    "value": 30.41,
    "spoken": "three zero point four one"
  },
  "clouds": [],
  "flight_rules": "VFR",
  "other": [],
  "visibility": {
    "repr": "10",
    "value": 10,
    "spoken": "one zero"
  },
  "wind_direction": {
    "repr": "040",
    "value": 40,
    "spoken": "zero four zero"
  },
  "wind_gust": {
    "repr": "37",
    "value": 37,
    "spoken": "three seven"
  },
  "wind_speed": {
    "repr": "17",
    "value": 17,
    "spoken": "one seven"
  },
  "wx_codes": [],
  "raw": "KBLI 171253Z AUTO 04017G37KT 10SM CLR 08/M04 A3041 RMK AO2 PK WND 04042/1231 SLP307 T00831039",
  "sanitized": "KBLI 171253Z 04017G37KT 10SM 08/M04 A3041 RMK AO2 PK WND 04042/1231 SLP307 T00831039",
  "station": "KBLI",
  "time": {
    "repr": "171253Z",
    "dt": "2022-11-17T12:53:00Z"
  },
  "remarks": "RMK AO2 PK WND 04042/1231 SLP307 T00831039",
  "dewpoint": {
    "repr": "M04",
    "value": -4,
    "spoken": "minus four"
  },
  "relative_humidity": 0.4189233887476274,
  "remarks_info": {
    "maximum_temperature_6": null,
    "minimum_temperature_6": null,
    "pressure_tendency": null,
    "precip_36_hours": null,
    "precip_24_hours": null,
    "sunshine_minutes": null,
    "codes": [
      {
        "repr": "AO2",
        "value": "Automated with precipitation sensor"
      }
    ],
    "dewpoint_decimal": {
      "repr": "1039",
      "value": -3.9,
      "spoken": "minus three point nine"
    },
    "maximum_temperature_24": null,
    "minimum_temperature_24": null,
    "precip_hourly": null,
    "sea_level_pressure": {
      "repr": "SLP307",
      "value": 1030.7,
      "spoken": "one zero three zero point seven"
    },
    "snow_depth": null,
    "temperature_decimal": {
      "repr": "0083",
      "value": 8.3,
      "spoken": "eight point three"
    }
  },
  "runway_visibility": [],
  "temperature": {
    "repr": "08",
    "value": 8,
    "spoken": "eight"
  },
  "wind_variable_direction": [],
  "density_altitude": -1083,
  "pressure_altitude": -320,
  "units": {
    "accumulation": "in",
    "altimeter": "inHg",
    "altitude": "ft",
    "temperature": "C",
    "visibility": "sm",
    "wind_speed": "kt"
  }
}
