{
  "meta": {
    "timestamp": "2023-02-22T08:32:33.111901Z",
    "stations_updated": "2023-01-30"
  },
  "altimeter": {
    "repr": "A2956",
    "value": 29.56,
    "spoken": "two nine point five six"
  },
  "clouds": [],
  "flight_rules": "VFR",
  "other": [],
  "visibility": {
    "repr": "10",
    "value": 10,
    "spoken": "one zero"
  },
  "wind_direction": {
    "repr": "040",
    "value": 40,
    "spoken": "zero four zero"
  },
  "wind_gust": {
    "repr": "38",
    "value": 38,
    "spoken": "three eight"
  },
  "wind_speed": {
    "repr": "24",
    "value": 24,
    "spoken": "two four"
  },
  "wx_codes": [],
  "raw": "KBLI 220753Z AUTO 04024G38KT 10SM CLR M01/M10 A2956 RMK AO2 PK WND 03040/0731 SLP019 T10061100 400941006",
  "sanitized": "KBLI 220753Z 04024G38KT 10SM M01/M10 A2956 RMK AO2 PK WND 03040/0731 SLP019 T10061100 400941006",
  "station": "KBLI",
  "time": {
    "repr": "220753Z",
    "dt": "2023-02-22T07:53:00Z"
  },
  "remarks": "RMK AO2 PK WND 03040/0731 SLP019 T10061100 400941006",
  "dewpoint": {
    "repr": "M10",
    "value": -10,
    "spoken": "minus one zero"
  },
  "relative_humidity": 0.4901236413549328,
  "remarks_info": {
    "maximum_temperature_6": null,
    "minimum_temperature_6": null,
    "pressure_tendency": null,
    "precip_36_hours": null,
    "precip_24_hours": null,
    "sunshine_minutes": null,
    "codes": [
      {
        "repr": "AO2",
        "value": "Automated with precipitation sensor"
      }
    ],
    "dewpoint_decimal": {
      "repr": "1100",
      "value": -10,
      "spoken": "minus one zero point zero"
    },
    "maximum_temperature_24": {
      "repr": "0094",
      "value": 9.4,
      "spoken": "nine point four"
    },
    "minimum_temperature_24": {
      "repr": "1006",
      "value": -0.6,
      "spoken": "minus zero point six"
    },
    "precip_hourly": null,
    "sea_level_pressure": {
      "repr": "SLP019",
      "value": 1001.9,
      "spoken": "one zero zero one point nine"
    },
    "snow_depth": null,
    "temperature_decimal": {
      "repr": "1006",
      "value": -0.6,
      "spoken": "minus zero point six"
    }
  },
  "runway_visibility": [],
  "temperature": {
    "repr": "M01",
    "value": -1,
    "spoken": "minus one"
  },
  "wind_variable_direction": [],
  "density_altitude": -1301,
  "pressure_altitude": 530,
  "units": {
    "accumulation": "in",
    "altimeter": "inHg",
    "altitude": "ft",
    "temperature": "C",
    "visibility": "sm",
    "wind_speed": "kt"
  }
}
