{
  "meta": {
    "timestamp": "2023-03-01T16:53:13.800094Z",
    "stations_updated": "2023-01-30"
  },
  "altimeter": {
    "repr": "A3002",
    "value": 30.02,
    "spoken": "three zero point zero two"
  },
  "clouds": [
    {
      "repr": "BKN016",
      "type": "BKN",
      "altitude": 16,
      "modifier": null
    },
    {
      "repr": "BKN030",
      "type": "BKN",
      "altitude": 30,
      "modifier": null
    },
    {
      "repr": "OVC035",
      "type": "OVC",
      "altitude": 35,
      "modifier": null
    }
  ],
  "flight_rules": "MVFR",
  "other": [],
  "visibility": {
    "repr": "10",
    "value": 10,
    "spoken": "one zero"
  },
  "wind_direction": {
    "repr": "180",
    "value": 180,
    "spoken": "one eight zero"
  },
  "wind_gust": null,
  "wind_speed": {
    "repr": "03",
    "value": 3,
    "spoken": "three"
  },
  "wx_codes": [],
  "raw": "KBLI 011623Z 18003KT 10SM BKN016 BKN030 OVC035 00/00 A3002 RMK AO2 I1001 T00000000",
  "sanitized": "KBLI 011623Z 18003KT 10SM BKN016 BKN030 OVC035 00/00 A3002 RMK AO2 I1001 T00000000",
  "station": "KBLI",
  "time": {
    "repr": "011623Z",
    "dt": "2023-03-01T16:23:00Z"
  },
  "remarks": "RMK AO2 I1001 T00000000",
  "dewpoint": {
    "repr": "00",
    "value": 0,
    "spoken": "zero"
  },
  "relative_humidity": 1,
  "remarks_info": {
    "maximum_temperature_6": null,
    "minimum_temperature_6": null,
    "pressure_tendency": null,
    "precip_36_hours": null,
    "precip_24_hours": null,
    "sunshine_minutes": null,
    "codes": [
      {
        "repr": "AO2",
        "value": "Automated with precipitation sensor"
      }
    ],
    "dewpoint_decimal": {
      "repr": "0000",
      "value": 0,
      "spoken": "zero"
    },
    "maximum_temperature_24": null,
    "minimum_temperature_24": null,
    "precip_hourly": null,
    "sea_level_pressure": null,
    "snow_depth": null,
    "temperature_decimal": {
      "repr": "0000",
      "value": 0,
      "spoken": "zero"
    }
  },
  "runway_visibility": [],
  "temperature": {
    "repr": "00",
    "value": 0,
    "spoken": "zero"
  },
  "wind_variable_direction": [],
  "density_altitude": -1689,
  "pressure_altitude": 70,
  "units": {
    "accumulation": "in",
    "altimeter": "inHg",
    "altitude": "ft",
    "temperature": "C",
    "visibility": "sm",
    "wind_speed": "kt"
  }
}
