{
  "meta": {
    "timestamp": "2022-12-22T09:40:34.135651Z",
    "stations_updated": "2022-09-05"
  },
  "altimeter": {
    "repr": "A3062",
    "value": 30.62,
    "spoken": "three zero point six two"
  },
  "clouds": [],
  "flight_rules": "VFR",
  "other": [],
  "visibility": {
    "repr": "10",
    "value": 10,
    "spoken": "one zero"
  },
  "wind_direction": {
    "repr": "040",
    "value": 40,
    "spoken": "zero four zero"
  },
  "wind_gust": {
    "repr": "32",
    "value": 32,
    "spoken": "three two"
  },
  "wind_speed": {
    "repr": "15",
    "value": 15,
    "spoken": "one five"
  },
  "wx_codes": [],
  "raw": "KBLI 220853Z AUTO 04015G32KT 10SM CLR M12/M22 A3062 RMK AO2 PK WND 04035/0841 SLP383 T11171217 50001",
  "sanitized": "KBLI 220853Z 04015G32KT 10SM M12/M22 A3062 RMK AO2 PK WND 04035/0841 SLP383 T11171217 50001",
  "station": "KBLI",
  "time": {
    "repr": "220853Z",
    "dt": "2022-12-22T08:53:00Z"
  },
  "remarks": "RMK AO2 PK WND 04035/0841 SLP383 T11171217 50001",
  "dewpoint": {
    "repr": "M22",
    "value": -22,
    "spoken": "minus two two"
  },
  "relative_humidity": 0.4330617729848366,
  "remarks_info": {
    "maximum_temperature_6": null,
    "minimum_temperature_6": null,
    "pressure_tendency": {
      "repr": "50001",
      "tendency": "Increasing, then decreasing",
      "change": 0.1
    },
    "precip_36_hours": null,
    "precip_24_hours": null,
    "sunshine_minutes": null,
    "codes": [
      {
        "repr": "AO2",
        "value": "Automated with precipitation sensor"
      }
    ],
    "dewpoint_decimal": {
      "repr": "1217",
      "value": -21.7,
      "spoken": "minus two one point seven"
    },
    "maximum_temperature_24": null,
    "minimum_temperature_24": null,
    "precip_hourly": null,
    "sea_level_pressure": {
      "repr": "SLP383",
      "value": 1038.3,
      "spoken": "one zero three eight point three"
    },
    "snow_depth": null,
    "temperature_decimal": {
      "repr": "1117",
      "value": -11.7,
      "spoken": "minus one one point seven"
    }
  },
  "runway_visibility": [],
  "temperature": {
    "repr": "M12",
    "value": -12,
    "spoken": "minus one two"
  },
  "wind_variable_direction": [],
  "density_altitude": -3693,
  "pressure_altitude": -530,
  "units": {
    "accumulation": "in",
    "altimeter": "inHg",
    "altitude": "ft",
    "temperature": "C",
    "visibility": "sm",
    "wind_speed": "kt"
  }
}
