{
  "meta": {
    "timestamp": "2023-05-18T18:40:34.731039Z",
    "stations_updated": "2023-03-11",
    "cache-timestamp": "2023-05-18T18:40:07.418000Z"
  },
  "altimeter": {
    "repr": "A2993",
    "value": 29.93,
    "spoken": "two nine point nine three"
  },
  "clouds": [],
  "flight_rules": "VFR",
  "other": [],
  "visibility": {
    "repr": "10",
    "value": 10,
    "spoken": "one zero"
  },
  "wind_direction": {
    "repr": "VRB",
    "value": null,
    "spoken": "variable"
  },
  "wind_gust": {
    "repr": "16",
    "value": 16,
    "spoken": "one six"
  },
  "wind_speed": {
    "repr": "06",
    "value": 6,
    "spoken": "six"
  },
  "wx_codes": [],
  "raw": "KBLI 181753Z VRB06G16KT 10SM CLR 19/14 A2993 RMK AO2 SLP141 T01940144 10194 20128 51008",
  "sanitized": "KBLI 181753Z VRB06G16KT 10SM 19/14 A2993 RMK AO2 SLP141 T01940144 10194 20128 51008",
  "station": "KBLI",
  "time": {
    "repr": "181753Z",
    "dt": "2023-05-18T17:53:00Z"
  },
  "remarks": "RMK AO2 SLP141 T01940144 10194 20128 51008",
  "dewpoint": {
    "repr": "14",
    "value": 14,
    "spoken": "one four"
  },
  "relative_humidity": 0.7281157363008879,
  "remarks_info": {
    "maximum_temperature_6": {
      "repr": "10194",
      "value": 19.4,
      "spoken": "one nine point four"
    },
    "minimum_temperature_6": {
      "repr": "20128",
      "value": 12.8,
      "spoken": "one two point eight"
    },
    "pressure_tendency": {
      "repr": "51008",
      "tendency": "Increasing, then steady",
      "change": 0.8
    },
    "precip_36_hours": null,
    "precip_24_hours": null,
    "sunshine_minutes": null,
    "codes": [
      {
        "repr": "AO2",
        "value": "Automated with precipitation sensor"
      }
    ],
    "dewpoint_decimal": {
      "repr": "0144",
      "value": 14.4,
      "spoken": "one four point four"
    },
    "maximum_temperature_24": null,
    "minimum_temperature_24": null,
    "precip_hourly": null,
    "sea_level_pressure": {
      "repr": "SLP141",
      "value": 1014.1,
      "spoken": "one zero one four point one"
    },
    "snow_depth": null,
    "temperature_decimal": {
      "repr": "0194",
      "value": 19.4,
      "spoken": "one nine point four"
    }
  },
  "runway_visibility": [],
  "temperature": {
    "repr": "19",
    "value": 19,
    "spoken": "one nine"
  },
  "wind_variable_direction": [],
  "density_altitude": 729,
  "pressure_altitude": 160,
  "units": {
    "accumulation": "in",
    "altimeter": "inHg",
    "altitude": "ft",
    "temperature": "C",
    "visibility": "sm",
    "wind_speed": "kt"
  }
}
