{
  "meta": {
    "timestamp": "2022-09-08T00:34:20.211406Z",
    "stations_updated": "2022-07-17"
  },
  "altimeter": {
    "repr": "A3018",
    "value": 30.18,
    "spoken": "three zero point one eight"
  },
  "clouds": [],
  "flight_rules": "VFR",
  "other": [],
  "visibility": {
    "repr": "10",
    "value": 10,
    "spoken": "one zero"
  },
  "wind_direction": {
    "repr": "290",
    "value": 290,
    "spoken": "two nine zero"
  },
  "wind_gust": null,
  "wind_speed": {
    "repr": "07",
    "value": 7,
    "spoken": "seven"
  },
  "wx_codes": [],
  "raw": "KBLI 072353Z 29007KT 260V340 10SM CLR 22/06 A3018 RMK AO2 SLP226 T02170056 10233 20194 58002",
  "sanitized": "KBLI 072353Z 29007KT 260V340 10SM 22/06 A3018 RMK AO2 SLP226 T02170056 10233 20194 58002",
  "station": "KBLI",
  "time": {
    "repr": "072353Z",
    "dt": "2022-09-07T23:53:00Z"
  },
  "remarks": "RMK AO2 SLP226 T02170056 10233 20194 58002",
  "dewpoint": {
    "repr": "06",
    "value": 6,
    "spoken": "six"
  },
  "relative_humidity": 0.3504243748944453,
  "remarks_info": {
    "maximum_temperature_6": {
      "repr": "10233",
      "value": 23.3,
      "spoken": "two three point three"
    },
    "minimum_temperature_6": {
      "repr": "20194",
      "value": 19.4,
      "spoken": "one nine point four"
    },
    "pressure_tendency": {
      "repr": "58002",
      "tendency": "Steady or increasing, then decreasing",
      "change": 0.2
    },
    "precip_36_hours": null,
    "precip_24_hours": null,
    "sunshine_minutes": null,
    "codes": [
      {
        "repr": "AO2",
        "value": "Automated with precipitation sensor"
      }
    ],
    "dewpoint_decimal": {
      "repr": "0056",
      "value": 5.6,
      "spoken": "five point six"
    },
    "maximum_temperature_24": null,
    "minimum_temperature_24": null,
    "precip_hourly": null,
    "sea_level_pressure": {
      "repr": "SLP226",
      "value": 1022.6,
      "spoken": "one zero two two point six"
    },
    "snow_depth": null,
    "temperature_decimal": {
      "repr": "0217",
      "value": 21.7,
      "spoken": "two one point seven"
    }
  },
  "runway_visibility": [],
  "temperature": {
    "repr": "22",
    "value": 22,
    "spoken": "two two"
  },
  "wind_variable_direction": [
    {
      "repr": "260",
      "value": 260,
      "spoken": "two six zero"
    },
    {
      "repr": "340",
      "value": 340,
      "spoken": "three four zero"
    }
  ],
  "density_altitude": 755,
  "pressure_altitude": -90,
  "units": {
    "accumulation": "in",
    "altimeter": "inHg",
    "altitude": "ft",
    "temperature": "C",
    "visibility": "sm",
    "wind_speed": "kt"
  }
}
