{
  "altimeter": {
    "repr": "A3010",
    "spoken": "three zero point one zero",
    "value": 30.1
  },
  "clouds": [],
  "density_altitude": -1973,
  "dewpoint": {
    "repr": "M09",
    "spoken": "minus nine",
    "value": -9
  },
  "flight_rules": "VFR",
  "meta": {
    "cache-timestamp": "2024-01-18T14:40:03.219000Z",
    "stations_updated": "2023-10-28",
    "timestamp": "2024-01-18T14:40:44.766743Z"
  },
  "other": [],
  "pressure_altitude": -10,
  "raw": "KBLI 181353Z AUTO 04016G25KT 10SM CLR M02/M09 A3010 RMK AO2 PK WND 04028/1339 SLP202 T10171094",
  "relative_humidity": 0.5569462565414878,
  "remarks": "RMK AO2 PK WND 04028/1339 SLP202 T10171094",
  "remarks_info": {
    "codes": [
      {
        "repr": "AO2",
        "value": "Automated with precipitation sensor"
      }
    ],
    "dewpoint_decimal": {
      "repr": "1094",
      "spoken": "minus nine point four",
      "value": -9.4
    },
    "maximum_temperature_24": null,
    "maximum_temperature_6": null,
    "minimum_temperature_24": null,
    "minimum_temperature_6": null,
    "precip_24_hours": null,
    "precip_36_hours": null,
    "precip_hourly": null,
    "pressure_tendency": null,
    "sea_level_pressure": {
      "repr": "SLP202",
      "spoken": "one zero two zero point two",
      "value": 1020.2
    },
    "snow_depth": null,
    "sunshine_minutes": null,
    "temperature_decimal": {
      "repr": "1017",
      "spoken": "minus one point seven",
      "value": -1.7
    }
  },
  "runway_visibility": [],
  "sanitized": "KBLI 181353Z 04016G25KT 10SM M02/M09 A3010 RMK AO2 PK WND 04028/1339 SLP202 T10171094",
  "station": "KBLI",
  "temperature": {
    "repr": "M02",
    "spoken": "minus two",
    "value": -2
  },
  "time": {
    "dt": "2024-01-18T13:53:00Z",
    "repr": "181353Z"
  },
  "units": {
    "accumulation": "in",
    "altimeter": "inHg",
    "altitude": "ft",
    "temperature": "C",
    "visibility": "sm",
    "wind_speed": "kt"
  },
  "visibility": {
    "repr": "10",
    "spoken": "one zero",
    "value": 10
  },
  "wind_direction": {
    "repr": "040",
    "spoken": "zero four zero",
    "value": 40
  },
  "wind_gust": {
    "repr": "25",
    "spoken": "two five",
    "value": 25
  },
  "wind_speed": {
    "repr": "16",
    "spoken": "one six",
    "value": 16
  },
  "wind_variable_direction": [],
  "wx_codes": []
}
