{
  "meta": {
    "timestamp": "2023-08-04T00:29:44.259314Z",
    "stations_updated": "2023-06-06"
  },
  "altimeter": {
    "repr": "A3007",
    "value": 30.07,
    "spoken": "three zero point zero seven"
  },
  "clouds": [],
  "flight_rules": "VFR",
  "other": [],
  "visibility": {
    "repr": "10",
    "value": 10,
    "spoken": "one zero"
  },
  "wind_direction": {
    "repr": "280",
    "value": 280,
    "spoken": "two eight zero"
  },
  "wind_gust": null,
  "wind_speed": {
    "repr": "07",
    "value": 7,
    "spoken": "seven"
  },
  "wx_codes": [],
  "raw": "KBLI 032353Z 28007KT 10SM CLR 26/12 A3007 RMK AO2 SLP188 T02610122 10272 20200 58009",
  "sanitized": "KBLI 032353Z 28007KT 10SM 26/12 A3007 RMK AO2 SLP188 T02610122 10272 20200 58009",
  "station": "KBLI",
  "time": {
    "repr": "032353Z",
    "dt": "2023-08-03T23:53:00Z"
  },
  "remarks": "RMK AO2 SLP188 T02610122 10272 20200 58009",
  "dewpoint": {
    "repr": "12",
    "value": 12,
    "spoken": "one two"
  },
  "relative_humidity": 0.419974888720359,
  "remarks_info": {
    "maximum_temperature_6": {
      "repr": "10272",
      "value": 27.2,
      "spoken": "two seven point two"
    },
    "minimum_temperature_6": {
      "repr": "20200",
      "value": 20,
      "spoken": "two zero point zero"
    },
    "pressure_tendency": {
      "repr": "58009",
      "tendency": "Steady or increasing, then decreasing",
      "change": 0.9
    },
    "precip_36_hours": null,
    "precip_24_hours": null,
    "sunshine_minutes": null,
    "codes": [
      {
        "repr": "AO2",
        "value": "Automated with precipitation sensor"
      }
    ],
    "dewpoint_decimal": {
      "repr": "0122",
      "value": 12.2,
      "spoken": "one two point two"
    },
    "maximum_temperature_24": null,
    "minimum_temperature_24": null,
    "precip_hourly": null,
    "sea_level_pressure": {
      "repr": "SLP188",
      "value": 1018.8,
      "spoken": "one zero one eight point eight"
    },
    "snow_depth": null,
    "temperature_decimal": {
      "repr": "0261",
      "value": 26.1,
      "spoken": "two six point one"
    }
  },
  "runway_visibility": [],
  "temperature": {
    "repr": "26",
    "value": 26,
    "spoken": "two six"
  },
  "wind_variable_direction": [],
  "density_altitude": 1393,
  "pressure_altitude": 20,
  "units": {
    "accumulation": "in",
    "altimeter": "inHg",
    "altitude": "ft",
    "temperature": "C",
    "visibility": "sm",
    "wind_speed": "kt"
  }
}
