{
  "meta": {
    "timestamp": "2022-12-19T10:41:37.707773Z",
    "stations_updated": "2022-09-05"
  },
  "altimeter": {
    "repr": "A3021",
    "value": 30.21,
    "spoken": "three zero point two one"
  },
  "clouds": [
    {
      "repr": "BKN046",
      "type": "BKN",
      "altitude": 46,
      "modifier": null
    },
    {
      "repr": "OVC065",
      "type": "OVC",
      "altitude": 65,
      "modifier": null
    }
  ],
  "flight_rules": "VFR",
  "other": [],
  "visibility": {
    "repr": "10",
    "value": 10,
    "spoken": "one zero"
  },
  "wind_direction": {
    "repr": "040",
    "value": 40,
    "spoken": "zero four zero"
  },
  "wind_gust": {
    "repr": "23",
    "value": 23,
    "spoken": "two three"
  },
  "wind_speed": {
    "repr": "15",
    "value": 15,
    "spoken": "one five"
  },
  "wx_codes": [],
  "raw": "KBLI 190953Z AUTO 04015G23KT 10SM BKN046 OVC065 M09/M16 A3021 RMK AO2 PK WND 05026/0930 SLP243 T10891161 $",
  "sanitized": "KBLI 190953Z 04015G23KT 10SM BKN046 OVC065 M09/M16 A3021 RMK AO2 PK WND 05026/0930 SLP243 T10891161 $",
  "station": "KBLI",
  "time": {
    "repr": "190953Z",
    "dt": "2022-12-19T09:53:00Z"
  },
  "remarks": "RMK AO2 PK WND 05026/0930 SLP243 T10891161 $",
  "dewpoint": {
    "repr": "M16",
    "value": -16,
    "spoken": "minus one six"
  },
  "relative_humidity": 0.559508282571168,
  "remarks_info": {
    "maximum_temperature_6": null,
    "minimum_temperature_6": null,
    "pressure_tendency": null,
    "precip_36_hours": null,
    "precip_24_hours": null,
    "sunshine_minutes": null,
    "codes": [
      {
        "repr": "$",
        "value": "ASOS requires maintenance"
      },
      {
        "repr": "AO2",
        "value": "Automated with precipitation sensor"
      }
    ],
    "dewpoint_decimal": {
      "repr": "1161",
      "value": -16.1,
      "spoken": "minus one six point one"
    },
    "maximum_temperature_24": null,
    "minimum_temperature_24": null,
    "precip_hourly": null,
    "sea_level_pressure": {
      "repr": "SLP243",
      "value": 1024.3,
      "spoken": "one zero two four point three"
    },
    "snow_depth": null,
    "temperature_decimal": {
      "repr": "1089",
      "value": -8.9,
      "spoken": "minus eight point nine"
    }
  },
  "runway_visibility": [],
  "temperature": {
    "repr": "M09",
    "value": -9,
    "spoken": "minus nine"
  },
  "wind_variable_direction": [],
  "density_altitude": -2947,
  "pressure_altitude": -120,
  "units": {
    "accumulation": "in",
    "altimeter": "inHg",
    "altitude": "ft",
    "temperature": "C",
    "visibility": "sm",
    "wind_speed": "kt"
  }
}
