{
  "meta": {
    "timestamp": "2022-12-10T12:44:54.612245Z",
    "stations_updated": "2022-09-05"
  },
  "altimeter": {
    "repr": "A2928",
    "value": 29.28,
    "spoken": "two nine point two eight"
  },
  "clouds": [
    {
      "repr": "OVC037",
      "type": "OVC",
      "altitude": 37,
      "modifier": null
    }
  ],
  "flight_rules": "VFR",
  "other": [],
  "visibility": {
    "repr": "10",
    "value": 10,
    "spoken": "one zero"
  },
  "wind_direction": {
    "repr": "VRB",
    "value": null,
    "spoken": "variable"
  },
  "wind_gust": null,
  "wind_speed": {
    "repr": "04",
    "value": 4,
    "spoken": "four"
  },
  "wx_codes": [],
  "raw": "KBLI 101153Z AUTO VRB04KT 10SM OVC037 04/03 A2928 RMK AO2 SLP923 60001 70002 T00440033 10050 20033 58009",
  "sanitized": "KBLI 101153Z VRB04KT 10SM OVC037 04/03 A2928 RMK AO2 SLP923 60001 70002 T00440033 10050 20033 58009",
  "station": "KBLI",
  "time": {
    "repr": "101153Z",
    "dt": "2022-12-10T11:53:00Z"
  },
  "remarks": "RMK AO2 SLP923 60001 70002 T00440033 10050 20033 58009",
  "dewpoint": {
    "repr": "03",
    "value": 3,
    "spoken": "three"
  },
  "relative_humidity": 0.9255582325082627,
  "remarks_info": {
    "maximum_temperature_6": {
      "repr": "10050",
      "value": 5,
      "spoken": "five point zero"
    },
    "minimum_temperature_6": {
      "repr": "20033",
      "value": 3.3,
      "spoken": "three point three"
    },
    "pressure_tendency": {
      "repr": "58009",
      "tendency": "Steady or increasing, then decreasing",
      "change": 0.9
    },
    "precip_36_hours": {
      "repr": "60001",
      "value": 0.01,
      "spoken": "zero point zero one"
    },
    "precip_24_hours": {
      "repr": "70002",
      "value": 0.02,
      "spoken": "zero point zero two"
    },
    "sunshine_minutes": null,
    "codes": [
      {
        "repr": "AO2",
        "value": "Automated with precipitation sensor"
      }
    ],
    "dewpoint_decimal": {
      "repr": "0033",
      "value": 3.3,
      "spoken": "three point three"
    },
    "maximum_temperature_24": null,
    "minimum_temperature_24": null,
    "precip_hourly": null,
    "sea_level_pressure": {
      "repr": "SLP923",
      "value": 992.3,
      "spoken": "nine nine two point three"
    },
    "snow_depth": null,
    "temperature_decimal": {
      "repr": "0044",
      "value": 4.4,
      "spoken": "four point four"
    }
  },
  "runway_visibility": [],
  "temperature": {
    "repr": "04",
    "value": 4,
    "spoken": "four"
  },
  "wind_variable_direction": [],
  "density_altitude": -421,
  "pressure_altitude": 810,
  "units": {
    "accumulation": "in",
    "altimeter": "inHg",
    "altitude": "ft",
    "temperature": "C",
    "visibility": "sm",
    "wind_speed": "kt"
  }
}
