{
  "altimeter": {
    "repr": "A2951",
    "spoken": "two nine point five one",
    "value": 29.51
  },
  "clouds": [
    {
      "altitude": 75,
      "modifier": null,
      "repr": "OVC075",
      "type": "OVC"
    }
  ],
  "density_altitude": -375,
  "dewpoint": {
    "repr": "06",
    "spoken": "six",
    "value": 6
  },
  "flight_rules": "VFR",
  "meta": {
    "cache-timestamp": "2023-12-19T09:40:05.631000Z",
    "stations_updated": "2023-10-28",
    "timestamp": "2023-12-19T09:40:30.381740Z"
  },
  "other": [],
  "pressure_altitude": 580,
  "raw": "KBLI 190853Z AUTO 05003KT 8SM -RA OVC075 07/06 A2951 RMK AO2 SLP002 P0002 60004 T00670061 58013",
  "relative_humidity": 0.9595042676817481,
  "remarks": "RMK AO2 SLP002 P0002 60004 T00670061 58013",
  "remarks_info": {
    "codes": [
      {
        "repr": "AO2",
        "value": "Automated with precipitation sensor"
      }
    ],
    "dewpoint_decimal": {
      "repr": "0061",
      "spoken": "six point one",
      "value": 6.1
    },
    "maximum_temperature_24": null,
    "maximum_temperature_6": null,
    "minimum_temperature_24": null,
    "minimum_temperature_6": null,
    "precip_24_hours": null,
    "precip_36_hours": {
      "repr": "60004",
      "spoken": "zero point zero four",
      "value": 0.04
    },
    "precip_hourly": {
      "repr": "P0002",
      "spoken": "zero point zero two",
      "value": 0.02
    },
    "pressure_tendency": {
      "change": 1.3,
      "repr": "58013",
      "tendency": "Steady or increasing, then decreasing"
    },
    "sea_level_pressure": {
      "repr": "SLP002",
      "spoken": "one zero zero zero point two",
      "value": 1000.2
    },
    "snow_depth": null,
    "sunshine_minutes": null,
    "temperature_decimal": {
      "repr": "0067",
      "spoken": "six point seven",
      "value": 6.7
    }
  },
  "runway_visibility": [],
  "sanitized": "KBLI 190853Z 05003KT 8SM -RA OVC075 07/06 A2951 RMK AO2 SLP002 P0002 60004 T00670061 58013",
  "station": "KBLI",
  "temperature": {
    "repr": "07",
    "spoken": "seven",
    "value": 7
  },
  "time": {
    "dt": "2023-12-19T08:53:00Z",
    "repr": "190853Z"
  },
  "units": {
    "accumulation": "in",
    "altimeter": "inHg",
    "altitude": "ft",
    "temperature": "C",
    "visibility": "sm",
    "wind_speed": "kt"
  },
  "visibility": {
    "repr": "8",
    "spoken": "eight",
    "value": 8
  },
  "wind_direction": {
    "repr": "050",
    "spoken": "zero five zero",
    "value": 50
  },
  "wind_gust": null,
  "wind_speed": {
    "repr": "03",
    "spoken": "three",
    "value": 3
  },
  "wind_variable_direction": [],
  "wx_codes": [
    {
      "repr": "-RA",
      "value": "Light Rain"
    }
  ]
}
