{
  "altimeter": {
    "repr": "A3031",
    "spoken": "three zero point three one",
    "value": 30.31
  },
  "clouds": [],
  "density_altitude": -2447,
  "dewpoint": {
    "repr": "M04",
    "spoken": "minus four",
    "value": -4
  },
  "flight_rules": "IFR",
  "meta": {
    "stations_updated": "2024-12-02",
    "timestamp": "2025-01-28T08:10:16.207205Z"
  },
  "other": [],
  "pressure_altitude": -220,
  "raw": "KBLI 280800Z AUTO 00000KT 2 1/2SM R16/5000VP6000FT BR CLR M04/M04 A3031 RMK AO2 VIS 1V5 T10391044",
  "relative_humidity": 0.9631438284581738,
  "remarks": "RMK AO2 VIS 1V5 T10391044",
  "remarks_info": {
    "codes": [
      {
        "repr": "AO2",
        "value": "Automated with precipitation sensor"
      }
    ],
    "dewpoint_decimal": {
      "repr": "1044",
      "spoken": "minus four point four",
      "value": -4.4
    },
    "maximum_temperature_24": null,
    "maximum_temperature_6": null,
    "minimum_temperature_24": null,
    "minimum_temperature_6": null,
    "precip_24_hours": null,
    "precip_36_hours": null,
    "precip_hourly": null,
    "pressure_tendency": null,
    "sea_level_pressure": null,
    "snow_depth": null,
    "sunshine_minutes": null,
    "temperature_decimal": {
      "repr": "1039",
      "spoken": "minus three point nine",
      "value": -3.9
    }
  },
  "runway_visibility": [
    {
      "repr": "R16/5000VP6000FT",
      "runway": "16",
      "trend": null,
      "variable_visibility": [
        {
          "repr": "5000",
          "spoken": "five thousand",
          "value": 5000
        },
        {
          "repr": "P6000",
          "spoken": "greater than six thousand",
          "value": null
        }
      ],
      "visibility": null
    }
  ],
  "sanitized": "KBLI 280800Z 00000KT 2 1/2SM R16/5000VP6000FT BR M04/M04 A3031 RMK AO2 VIS 1V5 T10391044",
  "station": "KBLI",
  "temperature": {
    "repr": "M04",
    "spoken": "minus four",
    "value": -4
  },
  "time": {
    "dt": "2025-01-28T08:00:00Z",
    "repr": "280800Z"
  },
  "units": {
    "accumulation": "in",
    "altimeter": "inHg",
    "altitude": "ft",
    "temperature": "C",
    "visibility": "sm",
    "wind_speed": "kt"
  },
  "visibility": {
    "denominator": 2,
    "normalized": "2 1/2",
    "numerator": 5,
    "repr": "5/2",
    "spoken": "two and one half",
    "value": 2.5
  },
  "wind_direction": {
    "repr": "000",
    "spoken": "zero zero zero",
    "value": 0
  },
  "wind_gust": null,
  "wind_speed": {
    "repr": "00",
    "spoken": "zero",
    "value": 0
  },
  "wind_variable_direction": [],
  "wx_codes": [
    {
      "repr": "BR",
      "value": "Mist"
    }
  ]
}
