{
  "meta": {
    "timestamp": "2022-11-10T08:45:36.227127Z",
    "stations_updated": "2022-09-05"
  },
  "altimeter": {
    "repr": "A3031",
    "value": 30.31,
    "spoken": "three zero point three one"
  },
  "clouds": [
    {
      "repr": "OVC040",
      "type": "OVC",
      "altitude": 40,
      "modifier": null
    }
  ],
  "flight_rules": "VFR",
  "other": [],
  "visibility": {
    "repr": "10",
    "value": 10,
    "spoken": "one zero"
  },
  "wind_direction": {
    "repr": "020",
    "value": 20,
    "spoken": "zero two zero"
  },
  "wind_gust": null,
  "wind_speed": {
    "repr": "03",
    "value": 3,
    "spoken": "three"
  },
  "wx_codes": [],
  "raw": "KBLI 100753Z AUTO 02003KT 10SM OVC040 01/M02 A3031 RMK AO2 SLP274 T00061022 400611028",
  "sanitized": "KBLI 100753Z 02003KT 10SM OVC040 01/M02 A3031 RMK AO2 SLP274 T00061022 400611028",
  "station": "KBLI",
  "time": {
    "repr": "100753Z",
    "dt": "2022-11-10T07:53:00Z"
  },
  "remarks": "RMK AO2 SLP274 T00061022 400611028",
  "dewpoint": {
    "repr": "M02",
    "value": -2,
    "spoken": "minus two"
  },
  "relative_humidity": 0.8150259046016263,
  "remarks_info": {
    "maximum_temperature_6": null,
    "minimum_temperature_6": null,
    "pressure_tendency": null,
    "precip_36_hours": null,
    "precip_24_hours": null,
    "sunshine_minutes": null,
    "codes": [
      {
        "repr": "AO2",
        "value": "Automated with precipitation sensor"
      }
    ],
    "dewpoint_decimal": {
      "repr": "1022",
      "value": -2.2,
      "spoken": "minus two point two"
    },
    "maximum_temperature_24": {
      "repr": "0061",
      "value": 6.1,
      "spoken": "six point one"
    },
    "minimum_temperature_24": {
      "repr": "1028",
      "value": -2.8,
      "spoken": "minus two point eight"
    },
    "precip_hourly": null,
    "sea_level_pressure": {
      "repr": "SLP274",
      "value": 1027.4,
      "spoken": "one zero two seven point four"
    },
    "snow_depth": null,
    "temperature_decimal": {
      "repr": "0006",
      "value": 0.6,
      "spoken": "zero point six"
    }
  },
  "runway_visibility": [],
  "temperature": {
    "repr": "01",
    "value": 1,
    "spoken": "one"
  },
  "wind_variable_direction": [],
  "density_altitude": -1907,
  "pressure_altitude": -220,
  "units": {
    "accumulation": "in",
    "altimeter": "inHg",
    "altitude": "ft",
    "temperature": "C",
    "visibility": "sm",
    "wind_speed": "kt"
  }
}
