{
  "meta": {
    "timestamp": "2023-10-21T16:40:48.378157Z",
    "stations_updated": "2023-10-01",
    "cache-timestamp": "2023-10-21T16:40:05.018000Z"
  },
  "altimeter": {
    "repr": "A2992",
    "value": 29.92,
    "spoken": "two nine point nine two"
  },
  "clouds": [
    {
      "repr": "VV002",
      "type": "VV",
      "altitude": 2,
      "modifier": null
    }
  ],
  "flight_rules": "LIFR",
  "other": [],
  "visibility": {
    "repr": "1/4",
    "value": 0.25,
    "spoken": "one quarter",
    "numerator": 1,
    "denominator": 4,
    "normalized": "1/4"
  },
  "wind_direction": {
    "repr": "010",
    "value": 10,
    "spoken": "zero one zero"
  },
  "wind_gust": null,
  "wind_speed": {
    "repr": "03",
    "value": 3,
    "spoken": "three"
  },
  "wx_codes": [
    {
      "repr": "FG",
      "value": "Fog"
    }
  ],
  "raw": "KBLI 211602Z 01003KT 1/4SM R16/1800V3500FT FG VV002 11/11 A2992 RMK AO2 T01110111",
  "sanitized": "KBLI 211602Z 01003KT 1/4SM R16/1800V3500FT FG VV002 11/11 A2992 RMK AO2 T01110111",
  "station": "KBLI",
  "time": {
    "repr": "211602Z",
    "dt": "2023-10-21T16:02:00Z"
  },
  "remarks": "RMK AO2 T01110111",
  "dewpoint": {
    "repr": "11",
    "value": 11,
    "spoken": "one one"
  },
  "relative_humidity": 1,
  "remarks_info": {
    "maximum_temperature_6": null,
    "minimum_temperature_6": null,
    "pressure_tendency": null,
    "precip_36_hours": null,
    "precip_24_hours": null,
    "sunshine_minutes": null,
    "codes": [
      {
        "repr": "AO2",
        "value": "Automated with precipitation sensor"
      }
    ],
    "dewpoint_decimal": {
      "repr": "0111",
      "value": 11.1,
      "spoken": "one one point one"
    },
    "maximum_temperature_24": null,
    "minimum_temperature_24": null,
    "precip_hourly": null,
    "sea_level_pressure": null,
    "snow_depth": null,
    "temperature_decimal": {
      "repr": "0111",
      "value": 11.1,
      "spoken": "one one point one"
    }
  },
  "runway_visibility": [
    {
      "repr": "R16/1800V3500FT",
      "runway": "16",
      "visibility": null,
      "variable_visibility": [
        {
          "repr": "1800",
          "value": 1800,
          "spoken": "one eight hundred"
        },
        {
          "repr": "3500",
          "value": 3500,
          "spoken": "three five hundred"
        }
      ],
      "trend": null
    }
  ],
  "temperature": {
    "repr": "11",
    "value": 11,
    "spoken": "one one"
  },
  "wind_variable_direction": [],
  "density_altitude": -257,
  "pressure_altitude": 170,
  "units": {
    "accumulation": "in",
    "altimeter": "inHg",
    "altitude": "ft",
    "temperature": "C",
    "visibility": "sm",
    "wind_speed": "kt"
  }
}
