{
  "meta": {
    "timestamp": "2023-07-04T00:35:32.757374Z",
    "stations_updated": "2023-06-06"
  },
  "altimeter": {
    "repr": "A3003",
    "value": 30.03,
    "spoken": "three zero point zero three"
  },
  "clouds": [],
  "flight_rules": "VFR",
  "other": [],
  "visibility": {
    "repr": "10",
    "value": 10,
    "spoken": "one zero"
  },
  "wind_direction": {
    "repr": "290",
    "value": 290,
    "spoken": "two nine zero"
  },
  "wind_gust": null,
  "wind_speed": {
    "repr": "05",
    "value": 5,
    "spoken": "five"
  },
  "wx_codes": [],
  "raw": "KBLI 032353Z 29005KT 10SM CLR 24/14 A3003 RMK AO2 SLP176 T02440144 10250 20222 57012",
  "sanitized": "KBLI 032353Z 29005KT 10SM 24/14 A3003 RMK AO2 SLP176 T02440144 10250 20222 57012",
  "station": "KBLI",
  "time": {
    "repr": "032353Z",
    "dt": "2023-07-03T23:53:00Z"
  },
  "remarks": "RMK AO2 SLP176 T02440144 10250 20222 57012",
  "dewpoint": {
    "repr": "14",
    "value": 14,
    "spoken": "one four"
  },
  "relative_humidity": 0.536468874152168,
  "remarks_info": {
    "maximum_temperature_6": {
      "repr": "10250",
      "value": 25,
      "spoken": "two five point zero"
    },
    "minimum_temperature_6": {
      "repr": "20222",
      "value": 22.2,
      "spoken": "two two point two"
    },
    "pressure_tendency": {
      "repr": "57012",
      "tendency": "Decreasing steadily or unsteadily",
      "change": 1.2
    },
    "precip_36_hours": null,
    "precip_24_hours": null,
    "sunshine_minutes": null,
    "codes": [
      {
        "repr": "AO2",
        "value": "Automated with precipitation sensor"
      }
    ],
    "dewpoint_decimal": {
      "repr": "0144",
      "value": 14.4,
      "spoken": "one four point four"
    },
    "maximum_temperature_24": null,
    "minimum_temperature_24": null,
    "precip_hourly": null,
    "sea_level_pressure": {
      "repr": "SLP176",
      "value": 1017.6,
      "spoken": "one zero one seven point six"
    },
    "snow_depth": null,
    "temperature_decimal": {
      "repr": "0244",
      "value": 24.4,
      "spoken": "two four point four"
    }
  },
  "runway_visibility": [],
  "temperature": {
    "repr": "24",
    "value": 24,
    "spoken": "two four"
  },
  "wind_variable_direction": [],
  "density_altitude": 1229,
  "pressure_altitude": 60,
  "units": {
    "accumulation": "in",
    "altimeter": "inHg",
    "altitude": "ft",
    "temperature": "C",
    "visibility": "sm",
    "wind_speed": "kt"
  }
}
