{
  "meta": {
    "timestamp": "2023-02-23T15:42:30.279931Z",
    "stations_updated": "2023-01-30",
    "cache-timestamp": "2023-02-23T15:42:09.563000Z"
  },
  "altimeter": {
    "repr": "A2976",
    "value": 29.76,
    "spoken": "two nine point seven six"
  },
  "clouds": [
    {
      "repr": "BKN080",
      "type": "BKN",
      "altitude": 80,
      "modifier": null
    },
    {
      "repr": "OVC090",
      "type": "OVC",
      "altitude": 90,
      "modifier": null
    }
  ],
  "flight_rules": "VFR",
  "other": [],
  "visibility": {
    "repr": "10",
    "value": 10,
    "spoken": "one zero"
  },
  "wind_direction": {
    "repr": "030",
    "value": 30,
    "spoken": "zero three zero"
  },
  "wind_gust": {
    "repr": "42",
    "value": 42,
    "spoken": "four two"
  },
  "wind_speed": {
    "repr": "19",
    "value": 19,
    "spoken": "one nine"
  },
  "wx_codes": [],
  "raw": "KBLI 231453Z 03019G42KT 10SM BKN080 OVC090 M06/M17 A2976 RMK AO2 PK WND 04042/1447 SLP089 T10561172 52018",
  "sanitized": "KBLI 231453Z 03019G42KT 10SM BKN080 OVC090 M06/M17 A2976 RMK AO2 PK WND 04042/1447 SLP089 T10561172 52018",
  "station": "KBLI",
  "time": {
    "repr": "231453Z",
    "dt": "2023-02-23T14:53:00Z"
  },
  "remarks": "RMK AO2 PK WND 04042/1447 SLP089 T10561172 52018",
  "dewpoint": {
    "repr": "M17",
    "value": -17,
    "spoken": "minus one seven"
  },
  "relative_humidity": 0.39570977483125536,
  "remarks_info": {
    "maximum_temperature_6": null,
    "minimum_temperature_6": null,
    "pressure_tendency": {
      "repr": "52018",
      "tendency": "Increasing steadily or unsteadily",
      "change": 1.8
    },
    "precip_36_hours": null,
    "precip_24_hours": null,
    "sunshine_minutes": null,
    "codes": [
      {
        "repr": "AO2",
        "value": "Automated with precipitation sensor"
      }
    ],
    "dewpoint_decimal": {
      "repr": "1172",
      "value": -17.2,
      "spoken": "minus one seven point two"
    },
    "maximum_temperature_24": null,
    "minimum_temperature_24": null,
    "precip_hourly": null,
    "sea_level_pressure": {
      "repr": "SLP089",
      "value": 1008.9,
      "spoken": "one zero zero eight point nine"
    },
    "snow_depth": null,
    "temperature_decimal": {
      "repr": "1056",
      "value": -5.6,
      "spoken": "minus five point six"
    }
  },
  "runway_visibility": [],
  "temperature": {
    "repr": "M06",
    "value": -6,
    "spoken": "minus six"
  },
  "wind_variable_direction": [],
  "density_altitude": -2101,
  "pressure_altitude": 330,
  "units": {
    "accumulation": "in",
    "altimeter": "inHg",
    "altitude": "ft",
    "temperature": "C",
    "visibility": "sm",
    "wind_speed": "kt"
  }
}
