{
  "meta": {
    "timestamp": "2023-04-01T19:01:10.153364Z",
    "stations_updated": "2023-03-11"
  },
  "altimeter": {
    "repr": "A2986",
    "value": 29.86,
    "spoken": "two nine point eight six"
  },
  "clouds": [
    {
      "repr": "SCT049",
      "type": "SCT",
      "altitude": 49,
      "modifier": null
    },
    {
      "repr": "OVC070",
      "type": "OVC",
      "altitude": 70,
      "modifier": null
    }
  ],
  "flight_rules": "VFR",
  "other": [],
  "visibility": {
    "repr": "10",
    "value": 10,
    "spoken": "one zero"
  },
  "wind_direction": {
    "repr": "210",
    "value": 210,
    "spoken": "two one zero"
  },
  "wind_gust": null,
  "wind_speed": {
    "repr": "07",
    "value": 7,
    "spoken": "seven"
  },
  "wx_codes": [],
  "raw": "KBLI 011853Z 21007KT 170V240 10SM SCT049 OVC070 08/03 A2986 RMK AO2 SLP118 VCSH T00830028",
  "sanitized": "KBLI 011853Z 21007KT 170V240 10SM SCT049 OVC070 08/03 A2986 RMK AO2 SLP118 VCSH T00830028",
  "station": "KBLI",
  "time": {
    "repr": "011853Z",
    "dt": "2023-04-01T18:53:00Z"
  },
  "remarks": "RMK AO2 SLP118 VCSH T00830028",
  "dewpoint": {
    "repr": "03",
    "value": 3,
    "spoken": "three"
  },
  "relative_humidity": 0.6827862826372221,
  "remarks_info": {
    "maximum_temperature_6": null,
    "minimum_temperature_6": null,
    "pressure_tendency": null,
    "precip_36_hours": null,
    "precip_24_hours": null,
    "sunshine_minutes": null,
    "codes": [
      {
        "repr": "AO2",
        "value": "Automated with precipitation sensor"
      }
    ],
    "dewpoint_decimal": {
      "repr": "0028",
      "value": 2.8,
      "spoken": "two point eight"
    },
    "maximum_temperature_24": null,
    "minimum_temperature_24": null,
    "precip_hourly": null,
    "sea_level_pressure": {
      "repr": "SLP118",
      "value": 1011.8,
      "spoken": "one zero one one point eight"
    },
    "snow_depth": null,
    "temperature_decimal": {
      "repr": "0083",
      "value": 8.3,
      "spoken": "eight point three"
    }
  },
  "runway_visibility": [],
  "temperature": {
    "repr": "08",
    "value": 8,
    "spoken": "eight"
  },
  "wind_variable_direction": [
    {
      "repr": "170",
      "value": 170,
      "spoken": "one seven zero"
    },
    {
      "repr": "240",
      "value": 240,
      "spoken": "two four zero"
    }
  ],
  "density_altitude": -533,
  "pressure_altitude": 230,
  "units": {
    "accumulation": "in",
    "altimeter": "inHg",
    "altitude": "ft",
    "temperature": "C",
    "visibility": "sm",
    "wind_speed": "kt"
  }
}
