{
  "meta": {
    "timestamp": "2023-04-08T19:20:35.799726Z",
    "stations_updated": "2023-03-11",
    "cache-timestamp": "2023-04-08T19:20:05.783000Z"
  },
  "altimeter": {
    "repr": "A2994",
    "value": 29.94,
    "spoken": "two nine point nine four"
  },
  "clouds": [
    {
      "repr": "OVC080",
      "type": "OVC",
      "altitude": 80,
      "modifier": null
    }
  ],
  "flight_rules": "VFR",
  "other": [],
  "visibility": {
    "repr": "10",
    "value": 10,
    "spoken": "one zero"
  },
  "wind_direction": {
    "repr": "160",
    "value": 160,
    "spoken": "one six zero"
  },
  "wind_gust": {
    "repr": "32",
    "value": 32,
    "spoken": "three two"
  },
  "wind_speed": {
    "repr": "19",
    "value": 19,
    "spoken": "one nine"
  },
  "wx_codes": [],
  "raw": "KBLI 081853Z 16019G32KT 10SM OVC080 10/03 A2994 RMK AO2 PK WND 17033/1811 RAB1755E20 SLP146 P0000 T01000033",
  "sanitized": "KBLI 081853Z 16019G32KT 10SM OVC080 10/03 A2994 RMK AO2 PK WND 17033/1811 RAB1755E20 SLP146 P0000 T01000033",
  "station": "KBLI",
  "time": {
    "repr": "081853Z",
    "dt": "2023-04-08T18:53:00Z"
  },
  "remarks": "RMK AO2 PK WND 17033/1811 RAB1755E20 SLP146 P0000 T01000033",
  "dewpoint": {
    "repr": "03",
    "value": 3,
    "spoken": "three"
  },
  "relative_humidity": 0.6307957340163841,
  "remarks_info": {
    "maximum_temperature_6": null,
    "minimum_temperature_6": null,
    "pressure_tendency": null,
    "precip_36_hours": null,
    "precip_24_hours": null,
    "sunshine_minutes": null,
    "codes": [
      {
        "repr": "AO2",
        "value": "Automated with precipitation sensor"
      },
      {
        "repr": "P0000",
        "value": "Trace amount of rain in the last hour"
      }
    ],
    "dewpoint_decimal": {
      "repr": "0033",
      "value": 3.3,
      "spoken": "three point three"
    },
    "maximum_temperature_24": null,
    "minimum_temperature_24": null,
    "precip_hourly": null,
    "sea_level_pressure": {
      "repr": "SLP146",
      "value": 1014.6,
      "spoken": "one zero one four point six"
    },
    "snow_depth": null,
    "temperature_decimal": {
      "repr": "0100",
      "value": 10,
      "spoken": "one zero point zero"
    }
  },
  "runway_visibility": [],
  "temperature": {
    "repr": "10",
    "value": 10,
    "spoken": "one zero"
  },
  "wind_variable_direction": [],
  "density_altitude": -409,
  "pressure_altitude": 150,
  "units": {
    "accumulation": "in",
    "altimeter": "inHg",
    "altitude": "ft",
    "temperature": "C",
    "visibility": "sm",
    "wind_speed": "kt"
  }
}
