{
  "meta": {
    "timestamp": "2023-04-21T17:40:52.121602Z",
    "stations_updated": "2023-03-11",
    "cache-timestamp": "2023-04-21T17:40:06.693000Z"
  },
  "altimeter": {
    "repr": "A3036",
    "value": 30.36,
    "spoken": "three zero point three six"
  },
  "clouds": [
    {
      "repr": "SCT017",
      "type": "SCT",
      "altitude": 17,
      "modifier": null
    },
    {
      "repr": "BKN025",
      "type": "BKN",
      "altitude": 25,
      "modifier": null
    },
    {
      "repr": "OVC043",
      "type": "OVC",
      "altitude": 43,
      "modifier": null
    }
  ],
  "flight_rules": "MVFR",
  "other": [],
  "visibility": {
    "repr": "10",
    "value": 10,
    "spoken": "one zero"
  },
  "wind_direction": {
    "repr": "220",
    "value": 220,
    "spoken": "two two zero"
  },
  "wind_gust": null,
  "wind_speed": {
    "repr": "03",
    "value": 3,
    "spoken": "three"
  },
  "wx_codes": [],
  "raw": "KBLI 211653Z 22003KT 10SM SCT017 BKN025 OVC043 09/07 A3036 RMK AO2 RAE34 SLP289 P0000 T00890067",
  "sanitized": "KBLI 211653Z 22003KT 10SM SCT017 BKN025 OVC043 09/07 A3036 RMK AO2 RAE34 SLP289 P0000 T00890067",
  "station": "KBLI",
  "time": {
    "repr": "211653Z",
    "dt": "2023-04-21T16:53:00Z"
  },
  "remarks": "RMK AO2 RAE34 SLP289 P0000 T00890067",
  "dewpoint": {
    "repr": "07",
    "value": 7,
    "spoken": "seven"
  },
  "relative_humidity": 0.8608000212004648,
  "remarks_info": {
    "maximum_temperature_6": null,
    "minimum_temperature_6": null,
    "pressure_tendency": null,
    "precip_36_hours": null,
    "precip_24_hours": null,
    "sunshine_minutes": null,
    "codes": [
      {
        "repr": "AO2",
        "value": "Automated with precipitation sensor"
      },
      {
        "repr": "P0000",
        "value": "Trace amount of rain in the last hour"
      },
      {
        "repr": "RAE34",
        "value": "Rain ended at :34"
      }
    ],
    "dewpoint_decimal": {
      "repr": "0067",
      "value": 6.7,
      "spoken": "six point seven"
    },
    "maximum_temperature_24": null,
    "minimum_temperature_24": null,
    "precip_hourly": null,
    "sea_level_pressure": {
      "repr": "SLP289",
      "value": 1028.9,
      "spoken": "one zero two eight point nine"
    },
    "snow_depth": null,
    "temperature_decimal": {
      "repr": "0089",
      "value": 8.9,
      "spoken": "eight point nine"
    }
  },
  "runway_visibility": [],
  "temperature": {
    "repr": "09",
    "value": 9,
    "spoken": "nine"
  },
  "wind_variable_direction": [],
  "density_altitude": -961,
  "pressure_altitude": -270,
  "units": {
    "accumulation": "in",
    "altimeter": "inHg",
    "altitude": "ft",
    "temperature": "C",
    "visibility": "sm",
    "wind_speed": "kt"
  }
}
