{
  "meta": {
    "timestamp": "2022-08-25T06:20:06.280255Z",
    "stations_updated": "2022-07-17"
  },
  "altimeter": {
    "repr": "A2989",
    "value": 29.89,
    "spoken": "two nine point eight nine"
  },
  "clouds": [],
  "flight_rules": "VFR",
  "other": [],
  "visibility": {
    "repr": "10",
    "value": 10,
    "spoken": "one zero"
  },
  "wind_direction": {
    "repr": "180",
    "value": 180,
    "spoken": "one eight zero"
  },
  "wind_gust": null,
  "wind_speed": {
    "repr": "04",
    "value": 4,
    "spoken": "four"
  },
  "wx_codes": [],
  "raw": "KBLI 250553Z AUTO 18004KT 10SM CLR 20/18 A2989 RMK AO2 SLP125 T02000178 10283 20194 51010",
  "sanitized": "KBLI 250553Z 18004KT 10SM 20/18 A2989 RMK AO2 SLP125 T02000178 10283 20194 51010",
  "station": "KBLI",
  "time": {
    "repr": "250553Z",
    "dt": "2022-08-25T05:53:00Z"
  },
  "remarks": "RMK AO2 SLP125 T02000178 10283 20194 51010",
  "dewpoint": {
    "repr": "18",
    "value": 18,
    "spoken": "one eight"
  },
  "relative_humidity": 0.871552155213198,
  "remarks_info": {
    "maximum_temperature_6": {
      "repr": "10283",
      "value": 28.3,
      "spoken": "two eight point three"
    },
    "minimum_temperature_6": {
      "repr": "20194",
      "value": 19.4,
      "spoken": "one nine point four"
    },
    "pressure_tendency": {
      "repr": "51010",
      "tendency": "Increasing, then steady",
      "change": 1
    },
    "precip_36_hours": null,
    "precip_24_hours": null,
    "sunshine_minutes": null,
    "codes": [
      {
        "repr": "AO2",
        "value": "Automated with precipitation sensor"
      }
    ],
    "dewpoint_decimal": {
      "repr": "0178",
      "value": 17.8,
      "spoken": "one seven point eight"
    },
    "maximum_temperature_24": null,
    "minimum_temperature_24": null,
    "precip_hourly": null,
    "sea_level_pressure": {
      "repr": "SLP125",
      "value": 1012.5,
      "spoken": "one zero one two point five"
    },
    "snow_depth": null,
    "temperature_decimal": {
      "repr": "0200",
      "value": 20,
      "spoken": "two zero point zero"
    }
  },
  "runway_visibility": [],
  "temperature": {
    "repr": "20",
    "value": 20,
    "spoken": "two zero"
  },
  "wind_variable_direction": [],
  "density_altitude": 841,
  "pressure_altitude": 200,
  "units": {
    "accumulation": "in",
    "altimeter": "inHg",
    "altitude": "ft",
    "temperature": "C",
    "visibility": "sm",
    "wind_speed": "kt"
  }
}
