{
  "altimeter": {
    "repr": "A3032",
    "spoken": "three zero point three two",
    "value": 30.32
  },
  "clouds": [],
  "density_altitude": -3789,
  "dewpoint": {
    "repr": "M27",
    "spoken": "minus two seven",
    "value": -27
  },
  "flight_rules": "VFR",
  "meta": {
    "cache-timestamp": "2024-01-12T18:28:05.649000Z",
    "stations_updated": "2023-10-28",
    "timestamp": "2024-01-12T18:28:37.956570Z"
  },
  "other": [],
  "pressure_altitude": -230,
  "raw": "KBLI 121753Z 03026G47KT 10SM CLR M15/M27 A3032 RMK AO2 PK WND 03047/1737 SLP280 T11501272 11144 21161 53016",
  "relative_humidity": 0.34573982798934894,
  "remarks": "RMK AO2 PK WND 03047/1737 SLP280 T11501272 11144 21161 53016",
  "remarks_info": {
    "codes": [
      {
        "repr": "AO2",
        "value": "Automated with precipitation sensor"
      }
    ],
    "dewpoint_decimal": {
      "repr": "1272",
      "spoken": "minus two seven point two",
      "value": -27.2
    },
    "maximum_temperature_24": null,
    "maximum_temperature_6": {
      "repr": "11144",
      "spoken": "minus one four point four",
      "value": -14.4
    },
    "minimum_temperature_24": null,
    "minimum_temperature_6": {
      "repr": "21161",
      "spoken": "minus one six point one",
      "value": -16.1
    },
    "precip_24_hours": null,
    "precip_36_hours": null,
    "precip_hourly": null,
    "pressure_tendency": {
      "change": 1.6,
      "repr": "53016",
      "tendency": "Decreasing or steady, then increasing"
    },
    "sea_level_pressure": {
      "repr": "SLP280",
      "spoken": "one zero two eight point zero",
      "value": 1028
    },
    "snow_depth": null,
    "sunshine_minutes": null,
    "temperature_decimal": {
      "repr": "1150",
      "spoken": "minus one five point zero",
      "value": -15
    }
  },
  "runway_visibility": [],
  "sanitized": "KBLI 121753Z 03026G47KT 10SM M15/M27 A3032 RMK AO2 PK WND 03047/1737 SLP280 T11501272 11144 21161 53016",
  "station": "KBLI",
  "temperature": {
    "repr": "M15",
    "spoken": "minus one five",
    "value": -15
  },
  "time": {
    "dt": "2024-01-12T17:53:00Z",
    "repr": "121753Z"
  },
  "units": {
    "accumulation": "in",
    "altimeter": "inHg",
    "altitude": "ft",
    "temperature": "C",
    "visibility": "sm",
    "wind_speed": "kt"
  },
  "visibility": {
    "repr": "10",
    "spoken": "one zero",
    "value": 10
  },
  "wind_direction": {
    "repr": "030",
    "spoken": "zero three zero",
    "value": 30
  },
  "wind_gust": {
    "repr": "47",
    "spoken": "four seven",
    "value": 47
  },
  "wind_speed": {
    "repr": "26",
    "spoken": "two six",
    "value": 26
  },
  "wind_variable_direction": [],
  "wx_codes": []
}
