{
  "altimeter": {
    "repr": "A3046",
    "spoken": "three zero point four six",
    "value": 30.46
  },
  "clouds": [],
  "density_altitude": -533,
  "dewpoint": {
    "repr": "M03",
    "spoken": "minus three",
    "value": -3
  },
  "flight_rules": "VFR",
  "meta": {
    "cache-timestamp": "2024-04-17T20:40:02.900000Z",
    "stations_updated": "2024-01-01",
    "timestamp": "2024-04-17T20:40:29.533263Z"
  },
  "other": [],
  "pressure_altitude": -370,
  "raw": "KBLI 171953Z 33009G16KT 10SM CLR 13/M03 A3046 RMK AO2 SLP323 T01331033",
  "relative_humidity": 0.31414140219054854,
  "remarks": "RMK AO2 SLP323 T01331033",
  "remarks_info": {
    "codes": [
      {
        "repr": "AO2",
        "value": "Automated with precipitation sensor"
      }
    ],
    "dewpoint_decimal": {
      "repr": "1033",
      "spoken": "minus three point three",
      "value": -3.3
    },
    "maximum_temperature_24": null,
    "maximum_temperature_6": null,
    "minimum_temperature_24": null,
    "minimum_temperature_6": null,
    "precip_24_hours": null,
    "precip_36_hours": null,
    "precip_hourly": null,
    "pressure_tendency": null,
    "sea_level_pressure": {
      "repr": "SLP323",
      "spoken": "one zero three two point three",
      "value": 1032.3
    },
    "snow_depth": null,
    "sunshine_minutes": null,
    "temperature_decimal": {
      "repr": "0133",
      "spoken": "one three point three",
      "value": 13.3
    }
  },
  "runway_visibility": [],
  "sanitized": "KBLI 171953Z 33009G16KT 10SM 13/M03 A3046 RMK AO2 SLP323 T01331033",
  "station": "KBLI",
  "temperature": {
    "repr": "13",
    "spoken": "one three",
    "value": 13
  },
  "time": {
    "dt": "2024-04-17T19:53:00Z",
    "repr": "171953Z"
  },
  "units": {
    "accumulation": "in",
    "altimeter": "inHg",
    "altitude": "ft",
    "temperature": "C",
    "visibility": "sm",
    "wind_speed": "kt"
  },
  "visibility": {
    "repr": "10",
    "spoken": "one zero",
    "value": 10
  },
  "wind_direction": {
    "repr": "330",
    "spoken": "three three zero",
    "value": 330
  },
  "wind_gust": {
    "repr": "16",
    "spoken": "one six",
    "value": 16
  },
  "wind_speed": {
    "repr": "09",
    "spoken": "nine",
    "value": 9
  },
  "wind_variable_direction": [],
  "wx_codes": []
}
