{
  "altimeter": {
    "repr": "A3056",
    "spoken": "three zero point five six",
    "value": 30.56
  },
  "clouds": [
    {
      "altitude": 2,
      "modifier": null,
      "repr": "VV002",
      "type": "VV"
    }
  ],
  "density_altitude": -2301,
  "dewpoint": {
    "repr": "M01",
    "spoken": "minus one",
    "value": -1
  },
  "flight_rules": "LIFR",
  "meta": {
    "stations_updated": "2024-12-02",
    "timestamp": "2025-01-13T06:48:45.949024Z"
  },
  "other": [],
  "pressure_altitude": -470,
  "raw": "KBLI 130640Z AUTO 00000KT 1/2SM R16/4000VP6000FT FZFG VV002 M01/M01 A3056 RMK AO2 T10061006",
  "relative_humidity": 1.0,
  "remarks": "RMK AO2 T10061006",
  "remarks_info": {
    "codes": [
      {
        "repr": "AO2",
        "value": "Automated with precipitation sensor"
      }
    ],
    "dewpoint_decimal": {
      "repr": "1006",
      "spoken": "minus zero point six",
      "value": -0.6
    },
    "maximum_temperature_24": null,
    "maximum_temperature_6": null,
    "minimum_temperature_24": null,
    "minimum_temperature_6": null,
    "precip_24_hours": null,
    "precip_36_hours": null,
    "precip_hourly": null,
    "pressure_tendency": null,
    "sea_level_pressure": null,
    "snow_depth": null,
    "sunshine_minutes": null,
    "temperature_decimal": {
      "repr": "1006",
      "spoken": "minus zero point six",
      "value": -0.6
    }
  },
  "runway_visibility": [
    {
      "repr": "R16/4000VP6000FT",
      "runway": "16",
      "trend": null,
      "variable_visibility": [
        {
          "repr": "4000",
          "spoken": "four thousand",
          "value": 4000
        },
        {
          "repr": "P6000",
          "spoken": "greater than six thousand",
          "value": null
        }
      ],
      "visibility": null
    }
  ],
  "sanitized": "KBLI 130640Z 00000KT 1/2SM R16/4000VP6000FT FZFG VV002 M01/M01 A3056 RMK AO2 T10061006",
  "station": "KBLI",
  "temperature": {
    "repr": "M01",
    "spoken": "minus one",
    "value": -1
  },
  "time": {
    "dt": "2025-01-13T06:40:00Z",
    "repr": "130640Z"
  },
  "units": {
    "accumulation": "in",
    "altimeter": "inHg",
    "altitude": "ft",
    "temperature": "C",
    "visibility": "sm",
    "wind_speed": "kt"
  },
  "visibility": {
    "denominator": 2,
    "normalized": "1/2",
    "numerator": 1,
    "repr": "1/2",
    "spoken": "one half",
    "value": 0.5
  },
  "wind_direction": {
    "repr": "000",
    "spoken": "zero zero zero",
    "value": 0
  },
  "wind_gust": null,
  "wind_speed": {
    "repr": "00",
    "spoken": "zero",
    "value": 0
  },
  "wind_variable_direction": [],
  "wx_codes": [
    {
      "repr": "FZFG",
      "value": "Freezing Fog"
    }
  ]
}
