{
  "meta": {
    "timestamp": "2022-11-04T21:02:40.367719Z",
    "stations_updated": "2022-09-05"
  },
  "altimeter": {
    "repr": "A2950",
    "value": 29.5,
    "spoken": "two nine point five zero"
  },
  "clouds": [
    {
      "repr": "SCT004",
      "type": "SCT",
      "altitude": 4,
      "modifier": null
    },
    {
      "repr": "OVC011",
      "type": "OVC",
      "altitude": 11,
      "modifier": null
    }
  ],
  "flight_rules": "MVFR",
  "other": [],
  "visibility": {
    "repr": "3",
    "value": 3,
    "spoken": "three"
  },
  "wind_direction": {
    "repr": "180",
    "value": 180,
    "spoken": "one eight zero"
  },
  "wind_gust": {
    "repr": "19",
    "value": 19,
    "spoken": "one nine"
  },
  "wind_speed": {
    "repr": "10",
    "value": 10,
    "spoken": "one zero"
  },
  "wx_codes": [
    {
      "repr": "-RA",
      "value": "Light Rain"
    },
    {
      "repr": "BR",
      "value": "Mist"
    }
  ],
  "raw": "KBLI 042053Z 18010G19KT 3SM -RA BR SCT004 OVC011 12/12 A2950 RMK AO2 SLP996 P0012 60036 T01170117 58031",
  "sanitized": "KBLI 042053Z 18010G19KT 3SM -RA BR SCT004 OVC011 12/12 A2950 RMK AO2 SLP996 P0012 60036 T01170117 58031",
  "station": "KBLI",
  "time": {
    "repr": "042053Z",
    "dt": "2022-11-04T20:53:00Z"
  },
  "remarks": "RMK AO2 SLP996 P0012 60036 T01170117 58031",
  "dewpoint": {
    "repr": "12",
    "value": 12,
    "spoken": "one two"
  },
  "relative_humidity": 1,
  "remarks_info": {
    "maximum_temperature_6": null,
    "minimum_temperature_6": null,
    "pressure_tendency": {
      "repr": "58031",
      "tendency": "Steady or increasing, then decreasing",
      "change": 3.1
    },
    "precip_36_hours": {
      "repr": "60036",
      "value": 0.36,
      "spoken": "zero point three six"
    },
    "precip_24_hours": null,
    "sunshine_minutes": null,
    "codes": [
      {
        "repr": "AO2",
        "value": "Automated with precipitation sensor"
      }
    ],
    "dewpoint_decimal": {
      "repr": "0117",
      "value": 11.7,
      "spoken": "one one point seven"
    },
    "maximum_temperature_24": null,
    "minimum_temperature_24": null,
    "precip_hourly": {
      "repr": "P0012",
      "value": 0.12,
      "spoken": "zero point one two"
    },
    "sea_level_pressure": {
      "repr": "SLP996",
      "value": 999.6,
      "spoken": "nine nine nine point six"
    },
    "snow_depth": null,
    "temperature_decimal": {
      "repr": "0117",
      "value": 11.7,
      "spoken": "one one point seven"
    }
  },
  "runway_visibility": [],
  "temperature": {
    "repr": "12",
    "value": 12,
    "spoken": "one two"
  },
  "wind_variable_direction": [],
  "density_altitude": 235,
  "pressure_altitude": 590,
  "units": {
    "accumulation": "in",
    "altimeter": "inHg",
    "altitude": "ft",
    "temperature": "C",
    "visibility": "sm",
    "wind_speed": "kt"
  }
}
