{
  "meta": {
    "timestamp": "2022-12-05T18:31:29.697768Z",
    "stations_updated": "2022-09-05"
  },
  "altimeter": {
    "repr": "A3004",
    "value": 30.04,
    "spoken": "three zero point zero four"
  },
  "clouds": [
    {
      "repr": "FEW035",
      "type": "FEW",
      "altitude": 35,
      "modifier": null
    }
  ],
  "flight_rules": "VFR",
  "other": [],
  "visibility": {
    "repr": "10",
    "value": 10,
    "spoken": "one zero"
  },
  "wind_direction": {
    "repr": "030",
    "value": 30,
    "spoken": "zero three zero"
  },
  "wind_gust": null,
  "wind_speed": {
    "repr": "05",
    "value": 5,
    "spoken": "five"
  },
  "wx_codes": [],
  "raw": "KBLI 051753Z 03005KT 10SM FEW035 M01/M05 A3004 RMK AO2 SLP184 T10111050 11011 21050 51002",
  "sanitized": "KBLI 051753Z 03005KT 10SM FEW035 M01/M05 A3004 RMK AO2 SLP184 T10111050 11011 21050 51002",
  "station": "KBLI",
  "time": {
    "repr": "051753Z",
    "dt": "2022-12-05T17:53:00Z"
  },
  "remarks": "RMK AO2 SLP184 T10111050 11011 21050 51002",
  "dewpoint": {
    "repr": "M05",
    "value": -5,
    "spoken": "minus five"
  },
  "relative_humidity": 0.7480730779333107,
  "remarks_info": {
    "maximum_temperature_6": {
      "repr": "11011",
      "value": -1.1,
      "spoken": "minus one point one"
    },
    "minimum_temperature_6": {
      "repr": "21050",
      "value": -5,
      "spoken": "minus five point zero"
    },
    "pressure_tendency": {
      "repr": "51002",
      "tendency": "Increasing, then steady",
      "change": 0.2
    },
    "precip_36_hours": null,
    "precip_24_hours": null,
    "sunshine_minutes": null,
    "codes": [
      {
        "repr": "AO2",
        "value": "Automated with precipitation sensor"
      }
    ],
    "dewpoint_decimal": {
      "repr": "1050",
      "value": -5,
      "spoken": "minus five point zero"
    },
    "maximum_temperature_24": null,
    "minimum_temperature_24": null,
    "precip_hourly": null,
    "sea_level_pressure": {
      "repr": "SLP184",
      "value": 1018.4,
      "spoken": "one zero one eight point four"
    },
    "snow_depth": null,
    "temperature_decimal": {
      "repr": "1011",
      "value": -1.1,
      "spoken": "minus one point one"
    }
  },
  "runway_visibility": [],
  "temperature": {
    "repr": "M01",
    "value": -1,
    "spoken": "minus one"
  },
  "wind_variable_direction": [],
  "density_altitude": -1841,
  "pressure_altitude": 50,
  "units": {
    "accumulation": "in",
    "altimeter": "inHg",
    "altitude": "ft",
    "temperature": "C",
    "visibility": "sm",
    "wind_speed": "kt"
  }
}
