{
  "meta": {
    "timestamp": "2023-01-27T22:26:45.633813Z",
    "stations_updated": "2023-01-16",
    "cache-timestamp": "2023-01-27T22:26:05.569000Z"
  },
  "altimeter": {
    "repr": "A3020",
    "value": 30.2,
    "spoken": "three zero point two zero"
  },
  "clouds": [
    {
      "repr": "SCT007",
      "type": "SCT",
      "altitude": 7,
      "modifier": null
    },
    {
      "repr": "BKN011",
      "type": "BKN",
      "altitude": 11,
      "modifier": null
    },
    {
      "repr": "OVC019",
      "type": "OVC",
      "altitude": 19,
      "modifier": null
    }
  ],
  "flight_rules": "MVFR",
  "other": [],
  "visibility": {
    "repr": "6",
    "value": 6,
    "spoken": "six"
  },
  "wind_direction": {
    "repr": "160",
    "value": 160,
    "spoken": "one six zero"
  },
  "wind_gust": null,
  "wind_speed": {
    "repr": "04",
    "value": 4,
    "spoken": "four"
  },
  "wx_codes": [
    {
      "repr": "BR",
      "value": "Mist"
    }
  ],
  "raw": "KBLI 272153Z 16004KT 6SM BR SCT007 BKN011 OVC019 07/07 A3020 RMK AO2 SLP236 T00720067",
  "sanitized": "KBLI 272153Z 16004KT 6SM BR SCT007 BKN011 OVC019 07/07 A3020 RMK AO2 SLP236 T00720067",
  "station": "KBLI",
  "time": {
    "repr": "272153Z",
    "dt": "2023-01-27T21:53:00Z"
  },
  "remarks": "RMK AO2 SLP236 T00720067",
  "dewpoint": {
    "repr": "07",
    "value": 7,
    "spoken": "seven"
  },
  "relative_humidity": 0.9662838843819482,
  "remarks_info": {
    "maximum_temperature_6": null,
    "minimum_temperature_6": null,
    "pressure_tendency": null,
    "precip_36_hours": null,
    "precip_24_hours": null,
    "sunshine_minutes": null,
    "codes": [
      {
        "repr": "AO2",
        "value": "Automated with precipitation sensor"
      }
    ],
    "dewpoint_decimal": {
      "repr": "0067",
      "value": 6.7,
      "spoken": "six point seven"
    },
    "maximum_temperature_24": null,
    "minimum_temperature_24": null,
    "precip_hourly": null,
    "sea_level_pressure": {
      "repr": "SLP236",
      "value": 1023.6,
      "spoken": "one zero two three point six"
    },
    "snow_depth": null,
    "temperature_decimal": {
      "repr": "0072",
      "value": 7.2,
      "spoken": "seven point two"
    }
  },
  "runway_visibility": [],
  "temperature": {
    "repr": "07",
    "value": 7,
    "spoken": "seven"
  },
  "wind_variable_direction": [],
  "density_altitude": -1005,
  "pressure_altitude": -110,
  "units": {
    "accumulation": "in",
    "altimeter": "inHg",
    "altitude": "ft",
    "temperature": "C",
    "visibility": "sm",
    "wind_speed": "kt"
  }
}
