{
  "meta": {
    "timestamp": "2023-08-14T18:40:43.777214Z",
    "stations_updated": "2023-08-05",
    "cache-timestamp": "2023-08-14T18:40:06.463000Z"
  },
  "altimeter": {
    "repr": "A3004",
    "value": 30.04,
    "spoken": "three zero point zero four"
  },
  "clouds": [],
  "flight_rules": "VFR",
  "other": [],
  "visibility": {
    "repr": "10",
    "value": 10,
    "spoken": "one zero"
  },
  "wind_direction": {
    "repr": "VRB",
    "value": null,
    "spoken": "variable"
  },
  "wind_gust": null,
  "wind_speed": {
    "repr": "03",
    "value": 3,
    "spoken": "three"
  },
  "wx_codes": [],
  "raw": "KBLI 141753Z VRB03KT 10SM CLR 27/19 A3004 RMK AO2 SLP177 T02670194 10267 20150 58006",
  "sanitized": "KBLI 141753Z VRB03KT 10SM 27/19 A3004 RMK AO2 SLP177 T02670194 10267 20150 58006",
  "station": "KBLI",
  "time": {
    "repr": "141753Z",
    "dt": "2023-08-14T17:53:00Z"
  },
  "remarks": "RMK AO2 SLP177 T02670194 10267 20150 58006",
  "dewpoint": {
    "repr": "19",
    "value": 19,
    "spoken": "one nine"
  },
  "relative_humidity": 0.6426448455826137,
  "remarks_info": {
    "maximum_temperature_6": {
      "repr": "10267",
      "value": 26.7,
      "spoken": "two six point seven"
    },
    "minimum_temperature_6": {
      "repr": "20150",
      "value": 15,
      "spoken": "one five point zero"
    },
    "pressure_tendency": {
      "repr": "58006",
      "tendency": "Steady or increasing, then decreasing",
      "change": 0.6
    },
    "precip_36_hours": null,
    "precip_24_hours": null,
    "sunshine_minutes": null,
    "codes": [
      {
        "repr": "AO2",
        "value": "Automated with precipitation sensor"
      }
    ],
    "dewpoint_decimal": {
      "repr": "0194",
      "value": 19.4,
      "spoken": "one nine point four"
    },
    "maximum_temperature_24": null,
    "minimum_temperature_24": null,
    "precip_hourly": null,
    "sea_level_pressure": {
      "repr": "SLP177",
      "value": 1017.7,
      "spoken": "one zero one seven point seven"
    },
    "snow_depth": null,
    "temperature_decimal": {
      "repr": "0267",
      "value": 26.7,
      "spoken": "two six point seven"
    }
  },
  "runway_visibility": [],
  "temperature": {
    "repr": "27",
    "value": 27,
    "spoken": "two seven"
  },
  "wind_variable_direction": [],
  "density_altitude": 1495,
  "pressure_altitude": 50,
  "units": {
    "accumulation": "in",
    "altimeter": "inHg",
    "altitude": "ft",
    "temperature": "C",
    "visibility": "sm",
    "wind_speed": "kt"
  }
}
