{
  "meta": {
    "timestamp": "2022-11-21T08:36:48.085966Z",
    "stations_updated": "2022-09-05"
  },
  "altimeter": {
    "repr": "A3033",
    "value": 30.33,
    "spoken": "three zero point three three"
  },
  "clouds": [
    {
      "repr": "OVC065",
      "type": "OVC",
      "altitude": 65,
      "modifier": null
    }
  ],
  "flight_rules": "VFR",
  "other": [],
  "visibility": {
    "repr": "9",
    "value": 9,
    "spoken": "nine"
  },
  "wind_direction": {
    "repr": "130",
    "value": 130,
    "spoken": "one three zero"
  },
  "wind_gust": null,
  "wind_speed": {
    "repr": "03",
    "value": 3,
    "spoken": "three"
  },
  "wx_codes": [],
  "raw": "KBLI 210753Z AUTO 13003KT 9SM OVC065 03/02 A3033 RMK AO2 RAE45 SLP279 P0000 T00330017 400781039",
  "sanitized": "KBLI 210753Z 13003KT 9SM OVC065 03/02 A3033 RMK AO2 RAE45 SLP279 P0000 T00330017 400781039",
  "station": "KBLI",
  "time": {
    "repr": "210753Z",
    "dt": "2022-11-21T07:53:00Z"
  },
  "remarks": "RMK AO2 RAE45 SLP279 P0000 T00330017 400781039",
  "dewpoint": {
    "repr": "02",
    "value": 2,
    "spoken": "two"
  },
  "relative_humidity": 0.892472054966446,
  "remarks_info": {
    "maximum_temperature_6": null,
    "minimum_temperature_6": null,
    "pressure_tendency": null,
    "precip_36_hours": null,
    "precip_24_hours": null,
    "sunshine_minutes": null,
    "codes": [
      {
        "repr": "AO2",
        "value": "Automated with precipitation sensor"
      },
      {
        "repr": "P0000",
        "value": "Trace amount of rain in the last hour"
      },
      {
        "repr": "RAE45",
        "value": "Rain ended at :45"
      }
    ],
    "dewpoint_decimal": {
      "repr": "0017",
      "value": 1.7,
      "spoken": "one point seven"
    },
    "maximum_temperature_24": {
      "repr": "0078",
      "value": 7.8,
      "spoken": "seven point eight"
    },
    "minimum_temperature_24": {
      "repr": "1039",
      "value": -3.9,
      "spoken": "minus three point nine"
    },
    "precip_hourly": null,
    "sea_level_pressure": {
      "repr": "SLP279",
      "value": 1027.9,
      "spoken": "one zero two seven point nine"
    },
    "snow_depth": null,
    "temperature_decimal": {
      "repr": "0033",
      "value": 3.3,
      "spoken": "three point three"
    }
  },
  "runway_visibility": [],
  "temperature": {
    "repr": "03",
    "value": 3,
    "spoken": "three"
  },
  "wind_variable_direction": [],
  "density_altitude": -1603,
  "pressure_altitude": -240,
  "units": {
    "accumulation": "in",
    "altimeter": "inHg",
    "altitude": "ft",
    "temperature": "C",
    "visibility": "sm",
    "wind_speed": "kt"
  }
}
