{
  "meta": {
    "timestamp": "2022-12-07T05:01:46.367901Z",
    "stations_updated": "2022-09-05"
  },
  "altimeter": {
    "repr": "A3016",
    "value": 30.16,
    "spoken": "three zero point one six"
  },
  "clouds": [
    {
      "repr": "BKN021",
      "type": "BKN",
      "altitude": 21,
      "modifier": null
    },
    {
      "repr": "BKN030",
      "type": "BKN",
      "altitude": 30,
      "modifier": null
    },
    {
      "repr": "OVC041",
      "type": "OVC",
      "altitude": 41,
      "modifier": null
    }
  ],
  "flight_rules": "MVFR",
  "other": [],
  "visibility": {
    "repr": "5",
    "value": 5,
    "spoken": "five"
  },
  "wind_direction": {
    "repr": "360",
    "value": 360,
    "spoken": "three six zero"
  },
  "wind_gust": null,
  "wind_speed": {
    "repr": "03",
    "value": 3,
    "spoken": "three"
  },
  "wx_codes": [
    {
      "repr": "BR",
      "value": "Mist"
    }
  ],
  "raw": "KBLI 070453Z 36003KT 5SM BR BKN021 BKN030 OVC041 02/01 A3016 RMK AO2 RAE45 SLP221 P0000 T00220011",
  "sanitized": "KBLI 070453Z 36003KT 5SM BR BKN021 BKN030 OVC041 02/01 A3016 RMK AO2 RAE45 SLP221 P0000 T00220011",
  "station": "KBLI",
  "time": {
    "repr": "070453Z",
    "dt": "2022-12-07T04:53:00Z"
  },
  "remarks": "RMK AO2 RAE45 SLP221 P0000 T00220011",
  "dewpoint": {
    "repr": "01",
    "value": 1,
    "spoken": "one"
  },
  "relative_humidity": 0.9242682769225287,
  "remarks_info": {
    "maximum_temperature_6": null,
    "minimum_temperature_6": null,
    "pressure_tendency": null,
    "precip_36_hours": null,
    "precip_24_hours": null,
    "sunshine_minutes": null,
    "codes": [
      {
        "repr": "AO2",
        "value": "Automated with precipitation sensor"
      },
      {
        "repr": "P0000",
        "value": "Trace amount of rain in the last hour"
      },
      {
        "repr": "RAE45",
        "value": "Rain ended at :45"
      }
    ],
    "dewpoint_decimal": {
      "repr": "0011",
      "value": 1.1,
      "spoken": "one point one"
    },
    "maximum_temperature_24": null,
    "minimum_temperature_24": null,
    "precip_hourly": null,
    "sea_level_pressure": {
      "repr": "SLP221",
      "value": 1022.1,
      "spoken": "one zero two two point one"
    },
    "snow_depth": null,
    "temperature_decimal": {
      "repr": "0022",
      "value": 2.2,
      "spoken": "two point two"
    }
  },
  "runway_visibility": [],
  "temperature": {
    "repr": "02",
    "value": 2,
    "spoken": "two"
  },
  "wind_variable_direction": [],
  "density_altitude": -1565,
  "pressure_altitude": -70,
  "units": {
    "accumulation": "in",
    "altimeter": "inHg",
    "altitude": "ft",
    "temperature": "C",
    "visibility": "sm",
    "wind_speed": "kt"
  }
}
