{
  "meta": {
    "timestamp": "2023-05-26T00:27:33.839395Z",
    "stations_updated": "2023-03-11"
  },
  "altimeter": {
    "repr": "A2989",
    "value": 29.89,
    "spoken": "two nine point eight nine"
  },
  "clouds": [],
  "flight_rules": "VFR",
  "other": [],
  "visibility": {
    "repr": "10",
    "value": 10,
    "spoken": "one zero"
  },
  "wind_direction": {
    "repr": "230",
    "value": 230,
    "spoken": "two three zero"
  },
  "wind_gust": null,
  "wind_speed": {
    "repr": "05",
    "value": 5,
    "spoken": "five"
  },
  "wx_codes": [],
  "raw": "KBLI 252353Z 23005KT 10SM CLR 22/12 A2989 RMK AO2 SLP126 T02170122 10222 20189 58015",
  "sanitized": "KBLI 252353Z 23005KT 10SM 22/12 A2989 RMK AO2 SLP126 T02170122 10222 20189 58015",
  "station": "KBLI",
  "time": {
    "repr": "252353Z",
    "dt": "2023-05-25T23:53:00Z"
  },
  "remarks": "RMK AO2 SLP126 T02170122 10222 20189 58015",
  "dewpoint": {
    "repr": "12",
    "value": 12,
    "spoken": "one two"
  },
  "relative_humidity": 0.5472910677463987,
  "remarks_info": {
    "maximum_temperature_6": {
      "repr": "10222",
      "value": 22.2,
      "spoken": "two two point two"
    },
    "minimum_temperature_6": {
      "repr": "20189",
      "value": 18.9,
      "spoken": "one eight point nine"
    },
    "pressure_tendency": {
      "repr": "58015",
      "tendency": "Steady or increasing, then decreasing",
      "change": 1.5
    },
    "precip_36_hours": null,
    "precip_24_hours": null,
    "sunshine_minutes": null,
    "codes": [
      {
        "repr": "AO2",
        "value": "Automated with precipitation sensor"
      }
    ],
    "dewpoint_decimal": {
      "repr": "0122",
      "value": 12.2,
      "spoken": "one two point two"
    },
    "maximum_temperature_24": null,
    "minimum_temperature_24": null,
    "precip_hourly": null,
    "sea_level_pressure": {
      "repr": "SLP126",
      "value": 1012.6,
      "spoken": "one zero one two point six"
    },
    "snow_depth": null,
    "temperature_decimal": {
      "repr": "0217",
      "value": 21.7,
      "spoken": "two one point seven"
    }
  },
  "runway_visibility": [],
  "temperature": {
    "repr": "22",
    "value": 22,
    "spoken": "two two"
  },
  "wind_variable_direction": [],
  "density_altitude": 1045,
  "pressure_altitude": 200,
  "units": {
    "accumulation": "in",
    "altimeter": "inHg",
    "altitude": "ft",
    "temperature": "C",
    "visibility": "sm",
    "wind_speed": "kt"
  }
}
