{
  "altimeter": {
    "repr": "A3035",
    "spoken": "three zero point three five",
    "value": 30.35
  },
  "clouds": [],
  "density_altitude": -3615,
  "dewpoint": {
    "repr": "M26",
    "spoken": "minus two six",
    "value": -26
  },
  "flight_rules": "VFR",
  "meta": {
    "stations_updated": "2023-10-28",
    "timestamp": "2024-01-13T03:03:42.050487Z"
  },
  "other": [],
  "pressure_altitude": -260,
  "raw": "KBLI 130253Z 04015G25KT 10SM CLR M13/M26 A3035 RMK AO2 PK WND 05028/0217 SLP294 T11331261 53001",
  "relative_humidity": 0.33271263254034333,
  "remarks": "RMK AO2 PK WND 05028/0217 SLP294 T11331261 53001",
  "remarks_info": {
    "codes": [
      {
        "repr": "AO2",
        "value": "Automated with precipitation sensor"
      }
    ],
    "dewpoint_decimal": {
      "repr": "1261",
      "spoken": "minus two six point one",
      "value": -26.1
    },
    "maximum_temperature_24": null,
    "maximum_temperature_6": null,
    "minimum_temperature_24": null,
    "minimum_temperature_6": null,
    "precip_24_hours": null,
    "precip_36_hours": null,
    "precip_hourly": null,
    "pressure_tendency": {
      "change": 0.1,
      "repr": "53001",
      "tendency": "Decreasing or steady, then increasing"
    },
    "sea_level_pressure": {
      "repr": "SLP294",
      "spoken": "one zero two nine point four",
      "value": 1029.4
    },
    "snow_depth": null,
    "sunshine_minutes": null,
    "temperature_decimal": {
      "repr": "1133",
      "spoken": "minus one three point three",
      "value": -13.3
    }
  },
  "runway_visibility": [],
  "sanitized": "KBLI 130253Z 04015G25KT 10SM M13/M26 A3035 RMK AO2 PK WND 05028/0217 SLP294 T11331261 53001",
  "station": "KBLI",
  "temperature": {
    "repr": "M13",
    "spoken": "minus one three",
    "value": -13
  },
  "time": {
    "dt": "2024-01-13T02:53:00Z",
    "repr": "130253Z"
  },
  "units": {
    "accumulation": "in",
    "altimeter": "inHg",
    "altitude": "ft",
    "temperature": "C",
    "visibility": "sm",
    "wind_speed": "kt"
  },
  "visibility": {
    "repr": "10",
    "spoken": "one zero",
    "value": 10
  },
  "wind_direction": {
    "repr": "040",
    "spoken": "zero four zero",
    "value": 40
  },
  "wind_gust": {
    "repr": "25",
    "spoken": "two five",
    "value": 25
  },
  "wind_speed": {
    "repr": "15",
    "spoken": "one five",
    "value": 15
  },
  "wind_variable_direction": [],
  "wx_codes": []
}
