{
  "meta": {
    "timestamp": "2022-11-22T00:32:40.724170Z",
    "stations_updated": "2022-09-05"
  },
  "altimeter": {
    "repr": "A3023",
    "value": 30.23,
    "spoken": "three zero point two three"
  },
  "clouds": [
    {
      "repr": "OVC080",
      "type": "OVC",
      "altitude": 80,
      "modifier": null
    }
  ],
  "flight_rules": "VFR",
  "other": [],
  "visibility": {
    "repr": "10",
    "value": 10,
    "spoken": "one zero"
  },
  "wind_direction": {
    "repr": "000",
    "value": 0,
    "spoken": "zero zero zero"
  },
  "wind_gust": null,
  "wind_speed": {
    "repr": "00",
    "value": 0,
    "spoken": "zero"
  },
  "wx_codes": [],
  "raw": "KBLI 212353Z 00000KT 10SM OVC080 08/03 A3023 RMK AO2 SLP246 T00830033 10094 20050 56007",
  "sanitized": "KBLI 212353Z 00000KT 10SM OVC080 08/03 A3023 RMK AO2 SLP246 T00830033 10094 20050 56007",
  "station": "KBLI",
  "time": {
    "repr": "212353Z",
    "dt": "2022-11-21T23:53:00Z"
  },
  "remarks": "RMK AO2 SLP246 T00830033 10094 20050 56007",
  "dewpoint": {
    "repr": "03",
    "value": 3,
    "spoken": "three"
  },
  "relative_humidity": 0.7073836438076732,
  "remarks_info": {
    "maximum_temperature_6": {
      "repr": "10094",
      "value": 9.4,
      "spoken": "nine point four"
    },
    "minimum_temperature_6": {
      "repr": "20050",
      "value": 5,
      "spoken": "five point zero"
    },
    "pressure_tendency": {
      "repr": "56007",
      "tendency": "Decreasing, then steady",
      "change": 0.7
    },
    "precip_36_hours": null,
    "precip_24_hours": null,
    "sunshine_minutes": null,
    "codes": [
      {
        "repr": "AO2",
        "value": "Automated with precipitation sensor"
      }
    ],
    "dewpoint_decimal": {
      "repr": "0033",
      "value": 3.3,
      "spoken": "three point three"
    },
    "maximum_temperature_24": null,
    "minimum_temperature_24": null,
    "precip_hourly": null,
    "sea_level_pressure": {
      "repr": "SLP246",
      "value": 1024.6,
      "spoken": "one zero two four point six"
    },
    "snow_depth": null,
    "temperature_decimal": {
      "repr": "0083",
      "value": 8.3,
      "spoken": "eight point three"
    }
  },
  "runway_visibility": [],
  "temperature": {
    "repr": "08",
    "value": 8,
    "spoken": "eight"
  },
  "wind_variable_direction": [],
  "density_altitude": -903,
  "pressure_altitude": -140,
  "units": {
    "accumulation": "in",
    "altimeter": "inHg",
    "altitude": "ft",
    "temperature": "C",
    "visibility": "sm",
    "wind_speed": "kt"
  }
}
