{
  "altimeter": {
    "repr": "A2998",
    "spoken": "two nine point nine eight",
    "value": 29.98
  },
  "clouds": [],
  "density_altitude": 1219,
  "dewpoint": {
    "repr": "15",
    "spoken": "one five",
    "value": 15
  },
  "flight_rules": "VFR",
  "meta": {
    "stations_updated": "2024-06-12",
    "timestamp": "2024-07-14T00:34:10.613654Z"
  },
  "other": [],
  "pressure_altitude": 110,
  "raw": "KBLI 132353Z 24003KT 10SM CLR 24/15 A2998 RMK AO2 SLP157 T02390150 10250 20211 58010",
  "relative_humidity": 0.5746511605575391,
  "remarks": "RMK AO2 SLP157 T02390150 10250 20211 58010",
  "remarks_info": {
    "codes": [
      {
        "repr": "AO2",
        "value": "Automated with precipitation sensor"
      }
    ],
    "dewpoint_decimal": {
      "repr": "0150",
      "spoken": "one five point zero",
      "value": 15
    },
    "maximum_temperature_24": null,
    "maximum_temperature_6": {
      "repr": "10250",
      "spoken": "two five point zero",
      "value": 25
    },
    "minimum_temperature_24": null,
    "minimum_temperature_6": {
      "repr": "20211",
      "spoken": "two one point one",
      "value": 21.1
    },
    "precip_24_hours": null,
    "precip_36_hours": null,
    "precip_hourly": null,
    "pressure_tendency": {
      "change": 1,
      "repr": "58010",
      "tendency": "Steady or increasing, then decreasing"
    },
    "sea_level_pressure": {
      "repr": "SLP157",
      "spoken": "one zero one five point seven",
      "value": 1015.7
    },
    "snow_depth": null,
    "sunshine_minutes": null,
    "temperature_decimal": {
      "repr": "0239",
      "spoken": "two three point nine",
      "value": 23.9
    }
  },
  "runway_visibility": [],
  "sanitized": "KBLI 132353Z 24003KT 10SM 24/15 A2998 RMK AO2 SLP157 T02390150 10250 20211 58010",
  "station": "KBLI",
  "temperature": {
    "repr": "24",
    "spoken": "two four",
    "value": 24
  },
  "time": {
    "dt": "2024-07-13T23:53:00Z",
    "repr": "132353Z"
  },
  "units": {
    "accumulation": "in",
    "altimeter": "inHg",
    "altitude": "ft",
    "temperature": "C",
    "visibility": "sm",
    "wind_speed": "kt"
  },
  "visibility": {
    "repr": "10",
    "spoken": "one zero",
    "value": 10
  },
  "wind_direction": {
    "repr": "240",
    "spoken": "two four zero",
    "value": 240
  },
  "wind_gust": null,
  "wind_speed": {
    "repr": "03",
    "spoken": "three",
    "value": 3
  },
  "wind_variable_direction": [],
  "wx_codes": []
}
