{
  "altimeter": {
    "repr": "A3037",
    "spoken": "three zero point three seven",
    "value": 30.37
  },
  "clouds": [
    {
      "altitude": 9,
      "modifier": null,
      "repr": "FEW009",
      "type": "FEW"
    },
    {
      "altitude": 15,
      "modifier": null,
      "repr": "BKN015",
      "type": "BKN"
    },
    {
      "altitude": 28,
      "modifier": null,
      "repr": "OVC028",
      "type": "OVC"
    }
  ],
  "density_altitude": -1367,
  "dewpoint": {
    "repr": "04",
    "spoken": "four",
    "value": 4
  },
  "flight_rules": "MVFR",
  "meta": {
    "stations_updated": "2024-10-29",
    "timestamp": "2024-11-27T20:43:59.142651Z"
  },
  "other": [],
  "pressure_altitude": -280,
  "raw": "KBLI 272040Z VRB03KT 3SM -RA BR FEW009 BKN015 OVC028 06/04 A3037 RMK AO2 RAE07B25 P0003 T00560044",
  "relative_humidity": 0.9197884374087767,
  "remarks": "RMK AO2 RAE07B25 P0003 T00560044",
  "remarks_info": {
    "codes": [
      {
        "repr": "AO2",
        "value": "Automated with precipitation sensor"
      }
    ],
    "dewpoint_decimal": {
      "repr": "0044",
      "spoken": "four point four",
      "value": 4.4
    },
    "maximum_temperature_24": null,
    "maximum_temperature_6": null,
    "minimum_temperature_24": null,
    "minimum_temperature_6": null,
    "precip_24_hours": null,
    "precip_36_hours": null,
    "precip_hourly": {
      "repr": "P0003",
      "spoken": "zero point zero three",
      "value": 0.03
    },
    "pressure_tendency": null,
    "sea_level_pressure": null,
    "snow_depth": null,
    "sunshine_minutes": null,
    "temperature_decimal": {
      "repr": "0056",
      "spoken": "five point six",
      "value": 5.6
    }
  },
  "runway_visibility": [],
  "sanitized": "KBLI 272040Z VRB03KT 3SM -RA BR FEW009 BKN015 OVC028 06/04 A3037 RMK AO2 RAE07B25 P0003 T00560044",
  "station": "KBLI",
  "temperature": {
    "repr": "06",
    "spoken": "six",
    "value": 6
  },
  "time": {
    "dt": "2024-11-27T20:40:00Z",
    "repr": "272040Z"
  },
  "units": {
    "accumulation": "in",
    "altimeter": "inHg",
    "altitude": "ft",
    "temperature": "C",
    "visibility": "sm",
    "wind_speed": "kt"
  },
  "visibility": {
    "repr": "3",
    "spoken": "three",
    "value": 3
  },
  "wind_direction": {
    "repr": "VRB",
    "spoken": "variable",
    "value": null
  },
  "wind_gust": null,
  "wind_speed": {
    "repr": "03",
    "spoken": "three",
    "value": 3
  },
  "wind_variable_direction": [],
  "wx_codes": [
    {
      "repr": "-RA",
      "value": "Light Rain"
    },
    {
      "repr": "BR",
      "value": "Mist"
    }
  ]
}
