{
  "altimeter": {
    "repr": "A3013",
    "spoken": "three zero point one three",
    "value": 30.13
  },
  "clouds": [
    {
      "altitude": 20,
      "modifier": null,
      "repr": "FEW020",
      "type": "FEW"
    },
    {
      "altitude": 40,
      "modifier": null,
      "repr": "SCT040",
      "type": "SCT"
    }
  ],
  "density_altitude": -1799,
  "dewpoint": {
    "repr": "M01",
    "spoken": "minus one",
    "value": -1
  },
  "flight_rules": "VFR",
  "meta": {
    "cache-timestamp": "2024-01-08T03:40:06.548000Z",
    "stations_updated": "2023-10-28",
    "timestamp": "2024-01-08T03:40:35.611179Z"
  },
  "other": [],
  "pressure_altitude": -40,
  "raw": "KBLI 080253Z 00000KT 10SM FEW020 SCT040 00/M01 A3013 RMK AO2 SLP214 T00001006 51015",
  "relative_humidity": 0.9572912555144957,
  "remarks": "RMK AO2 SLP214 T00001006 51015",
  "remarks_info": {
    "codes": [
      {
        "repr": "AO2",
        "value": "Automated with precipitation sensor"
      }
    ],
    "dewpoint_decimal": {
      "repr": "1006",
      "spoken": "minus zero point six",
      "value": -0.6
    },
    "maximum_temperature_24": null,
    "maximum_temperature_6": null,
    "minimum_temperature_24": null,
    "minimum_temperature_6": null,
    "precip_24_hours": null,
    "precip_36_hours": null,
    "precip_hourly": null,
    "pressure_tendency": {
      "change": 1.5,
      "repr": "51015",
      "tendency": "Increasing, then steady"
    },
    "sea_level_pressure": {
      "repr": "SLP214",
      "spoken": "one zero two one point four",
      "value": 1021.4
    },
    "snow_depth": null,
    "sunshine_minutes": null,
    "temperature_decimal": {
      "repr": "0000",
      "spoken": "zero",
      "value": 0
    }
  },
  "runway_visibility": [],
  "sanitized": "KBLI 080253Z 00000KT 10SM FEW020 SCT040 00/M01 A3013 RMK AO2 SLP214 T00001006 51015",
  "station": "KBLI",
  "temperature": {
    "repr": "00",
    "spoken": "zero",
    "value": 0
  },
  "time": {
    "dt": "2024-01-08T02:53:00Z",
    "repr": "080253Z"
  },
  "units": {
    "accumulation": "in",
    "altimeter": "inHg",
    "altitude": "ft",
    "temperature": "C",
    "visibility": "sm",
    "wind_speed": "kt"
  },
  "visibility": {
    "repr": "10",
    "spoken": "one zero",
    "value": 10
  },
  "wind_direction": {
    "repr": "000",
    "spoken": "zero zero zero",
    "value": 0
  },
  "wind_gust": null,
  "wind_speed": {
    "repr": "00",
    "spoken": "zero",
    "value": 0
  },
  "wind_variable_direction": [],
  "wx_codes": []
}
