{
  "altimeter": {
    "repr": "A2943",
    "spoken": "two nine point four three",
    "value": 29.43
  },
  "clouds": [
    {
      "altitude": 22,
      "modifier": null,
      "repr": "SCT022",
      "type": "SCT"
    },
    {
      "altitude": 50,
      "modifier": null,
      "repr": "BKN050",
      "type": "BKN"
    },
    {
      "altitude": 65,
      "modifier": null,
      "repr": "BKN065",
      "type": "BKN"
    }
  ],
  "density_altitude": -499,
  "dewpoint": {
    "repr": "02",
    "spoken": "two",
    "value": 2
  },
  "flight_rules": "VFR",
  "meta": {
    "cache-timestamp": "2024-03-01T23:22:05.014000Z",
    "stations_updated": "2024-01-01",
    "timestamp": "2024-03-01T23:22:28.872679Z"
  },
  "other": [],
  "pressure_altitude": 660,
  "raw": "KBLI 012253Z 11007KT 10SM SCT022 BKN050 BKN065 05/02 A2943 RMK AO2 RAE23 SLP975 P0000 T00500022",
  "relative_humidity": 0.820931292196258,
  "remarks": "RMK AO2 RAE23 SLP975 P0000 T00500022",
  "remarks_info": {
    "codes": [
      {
        "repr": "AO2",
        "value": "Automated with precipitation sensor"
      },
      {
        "repr": "P0000",
        "value": "Trace amount of rain in the last hour"
      },
      {
        "repr": "RAE23",
        "value": "Rain ended at :23"
      }
    ],
    "dewpoint_decimal": {
      "repr": "0022",
      "spoken": "two point two",
      "value": 2.2
    },
    "maximum_temperature_24": null,
    "maximum_temperature_6": null,
    "minimum_temperature_24": null,
    "minimum_temperature_6": null,
    "precip_24_hours": null,
    "precip_36_hours": null,
    "precip_hourly": null,
    "pressure_tendency": null,
    "sea_level_pressure": {
      "repr": "SLP975",
      "spoken": "nine nine seven point five",
      "value": 997.5
    },
    "snow_depth": null,
    "sunshine_minutes": null,
    "temperature_decimal": {
      "repr": "0050",
      "spoken": "five point zero",
      "value": 5
    }
  },
  "runway_visibility": [],
  "sanitized": "KBLI 012253Z 11007KT 10SM SCT022 BKN050 BKN065 05/02 A2943 RMK AO2 RAE23 SLP975 P0000 T00500022",
  "station": "KBLI",
  "temperature": {
    "repr": "05",
    "spoken": "five",
    "value": 5
  },
  "time": {
    "dt": "2024-03-01T22:53:00Z",
    "repr": "012253Z"
  },
  "units": {
    "accumulation": "in",
    "altimeter": "inHg",
    "altitude": "ft",
    "temperature": "C",
    "visibility": "sm",
    "wind_speed": "kt"
  },
  "visibility": {
    "repr": "10",
    "spoken": "one zero",
    "value": 10
  },
  "wind_direction": {
    "repr": "110",
    "spoken": "one one zero",
    "value": 110
  },
  "wind_gust": null,
  "wind_speed": {
    "repr": "07",
    "spoken": "seven",
    "value": 7
  },
  "wind_variable_direction": [],
  "wx_codes": []
}
