{
  "meta": {
    "timestamp": "2023-05-08T22:40:35.784878Z",
    "stations_updated": "2023-03-11"
  },
  "altimeter": {
    "repr": "A2996",
    "value": 29.96,
    "spoken": "two nine point nine six"
  },
  "clouds": [
    {
      "repr": "FEW032",
      "type": "FEW",
      "altitude": 32,
      "modifier": null
    }
  ],
  "flight_rules": "VFR",
  "other": [],
  "visibility": {
    "repr": "10",
    "value": 10,
    "spoken": "one zero"
  },
  "wind_direction": {
    "repr": "300",
    "value": 300,
    "spoken": "three zero zero"
  },
  "wind_gust": null,
  "wind_speed": {
    "repr": "07",
    "value": 7,
    "spoken": "seven"
  },
  "wx_codes": [],
  "raw": "KBLI 082153Z 30007KT 280V350 10SM FEW032 17/10 A2996 RMK AO2 SLP152 T01720100",
  "sanitized": "KBLI 082153Z 30007KT 280V350 10SM FEW032 17/10 A2996 RMK AO2 SLP152 T01720100",
  "station": "KBLI",
  "time": {
    "repr": "082153Z",
    "dt": "2023-05-08T21:53:00Z"
  },
  "remarks": "RMK AO2 SLP152 T01720100",
  "dewpoint": {
    "repr": "10",
    "value": 10,
    "spoken": "one zero"
  },
  "relative_humidity": 0.6257787844975978,
  "remarks_info": {
    "maximum_temperature_6": null,
    "minimum_temperature_6": null,
    "pressure_tendency": null,
    "precip_36_hours": null,
    "precip_24_hours": null,
    "sunshine_minutes": null,
    "codes": [
      {
        "repr": "AO2",
        "value": "Automated with precipitation sensor"
      }
    ],
    "dewpoint_decimal": {
      "repr": "0100",
      "value": 10,
      "spoken": "one zero point zero"
    },
    "maximum_temperature_24": null,
    "minimum_temperature_24": null,
    "precip_hourly": null,
    "sea_level_pressure": {
      "repr": "SLP152",
      "value": 1015.2,
      "spoken": "one zero one five point two"
    },
    "snow_depth": null,
    "temperature_decimal": {
      "repr": "0172",
      "value": 17.2,
      "spoken": "one seven point two"
    }
  },
  "runway_visibility": [],
  "temperature": {
    "repr": "17",
    "value": 17,
    "spoken": "one seven"
  },
  "wind_variable_direction": [
    {
      "repr": "280",
      "value": 280,
      "spoken": "two eight zero"
    },
    {
      "repr": "350",
      "value": 350,
      "spoken": "three five zero"
    }
  ],
  "density_altitude": 435,
  "pressure_altitude": 130,
  "units": {
    "accumulation": "in",
    "altimeter": "inHg",
    "altitude": "ft",
    "temperature": "C",
    "visibility": "sm",
    "wind_speed": "kt"
  }
}
