{
  "altimeter": {
    "repr": "A2993",
    "spoken": "two nine point nine three",
    "value": 29.93
  },
  "clouds": [],
  "density_altitude": 1737,
  "dewpoint": {
    "repr": "14",
    "spoken": "one four",
    "value": 14
  },
  "flight_rules": "VFR",
  "meta": {
    "stations_updated": "2024-06-12",
    "timestamp": "2024-07-17T00:30:54.384711Z"
  },
  "other": [],
  "pressure_altitude": 160,
  "raw": "KBLI 162353Z 30005KT 10SM CLR 28/14 A2993 RMK AO2 SLP139 T02780144 10283 20211 58017",
  "relative_humidity": 0.4386634873673799,
  "remarks": "RMK AO2 SLP139 T02780144 10283 20211 58017",
  "remarks_info": {
    "codes": [
      {
        "repr": "AO2",
        "value": "Automated with precipitation sensor"
      }
    ],
    "dewpoint_decimal": {
      "repr": "0144",
      "spoken": "one four point four",
      "value": 14.4
    },
    "maximum_temperature_24": null,
    "maximum_temperature_6": {
      "repr": "10283",
      "spoken": "two eight point three",
      "value": 28.3
    },
    "minimum_temperature_24": null,
    "minimum_temperature_6": {
      "repr": "20211",
      "spoken": "two one point one",
      "value": 21.1
    },
    "precip_24_hours": null,
    "precip_36_hours": null,
    "precip_hourly": null,
    "pressure_tendency": {
      "change": 1.7,
      "repr": "58017",
      "tendency": "Steady or increasing, then decreasing"
    },
    "sea_level_pressure": {
      "repr": "SLP139",
      "spoken": "one zero one three point nine",
      "value": 1013.9
    },
    "snow_depth": null,
    "sunshine_minutes": null,
    "temperature_decimal": {
      "repr": "0278",
      "spoken": "two seven point eight",
      "value": 27.8
    }
  },
  "runway_visibility": [],
  "sanitized": "KBLI 162353Z 30005KT 10SM 28/14 A2993 RMK AO2 SLP139 T02780144 10283 20211 58017",
  "station": "KBLI",
  "temperature": {
    "repr": "28",
    "spoken": "two eight",
    "value": 28
  },
  "time": {
    "dt": "2024-07-16T23:53:00Z",
    "repr": "162353Z"
  },
  "units": {
    "accumulation": "in",
    "altimeter": "inHg",
    "altitude": "ft",
    "temperature": "C",
    "visibility": "sm",
    "wind_speed": "kt"
  },
  "visibility": {
    "repr": "10",
    "spoken": "one zero",
    "value": 10
  },
  "wind_direction": {
    "repr": "300",
    "spoken": "three zero zero",
    "value": 300
  },
  "wind_gust": null,
  "wind_speed": {
    "repr": "05",
    "spoken": "five",
    "value": 5
  },
  "wind_variable_direction": [],
  "wx_codes": []
}
