{
  "altimeter": {
    "repr": "A3004",
    "spoken": "three zero point zero four",
    "value": 30.04
  },
  "clouds": [],
  "density_altitude": -1781,
  "dewpoint": {
    "repr": "M02",
    "spoken": "minus two",
    "value": -2
  },
  "flight_rules": "VFR",
  "meta": {
    "cache-timestamp": "2023-11-30T06:40:03.775000Z",
    "stations_updated": "2023-10-28",
    "timestamp": "2023-11-30T06:40:34.753872Z"
  },
  "other": [],
  "pressure_altitude": 50,
  "raw": "KBLI 300553Z 00000KT 10SM CLR M01/M02 A3004 RMK AO2 SLP182 I1000 I6000 T10061017 10017 21017 58007",
  "relative_humidity": 0.9225781625278401,
  "remarks": "RMK AO2 SLP182 I1000 I6000 T10061017 10017 21017 58007",
  "remarks_info": {
    "codes": [
      {
        "repr": "AO2",
        "value": "Automated with precipitation sensor"
      }
    ],
    "dewpoint_decimal": {
      "repr": "1017",
      "spoken": "minus one point seven",
      "value": -1.7
    },
    "maximum_temperature_24": null,
    "maximum_temperature_6": {
      "repr": "10017",
      "spoken": "one point seven",
      "value": 1.7
    },
    "minimum_temperature_24": null,
    "minimum_temperature_6": {
      "repr": "21017",
      "spoken": "minus one point seven",
      "value": -1.7
    },
    "precip_24_hours": null,
    "precip_36_hours": null,
    "precip_hourly": null,
    "pressure_tendency": {
      "change": 0.7,
      "repr": "58007",
      "tendency": "Steady or increasing, then decreasing"
    },
    "sea_level_pressure": {
      "repr": "SLP182",
      "spoken": "one zero one eight point two",
      "value": 1018.2
    },
    "snow_depth": null,
    "sunshine_minutes": null,
    "temperature_decimal": {
      "repr": "1006",
      "spoken": "minus zero point six",
      "value": -0.6
    }
  },
  "runway_visibility": [],
  "sanitized": "KBLI 300553Z 00000KT 10SM M01/M02 A3004 RMK AO2 SLP182 I1000 I6000 T10061017 10017 21017 58007",
  "station": "KBLI",
  "temperature": {
    "repr": "M01",
    "spoken": "minus one",
    "value": -1
  },
  "time": {
    "dt": "2023-11-30T05:53:00Z",
    "repr": "300553Z"
  },
  "units": {
    "accumulation": "in",
    "altimeter": "inHg",
    "altitude": "ft",
    "temperature": "C",
    "visibility": "sm",
    "wind_speed": "kt"
  },
  "visibility": {
    "repr": "10",
    "spoken": "one zero",
    "value": 10
  },
  "wind_direction": {
    "repr": "000",
    "spoken": "zero zero zero",
    "value": 0
  },
  "wind_gust": null,
  "wind_speed": {
    "repr": "00",
    "spoken": "zero",
    "value": 0
  },
  "wind_variable_direction": [],
  "wx_codes": []
}
