{
  "meta": {
    "timestamp": "2022-11-28T17:41:21.174031Z",
    "stations_updated": "2022-09-05"
  },
  "altimeter": {
    "repr": "A2988",
    "value": 29.88,
    "spoken": "two nine point eight eight"
  },
  "clouds": [],
  "flight_rules": "VFR",
  "other": [],
  "visibility": {
    "repr": "10",
    "value": 10,
    "spoken": "one zero"
  },
  "wind_direction": {
    "repr": "040",
    "value": 40,
    "spoken": "zero four zero"
  },
  "wind_gust": {
    "repr": "28",
    "value": 28,
    "spoken": "two eight"
  },
  "wind_speed": {
    "repr": "16",
    "value": 16,
    "spoken": "one six"
  },
  "wx_codes": [],
  "raw": "KBLI 281653Z 04016G28KT 10SM CLR 01/M08 A2988 RMK AO2 PK WND 05031/1629 SLP129 T00111083",
  "sanitized": "KBLI 281653Z 04016G28KT 10SM 01/M08 A2988 RMK AO2 PK WND 05031/1629 SLP129 T00111083",
  "station": "KBLI",
  "time": {
    "repr": "281653Z",
    "dt": "2022-11-28T16:53:00Z"
  },
  "remarks": "RMK AO2 PK WND 05031/1629 SLP129 T00111083",
  "dewpoint": {
    "repr": "M08",
    "value": -8,
    "spoken": "minus eight"
  },
  "relative_humidity": 0.4950863410825104,
  "remarks_info": {
    "maximum_temperature_6": null,
    "minimum_temperature_6": null,
    "pressure_tendency": null,
    "precip_36_hours": null,
    "precip_24_hours": null,
    "sunshine_minutes": null,
    "codes": [
      {
        "repr": "AO2",
        "value": "Automated with precipitation sensor"
      }
    ],
    "dewpoint_decimal": {
      "repr": "1083",
      "value": -8.3,
      "spoken": "minus eight point three"
    },
    "maximum_temperature_24": null,
    "minimum_temperature_24": null,
    "precip_hourly": null,
    "sea_level_pressure": {
      "repr": "SLP129",
      "value": 1012.9,
      "spoken": "one zero one two point nine"
    },
    "snow_depth": null,
    "temperature_decimal": {
      "repr": "0011",
      "value": 1.1,
      "spoken": "one point one"
    }
  },
  "runway_visibility": [],
  "temperature": {
    "repr": "01",
    "value": 1,
    "spoken": "one"
  },
  "wind_variable_direction": [],
  "density_altitude": -1417,
  "pressure_altitude": 210,
  "units": {
    "accumulation": "in",
    "altimeter": "inHg",
    "altitude": "ft",
    "temperature": "C",
    "visibility": "sm",
    "wind_speed": "kt"
  }
}
