{
  "meta": {
    "timestamp": "2023-01-15T03:40:45.568421Z",
    "stations_updated": "2022-12-27",
    "cache-timestamp": "2023-01-15T03:40:06.309000Z"
  },
  "altimeter": {
    "repr": "A2932",
    "value": 29.32,
    "spoken": "two nine point three two"
  },
  "clouds": [],
  "flight_rules": "VFR",
  "other": [],
  "visibility": {
    "repr": "10",
    "value": 10,
    "spoken": "one zero"
  },
  "wind_direction": {
    "repr": "010",
    "value": 10,
    "spoken": "zero one zero"
  },
  "wind_gust": null,
  "wind_speed": {
    "repr": "04",
    "value": 4,
    "spoken": "four"
  },
  "wx_codes": [],
  "raw": "KBLI 150253Z 01004KT 10SM CLR 08/06 A2932 RMK AO2 SLP936 T00780056 56006",
  "sanitized": "KBLI 150253Z 01004KT 10SM 08/06 A2932 RMK AO2 SLP936 T00780056 56006",
  "station": "KBLI",
  "time": {
    "repr": "150253Z",
    "dt": "2023-01-15T02:53:00Z"
  },
  "remarks": "RMK AO2 SLP936 T00780056 56006",
  "dewpoint": {
    "repr": "06",
    "value": 6,
    "spoken": "six"
  },
  "relative_humidity": 0.859663717525656,
  "remarks_info": {
    "maximum_temperature_6": null,
    "minimum_temperature_6": null,
    "pressure_tendency": {
      "repr": "56006",
      "tendency": "Decreasing, then steady",
      "change": 0.6
    },
    "precip_36_hours": null,
    "precip_24_hours": null,
    "sunshine_minutes": null,
    "codes": [
      {
        "repr": "AO2",
        "value": "Automated with precipitation sensor"
      }
    ],
    "dewpoint_decimal": {
      "repr": "0056",
      "value": 5.6,
      "spoken": "five point six"
    },
    "maximum_temperature_24": null,
    "minimum_temperature_24": null,
    "precip_hourly": null,
    "sea_level_pressure": {
      "repr": "SLP936",
      "value": 993.6,
      "spoken": "nine nine three point six"
    },
    "snow_depth": null,
    "temperature_decimal": {
      "repr": "0078",
      "value": 7.8,
      "spoken": "seven point eight"
    }
  },
  "runway_visibility": [],
  "temperature": {
    "repr": "08",
    "value": 8,
    "spoken": "eight"
  },
  "wind_variable_direction": [],
  "density_altitude": -53,
  "pressure_altitude": 770,
  "units": {
    "accumulation": "in",
    "altimeter": "inHg",
    "altitude": "ft",
    "temperature": "C",
    "visibility": "sm",
    "wind_speed": "kt"
  }
}
