{
  "altimeter": {
    "repr": "A3007",
    "spoken": "three zero point zero seven",
    "value": 30.07
  },
  "clouds": [
    {
      "altitude": 85,
      "modifier": null,
      "repr": "BKN085",
      "type": "BKN"
    }
  ],
  "density_altitude": -3275,
  "dewpoint": {
    "repr": "M24",
    "spoken": "minus two four",
    "value": -24
  },
  "flight_rules": "VFR",
  "meta": {
    "stations_updated": "2023-10-28",
    "timestamp": "2024-01-12T08:07:35.394554Z"
  },
  "other": [],
  "pressure_altitude": 20,
  "raw": "KBLI 120753Z AUTO 03026G54KT 10SM BKN085 M13/M24 A3007 RMK AO2 PK WND 04054/0749 SLP196 T11281244 400391128",
  "relative_humidity": 0.37253523068104505,
  "remarks": "RMK AO2 PK WND 04054/0749 SLP196 T11281244 400391128",
  "remarks_info": {
    "codes": [
      {
        "repr": "AO2",
        "value": "Automated with precipitation sensor"
      }
    ],
    "dewpoint_decimal": {
      "repr": "1244",
      "spoken": "minus two four point four",
      "value": -24.4
    },
    "maximum_temperature_24": {
      "repr": "0039",
      "spoken": "three point nine",
      "value": 3.9
    },
    "maximum_temperature_6": null,
    "minimum_temperature_24": {
      "repr": "1128",
      "spoken": "minus one two point eight",
      "value": -12.8
    },
    "minimum_temperature_6": null,
    "precip_24_hours": null,
    "precip_36_hours": null,
    "precip_hourly": null,
    "pressure_tendency": null,
    "sea_level_pressure": {
      "repr": "SLP196",
      "spoken": "one zero one nine point six",
      "value": 1019.6
    },
    "snow_depth": null,
    "sunshine_minutes": null,
    "temperature_decimal": {
      "repr": "1128",
      "spoken": "minus one two point eight",
      "value": -12.8
    }
  },
  "runway_visibility": [],
  "sanitized": "KBLI 120753Z 03026G54KT 10SM BKN085 M13/M24 A3007 RMK AO2 PK WND 04054/0749 SLP196 T11281244 400391128",
  "station": "KBLI",
  "temperature": {
    "repr": "M13",
    "spoken": "minus one three",
    "value": -13
  },
  "time": {
    "dt": "2024-01-12T07:53:00Z",
    "repr": "120753Z"
  },
  "units": {
    "accumulation": "in",
    "altimeter": "inHg",
    "altitude": "ft",
    "temperature": "C",
    "visibility": "sm",
    "wind_speed": "kt"
  },
  "visibility": {
    "repr": "10",
    "spoken": "one zero",
    "value": 10
  },
  "wind_direction": {
    "repr": "030",
    "spoken": "zero three zero",
    "value": 30
  },
  "wind_gust": {
    "repr": "54",
    "spoken": "five four",
    "value": 54
  },
  "wind_speed": {
    "repr": "26",
    "spoken": "two six",
    "value": 26
  },
  "wind_variable_direction": [],
  "wx_codes": []
}
