{
  "meta": {
    "timestamp": "2022-09-29T06:33:26.210810Z",
    "stations_updated": "2022-09-05"
  },
  "altimeter": {
    "repr": "A3004",
    "value": 30.04,
    "spoken": "three zero point zero four"
  },
  "clouds": [
    {
      "repr": "BKN022",
      "type": "BKN",
      "altitude": 22,
      "modifier": null
    }
  ],
  "flight_rules": "MVFR",
  "other": [],
  "visibility": {
    "repr": "7",
    "value": 7,
    "spoken": "seven"
  },
  "wind_direction": {
    "repr": "000",
    "value": 0,
    "spoken": "zero zero zero"
  },
  "wind_gust": null,
  "wind_speed": {
    "repr": "00",
    "value": 0,
    "spoken": "zero"
  },
  "wx_codes": [],
  "raw": "KBLI 290603Z AUTO 00000KT 7SM BKN022 12/12 A3004 RMK AO2 T01220122",
  "sanitized": "KBLI 290603Z 00000KT 7SM BKN022 12/12 A3004 RMK AO2 T01220122",
  "station": "KBLI",
  "time": {
    "repr": "290603Z",
    "dt": "2022-09-29T06:03:00Z"
  },
  "remarks": "RMK AO2 T01220122",
  "dewpoint": {
    "repr": "12",
    "value": 12,
    "spoken": "one two"
  },
  "relative_humidity": 1,
  "remarks_info": {
    "maximum_temperature_6": null,
    "minimum_temperature_6": null,
    "pressure_tendency": null,
    "precip_36_hours": null,
    "precip_24_hours": null,
    "sunshine_minutes": null,
    "codes": [
      {
        "repr": "AO2",
        "value": "Automated with precipitation sensor"
      }
    ],
    "dewpoint_decimal": {
      "repr": "0122",
      "value": 12.2,
      "spoken": "one two point two"
    },
    "maximum_temperature_24": null,
    "minimum_temperature_24": null,
    "precip_hourly": null,
    "sea_level_pressure": null,
    "snow_depth": null,
    "temperature_decimal": {
      "repr": "0122",
      "value": 12.2,
      "spoken": "one two point two"
    }
  },
  "runway_visibility": [],
  "temperature": {
    "repr": "12",
    "value": 12,
    "spoken": "one two"
  },
  "wind_variable_direction": [],
  "density_altitude": -245,
  "pressure_altitude": 50,
  "units": {
    "accumulation": "in",
    "altimeter": "inHg",
    "altitude": "ft",
    "temperature": "C",
    "visibility": "sm",
    "wind_speed": "kt"
  }
}
