{
  "altimeter": {
    "repr": "A3021",
    "spoken": "three zero point two one",
    "value": 30.21
  },
  "clouds": [
    {
      "altitude": 22,
      "modifier": null,
      "repr": "SCT022",
      "type": "SCT"
    },
    {
      "altitude": 28,
      "modifier": null,
      "repr": "SCT028",
      "type": "SCT"
    },
    {
      "altitude": 35,
      "modifier": null,
      "repr": "BKN035",
      "type": "BKN"
    }
  ],
  "density_altitude": -1207,
  "dewpoint": {
    "repr": "04",
    "spoken": "four",
    "value": 4
  },
  "flight_rules": "VFR",
  "meta": {
    "stations_updated": "2023-10-28",
    "timestamp": "2024-01-05T12:41:29.138109Z"
  },
  "other": [],
  "pressure_altitude": -120,
  "raw": "KBLI 051221Z AUTO 17008KT 10SM SCT022 SCT028 BKN035 06/04 A3021 RMK AO2 T00560044",
  "relative_humidity": 0.9197884374087767,
  "remarks": "RMK AO2 T00560044",
  "remarks_info": {
    "codes": [
      {
        "repr": "AO2",
        "value": "Automated with precipitation sensor"
      }
    ],
    "dewpoint_decimal": {
      "repr": "0044",
      "spoken": "four point four",
      "value": 4.4
    },
    "maximum_temperature_24": null,
    "maximum_temperature_6": null,
    "minimum_temperature_24": null,
    "minimum_temperature_6": null,
    "precip_24_hours": null,
    "precip_36_hours": null,
    "precip_hourly": null,
    "pressure_tendency": null,
    "sea_level_pressure": null,
    "snow_depth": null,
    "sunshine_minutes": null,
    "temperature_decimal": {
      "repr": "0056",
      "spoken": "five point six",
      "value": 5.6
    }
  },
  "runway_visibility": [],
  "sanitized": "KBLI 051221Z 17008KT 10SM SCT022 SCT028 BKN035 06/04 A3021 RMK AO2 T00560044",
  "station": "KBLI",
  "temperature": {
    "repr": "06",
    "spoken": "six",
    "value": 6
  },
  "time": {
    "dt": "2024-01-05T12:21:00Z",
    "repr": "051221Z"
  },
  "units": {
    "accumulation": "in",
    "altimeter": "inHg",
    "altitude": "ft",
    "temperature": "C",
    "visibility": "sm",
    "wind_speed": "kt"
  },
  "visibility": {
    "repr": "10",
    "spoken": "one zero",
    "value": 10
  },
  "wind_direction": {
    "repr": "170",
    "spoken": "one seven zero",
    "value": 170
  },
  "wind_gust": null,
  "wind_speed": {
    "repr": "08",
    "spoken": "eight",
    "value": 8
  },
  "wind_variable_direction": [],
  "wx_codes": []
}
