{
  "altimeter": {
    "repr": "A3042",
    "spoken": "three zero point four two",
    "value": 30.42
  },
  "clouds": [
    {
      "altitude": 1,
      "modifier": null,
      "repr": "VV001",
      "type": "VV"
    }
  ],
  "density_altitude": -1957,
  "dewpoint": {
    "repr": "01",
    "spoken": "one",
    "value": 1
  },
  "flight_rules": "LIFR",
  "meta": {
    "stations_updated": "2024-12-02",
    "timestamp": "2025-01-06T12:52:02.385306Z"
  },
  "other": [],
  "pressure_altitude": -330,
  "raw": "KBLI 061246Z AUTO 00000KT 3/4SM R16/P6000FT BR VV001 01/01 A3042 RMK AO2 T00110011",
  "relative_humidity": 1,
  "remarks": "RMK AO2 T00110011",
  "remarks_info": {
    "codes": [
      {
        "repr": "AO2",
        "value": "Automated with precipitation sensor"
      }
    ],
    "dewpoint_decimal": {
      "repr": "0011",
      "spoken": "one point one",
      "value": 1.1
    },
    "maximum_temperature_24": null,
    "maximum_temperature_6": null,
    "minimum_temperature_24": null,
    "minimum_temperature_6": null,
    "precip_24_hours": null,
    "precip_36_hours": null,
    "precip_hourly": null,
    "pressure_tendency": null,
    "sea_level_pressure": null,
    "snow_depth": null,
    "sunshine_minutes": null,
    "temperature_decimal": {
      "repr": "0011",
      "spoken": "one point one",
      "value": 1.1
    }
  },
  "runway_visibility": [
    {
      "repr": "R16/P6000FT",
      "runway": "16",
      "trend": null,
      "variable_visibility": [],
      "visibility": {
        "repr": "P6000",
        "spoken": "greater than six thousand",
        "value": null
      }
    }
  ],
  "sanitized": "KBLI 061246Z 00000KT 3/4SM R16/P6000FT BR VV001 01/01 A3042 RMK AO2 T00110011",
  "station": "KBLI",
  "temperature": {
    "repr": "01",
    "spoken": "one",
    "value": 1
  },
  "time": {
    "dt": "2025-01-06T12:46:00Z",
    "repr": "061246Z"
  },
  "units": {
    "accumulation": "in",
    "altimeter": "inHg",
    "altitude": "ft",
    "temperature": "C",
    "visibility": "sm",
    "wind_speed": "kt"
  },
  "visibility": {
    "denominator": 4,
    "normalized": "3/4",
    "numerator": 3,
    "repr": "3/4",
    "spoken": "three quarters",
    "value": 0.75
  },
  "wind_direction": {
    "repr": "000",
    "spoken": "zero zero zero",
    "value": 0
  },
  "wind_gust": null,
  "wind_speed": {
    "repr": "00",
    "spoken": "zero",
    "value": 0
  },
  "wind_variable_direction": [],
  "wx_codes": [
    {
      "repr": "BR",
      "value": "Mist"
    }
  ]
}
