{
  "meta": {
    "timestamp": "2022-12-22T13:40:48.150085Z",
    "stations_updated": "2022-09-05"
  },
  "altimeter": {
    "repr": "A3055",
    "value": 30.55,
    "spoken": "three zero point five five"
  },
  "clouds": [],
  "flight_rules": "VFR",
  "other": [],
  "visibility": {
    "repr": "10",
    "value": 10,
    "spoken": "one zero"
  },
  "wind_direction": {
    "repr": "040",
    "value": 40,
    "spoken": "zero four zero"
  },
  "wind_gust": {
    "repr": "30",
    "value": 30,
    "spoken": "three zero"
  },
  "wind_speed": {
    "repr": "16",
    "value": 16,
    "spoken": "one six"
  },
  "wx_codes": [],
  "raw": "KBLI 221253Z AUTO 04016G30KT 10SM CLR M10/M20 A3055 RMK AO2 PK WND 05032/1156 SLP359 T11001200",
  "sanitized": "KBLI 221253Z 04016G30KT 10SM M10/M20 A3055 RMK AO2 PK WND 05032/1156 SLP359 T11001200",
  "station": "KBLI",
  "time": {
    "repr": "221253Z",
    "dt": "2022-12-22T12:53:00Z"
  },
  "remarks": "RMK AO2 PK WND 05032/1156 SLP359 T11001200",
  "dewpoint": {
    "repr": "M20",
    "value": -20,
    "spoken": "minus two zero"
  },
  "relative_humidity": 0.4384704441191215,
  "remarks_info": {
    "maximum_temperature_6": null,
    "minimum_temperature_6": null,
    "pressure_tendency": null,
    "precip_36_hours": null,
    "precip_24_hours": null,
    "sunshine_minutes": null,
    "codes": [
      {
        "repr": "AO2",
        "value": "Automated with precipitation sensor"
      }
    ],
    "dewpoint_decimal": {
      "repr": "1200",
      "value": -20,
      "spoken": "minus two zero point zero"
    },
    "maximum_temperature_24": null,
    "minimum_temperature_24": null,
    "precip_hourly": null,
    "sea_level_pressure": {
      "repr": "SLP359",
      "value": 1035.9,
      "spoken": "one zero three five point nine"
    },
    "snow_depth": null,
    "temperature_decimal": {
      "repr": "1100",
      "value": -10,
      "spoken": "minus one zero point zero"
    }
  },
  "runway_visibility": [],
  "temperature": {
    "repr": "M10",
    "value": -10,
    "spoken": "minus one zero"
  },
  "wind_variable_direction": [],
  "density_altitude": -3419,
  "pressure_altitude": -460,
  "units": {
    "accumulation": "in",
    "altimeter": "inHg",
    "altitude": "ft",
    "temperature": "C",
    "visibility": "sm",
    "wind_speed": "kt"
  }
}
