{
  "meta": {
    "timestamp": "2023-10-21T17:40:28.894519Z",
    "stations_updated": "2023-10-01",
    "cache-timestamp": "2023-10-21T17:40:04.214000Z"
  },
  "altimeter": {
    "repr": "A2992",
    "value": 29.92,
    "spoken": "two nine point nine two"
  },
  "clouds": [
    {
      "repr": "OVC004",
      "type": "OVC",
      "altitude": 4,
      "modifier": null
    }
  ],
  "flight_rules": "LIFR",
  "other": [],
  "visibility": {
    "repr": "1",
    "value": 1,
    "spoken": "one"
  },
  "wind_direction": {
    "repr": "010",
    "value": 10,
    "spoken": "zero one zero"
  },
  "wind_gust": null,
  "wind_speed": {
    "repr": "04",
    "value": 4,
    "spoken": "four"
  },
  "wx_codes": [
    {
      "repr": "BR",
      "value": "Mist"
    }
  ],
  "raw": "KBLI 211720Z 01004KT 1SM R16/P6000FT BR OVC004 12/11 A2992 RMK AO2 T01170111",
  "sanitized": "KBLI 211720Z 01004KT 1SM R16/P6000FT BR OVC004 12/11 A2992 RMK AO2 T01170111",
  "station": "KBLI",
  "time": {
    "repr": "211720Z",
    "dt": "2023-10-21T17:20:00Z"
  },
  "remarks": "RMK AO2 T01170111",
  "dewpoint": {
    "repr": "11",
    "value": 11,
    "spoken": "one one"
  },
  "relative_humidity": 0.9610463260900074,
  "remarks_info": {
    "maximum_temperature_6": null,
    "minimum_temperature_6": null,
    "pressure_tendency": null,
    "precip_36_hours": null,
    "precip_24_hours": null,
    "sunshine_minutes": null,
    "codes": [
      {
        "repr": "AO2",
        "value": "Automated with precipitation sensor"
      }
    ],
    "dewpoint_decimal": {
      "repr": "0111",
      "value": 11.1,
      "spoken": "one one point one"
    },
    "maximum_temperature_24": null,
    "minimum_temperature_24": null,
    "precip_hourly": null,
    "sea_level_pressure": null,
    "snow_depth": null,
    "temperature_decimal": {
      "repr": "0117",
      "value": 11.7,
      "spoken": "one one point seven"
    }
  },
  "runway_visibility": [
    {
      "repr": "R16/P6000FT",
      "runway": "16",
      "visibility": {
        "repr": "P6000",
        "value": null,
        "spoken": "greater than six thousand"
      },
      "variable_visibility": [],
      "trend": null
    }
  ],
  "temperature": {
    "repr": "12",
    "value": 12,
    "spoken": "one two"
  },
  "wind_variable_direction": [],
  "density_altitude": -185,
  "pressure_altitude": 170,
  "units": {
    "accumulation": "in",
    "altimeter": "inHg",
    "altitude": "ft",
    "temperature": "C",
    "visibility": "sm",
    "wind_speed": "kt"
  }
}
