{
  "meta": {
    "timestamp": "2023-10-17T20:02:19.338785Z",
    "stations_updated": "2023-10-01"
  },
  "altimeter": {
    "repr": "A3018",
    "value": 30.18,
    "spoken": "three zero point one eight"
  },
  "clouds": [
    {
      "repr": "OVC080",
      "type": "OVC",
      "altitude": 80,
      "modifier": null
    }
  ],
  "flight_rules": "VFR",
  "other": [],
  "visibility": {
    "repr": "10",
    "value": 10,
    "spoken": "one zero"
  },
  "wind_direction": {
    "repr": "140",
    "value": 140,
    "spoken": "one four zero"
  },
  "wind_gust": null,
  "wind_speed": {
    "repr": "04",
    "value": 4,
    "spoken": "four"
  },
  "wx_codes": [],
  "raw": "KBLI 171953Z 14004KT 10SM OVC080 14/10 A3018 RMK AO2 RAE25 SLP228 P0000 T01390100 KBLI 171853Z 00000KT 10SM -RA OVC110 13/09 A3017 RMK AO2 RAB1757 SLP225 P0001 T01280094",
  "sanitized": "KBLI 171953Z 14004KT 10SM OVC080 14/10 A3018 RMK AO2 RAE25 SLP228 P0000 T01390100 KBLI 171853Z 00000KT 10SM -RA OVC110 13/09 A3017 RMK AO2 RAB1757 SLP225 P0001 T01280094",
  "station": "KBLI",
  "time": {
    "repr": "171953Z",
    "dt": "2023-10-17T19:53:00Z"
  },
  "remarks": "RMK AO2 RAE25 SLP228 P0000 T01390100 KBLI 171853Z 00000KT 10SM -RA OVC110 13/09 A3017 RMK AO2 RAB1757 SLP225 P0001 T01280094",
  "dewpoint": {
    "repr": "10",
    "value": 10,
    "spoken": "one zero"
  },
  "relative_humidity": 0.7979634918921645,
  "remarks_info": {
    "maximum_temperature_6": null,
    "minimum_temperature_6": null,
    "pressure_tendency": null,
    "precip_36_hours": null,
    "precip_24_hours": null,
    "sunshine_minutes": null,
    "codes": [
      {
        "repr": "AO2",
        "value": "Automated with precipitation sensor"
      },
      {
        "repr": "AO2",
        "value": "Automated with precipitation sensor"
      },
      {
        "repr": "P0000",
        "value": "Trace amount of rain in the last hour"
      },
      {
        "repr": "RAE25",
        "value": "Rain ended at :25"
      }
    ],
    "dewpoint_decimal": {
      "repr": "0094",
      "value": 9.4,
      "spoken": "nine point four"
    },
    "maximum_temperature_24": null,
    "minimum_temperature_24": null,
    "precip_hourly": {
      "repr": "P0001",
      "value": 0.01,
      "spoken": "zero point zero one"
    },
    "sea_level_pressure": {
      "repr": "SLP228",
      "value": 1022.8,
      "spoken": "one zero two two point eight"
    },
    "snow_depth": null,
    "temperature_decimal": {
      "repr": "0128",
      "value": 12.8,
      "spoken": "one two point eight"
    }
  },
  "runway_visibility": [],
  "temperature": {
    "repr": "14",
    "value": 14,
    "spoken": "one four"
  },
  "wind_variable_direction": [],
  "density_altitude": -313,
  "pressure_altitude": -90,
  "units": {
    "accumulation": "in",
    "altimeter": "inHg",
    "altitude": "ft",
    "temperature": "C",
    "visibility": "sm",
    "wind_speed": "kt"
  }
}
