{
  "meta": {
    "timestamp": "2022-12-19T13:40:42.058021Z",
    "stations_updated": "2022-09-05"
  },
  "altimeter": {
    "repr": "A3026",
    "value": 30.26,
    "spoken": "three zero point two six"
  },
  "clouds": [
    {
      "repr": "FEW042",
      "type": "FEW",
      "altitude": 42,
      "modifier": null
    },
    {
      "repr": "OVC070",
      "type": "OVC",
      "altitude": 70,
      "modifier": null
    }
  ],
  "flight_rules": "VFR",
  "other": [],
  "visibility": {
    "repr": "10",
    "value": 10,
    "spoken": "one zero"
  },
  "wind_direction": {
    "repr": "040",
    "value": 40,
    "spoken": "zero four zero"
  },
  "wind_gust": {
    "repr": "22",
    "value": 22,
    "spoken": "two two"
  },
  "wind_speed": {
    "repr": "13",
    "value": 13,
    "spoken": "one three"
  },
  "wx_codes": [],
  "raw": "KBLI 191253Z AUTO 04013G22KT 10SM FEW042 OVC070 M09/M14 A3026 RMK AO2 SLP260 T10891144 $",
  "sanitized": "KBLI 191253Z 04013G22KT 10SM FEW042 OVC070 M09/M14 A3026 RMK AO2 SLP260 T10891144 $",
  "station": "KBLI",
  "time": {
    "repr": "191253Z",
    "dt": "2022-12-19T12:53:00Z"
  },
  "remarks": "RMK AO2 SLP260 T10891144 $",
  "dewpoint": {
    "repr": "M14",
    "value": -14,
    "spoken": "minus one four"
  },
  "relative_humidity": 0.6438455745765091,
  "remarks_info": {
    "maximum_temperature_6": null,
    "minimum_temperature_6": null,
    "pressure_tendency": null,
    "precip_36_hours": null,
    "precip_24_hours": null,
    "sunshine_minutes": null,
    "codes": [
      {
        "repr": "$",
        "value": "ASOS requires maintenance"
      },
      {
        "repr": "AO2",
        "value": "Automated with precipitation sensor"
      }
    ],
    "dewpoint_decimal": {
      "repr": "1144",
      "value": -14.4,
      "spoken": "minus one four point four"
    },
    "maximum_temperature_24": null,
    "minimum_temperature_24": null,
    "precip_hourly": null,
    "sea_level_pressure": {
      "repr": "SLP260",
      "value": 1026,
      "spoken": "one zero two six point zero"
    },
    "snow_depth": null,
    "temperature_decimal": {
      "repr": "1089",
      "value": -8.9,
      "spoken": "minus eight point nine"
    }
  },
  "runway_visibility": [],
  "temperature": {
    "repr": "M09",
    "value": -9,
    "spoken": "minus nine"
  },
  "wind_variable_direction": [],
  "density_altitude": -2997,
  "pressure_altitude": -170,
  "units": {
    "accumulation": "in",
    "altimeter": "inHg",
    "altitude": "ft",
    "temperature": "C",
    "visibility": "sm",
    "wind_speed": "kt"
  }
}
