{
  "meta": {
    "timestamp": "2023-05-02T08:27:26.553083Z",
    "stations_updated": "2023-03-11"
  },
  "altimeter": {
    "repr": "A2983",
    "value": 29.83,
    "spoken": "two nine point eight three"
  },
  "clouds": [
    {
      "repr": "OVC008",
      "type": "OVC",
      "altitude": 8,
      "modifier": null
    }
  ],
  "flight_rules": "LIFR",
  "other": [],
  "visibility": {
    "repr": "3/4",
    "value": 0.75,
    "spoken": "three quarters",
    "numerator": 3,
    "denominator": 4,
    "normalized": "3/4"
  },
  "wind_direction": {
    "repr": "000",
    "value": 0,
    "spoken": "zero zero zero"
  },
  "wind_gust": null,
  "wind_speed": {
    "repr": "00",
    "value": 0,
    "spoken": "zero"
  },
  "wx_codes": [
    {
      "repr": "BR",
      "value": "Mist"
    }
  ],
  "raw": "KBLI 020819Z AUTO 00000KT 3/4SM BR OVC008 11/11 A2983 RMK AO2 T01060106 RVRNO",
  "sanitized": "KBLI 020819Z 00000KT 3/4SM BR OVC008 11/11 A2983 RMK AO2 T01060106 RVRNO",
  "station": "KBLI",
  "time": {
    "repr": "020819Z",
    "dt": "2023-05-02T08:19:00Z"
  },
  "remarks": "RMK AO2 T01060106 RVRNO",
  "dewpoint": {
    "repr": "11",
    "value": 11,
    "spoken": "one one"
  },
  "relative_humidity": 1,
  "remarks_info": {
    "maximum_temperature_6": null,
    "minimum_temperature_6": null,
    "pressure_tendency": null,
    "precip_36_hours": null,
    "precip_24_hours": null,
    "sunshine_minutes": null,
    "codes": [
      {
        "repr": "AO2",
        "value": "Automated with precipitation sensor"
      },
      {
        "repr": "RVRNO",
        "value": "Runway Visual Range missing"
      }
    ],
    "dewpoint_decimal": {
      "repr": "0106",
      "value": 10.6,
      "spoken": "one zero point six"
    },
    "maximum_temperature_24": null,
    "minimum_temperature_24": null,
    "precip_hourly": null,
    "sea_level_pressure": null,
    "snow_depth": null,
    "temperature_decimal": {
      "repr": "0106",
      "value": 10.6,
      "spoken": "one zero point six"
    }
  },
  "runway_visibility": [],
  "temperature": {
    "repr": "11",
    "value": 11,
    "spoken": "one one"
  },
  "wind_variable_direction": [],
  "density_altitude": -227,
  "pressure_altitude": 260,
  "units": {
    "accumulation": "in",
    "altimeter": "inHg",
    "altitude": "ft",
    "temperature": "C",
    "visibility": "sm",
    "wind_speed": "kt"
  }
}
