{
  "meta": {
    "timestamp": "2023-05-02T14:25:21.023852Z",
    "stations_updated": "2023-03-11"
  },
  "altimeter": {
    "repr": "A2978",
    "value": 29.78,
    "spoken": "two nine point seven eight"
  },
  "clouds": [
    {
      "repr": "OVC002",
      "type": "OVC",
      "altitude": 2,
      "modifier": null
    }
  ],
  "flight_rules": "LIFR",
  "other": [],
  "visibility": {
    "repr": "1/2",
    "value": 0.5,
    "spoken": "one half",
    "numerator": 1,
    "denominator": 2,
    "normalized": "1/2"
  },
  "wind_direction": {
    "repr": "330",
    "value": 330,
    "spoken": "three three zero"
  },
  "wind_gust": null,
  "wind_speed": {
    "repr": "03",
    "value": 3,
    "spoken": "three"
  },
  "wx_codes": [
    {
      "repr": "FG",
      "value": "Fog"
    }
  ],
  "raw": "KBLI 021410Z 33003KT 1/2SM R16/3000V5500FT FG OVC002 11/11 A2978 RMK AO2 T01060106",
  "sanitized": "KBLI 021410Z 33003KT 1/2SM R16/3000V5500FT FG OVC002 11/11 A2978 RMK AO2 T01060106",
  "station": "KBLI",
  "time": {
    "repr": "021410Z",
    "dt": "2023-05-02T14:10:00Z"
  },
  "remarks": "RMK AO2 T01060106",
  "dewpoint": {
    "repr": "11",
    "value": 11,
    "spoken": "one one"
  },
  "relative_humidity": 1,
  "remarks_info": {
    "maximum_temperature_6": null,
    "minimum_temperature_6": null,
    "pressure_tendency": null,
    "precip_36_hours": null,
    "precip_24_hours": null,
    "sunshine_minutes": null,
    "codes": [
      {
        "repr": "AO2",
        "value": "Automated with precipitation sensor"
      }
    ],
    "dewpoint_decimal": {
      "repr": "0106",
      "value": 10.6,
      "spoken": "one zero point six"
    },
    "maximum_temperature_24": null,
    "minimum_temperature_24": null,
    "precip_hourly": null,
    "sea_level_pressure": null,
    "snow_depth": null,
    "temperature_decimal": {
      "repr": "0106",
      "value": 10.6,
      "spoken": "one zero point six"
    }
  },
  "runway_visibility": [
    {
      "repr": "R16/3000V5500FT",
      "runway": "16",
      "visibility": null,
      "variable_visibility": [
        {
          "repr": "3000",
          "value": 3000,
          "spoken": "three thousand"
        },
        {
          "repr": "5500",
          "value": 5500,
          "spoken": "five five hundred"
        }
      ],
      "trend": null
    }
  ],
  "temperature": {
    "repr": "11",
    "value": 11,
    "spoken": "one one"
  },
  "wind_variable_direction": [],
  "density_altitude": -177,
  "pressure_altitude": 310,
  "units": {
    "accumulation": "in",
    "altimeter": "inHg",
    "altitude": "ft",
    "temperature": "C",
    "visibility": "sm",
    "wind_speed": "kt"
  }
}
