{
  "meta": {
    "timestamp": "2022-12-21T17:40:43.229512Z",
    "stations_updated": "2022-09-05"
  },
  "altimeter": {
    "repr": "A3052",
    "value": 30.52,
    "spoken": "three zero point five two"
  },
  "clouds": [],
  "flight_rules": "VFR",
  "other": [],
  "visibility": {
    "repr": "10",
    "value": 10,
    "spoken": "one zero"
  },
  "wind_direction": {
    "repr": "030",
    "value": 30,
    "spoken": "zero three zero"
  },
  "wind_gust": {
    "repr": "35",
    "value": 35,
    "spoken": "three five"
  },
  "wind_speed": {
    "repr": "21",
    "value": 21,
    "spoken": "two one"
  },
  "wx_codes": [],
  "raw": "KBLI 211653Z 03021G35KT 10SM CLR M11/M19 A3052 RMK AO2 PK WND 03037/1611 SLP348 T11111189",
  "sanitized": "KBLI 211653Z 03021G35KT 10SM M11/M19 A3052 RMK AO2 PK WND 03037/1611 SLP348 T11111189",
  "station": "KBLI",
  "time": {
    "repr": "211653Z",
    "dt": "2022-12-21T16:53:00Z"
  },
  "remarks": "RMK AO2 PK WND 03037/1611 SLP348 T11111189",
  "dewpoint": {
    "repr": "M19",
    "value": -19,
    "spoken": "minus one nine"
  },
  "relative_humidity": 0.5257337229391915,
  "remarks_info": {
    "maximum_temperature_6": null,
    "minimum_temperature_6": null,
    "pressure_tendency": null,
    "precip_36_hours": null,
    "precip_24_hours": null,
    "sunshine_minutes": null,
    "codes": [
      {
        "repr": "AO2",
        "value": "Automated with precipitation sensor"
      }
    ],
    "dewpoint_decimal": {
      "repr": "1189",
      "value": -18.9,
      "spoken": "minus one eight point nine"
    },
    "maximum_temperature_24": null,
    "minimum_temperature_24": null,
    "precip_hourly": null,
    "sea_level_pressure": {
      "repr": "SLP348",
      "value": 1034.8,
      "spoken": "one zero three four point eight"
    },
    "snow_depth": null,
    "temperature_decimal": {
      "repr": "1111",
      "value": -11.1,
      "spoken": "minus one one point one"
    }
  },
  "runway_visibility": [],
  "temperature": {
    "repr": "M11",
    "value": -11,
    "spoken": "minus one one"
  },
  "wind_variable_direction": [],
  "density_altitude": -3521,
  "pressure_altitude": -430,
  "units": {
    "accumulation": "in",
    "altimeter": "inHg",
    "altitude": "ft",
    "temperature": "C",
    "visibility": "sm",
    "wind_speed": "kt"
  }
}
