{
  "altimeter": {
    "repr": "A3020",
    "spoken": "three zero point two zero",
    "value": 30.2
  },
  "clouds": [],
  "density_altitude": 867,
  "dewpoint": {
    "repr": "14",
    "spoken": "one four",
    "value": 14
  },
  "flight_rules": "VFR",
  "meta": {
    "cache-timestamp": "2024-07-05T18:40:52.721000Z",
    "stations_updated": "2024-06-12",
    "timestamp": "2024-07-05T18:41:49.748700Z"
  },
  "other": [],
  "pressure_altitude": -110,
  "raw": "KBLI 051753Z 29005KT 10SM CLR 23/14 A3020 RMK AO2 SLP231 T02280139 10228 20117 58006",
  "relative_humidity": 0.5719762951947566,
  "remarks": "RMK AO2 SLP231 T02280139 10228 20117 58006",
  "remarks_info": {
    "codes": [
      {
        "repr": "AO2",
        "value": "Automated with precipitation sensor"
      }
    ],
    "dewpoint_decimal": {
      "repr": "0139",
      "spoken": "one three point nine",
      "value": 13.9
    },
    "maximum_temperature_24": null,
    "maximum_temperature_6": {
      "repr": "10228",
      "spoken": "two two point eight",
      "value": 22.8
    },
    "minimum_temperature_24": null,
    "minimum_temperature_6": {
      "repr": "20117",
      "spoken": "one one point seven",
      "value": 11.7
    },
    "precip_24_hours": null,
    "precip_36_hours": null,
    "precip_hourly": null,
    "pressure_tendency": {
      "change": 0.6,
      "repr": "58006",
      "tendency": "Steady or increasing, then decreasing"
    },
    "sea_level_pressure": {
      "repr": "SLP231",
      "spoken": "one zero two three point one",
      "value": 1023.1
    },
    "snow_depth": null,
    "sunshine_minutes": null,
    "temperature_decimal": {
      "repr": "0228",
      "spoken": "two two point eight",
      "value": 22.8
    }
  },
  "runway_visibility": [],
  "sanitized": "KBLI 051753Z 29005KT 10SM 23/14 A3020 RMK AO2 SLP231 T02280139 10228 20117 58006",
  "station": "KBLI",
  "temperature": {
    "repr": "23",
    "spoken": "two three",
    "value": 23
  },
  "time": {
    "dt": "2024-07-05T17:53:00Z",
    "repr": "051753Z"
  },
  "units": {
    "accumulation": "in",
    "altimeter": "inHg",
    "altitude": "ft",
    "temperature": "C",
    "visibility": "sm",
    "wind_speed": "kt"
  },
  "visibility": {
    "repr": "10",
    "spoken": "one zero",
    "value": 10
  },
  "wind_direction": {
    "repr": "290",
    "spoken": "two nine zero",
    "value": 290
  },
  "wind_gust": null,
  "wind_speed": {
    "repr": "05",
    "spoken": "five",
    "value": 5
  },
  "wind_variable_direction": [],
  "wx_codes": []
}
