{
  "altimeter": {
    "repr": "A2968",
    "spoken": "two nine point six eight",
    "value": 29.68
  },
  "clouds": [
    {
      "altitude": 55,
      "modifier": null,
      "repr": "OVC055",
      "type": "OVC"
    }
  ],
  "density_altitude": -17,
  "dewpoint": {
    "repr": "08",
    "spoken": "eight",
    "value": 8
  },
  "flight_rules": "VFR",
  "meta": {
    "stations_updated": "2024-05-13",
    "timestamp": "2024-06-03T18:31:51.488301Z"
  },
  "other": [],
  "pressure_altitude": 410,
  "raw": "KBLI 031753Z 18006KT 10SM OVC055 11/08 A2968 RMK AO2 RAE43 SLP057 P0012 60025 T01110083 10128 20106 51025",
  "relative_humidity": 0.8286786978983101,
  "remarks": "RMK AO2 RAE43 SLP057 P0012 60025 T01110083 10128 20106 51025",
  "remarks_info": {
    "codes": [
      {
        "repr": "AO2",
        "value": "Automated with precipitation sensor"
      },
      {
        "repr": "RAE43",
        "value": "Rain ended at :43"
      }
    ],
    "dewpoint_decimal": {
      "repr": "0083",
      "spoken": "eight point three",
      "value": 8.3
    },
    "maximum_temperature_24": null,
    "maximum_temperature_6": {
      "repr": "10128",
      "spoken": "one two point eight",
      "value": 12.8
    },
    "minimum_temperature_24": null,
    "minimum_temperature_6": {
      "repr": "20106",
      "spoken": "one zero point six",
      "value": 10.6
    },
    "precip_24_hours": null,
    "precip_36_hours": {
      "repr": "60025",
      "spoken": "zero point two five",
      "value": 0.25
    },
    "precip_hourly": {
      "repr": "P0012",
      "spoken": "zero point one two",
      "value": 0.12
    },
    "pressure_tendency": {
      "change": 2.5,
      "repr": "51025",
      "tendency": "Increasing, then steady"
    },
    "sea_level_pressure": {
      "repr": "SLP057",
      "spoken": "one zero zero five point seven",
      "value": 1005.7
    },
    "snow_depth": null,
    "sunshine_minutes": null,
    "temperature_decimal": {
      "repr": "0111",
      "spoken": "one one point one",
      "value": 11.1
    }
  },
  "runway_visibility": [],
  "sanitized": "KBLI 031753Z 18006KT 10SM OVC055 11/08 A2968 RMK AO2 RAE43 SLP057 P0012 60025 T01110083 10128 20106 51025",
  "station": "KBLI",
  "temperature": {
    "repr": "11",
    "spoken": "one one",
    "value": 11
  },
  "time": {
    "dt": "2024-06-03T17:53:00Z",
    "repr": "031753Z"
  },
  "units": {
    "accumulation": "in",
    "altimeter": "inHg",
    "altitude": "ft",
    "temperature": "C",
    "visibility": "sm",
    "wind_speed": "kt"
  },
  "visibility": {
    "repr": "10",
    "spoken": "one zero",
    "value": 10
  },
  "wind_direction": {
    "repr": "180",
    "spoken": "one eight zero",
    "value": 180
  },
  "wind_gust": null,
  "wind_speed": {
    "repr": "06",
    "spoken": "six",
    "value": 6
  },
  "wind_variable_direction": [],
  "wx_codes": []
}
