{
  "altimeter": {
    "repr": "A3026",
    "spoken": "three zero point two six",
    "value": 30.26
  },
  "clouds": [
    {
      "altitude": 1,
      "modifier": null,
      "repr": "VV001",
      "type": "VV"
    }
  ],
  "density_altitude": -1461,
  "dewpoint": {
    "repr": "04",
    "spoken": "four",
    "value": 4
  },
  "flight_rules": "LIFR",
  "meta": {
    "cache-timestamp": "2023-12-11T17:26:04.723000Z",
    "stations_updated": "2023-10-28",
    "timestamp": "2023-12-11T17:26:45.078426Z"
  },
  "other": [],
  "pressure_altitude": -170,
  "raw": "KBLI 111718Z 07003KT 1/4SM R16/1600V3500FT FG VV001 04/04 A3026 RMK AO2 T00390039",
  "relative_humidity": 1,
  "remarks": "RMK AO2 T00390039",
  "remarks_info": {
    "codes": [
      {
        "repr": "AO2",
        "value": "Automated with precipitation sensor"
      }
    ],
    "dewpoint_decimal": {
      "repr": "0039",
      "spoken": "three point nine",
      "value": 3.9
    },
    "maximum_temperature_24": null,
    "maximum_temperature_6": null,
    "minimum_temperature_24": null,
    "minimum_temperature_6": null,
    "precip_24_hours": null,
    "precip_36_hours": null,
    "precip_hourly": null,
    "pressure_tendency": null,
    "sea_level_pressure": null,
    "snow_depth": null,
    "sunshine_minutes": null,
    "temperature_decimal": {
      "repr": "0039",
      "spoken": "three point nine",
      "value": 3.9
    }
  },
  "runway_visibility": [
    {
      "repr": "R16/1600V3500FT",
      "runway": "16",
      "trend": null,
      "variable_visibility": [
        {
          "repr": "1600",
          "spoken": "one six hundred",
          "value": 1600
        },
        {
          "repr": "3500",
          "spoken": "three five hundred",
          "value": 3500
        }
      ],
      "visibility": null
    }
  ],
  "sanitized": "KBLI 111718Z 07003KT 1/4SM R16/1600V3500FT FG VV001 04/04 A3026 RMK AO2 T00390039",
  "station": "KBLI",
  "temperature": {
    "repr": "04",
    "spoken": "four",
    "value": 4
  },
  "time": {
    "dt": "2023-12-11T17:18:00Z",
    "repr": "111718Z"
  },
  "units": {
    "accumulation": "in",
    "altimeter": "inHg",
    "altitude": "ft",
    "temperature": "C",
    "visibility": "sm",
    "wind_speed": "kt"
  },
  "visibility": {
    "denominator": 4,
    "normalized": "1/4",
    "numerator": 1,
    "repr": "1/4",
    "spoken": "one quarter",
    "value": 0.25
  },
  "wind_direction": {
    "repr": "070",
    "spoken": "zero seven zero",
    "value": 70
  },
  "wind_gust": null,
  "wind_speed": {
    "repr": "03",
    "spoken": "three",
    "value": 3
  },
  "wind_variable_direction": [],
  "wx_codes": [
    {
      "repr": "FG",
      "value": "Fog"
    }
  ]
}
