{
  "meta": {
    "timestamp": "2023-07-03T19:40:31.869852Z",
    "stations_updated": "2023-06-06",
    "cache-timestamp": "2023-07-03T19:40:03.972000Z"
  },
  "altimeter": {
    "repr": "A3008",
    "value": 30.08,
    "spoken": "three zero point zero eight"
  },
  "clouds": [],
  "flight_rules": "VFR",
  "other": [],
  "visibility": {
    "repr": "10",
    "value": 10,
    "spoken": "one zero"
  },
  "wind_direction": {
    "repr": "300",
    "value": 300,
    "spoken": "three zero zero"
  },
  "wind_gust": {
    "repr": "14",
    "value": 14,
    "spoken": "one four"
  },
  "wind_speed": {
    "repr": "07",
    "value": 7,
    "spoken": "seven"
  },
  "wx_codes": [],
  "raw": "KBLI 031853Z 30007G14KT 260V330 10SM CLR 22/14 A3008 RMK AO2 SLP190 T02220139",
  "sanitized": "KBLI 031853Z 30007G14KT 260V330 10SM 22/14 A3008 RMK AO2 SLP190 T02220139",
  "station": "KBLI",
  "time": {
    "repr": "031853Z",
    "dt": "2023-07-03T18:53:00Z"
  },
  "remarks": "RMK AO2 SLP190 T02220139",
  "dewpoint": {
    "repr": "14",
    "value": 14,
    "spoken": "one four"
  },
  "relative_humidity": 0.5932307004904688,
  "remarks_info": {
    "maximum_temperature_6": null,
    "minimum_temperature_6": null,
    "pressure_tendency": null,
    "precip_36_hours": null,
    "precip_24_hours": null,
    "sunshine_minutes": null,
    "codes": [
      {
        "repr": "AO2",
        "value": "Automated with precipitation sensor"
      }
    ],
    "dewpoint_decimal": {
      "repr": "0139",
      "value": 13.9,
      "spoken": "one three point nine"
    },
    "maximum_temperature_24": null,
    "minimum_temperature_24": null,
    "precip_hourly": null,
    "sea_level_pressure": {
      "repr": "SLP190",
      "value": 1019,
      "spoken": "one zero one nine point zero"
    },
    "snow_depth": null,
    "temperature_decimal": {
      "repr": "0222",
      "value": 22.2,
      "spoken": "two two point two"
    }
  },
  "runway_visibility": [],
  "temperature": {
    "repr": "22",
    "value": 22,
    "spoken": "two two"
  },
  "wind_variable_direction": [
    {
      "repr": "260",
      "value": 260,
      "spoken": "two six zero"
    },
    {
      "repr": "330",
      "value": 330,
      "spoken": "three three zero"
    }
  ],
  "density_altitude": 915,
  "pressure_altitude": 10,
  "units": {
    "accumulation": "in",
    "altimeter": "inHg",
    "altitude": "ft",
    "temperature": "C",
    "visibility": "sm",
    "wind_speed": "kt"
  }
}
