{
  "altimeter": {
    "repr": "A3014",
    "spoken": "three zero point one four",
    "value": 30.14
  },
  "clouds": [
    {
      "altitude": 3,
      "modifier": null,
      "repr": "FEW003",
      "type": "FEW"
    }
  ],
  "density_altitude": -2481,
  "dewpoint": {
    "repr": "M06",
    "spoken": "minus six",
    "value": -6
  },
  "flight_rules": "VFR",
  "meta": {
    "stations_updated": "2024-12-02",
    "timestamp": "2025-01-29T15:41:09.481329Z"
  },
  "other": [],
  "pressure_altitude": -50,
  "raw": "KBLI 291529Z 00000KT 9SM FEW003 M06/M06 A3014 RMK AO2 I1000 T10561061",
  "relative_humidity": 0.9626246635328243,
  "remarks": "RMK AO2 I1000 T10561061",
  "remarks_info": {
    "codes": [
      {
        "repr": "AO2",
        "value": "Automated with precipitation sensor"
      }
    ],
    "dewpoint_decimal": {
      "repr": "1061",
      "spoken": "minus six point one",
      "value": -6.1
    },
    "maximum_temperature_24": null,
    "maximum_temperature_6": null,
    "minimum_temperature_24": null,
    "minimum_temperature_6": null,
    "precip_24_hours": null,
    "precip_36_hours": null,
    "precip_hourly": null,
    "pressure_tendency": null,
    "sea_level_pressure": null,
    "snow_depth": null,
    "sunshine_minutes": null,
    "temperature_decimal": {
      "repr": "1056",
      "spoken": "minus five point six",
      "value": -5.6
    }
  },
  "runway_visibility": [],
  "sanitized": "KBLI 291529Z 00000KT 9SM FEW003 M06/M06 A3014 RMK AO2 I1000 T10561061",
  "station": "KBLI",
  "temperature": {
    "repr": "M06",
    "spoken": "minus six",
    "value": -6
  },
  "time": {
    "dt": "2025-01-29T15:29:00Z",
    "repr": "291529Z"
  },
  "units": {
    "accumulation": "in",
    "altimeter": "inHg",
    "altitude": "ft",
    "temperature": "C",
    "visibility": "sm",
    "wind_speed": "kt"
  },
  "visibility": {
    "repr": "9",
    "spoken": "nine",
    "value": 9
  },
  "wind_direction": {
    "repr": "000",
    "spoken": "zero zero zero",
    "value": 0
  },
  "wind_gust": null,
  "wind_speed": {
    "repr": "00",
    "spoken": "zero",
    "value": 0
  },
  "wind_variable_direction": [],
  "wx_codes": []
}
