{
  "altimeter": {
    "repr": "A3015",
    "spoken": "three zero point one five",
    "value": 30.15
  },
  "clouds": [
    {
      "altitude": 55,
      "modifier": null,
      "repr": "FEW055",
      "type": "FEW"
    }
  ],
  "density_altitude": -1819,
  "dewpoint": {
    "repr": "M01",
    "spoken": "minus one",
    "value": -1
  },
  "flight_rules": "VFR",
  "meta": {
    "cache-timestamp": "2023-11-29T18:40:07.109000Z",
    "stations_updated": "2023-10-28",
    "timestamp": "2023-11-29T18:40:34.994796Z"
  },
  "other": [],
  "pressure_altitude": -60,
  "raw": "KBLI 291753Z 35004KT 10SM FEW055 00/M01 A3015 RMK AO2 SLP221 I6001 T00001006 10006 21050 53000",
  "relative_humidity": 0.9572912555144957,
  "remarks": "RMK AO2 SLP221 I6001 T00001006 10006 21050 53000",
  "remarks_info": {
    "codes": [
      {
        "repr": "AO2",
        "value": "Automated with precipitation sensor"
      }
    ],
    "dewpoint_decimal": {
      "repr": "1006",
      "spoken": "minus zero point six",
      "value": -0.6
    },
    "maximum_temperature_24": null,
    "maximum_temperature_6": {
      "repr": "10006",
      "spoken": "zero point six",
      "value": 0.6
    },
    "minimum_temperature_24": null,
    "minimum_temperature_6": {
      "repr": "21050",
      "spoken": "minus five point zero",
      "value": -5
    },
    "precip_24_hours": null,
    "precip_36_hours": null,
    "precip_hourly": null,
    "pressure_tendency": {
      "change": 0,
      "repr": "53000",
      "tendency": "Decreasing or steady, then increasing"
    },
    "sea_level_pressure": {
      "repr": "SLP221",
      "spoken": "one zero two two point one",
      "value": 1022.1
    },
    "snow_depth": null,
    "sunshine_minutes": null,
    "temperature_decimal": {
      "repr": "0000",
      "spoken": "zero",
      "value": 0
    }
  },
  "runway_visibility": [],
  "sanitized": "KBLI 291753Z 35004KT 10SM FEW055 00/M01 A3015 RMK AO2 SLP221 I6001 T00001006 10006 21050 53000",
  "station": "KBLI",
  "temperature": {
    "repr": "00",
    "spoken": "zero",
    "value": 0
  },
  "time": {
    "dt": "2023-11-29T17:53:00Z",
    "repr": "291753Z"
  },
  "units": {
    "accumulation": "in",
    "altimeter": "inHg",
    "altitude": "ft",
    "temperature": "C",
    "visibility": "sm",
    "wind_speed": "kt"
  },
  "visibility": {
    "repr": "10",
    "spoken": "one zero",
    "value": 10
  },
  "wind_direction": {
    "repr": "350",
    "spoken": "three five zero",
    "value": 350
  },
  "wind_gust": null,
  "wind_speed": {
    "repr": "04",
    "spoken": "four",
    "value": 4
  },
  "wind_variable_direction": [],
  "wx_codes": []
}
