{
  "altimeter": {
    "repr": "A3014",
    "spoken": "three zero point one four",
    "value": 30.14
  },
  "clouds": [],
  "density_altitude": -1341,
  "dewpoint": {
    "repr": "03",
    "spoken": "three",
    "value": 3
  },
  "flight_rules": "VFR",
  "meta": {
    "stations_updated": "2024-12-02",
    "timestamp": "2025-01-16T12:12:59.594432Z"
  },
  "other": [],
  "pressure_altitude": -50,
  "raw": "KBLI 161153Z AUTO 19011G17KT 10SM CLR 04/03 A3014 RMK AO2 SLP216 T00390033 10039 20017 58006",
  "relative_humidity": 0.9586006873106991,
  "remarks": "RMK AO2 SLP216 T00390033 10039 20017 58006",
  "remarks_info": {
    "codes": [
      {
        "repr": "AO2",
        "value": "Automated with precipitation sensor"
      }
    ],
    "dewpoint_decimal": {
      "repr": "0033",
      "spoken": "three point three",
      "value": 3.3
    },
    "maximum_temperature_24": null,
    "maximum_temperature_6": {
      "repr": "10039",
      "spoken": "three point nine",
      "value": 3.9
    },
    "minimum_temperature_24": null,
    "minimum_temperature_6": {
      "repr": "20017",
      "spoken": "one point seven",
      "value": 1.7
    },
    "precip_24_hours": null,
    "precip_36_hours": null,
    "precip_hourly": null,
    "pressure_tendency": {
      "change": 0.6,
      "repr": "58006",
      "tendency": "Steady or increasing, then decreasing"
    },
    "sea_level_pressure": {
      "repr": "SLP216",
      "spoken": "one zero two one point six",
      "value": 1021.6
    },
    "snow_depth": null,
    "sunshine_minutes": null,
    "temperature_decimal": {
      "repr": "0039",
      "spoken": "three point nine",
      "value": 3.9
    }
  },
  "runway_visibility": [],
  "sanitized": "KBLI 161153Z 19011G17KT 10SM 04/03 A3014 RMK AO2 SLP216 T00390033 10039 20017 58006",
  "station": "KBLI",
  "temperature": {
    "repr": "04",
    "spoken": "four",
    "value": 4
  },
  "time": {
    "dt": "2025-01-16T11:53:00Z",
    "repr": "161153Z"
  },
  "units": {
    "accumulation": "in",
    "altimeter": "inHg",
    "altitude": "ft",
    "temperature": "C",
    "visibility": "sm",
    "wind_speed": "kt"
  },
  "visibility": {
    "repr": "10",
    "spoken": "one zero",
    "value": 10
  },
  "wind_direction": {
    "repr": "190",
    "spoken": "one nine zero",
    "value": 190
  },
  "wind_gust": {
    "repr": "17",
    "spoken": "one seven",
    "value": 17
  },
  "wind_speed": {
    "repr": "11",
    "spoken": "one one",
    "value": 11
  },
  "wind_variable_direction": [],
  "wx_codes": []
}
