{
  "meta": {
    "timestamp": "2023-02-25T10:02:03.434047Z",
    "stations_updated": "2023-01-30"
  },
  "altimeter": {
    "repr": "A3012",
    "value": 30.12,
    "spoken": "three zero point one two"
  },
  "clouds": [],
  "flight_rules": "VFR",
  "other": [],
  "visibility": {
    "repr": "10",
    "value": 10,
    "spoken": "one zero"
  },
  "wind_direction": {
    "repr": "050",
    "value": 50,
    "spoken": "zero five zero"
  },
  "wind_gust": null,
  "wind_speed": {
    "repr": "03",
    "value": 3,
    "spoken": "three"
  },
  "wx_codes": [],
  "raw": "KBLI 250953Z AUTO 05003KT 10SM CLR M04/M09 A3012 RMK AO2 SLP210 T10441094",
  "sanitized": "KBLI 250953Z 05003KT 10SM M04/M09 A3012 RMK AO2 SLP210 T10441094",
  "station": "KBLI",
  "time": {
    "repr": "250953Z",
    "dt": "2023-02-25T09:53:00Z"
  },
  "remarks": "RMK AO2 SLP210 T10441094",
  "dewpoint": {
    "repr": "M09",
    "value": -9,
    "spoken": "minus nine"
  },
  "relative_humidity": 0.6808944924868249,
  "remarks_info": {
    "maximum_temperature_6": null,
    "minimum_temperature_6": null,
    "pressure_tendency": null,
    "precip_36_hours": null,
    "precip_24_hours": null,
    "sunshine_minutes": null,
    "codes": [
      {
        "repr": "AO2",
        "value": "Automated with precipitation sensor"
      }
    ],
    "dewpoint_decimal": {
      "repr": "1094",
      "value": -9.4,
      "spoken": "minus nine point four"
    },
    "maximum_temperature_24": null,
    "minimum_temperature_24": null,
    "precip_hourly": null,
    "sea_level_pressure": {
      "repr": "SLP210",
      "value": 1021,
      "spoken": "one zero two one point zero"
    },
    "snow_depth": null,
    "temperature_decimal": {
      "repr": "1044",
      "value": -4.4,
      "spoken": "minus four point four"
    }
  },
  "runway_visibility": [],
  "temperature": {
    "repr": "M04",
    "value": -4,
    "spoken": "minus four"
  },
  "wind_variable_direction": [],
  "density_altitude": -2317,
  "pressure_altitude": -30,
  "units": {
    "accumulation": "in",
    "altimeter": "inHg",
    "altitude": "ft",
    "temperature": "C",
    "visibility": "sm",
    "wind_speed": "kt"
  }
}
