{
  "meta": {
    "timestamp": "2023-10-05T15:25:00.610562Z",
    "stations_updated": "2023-10-01",
    "cache-timestamp": "2023-10-05T15:24:04.150000Z"
  },
  "altimeter": {
    "repr": "A3039",
    "value": 30.39,
    "spoken": "three zero point three nine"
  },
  "clouds": [
    {
      "repr": "VV002",
      "type": "VV",
      "altitude": 2,
      "modifier": null
    }
  ],
  "flight_rules": "LIFR",
  "other": [],
  "visibility": {
    "repr": "1/4",
    "value": 0.25,
    "spoken": "one quarter",
    "numerator": 1,
    "denominator": 4,
    "normalized": "1/4"
  },
  "wind_direction": {
    "repr": "020",
    "value": 20,
    "spoken": "zero two zero"
  },
  "wind_gust": null,
  "wind_speed": {
    "repr": "04",
    "value": 4,
    "spoken": "four"
  },
  "wx_codes": [
    {
      "repr": "FG",
      "value": "Fog"
    }
  ],
  "raw": "KBLI 051453Z 02004KT 1/4SM R16/1200V1400FT FG VV002 13/13 A3039 RMK AO2 SLP297 T01280128 53002",
  "sanitized": "KBLI 051453Z 02004KT 1/4SM R16/1200V1400FT FG VV002 13/13 A3039 RMK AO2 SLP297 T01280128 53002",
  "station": "KBLI",
  "time": {
    "repr": "051453Z",
    "dt": "2023-10-05T14:53:00Z"
  },
  "remarks": "RMK AO2 SLP297 T01280128 53002",
  "dewpoint": {
    "repr": "13",
    "value": 13,
    "spoken": "one three"
  },
  "relative_humidity": 1,
  "remarks_info": {
    "maximum_temperature_6": null,
    "minimum_temperature_6": null,
    "pressure_tendency": {
      "repr": "53002",
      "tendency": "Decreasing or steady, then increasing",
      "change": 0.2
    },
    "precip_36_hours": null,
    "precip_24_hours": null,
    "sunshine_minutes": null,
    "codes": [
      {
        "repr": "AO2",
        "value": "Automated with precipitation sensor"
      }
    ],
    "dewpoint_decimal": {
      "repr": "0128",
      "value": 12.8,
      "spoken": "one two point eight"
    },
    "maximum_temperature_24": null,
    "minimum_temperature_24": null,
    "precip_hourly": null,
    "sea_level_pressure": {
      "repr": "SLP297",
      "value": 1029.7,
      "spoken": "one zero two nine point seven"
    },
    "snow_depth": null,
    "temperature_decimal": {
      "repr": "0128",
      "value": 12.8,
      "spoken": "one two point eight"
    }
  },
  "runway_visibility": [
    {
      "repr": "R16/1200V1400FT",
      "runway": "16",
      "visibility": null,
      "variable_visibility": [
        {
          "repr": "1200",
          "value": 1200,
          "spoken": "one two hundred"
        },
        {
          "repr": "1400",
          "value": 1400,
          "spoken": "one four hundred"
        }
      ],
      "trend": null
    }
  ],
  "temperature": {
    "repr": "13",
    "value": 13,
    "spoken": "one three"
  },
  "wind_variable_direction": [],
  "density_altitude": -523,
  "pressure_altitude": -300,
  "units": {
    "accumulation": "in",
    "altimeter": "inHg",
    "altitude": "ft",
    "temperature": "C",
    "visibility": "sm",
    "wind_speed": "kt"
  }
}
