{
  "meta": {
    "timestamp": "2022-11-23T19:22:59.973348Z",
    "stations_updated": "2022-09-05",
    "cache-timestamp": "2022-11-23T19:22:30.964000Z"
  },
  "altimeter": {
    "repr": "A3039",
    "value": 30.39,
    "spoken": "three zero point three nine"
  },
  "clouds": [
    {
      "repr": "BKN055",
      "type": "BKN",
      "altitude": 55,
      "modifier": null
    },
    {
      "repr": "OVC110",
      "type": "OVC",
      "altitude": 110,
      "modifier": null
    }
  ],
  "flight_rules": "VFR",
  "other": [],
  "visibility": {
    "repr": "10",
    "value": 10,
    "spoken": "one zero"
  },
  "wind_direction": {
    "repr": "160",
    "value": 160,
    "spoken": "one six zero"
  },
  "wind_gust": null,
  "wind_speed": {
    "repr": "07",
    "value": 7,
    "spoken": "seven"
  },
  "wx_codes": [],
  "raw": "KBLI 231853Z 16007KT 10SM BKN055 OVC110 10/08 A3039 RMK AO2 SLP298 T01000078",
  "sanitized": "KBLI 231853Z 16007KT 10SM BKN055 OVC110 10/08 A3039 RMK AO2 SLP298 T01000078",
  "station": "KBLI",
  "time": {
    "repr": "231853Z",
    "dt": "2022-11-23T18:53:00Z"
  },
  "remarks": "RMK AO2 SLP298 T01000078",
  "dewpoint": {
    "repr": "08",
    "value": 8,
    "spoken": "eight"
  },
  "relative_humidity": 0.861922973004222,
  "remarks_info": {
    "maximum_temperature_6": null,
    "minimum_temperature_6": null,
    "pressure_tendency": null,
    "precip_36_hours": null,
    "precip_24_hours": null,
    "sunshine_minutes": null,
    "codes": [
      {
        "repr": "AO2",
        "value": "Automated with precipitation sensor"
      }
    ],
    "dewpoint_decimal": {
      "repr": "0078",
      "value": 7.8,
      "spoken": "seven point eight"
    },
    "maximum_temperature_24": null,
    "minimum_temperature_24": null,
    "precip_hourly": null,
    "sea_level_pressure": {
      "repr": "SLP298",
      "value": 1029.8,
      "spoken": "one zero two nine point eight"
    },
    "snow_depth": null,
    "temperature_decimal": {
      "repr": "0100",
      "value": 10,
      "spoken": "one zero point zero"
    }
  },
  "runway_visibility": [],
  "temperature": {
    "repr": "10",
    "value": 10,
    "spoken": "one zero"
  },
  "wind_variable_direction": [],
  "density_altitude": -859,
  "pressure_altitude": -300,
  "units": {
    "accumulation": "in",
    "altimeter": "inHg",
    "altitude": "ft",
    "temperature": "C",
    "visibility": "sm",
    "wind_speed": "kt"
  }
}
