{
  "altimeter": {
    "repr": "A2959",
    "spoken": "two nine point five nine",
    "value": 29.59
  },
  "clouds": [
    {
      "altitude": 24,
      "modifier": null,
      "repr": "BKN024",
      "type": "BKN"
    },
    {
      "altitude": 85,
      "modifier": null,
      "repr": "OVC085",
      "type": "OVC"
    }
  ],
  "density_altitude": -191,
  "dewpoint": {
    "repr": "04",
    "spoken": "four",
    "value": 4
  },
  "flight_rules": "MVFR",
  "meta": {
    "stations_updated": "2024-01-01",
    "timestamp": "2024-03-12T08:07:15.820208Z"
  },
  "other": [],
  "pressure_altitude": 500,
  "raw": "KBLI 120753Z AUTO 17019G32KT 10SM BKN024 OVC085 09/04 A2959 RMK AO2 PK WND 16038/0739 SLP026 T00890044 400940056",
  "relative_humidity": 0.7338548215781783,
  "remarks": "RMK AO2 PK WND 16038/0739 SLP026 T00890044 400940056",
  "remarks_info": {
    "codes": [
      {
        "repr": "AO2",
        "value": "Automated with precipitation sensor"
      }
    ],
    "dewpoint_decimal": {
      "repr": "0044",
      "spoken": "four point four",
      "value": 4.4
    },
    "maximum_temperature_24": {
      "repr": "0094",
      "spoken": "nine point four",
      "value": 9.4
    },
    "maximum_temperature_6": null,
    "minimum_temperature_24": {
      "repr": "0056",
      "spoken": "five point six",
      "value": 5.6
    },
    "minimum_temperature_6": null,
    "precip_24_hours": null,
    "precip_36_hours": null,
    "precip_hourly": null,
    "pressure_tendency": null,
    "sea_level_pressure": {
      "repr": "SLP026",
      "spoken": "one zero zero two point six",
      "value": 1002.6
    },
    "snow_depth": null,
    "sunshine_minutes": null,
    "temperature_decimal": {
      "repr": "0089",
      "spoken": "eight point nine",
      "value": 8.9
    }
  },
  "runway_visibility": [],
  "sanitized": "KBLI 120753Z 17019G32KT 10SM BKN024 OVC085 09/04 A2959 RMK AO2 PK WND 16038/0739 SLP026 T00890044 400940056",
  "station": "KBLI",
  "temperature": {
    "repr": "09",
    "spoken": "nine",
    "value": 9
  },
  "time": {
    "dt": "2024-03-12T07:53:00Z",
    "repr": "120753Z"
  },
  "units": {
    "accumulation": "in",
    "altimeter": "inHg",
    "altitude": "ft",
    "temperature": "C",
    "visibility": "sm",
    "wind_speed": "kt"
  },
  "visibility": {
    "repr": "10",
    "spoken": "one zero",
    "value": 10
  },
  "wind_direction": {
    "repr": "170",
    "spoken": "one seven zero",
    "value": 170
  },
  "wind_gust": {
    "repr": "32",
    "spoken": "three two",
    "value": 32
  },
  "wind_speed": {
    "repr": "19",
    "spoken": "one nine",
    "value": 19
  },
  "wind_variable_direction": [],
  "wx_codes": []
}
