{
  "altimeter": {
    "repr": "A3041",
    "spoken": "three zero point four one",
    "value": 30.41
  },
  "clouds": [],
  "density_altitude": -483,
  "dewpoint": {
    "repr": "M06",
    "spoken": "minus six",
    "value": -6
  },
  "flight_rules": "VFR",
  "meta": {
    "cache-timestamp": "2024-04-18T01:34:02.249000Z",
    "stations_updated": "2024-01-01",
    "timestamp": "2024-04-18T01:34:22.861716Z"
  },
  "other": [],
  "pressure_altitude": -320,
  "raw": "KBLI 180053Z 28008KT 10SM CLR 13/M06 A3041 RMK AO2 SLP305 T01331061",
  "relative_humidity": 0.25431463955073685,
  "remarks": "RMK AO2 SLP305 T01331061",
  "remarks_info": {
    "codes": [
      {
        "repr": "AO2",
        "value": "Automated with precipitation sensor"
      }
    ],
    "dewpoint_decimal": {
      "repr": "1061",
      "spoken": "minus six point one",
      "value": -6.1
    },
    "maximum_temperature_24": null,
    "maximum_temperature_6": null,
    "minimum_temperature_24": null,
    "minimum_temperature_6": null,
    "precip_24_hours": null,
    "precip_36_hours": null,
    "precip_hourly": null,
    "pressure_tendency": null,
    "sea_level_pressure": {
      "repr": "SLP305",
      "spoken": "one zero three zero point five",
      "value": 1030.5
    },
    "snow_depth": null,
    "sunshine_minutes": null,
    "temperature_decimal": {
      "repr": "0133",
      "spoken": "one three point three",
      "value": 13.3
    }
  },
  "runway_visibility": [],
  "sanitized": "KBLI 180053Z 28008KT 10SM 13/M06 A3041 RMK AO2 SLP305 T01331061",
  "station": "KBLI",
  "temperature": {
    "repr": "13",
    "spoken": "one three",
    "value": 13
  },
  "time": {
    "dt": "2024-04-18T00:53:00Z",
    "repr": "180053Z"
  },
  "units": {
    "accumulation": "in",
    "altimeter": "inHg",
    "altitude": "ft",
    "temperature": "C",
    "visibility": "sm",
    "wind_speed": "kt"
  },
  "visibility": {
    "repr": "10",
    "spoken": "one zero",
    "value": 10
  },
  "wind_direction": {
    "repr": "280",
    "spoken": "two eight zero",
    "value": 280
  },
  "wind_gust": null,
  "wind_speed": {
    "repr": "08",
    "spoken": "eight",
    "value": 8
  },
  "wind_variable_direction": [],
  "wx_codes": []
}
