{
  "altimeter": {
    "repr": "A3054",
    "spoken": "three zero point five four",
    "value": 30.54
  },
  "clouds": [],
  "density_altitude": -1681,
  "dewpoint": {
    "repr": "02",
    "spoken": "two",
    "value": 2
  },
  "flight_rules": "VFR",
  "meta": {
    "stations_updated": "2023-10-28",
    "timestamp": "2023-11-20T18:07:13.844081Z"
  },
  "other": [],
  "pressure_altitude": -450,
  "raw": "KBLI 201753Z 01003KT 10SM CLR 04/02 A3054 RMK AO2 SLP350 T00440022 10044 20000 53007",
  "relative_humidity": 0.8560648690888376,
  "remarks": "RMK AO2 SLP350 T00440022 10044 20000 53007",
  "remarks_info": {
    "codes": [
      {
        "repr": "AO2",
        "value": "Automated with precipitation sensor"
      }
    ],
    "dewpoint_decimal": {
      "repr": "0022",
      "spoken": "two point two",
      "value": 2.2
    },
    "maximum_temperature_24": null,
    "maximum_temperature_6": {
      "repr": "10044",
      "spoken": "four point four",
      "value": 4.4
    },
    "minimum_temperature_24": null,
    "minimum_temperature_6": {
      "repr": "20000",
      "spoken": "zero",
      "value": 0
    },
    "precip_24_hours": null,
    "precip_36_hours": null,
    "precip_hourly": null,
    "pressure_tendency": {
      "change": 0.7,
      "repr": "53007",
      "tendency": "Decreasing or steady, then increasing"
    },
    "sea_level_pressure": {
      "repr": "SLP350",
      "spoken": "one zero three five point zero",
      "value": 1035
    },
    "snow_depth": null,
    "sunshine_minutes": null,
    "temperature_decimal": {
      "repr": "0044",
      "spoken": "four point four",
      "value": 4.4
    }
  },
  "runway_visibility": [],
  "sanitized": "KBLI 201753Z 01003KT 10SM 04/02 A3054 RMK AO2 SLP350 T00440022 10044 20000 53007",
  "station": "KBLI",
  "temperature": {
    "repr": "04",
    "spoken": "four",
    "value": 4
  },
  "time": {
    "dt": "2023-11-20T17:53:00Z",
    "repr": "201753Z"
  },
  "units": {
    "accumulation": "in",
    "altimeter": "inHg",
    "altitude": "ft",
    "temperature": "C",
    "visibility": "sm",
    "wind_speed": "kt"
  },
  "visibility": {
    "repr": "10",
    "spoken": "one zero",
    "value": 10
  },
  "wind_direction": {
    "repr": "010",
    "spoken": "zero one zero",
    "value": 10
  },
  "wind_gust": null,
  "wind_speed": {
    "repr": "03",
    "spoken": "three",
    "value": 3
  },
  "wind_variable_direction": [],
  "wx_codes": []
}
