{
  "altimeter": {
    "repr": "A2984",
    "spoken": "two nine point eight four",
    "value": 29.84
  },
  "clouds": [],
  "density_altitude": -1509,
  "dewpoint": {
    "repr": "M08",
    "spoken": "minus eight",
    "value": -8
  },
  "flight_rules": "VFR",
  "meta": {
    "cache-timestamp": "2024-01-17T00:28:06.104000Z",
    "stations_updated": "2023-10-28",
    "timestamp": "2024-01-17T00:28:08.739594Z"
  },
  "other": [],
  "pressure_altitude": 250,
  "raw": "KBLI 162353Z 03008KT 10SM CLR 00/M08 A2984 RMK AO2 SLP117 T00001078 10017 21039 56036",
  "relative_humidity": 0.5572441508987436,
  "remarks": "RMK AO2 SLP117 T00001078 10017 21039 56036",
  "remarks_info": {
    "codes": [
      {
        "repr": "AO2",
        "value": "Automated with precipitation sensor"
      }
    ],
    "dewpoint_decimal": {
      "repr": "1078",
      "spoken": "minus seven point eight",
      "value": -7.8
    },
    "maximum_temperature_24": null,
    "maximum_temperature_6": {
      "repr": "10017",
      "spoken": "one point seven",
      "value": 1.7
    },
    "minimum_temperature_24": null,
    "minimum_temperature_6": {
      "repr": "21039",
      "spoken": "minus three point nine",
      "value": -3.9
    },
    "precip_24_hours": null,
    "precip_36_hours": null,
    "precip_hourly": null,
    "pressure_tendency": {
      "change": 3.6,
      "repr": "56036",
      "tendency": "Decreasing, then steady"
    },
    "sea_level_pressure": {
      "repr": "SLP117",
      "spoken": "one zero one one point seven",
      "value": 1011.7
    },
    "snow_depth": null,
    "sunshine_minutes": null,
    "temperature_decimal": {
      "repr": "0000",
      "spoken": "zero",
      "value": 0
    }
  },
  "runway_visibility": [],
  "sanitized": "KBLI 162353Z 03008KT 10SM 00/M08 A2984 RMK AO2 SLP117 T00001078 10017 21039 56036",
  "station": "KBLI",
  "temperature": {
    "repr": "00",
    "spoken": "zero",
    "value": 0
  },
  "time": {
    "dt": "2024-01-16T23:53:00Z",
    "repr": "162353Z"
  },
  "units": {
    "accumulation": "in",
    "altimeter": "inHg",
    "altitude": "ft",
    "temperature": "C",
    "visibility": "sm",
    "wind_speed": "kt"
  },
  "visibility": {
    "repr": "10",
    "spoken": "one zero",
    "value": 10
  },
  "wind_direction": {
    "repr": "030",
    "spoken": "zero three zero",
    "value": 30
  },
  "wind_gust": null,
  "wind_speed": {
    "repr": "08",
    "spoken": "eight",
    "value": 8
  },
  "wind_variable_direction": [],
  "wx_codes": []
}
