{
  "altimeter": {
    "repr": "A3064",
    "spoken": "three zero point six four",
    "value": 30.64
  },
  "clouds": [],
  "density_altitude": -2381,
  "dewpoint": {
    "repr": "M02",
    "spoken": "minus two",
    "value": -2
  },
  "flight_rules": "VFR",
  "meta": {
    "stations_updated": "2024-12-02",
    "timestamp": "2025-01-22T02:03:45.878701Z"
  },
  "other": [],
  "pressure_altitude": -550,
  "raw": "KBLI 220153Z 00000KT 10SM CLR M01/M02 A3064 RMK AO2 SLP387 T10061017",
  "relative_humidity": 0.9225781625278401,
  "remarks": "RMK AO2 SLP387 T10061017",
  "remarks_info": {
    "codes": [
      {
        "repr": "AO2",
        "value": "Automated with precipitation sensor"
      }
    ],
    "dewpoint_decimal": {
      "repr": "1017",
      "spoken": "minus one point seven",
      "value": -1.7
    },
    "maximum_temperature_24": null,
    "maximum_temperature_6": null,
    "minimum_temperature_24": null,
    "minimum_temperature_6": null,
    "precip_24_hours": null,
    "precip_36_hours": null,
    "precip_hourly": null,
    "pressure_tendency": null,
    "sea_level_pressure": {
      "repr": "SLP387",
      "spoken": "one zero three eight point seven",
      "value": 1038.7
    },
    "snow_depth": null,
    "sunshine_minutes": null,
    "temperature_decimal": {
      "repr": "1006",
      "spoken": "minus zero point six",
      "value": -0.6
    }
  },
  "runway_visibility": [],
  "sanitized": "KBLI 220153Z 00000KT 10SM M01/M02 A3064 RMK AO2 SLP387 T10061017",
  "station": "KBLI",
  "temperature": {
    "repr": "M01",
    "spoken": "minus one",
    "value": -1
  },
  "time": {
    "dt": "2025-01-22T01:53:00Z",
    "repr": "220153Z"
  },
  "units": {
    "accumulation": "in",
    "altimeter": "inHg",
    "altitude": "ft",
    "temperature": "C",
    "visibility": "sm",
    "wind_speed": "kt"
  },
  "visibility": {
    "repr": "10",
    "spoken": "one zero",
    "value": 10
  },
  "wind_direction": {
    "repr": "000",
    "spoken": "zero zero zero",
    "value": 0
  },
  "wind_gust": null,
  "wind_speed": {
    "repr": "00",
    "spoken": "zero",
    "value": 0
  },
  "wind_variable_direction": [],
  "wx_codes": []
}
