{
  "meta": {
    "timestamp": "2023-10-08T21:40:44.314014Z",
    "stations_updated": "2023-10-01",
    "cache-timestamp": "2023-10-08T21:40:03.323000Z"
  },
  "altimeter": {
    "repr": "A2976",
    "value": 29.76,
    "spoken": "two nine point seven six"
  },
  "clouds": [],
  "flight_rules": "VFR",
  "other": [],
  "visibility": {
    "repr": "10",
    "value": 10,
    "spoken": "one zero"
  },
  "wind_direction": {
    "repr": "210",
    "value": 210,
    "spoken": "two one zero"
  },
  "wind_gust": null,
  "wind_speed": {
    "repr": "04",
    "value": 4,
    "spoken": "four"
  },
  "wx_codes": [],
  "raw": "KBLI 082053Z 21004KT 10SM CLR 18/13 A2976 RMK AO2 SLP083 T01830133 58023",
  "sanitized": "KBLI 082053Z 21004KT 10SM 18/13 A2976 RMK AO2 SLP083 T01830133 58023",
  "station": "KBLI",
  "time": {
    "repr": "082053Z",
    "dt": "2023-10-08T20:53:00Z"
  },
  "remarks": "RMK AO2 SLP083 T01830133 58023",
  "dewpoint": {
    "repr": "13",
    "value": 13,
    "spoken": "one three"
  },
  "relative_humidity": 0.7261539169497305,
  "remarks_info": {
    "maximum_temperature_6": null,
    "minimum_temperature_6": null,
    "pressure_tendency": {
      "repr": "58023",
      "tendency": "Steady or increasing, then decreasing",
      "change": 2.3
    },
    "precip_36_hours": null,
    "precip_24_hours": null,
    "sunshine_minutes": null,
    "codes": [
      {
        "repr": "AO2",
        "value": "Automated with precipitation sensor"
      }
    ],
    "dewpoint_decimal": {
      "repr": "0133",
      "value": 13.3,
      "spoken": "one three point three"
    },
    "maximum_temperature_24": null,
    "minimum_temperature_24": null,
    "precip_hourly": null,
    "sea_level_pressure": {
      "repr": "SLP083",
      "value": 1008.3,
      "spoken": "one zero zero eight point three"
    },
    "snow_depth": null,
    "temperature_decimal": {
      "repr": "0183",
      "value": 18.3,
      "spoken": "one eight point three"
    }
  },
  "runway_visibility": [],
  "temperature": {
    "repr": "18",
    "value": 18,
    "spoken": "one eight"
  },
  "wind_variable_direction": [],
  "density_altitude": 767,
  "pressure_altitude": 330,
  "units": {
    "accumulation": "in",
    "altimeter": "inHg",
    "altitude": "ft",
    "temperature": "C",
    "visibility": "sm",
    "wind_speed": "kt"
  }
}
