{
  "meta": {
    "timestamp": "2023-01-14T09:01:23.804805Z",
    "stations_updated": "2022-12-27"
  },
  "altimeter": {
    "repr": "A2961",
    "value": 29.61,
    "spoken": "two nine point six one"
  },
  "clouds": [
    {
      "repr": "BKN021",
      "type": "BKN",
      "altitude": 21,
      "modifier": null
    },
    {
      "repr": "OVC055",
      "type": "OVC",
      "altitude": 55,
      "modifier": null
    }
  ],
  "flight_rules": "MVFR",
  "other": [],
  "visibility": {
    "repr": "10",
    "value": 10,
    "spoken": "one zero"
  },
  "wind_direction": {
    "repr": "160",
    "value": 160,
    "spoken": "one six zero"
  },
  "wind_gust": {
    "repr": "21",
    "value": 21,
    "spoken": "two one"
  },
  "wind_speed": {
    "repr": "12",
    "value": 12,
    "spoken": "one two"
  },
  "wx_codes": [
    {
      "repr": "-RA",
      "value": "Light Rain"
    }
  ],
  "raw": "KBLI 140853Z AUTO 16012G21KT 10SM -RA BKN021 OVC055 11/09 A2961 RMK AO2 SLP035 P0000 60002 T01110089 51001",
  "sanitized": "KBLI 140853Z 16012G21KT 10SM -RA BKN021 OVC055 11/09 A2961 RMK AO2 SLP035 P0000 60002 T01110089 51001",
  "station": "KBLI",
  "time": {
    "repr": "140853Z",
    "dt": "2023-01-14T08:53:00Z"
  },
  "remarks": "RMK AO2 SLP035 P0000 60002 T01110089 51001",
  "dewpoint": {
    "repr": "09",
    "value": 9,
    "spoken": "nine"
  },
  "relative_humidity": 0.8630327743847583,
  "remarks_info": {
    "maximum_temperature_6": null,
    "minimum_temperature_6": null,
    "pressure_tendency": {
      "repr": "51001",
      "tendency": "Increasing, then steady",
      "change": 0.1
    },
    "precip_36_hours": {
      "repr": "60002",
      "value": 0.02,
      "spoken": "zero point zero two"
    },
    "precip_24_hours": null,
    "sunshine_minutes": null,
    "codes": [
      {
        "repr": "AO2",
        "value": "Automated with precipitation sensor"
      },
      {
        "repr": "P0000",
        "value": "Trace amount of rain in the last hour"
      }
    ],
    "dewpoint_decimal": {
      "repr": "0089",
      "value": 8.9,
      "spoken": "eight point nine"
    },
    "maximum_temperature_24": null,
    "minimum_temperature_24": null,
    "precip_hourly": null,
    "sea_level_pressure": {
      "repr": "SLP035",
      "value": 1003.5,
      "spoken": "one zero zero three point five"
    },
    "snow_depth": null,
    "temperature_decimal": {
      "repr": "0111",
      "value": 11.1,
      "spoken": "one one point one"
    }
  },
  "runway_visibility": [],
  "temperature": {
    "repr": "11",
    "value": 11,
    "spoken": "one one"
  },
  "wind_variable_direction": [],
  "density_altitude": 53,
  "pressure_altitude": 480,
  "units": {
    "accumulation": "in",
    "altimeter": "inHg",
    "altitude": "ft",
    "temperature": "C",
    "visibility": "sm",
    "wind_speed": "kt"
  }
}
