{
  "altimeter": {
    "repr": "A2971",
    "spoken": "two nine point seven one",
    "value": 29.71
  },
  "clouds": [
    {
      "altitude": 26,
      "modifier": null,
      "repr": "BKN026",
      "type": "BKN"
    },
    {
      "altitude": 33,
      "modifier": null,
      "repr": "OVC033",
      "type": "OVC"
    }
  ],
  "density_altitude": -779,
  "dewpoint": {
    "repr": "02",
    "spoken": "two",
    "value": 2
  },
  "flight_rules": "MVFR",
  "meta": {
    "cache-timestamp": "2024-01-06T17:40:03.705000Z",
    "stations_updated": "2023-10-28",
    "timestamp": "2024-01-06T17:40:31.574380Z"
  },
  "other": [],
  "pressure_altitude": 380,
  "raw": "KBLI 061653Z 18003KT 10SM BKN026 OVC033 05/02 A2971 RMK AO2 SLP069 T00500022",
  "relative_humidity": 0.820931292196258,
  "remarks": "RMK AO2 SLP069 T00500022",
  "remarks_info": {
    "codes": [
      {
        "repr": "AO2",
        "value": "Automated with precipitation sensor"
      }
    ],
    "dewpoint_decimal": {
      "repr": "0022",
      "spoken": "two point two",
      "value": 2.2
    },
    "maximum_temperature_24": null,
    "maximum_temperature_6": null,
    "minimum_temperature_24": null,
    "minimum_temperature_6": null,
    "precip_24_hours": null,
    "precip_36_hours": null,
    "precip_hourly": null,
    "pressure_tendency": null,
    "sea_level_pressure": {
      "repr": "SLP069",
      "spoken": "one zero zero six point nine",
      "value": 1006.9
    },
    "snow_depth": null,
    "sunshine_minutes": null,
    "temperature_decimal": {
      "repr": "0050",
      "spoken": "five point zero",
      "value": 5
    }
  },
  "runway_visibility": [],
  "sanitized": "KBLI 061653Z 18003KT 10SM BKN026 OVC033 05/02 A2971 RMK AO2 SLP069 T00500022",
  "station": "KBLI",
  "temperature": {
    "repr": "05",
    "spoken": "five",
    "value": 5
  },
  "time": {
    "dt": "2024-01-06T16:53:00Z",
    "repr": "061653Z"
  },
  "units": {
    "accumulation": "in",
    "altimeter": "inHg",
    "altitude": "ft",
    "temperature": "C",
    "visibility": "sm",
    "wind_speed": "kt"
  },
  "visibility": {
    "repr": "10",
    "spoken": "one zero",
    "value": 10
  },
  "wind_direction": {
    "repr": "180",
    "spoken": "one eight zero",
    "value": 180
  },
  "wind_gust": null,
  "wind_speed": {
    "repr": "03",
    "spoken": "three",
    "value": 3
  },
  "wind_variable_direction": [],
  "wx_codes": []
}
