{
  "altimeter": {
    "repr": "A3051",
    "spoken": "three zero point five one",
    "value": 30.51
  },
  "clouds": [],
  "density_altitude": -1375,
  "dewpoint": {
    "repr": "M06",
    "spoken": "minus six",
    "value": -6
  },
  "flight_rules": "VFR",
  "meta": {
    "stations_updated": "2024-12-02",
    "timestamp": "2025-01-20T00:36:36.644905Z"
  },
  "other": [],
  "pressure_altitude": -420,
  "raw": "KBLI 192353Z 01014G22KT 10SM CLR 07/M06 A3051 RMK AO2 PK WND 03026/2304 SLP340 T00671061 10072 20006 55007",
  "relative_humidity": 0.39565659469930176,
  "remarks": "RMK AO2 PK WND 03026/2304 SLP340 T00671061 10072 20006 55007",
  "remarks_info": {
    "codes": [
      {
        "repr": "AO2",
        "value": "Automated with precipitation sensor"
      }
    ],
    "dewpoint_decimal": {
      "repr": "1061",
      "spoken": "minus six point one",
      "value": -6.1
    },
    "maximum_temperature_24": null,
    "maximum_temperature_6": {
      "repr": "10072",
      "spoken": "seven point two",
      "value": 7.2
    },
    "minimum_temperature_24": null,
    "minimum_temperature_6": {
      "repr": "20006",
      "spoken": "zero point six",
      "value": 0.6
    },
    "precip_24_hours": null,
    "precip_36_hours": null,
    "precip_hourly": null,
    "pressure_tendency": {
      "change": 0.7,
      "repr": "55007",
      "tendency": "Decreasing, then increasing"
    },
    "sea_level_pressure": {
      "repr": "SLP340",
      "spoken": "one zero three four point zero",
      "value": 1034.0
    },
    "snow_depth": null,
    "sunshine_minutes": null,
    "temperature_decimal": {
      "repr": "0067",
      "spoken": "six point seven",
      "value": 6.7
    }
  },
  "runway_visibility": [],
  "sanitized": "KBLI 192353Z 01014G22KT 10SM 07/M06 A3051 RMK AO2 PK WND 03026/2304 SLP340 T00671061 10072 20006 55007",
  "station": "KBLI",
  "temperature": {
    "repr": "07",
    "spoken": "seven",
    "value": 7
  },
  "time": {
    "dt": "2025-01-19T23:53:00Z",
    "repr": "192353Z"
  },
  "units": {
    "accumulation": "in",
    "altimeter": "inHg",
    "altitude": "ft",
    "temperature": "C",
    "visibility": "sm",
    "wind_speed": "kt"
  },
  "visibility": {
    "repr": "10",
    "spoken": "one zero",
    "value": 10
  },
  "wind_direction": {
    "repr": "010",
    "spoken": "zero one zero",
    "value": 10
  },
  "wind_gust": {
    "repr": "22",
    "spoken": "two two",
    "value": 22
  },
  "wind_speed": {
    "repr": "14",
    "spoken": "one four",
    "value": 14
  },
  "wind_variable_direction": [],
  "wx_codes": []
}
