{
  "meta": {
    "timestamp": "2023-10-21T10:40:35.668060Z",
    "stations_updated": "2023-10-01",
    "cache-timestamp": "2023-10-21T10:40:05.478000Z"
  },
  "altimeter": {
    "repr": "A2994",
    "value": 29.94,
    "spoken": "two nine point nine four"
  },
  "clouds": [
    {
      "repr": "VV003",
      "type": "VV",
      "altitude": 3,
      "modifier": null
    }
  ],
  "flight_rules": "LIFR",
  "other": [],
  "visibility": {
    "repr": "1/2",
    "value": 0.5,
    "spoken": "one half",
    "numerator": 1,
    "denominator": 2,
    "normalized": "1/2"
  },
  "wind_direction": {
    "repr": "000",
    "value": 0,
    "spoken": "zero zero zero"
  },
  "wind_gust": null,
  "wind_speed": {
    "repr": "00",
    "value": 0,
    "spoken": "zero"
  },
  "wx_codes": [
    {
      "repr": "FG",
      "value": "Fog"
    }
  ],
  "raw": "KBLI 211017Z AUTO 00000KT 1/2SM R16/2800V3000FT FG VV003 11/11 A2994 RMK AO2 T01060106",
  "sanitized": "KBLI 211017Z 00000KT 1/2SM R16/2800V3000FT FG VV003 11/11 A2994 RMK AO2 T01060106",
  "station": "KBLI",
  "time": {
    "repr": "211017Z",
    "dt": "2023-10-21T10:17:00Z"
  },
  "remarks": "RMK AO2 T01060106",
  "dewpoint": {
    "repr": "11",
    "value": 11,
    "spoken": "one one"
  },
  "relative_humidity": 1,
  "remarks_info": {
    "maximum_temperature_6": null,
    "minimum_temperature_6": null,
    "pressure_tendency": null,
    "precip_36_hours": null,
    "precip_24_hours": null,
    "sunshine_minutes": null,
    "codes": [
      {
        "repr": "AO2",
        "value": "Automated with precipitation sensor"
      }
    ],
    "dewpoint_decimal": {
      "repr": "0106",
      "value": 10.6,
      "spoken": "one zero point six"
    },
    "maximum_temperature_24": null,
    "minimum_temperature_24": null,
    "precip_hourly": null,
    "sea_level_pressure": null,
    "snow_depth": null,
    "temperature_decimal": {
      "repr": "0106",
      "value": 10.6,
      "spoken": "one zero point six"
    }
  },
  "runway_visibility": [
    {
      "repr": "R16/2800V3000FT",
      "runway": "16",
      "visibility": null,
      "variable_visibility": [
        {
          "repr": "2800",
          "value": 2800,
          "spoken": "two eight hundred"
        },
        {
          "repr": "3000",
          "value": 3000,
          "spoken": "three thousand"
        }
      ],
      "trend": null
    }
  ],
  "temperature": {
    "repr": "11",
    "value": 11,
    "spoken": "one one"
  },
  "wind_variable_direction": [],
  "density_altitude": -337,
  "pressure_altitude": 150,
  "units": {
    "accumulation": "in",
    "altimeter": "inHg",
    "altitude": "ft",
    "temperature": "C",
    "visibility": "sm",
    "wind_speed": "kt"
  }
}
