{
  "meta": {
    "timestamp": "2023-02-13T15:28:56.129792Z",
    "stations_updated": "2023-01-30",
    "cache-timestamp": "2023-02-13T15:28:05.392000Z"
  },
  "altimeter": {
    "repr": "A2978",
    "value": 29.78,
    "spoken": "two nine point seven eight"
  },
  "clouds": [],
  "flight_rules": "VFR",
  "other": [],
  "visibility": {
    "repr": "10",
    "value": 10,
    "spoken": "one zero"
  },
  "wind_direction": {
    "repr": "VRB",
    "value": null,
    "spoken": "variable"
  },
  "wind_gust": null,
  "wind_speed": {
    "repr": "05",
    "value": 5,
    "spoken": "five"
  },
  "wx_codes": [],
  "raw": "KBLI 131453Z VRB05KT 10SM CLR 06/03 A2978 RMK AO2 SLP093 60001 T00560033 56014",
  "sanitized": "KBLI 131453Z VRB05KT 10SM 06/03 A2978 RMK AO2 SLP093 60001 T00560033 56014",
  "station": "KBLI",
  "time": {
    "repr": "131453Z",
    "dt": "2023-02-13T14:53:00Z"
  },
  "remarks": "RMK AO2 SLP093 60001 T00560033 56014",
  "dewpoint": {
    "repr": "03",
    "value": 3,
    "spoken": "three"
  },
  "relative_humidity": 0.8513177604096042,
  "remarks_info": {
    "maximum_temperature_6": null,
    "minimum_temperature_6": null,
    "pressure_tendency": {
      "repr": "56014",
      "tendency": "Decreasing, then steady",
      "change": 1.4
    },
    "precip_36_hours": {
      "repr": "60001",
      "value": 0.01,
      "spoken": "zero point zero one"
    },
    "precip_24_hours": null,
    "sunshine_minutes": null,
    "codes": [
      {
        "repr": "AO2",
        "value": "Automated with precipitation sensor"
      }
    ],
    "dewpoint_decimal": {
      "repr": "0033",
      "value": 3.3,
      "spoken": "three point three"
    },
    "maximum_temperature_24": null,
    "minimum_temperature_24": null,
    "precip_hourly": null,
    "sea_level_pressure": {
      "repr": "SLP093",
      "value": 1009.3,
      "spoken": "one zero zero nine point three"
    },
    "snow_depth": null,
    "temperature_decimal": {
      "repr": "0056",
      "value": 5.6,
      "spoken": "five point six"
    }
  },
  "runway_visibility": [],
  "temperature": {
    "repr": "06",
    "value": 6,
    "spoken": "six"
  },
  "wind_variable_direction": [],
  "density_altitude": -777,
  "pressure_altitude": 310,
  "units": {
    "accumulation": "in",
    "altimeter": "inHg",
    "altitude": "ft",
    "temperature": "C",
    "visibility": "sm",
    "wind_speed": "kt"
  }
}
