{
  "meta": {
    "timestamp": "2023-08-16T18:40:47.162511Z",
    "stations_updated": "2023-08-05",
    "cache-timestamp": "2023-08-16T18:40:20.291000Z"
  },
  "altimeter": {
    "repr": "A3002",
    "value": 30.02,
    "spoken": "three zero point zero two"
  },
  "clouds": [],
  "flight_rules": "VFR",
  "other": [],
  "visibility": {
    "repr": "10",
    "value": 10,
    "spoken": "one zero"
  },
  "wind_direction": {
    "repr": "VRB",
    "value": null,
    "spoken": "variable"
  },
  "wind_gust": null,
  "wind_speed": {
    "repr": "03",
    "value": 3,
    "spoken": "three"
  },
  "wx_codes": [],
  "raw": "KBLI 161753Z VRB03KT 10SM CLR 25/19 A3002 RMK AO2 SLP170 T02500189 10250 20172 58002",
  "sanitized": "KBLI 161753Z VRB03KT 10SM 25/19 A3002 RMK AO2 SLP170 T02500189 10250 20172 58002",
  "station": "KBLI",
  "time": {
    "repr": "161753Z",
    "dt": "2023-08-16T17:53:00Z"
  },
  "remarks": "RMK AO2 SLP170 T02500189 10250 20172 58002",
  "dewpoint": {
    "repr": "19",
    "value": 19,
    "spoken": "one nine"
  },
  "relative_humidity": 0.6889913592234737,
  "remarks_info": {
    "maximum_temperature_6": {
      "repr": "10250",
      "value": 25,
      "spoken": "two five point zero"
    },
    "minimum_temperature_6": {
      "repr": "20172",
      "value": 17.2,
      "spoken": "one seven point two"
    },
    "pressure_tendency": {
      "repr": "58002",
      "tendency": "Steady or increasing, then decreasing",
      "change": 0.2
    },
    "precip_36_hours": null,
    "precip_24_hours": null,
    "sunshine_minutes": null,
    "codes": [
      {
        "repr": "AO2",
        "value": "Automated with precipitation sensor"
      }
    ],
    "dewpoint_decimal": {
      "repr": "0189",
      "value": 18.9,
      "spoken": "one eight point nine"
    },
    "maximum_temperature_24": null,
    "minimum_temperature_24": null,
    "precip_hourly": null,
    "sea_level_pressure": {
      "repr": "SLP170",
      "value": 1017,
      "spoken": "one zero one seven point zero"
    },
    "snow_depth": null,
    "temperature_decimal": {
      "repr": "0250",
      "value": 25,
      "spoken": "two five point zero"
    }
  },
  "runway_visibility": [],
  "temperature": {
    "repr": "25",
    "value": 25,
    "spoken": "two five"
  },
  "wind_variable_direction": [],
  "density_altitude": 1311,
  "pressure_altitude": 70,
  "units": {
    "accumulation": "in",
    "altimeter": "inHg",
    "altitude": "ft",
    "temperature": "C",
    "visibility": "sm",
    "wind_speed": "kt"
  }
}
