{
  "altimeter": {
    "repr": "A3014",
    "spoken": "three zero point one four",
    "value": 30.14
  },
  "clouds": [
    {
      "altitude": 1,
      "modifier": null,
      "repr": "VV001",
      "type": "VV"
    }
  ],
  "density_altitude": -1881,
  "dewpoint": {
    "repr": "M01",
    "spoken": "minus one",
    "value": -1
  },
  "flight_rules": "LIFR",
  "meta": {
    "cache-timestamp": "2024-02-13T15:40:09.438000Z",
    "stations_updated": "2024-01-01",
    "timestamp": "2024-02-13T15:40:46.072773Z"
  },
  "other": [],
  "pressure_altitude": -50,
  "raw": "KBLI 131518Z 04004KT 1/2SM R16/4000V5000FT FZFG VV001 M01/M01 A3014 RMK AO2 I1001 T10061006",
  "relative_humidity": 1,
  "remarks": "RMK AO2 I1001 T10061006",
  "remarks_info": {
    "codes": [
      {
        "repr": "AO2",
        "value": "Automated with precipitation sensor"
      }
    ],
    "dewpoint_decimal": {
      "repr": "1006",
      "spoken": "minus zero point six",
      "value": -0.6
    },
    "maximum_temperature_24": null,
    "maximum_temperature_6": null,
    "minimum_temperature_24": null,
    "minimum_temperature_6": null,
    "precip_24_hours": null,
    "precip_36_hours": null,
    "precip_hourly": null,
    "pressure_tendency": null,
    "sea_level_pressure": null,
    "snow_depth": null,
    "sunshine_minutes": null,
    "temperature_decimal": {
      "repr": "1006",
      "spoken": "minus zero point six",
      "value": -0.6
    }
  },
  "runway_visibility": [
    {
      "repr": "R16/4000V5000FT",
      "runway": "16",
      "trend": null,
      "variable_visibility": [
        {
          "repr": "4000",
          "spoken": "four thousand",
          "value": 4000
        },
        {
          "repr": "5000",
          "spoken": "five thousand",
          "value": 5000
        }
      ],
      "visibility": null
    }
  ],
  "sanitized": "KBLI 131518Z 04004KT 1/2SM R16/4000V5000FT FZFG VV001 M01/M01 A3014 RMK AO2 I1001 T10061006",
  "station": "KBLI",
  "temperature": {
    "repr": "M01",
    "spoken": "minus one",
    "value": -1
  },
  "time": {
    "dt": "2024-02-13T15:18:00Z",
    "repr": "131518Z"
  },
  "units": {
    "accumulation": "in",
    "altimeter": "inHg",
    "altitude": "ft",
    "temperature": "C",
    "visibility": "sm",
    "wind_speed": "kt"
  },
  "visibility": {
    "denominator": 2,
    "normalized": "1/2",
    "numerator": 1,
    "repr": "1/2",
    "spoken": "one half",
    "value": 0.5
  },
  "wind_direction": {
    "repr": "040",
    "spoken": "zero four zero",
    "value": 40
  },
  "wind_gust": null,
  "wind_speed": {
    "repr": "04",
    "spoken": "four",
    "value": 4
  },
  "wind_variable_direction": [],
  "wx_codes": [
    {
      "repr": "FZFG",
      "value": "Freezing Fog"
    }
  ]
}
