{
  "altimeter": {
    "repr": "A3003",
    "spoken": "three zero point zero three",
    "value": 30.03
  },
  "clouds": [],
  "density_altitude": -1231,
  "dewpoint": {
    "repr": "M07",
    "spoken": "minus seven",
    "value": -7
  },
  "flight_rules": "VFR",
  "meta": {
    "cache-timestamp": "2024-02-14T08:26:03.926000Z",
    "stations_updated": "2024-01-01",
    "timestamp": "2024-02-14T08:26:29.380530Z"
  },
  "other": [],
  "pressure_altitude": 60,
  "raw": "KBLI 140753Z AUTO 03008KT 10SM CLR 04/M07 A3003 RMK AO2 SLP177 T00391067 401001006",
  "relative_humidity": 0.45909300877729403,
  "remarks": "RMK AO2 SLP177 T00391067 401001006",
  "remarks_info": {
    "codes": [
      {
        "repr": "AO2",
        "value": "Automated with precipitation sensor"
      }
    ],
    "dewpoint_decimal": {
      "repr": "1067",
      "spoken": "minus six point seven",
      "value": -6.7
    },
    "maximum_temperature_24": {
      "repr": "0100",
      "spoken": "one zero point zero",
      "value": 10
    },
    "maximum_temperature_6": null,
    "minimum_temperature_24": {
      "repr": "1006",
      "spoken": "minus zero point six",
      "value": -0.6
    },
    "minimum_temperature_6": null,
    "precip_24_hours": null,
    "precip_36_hours": null,
    "precip_hourly": null,
    "pressure_tendency": null,
    "sea_level_pressure": {
      "repr": "SLP177",
      "spoken": "one zero one seven point seven",
      "value": 1017.7
    },
    "snow_depth": null,
    "sunshine_minutes": null,
    "temperature_decimal": {
      "repr": "0039",
      "spoken": "three point nine",
      "value": 3.9
    }
  },
  "runway_visibility": [],
  "sanitized": "KBLI 140753Z 03008KT 10SM 04/M07 A3003 RMK AO2 SLP177 T00391067 401001006",
  "station": "KBLI",
  "temperature": {
    "repr": "04",
    "spoken": "four",
    "value": 4
  },
  "time": {
    "dt": "2024-02-14T07:53:00Z",
    "repr": "140753Z"
  },
  "units": {
    "accumulation": "in",
    "altimeter": "inHg",
    "altitude": "ft",
    "temperature": "C",
    "visibility": "sm",
    "wind_speed": "kt"
  },
  "visibility": {
    "repr": "10",
    "spoken": "one zero",
    "value": 10
  },
  "wind_direction": {
    "repr": "030",
    "spoken": "zero three zero",
    "value": 30
  },
  "wind_gust": null,
  "wind_speed": {
    "repr": "08",
    "spoken": "eight",
    "value": 8
  },
  "wind_variable_direction": [],
  "wx_codes": []
}
