{
  "altimeter": {
    "repr": "A3030",
    "spoken": "three zero point three zero",
    "value": 30.3
  },
  "clouds": [],
  "density_altitude": -3841,
  "dewpoint": {
    "repr": "M27",
    "spoken": "minus two seven",
    "value": -27
  },
  "flight_rules": "VFR",
  "meta": {
    "cache-timestamp": "2024-01-12T17:26:02.991000Z",
    "stations_updated": "2023-10-28",
    "timestamp": "2024-01-12T17:26:26.554104Z"
  },
  "other": [],
  "pressure_altitude": -210,
  "raw": "KBLI 121653Z 03019G36KT 10SM CLR M16/M27 A3030 RMK AO2 PK WND 05043/1613 SLP273 T11561272",
  "relative_humidity": 0.363311578650164,
  "remarks": "RMK AO2 PK WND 05043/1613 SLP273 T11561272",
  "remarks_info": {
    "codes": [
      {
        "repr": "AO2",
        "value": "Automated with precipitation sensor"
      }
    ],
    "dewpoint_decimal": {
      "repr": "1272",
      "spoken": "minus two seven point two",
      "value": -27.2
    },
    "maximum_temperature_24": null,
    "maximum_temperature_6": null,
    "minimum_temperature_24": null,
    "minimum_temperature_6": null,
    "precip_24_hours": null,
    "precip_36_hours": null,
    "precip_hourly": null,
    "pressure_tendency": null,
    "sea_level_pressure": {
      "repr": "SLP273",
      "spoken": "one zero two seven point three",
      "value": 1027.3
    },
    "snow_depth": null,
    "sunshine_minutes": null,
    "temperature_decimal": {
      "repr": "1156",
      "spoken": "minus one five point six",
      "value": -15.6
    }
  },
  "runway_visibility": [],
  "sanitized": "KBLI 121653Z 03019G36KT 10SM M16/M27 A3030 RMK AO2 PK WND 05043/1613 SLP273 T11561272",
  "station": "KBLI",
  "temperature": {
    "repr": "M16",
    "spoken": "minus one six",
    "value": -16
  },
  "time": {
    "dt": "2024-01-12T16:53:00Z",
    "repr": "121653Z"
  },
  "units": {
    "accumulation": "in",
    "altimeter": "inHg",
    "altitude": "ft",
    "temperature": "C",
    "visibility": "sm",
    "wind_speed": "kt"
  },
  "visibility": {
    "repr": "10",
    "spoken": "one zero",
    "value": 10
  },
  "wind_direction": {
    "repr": "030",
    "spoken": "zero three zero",
    "value": 30
  },
  "wind_gust": {
    "repr": "36",
    "spoken": "three six",
    "value": 36
  },
  "wind_speed": {
    "repr": "19",
    "spoken": "one nine",
    "value": 19
  },
  "wind_variable_direction": [],
  "wx_codes": []
}
