{
  "meta": {
    "timestamp": "2023-01-13T08:31:45.070258Z",
    "stations_updated": "2022-12-27"
  },
  "altimeter": {
    "repr": "A2979",
    "value": 29.79,
    "spoken": "two nine point seven nine"
  },
  "clouds": [
    {
      "repr": "OVC075",
      "type": "OVC",
      "altitude": 75,
      "modifier": null
    }
  ],
  "flight_rules": "VFR",
  "other": [],
  "visibility": {
    "repr": "10",
    "value": 10,
    "spoken": "one zero"
  },
  "wind_direction": {
    "repr": "000",
    "value": 0,
    "spoken": "zero zero zero"
  },
  "wind_gust": null,
  "wind_speed": {
    "repr": "00",
    "value": 0,
    "spoken": "zero"
  },
  "wx_codes": [
    {
      "repr": "-RA",
      "value": "Light Rain"
    }
  ],
  "raw": "KBLI 130753Z AUTO 00000KT 10SM -RA OVC075 10/09 A2979 RMK AO2 SLP093 P0000 T01000089 401560067",
  "sanitized": "KBLI 130753Z 00000KT 10SM -RA OVC075 10/09 A2979 RMK AO2 SLP093 P0000 T01000089 401560067",
  "station": "KBLI",
  "time": {
    "repr": "130753Z",
    "dt": "2023-01-13T07:53:00Z"
  },
  "remarks": "RMK AO2 SLP093 P0000 T01000089 401560067",
  "dewpoint": {
    "repr": "09",
    "value": 9,
    "spoken": "nine"
  },
  "relative_humidity": 0.9286987212378438,
  "remarks_info": {
    "maximum_temperature_6": null,
    "minimum_temperature_6": null,
    "pressure_tendency": null,
    "precip_36_hours": null,
    "precip_24_hours": null,
    "sunshine_minutes": null,
    "codes": [
      {
        "repr": "AO2",
        "value": "Automated with precipitation sensor"
      },
      {
        "repr": "P0000",
        "value": "Trace amount of rain in the last hour"
      }
    ],
    "dewpoint_decimal": {
      "repr": "0089",
      "value": 8.9,
      "spoken": "eight point nine"
    },
    "maximum_temperature_24": {
      "repr": "0156",
      "value": 15.6,
      "spoken": "one five point six"
    },
    "minimum_temperature_24": {
      "repr": "0067",
      "value": 6.7,
      "spoken": "six point seven"
    },
    "precip_hourly": null,
    "sea_level_pressure": {
      "repr": "SLP093",
      "value": 1009.3,
      "spoken": "one zero zero nine point three"
    },
    "snow_depth": null,
    "temperature_decimal": {
      "repr": "0100",
      "value": 10,
      "spoken": "one zero point zero"
    }
  },
  "runway_visibility": [],
  "temperature": {
    "repr": "10",
    "value": 10,
    "spoken": "one zero"
  },
  "wind_variable_direction": [],
  "density_altitude": -259,
  "pressure_altitude": 300,
  "units": {
    "accumulation": "in",
    "altimeter": "inHg",
    "altitude": "ft",
    "temperature": "C",
    "visibility": "sm",
    "wind_speed": "kt"
  }
}
