{
  "meta": {
    "timestamp": "2022-12-20T03:02:45.629766Z",
    "stations_updated": "2022-09-05"
  },
  "altimeter": {
    "repr": "A3030",
    "value": 30.3,
    "spoken": "three zero point three zero"
  },
  "clouds": [
    {
      "repr": "OVC031",
      "type": "OVC",
      "altitude": 31,
      "modifier": null
    }
  ],
  "flight_rules": "IFR",
  "other": [],
  "visibility": {
    "repr": "3/2",
    "value": 1.5,
    "spoken": "one and one half",
    "numerator": 3,
    "denominator": 2,
    "normalized": "1 1/2"
  },
  "wind_direction": {
    "repr": "030",
    "value": 30,
    "spoken": "zero three zero"
  },
  "wind_gust": null,
  "wind_speed": {
    "repr": "11",
    "value": 11,
    "spoken": "one one"
  },
  "wx_codes": [
    {
      "repr": "-SN",
      "value": "Light Snow"
    },
    {
      "repr": "BR",
      "value": "Mist"
    }
  ],
  "raw": "KBLI 200253Z 03011KT 1 1/2SM -SN BR OVC031 M09/M11 A3030 RMK AO2 SLP273 P0000 60000 T10891111 58009",
  "sanitized": "KBLI 200253Z 03011KT 1 1/2SM -SN BR OVC031 M09/M11 A3030 RMK AO2 SLP273 P0000 60000 T10891111 58009",
  "station": "KBLI",
  "time": {
    "repr": "200253Z",
    "dt": "2022-12-20T02:53:00Z"
  },
  "remarks": "RMK AO2 SLP273 P0000 60000 T10891111 58009",
  "dewpoint": {
    "repr": "M11",
    "value": -11,
    "spoken": "minus one one"
  },
  "relative_humidity": 0.8406181824728524,
  "remarks_info": {
    "maximum_temperature_6": null,
    "minimum_temperature_6": null,
    "pressure_tendency": {
      "repr": "58009",
      "tendency": "Steady or increasing, then decreasing",
      "change": 0.9
    },
    "precip_36_hours": {
      "repr": "60000",
      "value": 0,
      "spoken": "zero"
    },
    "precip_24_hours": null,
    "sunshine_minutes": null,
    "codes": [
      {
        "repr": "AO2",
        "value": "Automated with precipitation sensor"
      },
      {
        "repr": "P0000",
        "value": "Trace amount of rain in the last hour"
      }
    ],
    "dewpoint_decimal": {
      "repr": "1111",
      "value": -11.1,
      "spoken": "minus one one point one"
    },
    "maximum_temperature_24": null,
    "minimum_temperature_24": null,
    "precip_hourly": null,
    "sea_level_pressure": {
      "repr": "SLP273",
      "value": 1027.3,
      "spoken": "one zero two seven point three"
    },
    "snow_depth": null,
    "temperature_decimal": {
      "repr": "1089",
      "value": -8.9,
      "spoken": "minus eight point nine"
    }
  },
  "runway_visibility": [],
  "temperature": {
    "repr": "M09",
    "value": -9,
    "spoken": "minus nine"
  },
  "wind_variable_direction": [],
  "density_altitude": -3037,
  "pressure_altitude": -210,
  "units": {
    "accumulation": "in",
    "altimeter": "inHg",
    "altitude": "ft",
    "temperature": "C",
    "visibility": "sm",
    "wind_speed": "kt"
  }
}
