{
  "meta": {
    "timestamp": "2023-01-03T15:40:37.432790Z",
    "stations_updated": "2022-12-27",
    "cache-timestamp": "2023-01-03T15:40:13.989000Z"
  },
  "altimeter": {
    "repr": "A2982",
    "value": 29.82,
    "spoken": "two nine point eight two"
  },
  "clouds": [
    {
      "repr": "OVC030",
      "type": "OVC",
      "altitude": 30,
      "modifier": null
    }
  ],
  "flight_rules": "MVFR",
  "other": [],
  "visibility": {
    "repr": "5",
    "value": 5,
    "spoken": "five"
  },
  "wind_direction": {
    "repr": "030",
    "value": 30,
    "spoken": "zero three zero"
  },
  "wind_gust": null,
  "wind_speed": {
    "repr": "05",
    "value": 5,
    "spoken": "five"
  },
  "wx_codes": [
    {
      "repr": "-RA",
      "value": "Light Rain"
    },
    {
      "repr": "BR",
      "value": "Mist"
    }
  ],
  "raw": "KBLI 031453Z 03005KT 5SM -RA BR OVC030 02/01 A2982 RMK AO2 UPE03RAB1354 SLP108 P0000 60000 T00220011 53015",
  "sanitized": "KBLI 031453Z 03005KT 5SM -RA BR OVC030 02/01 A2982 RMK AO2 UPE03RAB1354 SLP108 P0000 60000 T00220011 53015",
  "station": "KBLI",
  "time": {
    "repr": "031453Z",
    "dt": "2023-01-03T14:53:00Z"
  },
  "remarks": "RMK AO2 UPE03RAB1354 SLP108 P0000 60000 T00220011 53015",
  "dewpoint": {
    "repr": "01",
    "value": 1,
    "spoken": "one"
  },
  "relative_humidity": 0.9242682769225287,
  "remarks_info": {
    "maximum_temperature_6": null,
    "minimum_temperature_6": null,
    "pressure_tendency": {
      "repr": "53015",
      "tendency": "Decreasing or steady, then increasing",
      "change": 1.5
    },
    "precip_36_hours": {
      "repr": "60000",
      "value": 0,
      "spoken": "zero"
    },
    "precip_24_hours": null,
    "sunshine_minutes": null,
    "codes": [
      {
        "repr": "AO2",
        "value": "Automated with precipitation sensor"
      },
      {
        "repr": "P0000",
        "value": "Trace amount of rain in the last hour"
      }
    ],
    "dewpoint_decimal": {
      "repr": "0011",
      "value": 1.1,
      "spoken": "one point one"
    },
    "maximum_temperature_24": null,
    "minimum_temperature_24": null,
    "precip_hourly": null,
    "sea_level_pressure": {
      "repr": "SLP108",
      "value": 1010.8,
      "spoken": "one zero one zero point eight"
    },
    "snow_depth": null,
    "temperature_decimal": {
      "repr": "0022",
      "value": 2.2,
      "spoken": "two point two"
    }
  },
  "runway_visibility": [],
  "temperature": {
    "repr": "02",
    "value": 2,
    "spoken": "two"
  },
  "wind_variable_direction": [],
  "density_altitude": -1225,
  "pressure_altitude": 270,
  "units": {
    "accumulation": "in",
    "altimeter": "inHg",
    "altitude": "ft",
    "temperature": "C",
    "visibility": "sm",
    "wind_speed": "kt"
  }
}
