{
  "altimeter": {
    "repr": "A3006",
    "spoken": "three zero point zero six",
    "value": 30.06
  },
  "clouds": [
    {
      "altitude": 55,
      "modifier": null,
      "repr": "BKN055",
      "type": "BKN"
    }
  ],
  "density_altitude": 275,
  "dewpoint": {
    "repr": "13",
    "spoken": "one three",
    "value": 13
  },
  "flight_rules": "VFR",
  "meta": {
    "stations_updated": "2024-06-12",
    "timestamp": "2024-08-25T00:35:02.010983Z"
  },
  "other": [],
  "pressure_altitude": 30,
  "raw": "KBLI 242353Z 18012G21KT 10SM BKN055 17/13 A3006 RMK AO2 SLP185 60007 T01670133 10167 20133 51020",
  "relative_humidity": 0.8033751811322976,
  "remarks": "RMK AO2 SLP185 60007 T01670133 10167 20133 51020",
  "remarks_info": {
    "codes": [
      {
        "repr": "AO2",
        "value": "Automated with precipitation sensor"
      }
    ],
    "dewpoint_decimal": {
      "repr": "0133",
      "spoken": "one three point three",
      "value": 13.3
    },
    "maximum_temperature_24": null,
    "maximum_temperature_6": {
      "repr": "10167",
      "spoken": "one six point seven",
      "value": 16.7
    },
    "minimum_temperature_24": null,
    "minimum_temperature_6": {
      "repr": "20133",
      "spoken": "one three point three",
      "value": 13.3
    },
    "precip_24_hours": null,
    "precip_36_hours": {
      "repr": "60007",
      "spoken": "zero point zero seven",
      "value": 0.07
    },
    "precip_hourly": null,
    "pressure_tendency": {
      "change": 2,
      "repr": "51020",
      "tendency": "Increasing, then steady"
    },
    "sea_level_pressure": {
      "repr": "SLP185",
      "spoken": "one zero one eight point five",
      "value": 1018.5
    },
    "snow_depth": null,
    "sunshine_minutes": null,
    "temperature_decimal": {
      "repr": "0167",
      "spoken": "one six point seven",
      "value": 16.7
    }
  },
  "runway_visibility": [],
  "sanitized": "KBLI 242353Z 18012G21KT 10SM BKN055 17/13 A3006 RMK AO2 SLP185 60007 T01670133 10167 20133 51020",
  "station": "KBLI",
  "temperature": {
    "repr": "17",
    "spoken": "one seven",
    "value": 17
  },
  "time": {
    "dt": "2024-08-24T23:53:00Z",
    "repr": "242353Z"
  },
  "units": {
    "accumulation": "in",
    "altimeter": "inHg",
    "altitude": "ft",
    "temperature": "C",
    "visibility": "sm",
    "wind_speed": "kt"
  },
  "visibility": {
    "repr": "10",
    "spoken": "one zero",
    "value": 10
  },
  "wind_direction": {
    "repr": "180",
    "spoken": "one eight zero",
    "value": 180
  },
  "wind_gust": {
    "repr": "21",
    "spoken": "two one",
    "value": 21
  },
  "wind_speed": {
    "repr": "12",
    "spoken": "one two",
    "value": 12
  },
  "wind_variable_direction": [],
  "wx_codes": []
}
