{
  "meta": {
    "timestamp": "2022-12-10T08:42:34.973264Z",
    "stations_updated": "2022-09-05"
  },
  "altimeter": {
    "repr": "A2932",
    "value": 29.32,
    "spoken": "two nine point three two"
  },
  "clouds": [
    {
      "repr": "OVC044",
      "type": "OVC",
      "altitude": 44,
      "modifier": null
    }
  ],
  "flight_rules": "VFR",
  "other": [],
  "visibility": {
    "repr": "10",
    "value": 10,
    "spoken": "one zero"
  },
  "wind_direction": {
    "repr": "040",
    "value": 40,
    "spoken": "zero four zero"
  },
  "wind_gust": null,
  "wind_speed": {
    "repr": "09",
    "value": 9,
    "spoken": "nine"
  },
  "wx_codes": [
    {
      "repr": "-RA",
      "value": "Light Rain"
    }
  ],
  "raw": "KBLI 100753Z AUTO 04009KT 10SM -RA OVC044 04/03 A2932 RMK AO2 SLP937 P0000 T00390033 400670022",
  "sanitized": "KBLI 100753Z 04009KT 10SM -RA OVC044 04/03 A2932 RMK AO2 SLP937 P0000 T00390033 400670022",
  "station": "KBLI",
  "time": {
    "repr": "100753Z",
    "dt": "2022-12-10T07:53:00Z"
  },
  "remarks": "RMK AO2 SLP937 P0000 T00390033 400670022",
  "dewpoint": {
    "repr": "03",
    "value": 3,
    "spoken": "three"
  },
  "relative_humidity": 0.9586006873106991,
  "remarks_info": {
    "maximum_temperature_6": null,
    "minimum_temperature_6": null,
    "pressure_tendency": null,
    "precip_36_hours": null,
    "precip_24_hours": null,
    "sunshine_minutes": null,
    "codes": [
      {
        "repr": "AO2",
        "value": "Automated with precipitation sensor"
      },
      {
        "repr": "P0000",
        "value": "Trace amount of rain in the last hour"
      }
    ],
    "dewpoint_decimal": {
      "repr": "0033",
      "value": 3.3,
      "spoken": "three point three"
    },
    "maximum_temperature_24": {
      "repr": "0067",
      "value": 6.7,
      "spoken": "six point seven"
    },
    "minimum_temperature_24": {
      "repr": "0022",
      "value": 2.2,
      "spoken": "two point two"
    },
    "precip_hourly": null,
    "sea_level_pressure": {
      "repr": "SLP937",
      "value": 993.7,
      "spoken": "nine nine three point seven"
    },
    "snow_depth": null,
    "temperature_decimal": {
      "repr": "0039",
      "value": 3.9,
      "spoken": "three point nine"
    }
  },
  "runway_visibility": [],
  "temperature": {
    "repr": "04",
    "value": 4,
    "spoken": "four"
  },
  "wind_variable_direction": [],
  "density_altitude": -521,
  "pressure_altitude": 770,
  "units": {
    "accumulation": "in",
    "altimeter": "inHg",
    "altitude": "ft",
    "temperature": "C",
    "visibility": "sm",
    "wind_speed": "kt"
  }
}
