{
  "altimeter": {
    "repr": "A3009",
    "spoken": "three zero point zero nine",
    "value": 30.09
  },
  "clouds": [
    {
      "altitude": 44,
      "modifier": null,
      "repr": "FEW044",
      "type": "FEW"
    },
    {
      "altitude": 60,
      "modifier": null,
      "repr": "OVC060",
      "type": "OVC"
    }
  ],
  "density_altitude": -1891,
  "dewpoint": {
    "repr": "M03",
    "spoken": "minus three",
    "value": -3
  },
  "flight_rules": "VFR",
  "meta": {
    "cache-timestamp": "2024-03-06T14:40:03.024000Z",
    "stations_updated": "2024-01-01",
    "timestamp": "2024-03-06T14:40:42.999139Z"
  },
  "other": [],
  "pressure_altitude": 0,
  "raw": "KBLI 061353Z AUTO 00000KT 9SM -SN FEW044 OVC060 M01/M03 A3009 RMK AO2 SNB53 SLP199 P0000 T10111028",
  "relative_humidity": 0.8821749962501599,
  "remarks": "RMK AO2 SNB53 SLP199 P0000 T10111028",
  "remarks_info": {
    "codes": [
      {
        "repr": "AO2",
        "value": "Automated with precipitation sensor"
      },
      {
        "repr": "P0000",
        "value": "Trace amount of rain in the last hour"
      },
      {
        "repr": "SNB53",
        "value": "Snow began at :53"
      }
    ],
    "dewpoint_decimal": {
      "repr": "1028",
      "spoken": "minus two point eight",
      "value": -2.8
    },
    "maximum_temperature_24": null,
    "maximum_temperature_6": null,
    "minimum_temperature_24": null,
    "minimum_temperature_6": null,
    "precip_24_hours": null,
    "precip_36_hours": null,
    "precip_hourly": null,
    "pressure_tendency": null,
    "sea_level_pressure": {
      "repr": "SLP199",
      "spoken": "one zero one nine point nine",
      "value": 1019.9
    },
    "snow_depth": null,
    "sunshine_minutes": null,
    "temperature_decimal": {
      "repr": "1011",
      "spoken": "minus one point one",
      "value": -1.1
    }
  },
  "runway_visibility": [],
  "sanitized": "KBLI 061353Z 00000KT 9SM -SN FEW044 OVC060 M01/M03 A3009 RMK AO2 SNB53 SLP199 P0000 T10111028",
  "station": "KBLI",
  "temperature": {
    "repr": "M01",
    "spoken": "minus one",
    "value": -1
  },
  "time": {
    "dt": "2024-03-06T13:53:00Z",
    "repr": "061353Z"
  },
  "units": {
    "accumulation": "in",
    "altimeter": "inHg",
    "altitude": "ft",
    "temperature": "C",
    "visibility": "sm",
    "wind_speed": "kt"
  },
  "visibility": {
    "repr": "9",
    "spoken": "nine",
    "value": 9
  },
  "wind_direction": {
    "repr": "000",
    "spoken": "zero zero zero",
    "value": 0
  },
  "wind_gust": null,
  "wind_speed": {
    "repr": "00",
    "spoken": "zero",
    "value": 0
  },
  "wind_variable_direction": [],
  "wx_codes": [
    {
      "repr": "-SN",
      "value": "Light Snow"
    }
  ]
}
