{
  "meta": {
    "timestamp": "2023-01-13T04:43:37.114079Z",
    "stations_updated": "2022-12-27"
  },
  "altimeter": {
    "repr": "A2980",
    "value": 29.8,
    "spoken": "two nine point eight zero"
  },
  "clouds": [
    {
      "repr": "SCT045",
      "type": "SCT",
      "altitude": 45,
      "modifier": null
    },
    {
      "repr": "BKN065",
      "type": "BKN",
      "altitude": 65,
      "modifier": null
    },
    {
      "repr": "BKN080",
      "type": "BKN",
      "altitude": 80,
      "modifier": null
    }
  ],
  "flight_rules": "VFR",
  "other": [],
  "visibility": {
    "repr": "10",
    "value": 10,
    "spoken": "one zero"
  },
  "wind_direction": {
    "repr": "140",
    "value": 140,
    "spoken": "one four zero"
  },
  "wind_gust": {
    "repr": "16",
    "value": 16,
    "spoken": "one six"
  },
  "wind_speed": {
    "repr": "09",
    "value": 9,
    "spoken": "nine"
  },
  "wx_codes": [
    {
      "repr": "-RA",
      "value": "Light Rain"
    }
  ],
  "raw": "KBLI 130353Z 14009G16KT 110V170 10SM -RA SCT045 BKN065 BKN080 14/09 A2980 RMK AO2 RAB0255 SLP097 P0000 T01440094",
  "sanitized": "KBLI 130353Z 14009G16KT 110V170 10SM -RA SCT045 BKN065 BKN080 14/09 A2980 RMK AO2 RAB0255 SLP097 P0000 T01440094",
  "station": "KBLI",
  "time": {
    "repr": "130353Z",
    "dt": "2023-01-13T03:53:00Z"
  },
  "remarks": "RMK AO2 RAB0255 SLP097 P0000 T01440094",
  "dewpoint": {
    "repr": "09",
    "value": 9,
    "spoken": "nine"
  },
  "relative_humidity": 0.7190376639695198,
  "remarks_info": {
    "maximum_temperature_6": null,
    "minimum_temperature_6": null,
    "pressure_tendency": null,
    "precip_36_hours": null,
    "precip_24_hours": null,
    "sunshine_minutes": null,
    "codes": [
      {
        "repr": "AO2",
        "value": "Automated with precipitation sensor"
      },
      {
        "repr": "P0000",
        "value": "Trace amount of rain in the last hour"
      }
    ],
    "dewpoint_decimal": {
      "repr": "0094",
      "value": 9.4,
      "spoken": "nine point four"
    },
    "maximum_temperature_24": null,
    "minimum_temperature_24": null,
    "precip_hourly": null,
    "sea_level_pressure": {
      "repr": "SLP097",
      "value": 1009.7,
      "spoken": "one zero zero nine point seven"
    },
    "snow_depth": null,
    "temperature_decimal": {
      "repr": "0144",
      "value": 14.4,
      "spoken": "one four point four"
    }
  },
  "runway_visibility": [],
  "temperature": {
    "repr": "14",
    "value": 14,
    "spoken": "one four"
  },
  "wind_variable_direction": [
    {
      "repr": "110",
      "value": 110,
      "spoken": "one one zero"
    },
    {
      "repr": "170",
      "value": 170,
      "spoken": "one seven zero"
    }
  ],
  "density_altitude": 259,
  "pressure_altitude": 290,
  "units": {
    "accumulation": "in",
    "altimeter": "inHg",
    "altitude": "ft",
    "temperature": "C",
    "visibility": "sm",
    "wind_speed": "kt"
  }
}
