{
  "altimeter": {
    "repr": "A2952",
    "spoken": "two nine point five two",
    "value": 29.52
  },
  "clouds": [
    {
      "altitude": 60,
      "modifier": null,
      "repr": "OVC060",
      "type": "OVC"
    }
  ],
  "density_altitude": -661,
  "dewpoint": {
    "repr": "02",
    "spoken": "two",
    "value": 2
  },
  "flight_rules": "VFR",
  "meta": {
    "cache-timestamp": "2024-01-10T08:28:04.824000Z",
    "stations_updated": "2023-10-28",
    "timestamp": "2024-01-10T08:28:44.309050Z"
  },
  "other": [],
  "pressure_altitude": 570,
  "raw": "KBLI 100753Z AUTO 21006KT 10SM OVC060 04/02 A2952 RMK AO2 SLP003 T00440017 400780039",
  "relative_humidity": 0.8260348577577609,
  "remarks": "RMK AO2 SLP003 T00440017 400780039",
  "remarks_info": {
    "codes": [
      {
        "repr": "AO2",
        "value": "Automated with precipitation sensor"
      }
    ],
    "dewpoint_decimal": {
      "repr": "0017",
      "spoken": "one point seven",
      "value": 1.7
    },
    "maximum_temperature_24": {
      "repr": "0078",
      "spoken": "seven point eight",
      "value": 7.8
    },
    "maximum_temperature_6": null,
    "minimum_temperature_24": {
      "repr": "0039",
      "spoken": "three point nine",
      "value": 3.9
    },
    "minimum_temperature_6": null,
    "precip_24_hours": null,
    "precip_36_hours": null,
    "precip_hourly": null,
    "pressure_tendency": null,
    "sea_level_pressure": {
      "repr": "SLP003",
      "spoken": "one zero zero zero point three",
      "value": 1000.3
    },
    "snow_depth": null,
    "sunshine_minutes": null,
    "temperature_decimal": {
      "repr": "0044",
      "spoken": "four point four",
      "value": 4.4
    }
  },
  "runway_visibility": [],
  "sanitized": "KBLI 100753Z 21006KT 10SM OVC060 04/02 A2952 RMK AO2 SLP003 T00440017 400780039",
  "station": "KBLI",
  "temperature": {
    "repr": "04",
    "spoken": "four",
    "value": 4
  },
  "time": {
    "dt": "2024-01-10T07:53:00Z",
    "repr": "100753Z"
  },
  "units": {
    "accumulation": "in",
    "altimeter": "inHg",
    "altitude": "ft",
    "temperature": "C",
    "visibility": "sm",
    "wind_speed": "kt"
  },
  "visibility": {
    "repr": "10",
    "spoken": "one zero",
    "value": 10
  },
  "wind_direction": {
    "repr": "210",
    "spoken": "two one zero",
    "value": 210
  },
  "wind_gust": null,
  "wind_speed": {
    "repr": "06",
    "spoken": "six",
    "value": 6
  },
  "wind_variable_direction": [],
  "wx_codes": []
}
