{
  "altimeter": {
    "repr": "A3052",
    "spoken": "three zero point five two",
    "value": 30.52
  },
  "clouds": [
    {
      "altitude": 8,
      "modifier": null,
      "repr": "SCT008",
      "type": "SCT"
    },
    {
      "altitude": 23,
      "modifier": null,
      "repr": "SCT023",
      "type": "SCT"
    },
    {
      "altitude": 35,
      "modifier": null,
      "repr": "OVC035",
      "type": "OVC"
    }
  ],
  "density_altitude": -1253,
  "dewpoint": {
    "repr": "07",
    "spoken": "seven",
    "value": 7
  },
  "flight_rules": "VFR",
  "meta": {
    "stations_updated": "2024-12-02",
    "timestamp": "2025-01-08T21:26:53.040332Z"
  },
  "other": [],
  "pressure_altitude": -430,
  "raw": "KBLI 082053Z 03006KT 9SM SCT008 SCT023 OVC035 08/07 A3052 RMK AO2 SLP344 T00780067 58004",
  "relative_humidity": 0.9274887710023534,
  "remarks": "RMK AO2 SLP344 T00780067 58004",
  "remarks_info": {
    "codes": [
      {
        "repr": "AO2",
        "value": "Automated with precipitation sensor"
      }
    ],
    "dewpoint_decimal": {
      "repr": "0067",
      "spoken": "six point seven",
      "value": 6.7
    },
    "maximum_temperature_24": null,
    "maximum_temperature_6": null,
    "minimum_temperature_24": null,
    "minimum_temperature_6": null,
    "precip_24_hours": null,
    "precip_36_hours": null,
    "precip_hourly": null,
    "pressure_tendency": {
      "change": 0.4,
      "repr": "58004",
      "tendency": "Steady or increasing, then decreasing"
    },
    "sea_level_pressure": {
      "repr": "SLP344",
      "spoken": "one zero three four point four",
      "value": 1034.4
    },
    "snow_depth": null,
    "sunshine_minutes": null,
    "temperature_decimal": {
      "repr": "0078",
      "spoken": "seven point eight",
      "value": 7.8
    }
  },
  "runway_visibility": [],
  "sanitized": "KBLI 082053Z 03006KT 9SM SCT008 SCT023 OVC035 08/07 A3052 RMK AO2 SLP344 T00780067 58004",
  "station": "KBLI",
  "temperature": {
    "repr": "08",
    "spoken": "eight",
    "value": 8
  },
  "time": {
    "dt": "2025-01-08T20:53:00Z",
    "repr": "082053Z"
  },
  "units": {
    "accumulation": "in",
    "altimeter": "inHg",
    "altitude": "ft",
    "temperature": "C",
    "visibility": "sm",
    "wind_speed": "kt"
  },
  "visibility": {
    "repr": "9",
    "spoken": "nine",
    "value": 9
  },
  "wind_direction": {
    "repr": "030",
    "spoken": "zero three zero",
    "value": 30
  },
  "wind_gust": null,
  "wind_speed": {
    "repr": "06",
    "spoken": "six",
    "value": 6
  },
  "wind_variable_direction": [],
  "wx_codes": []
}
