{
  "altimeter": {
    "repr": "A2985",
    "spoken": "two nine point eight five",
    "value": 29.85
  },
  "clouds": [],
  "density_altitude": 1481,
  "dewpoint": {
    "repr": "16",
    "spoken": "one six",
    "value": 16
  },
  "flight_rules": "VFR",
  "meta": {
    "cache-timestamp": "2024-09-01T22:40:54.114000Z",
    "stations_updated": "2024-06-12",
    "timestamp": "2024-09-01T22:41:16.517373Z"
  },
  "other": [],
  "pressure_altitude": 240,
  "raw": "KBLI 012153Z 28007KT 10SM CLR 25/16 A2985 RMK AO2 SLP114 T02500161",
  "relative_humidity": 0.577304929178712,
  "remarks": "RMK AO2 SLP114 T02500161",
  "remarks_info": {
    "codes": [
      {
        "repr": "AO2",
        "value": "Automated with precipitation sensor"
      }
    ],
    "dewpoint_decimal": {
      "repr": "0161",
      "spoken": "one six point one",
      "value": 16.1
    },
    "maximum_temperature_24": null,
    "maximum_temperature_6": null,
    "minimum_temperature_24": null,
    "minimum_temperature_6": null,
    "precip_24_hours": null,
    "precip_36_hours": null,
    "precip_hourly": null,
    "pressure_tendency": null,
    "sea_level_pressure": {
      "repr": "SLP114",
      "spoken": "one zero one one point four",
      "value": 1011.4
    },
    "snow_depth": null,
    "sunshine_minutes": null,
    "temperature_decimal": {
      "repr": "0250",
      "spoken": "two five point zero",
      "value": 25
    }
  },
  "runway_visibility": [],
  "sanitized": "KBLI 012153Z 28007KT 10SM 25/16 A2985 RMK AO2 SLP114 T02500161",
  "station": "KBLI",
  "temperature": {
    "repr": "25",
    "spoken": "two five",
    "value": 25
  },
  "time": {
    "dt": "2024-09-01T21:53:00Z",
    "repr": "012153Z"
  },
  "units": {
    "accumulation": "in",
    "altimeter": "inHg",
    "altitude": "ft",
    "temperature": "C",
    "visibility": "sm",
    "wind_speed": "kt"
  },
  "visibility": {
    "repr": "10",
    "spoken": "one zero",
    "value": 10
  },
  "wind_direction": {
    "repr": "280",
    "spoken": "two eight zero",
    "value": 280
  },
  "wind_gust": null,
  "wind_speed": {
    "repr": "07",
    "spoken": "seven",
    "value": 7
  },
  "wind_variable_direction": [],
  "wx_codes": []
}
