{
  "altimeter": {
    "repr": "A3041",
    "spoken": "three zero point four one",
    "value": 30.41
  },
  "clouds": [],
  "density_altitude": -2415,
  "dewpoint": {
    "repr": "M05",
    "spoken": "minus five",
    "value": -5
  },
  "flight_rules": "VFR",
  "meta": {
    "stations_updated": "2024-12-02",
    "timestamp": "2025-01-27T12:13:44.972701Z"
  },
  "other": [],
  "pressure_altitude": -320,
  "raw": "KBLI 271153Z AUTO 01004KT 10SM CLR M03/M05 A3041 RMK AO2 SLP307 I6000 T10281050 11022 21044 58012 $",
  "relative_humidity": 0.8479871693406942,
  "remarks": "RMK AO2 SLP307 I6000 T10281050 11022 21044 58012 $",
  "remarks_info": {
    "codes": [
      {
        "repr": "$",
        "value": "ASOS requires maintenance"
      },
      {
        "repr": "AO2",
        "value": "Automated with precipitation sensor"
      }
    ],
    "dewpoint_decimal": {
      "repr": "1050",
      "spoken": "minus five point zero",
      "value": -5.0
    },
    "maximum_temperature_24": null,
    "maximum_temperature_6": {
      "repr": "11022",
      "spoken": "minus two point two",
      "value": -2.2
    },
    "minimum_temperature_24": null,
    "minimum_temperature_6": {
      "repr": "21044",
      "spoken": "minus four point four",
      "value": -4.4
    },
    "precip_24_hours": null,
    "precip_36_hours": null,
    "precip_hourly": null,
    "pressure_tendency": {
      "change": 1.2,
      "repr": "58012",
      "tendency": "Steady or increasing, then decreasing"
    },
    "sea_level_pressure": {
      "repr": "SLP307",
      "spoken": "one zero three zero point seven",
      "value": 1030.7
    },
    "snow_depth": null,
    "sunshine_minutes": null,
    "temperature_decimal": {
      "repr": "1028",
      "spoken": "minus two point eight",
      "value": -2.8
    }
  },
  "runway_visibility": [],
  "sanitized": "KBLI 271153Z 01004KT 10SM M03/M05 A3041 RMK AO2 SLP307 I6000 T10281050 11022 21044 58012 $",
  "station": "KBLI",
  "temperature": {
    "repr": "M03",
    "spoken": "minus three",
    "value": -3
  },
  "time": {
    "dt": "2025-01-27T11:53:00Z",
    "repr": "271153Z"
  },
  "units": {
    "accumulation": "in",
    "altimeter": "inHg",
    "altitude": "ft",
    "temperature": "C",
    "visibility": "sm",
    "wind_speed": "kt"
  },
  "visibility": {
    "repr": "10",
    "spoken": "one zero",
    "value": 10
  },
  "wind_direction": {
    "repr": "010",
    "spoken": "zero one zero",
    "value": 10
  },
  "wind_gust": null,
  "wind_speed": {
    "repr": "04",
    "spoken": "four",
    "value": 4
  },
  "wind_variable_direction": [],
  "wx_codes": []
}
