{
  "meta": {
    "timestamp": "2023-08-12T06:40:39.437459Z",
    "stations_updated": "2023-08-05",
    "cache-timestamp": "2023-08-12T06:40:05.064000Z"
  },
  "altimeter": {
    "repr": "A3009",
    "value": 30.09,
    "spoken": "three zero point zero nine"
  },
  "clouds": [
    {
      "repr": "BKN060",
      "type": "BKN",
      "altitude": 60,
      "modifier": null
    }
  ],
  "flight_rules": "VFR",
  "other": [],
  "visibility": {
    "repr": "10",
    "value": 10,
    "spoken": "one zero"
  },
  "wind_direction": {
    "repr": "180",
    "value": 180,
    "spoken": "one eight zero"
  },
  "wind_gust": null,
  "wind_speed": {
    "repr": "07",
    "value": 7,
    "spoken": "seven"
  },
  "wx_codes": [],
  "raw": "KBLI 120553Z AUTO 18007KT 10SM BKN060 18/16 A3009 RMK AO2 SLP195 T01780156 10233 20178 51010",
  "sanitized": "KBLI 120553Z 18007KT 10SM BKN060 18/16 A3009 RMK AO2 SLP195 T01780156 10233 20178 51010",
  "station": "KBLI",
  "time": {
    "repr": "120553Z",
    "dt": "2023-08-12T05:53:00Z"
  },
  "remarks": "RMK AO2 SLP195 T01780156 10233 20178 51010",
  "dewpoint": {
    "repr": "16",
    "value": 16,
    "spoken": "one six"
  },
  "relative_humidity": 0.8695197516615377,
  "remarks_info": {
    "maximum_temperature_6": {
      "repr": "10233",
      "value": 23.3,
      "spoken": "two three point three"
    },
    "minimum_temperature_6": {
      "repr": "20178",
      "value": 17.8,
      "spoken": "one seven point eight"
    },
    "pressure_tendency": {
      "repr": "51010",
      "tendency": "Increasing, then steady",
      "change": 1
    },
    "precip_36_hours": null,
    "precip_24_hours": null,
    "sunshine_minutes": null,
    "codes": [
      {
        "repr": "AO2",
        "value": "Automated with precipitation sensor"
      }
    ],
    "dewpoint_decimal": {
      "repr": "0156",
      "value": 15.6,
      "spoken": "one five point six"
    },
    "maximum_temperature_24": null,
    "minimum_temperature_24": null,
    "precip_hourly": null,
    "sea_level_pressure": {
      "repr": "SLP195",
      "value": 1019.5,
      "spoken": "one zero one nine point five"
    },
    "snow_depth": null,
    "temperature_decimal": {
      "repr": "0178",
      "value": 17.8,
      "spoken": "one seven point eight"
    }
  },
  "runway_visibility": [],
  "temperature": {
    "repr": "18",
    "value": 18,
    "spoken": "one eight"
  },
  "wind_variable_direction": [],
  "density_altitude": 377,
  "pressure_altitude": 0,
  "units": {
    "accumulation": "in",
    "altimeter": "inHg",
    "altitude": "ft",
    "temperature": "C",
    "visibility": "sm",
    "wind_speed": "kt"
  }
}
