{
  "altimeter": {
    "repr": "A3007",
    "spoken": "three zero point zero seven",
    "value": 30.07
  },
  "clouds": [
    {
      "altitude": 25,
      "modifier": null,
      "repr": "SCT025",
      "type": "SCT"
    },
    {
      "altitude": 34,
      "modifier": null,
      "repr": "BKN034",
      "type": "BKN"
    },
    {
      "altitude": 41,
      "modifier": null,
      "repr": "BKN041",
      "type": "BKN"
    }
  ],
  "density_altitude": 133,
  "dewpoint": {
    "repr": "10",
    "spoken": "one zero",
    "value": 10
  },
  "flight_rules": "VFR",
  "meta": {
    "cache-timestamp": "2024-06-18T19:20:04.617000Z",
    "stations_updated": "2024-05-13",
    "timestamp": "2024-06-18T19:20:35.226275Z"
  },
  "other": [],
  "pressure_altitude": 20,
  "raw": "KBLI 181853Z 29005KT 10SM SCT025 BKN034 BKN041 16/10 A3007 RMK AO2 SLP188 T01560100",
  "relative_humidity": 0.69291963684506,
  "remarks": "RMK AO2 SLP188 T01560100",
  "remarks_info": {
    "codes": [
      {
        "repr": "AO2",
        "value": "Automated with precipitation sensor"
      }
    ],
    "dewpoint_decimal": {
      "repr": "0100",
      "spoken": "one zero point zero",
      "value": 10
    },
    "maximum_temperature_24": null,
    "maximum_temperature_6": null,
    "minimum_temperature_24": null,
    "minimum_temperature_6": null,
    "precip_24_hours": null,
    "precip_36_hours": null,
    "precip_hourly": null,
    "pressure_tendency": null,
    "sea_level_pressure": {
      "repr": "SLP188",
      "spoken": "one zero one eight point eight",
      "value": 1018.8
    },
    "snow_depth": null,
    "sunshine_minutes": null,
    "temperature_decimal": {
      "repr": "0156",
      "spoken": "one five point six",
      "value": 15.6
    }
  },
  "runway_visibility": [],
  "sanitized": "KBLI 181853Z 29005KT 10SM SCT025 BKN034 BKN041 16/10 A3007 RMK AO2 SLP188 T01560100",
  "station": "KBLI",
  "temperature": {
    "repr": "16",
    "spoken": "one six",
    "value": 16
  },
  "time": {
    "dt": "2024-06-18T18:53:00Z",
    "repr": "181853Z"
  },
  "units": {
    "accumulation": "in",
    "altimeter": "inHg",
    "altitude": "ft",
    "temperature": "C",
    "visibility": "sm",
    "wind_speed": "kt"
  },
  "visibility": {
    "repr": "10",
    "spoken": "one zero",
    "value": 10
  },
  "wind_direction": {
    "repr": "290",
    "spoken": "two nine zero",
    "value": 290
  },
  "wind_gust": null,
  "wind_speed": {
    "repr": "05",
    "spoken": "five",
    "value": 5
  },
  "wind_variable_direction": [],
  "wx_codes": []
}
