{
  "altimeter": {
    "repr": "A2994",
    "spoken": "two nine point nine four",
    "value": 29.94
  },
  "clouds": [
    {
      "altitude": 35,
      "modifier": null,
      "repr": "SCT035",
      "type": "SCT"
    },
    {
      "altitude": 60,
      "modifier": null,
      "repr": "OVC060",
      "type": "OVC"
    }
  ],
  "density_altitude": -409,
  "dewpoint": {
    "repr": "04",
    "spoken": "four",
    "value": 4
  },
  "flight_rules": "VFR",
  "meta": {
    "cache-timestamp": "2023-11-10T01:36:02.906000Z",
    "stations_updated": "2023-10-28",
    "timestamp": "2023-11-10T01:36:21.564955Z"
  },
  "other": [],
  "pressure_altitude": 150,
  "raw": "KBLI 100053Z 17018G32KT 9SM -RA SCT035 OVC060 10/04 A2994 RMK AO2 PK WND 16032/0048 RAB2356 SLP148 P0001 T01000039",
  "relative_humidity": 0.6580380573125254,
  "remarks": "RMK AO2 PK WND 16032/0048 RAB2356 SLP148 P0001 T01000039",
  "remarks_info": {
    "codes": [
      {
        "repr": "AO2",
        "value": "Automated with precipitation sensor"
      }
    ],
    "dewpoint_decimal": {
      "repr": "0039",
      "spoken": "three point nine",
      "value": 3.9
    },
    "maximum_temperature_24": null,
    "maximum_temperature_6": null,
    "minimum_temperature_24": null,
    "minimum_temperature_6": null,
    "precip_24_hours": null,
    "precip_36_hours": null,
    "precip_hourly": {
      "repr": "P0001",
      "spoken": "zero point zero one",
      "value": 0.01
    },
    "pressure_tendency": null,
    "sea_level_pressure": {
      "repr": "SLP148",
      "spoken": "one zero one four point eight",
      "value": 1014.8
    },
    "snow_depth": null,
    "sunshine_minutes": null,
    "temperature_decimal": {
      "repr": "0100",
      "spoken": "one zero point zero",
      "value": 10
    }
  },
  "runway_visibility": [],
  "sanitized": "KBLI 100053Z 17018G32KT 9SM -RA SCT035 OVC060 10/04 A2994 RMK AO2 PK WND 16032/0048 RAB2356 SLP148 P0001 T01000039",
  "station": "KBLI",
  "temperature": {
    "repr": "10",
    "spoken": "one zero",
    "value": 10
  },
  "time": {
    "dt": "2023-11-10T00:53:00Z",
    "repr": "100053Z"
  },
  "units": {
    "accumulation": "in",
    "altimeter": "inHg",
    "altitude": "ft",
    "temperature": "C",
    "visibility": "sm",
    "wind_speed": "kt"
  },
  "visibility": {
    "repr": "9",
    "spoken": "nine",
    "value": 9
  },
  "wind_direction": {
    "repr": "170",
    "spoken": "one seven zero",
    "value": 170
  },
  "wind_gust": {
    "repr": "32",
    "spoken": "three two",
    "value": 32
  },
  "wind_speed": {
    "repr": "18",
    "spoken": "one eight",
    "value": 18
  },
  "wind_variable_direction": [],
  "wx_codes": [
    {
      "repr": "-RA",
      "value": "Light Rain"
    }
  ]
}
