{
  "meta": {
    "timestamp": "2022-08-19T22:02:35.322969Z",
    "stations_updated": "2022-07-17",
    "cache-timestamp": "2022-08-19T22:01:38.918000Z"
  },
  "altimeter": {
    "repr": "A2991",
    "value": 29.91,
    "spoken": "two nine point nine one"
  },
  "clouds": [],
  "flight_rules": "VFR",
  "other": [],
  "visibility": {
    "repr": "10",
    "value": 10,
    "spoken": "one zero"
  },
  "wind_direction": {
    "repr": "VRB",
    "value": null,
    "spoken": "variable"
  },
  "wind_gust": null,
  "wind_speed": {
    "repr": "04",
    "value": 4,
    "spoken": "four"
  },
  "wx_codes": [],
  "raw": "KBLI 192153Z VRB04KT 10SM CLR 24/18 A2991 RMK AO2 SLP132 T02440178",
  "sanitized": "KBLI 192153Z VRB04KT 10SM 24/18 A2991 RMK AO2 SLP132 T02440178",
  "station": "KBLI",
  "time": {
    "repr": "192153Z",
    "dt": "2022-08-19T21:53:00Z"
  },
  "remarks": "RMK AO2 SLP132 T02440178",
  "dewpoint": {
    "repr": "18",
    "value": 18,
    "spoken": "one eight"
  },
  "relative_humidity": 0.6665335506885439,
  "remarks_info": {
    "maximum_temperature_6": null,
    "minimum_temperature_6": null,
    "pressure_tendency": null,
    "precip_36_hours": null,
    "precip_24_hours": null,
    "sunshine_minutes": null,
    "codes": [
      {
        "repr": "AO2",
        "value": "Automated with precipitation sensor"
      }
    ],
    "dewpoint_decimal": {
      "repr": "0178",
      "value": 17.8,
      "spoken": "one seven point eight"
    },
    "maximum_temperature_24": null,
    "minimum_temperature_24": null,
    "precip_hourly": null,
    "sea_level_pressure": {
      "repr": "SLP132",
      "value": 1013.2,
      "spoken": "one zero one three point two"
    },
    "snow_depth": null,
    "temperature_decimal": {
      "repr": "0244",
      "value": 24.4,
      "spoken": "two four point four"
    }
  },
  "runway_visibility": [],
  "temperature": {
    "repr": "24",
    "value": 24,
    "spoken": "two four"
  },
  "wind_variable_direction": [],
  "density_altitude": 1349,
  "pressure_altitude": 180,
  "units": {
    "accumulation": "in",
    "altimeter": "inHg",
    "altitude": "ft",
    "temperature": "C",
    "visibility": "sm",
    "wind_speed": "kt"
  }
}
