{
  "altimeter": {
    "repr": "A2966",
    "spoken": "two nine point six six",
    "value": 29.66
  },
  "clouds": [
    {
      "altitude": 80,
      "modifier": null,
      "repr": "FEW080",
      "type": "FEW"
    },
    {
      "altitude": 90,
      "modifier": null,
      "repr": "FEW090",
      "type": "FEW"
    },
    {
      "altitude": 110,
      "modifier": null,
      "repr": "BKN110",
      "type": "BKN"
    }
  ],
  "density_altitude": -129,
  "dewpoint": {
    "repr": "00",
    "spoken": "zero",
    "value": 0
  },
  "flight_rules": "VFR",
  "meta": {
    "cache-timestamp": "2024-03-09T18:40:05.101000Z",
    "stations_updated": "2024-01-01",
    "timestamp": "2024-03-09T18:40:33.576246Z"
  },
  "other": [],
  "pressure_altitude": 430,
  "raw": "KBLI 091753Z 18015G33KT 10SM FEW080 FEW090 BKN110 10/00 A2966 RMK AO2 PK WND 17033/1717 SLP051 T01000000 10117 20033 55007",
  "relative_humidity": 0.49805666657964487,
  "remarks": "RMK AO2 PK WND 17033/1717 SLP051 T01000000 10117 20033 55007",
  "remarks_info": {
    "codes": [
      {
        "repr": "AO2",
        "value": "Automated with precipitation sensor"
      }
    ],
    "dewpoint_decimal": {
      "repr": "0000",
      "spoken": "zero",
      "value": 0
    },
    "maximum_temperature_24": null,
    "maximum_temperature_6": {
      "repr": "10117",
      "spoken": "one one point seven",
      "value": 11.7
    },
    "minimum_temperature_24": null,
    "minimum_temperature_6": {
      "repr": "20033",
      "spoken": "three point three",
      "value": 3.3
    },
    "precip_24_hours": null,
    "precip_36_hours": null,
    "precip_hourly": null,
    "pressure_tendency": {
      "change": 0.7,
      "repr": "55007",
      "tendency": "Decreasing, then increasing"
    },
    "sea_level_pressure": {
      "repr": "SLP051",
      "spoken": "one zero zero five point one",
      "value": 1005.1
    },
    "snow_depth": null,
    "sunshine_minutes": null,
    "temperature_decimal": {
      "repr": "0100",
      "spoken": "one zero point zero",
      "value": 10
    }
  },
  "runway_visibility": [],
  "sanitized": "KBLI 091753Z 18015G33KT 10SM FEW080 FEW090 BKN110 10/00 A2966 RMK AO2 PK WND 17033/1717 SLP051 T01000000 10117 20033 55007",
  "station": "KBLI",
  "temperature": {
    "repr": "10",
    "spoken": "one zero",
    "value": 10
  },
  "time": {
    "dt": "2024-03-09T17:53:00Z",
    "repr": "091753Z"
  },
  "units": {
    "accumulation": "in",
    "altimeter": "inHg",
    "altitude": "ft",
    "temperature": "C",
    "visibility": "sm",
    "wind_speed": "kt"
  },
  "visibility": {
    "repr": "10",
    "spoken": "one zero",
    "value": 10
  },
  "wind_direction": {
    "repr": "180",
    "spoken": "one eight zero",
    "value": 180
  },
  "wind_gust": {
    "repr": "33",
    "spoken": "three three",
    "value": 33
  },
  "wind_speed": {
    "repr": "15",
    "spoken": "one five",
    "value": 15
  },
  "wind_variable_direction": [],
  "wx_codes": []
}
