{
  "meta": {
    "timestamp": "2022-12-02T08:31:16.943823Z",
    "stations_updated": "2022-09-05"
  },
  "altimeter": {
    "repr": "A2999",
    "value": 29.99,
    "spoken": "two nine point nine nine"
  },
  "clouds": [
    {
      "repr": "BKN060",
      "type": "BKN",
      "altitude": 60,
      "modifier": null
    }
  ],
  "flight_rules": "VFR",
  "other": [],
  "visibility": {
    "repr": "10",
    "value": 10,
    "spoken": "one zero"
  },
  "wind_direction": {
    "repr": "010",
    "value": 10,
    "spoken": "zero one zero"
  },
  "wind_gust": null,
  "wind_speed": {
    "repr": "05",
    "value": 5,
    "spoken": "five"
  },
  "wx_codes": [],
  "raw": "KBLI 020753Z AUTO 01005KT 10SM BKN060 M07/M11 A2999 RMK AO2 SLP166 T10671111 410171083",
  "sanitized": "KBLI 020753Z 01005KT 10SM BKN060 M07/M11 A2999 RMK AO2 SLP166 T10671111 410171083",
  "station": "KBLI",
  "time": {
    "repr": "020753Z",
    "dt": "2022-12-02T07:53:00Z"
  },
  "remarks": "RMK AO2 SLP166 T10671111 410171083",
  "dewpoint": {
    "repr": "M11",
    "value": -11,
    "spoken": "minus one one"
  },
  "relative_humidity": 0.7089222304473171,
  "remarks_info": {
    "maximum_temperature_6": null,
    "minimum_temperature_6": null,
    "pressure_tendency": null,
    "precip_36_hours": null,
    "precip_24_hours": null,
    "sunshine_minutes": null,
    "codes": [
      {
        "repr": "AO2",
        "value": "Automated with precipitation sensor"
      }
    ],
    "dewpoint_decimal": {
      "repr": "1111",
      "value": -11.1,
      "spoken": "minus one one point one"
    },
    "maximum_temperature_24": {
      "repr": "1017",
      "value": -1.7,
      "spoken": "minus one point seven"
    },
    "minimum_temperature_24": {
      "repr": "1083",
      "value": -8.3,
      "spoken": "minus eight point three"
    },
    "precip_hourly": null,
    "sea_level_pressure": {
      "repr": "SLP166",
      "value": 1016.6,
      "spoken": "one zero one six point six"
    },
    "snow_depth": null,
    "temperature_decimal": {
      "repr": "1067",
      "value": -6.7,
      "spoken": "minus six point seven"
    }
  },
  "runway_visibility": [],
  "temperature": {
    "repr": "M07",
    "value": -7,
    "spoken": "minus seven"
  },
  "wind_variable_direction": [],
  "density_altitude": -2463,
  "pressure_altitude": 100,
  "units": {
    "accumulation": "in",
    "altimeter": "inHg",
    "altitude": "ft",
    "temperature": "C",
    "visibility": "sm",
    "wind_speed": "kt"
  }
}
