{
  "meta": {
    "timestamp": "2023-04-05T08:42:13.955932Z",
    "stations_updated": "2023-03-11",
    "cache-timestamp": "2023-04-05T08:42:05.172000Z"
  },
  "altimeter": {
    "repr": "A3018",
    "value": 30.18,
    "spoken": "three zero point one eight"
  },
  "clouds": [],
  "flight_rules": "VFR",
  "other": [],
  "visibility": {
    "repr": "10",
    "value": 10,
    "spoken": "one zero"
  },
  "wind_direction": {
    "repr": "000",
    "value": 0,
    "spoken": "zero zero zero"
  },
  "wind_gust": null,
  "wind_speed": {
    "repr": "00",
    "value": 0,
    "spoken": "zero"
  },
  "wx_codes": [],
  "raw": "KBLI 050753Z AUTO 00000KT 10SM CLR 01/01 A3018 RMK AO2 SLP228 T00110006 401060011",
  "sanitized": "KBLI 050753Z 00000KT 10SM 01/01 A3018 RMK AO2 SLP228 T00110006 401060011",
  "station": "KBLI",
  "time": {
    "repr": "050753Z",
    "dt": "2023-04-05T07:53:00Z"
  },
  "remarks": "RMK AO2 SLP228 T00110006 401060011",
  "dewpoint": {
    "repr": "01",
    "value": 1,
    "spoken": "one"
  },
  "relative_humidity": 0.9646099922239331,
  "remarks_info": {
    "maximum_temperature_6": null,
    "minimum_temperature_6": null,
    "pressure_tendency": null,
    "precip_36_hours": null,
    "precip_24_hours": null,
    "sunshine_minutes": null,
    "codes": [
      {
        "repr": "AO2",
        "value": "Automated with precipitation sensor"
      }
    ],
    "dewpoint_decimal": {
      "repr": "0006",
      "value": 0.6,
      "spoken": "zero point six"
    },
    "maximum_temperature_24": {
      "repr": "0106",
      "value": 10.6,
      "spoken": "one zero point six"
    },
    "minimum_temperature_24": {
      "repr": "0011",
      "value": 1.1,
      "spoken": "one point one"
    },
    "precip_hourly": null,
    "sea_level_pressure": {
      "repr": "SLP228",
      "value": 1022.8,
      "spoken": "one zero two two point eight"
    },
    "snow_depth": null,
    "temperature_decimal": {
      "repr": "0011",
      "value": 1.1,
      "spoken": "one point one"
    }
  },
  "runway_visibility": [],
  "temperature": {
    "repr": "01",
    "value": 1,
    "spoken": "one"
  },
  "wind_variable_direction": [],
  "density_altitude": -1717,
  "pressure_altitude": -90,
  "units": {
    "accumulation": "in",
    "altimeter": "inHg",
    "altitude": "ft",
    "temperature": "C",
    "visibility": "sm",
    "wind_speed": "kt"
  }
}
