{
  "altimeter": {
    "repr": "A3022",
    "spoken": "three zero point two two",
    "value": 30.22
  },
  "clouds": [],
  "density_altitude": -557,
  "dewpoint": {
    "repr": "08",
    "spoken": "eight",
    "value": 8
  },
  "flight_rules": "VFR",
  "meta": {
    "stations_updated": "2024-05-13",
    "timestamp": "2024-06-05T15:03:21.984410Z"
  },
  "other": [],
  "pressure_altitude": -130,
  "raw": "KBLI 051453Z 17008KT 10SM CLR 11/08 A3022 RMK AO2 SLP241 T01110083 51021",
  "relative_humidity": 0.8286786978983101,
  "remarks": "RMK AO2 SLP241 T01110083 51021",
  "remarks_info": {
    "codes": [
      {
        "repr": "AO2",
        "value": "Automated with precipitation sensor"
      }
    ],
    "dewpoint_decimal": {
      "repr": "0083",
      "spoken": "eight point three",
      "value": 8.3
    },
    "maximum_temperature_24": null,
    "maximum_temperature_6": null,
    "minimum_temperature_24": null,
    "minimum_temperature_6": null,
    "precip_24_hours": null,
    "precip_36_hours": null,
    "precip_hourly": null,
    "pressure_tendency": {
      "change": 2.1,
      "repr": "51021",
      "tendency": "Increasing, then steady"
    },
    "sea_level_pressure": {
      "repr": "SLP241",
      "spoken": "one zero two four point one",
      "value": 1024.1
    },
    "snow_depth": null,
    "sunshine_minutes": null,
    "temperature_decimal": {
      "repr": "0111",
      "spoken": "one one point one",
      "value": 11.1
    }
  },
  "runway_visibility": [],
  "sanitized": "KBLI 051453Z 17008KT 10SM 11/08 A3022 RMK AO2 SLP241 T01110083 51021",
  "station": "KBLI",
  "temperature": {
    "repr": "11",
    "spoken": "one one",
    "value": 11
  },
  "time": {
    "dt": "2024-06-05T14:53:00Z",
    "repr": "051453Z"
  },
  "units": {
    "accumulation": "in",
    "altimeter": "inHg",
    "altitude": "ft",
    "temperature": "C",
    "visibility": "sm",
    "wind_speed": "kt"
  },
  "visibility": {
    "repr": "10",
    "spoken": "one zero",
    "value": 10
  },
  "wind_direction": {
    "repr": "170",
    "spoken": "one seven zero",
    "value": 170
  },
  "wind_gust": null,
  "wind_speed": {
    "repr": "08",
    "spoken": "eight",
    "value": 8
  },
  "wind_variable_direction": [],
  "wx_codes": []
}
