{
  "altimeter": {
    "repr": "A3029",
    "spoken": "three zero point two nine",
    "value": 30.29
  },
  "clouds": [
    {
      "altitude": 29,
      "modifier": null,
      "repr": "OVC029",
      "type": "OVC"
    }
  ],
  "density_altitude": -1491,
  "dewpoint": {
    "repr": "04",
    "spoken": "four",
    "value": 4
  },
  "flight_rules": "MVFR",
  "meta": {
    "stations_updated": "2024-10-29",
    "timestamp": "2024-12-01T06:10:08.902603Z"
  },
  "other": [],
  "pressure_altitude": -200,
  "raw": "KBLI 010553Z 01003KT 6SM BR OVC029 04/04 A3029 RMK AO2 SLP266 T00390039 10061 20039 53002",
  "relative_humidity": 1,
  "remarks": "RMK AO2 SLP266 T00390039 10061 20039 53002",
  "remarks_info": {
    "codes": [
      {
        "repr": "AO2",
        "value": "Automated with precipitation sensor"
      }
    ],
    "dewpoint_decimal": {
      "repr": "0039",
      "spoken": "three point nine",
      "value": 3.9
    },
    "maximum_temperature_24": null,
    "maximum_temperature_6": {
      "repr": "10061",
      "spoken": "six point one",
      "value": 6.1
    },
    "minimum_temperature_24": null,
    "minimum_temperature_6": {
      "repr": "20039",
      "spoken": "three point nine",
      "value": 3.9
    },
    "precip_24_hours": null,
    "precip_36_hours": null,
    "precip_hourly": null,
    "pressure_tendency": {
      "change": 0.2,
      "repr": "53002",
      "tendency": "Decreasing or steady, then increasing"
    },
    "sea_level_pressure": {
      "repr": "SLP266",
      "spoken": "one zero two six point six",
      "value": 1026.6
    },
    "snow_depth": null,
    "sunshine_minutes": null,
    "temperature_decimal": {
      "repr": "0039",
      "spoken": "three point nine",
      "value": 3.9
    }
  },
  "runway_visibility": [],
  "sanitized": "KBLI 010553Z 01003KT 6SM BR OVC029 04/04 A3029 RMK AO2 SLP266 T00390039 10061 20039 53002",
  "station": "KBLI",
  "temperature": {
    "repr": "04",
    "spoken": "four",
    "value": 4
  },
  "time": {
    "dt": "2024-12-01T05:53:00Z",
    "repr": "010553Z"
  },
  "units": {
    "accumulation": "in",
    "altimeter": "inHg",
    "altitude": "ft",
    "temperature": "C",
    "visibility": "sm",
    "wind_speed": "kt"
  },
  "visibility": {
    "repr": "6",
    "spoken": "six",
    "value": 6
  },
  "wind_direction": {
    "repr": "010",
    "spoken": "zero one zero",
    "value": 10
  },
  "wind_gust": null,
  "wind_speed": {
    "repr": "03",
    "spoken": "three",
    "value": 3
  },
  "wind_variable_direction": [],
  "wx_codes": [
    {
      "repr": "BR",
      "value": "Mist"
    }
  ]
}
