{
  "meta": {
    "timestamp": "2023-04-23T13:40:43.854119Z",
    "stations_updated": "2023-03-11",
    "cache-timestamp": "2023-04-23T13:40:05.923000Z"
  },
  "altimeter": {
    "repr": "A2977",
    "value": 29.77,
    "spoken": "two nine point seven seven"
  },
  "clouds": [
    {
      "repr": "OVC005",
      "type": "OVC",
      "altitude": 5,
      "modifier": null
    }
  ],
  "flight_rules": "IFR",
  "other": [],
  "visibility": {
    "repr": "4",
    "value": 4,
    "spoken": "four"
  },
  "wind_direction": {
    "repr": "190",
    "value": 190,
    "spoken": "one nine zero"
  },
  "wind_gust": null,
  "wind_speed": {
    "repr": "07",
    "value": 7,
    "spoken": "seven"
  },
  "wx_codes": [
    {
      "repr": "-RA",
      "value": "Light Rain"
    },
    {
      "repr": "BR",
      "value": "Mist"
    }
  ],
  "raw": "KBLI 231312Z AUTO 19007KT 4SM -RA BR OVC005 10/10 A2977 RMK AO2 CIG 002V010 P0000 T01000100",
  "sanitized": "KBLI 231312Z 19007KT 4SM -RA BR OVC005 10/10 A2977 RMK AO2 CIG 002V010 P0000 T01000100",
  "station": "KBLI",
  "time": {
    "repr": "231312Z",
    "dt": "2023-04-23T13:12:00Z"
  },
  "remarks": "RMK AO2 CIG 002V010 P0000 T01000100",
  "dewpoint": {
    "repr": "10",
    "value": 10,
    "spoken": "one zero"
  },
  "relative_humidity": 1,
  "remarks_info": {
    "maximum_temperature_6": null,
    "minimum_temperature_6": null,
    "pressure_tendency": null,
    "precip_36_hours": null,
    "precip_24_hours": null,
    "sunshine_minutes": null,
    "codes": [
      {
        "repr": "AO2",
        "value": "Automated with precipitation sensor"
      },
      {
        "repr": "P0000",
        "value": "Trace amount of rain in the last hour"
      }
    ],
    "dewpoint_decimal": {
      "repr": "0100",
      "value": 10,
      "spoken": "one zero point zero"
    },
    "maximum_temperature_24": null,
    "minimum_temperature_24": null,
    "precip_hourly": null,
    "sea_level_pressure": null,
    "snow_depth": null,
    "temperature_decimal": {
      "repr": "0100",
      "value": 10,
      "spoken": "one zero point zero"
    }
  },
  "runway_visibility": [],
  "temperature": {
    "repr": "10",
    "value": 10,
    "spoken": "one zero"
  },
  "wind_variable_direction": [],
  "density_altitude": -239,
  "pressure_altitude": 320,
  "units": {
    "accumulation": "in",
    "altimeter": "inHg",
    "altitude": "ft",
    "temperature": "C",
    "visibility": "sm",
    "wind_speed": "kt"
  }
}
