{
  "altimeter": {
    "repr": "A2992",
    "spoken": "two nine point nine two",
    "value": 29.92
  },
  "clouds": [
    {
      "altitude": 23,
      "modifier": null,
      "repr": "BKN023",
      "type": "BKN"
    },
    {
      "altitude": 30,
      "modifier": null,
      "repr": "BKN030",
      "type": "BKN"
    },
    {
      "altitude": 90,
      "modifier": null,
      "repr": "OVC090",
      "type": "OVC"
    }
  ],
  "density_altitude": -1325,
  "dewpoint": {
    "repr": "02",
    "spoken": "two",
    "value": 2
  },
  "flight_rules": "MVFR",
  "meta": {
    "stations_updated": "2024-10-29",
    "timestamp": "2024-11-19T04:33:32.427793Z"
  },
  "other": [],
  "pressure_altitude": 170,
  "raw": "KBLI 190353Z 12007KT 3SM RA BR BKN023 BKN030 OVC090 02/02 A2992 RMK AO2 RAB0259E08B34 SLP142 P0004 I1000 T00220017",
  "relative_humidity": 0.9649208694160765,
  "remarks": "RMK AO2 RAB0259E08B34 SLP142 P0004 I1000 T00220017",
  "remarks_info": {
    "codes": [
      {
        "repr": "AO2",
        "value": "Automated with precipitation sensor"
      }
    ],
    "dewpoint_decimal": {
      "repr": "0017",
      "spoken": "one point seven",
      "value": 1.7
    },
    "maximum_temperature_24": null,
    "maximum_temperature_6": null,
    "minimum_temperature_24": null,
    "minimum_temperature_6": null,
    "precip_24_hours": null,
    "precip_36_hours": null,
    "precip_hourly": {
      "repr": "P0004",
      "spoken": "zero point zero four",
      "value": 0.04
    },
    "pressure_tendency": null,
    "sea_level_pressure": {
      "repr": "SLP142",
      "spoken": "one zero one four point two",
      "value": 1014.2
    },
    "snow_depth": null,
    "sunshine_minutes": null,
    "temperature_decimal": {
      "repr": "0022",
      "spoken": "two point two",
      "value": 2.2
    }
  },
  "runway_visibility": [],
  "sanitized": "KBLI 190353Z 12007KT 3SM RA BR BKN023 BKN030 OVC090 02/02 A2992 RMK AO2 RAB0259E08B34 SLP142 P0004 I1000 T00220017",
  "station": "KBLI",
  "temperature": {
    "repr": "02",
    "spoken": "two",
    "value": 2
  },
  "time": {
    "dt": "2024-11-19T03:53:00Z",
    "repr": "190353Z"
  },
  "units": {
    "accumulation": "in",
    "altimeter": "inHg",
    "altitude": "ft",
    "temperature": "C",
    "visibility": "sm",
    "wind_speed": "kt"
  },
  "visibility": {
    "repr": "3",
    "spoken": "three",
    "value": 3
  },
  "wind_direction": {
    "repr": "120",
    "spoken": "one two zero",
    "value": 120
  },
  "wind_gust": null,
  "wind_speed": {
    "repr": "07",
    "spoken": "seven",
    "value": 7
  },
  "wind_variable_direction": [],
  "wx_codes": [
    {
      "repr": "RA",
      "value": "Rain"
    },
    {
      "repr": "BR",
      "value": "Mist"
    }
  ]
}
