{
  "altimeter": {
    "repr": "A2930",
    "spoken": "two nine point three zero",
    "value": 29.3
  },
  "clouds": [
    {
      "altitude": 120,
      "modifier": null,
      "repr": "FEW120",
      "type": "FEW"
    }
  ],
  "density_altitude": -765,
  "dewpoint": {
    "repr": "01",
    "spoken": "one",
    "value": 1
  },
  "flight_rules": "VFR",
  "meta": {
    "cache-timestamp": "2024-03-02T08:24:05.735000Z",
    "stations_updated": "2024-01-01",
    "timestamp": "2024-03-02T08:24:44.759832Z"
  },
  "other": [],
  "pressure_altitude": 790,
  "raw": "KBLI 020753Z AUTO 06008KT 10SM FEW120 02/01 A2930 RMK AO2 SLP931 T00170006 400720011",
  "relative_humidity": 0.9239704971399328,
  "remarks": "RMK AO2 SLP931 T00170006 400720011",
  "remarks_info": {
    "codes": [
      {
        "repr": "AO2",
        "value": "Automated with precipitation sensor"
      }
    ],
    "dewpoint_decimal": {
      "repr": "0006",
      "spoken": "zero point six",
      "value": 0.6
    },
    "maximum_temperature_24": {
      "repr": "0072",
      "spoken": "seven point two",
      "value": 7.2
    },
    "maximum_temperature_6": null,
    "minimum_temperature_24": {
      "repr": "0011",
      "spoken": "one point one",
      "value": 1.1
    },
    "minimum_temperature_6": null,
    "precip_24_hours": null,
    "precip_36_hours": null,
    "precip_hourly": null,
    "pressure_tendency": null,
    "sea_level_pressure": {
      "repr": "SLP931",
      "spoken": "nine nine three point one",
      "value": 993.1
    },
    "snow_depth": null,
    "sunshine_minutes": null,
    "temperature_decimal": {
      "repr": "0017",
      "spoken": "one point seven",
      "value": 1.7
    }
  },
  "runway_visibility": [],
  "sanitized": "KBLI 020753Z 06008KT 10SM FEW120 02/01 A2930 RMK AO2 SLP931 T00170006 400720011",
  "station": "KBLI",
  "temperature": {
    "repr": "02",
    "spoken": "two",
    "value": 2
  },
  "time": {
    "dt": "2024-03-02T07:53:00Z",
    "repr": "020753Z"
  },
  "units": {
    "accumulation": "in",
    "altimeter": "inHg",
    "altitude": "ft",
    "temperature": "C",
    "visibility": "sm",
    "wind_speed": "kt"
  },
  "visibility": {
    "repr": "10",
    "spoken": "one zero",
    "value": 10
  },
  "wind_direction": {
    "repr": "060",
    "spoken": "zero six zero",
    "value": 60
  },
  "wind_gust": null,
  "wind_speed": {
    "repr": "08",
    "spoken": "eight",
    "value": 8
  },
  "wind_variable_direction": [],
  "wx_codes": []
}
