{
  "altimeter": {
    "repr": "A2942",
    "spoken": "two nine point four two",
    "value": 29.42
  },
  "clouds": [
    {
      "altitude": 120,
      "modifier": null,
      "repr": "BKN120",
      "type": "BKN"
    }
  ],
  "density_altitude": 243,
  "dewpoint": {
    "repr": "08",
    "spoken": "eight",
    "value": 8
  },
  "flight_rules": "VFR",
  "meta": {
    "stations_updated": "2023-10-28",
    "timestamp": "2024-02-01T07:01:07.507473Z"
  },
  "other": [],
  "pressure_altitude": 670,
  "raw": "KBLI 010653Z AUTO 00000KT 10SM BKN120 11/08 A2942 RMK AO2 SLP968 T01110083",
  "relative_humidity": 0.8286786978983101,
  "remarks": "RMK AO2 SLP968 T01110083",
  "remarks_info": {
    "codes": [
      {
        "repr": "AO2",
        "value": "Automated with precipitation sensor"
      }
    ],
    "dewpoint_decimal": {
      "repr": "0083",
      "spoken": "eight point three",
      "value": 8.3
    },
    "maximum_temperature_24": null,
    "maximum_temperature_6": null,
    "minimum_temperature_24": null,
    "minimum_temperature_6": null,
    "precip_24_hours": null,
    "precip_36_hours": null,
    "precip_hourly": null,
    "pressure_tendency": null,
    "sea_level_pressure": {
      "repr": "SLP968",
      "spoken": "nine nine six point eight",
      "value": 996.8
    },
    "snow_depth": null,
    "sunshine_minutes": null,
    "temperature_decimal": {
      "repr": "0111",
      "spoken": "one one point one",
      "value": 11.1
    }
  },
  "runway_visibility": [],
  "sanitized": "KBLI 010653Z 00000KT 10SM BKN120 11/08 A2942 RMK AO2 SLP968 T01110083",
  "station": "KBLI",
  "temperature": {
    "repr": "11",
    "spoken": "one one",
    "value": 11
  },
  "time": {
    "dt": "2024-02-01T06:53:00Z",
    "repr": "010653Z"
  },
  "units": {
    "accumulation": "in",
    "altimeter": "inHg",
    "altitude": "ft",
    "temperature": "C",
    "visibility": "sm",
    "wind_speed": "kt"
  },
  "visibility": {
    "repr": "10",
    "spoken": "one zero",
    "value": 10
  },
  "wind_direction": {
    "repr": "000",
    "spoken": "zero zero zero",
    "value": 0
  },
  "wind_gust": null,
  "wind_speed": {
    "repr": "00",
    "spoken": "zero",
    "value": 0
  },
  "wind_variable_direction": [],
  "wx_codes": []
}
