{
  "altimeter": {
    "repr": "A2995",
    "spoken": "two nine point nine five",
    "value": 29.95
  },
  "clouds": [
    {
      "altitude": 28,
      "modifier": null,
      "repr": "FEW028",
      "type": "FEW"
    },
    {
      "altitude": 35,
      "modifier": null,
      "repr": "SCT035",
      "type": "SCT"
    },
    {
      "altitude": 50,
      "modifier": null,
      "repr": "BKN050",
      "type": "BKN"
    }
  ],
  "density_altitude": -155,
  "dewpoint": {
    "repr": "07",
    "spoken": "seven",
    "value": 7
  },
  "flight_rules": "VFR",
  "meta": {
    "cache-timestamp": "2024-05-22T20:24:05.441000Z",
    "stations_updated": "2024-05-13",
    "timestamp": "2024-05-22T20:24:55.865739Z"
  },
  "other": [],
  "pressure_altitude": 140,
  "raw": "KBLI 221953Z 15006KT 10SM FEW028 SCT035 BKN050 12/07 A2995 RMK AO2 SLP148 T01220072",
  "relative_humidity": 0.7149098379996415,
  "remarks": "RMK AO2 SLP148 T01220072",
  "remarks_info": {
    "codes": [
      {
        "repr": "AO2",
        "value": "Automated with precipitation sensor"
      }
    ],
    "dewpoint_decimal": {
      "repr": "0072",
      "spoken": "seven point two",
      "value": 7.2
    },
    "maximum_temperature_24": null,
    "maximum_temperature_6": null,
    "minimum_temperature_24": null,
    "minimum_temperature_6": null,
    "precip_24_hours": null,
    "precip_36_hours": null,
    "precip_hourly": null,
    "pressure_tendency": null,
    "sea_level_pressure": {
      "repr": "SLP148",
      "spoken": "one zero one four point eight",
      "value": 1014.8
    },
    "snow_depth": null,
    "sunshine_minutes": null,
    "temperature_decimal": {
      "repr": "0122",
      "spoken": "one two point two",
      "value": 12.2
    }
  },
  "runway_visibility": [],
  "sanitized": "KBLI 221953Z 15006KT 10SM FEW028 SCT035 BKN050 12/07 A2995 RMK AO2 SLP148 T01220072",
  "station": "KBLI",
  "temperature": {
    "repr": "12",
    "spoken": "one two",
    "value": 12
  },
  "time": {
    "dt": "2024-05-22T19:53:00Z",
    "repr": "221953Z"
  },
  "units": {
    "accumulation": "in",
    "altimeter": "inHg",
    "altitude": "ft",
    "temperature": "C",
    "visibility": "sm",
    "wind_speed": "kt"
  },
  "visibility": {
    "repr": "10",
    "spoken": "one zero",
    "value": 10
  },
  "wind_direction": {
    "repr": "150",
    "spoken": "one five zero",
    "value": 150
  },
  "wind_gust": null,
  "wind_speed": {
    "repr": "06",
    "spoken": "six",
    "value": 6
  },
  "wind_variable_direction": [],
  "wx_codes": []
}
