{
  "altimeter": {
    "repr": "A2992",
    "spoken": "two nine point nine two",
    "value": 29.92
  },
  "clouds": [
    {
      "altitude": 39,
      "modifier": null,
      "repr": "SCT039",
      "type": "SCT"
    },
    {
      "altitude": 48,
      "modifier": null,
      "repr": "SCT048",
      "type": "SCT"
    }
  ],
  "density_altitude": -1325,
  "dewpoint": {
    "repr": "M05",
    "spoken": "minus five",
    "value": -5
  },
  "flight_rules": "VFR",
  "meta": {
    "cache-timestamp": "2024-02-27T09:22:04.840000Z",
    "stations_updated": "2024-01-01",
    "timestamp": "2024-02-27T09:23:02.423272Z"
  },
  "other": [],
  "pressure_altitude": 170,
  "raw": "KBLI 270853Z AUTO 28006KT 10SM SCT039 SCT048 02/M05 A2992 RMK AO2 SLP140 T00221050 53019",
  "relative_humidity": 0.5893956495891598,
  "remarks": "RMK AO2 SLP140 T00221050 53019",
  "remarks_info": {
    "codes": [
      {
        "repr": "AO2",
        "value": "Automated with precipitation sensor"
      }
    ],
    "dewpoint_decimal": {
      "repr": "1050",
      "spoken": "minus five point zero",
      "value": -5
    },
    "maximum_temperature_24": null,
    "maximum_temperature_6": null,
    "minimum_temperature_24": null,
    "minimum_temperature_6": null,
    "precip_24_hours": null,
    "precip_36_hours": null,
    "precip_hourly": null,
    "pressure_tendency": {
      "change": 1.9,
      "repr": "53019",
      "tendency": "Decreasing or steady, then increasing"
    },
    "sea_level_pressure": {
      "repr": "SLP140",
      "spoken": "one zero one four point zero",
      "value": 1014
    },
    "snow_depth": null,
    "sunshine_minutes": null,
    "temperature_decimal": {
      "repr": "0022",
      "spoken": "two point two",
      "value": 2.2
    }
  },
  "runway_visibility": [],
  "sanitized": "KBLI 270853Z 28006KT 10SM SCT039 SCT048 02/M05 A2992 RMK AO2 SLP140 T00221050 53019",
  "station": "KBLI",
  "temperature": {
    "repr": "02",
    "spoken": "two",
    "value": 2
  },
  "time": {
    "dt": "2024-02-27T08:53:00Z",
    "repr": "270853Z"
  },
  "units": {
    "accumulation": "in",
    "altimeter": "inHg",
    "altitude": "ft",
    "temperature": "C",
    "visibility": "sm",
    "wind_speed": "kt"
  },
  "visibility": {
    "repr": "10",
    "spoken": "one zero",
    "value": 10
  },
  "wind_direction": {
    "repr": "280",
    "spoken": "two eight zero",
    "value": 280
  },
  "wind_gust": null,
  "wind_speed": {
    "repr": "06",
    "spoken": "six",
    "value": 6
  },
  "wind_variable_direction": [],
  "wx_codes": []
}
