{
  "altimeter": {
    "repr": "A3010",
    "spoken": "three zero point one zero",
    "value": 30.1
  },
  "clouds": [
    {
      "altitude": 65,
      "modifier": null,
      "repr": "BKN065",
      "type": "BKN"
    }
  ],
  "density_altitude": -1901,
  "dewpoint": {
    "repr": "M09",
    "spoken": "minus nine",
    "value": -9
  },
  "flight_rules": "VFR",
  "meta": {
    "cache-timestamp": "2024-01-18T13:08:04.227000Z",
    "stations_updated": "2023-10-28",
    "timestamp": "2024-01-18T13:08:26.606274Z"
  },
  "other": [],
  "pressure_altitude": -10,
  "raw": "KBLI 181153Z AUTO 04011G21KT 10SM BKN065 M01/M09 A3010 RMK AO2 SLP202 70057 T10111089 11011 21011 53011",
  "relative_humidity": 0.5542388073157543,
  "remarks": "RMK AO2 SLP202 70057 T10111089 11011 21011 53011",
  "remarks_info": {
    "codes": [
      {
        "repr": "AO2",
        "value": "Automated with precipitation sensor"
      }
    ],
    "dewpoint_decimal": {
      "repr": "1089",
      "spoken": "minus eight point nine",
      "value": -8.9
    },
    "maximum_temperature_24": null,
    "maximum_temperature_6": {
      "repr": "11011",
      "spoken": "minus one point one",
      "value": -1.1
    },
    "minimum_temperature_24": null,
    "minimum_temperature_6": {
      "repr": "21011",
      "spoken": "minus one point one",
      "value": -1.1
    },
    "precip_24_hours": {
      "repr": "70057",
      "spoken": "zero point five seven",
      "value": 0.57
    },
    "precip_36_hours": null,
    "precip_hourly": null,
    "pressure_tendency": {
      "change": 1.1,
      "repr": "53011",
      "tendency": "Decreasing or steady, then increasing"
    },
    "sea_level_pressure": {
      "repr": "SLP202",
      "spoken": "one zero two zero point two",
      "value": 1020.2
    },
    "snow_depth": null,
    "sunshine_minutes": null,
    "temperature_decimal": {
      "repr": "1011",
      "spoken": "minus one point one",
      "value": -1.1
    }
  },
  "runway_visibility": [],
  "sanitized": "KBLI 181153Z 04011G21KT 10SM BKN065 M01/M09 A3010 RMK AO2 SLP202 70057 T10111089 11011 21011 53011",
  "station": "KBLI",
  "temperature": {
    "repr": "M01",
    "spoken": "minus one",
    "value": -1
  },
  "time": {
    "dt": "2024-01-18T11:53:00Z",
    "repr": "181153Z"
  },
  "units": {
    "accumulation": "in",
    "altimeter": "inHg",
    "altitude": "ft",
    "temperature": "C",
    "visibility": "sm",
    "wind_speed": "kt"
  },
  "visibility": {
    "repr": "10",
    "spoken": "one zero",
    "value": 10
  },
  "wind_direction": {
    "repr": "040",
    "spoken": "zero four zero",
    "value": 40
  },
  "wind_gust": {
    "repr": "21",
    "spoken": "two one",
    "value": 21
  },
  "wind_speed": {
    "repr": "11",
    "spoken": "one one",
    "value": 11
  },
  "wind_variable_direction": [],
  "wx_codes": []
}
