{
  "altimeter": {
    "repr": "A3043",
    "spoken": "three zero point four three",
    "value": 30.43
  },
  "clouds": [],
  "density_altitude": -503,
  "dewpoint": {
    "repr": "M03",
    "spoken": "minus three",
    "value": -3
  },
  "flight_rules": "VFR",
  "meta": {
    "cache-timestamp": "2024-04-17T23:40:04.232000Z",
    "stations_updated": "2024-01-01",
    "timestamp": "2024-04-17T23:40:29.031219Z"
  },
  "other": [],
  "pressure_altitude": -340,
  "raw": "KBLI 172253Z 28007G17KT 240V320 10SM CLR 13/M03 A3043 RMK AO2 SLP312 T01331028",
  "relative_humidity": 0.32605071346693987,
  "remarks": "RMK AO2 SLP312 T01331028",
  "remarks_info": {
    "codes": [
      {
        "repr": "AO2",
        "value": "Automated with precipitation sensor"
      }
    ],
    "dewpoint_decimal": {
      "repr": "1028",
      "spoken": "minus two point eight",
      "value": -2.8
    },
    "maximum_temperature_24": null,
    "maximum_temperature_6": null,
    "minimum_temperature_24": null,
    "minimum_temperature_6": null,
    "precip_24_hours": null,
    "precip_36_hours": null,
    "precip_hourly": null,
    "pressure_tendency": null,
    "sea_level_pressure": {
      "repr": "SLP312",
      "spoken": "one zero three one point two",
      "value": 1031.2
    },
    "snow_depth": null,
    "sunshine_minutes": null,
    "temperature_decimal": {
      "repr": "0133",
      "spoken": "one three point three",
      "value": 13.3
    }
  },
  "runway_visibility": [],
  "sanitized": "KBLI 172253Z 28007G17KT 240V320 10SM 13/M03 A3043 RMK AO2 SLP312 T01331028",
  "station": "KBLI",
  "temperature": {
    "repr": "13",
    "spoken": "one three",
    "value": 13
  },
  "time": {
    "dt": "2024-04-17T22:53:00Z",
    "repr": "172253Z"
  },
  "units": {
    "accumulation": "in",
    "altimeter": "inHg",
    "altitude": "ft",
    "temperature": "C",
    "visibility": "sm",
    "wind_speed": "kt"
  },
  "visibility": {
    "repr": "10",
    "spoken": "one zero",
    "value": 10
  },
  "wind_direction": {
    "repr": "280",
    "spoken": "two eight zero",
    "value": 280
  },
  "wind_gust": {
    "repr": "17",
    "spoken": "one seven",
    "value": 17
  },
  "wind_speed": {
    "repr": "07",
    "spoken": "seven",
    "value": 7
  },
  "wind_variable_direction": [
    {
      "repr": "240",
      "spoken": "two four zero",
      "value": 240
    },
    {
      "repr": "320",
      "spoken": "three two zero",
      "value": 320
    }
  ],
  "wx_codes": []
}
