{
  "altimeter": {
    "repr": "A2986",
    "spoken": "two nine point eight six",
    "value": 29.86
  },
  "clouds": [
    {
      "altitude": 40,
      "modifier": null,
      "repr": "FEW040",
      "type": "FEW"
    },
    {
      "altitude": 100,
      "modifier": null,
      "repr": "BKN100",
      "type": "BKN"
    }
  ],
  "density_altitude": 739,
  "dewpoint": {
    "repr": "15",
    "spoken": "one five",
    "value": 15
  },
  "flight_rules": "VFR",
  "meta": {
    "stations_updated": "2024-06-12",
    "timestamp": "2024-08-23T00:31:25.375864Z"
  },
  "other": [],
  "pressure_altitude": 230,
  "raw": "KBLI 222353Z 23004KT 10SM FEW040 BKN100 19/15 A2986 RMK AO2 SLP118 60000 T01890150 10189 20167 56015",
  "relative_humidity": 0.7808389532239374,
  "remarks": "RMK AO2 SLP118 60000 T01890150 10189 20167 56015",
  "remarks_info": {
    "codes": [
      {
        "repr": "AO2",
        "value": "Automated with precipitation sensor"
      }
    ],
    "dewpoint_decimal": {
      "repr": "0150",
      "spoken": "one five point zero",
      "value": 15
    },
    "maximum_temperature_24": null,
    "maximum_temperature_6": {
      "repr": "10189",
      "spoken": "one eight point nine",
      "value": 18.9
    },
    "minimum_temperature_24": null,
    "minimum_temperature_6": {
      "repr": "20167",
      "spoken": "one six point seven",
      "value": 16.7
    },
    "precip_24_hours": null,
    "precip_36_hours": {
      "repr": "60000",
      "spoken": "zero",
      "value": 0
    },
    "precip_hourly": null,
    "pressure_tendency": {
      "change": 1.5,
      "repr": "56015",
      "tendency": "Decreasing, then steady"
    },
    "sea_level_pressure": {
      "repr": "SLP118",
      "spoken": "one zero one one point eight",
      "value": 1011.8
    },
    "snow_depth": null,
    "sunshine_minutes": null,
    "temperature_decimal": {
      "repr": "0189",
      "spoken": "one eight point nine",
      "value": 18.9
    }
  },
  "runway_visibility": [],
  "sanitized": "KBLI 222353Z 23004KT 10SM FEW040 BKN100 19/15 A2986 RMK AO2 SLP118 60000 T01890150 10189 20167 56015",
  "station": "KBLI",
  "temperature": {
    "repr": "19",
    "spoken": "one nine",
    "value": 19
  },
  "time": {
    "dt": "2024-08-22T23:53:00Z",
    "repr": "222353Z"
  },
  "units": {
    "accumulation": "in",
    "altimeter": "inHg",
    "altitude": "ft",
    "temperature": "C",
    "visibility": "sm",
    "wind_speed": "kt"
  },
  "visibility": {
    "repr": "10",
    "spoken": "one zero",
    "value": 10
  },
  "wind_direction": {
    "repr": "230",
    "spoken": "two three zero",
    "value": 230
  },
  "wind_gust": null,
  "wind_speed": {
    "repr": "04",
    "spoken": "four",
    "value": 4
  },
  "wind_variable_direction": [],
  "wx_codes": []
}
