{
  "altimeter": {
    "repr": "A3005",
    "spoken": "three zero point zero five",
    "value": 30.05
  },
  "clouds": [
    {
      "altitude": 55,
      "modifier": null,
      "repr": "FEW055",
      "type": "FEW"
    },
    {
      "altitude": 120,
      "modifier": null,
      "repr": "FEW120",
      "type": "FEW"
    }
  ],
  "density_altitude": -315,
  "dewpoint": {
    "repr": "09",
    "spoken": "nine",
    "value": 9
  },
  "flight_rules": "VFR",
  "meta": {
    "stations_updated": "2024-06-12",
    "timestamp": "2024-10-22T00:36:22.717507Z"
  },
  "other": [],
  "pressure_altitude": 40,
  "raw": "KBLI 212353Z 32003KT 10SM FEW055 FEW120 12/09 A3005 RMK AO2 SLP181 T01170089 10133 20100 51008",
  "relative_humidity": 0.8294144771177383,
  "remarks": "RMK AO2 SLP181 T01170089 10133 20100 51008",
  "remarks_info": {
    "codes": [
      {
        "repr": "AO2",
        "value": "Automated with precipitation sensor"
      }
    ],
    "dewpoint_decimal": {
      "repr": "0089",
      "spoken": "eight point nine",
      "value": 8.9
    },
    "maximum_temperature_24": null,
    "maximum_temperature_6": {
      "repr": "10133",
      "spoken": "one three point three",
      "value": 13.3
    },
    "minimum_temperature_24": null,
    "minimum_temperature_6": {
      "repr": "20100",
      "spoken": "one zero point zero",
      "value": 10
    },
    "precip_24_hours": null,
    "precip_36_hours": null,
    "precip_hourly": null,
    "pressure_tendency": {
      "change": 0.8,
      "repr": "51008",
      "tendency": "Increasing, then steady"
    },
    "sea_level_pressure": {
      "repr": "SLP181",
      "spoken": "one zero one eight point one",
      "value": 1018.1
    },
    "snow_depth": null,
    "sunshine_minutes": null,
    "temperature_decimal": {
      "repr": "0117",
      "spoken": "one one point seven",
      "value": 11.7
    }
  },
  "runway_visibility": [],
  "sanitized": "KBLI 212353Z 32003KT 10SM FEW055 FEW120 12/09 A3005 RMK AO2 SLP181 T01170089 10133 20100 51008",
  "station": "KBLI",
  "temperature": {
    "repr": "12",
    "spoken": "one two",
    "value": 12
  },
  "time": {
    "dt": "2024-10-21T23:53:00Z",
    "repr": "212353Z"
  },
  "units": {
    "accumulation": "in",
    "altimeter": "inHg",
    "altitude": "ft",
    "temperature": "C",
    "visibility": "sm",
    "wind_speed": "kt"
  },
  "visibility": {
    "repr": "10",
    "spoken": "one zero",
    "value": 10
  },
  "wind_direction": {
    "repr": "320",
    "spoken": "three two zero",
    "value": 320
  },
  "wind_gust": null,
  "wind_speed": {
    "repr": "03",
    "spoken": "three",
    "value": 3
  },
  "wind_variable_direction": [],
  "wx_codes": []
}
