{
  "altimeter": {
    "repr": "A3044",
    "spoken": "three zero point four four",
    "value": 30.44
  },
  "clouds": [],
  "density_altitude": -1713,
  "dewpoint": {
    "repr": "02",
    "spoken": "two",
    "value": 2
  },
  "flight_rules": "VFR",
  "meta": {
    "stations_updated": "2024-12-02",
    "timestamp": "2024-12-10T19:24:57.230534Z"
  },
  "other": [],
  "pressure_altitude": -350,
  "raw": "KBLI 101853Z 03004KT 10SM CLR 03/02 A3044 RMK AO2 SLP317 T00330017",
  "relative_humidity": 0.892472054966446,
  "remarks": "RMK AO2 SLP317 T00330017",
  "remarks_info": {
    "codes": [
      {
        "repr": "AO2",
        "value": "Automated with precipitation sensor"
      }
    ],
    "dewpoint_decimal": {
      "repr": "0017",
      "spoken": "one point seven",
      "value": 1.7
    },
    "maximum_temperature_24": null,
    "maximum_temperature_6": null,
    "minimum_temperature_24": null,
    "minimum_temperature_6": null,
    "precip_24_hours": null,
    "precip_36_hours": null,
    "precip_hourly": null,
    "pressure_tendency": null,
    "sea_level_pressure": {
      "repr": "SLP317",
      "spoken": "one zero three one point seven",
      "value": 1031.7
    },
    "snow_depth": null,
    "sunshine_minutes": null,
    "temperature_decimal": {
      "repr": "0033",
      "spoken": "three point three",
      "value": 3.3
    }
  },
  "runway_visibility": [],
  "sanitized": "KBLI 101853Z 03004KT 10SM 03/02 A3044 RMK AO2 SLP317 T00330017",
  "station": "KBLI",
  "temperature": {
    "repr": "03",
    "spoken": "three",
    "value": 3
  },
  "time": {
    "dt": "2024-12-10T18:53:00Z",
    "repr": "101853Z"
  },
  "units": {
    "accumulation": "in",
    "altimeter": "inHg",
    "altitude": "ft",
    "temperature": "C",
    "visibility": "sm",
    "wind_speed": "kt"
  },
  "visibility": {
    "repr": "10",
    "spoken": "one zero",
    "value": 10
  },
  "wind_direction": {
    "repr": "030",
    "spoken": "zero three zero",
    "value": 30
  },
  "wind_gust": null,
  "wind_speed": {
    "repr": "04",
    "spoken": "four",
    "value": 4
  },
  "wind_variable_direction": [],
  "wx_codes": []
}
