{
  "meta": {
    "timestamp": "2023-02-07T09:40:34.005541Z",
    "stations_updated": "2023-01-30",
    "cache-timestamp": "2023-02-07T09:40:09.237000Z"
  },
  "altimeter": {
    "repr": "A3015",
    "value": 30.15,
    "spoken": "three zero point one five"
  },
  "clouds": [
    {
      "repr": "OVC024",
      "type": "OVC",
      "altitude": 24,
      "modifier": null
    }
  ],
  "flight_rules": "MVFR",
  "other": [],
  "visibility": {
    "repr": "10",
    "value": 10,
    "spoken": "one zero"
  },
  "wind_direction": {
    "repr": "170",
    "value": 170,
    "spoken": "one seven zero"
  },
  "wind_gust": {
    "repr": "28",
    "value": 28,
    "spoken": "two eight"
  },
  "wind_speed": {
    "repr": "18",
    "value": 18,
    "spoken": "one eight"
  },
  "wx_codes": [],
  "raw": "KBLI 070853Z AUTO 17018G28KT 10SM OVC024 09/06 A3015 RMK AO2 PK WND 15038/0828 SLP217 T00940056 58016",
  "sanitized": "KBLI 070853Z 17018G28KT 10SM OVC024 09/06 A3015 RMK AO2 PK WND 15038/0828 SLP217 T00940056 58016",
  "station": "KBLI",
  "time": {
    "repr": "070853Z",
    "dt": "2023-02-07T08:53:00Z"
  },
  "remarks": "RMK AO2 PK WND 15038/0828 SLP217 T00940056 58016",
  "dewpoint": {
    "repr": "06",
    "value": 6,
    "spoken": "six"
  },
  "relative_humidity": 0.7714099217957385,
  "remarks_info": {
    "maximum_temperature_6": null,
    "minimum_temperature_6": null,
    "pressure_tendency": {
      "repr": "58016",
      "tendency": "Steady or increasing, then decreasing",
      "change": 1.6
    },
    "precip_36_hours": null,
    "precip_24_hours": null,
    "sunshine_minutes": null,
    "codes": [
      {
        "repr": "AO2",
        "value": "Automated with precipitation sensor"
      }
    ],
    "dewpoint_decimal": {
      "repr": "0056",
      "value": 5.6,
      "spoken": "five point six"
    },
    "maximum_temperature_24": null,
    "minimum_temperature_24": null,
    "precip_hourly": null,
    "sea_level_pressure": {
      "repr": "SLP217",
      "value": 1021.7,
      "spoken": "one zero two one point seven"
    },
    "snow_depth": null,
    "temperature_decimal": {
      "repr": "0094",
      "value": 9.4,
      "spoken": "nine point four"
    }
  },
  "runway_visibility": [],
  "temperature": {
    "repr": "09",
    "value": 9,
    "spoken": "nine"
  },
  "wind_variable_direction": [],
  "density_altitude": -691,
  "pressure_altitude": -60,
  "units": {
    "accumulation": "in",
    "altimeter": "inHg",
    "altitude": "ft",
    "temperature": "C",
    "visibility": "sm",
    "wind_speed": "kt"
  }
}
