{
  "altimeter": {
    "repr": "A3053",
    "spoken": "three zero point five three",
    "value": 30.53
  },
  "clouds": [
    {
      "altitude": 2,
      "modifier": null,
      "repr": "VV002",
      "type": "VV"
    }
  ],
  "density_altitude": -2067,
  "dewpoint": {
    "repr": "01",
    "spoken": "one",
    "value": 1
  },
  "flight_rules": "LIFR",
  "meta": {
    "stations_updated": "2024-12-02",
    "timestamp": "2025-01-07T17:06:49.682576Z"
  },
  "other": [
    "M14KT"
  ],
  "pressure_altitude": -440,
  "raw": "KBLI 071653Z 00000KT M1/4SM R16/1000V1200FT FG VV002 01/01 A3053 RMK AO2 SNB15E27B36E51 SLP348 P0000 T00110011",
  "relative_humidity": 1,
  "remarks": "RMK AO2 SNB15E27B36E51 SLP348 P0000 T00110011",
  "remarks_info": {
    "codes": [
      {
        "repr": "AO2",
        "value": "Automated with precipitation sensor"
      },
      {
        "repr": "P0000",
        "value": "Trace amount of rain in the last hour"
      }
    ],
    "dewpoint_decimal": {
      "repr": "0011",
      "spoken": "one point one",
      "value": 1.1
    },
    "maximum_temperature_24": null,
    "maximum_temperature_6": null,
    "minimum_temperature_24": null,
    "minimum_temperature_6": null,
    "precip_24_hours": null,
    "precip_36_hours": null,
    "precip_hourly": null,
    "pressure_tendency": null,
    "sea_level_pressure": {
      "repr": "SLP348",
      "spoken": "one zero three four point eight",
      "value": 1034.8
    },
    "snow_depth": null,
    "sunshine_minutes": null,
    "temperature_decimal": {
      "repr": "0011",
      "spoken": "one point one",
      "value": 1.1
    }
  },
  "runway_visibility": [
    {
      "repr": "R16/1000V1200FT",
      "runway": "16",
      "trend": null,
      "variable_visibility": [
        {
          "repr": "1000",
          "spoken": "one thousand",
          "value": 1000
        },
        {
          "repr": "1200",
          "spoken": "one two hundred",
          "value": 1200
        }
      ],
      "visibility": null
    }
  ],
  "sanitized": "KBLI 071653Z 00000KT M14KT R16/1000V1200FT FG VV002 01/01 A3053 RMK AO2 SNB15E27B36E51 SLP348 P0000 T00110011",
  "station": "KBLI",
  "temperature": {
    "repr": "01",
    "spoken": "one",
    "value": 1
  },
  "time": {
    "dt": "2025-01-07T16:53:00Z",
    "repr": "071653Z"
  },
  "units": {
    "accumulation": "in",
    "altimeter": "inHg",
    "altitude": "ft",
    "temperature": "C",
    "visibility": "sm",
    "wind_speed": "kt"
  },
  "visibility": null,
  "wind_direction": {
    "repr": "000",
    "spoken": "zero zero zero",
    "value": 0
  },
  "wind_gust": null,
  "wind_speed": {
    "repr": "00",
    "spoken": "zero",
    "value": 0
  },
  "wind_variable_direction": [],
  "wx_codes": [
    {
      "repr": "FG",
      "value": "Fog"
    }
  ]
}
