{
  "altimeter": {
    "repr": "A3002",
    "spoken": "three zero point zero two",
    "value": 30.02
  },
  "clouds": [
    {
      "altitude": 80,
      "modifier": null,
      "repr": "BKN080",
      "type": "BKN"
    }
  ],
  "density_altitude": 375,
  "dewpoint": {
    "repr": "12",
    "spoken": "one two",
    "value": 12
  },
  "flight_rules": "VFR",
  "meta": {
    "cache-timestamp": "2024-08-16T18:32:25.486000Z",
    "stations_updated": "2024-06-12",
    "timestamp": "2024-08-16T18:42:40.442061Z",
    "warning": "Unable to fetch report. This cached data might be out of date. To return an error instead, set ?onfail=error"
  },
  "other": [],
  "pressure_altitude": 70,
  "raw": "KBLI 161753Z 17008KT 10SM BKN080 17/12 A3002 RMK AO2 SLP173 T01720122 10172 20144 53001",
  "relative_humidity": 0.7241723553108393,
  "remarks": "RMK AO2 SLP173 T01720122 10172 20144 53001",
  "remarks_info": {
    "codes": [
      {
        "repr": "AO2",
        "value": "Automated with precipitation sensor"
      }
    ],
    "dewpoint_decimal": {
      "repr": "0122",
      "spoken": "one two point two",
      "value": 12.2
    },
    "maximum_temperature_24": null,
    "maximum_temperature_6": {
      "repr": "10172",
      "spoken": "one seven point two",
      "value": 17.2
    },
    "minimum_temperature_24": null,
    "minimum_temperature_6": {
      "repr": "20144",
      "spoken": "one four point four",
      "value": 14.4
    },
    "precip_24_hours": null,
    "precip_36_hours": null,
    "precip_hourly": null,
    "pressure_tendency": {
      "change": 0.1,
      "repr": "53001",
      "tendency": "Decreasing or steady, then increasing"
    },
    "sea_level_pressure": {
      "repr": "SLP173",
      "spoken": "one zero one seven point three",
      "value": 1017.3
    },
    "snow_depth": null,
    "sunshine_minutes": null,
    "temperature_decimal": {
      "repr": "0172",
      "spoken": "one seven point two",
      "value": 17.2
    }
  },
  "runway_visibility": [],
  "sanitized": "KBLI 161753Z 17008KT 10SM BKN080 17/12 A3002 RMK AO2 SLP173 T01720122 10172 20144 53001",
  "station": "KBLI",
  "temperature": {
    "repr": "17",
    "spoken": "one seven",
    "value": 17
  },
  "time": {
    "dt": "2024-08-16T17:53:00Z",
    "repr": "161753Z"
  },
  "units": {
    "accumulation": "in",
    "altimeter": "inHg",
    "altitude": "ft",
    "temperature": "C",
    "visibility": "sm",
    "wind_speed": "kt"
  },
  "visibility": {
    "repr": "10",
    "spoken": "one zero",
    "value": 10
  },
  "wind_direction": {
    "repr": "170",
    "spoken": "one seven zero",
    "value": 170
  },
  "wind_gust": null,
  "wind_speed": {
    "repr": "08",
    "spoken": "eight",
    "value": 8
  },
  "wind_variable_direction": [],
  "wx_codes": []
}
