{
  "meta": {
    "timestamp": "2023-10-27T20:22:49.134594Z",
    "stations_updated": "2023-10-01",
    "cache-timestamp": "2023-10-27T20:22:03.990000Z"
  },
  "altimeter": {
    "repr": "A3043",
    "value": 30.43,
    "spoken": "three zero point four three"
  },
  "clouds": [],
  "flight_rules": "VFR",
  "other": [],
  "visibility": {
    "repr": "10",
    "value": 10,
    "spoken": "one zero"
  },
  "wind_direction": {
    "repr": "030",
    "value": 30,
    "spoken": "zero three zero"
  },
  "wind_gust": {
    "repr": "22",
    "value": 22,
    "spoken": "two two"
  },
  "wind_speed": {
    "repr": "13",
    "value": 13,
    "spoken": "one three"
  },
  "wx_codes": [],
  "raw": "KBLI 271953Z 03013G22KT 10SM CLR 09/M09 A3043 RMK AO2 SLP313 T00891089",
  "sanitized": "KBLI 271953Z 03013G22KT 10SM 09/M09 A3043 RMK AO2 SLP313 T00891089",
  "station": "KBLI",
  "time": {
    "repr": "271953Z",
    "dt": "2023-10-27T19:53:00Z"
  },
  "remarks": "RMK AO2 SLP313 T00891089",
  "dewpoint": {
    "repr": "M09",
    "value": -9,
    "spoken": "minus nine"
  },
  "relative_humidity": 0.2743321195349019,
  "remarks_info": {
    "maximum_temperature_6": null,
    "minimum_temperature_6": null,
    "pressure_tendency": null,
    "precip_36_hours": null,
    "precip_24_hours": null,
    "sunshine_minutes": null,
    "codes": [
      {
        "repr": "AO2",
        "value": "Automated with precipitation sensor"
      }
    ],
    "dewpoint_decimal": {
      "repr": "1089",
      "value": -8.9,
      "spoken": "minus eight point nine"
    },
    "maximum_temperature_24": null,
    "minimum_temperature_24": null,
    "precip_hourly": null,
    "sea_level_pressure": {
      "repr": "SLP313",
      "value": 1031.3,
      "spoken": "one zero three one point three"
    },
    "snow_depth": null,
    "temperature_decimal": {
      "repr": "0089",
      "value": 8.9,
      "spoken": "eight point nine"
    }
  },
  "runway_visibility": [],
  "temperature": {
    "repr": "09",
    "value": 9,
    "spoken": "nine"
  },
  "wind_variable_direction": [],
  "density_altitude": -1031,
  "pressure_altitude": -340,
  "units": {
    "accumulation": "in",
    "altimeter": "inHg",
    "altitude": "ft",
    "temperature": "C",
    "visibility": "sm",
    "wind_speed": "kt"
  }
}
