{
  "meta": {
    "timestamp": "2023-06-05T00:31:36.246033Z",
    "stations_updated": "2023-05-30"
  },
  "altimeter": {
    "repr": "A3021",
    "value": 30.21,
    "spoken": "three zero point two one"
  },
  "clouds": [],
  "flight_rules": "VFR",
  "other": [],
  "visibility": {
    "repr": "10",
    "value": 10,
    "spoken": "one zero"
  },
  "wind_direction": {
    "repr": "290",
    "value": 290,
    "spoken": "two nine zero"
  },
  "wind_gust": null,
  "wind_speed": {
    "repr": "08",
    "value": 8,
    "spoken": "eight"
  },
  "wx_codes": [],
  "raw": "KBLI 042353Z 29008KT 260V320 10SM CLR 19/04 A3021 RMK AO2 SLP235 T01940039 10194 20167 58012",
  "sanitized": "KBLI 042353Z 29008KT 260V320 10SM 19/04 A3021 RMK AO2 SLP235 T01940039 10194 20167 58012",
  "station": "KBLI",
  "time": {
    "repr": "042353Z",
    "dt": "2023-06-04T23:53:00Z"
  },
  "remarks": "RMK AO2 SLP235 T01940039 10194 20167 58012",
  "dewpoint": {
    "repr": "04",
    "value": 4,
    "spoken": "four"
  },
  "relative_humidity": 0.358666847273703,
  "remarks_info": {
    "maximum_temperature_6": {
      "repr": "10194",
      "value": 19.4,
      "spoken": "one nine point four"
    },
    "minimum_temperature_6": {
      "repr": "20167",
      "value": 16.7,
      "spoken": "one six point seven"
    },
    "pressure_tendency": {
      "repr": "58012",
      "tendency": "Steady or increasing, then decreasing",
      "change": 1.2
    },
    "precip_36_hours": null,
    "precip_24_hours": null,
    "sunshine_minutes": null,
    "codes": [
      {
        "repr": "AO2",
        "value": "Automated with precipitation sensor"
      }
    ],
    "dewpoint_decimal": {
      "repr": "0039",
      "value": 3.9,
      "spoken": "three point nine"
    },
    "maximum_temperature_24": null,
    "minimum_temperature_24": null,
    "precip_hourly": null,
    "sea_level_pressure": {
      "repr": "SLP235",
      "value": 1023.5,
      "spoken": "one zero two three point five"
    },
    "snow_depth": null,
    "temperature_decimal": {
      "repr": "0194",
      "value": 19.4,
      "spoken": "one nine point four"
    }
  },
  "runway_visibility": [],
  "temperature": {
    "repr": "19",
    "value": 19,
    "spoken": "one nine"
  },
  "wind_variable_direction": [
    {
      "repr": "260",
      "value": 260,
      "spoken": "two six zero"
    },
    {
      "repr": "320",
      "value": 320,
      "spoken": "three two zero"
    }
  ],
  "density_altitude": 449,
  "pressure_altitude": -120,
  "units": {
    "accumulation": "in",
    "altimeter": "inHg",
    "altitude": "ft",
    "temperature": "C",
    "visibility": "sm",
    "wind_speed": "kt"
  }
}
