{
  "altimeter": {
    "repr": "A3008",
    "spoken": "three zero point zero eight",
    "value": 30.08
  },
  "clouds": [
    {
      "altitude": 7,
      "modifier": null,
      "repr": "FEW007",
      "type": "FEW"
    },
    {
      "altitude": 45,
      "modifier": null,
      "repr": "BKN045",
      "type": "BKN"
    }
  ],
  "density_altitude": -549,
  "dewpoint": {
    "repr": "10",
    "spoken": "one zero",
    "value": 10
  },
  "flight_rules": "VFR",
  "meta": {
    "cache-timestamp": "2024-10-15T15:42:24.490000Z",
    "stations_updated": "2024-06-12",
    "timestamp": "2024-10-15T15:42:47.988296Z"
  },
  "other": [],
  "pressure_altitude": 10,
  "raw": "KBLI 151453Z 00000KT 10SM FEW007 BKN045 10/10 A3008 RMK AO2 SLP193 T01000100 58009",
  "relative_humidity": 1,
  "remarks": "RMK AO2 SLP193 T01000100 58009",
  "remarks_info": {
    "codes": [
      {
        "repr": "AO2",
        "value": "Automated with precipitation sensor"
      }
    ],
    "dewpoint_decimal": {
      "repr": "0100",
      "spoken": "one zero point zero",
      "value": 10
    },
    "maximum_temperature_24": null,
    "maximum_temperature_6": null,
    "minimum_temperature_24": null,
    "minimum_temperature_6": null,
    "precip_24_hours": null,
    "precip_36_hours": null,
    "precip_hourly": null,
    "pressure_tendency": {
      "change": 0.9,
      "repr": "58009",
      "tendency": "Steady or increasing, then decreasing"
    },
    "sea_level_pressure": {
      "repr": "SLP193",
      "spoken": "one zero one nine point three",
      "value": 1019.3
    },
    "snow_depth": null,
    "sunshine_minutes": null,
    "temperature_decimal": {
      "repr": "0100",
      "spoken": "one zero point zero",
      "value": 10
    }
  },
  "runway_visibility": [],
  "sanitized": "KBLI 151453Z 00000KT 10SM FEW007 BKN045 10/10 A3008 RMK AO2 SLP193 T01000100 58009",
  "station": "KBLI",
  "temperature": {
    "repr": "10",
    "spoken": "one zero",
    "value": 10
  },
  "time": {
    "dt": "2024-10-15T14:53:00Z",
    "repr": "151453Z"
  },
  "units": {
    "accumulation": "in",
    "altimeter": "inHg",
    "altitude": "ft",
    "temperature": "C",
    "visibility": "sm",
    "wind_speed": "kt"
  },
  "visibility": {
    "repr": "10",
    "spoken": "one zero",
    "value": 10
  },
  "wind_direction": {
    "repr": "000",
    "spoken": "zero zero zero",
    "value": 0
  },
  "wind_gust": null,
  "wind_speed": {
    "repr": "00",
    "spoken": "zero",
    "value": 0
  },
  "wind_variable_direction": [],
  "wx_codes": []
}
