{
  "altimeter": {
    "repr": "A3060",
    "spoken": "three zero point six zero",
    "value": 30.6
  },
  "clouds": [],
  "density_altitude": -2533,
  "dewpoint": {
    "repr": "M06",
    "spoken": "minus six",
    "value": -6
  },
  "flight_rules": "VFR",
  "meta": {
    "stations_updated": "2024-12-02",
    "timestamp": "2025-01-20T12:13:12.864503Z"
  },
  "other": [],
  "pressure_altitude": -510,
  "raw": "KBLI 201153Z AUTO 00000KT 10SM CLR M02/M06 A3060 RMK AO2 SLP372 T10221061 10033 21033 53003",
  "relative_humidity": 0.7460752527882474,
  "remarks": "RMK AO2 SLP372 T10221061 10033 21033 53003",
  "remarks_info": {
    "codes": [
      {
        "repr": "AO2",
        "value": "Automated with precipitation sensor"
      }
    ],
    "dewpoint_decimal": {
      "repr": "1061",
      "spoken": "minus six point one",
      "value": -6.1
    },
    "maximum_temperature_24": null,
    "maximum_temperature_6": {
      "repr": "10033",
      "spoken": "three point three",
      "value": 3.3
    },
    "minimum_temperature_24": null,
    "minimum_temperature_6": {
      "repr": "21033",
      "spoken": "minus three point three",
      "value": -3.3
    },
    "precip_24_hours": null,
    "precip_36_hours": null,
    "precip_hourly": null,
    "pressure_tendency": {
      "change": 0.3,
      "repr": "53003",
      "tendency": "Decreasing or steady, then increasing"
    },
    "sea_level_pressure": {
      "repr": "SLP372",
      "spoken": "one zero three seven point two",
      "value": 1037.2
    },
    "snow_depth": null,
    "sunshine_minutes": null,
    "temperature_decimal": {
      "repr": "1022",
      "spoken": "minus two point two",
      "value": -2.2
    }
  },
  "runway_visibility": [],
  "sanitized": "KBLI 201153Z 00000KT 10SM M02/M06 A3060 RMK AO2 SLP372 T10221061 10033 21033 53003",
  "station": "KBLI",
  "temperature": {
    "repr": "M02",
    "spoken": "minus two",
    "value": -2
  },
  "time": {
    "dt": "2025-01-20T11:53:00Z",
    "repr": "201153Z"
  },
  "units": {
    "accumulation": "in",
    "altimeter": "inHg",
    "altitude": "ft",
    "temperature": "C",
    "visibility": "sm",
    "wind_speed": "kt"
  },
  "visibility": {
    "repr": "10",
    "spoken": "one zero",
    "value": 10
  },
  "wind_direction": {
    "repr": "000",
    "spoken": "zero zero zero",
    "value": 0
  },
  "wind_gust": null,
  "wind_speed": {
    "repr": "00",
    "spoken": "zero",
    "value": 0
  },
  "wind_variable_direction": [],
  "wx_codes": []
}
