{
  "meta": {
    "timestamp": "2022-12-01T14:02:45.912025Z",
    "stations_updated": "2022-09-05"
  },
  "altimeter": {
    "repr": "A2964",
    "value": 29.64,
    "spoken": "two nine point six four"
  },
  "clouds": [
    {
      "repr": "BKN120",
      "type": "BKN",
      "altitude": 120,
      "modifier": null
    }
  ],
  "flight_rules": "VFR",
  "other": [],
  "visibility": {
    "repr": "10",
    "value": 10,
    "spoken": "one zero"
  },
  "wind_direction": {
    "repr": "030",
    "value": 30,
    "spoken": "zero three zero"
  },
  "wind_gust": {
    "repr": "22",
    "value": 22,
    "spoken": "two two"
  },
  "wind_speed": {
    "repr": "15",
    "value": 15,
    "spoken": "one five"
  },
  "wx_codes": [],
  "raw": "KBLI 011353Z AUTO 03015G22KT 10SM BKN120 M03/M09 A2964 RMK AO2 PK WND 02029/1340 SLP047 T10331094",
  "sanitized": "KBLI 011353Z 03015G22KT 10SM BKN120 M03/M09 A2964 RMK AO2 PK WND 02029/1340 SLP047 T10331094",
  "station": "KBLI",
  "time": {
    "repr": "011353Z",
    "dt": "2022-12-01T13:53:00Z"
  },
  "remarks": "RMK AO2 PK WND 02029/1340 SLP047 T10331094",
  "dewpoint": {
    "repr": "M09",
    "value": -9,
    "spoken": "minus nine"
  },
  "relative_humidity": 0.6270323777890147,
  "remarks_info": {
    "maximum_temperature_6": null,
    "minimum_temperature_6": null,
    "pressure_tendency": null,
    "precip_36_hours": null,
    "precip_24_hours": null,
    "sunshine_minutes": null,
    "codes": [
      {
        "repr": "AO2",
        "value": "Automated with precipitation sensor"
      }
    ],
    "dewpoint_decimal": {
      "repr": "1094",
      "value": -9.4,
      "spoken": "minus nine point four"
    },
    "maximum_temperature_24": null,
    "minimum_temperature_24": null,
    "precip_hourly": null,
    "sea_level_pressure": {
      "repr": "SLP047",
      "value": 1004.7,
      "spoken": "one zero zero four point seven"
    },
    "snow_depth": null,
    "temperature_decimal": {
      "repr": "1033",
      "value": -3.3,
      "spoken": "minus three point three"
    }
  },
  "runway_visibility": [],
  "temperature": {
    "repr": "M03",
    "value": -3,
    "spoken": "minus three"
  },
  "wind_variable_direction": [],
  "density_altitude": -1705,
  "pressure_altitude": 450,
  "units": {
    "accumulation": "in",
    "altimeter": "inHg",
    "altitude": "ft",
    "temperature": "C",
    "visibility": "sm",
    "wind_speed": "kt"
  }
}
