{
  "meta": {
    "timestamp": "2022-12-10T14:40:39.499298Z",
    "stations_updated": "2022-09-05"
  },
  "altimeter": {
    "repr": "A2927",
    "value": 29.27,
    "spoken": "two nine point two seven"
  },
  "clouds": [
    {
      "repr": "BKN035",
      "type": "BKN",
      "altitude": 35,
      "modifier": null
    },
    {
      "repr": "OVC070",
      "type": "OVC",
      "altitude": 70,
      "modifier": null
    }
  ],
  "flight_rules": "VFR",
  "other": [],
  "visibility": {
    "repr": "10",
    "value": 10,
    "spoken": "one zero"
  },
  "wind_direction": {
    "repr": "140",
    "value": 140,
    "spoken": "one four zero"
  },
  "wind_gust": {
    "repr": "31",
    "value": 31,
    "spoken": "three one"
  },
  "wind_speed": {
    "repr": "19",
    "value": 19,
    "spoken": "one nine"
  },
  "wx_codes": [],
  "raw": "KBLI 101353Z AUTO 14019G31KT 10SM BKN035 OVC070 09/04 A2927 RMK AO2 PK WND 14031/1353 SLP921 T00890039",
  "sanitized": "KBLI 101353Z 14019G31KT 10SM BKN035 OVC070 09/04 A2927 RMK AO2 PK WND 14031/1353 SLP921 T00890039",
  "station": "KBLI",
  "time": {
    "repr": "101353Z",
    "dt": "2022-12-10T13:53:00Z"
  },
  "remarks": "RMK AO2 PK WND 14031/1353 SLP921 T00890039",
  "dewpoint": {
    "repr": "04",
    "value": 4,
    "spoken": "four"
  },
  "relative_humidity": 0.7085592369885465,
  "remarks_info": {
    "maximum_temperature_6": null,
    "minimum_temperature_6": null,
    "pressure_tendency": null,
    "precip_36_hours": null,
    "precip_24_hours": null,
    "sunshine_minutes": null,
    "codes": [
      {
        "repr": "AO2",
        "value": "Automated with precipitation sensor"
      }
    ],
    "dewpoint_decimal": {
      "repr": "0039",
      "value": 3.9,
      "spoken": "three point nine"
    },
    "maximum_temperature_24": null,
    "minimum_temperature_24": null,
    "precip_hourly": null,
    "sea_level_pressure": {
      "repr": "SLP921",
      "value": 992.1,
      "spoken": "nine nine two point one"
    },
    "snow_depth": null,
    "temperature_decimal": {
      "repr": "0089",
      "value": 8.9,
      "spoken": "eight point nine"
    }
  },
  "runway_visibility": [],
  "temperature": {
    "repr": "09",
    "value": 9,
    "spoken": "nine"
  },
  "wind_variable_direction": [],
  "density_altitude": 129,
  "pressure_altitude": 820,
  "units": {
    "accumulation": "in",
    "altimeter": "inHg",
    "altitude": "ft",
    "temperature": "C",
    "visibility": "sm",
    "wind_speed": "kt"
  }
}
