{
  "meta": {
    "timestamp": "2022-12-22T08:06:46.572114Z",
    "stations_updated": "2022-09-05"
  },
  "altimeter": {
    "repr": "A3064",
    "value": 30.64,
    "spoken": "three zero point six four"
  },
  "clouds": [],
  "flight_rules": "VFR",
  "other": [],
  "visibility": {
    "repr": "7",
    "value": 7,
    "spoken": "seven"
  },
  "wind_direction": {
    "repr": "040",
    "value": 40,
    "spoken": "zero four zero"
  },
  "wind_gust": {
    "repr": "30",
    "value": 30,
    "spoken": "three zero"
  },
  "wind_speed": {
    "repr": "18",
    "value": 18,
    "spoken": "one eight"
  },
  "wx_codes": [],
  "raw": "KBLI 220753Z AUTO 04018G30KT 7SM CLR M11/M22 A3064 RMK AO2 PK WND 03036/0718 SLP389 T11111217 410831117",
  "sanitized": "KBLI 220753Z 04018G30KT 7SM M11/M22 A3064 RMK AO2 PK WND 03036/0718 SLP389 T11111217 410831117",
  "station": "KBLI",
  "time": {
    "repr": "220753Z",
    "dt": "2022-12-22T07:53:00Z"
  },
  "remarks": "RMK AO2 PK WND 03036/0718 SLP389 T11111217 410831117",
  "dewpoint": {
    "repr": "M22",
    "value": -22,
    "spoken": "minus two two"
  },
  "relative_humidity": 0.41279790107302444,
  "remarks_info": {
    "maximum_temperature_6": null,
    "minimum_temperature_6": null,
    "pressure_tendency": null,
    "precip_36_hours": null,
    "precip_24_hours": null,
    "sunshine_minutes": null,
    "codes": [
      {
        "repr": "AO2",
        "value": "Automated with precipitation sensor"
      }
    ],
    "dewpoint_decimal": {
      "repr": "1217",
      "value": -21.7,
      "spoken": "minus two one point seven"
    },
    "maximum_temperature_24": {
      "repr": "1083",
      "value": -8.3,
      "spoken": "minus eight point three"
    },
    "minimum_temperature_24": {
      "repr": "1117",
      "value": -11.7,
      "spoken": "minus one one point seven"
    },
    "precip_hourly": null,
    "sea_level_pressure": {
      "repr": "SLP389",
      "value": 1038.9,
      "spoken": "one zero three eight point nine"
    },
    "snow_depth": null,
    "temperature_decimal": {
      "repr": "1111",
      "value": -11.1,
      "spoken": "minus one one point one"
    }
  },
  "runway_visibility": [],
  "temperature": {
    "repr": "M11",
    "value": -11,
    "spoken": "minus one one"
  },
  "wind_variable_direction": [],
  "density_altitude": -3641,
  "pressure_altitude": -550,
  "units": {
    "accumulation": "in",
    "altimeter": "inHg",
    "altitude": "ft",
    "temperature": "C",
    "visibility": "sm",
    "wind_speed": "kt"
  }
}
