{
  "meta": {
    "timestamp": "2022-11-08T02:36:59.545417Z",
    "stations_updated": "2022-09-05"
  },
  "altimeter": {
    "repr": "A2974",
    "value": 29.74,
    "spoken": "two nine point seven four"
  },
  "clouds": [
    {
      "repr": "BKN045",
      "type": "BKN",
      "altitude": 45,
      "modifier": null
    },
    {
      "repr": "OVC070",
      "type": "OVC",
      "altitude": 70,
      "modifier": null
    }
  ],
  "flight_rules": "VFR",
  "other": [],
  "visibility": {
    "repr": "9",
    "value": 9,
    "spoken": "nine"
  },
  "wind_direction": {
    "repr": "040",
    "value": 40,
    "spoken": "zero four zero"
  },
  "wind_gust": {
    "repr": "30",
    "value": 30,
    "spoken": "three zero"
  },
  "wind_speed": {
    "repr": "17",
    "value": 17,
    "spoken": "one seven"
  },
  "wx_codes": [
    {
      "repr": "-SN",
      "value": "Light Snow"
    }
  ],
  "raw": "KBLI 080153Z 04017G30KT 9SM -SN BKN045 OVC070 01/M08 A2974 RMK AO2 PK WND 03038/0101 SLP080 P0000 T00111083",
  "sanitized": "KBLI 080153Z 04017G30KT 9SM -SN BKN045 OVC070 01/M08 A2974 RMK AO2 PK WND 03038/0101 SLP080 P0000 T00111083",
  "station": "KBLI",
  "time": {
    "repr": "080153Z",
    "dt": "2022-11-08T01:53:00Z"
  },
  "remarks": "RMK AO2 PK WND 03038/0101 SLP080 P0000 T00111083",
  "dewpoint": {
    "repr": "M08",
    "value": -8,
    "spoken": "minus eight"
  },
  "relative_humidity": 0.4950863410825104,
  "remarks_info": {
    "maximum_temperature_6": null,
    "minimum_temperature_6": null,
    "pressure_tendency": null,
    "precip_36_hours": null,
    "precip_24_hours": null,
    "sunshine_minutes": null,
    "codes": [
      {
        "repr": "AO2",
        "value": "Automated with precipitation sensor"
      },
      {
        "repr": "P0000",
        "value": "Trace amount of rain in the last hour"
      }
    ],
    "dewpoint_decimal": {
      "repr": "1083",
      "value": -8.3,
      "spoken": "minus eight point three"
    },
    "maximum_temperature_24": null,
    "minimum_temperature_24": null,
    "precip_hourly": null,
    "sea_level_pressure": {
      "repr": "SLP080",
      "value": 1008,
      "spoken": "one zero zero eight point zero"
    },
    "snow_depth": null,
    "temperature_decimal": {
      "repr": "0011",
      "value": 1.1,
      "spoken": "one point one"
    }
  },
  "runway_visibility": [],
  "temperature": {
    "repr": "01",
    "value": 1,
    "spoken": "one"
  },
  "wind_variable_direction": [],
  "density_altitude": -1277,
  "pressure_altitude": 350,
  "units": {
    "accumulation": "in",
    "altimeter": "inHg",
    "altitude": "ft",
    "temperature": "C",
    "visibility": "sm",
    "wind_speed": "kt"
  }
}
