{
  "altimeter": {
    "repr": "A2986",
    "spoken": "two nine point eight six",
    "value": 29.86
  },
  "clouds": [
    {
      "altitude": 90,
      "modifier": null,
      "repr": "FEW090",
      "type": "FEW"
    }
  ],
  "density_altitude": -1133,
  "dewpoint": {
    "repr": "M06",
    "spoken": "minus six",
    "value": -6
  },
  "flight_rules": "VFR",
  "meta": {
    "cache-timestamp": "2024-02-27T06:26:05.266000Z",
    "stations_updated": "2024-01-01",
    "timestamp": "2024-02-27T06:26:47.351395Z"
  },
  "other": [],
  "pressure_altitude": 230,
  "raw": "KBLI 270553Z 26007G17KT 220V310 10SM FEW090 03/M06 A2986 RMK AO2 SLP121 60000 T00331061 10039 20022 51010",
  "relative_humidity": 0.5014259174598125,
  "remarks": "RMK AO2 SLP121 60000 T00331061 10039 20022 51010",
  "remarks_info": {
    "codes": [
      {
        "repr": "AO2",
        "value": "Automated with precipitation sensor"
      }
    ],
    "dewpoint_decimal": {
      "repr": "1061",
      "spoken": "minus six point one",
      "value": -6.1
    },
    "maximum_temperature_24": null,
    "maximum_temperature_6": {
      "repr": "10039",
      "spoken": "three point nine",
      "value": 3.9
    },
    "minimum_temperature_24": null,
    "minimum_temperature_6": {
      "repr": "20022",
      "spoken": "two point two",
      "value": 2.2
    },
    "precip_24_hours": null,
    "precip_36_hours": {
      "repr": "60000",
      "spoken": "zero",
      "value": 0
    },
    "precip_hourly": null,
    "pressure_tendency": {
      "change": 1,
      "repr": "51010",
      "tendency": "Increasing, then steady"
    },
    "sea_level_pressure": {
      "repr": "SLP121",
      "spoken": "one zero one two point one",
      "value": 1012.1
    },
    "snow_depth": null,
    "sunshine_minutes": null,
    "temperature_decimal": {
      "repr": "0033",
      "spoken": "three point three",
      "value": 3.3
    }
  },
  "runway_visibility": [],
  "sanitized": "KBLI 270553Z 26007G17KT 220V310 10SM FEW090 03/M06 A2986 RMK AO2 SLP121 60000 T00331061 10039 20022 51010",
  "station": "KBLI",
  "temperature": {
    "repr": "03",
    "spoken": "three",
    "value": 3
  },
  "time": {
    "dt": "2024-02-27T05:53:00Z",
    "repr": "270553Z"
  },
  "units": {
    "accumulation": "in",
    "altimeter": "inHg",
    "altitude": "ft",
    "temperature": "C",
    "visibility": "sm",
    "wind_speed": "kt"
  },
  "visibility": {
    "repr": "10",
    "spoken": "one zero",
    "value": 10
  },
  "wind_direction": {
    "repr": "260",
    "spoken": "two six zero",
    "value": 260
  },
  "wind_gust": {
    "repr": "17",
    "spoken": "one seven",
    "value": 17
  },
  "wind_speed": {
    "repr": "07",
    "spoken": "seven",
    "value": 7
  },
  "wind_variable_direction": [
    {
      "repr": "220",
      "spoken": "two two zero",
      "value": 220
    },
    {
      "repr": "310",
      "spoken": "three one zero",
      "value": 310
    }
  ],
  "wx_codes": []
}
