{
  "meta": {
    "timestamp": "2022-12-27T21:40:35.485713Z",
    "stations_updated": "2022-09-05"
  },
  "altimeter": {
    "repr": "A2891",
    "value": 28.91,
    "spoken": "two eight point nine one"
  },
  "clouds": [
    {
      "repr": "OVC070",
      "type": "OVC",
      "altitude": 70,
      "modifier": null
    }
  ],
  "flight_rules": "VFR",
  "other": [],
  "visibility": {
    "repr": "10",
    "value": 10,
    "spoken": "one zero"
  },
  "wind_direction": {
    "repr": "170",
    "value": 170,
    "spoken": "one seven zero"
  },
  "wind_gust": {
    "repr": "30",
    "value": 30,
    "spoken": "three zero"
  },
  "wind_speed": {
    "repr": "15",
    "value": 15,
    "spoken": "one five"
  },
  "wx_codes": [],
  "raw": "KBLI 272053Z 17015G30KT 10SM OVC070 12/08 A2891 RMK AO2 PK WND 16041/2013 RAE36 SLP796 P0000 60000 T01170078 53017",
  "sanitized": "KBLI 272053Z 17015G30KT 10SM OVC070 12/08 A2891 RMK AO2 PK WND 16041/2013 RAE36 SLP796 P0000 60000 T01170078 53017",
  "station": "KBLI",
  "time": {
    "repr": "272053Z",
    "dt": "2022-12-27T20:53:00Z"
  },
  "remarks": "RMK AO2 PK WND 16041/2013 RAE36 SLP796 P0000 60000 T01170078 53017",
  "dewpoint": {
    "repr": "08",
    "value": 8,
    "spoken": "eight"
  },
  "relative_humidity": 0.7697775130100308,
  "remarks_info": {
    "maximum_temperature_6": null,
    "minimum_temperature_6": null,
    "pressure_tendency": {
      "repr": "53017",
      "tendency": "Decreasing or steady, then increasing",
      "change": 1.7
    },
    "precip_36_hours": {
      "repr": "60000",
      "value": 0,
      "spoken": "zero"
    },
    "precip_24_hours": null,
    "sunshine_minutes": null,
    "codes": [
      {
        "repr": "AO2",
        "value": "Automated with precipitation sensor"
      },
      {
        "repr": "P0000",
        "value": "Trace amount of rain in the last hour"
      },
      {
        "repr": "RAE36",
        "value": "Rain ended at :36"
      }
    ],
    "dewpoint_decimal": {
      "repr": "0078",
      "value": 7.8,
      "spoken": "seven point eight"
    },
    "maximum_temperature_24": null,
    "minimum_temperature_24": null,
    "precip_hourly": null,
    "sea_level_pressure": {
      "repr": "SLP796",
      "value": 979.6,
      "spoken": "nine seven nine point six"
    },
    "snow_depth": null,
    "temperature_decimal": {
      "repr": "0117",
      "value": 11.7,
      "spoken": "one one point seven"
    }
  },
  "runway_visibility": [],
  "temperature": {
    "repr": "12",
    "value": 12,
    "spoken": "one two"
  },
  "wind_variable_direction": [],
  "density_altitude": 825,
  "pressure_altitude": 1180,
  "units": {
    "accumulation": "in",
    "altimeter": "inHg",
    "altitude": "ft",
    "temperature": "C",
    "visibility": "sm",
    "wind_speed": "kt"
  }
}
