{
  "meta": {
    "timestamp": "2022-10-31T06:08:42.069424Z",
    "stations_updated": "2022-09-05"
  },
  "altimeter": {
    "repr": "A2988",
    "value": 29.88,
    "spoken": "two nine point eight eight"
  },
  "clouds": [
    {
      "repr": "OVC050",
      "type": "OVC",
      "altitude": 50,
      "modifier": null
    }
  ],
  "flight_rules": "VFR",
  "other": [],
  "visibility": {
    "repr": "9",
    "value": 9,
    "spoken": "nine"
  },
  "wind_direction": {
    "repr": "190",
    "value": 190,
    "spoken": "one nine zero"
  },
  "wind_gust": null,
  "wind_speed": {
    "repr": "05",
    "value": 5,
    "spoken": "five"
  },
  "wx_codes": [
    {
      "repr": "-RA",
      "value": "Light Rain"
    }
  ],
  "raw": "KBLI 310553Z AUTO 19005KT 9SM -RA OVC050 11/11 A2988 RMK AO2 SLP125 P0004 60059 T01060106 10111 20106 58016",
  "sanitized": "KBLI 310553Z 19005KT 9SM -RA OVC050 11/11 A2988 RMK AO2 SLP125 P0004 60059 T01060106 10111 20106 58016",
  "station": "KBLI",
  "time": {
    "repr": "310553Z",
    "dt": "2022-10-31T05:53:00Z"
  },
  "remarks": "RMK AO2 SLP125 P0004 60059 T01060106 10111 20106 58016",
  "dewpoint": {
    "repr": "11",
    "value": 11,
    "spoken": "one one"
  },
  "relative_humidity": 1,
  "remarks_info": {
    "maximum_temperature_6": {
      "repr": "10111",
      "value": 11.1,
      "spoken": "one one point one"
    },
    "minimum_temperature_6": {
      "repr": "20106",
      "value": 10.6,
      "spoken": "one zero point six"
    },
    "pressure_tendency": {
      "repr": "58016",
      "tendency": "Steady or increasing, then decreasing",
      "change": 1.6
    },
    "precip_36_hours": {
      "repr": "60059",
      "value": 0.59,
      "spoken": "zero point five nine"
    },
    "precip_24_hours": null,
    "sunshine_minutes": null,
    "codes": [
      {
        "repr": "AO2",
        "value": "Automated with precipitation sensor"
      }
    ],
    "dewpoint_decimal": {
      "repr": "0106",
      "value": 10.6,
      "spoken": "one zero point six"
    },
    "maximum_temperature_24": null,
    "minimum_temperature_24": null,
    "precip_hourly": {
      "repr": "P0004",
      "value": 0.04,
      "spoken": "zero point zero four"
    },
    "sea_level_pressure": {
      "repr": "SLP125",
      "value": 1012.5,
      "spoken": "one zero one two point five"
    },
    "snow_depth": null,
    "temperature_decimal": {
      "repr": "0106",
      "value": 10.6,
      "spoken": "one zero point six"
    }
  },
  "runway_visibility": [],
  "temperature": {
    "repr": "11",
    "value": 11,
    "spoken": "one one"
  },
  "wind_variable_direction": [],
  "density_altitude": -277,
  "pressure_altitude": 210,
  "units": {
    "accumulation": "in",
    "altimeter": "inHg",
    "altitude": "ft",
    "temperature": "C",
    "visibility": "sm",
    "wind_speed": "kt"
  }
}
