{
  "meta": {
    "timestamp": "2023-02-03T21:01:19.222659Z",
    "stations_updated": "2023-01-30"
  },
  "altimeter": {
    "repr": "A2979",
    "value": 29.79,
    "spoken": "two nine point seven nine"
  },
  "clouds": [
    {
      "repr": "SCT090",
      "type": "SCT",
      "altitude": 90,
      "modifier": null
    },
    {
      "repr": "BKN100",
      "type": "BKN",
      "altitude": 100,
      "modifier": null
    }
  ],
  "flight_rules": "VFR",
  "other": [],
  "visibility": {
    "repr": "10",
    "value": 10,
    "spoken": "one zero"
  },
  "wind_direction": {
    "repr": "170",
    "value": 170,
    "spoken": "one seven zero"
  },
  "wind_gust": {
    "repr": "32",
    "value": 32,
    "spoken": "three two"
  },
  "wind_speed": {
    "repr": "18",
    "value": 18,
    "spoken": "one eight"
  },
  "wx_codes": [],
  "raw": "KBLI 032053Z 17018G32KT 10SM SCT090 BKN100 09/03 A2979 RMK AO2 PK WND 17032/2047 SLP095 T00940028 56005",
  "sanitized": "KBLI 032053Z 17018G32KT 10SM SCT090 BKN100 09/03 A2979 RMK AO2 PK WND 17032/2047 SLP095 T00940028 56005",
  "station": "KBLI",
  "time": {
    "repr": "032053Z",
    "dt": "2023-02-03T20:53:00Z"
  },
  "remarks": "RMK AO2 PK WND 17032/2047 SLP095 T00940028 56005",
  "dewpoint": {
    "repr": "03",
    "value": 3,
    "spoken": "three"
  },
  "relative_humidity": 0.6338794725921372,
  "remarks_info": {
    "maximum_temperature_6": null,
    "minimum_temperature_6": null,
    "pressure_tendency": {
      "repr": "56005",
      "tendency": "Decreasing, then steady",
      "change": 0.5
    },
    "precip_36_hours": null,
    "precip_24_hours": null,
    "sunshine_minutes": null,
    "codes": [
      {
        "repr": "AO2",
        "value": "Automated with precipitation sensor"
      }
    ],
    "dewpoint_decimal": {
      "repr": "0028",
      "value": 2.8,
      "spoken": "two point eight"
    },
    "maximum_temperature_24": null,
    "minimum_temperature_24": null,
    "precip_hourly": null,
    "sea_level_pressure": {
      "repr": "SLP095",
      "value": 1009.5,
      "spoken": "one zero zero nine point five"
    },
    "snow_depth": null,
    "temperature_decimal": {
      "repr": "0094",
      "value": 9.4,
      "spoken": "nine point four"
    }
  },
  "runway_visibility": [],
  "temperature": {
    "repr": "09",
    "value": 9,
    "spoken": "nine"
  },
  "wind_variable_direction": [],
  "density_altitude": -331,
  "pressure_altitude": 300,
  "units": {
    "accumulation": "in",
    "altimeter": "inHg",
    "altitude": "ft",
    "temperature": "C",
    "visibility": "sm",
    "wind_speed": "kt"
  }
}
