{
  "altimeter": {
    "repr": "A2982",
    "spoken": "two nine point eight two",
    "value": 29.82
  },
  "clouds": [
    {
      "altitude": 16,
      "modifier": null,
      "repr": "OVC016",
      "type": "OVC"
    }
  ],
  "density_altitude": 107,
  "dewpoint": {
    "repr": "12",
    "spoken": "one two",
    "value": 12
  },
  "flight_rules": "MVFR",
  "meta": {
    "stations_updated": "2024-06-12",
    "timestamp": "2024-09-17T15:29:04.031970Z"
  },
  "other": [],
  "pressure_altitude": 270,
  "raw": "KBLI 171453Z 17010KT 10SM OVC016 13/12 A2982 RMK AO2 SLP106 T01330117 53004",
  "relative_humidity": 0.9002830457837466,
  "remarks": "RMK AO2 SLP106 T01330117 53004",
  "remarks_info": {
    "codes": [
      {
        "repr": "AO2",
        "value": "Automated with precipitation sensor"
      }
    ],
    "dewpoint_decimal": {
      "repr": "0117",
      "spoken": "one one point seven",
      "value": 11.7
    },
    "maximum_temperature_24": null,
    "maximum_temperature_6": null,
    "minimum_temperature_24": null,
    "minimum_temperature_6": null,
    "precip_24_hours": null,
    "precip_36_hours": null,
    "precip_hourly": null,
    "pressure_tendency": {
      "change": 0.4,
      "repr": "53004",
      "tendency": "Decreasing or steady, then increasing"
    },
    "sea_level_pressure": {
      "repr": "SLP106",
      "spoken": "one zero one zero point six",
      "value": 1010.6
    },
    "snow_depth": null,
    "sunshine_minutes": null,
    "temperature_decimal": {
      "repr": "0133",
      "spoken": "one three point three",
      "value": 13.3
    }
  },
  "runway_visibility": [],
  "sanitized": "KBLI 171453Z 17010KT 10SM OVC016 13/12 A2982 RMK AO2 SLP106 T01330117 53004",
  "station": "KBLI",
  "temperature": {
    "repr": "13",
    "spoken": "one three",
    "value": 13
  },
  "time": {
    "dt": "2024-09-17T14:53:00Z",
    "repr": "171453Z"
  },
  "units": {
    "accumulation": "in",
    "altimeter": "inHg",
    "altitude": "ft",
    "temperature": "C",
    "visibility": "sm",
    "wind_speed": "kt"
  },
  "visibility": {
    "repr": "10",
    "spoken": "one zero",
    "value": 10
  },
  "wind_direction": {
    "repr": "170",
    "spoken": "one seven zero",
    "value": 170
  },
  "wind_gust": null,
  "wind_speed": {
    "repr": "10",
    "spoken": "one zero",
    "value": 10
  },
  "wind_variable_direction": [],
  "wx_codes": []
}
