{
  "altimeter": {
    "repr": "A2982",
    "spoken": "two nine point eight two",
    "value": 29.82
  },
  "clouds": [
    {
      "altitude": 16,
      "modifier": null,
      "repr": "SCT016",
      "type": "SCT"
    },
    {
      "altitude": 24,
      "modifier": null,
      "repr": "BKN024",
      "type": "BKN"
    },
    {
      "altitude": 34,
      "modifier": null,
      "repr": "OVC034",
      "type": "OVC"
    }
  ],
  "density_altitude": -553,
  "dewpoint": {
    "repr": "07",
    "spoken": "seven",
    "value": 7
  },
  "flight_rules": "MVFR",
  "meta": {
    "cache-timestamp": "2024-02-25T14:40:05.142000Z",
    "stations_updated": "2024-01-01",
    "timestamp": "2024-02-25T14:40:43.680196Z"
  },
  "other": [],
  "pressure_altitude": 270,
  "raw": "KBLI 251353Z AUTO 18009G17KT 4SM RA BR SCT016 BKN024 OVC034 08/07 A2982 RMK AO2 SLP105 P0014 T00780067",
  "relative_humidity": 0.9274887710023534,
  "remarks": "RMK AO2 SLP105 P0014 T00780067",
  "remarks_info": {
    "codes": [
      {
        "repr": "AO2",
        "value": "Automated with precipitation sensor"
      }
    ],
    "dewpoint_decimal": {
      "repr": "0067",
      "spoken": "six point seven",
      "value": 6.7
    },
    "maximum_temperature_24": null,
    "maximum_temperature_6": null,
    "minimum_temperature_24": null,
    "minimum_temperature_6": null,
    "precip_24_hours": null,
    "precip_36_hours": null,
    "precip_hourly": {
      "repr": "P0014",
      "spoken": "zero point one four",
      "value": 0.14
    },
    "pressure_tendency": null,
    "sea_level_pressure": {
      "repr": "SLP105",
      "spoken": "one zero one zero point five",
      "value": 1010.5
    },
    "snow_depth": null,
    "sunshine_minutes": null,
    "temperature_decimal": {
      "repr": "0078",
      "spoken": "seven point eight",
      "value": 7.8
    }
  },
  "runway_visibility": [],
  "sanitized": "KBLI 251353Z 18009G17KT 4SM RA BR SCT016 BKN024 OVC034 08/07 A2982 RMK AO2 SLP105 P0014 T00780067",
  "station": "KBLI",
  "temperature": {
    "repr": "08",
    "spoken": "eight",
    "value": 8
  },
  "time": {
    "dt": "2024-02-25T13:53:00Z",
    "repr": "251353Z"
  },
  "units": {
    "accumulation": "in",
    "altimeter": "inHg",
    "altitude": "ft",
    "temperature": "C",
    "visibility": "sm",
    "wind_speed": "kt"
  },
  "visibility": {
    "repr": "4",
    "spoken": "four",
    "value": 4
  },
  "wind_direction": {
    "repr": "180",
    "spoken": "one eight zero",
    "value": 180
  },
  "wind_gust": {
    "repr": "17",
    "spoken": "one seven",
    "value": 17
  },
  "wind_speed": {
    "repr": "09",
    "spoken": "nine",
    "value": 9
  },
  "wind_variable_direction": [],
  "wx_codes": [
    {
      "repr": "RA",
      "value": "Rain"
    },
    {
      "repr": "BR",
      "value": "Mist"
    }
  ]
}
