{
  "altimeter": {
    "repr": "A2974",
    "spoken": "two nine point seven four",
    "value": 29.74
  },
  "clouds": [
    {
      "altitude": 2,
      "modifier": null,
      "repr": "VV002",
      "type": "VV"
    }
  ],
  "density_altitude": -1013,
  "dewpoint": {
    "repr": "03",
    "spoken": "three",
    "value": 3
  },
  "flight_rules": "LIFR",
  "meta": {
    "cache-timestamp": "2024-03-24T14:40:04.775000Z",
    "stations_updated": "2024-01-01",
    "timestamp": "2024-03-24T14:40:40.768806Z"
  },
  "other": [
    "M14KT"
  ],
  "pressure_altitude": 350,
  "raw": "KBLI 241430Z 00000KT M1/4SM R16/1000V1400FT FG VV002 03/03 A2974 RMK AO2 T00330033 $",
  "relative_humidity": 1,
  "remarks": "RMK AO2 T00330033 $",
  "remarks_info": {
    "codes": [
      {
        "repr": "$",
        "value": "ASOS requires maintenance"
      },
      {
        "repr": "AO2",
        "value": "Automated with precipitation sensor"
      }
    ],
    "dewpoint_decimal": {
      "repr": "0033",
      "spoken": "three point three",
      "value": 3.3
    },
    "maximum_temperature_24": null,
    "maximum_temperature_6": null,
    "minimum_temperature_24": null,
    "minimum_temperature_6": null,
    "precip_24_hours": null,
    "precip_36_hours": null,
    "precip_hourly": null,
    "pressure_tendency": null,
    "sea_level_pressure": null,
    "snow_depth": null,
    "sunshine_minutes": null,
    "temperature_decimal": {
      "repr": "0033",
      "spoken": "three point three",
      "value": 3.3
    }
  },
  "runway_visibility": [
    {
      "repr": "R16/1000V1400FT",
      "runway": "16",
      "trend": null,
      "variable_visibility": [
        {
          "repr": "1000",
          "spoken": "one thousand",
          "value": 1000
        },
        {
          "repr": "1400",
          "spoken": "one four hundred",
          "value": 1400
        }
      ],
      "visibility": null
    }
  ],
  "sanitized": "KBLI 241430Z 00000KT M14KT R16/1000V1400FT FG VV002 03/03 A2974 RMK AO2 T00330033 $",
  "station": "KBLI",
  "temperature": {
    "repr": "03",
    "spoken": "three",
    "value": 3
  },
  "time": {
    "dt": "2024-03-24T14:30:00Z",
    "repr": "241430Z"
  },
  "units": {
    "accumulation": "in",
    "altimeter": "inHg",
    "altitude": "ft",
    "temperature": "C",
    "visibility": "sm",
    "wind_speed": "kt"
  },
  "visibility": null,
  "wind_direction": {
    "repr": "000",
    "spoken": "zero zero zero",
    "value": 0
  },
  "wind_gust": null,
  "wind_speed": {
    "repr": "00",
    "spoken": "zero",
    "value": 0
  },
  "wind_variable_direction": [],
  "wx_codes": [
    {
      "repr": "FG",
      "value": "Fog"
    }
  ]
}
