{
  "altimeter": {
    "repr": "A3022",
    "spoken": "three zero point two two",
    "value": 30.22
  },
  "clouds": [],
  "density_altitude": -617,
  "dewpoint": {
    "repr": "M04",
    "spoken": "minus four",
    "value": -4
  },
  "flight_rules": "VFR",
  "meta": {
    "cache-timestamp": "2024-04-19T05:04:02.382000Z",
    "stations_updated": "2024-01-01",
    "timestamp": "2024-04-19T05:04:16.811476Z"
  },
  "other": [],
  "pressure_altitude": -130,
  "raw": "KBLI 190353Z 34005KT 10SM CLR 11/M04 A3022 RMK AO2 SLP240 T01061039",
  "relative_humidity": 0.3588911621966308,
  "remarks": "RMK AO2 SLP240 T01061039",
  "remarks_info": {
    "codes": [
      {
        "repr": "AO2",
        "value": "Automated with precipitation sensor"
      }
    ],
    "dewpoint_decimal": {
      "repr": "1039",
      "spoken": "minus three point nine",
      "value": -3.9
    },
    "maximum_temperature_24": null,
    "maximum_temperature_6": null,
    "minimum_temperature_24": null,
    "minimum_temperature_6": null,
    "precip_24_hours": null,
    "precip_36_hours": null,
    "precip_hourly": null,
    "pressure_tendency": null,
    "sea_level_pressure": {
      "repr": "SLP240",
      "spoken": "one zero two four point zero",
      "value": 1024
    },
    "snow_depth": null,
    "sunshine_minutes": null,
    "temperature_decimal": {
      "repr": "0106",
      "spoken": "one zero point six",
      "value": 10.6
    }
  },
  "runway_visibility": [],
  "sanitized": "KBLI 190353Z 34005KT 10SM 11/M04 A3022 RMK AO2 SLP240 T01061039",
  "station": "KBLI",
  "temperature": {
    "repr": "11",
    "spoken": "one one",
    "value": 11
  },
  "time": {
    "dt": "2024-04-19T03:53:00Z",
    "repr": "190353Z"
  },
  "units": {
    "accumulation": "in",
    "altimeter": "inHg",
    "altitude": "ft",
    "temperature": "C",
    "visibility": "sm",
    "wind_speed": "kt"
  },
  "visibility": {
    "repr": "10",
    "spoken": "one zero",
    "value": 10
  },
  "wind_direction": {
    "repr": "340",
    "spoken": "three four zero",
    "value": 340
  },
  "wind_gust": null,
  "wind_speed": {
    "repr": "05",
    "spoken": "five",
    "value": 5
  },
  "wind_variable_direction": [],
  "wx_codes": []
}
