{
  "meta": {
    "timestamp": "2023-10-15T12:38:39.869431Z",
    "stations_updated": "2023-10-01",
    "cache-timestamp": "2023-10-15T12:38:35.262000Z"
  },
  "altimeter": {
    "repr": "A3015",
    "value": 30.15,
    "spoken": "three zero point one five"
  },
  "clouds": [
    {
      "repr": "SCT095",
      "type": "SCT",
      "altitude": 95,
      "modifier": null
    }
  ],
  "flight_rules": "VFR",
  "other": [],
  "visibility": {
    "repr": "10",
    "value": 10,
    "spoken": "one zero"
  },
  "wind_direction": {
    "repr": "140",
    "value": 140,
    "spoken": "one four zero"
  },
  "wind_gust": null,
  "wind_speed": {
    "repr": "08",
    "value": 8,
    "spoken": "eight"
  },
  "wx_codes": [],
  "raw": "KBLI 151153Z AUTO 14008KT 10SM SCT095 15/09 A3015 RMK AO2 SLP215 60000 70002 T01500089 10161 20144 53010",
  "sanitized": "KBLI 151153Z 14008KT 10SM SCT095 15/09 A3015 RMK AO2 SLP215 60000 70002 T01500089 10161 20144 53010",
  "station": "KBLI",
  "time": {
    "repr": "151153Z",
    "dt": "2023-10-15T11:53:00Z"
  },
  "remarks": "RMK AO2 SLP215 60000 70002 T01500089 10161 20144 53010",
  "dewpoint": {
    "repr": "09",
    "value": 9,
    "spoken": "nine"
  },
  "relative_humidity": 0.6688015040627373,
  "remarks_info": {
    "maximum_temperature_6": {
      "repr": "10161",
      "value": 16.1,
      "spoken": "one six point one"
    },
    "minimum_temperature_6": {
      "repr": "20144",
      "value": 14.4,
      "spoken": "one four point four"
    },
    "pressure_tendency": {
      "repr": "53010",
      "tendency": "Decreasing or steady, then increasing",
      "change": 1
    },
    "precip_36_hours": {
      "repr": "60000",
      "value": 0,
      "spoken": "zero"
    },
    "precip_24_hours": {
      "repr": "70002",
      "value": 0.02,
      "spoken": "zero point zero two"
    },
    "sunshine_minutes": null,
    "codes": [
      {
        "repr": "AO2",
        "value": "Automated with precipitation sensor"
      }
    ],
    "dewpoint_decimal": {
      "repr": "0089",
      "value": 8.9,
      "spoken": "eight point nine"
    },
    "maximum_temperature_24": null,
    "minimum_temperature_24": null,
    "precip_hourly": null,
    "sea_level_pressure": {
      "repr": "SLP215",
      "value": 1021.5,
      "spoken": "one zero two one point five"
    },
    "snow_depth": null,
    "temperature_decimal": {
      "repr": "0150",
      "value": 15,
      "spoken": "one five point zero"
    }
  },
  "runway_visibility": [],
  "temperature": {
    "repr": "15",
    "value": 15,
    "spoken": "one five"
  },
  "wind_variable_direction": [],
  "density_altitude": -19,
  "pressure_altitude": -60,
  "units": {
    "accumulation": "in",
    "altimeter": "inHg",
    "altitude": "ft",
    "temperature": "C",
    "visibility": "sm",
    "wind_speed": "kt"
  }
}
