{
  "meta": {
    "timestamp": "2023-10-19T22:01:16.549603Z",
    "stations_updated": "2023-10-01"
  },
  "altimeter": {
    "repr": "A3005",
    "value": 30.05,
    "spoken": "three zero point zero five"
  },
  "clouds": [
    {
      "repr": "FEW031",
      "type": "FEW",
      "altitude": 31,
      "modifier": null
    },
    {
      "repr": "BKN038",
      "type": "BKN",
      "altitude": 38,
      "modifier": null
    },
    {
      "repr": "OVC048",
      "type": "OVC",
      "altitude": 48,
      "modifier": null
    }
  ],
  "flight_rules": "VFR",
  "other": [],
  "visibility": {
    "repr": "7",
    "value": 7,
    "spoken": "seven"
  },
  "wind_direction": {
    "repr": "200",
    "value": 200,
    "spoken": "two zero zero"
  },
  "wind_gust": null,
  "wind_speed": {
    "repr": "07",
    "value": 7,
    "spoken": "seven"
  },
  "wx_codes": [
    {
      "repr": "-RA",
      "value": "Light Rain"
    }
  ],
  "raw": "KBLI 192153Z 20007KT 7SM -RA FEW031 BKN038 OVC048 14/14 A3005 RMK AO2 RAE2058B36 SLP181 P0001 T01440139 KBLI 192053Z 20007KT 9SM -RA OVC039 14/14 A3006 RMK AO2 SLP186 P0001 60002 T01440139 50003 KBLI 192003Z 19008KT 10SM -RA FEW009 OVC037 14/13 A3007 RMK AO2 P0000 T01390133",
  "sanitized": "KBLI 192153Z 20007KT 7SM -RA FEW031 BKN038 OVC048 14/14 A3005 RMK AO2 RAE2058B36 SLP181 P0001 T01440139 KBLI 192053Z 20007KT 9SM -RA OVC039 14/14 A3006 RMK AO2 SLP186 P0001 60002 T01440139 50003 KBLI 192003Z 19008KT 10SM -RA FEW009 OVC037 14/13 A3007 RMK AO2 P0000 T01390133",
  "station": "KBLI",
  "time": {
    "repr": "192153Z",
    "dt": "2023-10-19T21:53:00Z"
  },
  "remarks": "RMK AO2 RAE2058B36 SLP181 P0001 T01440139 KBLI 192053Z 20007KT 9SM -RA OVC039 14/14 A3006 RMK AO2 SLP186 P0001 60002 T01440139 50003 KBLI 192003Z 19008KT 10SM -RA FEW009 OVC037 14/13 A3007 RMK AO2 P0000 T01390133",
  "dewpoint": {
    "repr": "14",
    "value": 14,
    "spoken": "one four"
  },
  "relative_humidity": 0.9616972468637218,
  "remarks_info": {
    "maximum_temperature_6": null,
    "minimum_temperature_6": null,
    "pressure_tendency": {
      "repr": "50003",
      "tendency": "Increasing, then decreasing",
      "change": 0.3
    },
    "precip_36_hours": {
      "repr": "60002",
      "value": 0.02,
      "spoken": "zero point zero two"
    },
    "precip_24_hours": null,
    "sunshine_minutes": null,
    "codes": [
      {
        "repr": "AO2",
        "value": "Automated with precipitation sensor"
      },
      {
        "repr": "AO2",
        "value": "Automated with precipitation sensor"
      },
      {
        "repr": "AO2",
        "value": "Automated with precipitation sensor"
      },
      {
        "repr": "P0000",
        "value": "Trace amount of rain in the last hour"
      }
    ],
    "dewpoint_decimal": {
      "repr": "0133",
      "value": 13.3,
      "spoken": "one three point three"
    },
    "maximum_temperature_24": null,
    "minimum_temperature_24": null,
    "precip_hourly": {
      "repr": "P0001",
      "value": 0.01,
      "spoken": "zero point zero one"
    },
    "sea_level_pressure": {
      "repr": "SLP181",
      "value": 1018.1,
      "spoken": "one zero one eight point one"
    },
    "snow_depth": null,
    "temperature_decimal": {
      "repr": "0139",
      "value": 13.9,
      "spoken": "one three point nine"
    }
  },
  "runway_visibility": [],
  "temperature": {
    "repr": "14",
    "value": 14,
    "spoken": "one four"
  },
  "wind_variable_direction": [],
  "density_altitude": -51,
  "pressure_altitude": 40,
  "units": {
    "accumulation": "in",
    "altimeter": "inHg",
    "altitude": "ft",
    "temperature": "C",
    "visibility": "sm",
    "wind_speed": "kt"
  }
}
