{
  "meta": {
    "timestamp": "2023-10-20T14:01:33.137845Z",
    "stations_updated": "2023-10-01"
  },
  "altimeter": {
    "repr": "A3007",
    "value": 30.07,
    "spoken": "three zero point zero seven"
  },
  "clouds": [
    {
      "repr": "SCT004",
      "type": "SCT",
      "altitude": 4,
      "modifier": null
    },
    {
      "repr": "OVC010",
      "type": "OVC",
      "altitude": 10,
      "modifier": null
    }
  ],
  "flight_rules": "MVFR",
  "other": [],
  "visibility": {
    "repr": "9",
    "value": 9,
    "spoken": "nine"
  },
  "wind_direction": {
    "repr": "280",
    "value": 280,
    "spoken": "two eight zero"
  },
  "wind_gust": null,
  "wind_speed": {
    "repr": "05",
    "value": 5,
    "spoken": "five"
  },
  "wx_codes": [],
  "raw": "KBLI 201353Z 28005KT 9SM SCT004 OVC010 12/11 A3007 RMK AO2 CIG 008V013 SLP189 T01170111 KBLI 201324Z AUTO 00000KT 4SM BR OVC002 12/12 A3006 RMK AO2 T01220122 KBLI 201314Z AUTO 00000KT 2SM R16/5000VP6000FT BR OVC002 12/12 A3006 RMK AO2 T01220122 KBLI 201253Z AUTO 00000KT 3/4SM R16/2800V3000FT BR VV003 12/12 A3006 RMK AO2 SLP187 T01220122 KBLI 201225Z AUTO 20003KT 1/2SM R16/2400V4000FT FG VV002 12/12 A3007 RMK AO2 T01220122",
  "sanitized": "KBLI 201353Z 28005KT 9SM SCT004 OVC010 12/11 A3007 RMK AO2 CIG 008V013 SLP189 T01170111 KBLI 201324Z AUTO 00000KT 4SM BR OVC002 12/12 A3006 RMK AO2 T01220122 KBLI 201314Z AUTO 00000KT 2SM R16/5000VP6000FT BR OVC002 12/12 A3006 RMK AO2 T01220122 KBLI 201253Z AUTO 00000KT 3/4SM R16/2800V3000FT BR VV003 12/12 A3006 RMK AO2 SLP187 T01220122 KBLI 201225Z AUTO 20003KT 1/2SM R16/2400V4000FT FG VV002 12/12 A3007 RMK AO2 T01220122",
  "station": "KBLI",
  "time": {
    "repr": "201353Z",
    "dt": "2023-10-20T13:53:00Z"
  },
  "remarks": "RMK AO2 CIG 008V013 SLP189 T01170111 KBLI 201324Z AUTO 00000KT 4SM BR OVC002 12/12 A3006 RMK AO2 T01220122 KBLI 201314Z AUTO 00000KT 2SM R16/5000VP6000FT BR OVC002 12/12 A3006 RMK AO2 T01220122 KBLI 201253Z AUTO 00000KT 3/4SM R16/2800V3000FT BR VV003 12/12 A3006 RMK AO2 SLP187 T01220122 KBLI 201225Z AUTO 20003KT 1/2SM R16/2400V4000FT FG VV002 12/12 A3007 RMK AO2 T01220122",
  "dewpoint": {
    "repr": "11",
    "value": 11,
    "spoken": "one one"
  },
  "relative_humidity": 1,
  "remarks_info": {
    "maximum_temperature_6": null,
    "minimum_temperature_6": null,
    "pressure_tendency": null,
    "precip_36_hours": null,
    "precip_24_hours": null,
    "sunshine_minutes": null,
    "codes": [
      {
        "repr": "AO2",
        "value": "Automated with precipitation sensor"
      },
      {
        "repr": "AO2",
        "value": "Automated with precipitation sensor"
      },
      {
        "repr": "AO2",
        "value": "Automated with precipitation sensor"
      },
      {
        "repr": "AO2",
        "value": "Automated with precipitation sensor"
      },
      {
        "repr": "AO2",
        "value": "Automated with precipitation sensor"
      }
    ],
    "dewpoint_decimal": {
      "repr": "0122",
      "value": 12.2,
      "spoken": "one two point two"
    },
    "maximum_temperature_24": null,
    "minimum_temperature_24": null,
    "precip_hourly": null,
    "sea_level_pressure": {
      "repr": "SLP189",
      "value": 1018.9,
      "spoken": "one zero one eight point nine"
    },
    "snow_depth": null,
    "temperature_decimal": {
      "repr": "0122",
      "value": 12.2,
      "spoken": "one two point two"
    }
  },
  "runway_visibility": [],
  "temperature": {
    "repr": "12",
    "value": 12,
    "spoken": "one two"
  },
  "wind_variable_direction": [],
  "density_altitude": -275,
  "pressure_altitude": 20,
  "units": {
    "accumulation": "in",
    "altimeter": "inHg",
    "altitude": "ft",
    "temperature": "C",
    "visibility": "sm",
    "wind_speed": "kt"
  }
}
