{
  "meta": {
    "timestamp": "2022-12-17T17:40:40.423486Z",
    "stations_updated": "2022-09-05"
  },
  "altimeter": {
    "repr": "A3007",
    "value": 30.07,
    "spoken": "three zero point zero seven"
  },
  "clouds": [
    {
      "repr": "BKN007",
      "type": "BKN",
      "altitude": 7,
      "modifier": null
    },
    {
      "repr": "OVC015",
      "type": "OVC",
      "altitude": 15,
      "modifier": null
    }
  ],
  "flight_rules": "IFR",
  "other": [],
  "visibility": {
    "repr": "2",
    "value": 2,
    "spoken": "two"
  },
  "wind_direction": {
    "repr": "000",
    "value": 0,
    "spoken": "zero zero zero"
  },
  "wind_gust": null,
  "wind_speed": {
    "repr": "00",
    "value": 0,
    "spoken": "zero"
  },
  "wx_codes": [
    {
      "repr": "-RA",
      "value": "Light Rain"
    },
    {
      "repr": "BR",
      "value": "Mist"
    }
  ],
  "raw": "KBLI 171718Z 00000KT 2SM -RA BR BKN007 OVC015 02/02 A3007 RMK AO2 RAB1655 P0000 I1000 T00170017 $",
  "sanitized": "KBLI 171718Z 00000KT 2SM -RA BR BKN007 OVC015 02/02 A3007 RMK AO2 RAB1655 P0000 I1000 T00170017 $",
  "station": "KBLI",
  "time": {
    "repr": "171718Z",
    "dt": "2022-12-17T17:18:00Z"
  },
  "remarks": "RMK AO2 RAB1655 P0000 I1000 T00170017 $",
  "dewpoint": {
    "repr": "02",
    "value": 2,
    "spoken": "two"
  },
  "relative_humidity": 1,
  "remarks_info": {
    "maximum_temperature_6": null,
    "minimum_temperature_6": null,
    "pressure_tendency": null,
    "precip_36_hours": null,
    "precip_24_hours": null,
    "sunshine_minutes": null,
    "codes": [
      {
        "repr": "$",
        "value": "ASOS requires maintenance"
      },
      {
        "repr": "AO2",
        "value": "Automated with precipitation sensor"
      },
      {
        "repr": "P0000",
        "value": "Trace amount of rain in the last hour"
      }
    ],
    "dewpoint_decimal": {
      "repr": "0017",
      "value": 1.7,
      "spoken": "one point seven"
    },
    "maximum_temperature_24": null,
    "minimum_temperature_24": null,
    "precip_hourly": null,
    "sea_level_pressure": null,
    "snow_depth": null,
    "temperature_decimal": {
      "repr": "0017",
      "value": 1.7,
      "spoken": "one point seven"
    }
  },
  "runway_visibility": [],
  "temperature": {
    "repr": "02",
    "value": 2,
    "spoken": "two"
  },
  "wind_variable_direction": [],
  "density_altitude": -1535,
  "pressure_altitude": 20,
  "units": {
    "accumulation": "in",
    "altimeter": "inHg",
    "altitude": "ft",
    "temperature": "C",
    "visibility": "sm",
    "wind_speed": "kt"
  }
}
