{
  "meta": {
    "timestamp": "2022-12-28T12:08:26.929737Z",
    "stations_updated": "2022-09-05",
    "cache-timestamp": "2022-12-28T12:08:10.095000Z"
  },
  "altimeter": {
    "repr": "A2958",
    "value": 29.58,
    "spoken": "two nine point five eight"
  },
  "clouds": [],
  "flight_rules": "VFR",
  "other": [],
  "visibility": {
    "repr": "10",
    "value": 10,
    "spoken": "one zero"
  },
  "wind_direction": {
    "repr": "210",
    "value": 210,
    "spoken": "two one zero"
  },
  "wind_gust": {
    "repr": "15",
    "value": 15,
    "spoken": "one five"
  },
  "wind_speed": {
    "repr": "10",
    "value": 10,
    "spoken": "one zero"
  },
  "wx_codes": [],
  "raw": "KBLI 281153Z AUTO 21010G15KT 10SM CLR 07/05 A2958 RMK AO2 SLP026 60017 70057 T00720050 10078 20072 51034",
  "sanitized": "KBLI 281153Z 21010G15KT 10SM 07/05 A2958 RMK AO2 SLP026 60017 70057 T00720050 10078 20072 51034",
  "station": "KBLI",
  "time": {
    "repr": "281153Z",
    "dt": "2022-12-28T11:53:00Z"
  },
  "remarks": "RMK AO2 SLP026 60017 70057 T00720050 10078 20072 51034",
  "dewpoint": {
    "repr": "05",
    "value": 5,
    "spoken": "five"
  },
  "relative_humidity": 0.8590382146577359,
  "remarks_info": {
    "maximum_temperature_6": {
      "repr": "10078",
      "value": 7.8,
      "spoken": "seven point eight"
    },
    "minimum_temperature_6": {
      "repr": "20072",
      "value": 7.2,
      "spoken": "seven point two"
    },
    "pressure_tendency": {
      "repr": "51034",
      "tendency": "Increasing, then steady",
      "change": 3.4
    },
    "precip_36_hours": {
      "repr": "60017",
      "value": 0.17,
      "spoken": "zero point one seven"
    },
    "precip_24_hours": {
      "repr": "70057",
      "value": 0.57,
      "spoken": "zero point five seven"
    },
    "sunshine_minutes": null,
    "codes": [
      {
        "repr": "AO2",
        "value": "Automated with precipitation sensor"
      }
    ],
    "dewpoint_decimal": {
      "repr": "0050",
      "value": 5,
      "spoken": "five point zero"
    },
    "maximum_temperature_24": null,
    "minimum_temperature_24": null,
    "precip_hourly": null,
    "sea_level_pressure": {
      "repr": "SLP026",
      "value": 1002.6,
      "spoken": "one zero zero two point six"
    },
    "snow_depth": null,
    "temperature_decimal": {
      "repr": "0072",
      "value": 7.2,
      "spoken": "seven point two"
    }
  },
  "runway_visibility": [],
  "temperature": {
    "repr": "07",
    "value": 7,
    "spoken": "seven"
  },
  "wind_variable_direction": [],
  "density_altitude": -385,
  "pressure_altitude": 510,
  "units": {
    "accumulation": "in",
    "altimeter": "inHg",
    "altitude": "ft",
    "temperature": "C",
    "visibility": "sm",
    "wind_speed": "kt"
  }
}
