{
  "meta": {
    "timestamp": "2022-10-24T21:35:56.211012Z",
    "stations_updated": "2022-09-05"
  },
  "altimeter": {
    "repr": "A2991",
    "value": 29.91,
    "spoken": "two nine point nine one"
  },
  "clouds": [
    {
      "repr": "FEW016",
      "type": "FEW",
      "altitude": 16,
      "modifier": null
    },
    {
      "repr": "SCT022",
      "type": "SCT",
      "altitude": 22,
      "modifier": null
    }
  ],
  "flight_rules": "VFR",
  "other": [],
  "visibility": {
    "repr": "10",
    "value": 10,
    "spoken": "one zero"
  },
  "wind_direction": {
    "repr": "190",
    "value": 190,
    "spoken": "one nine zero"
  },
  "wind_gust": {
    "repr": "19",
    "value": 19,
    "spoken": "one nine"
  },
  "wind_speed": {
    "repr": "10",
    "value": 10,
    "spoken": "one zero"
  },
  "wx_codes": [],
  "raw": "KBLI 242053Z 19010G19KT 10SM FEW016 SCT022 13/09 A2991 RMK AO2 SLP136 T01280094 51006",
  "sanitized": "KBLI 242053Z 19010G19KT 10SM FEW016 SCT022 13/09 A2991 RMK AO2 SLP136 T01280094 51006",
  "station": "KBLI",
  "time": {
    "repr": "242053Z",
    "dt": "2022-10-24T20:53:00Z"
  },
  "remarks": "RMK AO2 SLP136 T01280094 51006",
  "dewpoint": {
    "repr": "09",
    "value": 9,
    "spoken": "nine"
  },
  "relative_humidity": 0.7979634918921645,
  "remarks_info": {
    "maximum_temperature_6": null,
    "minimum_temperature_6": null,
    "pressure_tendency": {
      "repr": "51006",
      "tendency": "Increasing, then steady",
      "change": 0.6
    },
    "precip_36_hours": null,
    "precip_24_hours": null,
    "sunshine_minutes": null,
    "codes": [
      {
        "repr": "AO2",
        "value": "Automated with precipitation sensor"
      }
    ],
    "dewpoint_decimal": {
      "repr": "0094",
      "value": 9.4,
      "spoken": "nine point four"
    },
    "maximum_temperature_24": null,
    "minimum_temperature_24": null,
    "precip_hourly": null,
    "sea_level_pressure": {
      "repr": "SLP136",
      "value": 1013.6,
      "spoken": "one zero one three point six"
    },
    "snow_depth": null,
    "temperature_decimal": {
      "repr": "0128",
      "value": 12.8,
      "spoken": "one two point eight"
    }
  },
  "runway_visibility": [],
  "temperature": {
    "repr": "13",
    "value": 13,
    "spoken": "one three"
  },
  "wind_variable_direction": [],
  "density_altitude": -43,
  "pressure_altitude": 180,
  "units": {
    "accumulation": "in",
    "altimeter": "inHg",
    "altitude": "ft",
    "temperature": "C",
    "visibility": "sm",
    "wind_speed": "kt"
  }
}
