{
  "altimeter": {
    "repr": "A3004",
    "spoken": "three zero point zero four",
    "value": 30.04
  },
  "clouds": [
    {
      "altitude": 26,
      "modifier": null,
      "repr": "BKN026",
      "type": "BKN"
    },
    {
      "altitude": 38,
      "modifier": null,
      "repr": "BKN038",
      "type": "BKN"
    },
    {
      "altitude": 55,
      "modifier": null,
      "repr": "OVC055",
      "type": "OVC"
    }
  ],
  "density_altitude": -905,
  "dewpoint": {
    "repr": "04",
    "spoken": "four",
    "value": 4
  },
  "flight_rules": "MVFR",
  "meta": {
    "stations_updated": "2023-10-28",
    "timestamp": "2024-01-04T16:31:29.192259Z"
  },
  "other": [],
  "pressure_altitude": 50,
  "raw": "KBLI 041608Z 14012KT 10SM -RA BKN026 BKN038 OVC055 07/04 A3004 RMK AO2 RAB03 P0000 T00670039",
  "relative_humidity": 0.8231403572695032,
  "remarks": "RMK AO2 RAB03 P0000 T00670039",
  "remarks_info": {
    "codes": [
      {
        "repr": "AO2",
        "value": "Automated with precipitation sensor"
      },
      {
        "repr": "P0000",
        "value": "Trace amount of rain in the last hour"
      },
      {
        "repr": "RAB03",
        "value": "Rain began at :03"
      }
    ],
    "dewpoint_decimal": {
      "repr": "0039",
      "spoken": "three point nine",
      "value": 3.9
    },
    "maximum_temperature_24": null,
    "maximum_temperature_6": null,
    "minimum_temperature_24": null,
    "minimum_temperature_6": null,
    "precip_24_hours": null,
    "precip_36_hours": null,
    "precip_hourly": null,
    "pressure_tendency": null,
    "sea_level_pressure": null,
    "snow_depth": null,
    "sunshine_minutes": null,
    "temperature_decimal": {
      "repr": "0067",
      "spoken": "six point seven",
      "value": 6.7
    }
  },
  "runway_visibility": [],
  "sanitized": "KBLI 041608Z 14012KT 10SM -RA BKN026 BKN038 OVC055 07/04 A3004 RMK AO2 RAB03 P0000 T00670039",
  "station": "KBLI",
  "temperature": {
    "repr": "07",
    "spoken": "seven",
    "value": 7
  },
  "time": {
    "dt": "2024-01-04T16:08:00Z",
    "repr": "041608Z"
  },
  "units": {
    "accumulation": "in",
    "altimeter": "inHg",
    "altitude": "ft",
    "temperature": "C",
    "visibility": "sm",
    "wind_speed": "kt"
  },
  "visibility": {
    "repr": "10",
    "spoken": "one zero",
    "value": 10
  },
  "wind_direction": {
    "repr": "140",
    "spoken": "one four zero",
    "value": 140
  },
  "wind_gust": null,
  "wind_speed": {
    "repr": "12",
    "spoken": "one two",
    "value": 12
  },
  "wind_variable_direction": [],
  "wx_codes": [
    {
      "repr": "-RA",
      "value": "Light Rain"
    }
  ]
}
