{
  "altimeter": {
    "repr": "A3008",
    "spoken": "three zero point zero eight",
    "value": 30.08
  },
  "clouds": [
    {
      "altitude": 65,
      "modifier": null,
      "repr": "BKN065",
      "type": "BKN"
    }
  ],
  "density_altitude": -1545,
  "dewpoint": {
    "repr": "M01",
    "spoken": "minus one",
    "value": -1
  },
  "flight_rules": "VFR",
  "meta": {
    "stations_updated": "2024-10-29",
    "timestamp": "2024-11-26T14:07:32.658843Z"
  },
  "other": [],
  "pressure_altitude": 10,
  "raw": "KBLI 261353Z AUTO 35003KT 10SM BKN065 02/M01 A3008 RMK AO2 SLP197 T00171006",
  "relative_humidity": 0.8469143185291295,
  "remarks": "RMK AO2 SLP197 T00171006",
  "remarks_info": {
    "codes": [
      {
        "repr": "AO2",
        "value": "Automated with precipitation sensor"
      }
    ],
    "dewpoint_decimal": {
      "repr": "1006",
      "spoken": "minus zero point six",
      "value": -0.6
    },
    "maximum_temperature_24": null,
    "maximum_temperature_6": null,
    "minimum_temperature_24": null,
    "minimum_temperature_6": null,
    "precip_24_hours": null,
    "precip_36_hours": null,
    "precip_hourly": null,
    "pressure_tendency": null,
    "sea_level_pressure": {
      "repr": "SLP197",
      "spoken": "one zero one nine point seven",
      "value": 1019.7
    },
    "snow_depth": null,
    "sunshine_minutes": null,
    "temperature_decimal": {
      "repr": "0017",
      "spoken": "one point seven",
      "value": 1.7
    }
  },
  "runway_visibility": [],
  "sanitized": "KBLI 261353Z 35003KT 10SM BKN065 02/M01 A3008 RMK AO2 SLP197 T00171006",
  "station": "KBLI",
  "temperature": {
    "repr": "02",
    "spoken": "two",
    "value": 2
  },
  "time": {
    "dt": "2024-11-26T13:53:00Z",
    "repr": "261353Z"
  },
  "units": {
    "accumulation": "in",
    "altimeter": "inHg",
    "altitude": "ft",
    "temperature": "C",
    "visibility": "sm",
    "wind_speed": "kt"
  },
  "visibility": {
    "repr": "10",
    "spoken": "one zero",
    "value": 10
  },
  "wind_direction": {
    "repr": "350",
    "spoken": "three five zero",
    "value": 350
  },
  "wind_gust": null,
  "wind_speed": {
    "repr": "03",
    "spoken": "three",
    "value": 3
  },
  "wind_variable_direction": [],
  "wx_codes": []
}
