{
  "altimeter": {
    "repr": "A2989",
    "spoken": "two nine point eight nine",
    "value": 29.89
  },
  "clouds": [],
  "density_altitude": 1237,
  "dewpoint": {
    "repr": "08",
    "spoken": "eight",
    "value": 8
  },
  "flight_rules": "VFR",
  "meta": {
    "cache-timestamp": "2024-05-12T00:30:07.517000Z",
    "stations_updated": "2024-01-01",
    "timestamp": "2024-05-12T00:30:49.877317Z"
  },
  "other": [],
  "pressure_altitude": 200,
  "raw": "KBLI 112353Z VRB04KT 10SM CLR 23/08 A2989 RMK AO2 SLP127 T02330083 10239 20183 58017",
  "relative_humidity": 0.3826271279679369,
  "remarks": "RMK AO2 SLP127 T02330083 10239 20183 58017",
  "remarks_info": {
    "codes": [
      {
        "repr": "AO2",
        "value": "Automated with precipitation sensor"
      }
    ],
    "dewpoint_decimal": {
      "repr": "0083",
      "spoken": "eight point three",
      "value": 8.3
    },
    "maximum_temperature_24": null,
    "maximum_temperature_6": {
      "repr": "10239",
      "spoken": "two three point nine",
      "value": 23.9
    },
    "minimum_temperature_24": null,
    "minimum_temperature_6": {
      "repr": "20183",
      "spoken": "one eight point three",
      "value": 18.3
    },
    "precip_24_hours": null,
    "precip_36_hours": null,
    "precip_hourly": null,
    "pressure_tendency": {
      "change": 1.7,
      "repr": "58017",
      "tendency": "Steady or increasing, then decreasing"
    },
    "sea_level_pressure": {
      "repr": "SLP127",
      "spoken": "one zero one two point seven",
      "value": 1012.7
    },
    "snow_depth": null,
    "sunshine_minutes": null,
    "temperature_decimal": {
      "repr": "0233",
      "spoken": "two three point three",
      "value": 23.3
    }
  },
  "runway_visibility": [],
  "sanitized": "KBLI 112353Z VRB04KT 10SM 23/08 A2989 RMK AO2 SLP127 T02330083 10239 20183 58017",
  "station": "KBLI",
  "temperature": {
    "repr": "23",
    "spoken": "two three",
    "value": 23
  },
  "time": {
    "dt": "2024-05-11T23:53:00Z",
    "repr": "112353Z"
  },
  "units": {
    "accumulation": "in",
    "altimeter": "inHg",
    "altitude": "ft",
    "temperature": "C",
    "visibility": "sm",
    "wind_speed": "kt"
  },
  "visibility": {
    "repr": "10",
    "spoken": "one zero",
    "value": 10
  },
  "wind_direction": {
    "repr": "VRB",
    "spoken": "variable",
    "value": null
  },
  "wind_gust": null,
  "wind_speed": {
    "repr": "04",
    "spoken": "four",
    "value": 4
  },
  "wind_variable_direction": [],
  "wx_codes": []
}
