{
  "meta": {
    "timestamp": "2022-12-21T00:24:59.283497Z",
    "stations_updated": "2022-09-05"
  },
  "altimeter": {
    "repr": "A3017",
    "value": 30.17,
    "spoken": "three zero point one seven"
  },
  "clouds": [
    {
      "repr": "OVC018",
      "type": "OVC",
      "altitude": 18,
      "modifier": null
    }
  ],
  "flight_rules": "MVFR",
  "other": [],
  "visibility": {
    "repr": "10",
    "value": 10,
    "spoken": "one zero"
  },
  "wind_direction": {
    "repr": "030",
    "value": 30,
    "spoken": "zero three zero"
  },
  "wind_gust": null,
  "wind_speed": {
    "repr": "09",
    "value": 9,
    "spoken": "nine"
  },
  "wx_codes": [],
  "raw": "KBLI 202353Z 03009KT 10SM OVC018 M07/M11 A3017 RMK AO2 SLP229 60000 T10721106 11067 21094 53015",
  "sanitized": "KBLI 202353Z 03009KT 10SM OVC018 M07/M11 A3017 RMK AO2 SLP229 60000 T10721106 11067 21094 53015",
  "station": "KBLI",
  "time": {
    "repr": "202353Z",
    "dt": "2022-12-20T23:53:00Z"
  },
  "remarks": "RMK AO2 SLP229 60000 T10721106 11067 21094 53015",
  "dewpoint": {
    "repr": "M11",
    "value": -11,
    "spoken": "minus one one"
  },
  "relative_humidity": 0.7665801167230263,
  "remarks_info": {
    "maximum_temperature_6": {
      "repr": "11067",
      "value": -6.7,
      "spoken": "minus six point seven"
    },
    "minimum_temperature_6": {
      "repr": "21094",
      "value": -9.4,
      "spoken": "minus nine point four"
    },
    "pressure_tendency": {
      "repr": "53015",
      "tendency": "Decreasing or steady, then increasing",
      "change": 1.5
    },
    "precip_36_hours": {
      "repr": "60000",
      "value": 0,
      "spoken": "zero"
    },
    "precip_24_hours": null,
    "sunshine_minutes": null,
    "codes": [
      {
        "repr": "AO2",
        "value": "Automated with precipitation sensor"
      }
    ],
    "dewpoint_decimal": {
      "repr": "1106",
      "value": -10.6,
      "spoken": "minus one zero point six"
    },
    "maximum_temperature_24": null,
    "minimum_temperature_24": null,
    "precip_hourly": null,
    "sea_level_pressure": {
      "repr": "SLP229",
      "value": 1022.9,
      "spoken": "one zero two two point nine"
    },
    "snow_depth": null,
    "temperature_decimal": {
      "repr": "1072",
      "value": -7.2,
      "spoken": "minus seven point two"
    }
  },
  "runway_visibility": [],
  "temperature": {
    "repr": "M07",
    "value": -7,
    "spoken": "minus seven"
  },
  "wind_variable_direction": [],
  "density_altitude": -2703,
  "pressure_altitude": -80,
  "units": {
    "accumulation": "in",
    "altimeter": "inHg",
    "altitude": "ft",
    "temperature": "C",
    "visibility": "sm",
    "wind_speed": "kt"
  }
}
