{
  "altimeter": {
    "repr": "A3009",
    "spoken": "three zero point zero nine",
    "value": 30.09
  },
  "clouds": [
    {
      "altitude": 50,
      "modifier": null,
      "repr": "BKN050",
      "type": "BKN"
    }
  ],
  "density_altitude": -1519,
  "dewpoint": {
    "repr": "02",
    "spoken": "two",
    "value": 2
  },
  "flight_rules": "IFR",
  "meta": {
    "cache-timestamp": "2023-12-08T09:02:09.717000Z",
    "stations_updated": "2023-10-28",
    "timestamp": "2023-12-08T09:02:10.749987Z"
  },
  "other": [],
  "pressure_altitude": 0,
  "raw": "KBLI 080851Z AUTO 17003KT 1SM R16/P6000FT BR BKN050 02/02 A3009 RMK AO2",
  "relative_humidity": 1,
  "remarks": "RMK AO2",
  "remarks_info": {
    "codes": [
      {
        "repr": "AO2",
        "value": "Automated with precipitation sensor"
      }
    ],
    "dewpoint_decimal": null,
    "maximum_temperature_24": null,
    "maximum_temperature_6": null,
    "minimum_temperature_24": null,
    "minimum_temperature_6": null,
    "precip_24_hours": null,
    "precip_36_hours": null,
    "precip_hourly": null,
    "pressure_tendency": null,
    "sea_level_pressure": null,
    "snow_depth": null,
    "sunshine_minutes": null,
    "temperature_decimal": null
  },
  "runway_visibility": [
    {
      "repr": "R16/P6000FT",
      "runway": "16",
      "trend": null,
      "variable_visibility": [],
      "visibility": {
        "repr": "P6000",
        "spoken": "greater than six thousand",
        "value": null
      }
    }
  ],
  "sanitized": "KBLI 080851Z 17003KT 1SM R16/P6000FT BR BKN050 02/02 A3009 RMK AO2",
  "station": "KBLI",
  "temperature": {
    "repr": "02",
    "spoken": "two",
    "value": 2
  },
  "time": {
    "dt": "2023-12-08T08:51:00Z",
    "repr": "080851Z"
  },
  "units": {
    "accumulation": "in",
    "altimeter": "inHg",
    "altitude": "ft",
    "temperature": "C",
    "visibility": "sm",
    "wind_speed": "kt"
  },
  "visibility": {
    "repr": "1",
    "spoken": "one",
    "value": 1
  },
  "wind_direction": {
    "repr": "170",
    "spoken": "one seven zero",
    "value": 170
  },
  "wind_gust": null,
  "wind_speed": {
    "repr": "03",
    "spoken": "three",
    "value": 3
  },
  "wind_variable_direction": [],
  "wx_codes": [
    {
      "repr": "BR",
      "value": "Mist"
    }
  ]
}
