{
  "altimeter": {
    "repr": "A2937",
    "spoken": "two nine point three seven",
    "value": 29.37
  },
  "clouds": [
    {
      "altitude": 9,
      "modifier": null,
      "repr": "FEW009",
      "type": "FEW"
    },
    {
      "altitude": 13,
      "modifier": null,
      "repr": "BKN013",
      "type": "BKN"
    },
    {
      "altitude": 26,
      "modifier": null,
      "repr": "OVC026",
      "type": "OVC"
    }
  ],
  "density_altitude": -439,
  "dewpoint": {
    "repr": "03",
    "spoken": "three",
    "value": 3
  },
  "flight_rules": "MVFR",
  "meta": {
    "cache-timestamp": "2024-01-09T17:40:04.342000Z",
    "stations_updated": "2023-10-28",
    "timestamp": "2024-01-09T17:40:33.167835Z"
  },
  "other": [],
  "pressure_altitude": 720,
  "raw": "KBLI 091708Z 19020G38KT 4SM -RA BR FEW009 BKN013 OVC026 05/03 A2937 RMK AO2 PK WND 17040/1654 P0001 T00500033",
  "relative_humidity": 0.8875725932131937,
  "remarks": "RMK AO2 PK WND 17040/1654 P0001 T00500033",
  "remarks_info": {
    "codes": [
      {
        "repr": "AO2",
        "value": "Automated with precipitation sensor"
      }
    ],
    "dewpoint_decimal": {
      "repr": "0033",
      "spoken": "three point three",
      "value": 3.3
    },
    "maximum_temperature_24": null,
    "maximum_temperature_6": null,
    "minimum_temperature_24": null,
    "minimum_temperature_6": null,
    "precip_24_hours": null,
    "precip_36_hours": null,
    "precip_hourly": {
      "repr": "P0001",
      "spoken": "zero point zero one",
      "value": 0.01
    },
    "pressure_tendency": null,
    "sea_level_pressure": null,
    "snow_depth": null,
    "sunshine_minutes": null,
    "temperature_decimal": {
      "repr": "0050",
      "spoken": "five point zero",
      "value": 5
    }
  },
  "runway_visibility": [],
  "sanitized": "KBLI 091708Z 19020G38KT 4SM -RA BR FEW009 BKN013 OVC026 05/03 A2937 RMK AO2 PK WND 17040/1654 P0001 T00500033",
  "station": "KBLI",
  "temperature": {
    "repr": "05",
    "spoken": "five",
    "value": 5
  },
  "time": {
    "dt": "2024-01-09T17:08:00Z",
    "repr": "091708Z"
  },
  "units": {
    "accumulation": "in",
    "altimeter": "inHg",
    "altitude": "ft",
    "temperature": "C",
    "visibility": "sm",
    "wind_speed": "kt"
  },
  "visibility": {
    "repr": "4",
    "spoken": "four",
    "value": 4
  },
  "wind_direction": {
    "repr": "190",
    "spoken": "one nine zero",
    "value": 190
  },
  "wind_gust": {
    "repr": "38",
    "spoken": "three eight",
    "value": 38
  },
  "wind_speed": {
    "repr": "20",
    "spoken": "two zero",
    "value": 20
  },
  "wind_variable_direction": [],
  "wx_codes": [
    {
      "repr": "-RA",
      "value": "Light Rain"
    },
    {
      "repr": "BR",
      "value": "Mist"
    }
  ]
}
