{
  "meta": {
    "timestamp": "2023-01-01T09:02:02.596792Z",
    "stations_updated": "2022-12-27"
  },
  "altimeter": {
    "repr": "A3004",
    "value": 30.04,
    "spoken": "three zero point zero four"
  },
  "clouds": [
    {
      "repr": "BKN024",
      "type": "BKN",
      "altitude": 24,
      "modifier": null
    },
    {
      "repr": "OVC045",
      "type": "OVC",
      "altitude": 45,
      "modifier": null
    }
  ],
  "flight_rules": "MVFR",
  "other": [],
  "visibility": {
    "repr": "10",
    "value": 10,
    "spoken": "one zero"
  },
  "wind_direction": {
    "repr": "200",
    "value": 200,
    "spoken": "two zero zero"
  },
  "wind_gust": null,
  "wind_speed": {
    "repr": "05",
    "value": 5,
    "spoken": "five"
  },
  "wx_codes": [],
  "raw": "KBLI 010853Z AUTO 20005KT 10SM BKN024 OVC045 07/07 A3004 RMK AO2 SLP180 T00720067 51018",
  "sanitized": "KBLI 010853Z 20005KT 10SM BKN024 OVC045 07/07 A3004 RMK AO2 SLP180 T00720067 51018",
  "station": "KBLI",
  "time": {
    "repr": "010853Z",
    "dt": "2023-01-01T08:53:00Z"
  },
  "remarks": "RMK AO2 SLP180 T00720067 51018",
  "dewpoint": {
    "repr": "07",
    "value": 7,
    "spoken": "seven"
  },
  "relative_humidity": 0.9662838843819482,
  "remarks_info": {
    "maximum_temperature_6": null,
    "minimum_temperature_6": null,
    "pressure_tendency": {
      "repr": "51018",
      "tendency": "Increasing, then steady",
      "change": 1.8
    },
    "precip_36_hours": null,
    "precip_24_hours": null,
    "sunshine_minutes": null,
    "codes": [
      {
        "repr": "AO2",
        "value": "Automated with precipitation sensor"
      }
    ],
    "dewpoint_decimal": {
      "repr": "0067",
      "value": 6.7,
      "spoken": "six point seven"
    },
    "maximum_temperature_24": null,
    "minimum_temperature_24": null,
    "precip_hourly": null,
    "sea_level_pressure": {
      "repr": "SLP180",
      "value": 1018,
      "spoken": "one zero one eight point zero"
    },
    "snow_depth": null,
    "temperature_decimal": {
      "repr": "0072",
      "value": 7.2,
      "spoken": "seven point two"
    }
  },
  "runway_visibility": [],
  "temperature": {
    "repr": "07",
    "value": 7,
    "spoken": "seven"
  },
  "wind_variable_direction": [],
  "density_altitude": -845,
  "pressure_altitude": 50,
  "units": {
    "accumulation": "in",
    "altimeter": "inHg",
    "altitude": "ft",
    "temperature": "C",
    "visibility": "sm",
    "wind_speed": "kt"
  }
}
