{
  "meta": {
    "timestamp": "2023-05-05T05:24:55.416358Z",
    "stations_updated": "2023-03-11",
    "cache-timestamp": "2023-05-05T05:24:04.252000Z"
  },
  "altimeter": {
    "repr": "A2975",
    "value": 29.75,
    "spoken": "two nine point seven five"
  },
  "clouds": [
    {
      "repr": "SCT006",
      "type": "SCT",
      "altitude": 6,
      "modifier": null
    },
    {
      "repr": "OVC046",
      "type": "OVC",
      "altitude": 46,
      "modifier": null
    }
  ],
  "flight_rules": "VFR",
  "other": [],
  "visibility": {
    "repr": "10",
    "value": 10,
    "spoken": "one zero"
  },
  "wind_direction": {
    "repr": "170",
    "value": 170,
    "spoken": "one seven zero"
  },
  "wind_gust": {
    "repr": "28",
    "value": 28,
    "spoken": "two eight"
  },
  "wind_speed": {
    "repr": "14",
    "value": 14,
    "spoken": "one four"
  },
  "wx_codes": [],
  "raw": "KBLI 050453Z 17014G28KT 10SM SCT006 OVC046 11/11 A2975 RMK AO2 PK WND 18028/0448 SLP080 T01110111",
  "sanitized": "KBLI 050453Z 17014G28KT 10SM SCT006 OVC046 11/11 A2975 RMK AO2 PK WND 18028/0448 SLP080 T01110111",
  "station": "KBLI",
  "time": {
    "repr": "050453Z",
    "dt": "2023-05-05T04:53:00Z"
  },
  "remarks": "RMK AO2 PK WND 18028/0448 SLP080 T01110111",
  "dewpoint": {
    "repr": "11",
    "value": 11,
    "spoken": "one one"
  },
  "relative_humidity": 1,
  "remarks_info": {
    "maximum_temperature_6": null,
    "minimum_temperature_6": null,
    "pressure_tendency": null,
    "precip_36_hours": null,
    "precip_24_hours": null,
    "sunshine_minutes": null,
    "codes": [
      {
        "repr": "AO2",
        "value": "Automated with precipitation sensor"
      }
    ],
    "dewpoint_decimal": {
      "repr": "0111",
      "value": 11.1,
      "spoken": "one one point one"
    },
    "maximum_temperature_24": null,
    "minimum_temperature_24": null,
    "precip_hourly": null,
    "sea_level_pressure": {
      "repr": "SLP080",
      "value": 1008,
      "spoken": "one zero zero eight point zero"
    },
    "snow_depth": null,
    "temperature_decimal": {
      "repr": "0111",
      "value": 11.1,
      "spoken": "one one point one"
    }
  },
  "runway_visibility": [],
  "temperature": {
    "repr": "11",
    "value": 11,
    "spoken": "one one"
  },
  "wind_variable_direction": [],
  "density_altitude": -87,
  "pressure_altitude": 340,
  "units": {
    "accumulation": "in",
    "altimeter": "inHg",
    "altitude": "ft",
    "temperature": "C",
    "visibility": "sm",
    "wind_speed": "kt"
  }
}
