{
  "meta": {
    "timestamp": "2023-02-21T03:31:56.022382Z",
    "stations_updated": "2023-01-30"
  },
  "altimeter": {
    "repr": "A2967",
    "value": 29.67,
    "spoken": "two nine point six seven"
  },
  "clouds": [
    {
      "repr": "SCT012",
      "type": "SCT",
      "altitude": 12,
      "modifier": null
    },
    {
      "repr": "BKN023",
      "type": "BKN",
      "altitude": 23,
      "modifier": null
    },
    {
      "repr": "BKN030",
      "type": "BKN",
      "altitude": 30,
      "modifier": null
    }
  ],
  "flight_rules": "MVFR",
  "other": [],
  "visibility": {
    "repr": "10",
    "value": 10,
    "spoken": "one zero"
  },
  "wind_direction": {
    "repr": "190",
    "value": 190,
    "spoken": "one nine zero"
  },
  "wind_gust": {
    "repr": "29",
    "value": 29,
    "spoken": "two nine"
  },
  "wind_speed": {
    "repr": "14",
    "value": 14,
    "spoken": "one four"
  },
  "wx_codes": [],
  "raw": "KBLI 210253Z 19014G29KT 10SM SCT012 BKN023 BKN030 09/07 A2967 RMK AO2 PK WND 18029/0252 PRESFR SLP055 60017 T00940067 58060",
  "sanitized": "KBLI 210253Z 19014G29KT 10SM SCT012 BKN023 BKN030 09/07 A2967 RMK AO2 PK WND 18029/0252 PRESFR SLP055 60017 T00940067 58060",
  "station": "KBLI",
  "time": {
    "repr": "210253Z",
    "dt": "2023-02-21T02:53:00Z"
  },
  "remarks": "RMK AO2 PK WND 18029/0252 PRESFR SLP055 60017 T00940067 58060",
  "dewpoint": {
    "repr": "07",
    "value": 7,
    "spoken": "seven"
  },
  "relative_humidity": 0.8322719985957746,
  "remarks_info": {
    "maximum_temperature_6": null,
    "minimum_temperature_6": null,
    "pressure_tendency": {
      "repr": "58060",
      "tendency": "Steady or increasing, then decreasing",
      "change": 6
    },
    "precip_36_hours": {
      "repr": "60017",
      "value": 0.17,
      "spoken": "zero point one seven"
    },
    "precip_24_hours": null,
    "sunshine_minutes": null,
    "codes": [
      {
        "repr": "AO2",
        "value": "Automated with precipitation sensor"
      },
      {
        "repr": "PRESFR",
        "value": "Pressure Falling Rapidly"
      }
    ],
    "dewpoint_decimal": {
      "repr": "0067",
      "value": 6.7,
      "spoken": "six point seven"
    },
    "maximum_temperature_24": null,
    "minimum_temperature_24": null,
    "precip_hourly": null,
    "sea_level_pressure": {
      "repr": "SLP055",
      "value": 1005.5,
      "spoken": "one zero zero five point five"
    },
    "snow_depth": null,
    "temperature_decimal": {
      "repr": "0094",
      "value": 9.4,
      "spoken": "nine point four"
    }
  },
  "runway_visibility": [],
  "temperature": {
    "repr": "09",
    "value": 9,
    "spoken": "nine"
  },
  "wind_variable_direction": [],
  "density_altitude": -211,
  "pressure_altitude": 420,
  "units": {
    "accumulation": "in",
    "altimeter": "inHg",
    "altitude": "ft",
    "temperature": "C",
    "visibility": "sm",
    "wind_speed": "kt"
  }
}
