{
  "altimeter": {
    "repr": "A3002",
    "spoken": "three zero point zero two",
    "value": 30.02
  },
  "clouds": [
    {
      "altitude": 2,
      "modifier": null,
      "repr": "FEW002",
      "type": "FEW"
    }
  ],
  "density_altitude": -93,
  "dewpoint": {
    "repr": "13",
    "spoken": "one three",
    "value": 13
  },
  "flight_rules": "MVFR",
  "meta": {
    "stations_updated": "2024-06-12",
    "timestamp": "2024-09-24T09:29:46.740709Z"
  },
  "other": [],
  "pressure_altitude": 70,
  "raw": "KBLI 240926Z AUTO 00000KT 3SM R16/3500VP6000FT BR FEW002 13/13 A3002 RMK AO2 T01330133",
  "relative_humidity": 1,
  "remarks": "RMK AO2 T01330133",
  "remarks_info": {
    "codes": [
      {
        "repr": "AO2",
        "value": "Automated with precipitation sensor"
      }
    ],
    "dewpoint_decimal": {
      "repr": "0133",
      "spoken": "one three point three",
      "value": 13.3
    },
    "maximum_temperature_24": null,
    "maximum_temperature_6": null,
    "minimum_temperature_24": null,
    "minimum_temperature_6": null,
    "precip_24_hours": null,
    "precip_36_hours": null,
    "precip_hourly": null,
    "pressure_tendency": null,
    "sea_level_pressure": null,
    "snow_depth": null,
    "sunshine_minutes": null,
    "temperature_decimal": {
      "repr": "0133",
      "spoken": "one three point three",
      "value": 13.3
    }
  },
  "runway_visibility": [
    {
      "repr": "R16/3500VP6000FT",
      "runway": "16",
      "trend": null,
      "variable_visibility": [
        {
          "repr": "3500",
          "spoken": "three five hundred",
          "value": 3500
        },
        {
          "repr": "P6000",
          "spoken": "greater than six thousand",
          "value": null
        }
      ],
      "visibility": null
    }
  ],
  "sanitized": "KBLI 240926Z 00000KT 3SM R16/3500VP6000FT BR FEW002 13/13 A3002 RMK AO2 T01330133",
  "station": "KBLI",
  "temperature": {
    "repr": "13",
    "spoken": "one three",
    "value": 13
  },
  "time": {
    "dt": "2024-09-24T09:26:00Z",
    "repr": "240926Z"
  },
  "units": {
    "accumulation": "in",
    "altimeter": "inHg",
    "altitude": "ft",
    "temperature": "C",
    "visibility": "sm",
    "wind_speed": "kt"
  },
  "visibility": {
    "repr": "3",
    "spoken": "three",
    "value": 3
  },
  "wind_direction": {
    "repr": "000",
    "spoken": "zero zero zero",
    "value": 0
  },
  "wind_gust": null,
  "wind_speed": {
    "repr": "00",
    "spoken": "zero",
    "value": 0
  },
  "wind_variable_direction": [],
  "wx_codes": [
    {
      "repr": "BR",
      "value": "Mist"
    }
  ]
}
