{
  "meta": {
    "timestamp": "2023-01-15T22:01:14.283222Z",
    "stations_updated": "2022-12-27"
  },
  "altimeter": {
    "repr": "A2931",
    "value": 29.31,
    "spoken": "two nine point three one"
  },
  "clouds": [
    {
      "repr": "BKN070",
      "type": "BKN",
      "altitude": 70,
      "modifier": null
    }
  ],
  "flight_rules": "VFR",
  "other": [],
  "visibility": {
    "repr": "10",
    "value": 10,
    "spoken": "one zero"
  },
  "wind_direction": {
    "repr": "040",
    "value": 40,
    "spoken": "zero four zero"
  },
  "wind_gust": null,
  "wind_speed": {
    "repr": "04",
    "value": 4,
    "spoken": "four"
  },
  "wx_codes": [],
  "raw": "KBLI 152153Z 04004KT 10SM BKN070 10/07 A2931 RMK AO2 RAB2058E46 SLP934 P0000 T01000072",
  "sanitized": "KBLI 152153Z 04004KT 10SM BKN070 10/07 A2931 RMK AO2 RAB2058E46 SLP934 P0000 T01000072",
  "station": "KBLI",
  "time": {
    "repr": "152153Z",
    "dt": "2023-01-15T21:53:00Z"
  },
  "remarks": "RMK AO2 RAB2058E46 SLP934 P0000 T01000072",
  "dewpoint": {
    "repr": "07",
    "value": 7,
    "spoken": "seven"
  },
  "relative_humidity": 0.8273178222792216,
  "remarks_info": {
    "maximum_temperature_6": null,
    "minimum_temperature_6": null,
    "pressure_tendency": null,
    "precip_36_hours": null,
    "precip_24_hours": null,
    "sunshine_minutes": null,
    "codes": [
      {
        "repr": "AO2",
        "value": "Automated with precipitation sensor"
      },
      {
        "repr": "P0000",
        "value": "Trace amount of rain in the last hour"
      }
    ],
    "dewpoint_decimal": {
      "repr": "0072",
      "value": 7.2,
      "spoken": "seven point two"
    },
    "maximum_temperature_24": null,
    "minimum_temperature_24": null,
    "precip_hourly": null,
    "sea_level_pressure": {
      "repr": "SLP934",
      "value": 993.4,
      "spoken": "nine nine three point four"
    },
    "snow_depth": null,
    "temperature_decimal": {
      "repr": "0100",
      "value": 10,
      "spoken": "one zero point zero"
    }
  },
  "runway_visibility": [],
  "temperature": {
    "repr": "10",
    "value": 10,
    "spoken": "one zero"
  },
  "wind_variable_direction": [],
  "density_altitude": 221,
  "pressure_altitude": 780,
  "units": {
    "accumulation": "in",
    "altimeter": "inHg",
    "altitude": "ft",
    "temperature": "C",
    "visibility": "sm",
    "wind_speed": "kt"
  }
}
