{
  "altimeter": {
    "repr": "A3014",
    "spoken": "three zero point one four",
    "value": 30.14
  },
  "clouds": [],
  "density_altitude": -3477,
  "dewpoint": {
    "repr": "M26",
    "spoken": "minus two six",
    "value": -26
  },
  "flight_rules": "VFR",
  "meta": {
    "cache-timestamp": "2024-01-12T10:40:04.110000Z",
    "stations_updated": "2023-10-28",
    "timestamp": "2024-01-12T10:40:31.168767Z"
  },
  "other": [],
  "pressure_altitude": -50,
  "raw": "KBLI 120953Z AUTO 03026G44KT 10SM CLR M14/M26 A3014 RMK AO2 PK WND 05050/0940 PRESRR SLP218 T11391256",
  "relative_humidity": 0.3655989107163517,
  "remarks": "RMK AO2 PK WND 05050/0940 PRESRR SLP218 T11391256",
  "remarks_info": {
    "codes": [
      {
        "repr": "AO2",
        "value": "Automated with precipitation sensor"
      },
      {
        "repr": "PRESRR",
        "value": "Pressure Rising Rapidly"
      }
    ],
    "dewpoint_decimal": {
      "repr": "1256",
      "spoken": "minus two five point six",
      "value": -25.6
    },
    "maximum_temperature_24": null,
    "maximum_temperature_6": null,
    "minimum_temperature_24": null,
    "minimum_temperature_6": null,
    "precip_24_hours": null,
    "precip_36_hours": null,
    "precip_hourly": null,
    "pressure_tendency": null,
    "sea_level_pressure": {
      "repr": "SLP218",
      "spoken": "one zero two one point eight",
      "value": 1021.8
    },
    "snow_depth": null,
    "sunshine_minutes": null,
    "temperature_decimal": {
      "repr": "1139",
      "spoken": "minus one three point nine",
      "value": -13.9
    }
  },
  "runway_visibility": [],
  "sanitized": "KBLI 120953Z 03026G44KT 10SM M14/M26 A3014 RMK AO2 PK WND 05050/0940 PRESRR SLP218 T11391256",
  "station": "KBLI",
  "temperature": {
    "repr": "M14",
    "spoken": "minus one four",
    "value": -14
  },
  "time": {
    "dt": "2024-01-12T09:53:00Z",
    "repr": "120953Z"
  },
  "units": {
    "accumulation": "in",
    "altimeter": "inHg",
    "altitude": "ft",
    "temperature": "C",
    "visibility": "sm",
    "wind_speed": "kt"
  },
  "visibility": {
    "repr": "10",
    "spoken": "one zero",
    "value": 10
  },
  "wind_direction": {
    "repr": "030",
    "spoken": "zero three zero",
    "value": 30
  },
  "wind_gust": {
    "repr": "44",
    "spoken": "four four",
    "value": 44
  },
  "wind_speed": {
    "repr": "26",
    "spoken": "two six",
    "value": 26
  },
  "wind_variable_direction": [],
  "wx_codes": []
}
