{
  "meta": {
    "timestamp": "2023-10-19T09:23:05.298072Z",
    "stations_updated": "2023-10-01"
  },
  "altimeter": {
    "repr": "A3000",
    "value": 30,
    "spoken": "three zero point zero zero"
  },
  "clouds": [
    {
      "repr": "SCT002",
      "type": "SCT",
      "altitude": 2,
      "modifier": null
    },
    {
      "repr": "BKN050",
      "type": "BKN",
      "altitude": 50,
      "modifier": null
    }
  ],
  "flight_rules": "IFR",
  "other": [],
  "visibility": {
    "repr": "5/2",
    "value": 2.5,
    "spoken": "two and one half",
    "numerator": 5,
    "denominator": 2,
    "normalized": "2 1/2"
  },
  "wind_direction": {
    "repr": "000",
    "value": 0,
    "spoken": "zero zero zero"
  },
  "wind_gust": null,
  "wind_speed": {
    "repr": "00",
    "value": 0,
    "spoken": "zero"
  },
  "wx_codes": [
    {
      "repr": "BR",
      "value": "Mist"
    }
  ],
  "raw": "KBLI 190916Z AUTO 00000KT 2 1/2SM BR SCT002 BKN050 11/11 A3000 RMK AO2 VIS 1 1/4V5 T01060106 KBLI 190853Z AUTO 00000KT 3SM R16/4000VP6000FT BR BKN050 11/10 A3000 RMK AO2 SLP167 T01060100 55005 KBLI 190825Z AUTO 00000KT 2 1/2SM R16/3500VP6000FT BR FEW055 11/10 A3000 RMK AO2 T01060100 KBLI 190753Z AUTO 00000KT 7SM FEW055 12/11 A2999 RMK AO2 SLP164 T01170111 401440106",
  "sanitized": "KBLI 190916Z 00000KT 2 1/2SM BR SCT002 BKN050 11/11 A3000 RMK AO2 VIS 1 1/4V5 T01060106 KBLI 190853Z AUTO 00000KT 3SM R16/4000VP6000FT BR BKN050 11/10 A3000 RMK AO2 SLP167 T01060100 55005 KBLI 190825Z AUTO 00000KT 2 1/2SM R16/3500VP6000FT BR FEW055 11/10 A3000 RMK AO2 T01060100 KBLI 190753Z AUTO 00000KT 7SM FEW055 12/11 A2999 RMK AO2 SLP164 T01170111 401440106",
  "station": "KBLI",
  "time": {
    "repr": "190916Z",
    "dt": "2023-10-19T09:16:00Z"
  },
  "remarks": "RMK AO2 VIS 1 1/4V5 T01060106 KBLI 190853Z AUTO 00000KT 3SM R16/4000VP6000FT BR BKN050 11/10 A3000 RMK AO2 SLP167 T01060100 55005 KBLI 190825Z AUTO 00000KT 2 1/2SM R16/3500VP6000FT BR FEW055 11/10 A3000 RMK AO2 T01060100 KBLI 190753Z AUTO 00000KT 7SM FEW055 12/11 A2999 RMK AO2 SLP164 T01170111 401440106",
  "dewpoint": {
    "repr": "11",
    "value": 11,
    "spoken": "one one"
  },
  "relative_humidity": 0.9610463260900074,
  "remarks_info": {
    "maximum_temperature_6": null,
    "minimum_temperature_6": null,
    "pressure_tendency": {
      "repr": "55005",
      "tendency": "Decreasing, then increasing",
      "change": 0.5
    },
    "precip_36_hours": null,
    "precip_24_hours": null,
    "sunshine_minutes": null,
    "codes": [
      {
        "repr": "AO2",
        "value": "Automated with precipitation sensor"
      },
      {
        "repr": "AO2",
        "value": "Automated with precipitation sensor"
      },
      {
        "repr": "AO2",
        "value": "Automated with precipitation sensor"
      },
      {
        "repr": "AO2",
        "value": "Automated with precipitation sensor"
      }
    ],
    "dewpoint_decimal": {
      "repr": "0111",
      "value": 11.1,
      "spoken": "one one point one"
    },
    "maximum_temperature_24": {
      "repr": "0144",
      "value": 14.4,
      "spoken": "one four point four"
    },
    "minimum_temperature_24": {
      "repr": "0106",
      "value": 10.6,
      "spoken": "one zero point six"
    },
    "precip_hourly": null,
    "sea_level_pressure": {
      "repr": "SLP167",
      "value": 1016.7,
      "spoken": "one zero one six point seven"
    },
    "snow_depth": null,
    "temperature_decimal": {
      "repr": "0117",
      "value": 11.7,
      "spoken": "one one point seven"
    }
  },
  "runway_visibility": [],
  "temperature": {
    "repr": "11",
    "value": 11,
    "spoken": "one one"
  },
  "wind_variable_direction": [],
  "density_altitude": -265,
  "pressure_altitude": 90,
  "units": {
    "accumulation": "in",
    "altimeter": "inHg",
    "altitude": "ft",
    "temperature": "C",
    "visibility": "sm",
    "wind_speed": "kt"
  }
}
