{
  "meta": {
    "timestamp": "2022-12-30T10:40:34.889355Z",
    "stations_updated": "2022-12-27",
    "cache-timestamp": "2022-12-30T10:40:06.480000Z"
  },
  "altimeter": {
    "repr": "A2936",
    "value": 29.36,
    "spoken": "two nine point three six"
  },
  "clouds": [
    {
      "repr": "OVC039",
      "type": "OVC",
      "altitude": 39,
      "modifier": null
    }
  ],
  "flight_rules": "VFR",
  "other": [],
  "visibility": {
    "repr": "10",
    "value": 10,
    "spoken": "one zero"
  },
  "wind_direction": {
    "repr": "040",
    "value": 40,
    "spoken": "zero four zero"
  },
  "wind_gust": null,
  "wind_speed": {
    "repr": "06",
    "value": 6,
    "spoken": "six"
  },
  "wx_codes": [
    {
      "repr": "-RA",
      "value": "Light Rain"
    }
  ],
  "raw": "KBLI 300953Z AUTO 04006KT 10SM -RA OVC039 06/06 A2936 RMK AO2 SLP952 P0004 T00560056",
  "sanitized": "KBLI 300953Z 04006KT 10SM -RA OVC039 06/06 A2936 RMK AO2 SLP952 P0004 T00560056",
  "station": "KBLI",
  "time": {
    "repr": "300953Z",
    "dt": "2022-12-30T09:53:00Z"
  },
  "remarks": "RMK AO2 SLP952 P0004 T00560056",
  "dewpoint": {
    "repr": "06",
    "value": 6,
    "spoken": "six"
  },
  "relative_humidity": 1,
  "remarks_info": {
    "maximum_temperature_6": null,
    "minimum_temperature_6": null,
    "pressure_tendency": null,
    "precip_36_hours": null,
    "precip_24_hours": null,
    "sunshine_minutes": null,
    "codes": [
      {
        "repr": "AO2",
        "value": "Automated with precipitation sensor"
      }
    ],
    "dewpoint_decimal": {
      "repr": "0056",
      "value": 5.6,
      "spoken": "five point six"
    },
    "maximum_temperature_24": null,
    "minimum_temperature_24": null,
    "precip_hourly": {
      "repr": "P0004",
      "value": 0.04,
      "spoken": "zero point zero four"
    },
    "sea_level_pressure": {
      "repr": "SLP952",
      "value": 995.2,
      "spoken": "nine nine five point two"
    },
    "snow_depth": null,
    "temperature_decimal": {
      "repr": "0056",
      "value": 5.6,
      "spoken": "five point six"
    }
  },
  "runway_visibility": [],
  "temperature": {
    "repr": "06",
    "value": 6,
    "spoken": "six"
  },
  "wind_variable_direction": [],
  "density_altitude": -357,
  "pressure_altitude": 730,
  "units": {
    "accumulation": "in",
    "altimeter": "inHg",
    "altitude": "ft",
    "temperature": "C",
    "visibility": "sm",
    "wind_speed": "kt"
  }
}
