{
  "meta": {
    "timestamp": "2022-08-20T07:02:00.935758Z",
    "stations_updated": "2022-07-17"
  },
  "altimeter": {
    "repr": "A2990",
    "value": 29.9,
    "spoken": "two nine point nine zero"
  },
  "clouds": [
    {
      "repr": "SCT110",
      "type": "SCT",
      "altitude": 110,
      "modifier": null
    }
  ],
  "flight_rules": "VFR",
  "other": [],
  "visibility": {
    "repr": "10",
    "value": 10,
    "spoken": "one zero"
  },
  "wind_direction": {
    "repr": "180",
    "value": 180,
    "spoken": "one eight zero"
  },
  "wind_gust": null,
  "wind_speed": {
    "repr": "08",
    "value": 8,
    "spoken": "eight"
  },
  "wx_codes": [],
  "raw": "KBLI 200653Z AUTO 18008KT 10SM SCT110 19/17 A2990 RMK AO2 SLP128 T01940172",
  "sanitized": "KBLI 200653Z 18008KT 10SM SCT110 19/17 A2990 RMK AO2 SLP128 T01940172",
  "station": "KBLI",
  "time": {
    "repr": "200653Z",
    "dt": "2022-08-20T06:53:00Z"
  },
  "remarks": "RMK AO2 SLP128 T01940172",
  "dewpoint": {
    "repr": "17",
    "value": 17,
    "spoken": "one seven"
  },
  "relative_humidity": 0.8710024736022709,
  "remarks_info": {
    "maximum_temperature_6": null,
    "minimum_temperature_6": null,
    "pressure_tendency": null,
    "precip_36_hours": null,
    "precip_24_hours": null,
    "sunshine_minutes": null,
    "codes": [
      {
        "repr": "AO2",
        "value": "Automated with precipitation sensor"
      }
    ],
    "dewpoint_decimal": {
      "repr": "0172",
      "value": 17.2,
      "spoken": "one seven point two"
    },
    "maximum_temperature_24": null,
    "minimum_temperature_24": null,
    "precip_hourly": null,
    "sea_level_pressure": {
      "repr": "SLP128",
      "value": 1012.8,
      "spoken": "one zero one two point eight"
    },
    "snow_depth": null,
    "temperature_decimal": {
      "repr": "0194",
      "value": 19.4,
      "spoken": "one nine point four"
    }
  },
  "runway_visibility": [],
  "temperature": {
    "repr": "19",
    "value": 19,
    "spoken": "one nine"
  },
  "wind_variable_direction": [],
  "density_altitude": 759,
  "pressure_altitude": 190,
  "units": {
    "accumulation": "in",
    "altimeter": "inHg",
    "altitude": "ft",
    "temperature": "C",
    "visibility": "sm",
    "wind_speed": "kt"
  }
}
