{
  "meta": {
    "timestamp": "2023-10-02T10:28:48.824948Z",
    "stations_updated": "2023-08-05",
    "cache-timestamp": "2023-10-02T10:28:04.847000Z"
  },
  "altimeter": {
    "repr": "A3004",
    "value": 30.04,
    "spoken": "three zero point zero four"
  },
  "clouds": [
    {
      "repr": "OVC046",
      "type": "OVC",
      "altitude": 46,
      "modifier": null
    }
  ],
  "flight_rules": "VFR",
  "other": [],
  "visibility": {
    "repr": "10",
    "value": 10,
    "spoken": "one zero"
  },
  "wind_direction": {
    "repr": "180",
    "value": 180,
    "spoken": "one eight zero"
  },
  "wind_gust": {
    "repr": "14",
    "value": 14,
    "spoken": "one four"
  },
  "wind_speed": {
    "repr": "07",
    "value": 7,
    "spoken": "seven"
  },
  "wx_codes": [],
  "raw": "KBLI 020953Z AUTO 18007G14KT 150V220 10SM OVC046 13/09 A3004 RMK AO2 RAB0858E29 SLP179 P0000 T01280094 $",
  "sanitized": "KBLI 020953Z 18007G14KT 150V220 10SM OVC046 13/09 A3004 RMK AO2 RAB0858E29 SLP179 P0000 T01280094 $",
  "station": "KBLI",
  "time": {
    "repr": "020953Z",
    "dt": "2023-10-02T09:53:00Z"
  },
  "remarks": "RMK AO2 RAB0858E29 SLP179 P0000 T01280094 $",
  "dewpoint": {
    "repr": "09",
    "value": 9,
    "spoken": "nine"
  },
  "relative_humidity": 0.7979634918921645,
  "remarks_info": {
    "maximum_temperature_6": null,
    "minimum_temperature_6": null,
    "pressure_tendency": null,
    "precip_36_hours": null,
    "precip_24_hours": null,
    "sunshine_minutes": null,
    "codes": [
      {
        "repr": "$",
        "value": "ASOS requires maintenance"
      },
      {
        "repr": "AO2",
        "value": "Automated with precipitation sensor"
      },
      {
        "repr": "P0000",
        "value": "Trace amount of rain in the last hour"
      }
    ],
    "dewpoint_decimal": {
      "repr": "0094",
      "value": 9.4,
      "spoken": "nine point four"
    },
    "maximum_temperature_24": null,
    "minimum_temperature_24": null,
    "precip_hourly": null,
    "sea_level_pressure": {
      "repr": "SLP179",
      "value": 1017.9,
      "spoken": "one zero one seven point nine"
    },
    "snow_depth": null,
    "temperature_decimal": {
      "repr": "0128",
      "value": 12.8,
      "spoken": "one two point eight"
    }
  },
  "runway_visibility": [],
  "temperature": {
    "repr": "13",
    "value": 13,
    "spoken": "one three"
  },
  "wind_variable_direction": [
    {
      "repr": "150",
      "value": 150,
      "spoken": "one five zero"
    },
    {
      "repr": "220",
      "value": 220,
      "spoken": "two two zero"
    }
  ],
  "density_altitude": -173,
  "pressure_altitude": 50,
  "units": {
    "accumulation": "in",
    "altimeter": "inHg",
    "altitude": "ft",
    "temperature": "C",
    "visibility": "sm",
    "wind_speed": "kt"
  }
}
