{
  "meta": {
    "timestamp": "2023-10-20T13:07:42.876461Z",
    "stations_updated": "2023-10-01"
  },
  "altimeter": {
    "repr": "A3006",
    "value": 30.06,
    "spoken": "three zero point zero six"
  },
  "clouds": [
    {
      "repr": "VV003",
      "type": "VV",
      "altitude": 3,
      "modifier": null
    }
  ],
  "flight_rules": "LIFR",
  "other": [],
  "visibility": {
    "repr": "3/4",
    "value": 0.75,
    "spoken": "three quarters",
    "numerator": 3,
    "denominator": 4,
    "normalized": "3/4"
  },
  "wind_direction": {
    "repr": "000",
    "value": 0,
    "spoken": "zero zero zero"
  },
  "wind_gust": null,
  "wind_speed": {
    "repr": "00",
    "value": 0,
    "spoken": "zero"
  },
  "wx_codes": [
    {
      "repr": "BR",
      "value": "Mist"
    }
  ],
  "raw": "KBLI 201253Z AUTO 00000KT 3/4SM R16/2800V3000FT BR VV003 12/12 A3006 RMK AO2 SLP187 T01220122 KBLI 201225Z AUTO 20003KT 1/2SM R16/2400V4000FT FG VV002 12/12 A3007 RMK AO2 T01220122 KBLI 201201Z AUTO 00000KT 3/4SM R16/3500V5500FT BR VV003 12/12 A3006 RMK AO2 T01220122 KBLI 201153Z AUTO 00000KT 1/2SM R16/2400V3500FT FG VV003 12/12 A3007 RMK AO2 SLP189 70009 T01170117 10139 20117 51007 KBLI 201143Z AUTO 00000KT 1/2SM R16/2200V2800FT FG VV002 12/12 A3006 RMK AO2 T01170117 KBLI 201134Z AUTO 00000KT 1/4SM R16/1600V2600FT FG VV002 12/12 A3006 RMK AO2 T01170117",
  "sanitized": "KBLI 201253Z 00000KT 3/4SM R16/2800V3000FT BR VV003 12/12 A3006 RMK AO2 SLP187 T01220122 KBLI 201225Z AUTO 20003KT 1/2SM R16/2400V4000FT FG VV002 12/12 A3007 RMK AO2 T01220122 KBLI 201201Z AUTO 00000KT 3/4SM R16/3500V5500FT BR VV003 12/12 A3006 RMK AO2 T01220122 KBLI 201153Z AUTO 00000KT 1/2SM R16/2400V3500FT FG VV003 12/12 A3007 RMK AO2 SLP189 70009 T01170117 10139 20117 51007 KBLI 201143Z AUTO 00000KT 1/2SM R16/2200V2800FT FG VV002 12/12 A3006 RMK AO2 T01170117 KBLI 201134Z AUTO 00000KT 1/4SM R16/1600V2600FT FG VV002 12/12 A3006 RMK AO2 T01170117",
  "station": "KBLI",
  "time": {
    "repr": "201253Z",
    "dt": "2023-10-20T12:53:00Z"
  },
  "remarks": "RMK AO2 SLP187 T01220122 KBLI 201225Z AUTO 20003KT 1/2SM R16/2400V4000FT FG VV002 12/12 A3007 RMK AO2 T01220122 KBLI 201201Z AUTO 00000KT 3/4SM R16/3500V5500FT BR VV003 12/12 A3006 RMK AO2 T01220122 KBLI 201153Z AUTO 00000KT 1/2SM R16/2400V3500FT FG VV003 12/12 A3007 RMK AO2 SLP189 70009 T01170117 10139 20117 51007 KBLI 201143Z AUTO 00000KT 1/2SM R16/2200V2800FT FG VV002 12/12 A3006 RMK AO2 T01170117 KBLI 201134Z AUTO 00000KT 1/4SM R16/1600V2600FT FG VV002 12/12 A3006 RMK AO2 T01170117",
  "dewpoint": {
    "repr": "12",
    "value": 12,
    "spoken": "one two"
  },
  "relative_humidity": 1,
  "remarks_info": {
    "maximum_temperature_6": {
      "repr": "10139",
      "value": 13.9,
      "spoken": "one three point nine"
    },
    "minimum_temperature_6": {
      "repr": "20117",
      "value": 11.7,
      "spoken": "one one point seven"
    },
    "pressure_tendency": {
      "repr": "51007",
      "tendency": "Increasing, then steady",
      "change": 0.7
    },
    "precip_36_hours": null,
    "precip_24_hours": {
      "repr": "70009",
      "value": 0.09,
      "spoken": "zero point zero nine"
    },
    "sunshine_minutes": null,
    "codes": [
      {
        "repr": "AO2",
        "value": "Automated with precipitation sensor"
      },
      {
        "repr": "AO2",
        "value": "Automated with precipitation sensor"
      },
      {
        "repr": "AO2",
        "value": "Automated with precipitation sensor"
      },
      {
        "repr": "AO2",
        "value": "Automated with precipitation sensor"
      },
      {
        "repr": "AO2",
        "value": "Automated with precipitation sensor"
      },
      {
        "repr": "AO2",
        "value": "Automated with precipitation sensor"
      }
    ],
    "dewpoint_decimal": {
      "repr": "0117",
      "value": 11.7,
      "spoken": "one one point seven"
    },
    "maximum_temperature_24": null,
    "minimum_temperature_24": null,
    "precip_hourly": null,
    "sea_level_pressure": {
      "repr": "SLP187",
      "value": 1018.7,
      "spoken": "one zero one eight point seven"
    },
    "snow_depth": null,
    "temperature_decimal": {
      "repr": "0117",
      "value": 11.7,
      "spoken": "one one point seven"
    }
  },
  "runway_visibility": [
    {
      "repr": "R16/2800V3000FT",
      "runway": "16",
      "visibility": null,
      "variable_visibility": [
        {
          "repr": "2800",
          "value": 2800,
          "spoken": "two eight hundred"
        },
        {
          "repr": "3000",
          "value": 3000,
          "spoken": "three thousand"
        }
      ],
      "trend": null
    }
  ],
  "temperature": {
    "repr": "12",
    "value": 12,
    "spoken": "one two"
  },
  "wind_variable_direction": [],
  "density_altitude": -325,
  "pressure_altitude": 30,
  "units": {
    "accumulation": "in",
    "altimeter": "inHg",
    "altitude": "ft",
    "temperature": "C",
    "visibility": "sm",
    "wind_speed": "kt"
  }
}
