{
  "altimeter": {
    "repr": "A2997",
    "spoken": "two nine point nine seven",
    "value": 29.97
  },
  "clouds": [
    {
      "altitude": 20,
      "modifier": null,
      "repr": "SCT020",
      "type": "SCT"
    },
    {
      "altitude": 25,
      "modifier": null,
      "repr": "SCT025",
      "type": "SCT"
    },
    {
      "altitude": 30,
      "modifier": null,
      "repr": "OVC030",
      "type": "OVC"
    }
  ],
  "density_altitude": -907,
  "dewpoint": {
    "repr": "06",
    "spoken": "six",
    "value": 6
  },
  "flight_rules": "MVFR",
  "meta": {
    "stations_updated": "2024-12-02",
    "timestamp": "2025-01-04T21:02:13.240390Z"
  },
  "other": [],
  "pressure_altitude": 120,
  "raw": "KBLI 042053Z 35003KT 10SM SCT020 SCT025 OVC030 06/06 A2997 RMK AO2 SLP157 T00610056 58004",
  "relative_humidity": 0.9659908804883092,
  "remarks": "RMK AO2 SLP157 T00610056 58004",
  "remarks_info": {
    "codes": [
      {
        "repr": "AO2",
        "value": "Automated with precipitation sensor"
      }
    ],
    "dewpoint_decimal": {
      "repr": "0056",
      "spoken": "five point six",
      "value": 5.6
    },
    "maximum_temperature_24": null,
    "maximum_temperature_6": null,
    "minimum_temperature_24": null,
    "minimum_temperature_6": null,
    "precip_24_hours": null,
    "precip_36_hours": null,
    "precip_hourly": null,
    "pressure_tendency": {
      "change": 0.4,
      "repr": "58004",
      "tendency": "Steady or increasing, then decreasing"
    },
    "sea_level_pressure": {
      "repr": "SLP157",
      "spoken": "one zero one five point seven",
      "value": 1015.7
    },
    "snow_depth": null,
    "sunshine_minutes": null,
    "temperature_decimal": {
      "repr": "0061",
      "spoken": "six point one",
      "value": 6.1
    }
  },
  "runway_visibility": [],
  "sanitized": "KBLI 042053Z 35003KT 10SM SCT020 SCT025 OVC030 06/06 A2997 RMK AO2 SLP157 T00610056 58004",
  "station": "KBLI",
  "temperature": {
    "repr": "06",
    "spoken": "six",
    "value": 6
  },
  "time": {
    "dt": "2025-01-04T20:53:00Z",
    "repr": "042053Z"
  },
  "units": {
    "accumulation": "in",
    "altimeter": "inHg",
    "altitude": "ft",
    "temperature": "C",
    "visibility": "sm",
    "wind_speed": "kt"
  },
  "visibility": {
    "repr": "10",
    "spoken": "one zero",
    "value": 10
  },
  "wind_direction": {
    "repr": "350",
    "spoken": "three five zero",
    "value": 350
  },
  "wind_gust": null,
  "wind_speed": {
    "repr": "03",
    "spoken": "three",
    "value": 3
  },
  "wind_variable_direction": [],
  "wx_codes": []
}
