{
  "altimeter": {
    "repr": "A2951",
    "spoken": "two nine point five one",
    "value": 29.51
  },
  "clouds": [
    {
      "altitude": 60,
      "modifier": null,
      "repr": "BKN060",
      "type": "BKN"
    },
    {
      "altitude": 75,
      "modifier": null,
      "repr": "OVC075",
      "type": "OVC"
    }
  ],
  "density_altitude": 489,
  "dewpoint": {
    "repr": "05",
    "spoken": "five",
    "value": 5
  },
  "flight_rules": "VFR",
  "meta": {
    "stations_updated": "2024-10-29",
    "timestamp": "2024-11-22T23:06:56.525027Z"
  },
  "other": [],
  "pressure_altitude": 580,
  "raw": "KBLI 222253Z 16016G35KT 10SM -RA BKN060 OVC075 14/05 A2951 RMK AO2 PK WND 14035/2247 RAB44 SLP998 P0000 T01390050",
  "relative_humidity": 0.549539700130885,
  "remarks": "RMK AO2 PK WND 14035/2247 RAB44 SLP998 P0000 T01390050",
  "remarks_info": {
    "codes": [
      {
        "repr": "AO2",
        "value": "Automated with precipitation sensor"
      },
      {
        "repr": "P0000",
        "value": "Trace amount of rain in the last hour"
      },
      {
        "repr": "RAB44",
        "value": "Rain began at :44"
      }
    ],
    "dewpoint_decimal": {
      "repr": "0050",
      "spoken": "five point zero",
      "value": 5
    },
    "maximum_temperature_24": null,
    "maximum_temperature_6": null,
    "minimum_temperature_24": null,
    "minimum_temperature_6": null,
    "precip_24_hours": null,
    "precip_36_hours": null,
    "precip_hourly": null,
    "pressure_tendency": null,
    "sea_level_pressure": {
      "repr": "SLP998",
      "spoken": "nine nine nine point eight",
      "value": 999.8
    },
    "snow_depth": null,
    "sunshine_minutes": null,
    "temperature_decimal": {
      "repr": "0139",
      "spoken": "one three point nine",
      "value": 13.9
    }
  },
  "runway_visibility": [],
  "sanitized": "KBLI 222253Z 16016G35KT 10SM -RA BKN060 OVC075 14/05 A2951 RMK AO2 PK WND 14035/2247 RAB44 SLP998 P0000 T01390050",
  "station": "KBLI",
  "temperature": {
    "repr": "14",
    "spoken": "one four",
    "value": 14
  },
  "time": {
    "dt": "2024-11-22T22:53:00Z",
    "repr": "222253Z"
  },
  "units": {
    "accumulation": "in",
    "altimeter": "inHg",
    "altitude": "ft",
    "temperature": "C",
    "visibility": "sm",
    "wind_speed": "kt"
  },
  "visibility": {
    "repr": "10",
    "spoken": "one zero",
    "value": 10
  },
  "wind_direction": {
    "repr": "160",
    "spoken": "one six zero",
    "value": 160
  },
  "wind_gust": {
    "repr": "35",
    "spoken": "three five",
    "value": 35
  },
  "wind_speed": {
    "repr": "16",
    "spoken": "one six",
    "value": 16
  },
  "wind_variable_direction": [],
  "wx_codes": [
    {
      "repr": "-RA",
      "value": "Light Rain"
    }
  ]
}
