{
  "meta": {
    "timestamp": "2022-12-01T18:33:54.074858Z",
    "stations_updated": "2022-09-05"
  },
  "altimeter": {
    "repr": "A2974",
    "value": 29.74,
    "spoken": "two nine point seven four"
  },
  "clouds": [],
  "flight_rules": "VFR",
  "other": [],
  "visibility": {
    "repr": "10",
    "value": 10,
    "spoken": "one zero"
  },
  "wind_direction": {
    "repr": "020",
    "value": 20,
    "spoken": "zero two zero"
  },
  "wind_gust": {
    "repr": "22",
    "value": 22,
    "spoken": "two two"
  },
  "wind_speed": {
    "repr": "14",
    "value": 14,
    "spoken": "one four"
  },
  "wx_codes": [],
  "raw": "KBLI 011753Z 02014G22KT 10SM CLR M03/M11 A2974 RMK AO2 PK WND 04026/1725 SLP081 T10331111 11028 21044 53026",
  "sanitized": "KBLI 011753Z 02014G22KT 10SM M03/M11 A2974 RMK AO2 PK WND 04026/1725 SLP081 T10331111 11028 21044 53026",
  "station": "KBLI",
  "time": {
    "repr": "011753Z",
    "dt": "2022-12-01T17:53:00Z"
  },
  "remarks": "RMK AO2 PK WND 04026/1725 SLP081 T10331111 11028 21044 53026",
  "dewpoint": {
    "repr": "M11",
    "value": -11,
    "spoken": "minus one one"
  },
  "relative_humidity": 0.5481519250286561,
  "remarks_info": {
    "maximum_temperature_6": {
      "repr": "11028",
      "value": -2.8,
      "spoken": "minus two point eight"
    },
    "minimum_temperature_6": {
      "repr": "21044",
      "value": -4.4,
      "spoken": "minus four point four"
    },
    "pressure_tendency": {
      "repr": "53026",
      "tendency": "Decreasing or steady, then increasing",
      "change": 2.6
    },
    "precip_36_hours": null,
    "precip_24_hours": null,
    "sunshine_minutes": null,
    "codes": [
      {
        "repr": "AO2",
        "value": "Automated with precipitation sensor"
      }
    ],
    "dewpoint_decimal": {
      "repr": "1111",
      "value": -11.1,
      "spoken": "minus one one point one"
    },
    "maximum_temperature_24": null,
    "minimum_temperature_24": null,
    "precip_hourly": null,
    "sea_level_pressure": {
      "repr": "SLP081",
      "value": 1008.1,
      "spoken": "one zero zero eight point one"
    },
    "snow_depth": null,
    "temperature_decimal": {
      "repr": "1033",
      "value": -3.3,
      "spoken": "minus three point three"
    }
  },
  "runway_visibility": [],
  "temperature": {
    "repr": "M03",
    "value": -3,
    "spoken": "minus three"
  },
  "wind_variable_direction": [],
  "density_altitude": -1805,
  "pressure_altitude": 350,
  "units": {
    "accumulation": "in",
    "altimeter": "inHg",
    "altitude": "ft",
    "temperature": "C",
    "visibility": "sm",
    "wind_speed": "kt"
  }
}
