{
  "altimeter": {
    "repr": "A2941",
    "spoken": "two nine point four one",
    "value": 29.41
  },
  "clouds": [
    {
      "altitude": 10,
      "modifier": null,
      "repr": "FEW010",
      "type": "FEW"
    },
    {
      "altitude": 30,
      "modifier": null,
      "repr": "SCT030",
      "type": "SCT"
    },
    {
      "altitude": 50,
      "modifier": null,
      "repr": "BKN050",
      "type": "BKN"
    }
  ],
  "density_altitude": 121,
  "dewpoint": {
    "repr": "03",
    "spoken": "three",
    "value": 3
  },
  "flight_rules": "VFR",
  "meta": {
    "stations_updated": "2024-12-02",
    "timestamp": "2024-12-14T16:34:12.816667Z"
  },
  "other": [],
  "pressure_altitude": 680,
  "raw": "KBLI 141553Z 16022G39KT 10SM FEW010 SCT030 BKN050 10/03 A2941 RMK AO2 PK WND 15046/1456 RAE17 SLP967 P0000 T01000033 $",
  "relative_humidity": 0.6307957340163841,
  "remarks": "RMK AO2 PK WND 15046/1456 RAE17 SLP967 P0000 T01000033 $",
  "remarks_info": {
    "codes": [
      {
        "repr": "$",
        "value": "ASOS requires maintenance"
      },
      {
        "repr": "AO2",
        "value": "Automated with precipitation sensor"
      },
      {
        "repr": "P0000",
        "value": "Trace amount of rain in the last hour"
      },
      {
        "repr": "RAE17",
        "value": "Rain ended at :17"
      }
    ],
    "dewpoint_decimal": {
      "repr": "0033",
      "spoken": "three point three",
      "value": 3.3
    },
    "maximum_temperature_24": null,
    "maximum_temperature_6": null,
    "minimum_temperature_24": null,
    "minimum_temperature_6": null,
    "precip_24_hours": null,
    "precip_36_hours": null,
    "precip_hourly": null,
    "pressure_tendency": null,
    "sea_level_pressure": {
      "repr": "SLP967",
      "spoken": "nine nine six point seven",
      "value": 996.7
    },
    "snow_depth": null,
    "sunshine_minutes": null,
    "temperature_decimal": {
      "repr": "0100",
      "spoken": "one zero point zero",
      "value": 10
    }
  },
  "runway_visibility": [],
  "sanitized": "KBLI 141553Z 16022G39KT 10SM FEW010 SCT030 BKN050 10/03 A2941 RMK AO2 PK WND 15046/1456 RAE17 SLP967 P0000 T01000033 $",
  "station": "KBLI",
  "temperature": {
    "repr": "10",
    "spoken": "one zero",
    "value": 10
  },
  "time": {
    "dt": "2024-12-14T15:53:00Z",
    "repr": "141553Z"
  },
  "units": {
    "accumulation": "in",
    "altimeter": "inHg",
    "altitude": "ft",
    "temperature": "C",
    "visibility": "sm",
    "wind_speed": "kt"
  },
  "visibility": {
    "repr": "10",
    "spoken": "one zero",
    "value": 10
  },
  "wind_direction": {
    "repr": "160",
    "spoken": "one six zero",
    "value": 160
  },
  "wind_gust": {
    "repr": "39",
    "spoken": "three nine",
    "value": 39
  },
  "wind_speed": {
    "repr": "22",
    "spoken": "two two",
    "value": 22
  },
  "wind_variable_direction": [],
  "wx_codes": []
}
