{
  "altimeter": {
    "repr": "A2996",
    "spoken": "two nine point nine six",
    "value": 29.96
  },
  "clouds": [],
  "density_altitude": -2757,
  "dewpoint": {
    "repr": "M19",
    "spoken": "minus one nine",
    "value": -19
  },
  "flight_rules": "VFR",
  "meta": {
    "stations_updated": "2023-10-28",
    "timestamp": "2024-01-14T07:21:09.403846Z"
  },
  "other": [],
  "pressure_altitude": 130,
  "raw": "KBLI 140653Z AUTO 04008KT 10SM CLR M09/M19 A2996 RMK AO2 SLP157 T10941189",
  "relative_humidity": 0.45959660535834096,
  "remarks": "RMK AO2 SLP157 T10941189",
  "remarks_info": {
    "codes": [
      {
        "repr": "AO2",
        "value": "Automated with precipitation sensor"
      }
    ],
    "dewpoint_decimal": {
      "repr": "1189",
      "spoken": "minus one eight point nine",
      "value": -18.9
    },
    "maximum_temperature_24": null,
    "maximum_temperature_6": null,
    "minimum_temperature_24": null,
    "minimum_temperature_6": null,
    "precip_24_hours": null,
    "precip_36_hours": null,
    "precip_hourly": null,
    "pressure_tendency": null,
    "sea_level_pressure": {
      "repr": "SLP157",
      "spoken": "one zero one five point seven",
      "value": 1015.7
    },
    "snow_depth": null,
    "sunshine_minutes": null,
    "temperature_decimal": {
      "repr": "1094",
      "spoken": "minus nine point four",
      "value": -9.4
    }
  },
  "runway_visibility": [],
  "sanitized": "KBLI 140653Z 04008KT 10SM M09/M19 A2996 RMK AO2 SLP157 T10941189",
  "station": "KBLI",
  "temperature": {
    "repr": "M09",
    "spoken": "minus nine",
    "value": -9
  },
  "time": {
    "dt": "2024-01-14T06:53:00Z",
    "repr": "140653Z"
  },
  "units": {
    "accumulation": "in",
    "altimeter": "inHg",
    "altitude": "ft",
    "temperature": "C",
    "visibility": "sm",
    "wind_speed": "kt"
  },
  "visibility": {
    "repr": "10",
    "spoken": "one zero",
    "value": 10
  },
  "wind_direction": {
    "repr": "040",
    "spoken": "zero four zero",
    "value": 40
  },
  "wind_gust": null,
  "wind_speed": {
    "repr": "08",
    "spoken": "eight",
    "value": 8
  },
  "wind_variable_direction": [],
  "wx_codes": []
}
