{
  "altimeter": {
    "repr": "A2999",
    "spoken": "two nine point nine nine",
    "value": 29.99
  },
  "clouds": [
    {
      "altitude": 1,
      "modifier": null,
      "repr": "VV001",
      "type": "VV"
    }
  ],
  "density_altitude": 9,
  "dewpoint": {
    "repr": "14",
    "spoken": "one four",
    "value": 14
  },
  "flight_rules": "LIFR",
  "meta": {
    "stations_updated": "2024-06-12",
    "timestamp": "2024-09-24T11:02:29.638374Z"
  },
  "other": [],
  "pressure_altitude": 100,
  "raw": "KBLI 241053Z AUTO 01003KT 1/4SM R16/1400V1600FT FG VV001 14/14 A2999 RMK AO2 SLP160 T01390139",
  "relative_humidity": 1,
  "remarks": "RMK AO2 SLP160 T01390139",
  "remarks_info": {
    "codes": [
      {
        "repr": "AO2",
        "value": "Automated with precipitation sensor"
      }
    ],
    "dewpoint_decimal": {
      "repr": "0139",
      "spoken": "one three point nine",
      "value": 13.9
    },
    "maximum_temperature_24": null,
    "maximum_temperature_6": null,
    "minimum_temperature_24": null,
    "minimum_temperature_6": null,
    "precip_24_hours": null,
    "precip_36_hours": null,
    "precip_hourly": null,
    "pressure_tendency": null,
    "sea_level_pressure": {
      "repr": "SLP160",
      "spoken": "one zero one six point zero",
      "value": 1016
    },
    "snow_depth": null,
    "sunshine_minutes": null,
    "temperature_decimal": {
      "repr": "0139",
      "spoken": "one three point nine",
      "value": 13.9
    }
  },
  "runway_visibility": [
    {
      "repr": "R16/1400V1600FT",
      "runway": "16",
      "trend": null,
      "variable_visibility": [
        {
          "repr": "1400",
          "spoken": "one four hundred",
          "value": 1400
        },
        {
          "repr": "1600",
          "spoken": "one six hundred",
          "value": 1600
        }
      ],
      "visibility": null
    }
  ],
  "sanitized": "KBLI 241053Z 01003KT 1/4SM R16/1400V1600FT FG VV001 14/14 A2999 RMK AO2 SLP160 T01390139",
  "station": "KBLI",
  "temperature": {
    "repr": "14",
    "spoken": "one four",
    "value": 14
  },
  "time": {
    "dt": "2024-09-24T10:53:00Z",
    "repr": "241053Z"
  },
  "units": {
    "accumulation": "in",
    "altimeter": "inHg",
    "altitude": "ft",
    "temperature": "C",
    "visibility": "sm",
    "wind_speed": "kt"
  },
  "visibility": {
    "denominator": 4,
    "normalized": "1/4",
    "numerator": 1,
    "repr": "1/4",
    "spoken": "one quarter",
    "value": 0.25
  },
  "wind_direction": {
    "repr": "010",
    "spoken": "zero one zero",
    "value": 10
  },
  "wind_gust": null,
  "wind_speed": {
    "repr": "03",
    "spoken": "three",
    "value": 3
  },
  "wind_variable_direction": [],
  "wx_codes": [
    {
      "repr": "FG",
      "value": "Fog"
    }
  ]
}
