{
  "altimeter": {
    "repr": "A3003",
    "spoken": "three zero point zero three",
    "value": 30.03
  },
  "clouds": [],
  "density_altitude": 365,
  "dewpoint": {
    "repr": "13",
    "spoken": "one three",
    "value": 13
  },
  "flight_rules": "VFR",
  "meta": {
    "stations_updated": "2024-06-12",
    "timestamp": "2024-07-11T06:32:15.701082Z"
  },
  "other": [],
  "pressure_altitude": 60,
  "raw": "KBLI 110553Z AUTO 21005KT 10SM CLR 17/13 A3003 RMK AO2 SLP176 T01720128 10244 20172 53008",
  "relative_humidity": 0.7532682224235424,
  "remarks": "RMK AO2 SLP176 T01720128 10244 20172 53008",
  "remarks_info": {
    "codes": [
      {
        "repr": "AO2",
        "value": "Automated with precipitation sensor"
      }
    ],
    "dewpoint_decimal": {
      "repr": "0128",
      "spoken": "one two point eight",
      "value": 12.8
    },
    "maximum_temperature_24": null,
    "maximum_temperature_6": {
      "repr": "10244",
      "spoken": "two four point four",
      "value": 24.4
    },
    "minimum_temperature_24": null,
    "minimum_temperature_6": {
      "repr": "20172",
      "spoken": "one seven point two",
      "value": 17.2
    },
    "precip_24_hours": null,
    "precip_36_hours": null,
    "precip_hourly": null,
    "pressure_tendency": {
      "change": 0.8,
      "repr": "53008",
      "tendency": "Decreasing or steady, then increasing"
    },
    "sea_level_pressure": {
      "repr": "SLP176",
      "spoken": "one zero one seven point six",
      "value": 1017.6
    },
    "snow_depth": null,
    "sunshine_minutes": null,
    "temperature_decimal": {
      "repr": "0172",
      "spoken": "one seven point two",
      "value": 17.2
    }
  },
  "runway_visibility": [],
  "sanitized": "KBLI 110553Z 21005KT 10SM 17/13 A3003 RMK AO2 SLP176 T01720128 10244 20172 53008",
  "station": "KBLI",
  "temperature": {
    "repr": "17",
    "spoken": "one seven",
    "value": 17
  },
  "time": {
    "dt": "2024-07-11T05:53:00Z",
    "repr": "110553Z"
  },
  "units": {
    "accumulation": "in",
    "altimeter": "inHg",
    "altitude": "ft",
    "temperature": "C",
    "visibility": "sm",
    "wind_speed": "kt"
  },
  "visibility": {
    "repr": "10",
    "spoken": "one zero",
    "value": 10
  },
  "wind_direction": {
    "repr": "210",
    "spoken": "two one zero",
    "value": 210
  },
  "wind_gust": null,
  "wind_speed": {
    "repr": "05",
    "spoken": "five",
    "value": 5
  },
  "wind_variable_direction": [],
  "wx_codes": []
}
