{
  "meta": {
    "timestamp": "2023-04-24T01:51:55.728005Z",
    "stations_updated": "2023-03-11",
    "cache-timestamp": "2023-04-24T01:51:40.226000Z"
  },
  "altimeter": {
    "repr": "A2987",
    "value": 29.87,
    "spoken": "two nine point eight seven"
  },
  "clouds": [
    {
      "repr": "BKN025",
      "type": "BKN",
      "altitude": 25,
      "modifier": null
    },
    {
      "repr": "OVC035",
      "type": "OVC",
      "altitude": 35,
      "modifier": null
    }
  ],
  "flight_rules": "MVFR",
  "other": [],
  "visibility": {
    "repr": "7",
    "value": 7,
    "spoken": "seven"
  },
  "wind_direction": {
    "repr": "130",
    "value": 130,
    "spoken": "one three zero"
  },
  "wind_gust": null,
  "wind_speed": {
    "repr": "05",
    "value": 5,
    "spoken": "five"
  },
  "wx_codes": [
    {
      "repr": "-RA",
      "value": "Light Rain"
    }
  ],
  "raw": "KBLI 240053Z 13005KT 7SM -RA BKN025 OVC035 09/09 A2987 RMK AO2 SLP121 P0001 T00940089",
  "sanitized": "KBLI 240053Z 13005KT 7SM -RA BKN025 OVC035 09/09 A2987 RMK AO2 SLP121 P0001 T00940089",
  "station": "KBLI",
  "time": {
    "repr": "240053Z",
    "dt": "2023-04-24T00:53:00Z"
  },
  "remarks": "RMK AO2 SLP121 P0001 T00940089",
  "dewpoint": {
    "repr": "09",
    "value": 9,
    "spoken": "nine"
  },
  "relative_humidity": 0.9668587106156139,
  "remarks_info": {
    "maximum_temperature_6": null,
    "minimum_temperature_6": null,
    "pressure_tendency": null,
    "precip_36_hours": null,
    "precip_24_hours": null,
    "sunshine_minutes": null,
    "codes": [
      {
        "repr": "AO2",
        "value": "Automated with precipitation sensor"
      }
    ],
    "dewpoint_decimal": {
      "repr": "0089",
      "value": 8.9,
      "spoken": "eight point nine"
    },
    "maximum_temperature_24": null,
    "minimum_temperature_24": null,
    "precip_hourly": {
      "repr": "P0001",
      "value": 0.01,
      "spoken": "zero point zero one"
    },
    "sea_level_pressure": {
      "repr": "SLP121",
      "value": 1012.1,
      "spoken": "one zero one two point one"
    },
    "snow_depth": null,
    "temperature_decimal": {
      "repr": "0094",
      "value": 9.4,
      "spoken": "nine point four"
    }
  },
  "runway_visibility": [],
  "temperature": {
    "repr": "09",
    "value": 9,
    "spoken": "nine"
  },
  "wind_variable_direction": [],
  "density_altitude": -411,
  "pressure_altitude": 220,
  "units": {
    "accumulation": "in",
    "altimeter": "inHg",
    "altitude": "ft",
    "temperature": "C",
    "visibility": "sm",
    "wind_speed": "kt"
  }
}
