{
  "meta": {
    "timestamp": "2023-02-21T20:40:51.402903Z",
    "stations_updated": "2023-01-30",
    "cache-timestamp": "2023-02-21T20:40:05.287000Z"
  },
  "altimeter": {
    "repr": "A2951",
    "value": 29.51,
    "spoken": "two nine point five one"
  },
  "clouds": [
    {
      "repr": "FEW016",
      "type": "FEW",
      "altitude": 16,
      "modifier": null
    },
    {
      "repr": "BKN022",
      "type": "BKN",
      "altitude": 22,
      "modifier": null
    },
    {
      "repr": "OVC029",
      "type": "OVC",
      "altitude": 29,
      "modifier": null
    }
  ],
  "flight_rules": "MVFR",
  "other": [],
  "visibility": {
    "repr": "10",
    "value": 10,
    "spoken": "one zero"
  },
  "wind_direction": {
    "repr": "VRB",
    "value": null,
    "spoken": "variable"
  },
  "wind_gust": null,
  "wind_speed": {
    "repr": "03",
    "value": 3,
    "spoken": "three"
  },
  "wx_codes": [],
  "raw": "KBLI 211953Z VRB03KT 10SM FEW016 BKN022 OVC029 06/04 A2951 RMK AO2 RAE16 SLP000 P0001 T00610044",
  "sanitized": "KBLI 211953Z VRB03KT 10SM FEW016 BKN022 OVC029 06/04 A2951 RMK AO2 RAE16 SLP000 P0001 T00610044",
  "station": "KBLI",
  "time": {
    "repr": "211953Z",
    "dt": "2023-02-21T19:53:00Z"
  },
  "remarks": "RMK AO2 RAE16 SLP000 P0001 T00610044",
  "dewpoint": {
    "repr": "04",
    "value": 4,
    "spoken": "four"
  },
  "relative_humidity": 0.8885072425154702,
  "remarks_info": {
    "maximum_temperature_6": null,
    "minimum_temperature_6": null,
    "pressure_tendency": null,
    "precip_36_hours": null,
    "precip_24_hours": null,
    "sunshine_minutes": null,
    "codes": [
      {
        "repr": "AO2",
        "value": "Automated with precipitation sensor"
      },
      {
        "repr": "RAE16",
        "value": "Rain ended at :16"
      }
    ],
    "dewpoint_decimal": {
      "repr": "0044",
      "value": 4.4,
      "spoken": "four point four"
    },
    "maximum_temperature_24": null,
    "minimum_temperature_24": null,
    "precip_hourly": {
      "repr": "P0001",
      "value": 0.01,
      "spoken": "zero point zero one"
    },
    "sea_level_pressure": {
      "repr": "SLP000",
      "value": 1000,
      "spoken": "one zero zero zero point zero"
    },
    "snow_depth": null,
    "temperature_decimal": {
      "repr": "0061",
      "value": 6.1,
      "spoken": "six point one"
    }
  },
  "runway_visibility": [],
  "temperature": {
    "repr": "06",
    "value": 6,
    "spoken": "six"
  },
  "wind_variable_direction": [],
  "density_altitude": -447,
  "pressure_altitude": 580,
  "units": {
    "accumulation": "in",
    "altimeter": "inHg",
    "altitude": "ft",
    "temperature": "C",
    "visibility": "sm",
    "wind_speed": "kt"
  }
}
