{
  "altimeter": {
    "repr": "A2945",
    "spoken": "two nine point four five",
    "value": 29.45
  },
  "clouds": [
    {
      "altitude": 14,
      "modifier": null,
      "repr": "OVC014",
      "type": "OVC"
    }
  ],
  "density_altitude": -1251,
  "dewpoint": {
    "repr": "M02",
    "spoken": "minus two",
    "value": -2
  },
  "flight_rules": "IFR",
  "meta": {
    "cache-timestamp": "2024-01-17T15:40:04.298000Z",
    "stations_updated": "2023-10-28",
    "timestamp": "2024-01-17T15:40:33.489197Z"
  },
  "other": [],
  "pressure_altitude": 640,
  "raw": "KBLI 171453Z 03008KT 1 1/4SM -SN BR OVC014 M01/M02 A2945 RMK AO2 SLP981 P0009 60024 T10111022 56020",
  "relative_humidity": 0.9222704961872329,
  "remarks": "RMK AO2 SLP981 P0009 60024 T10111022 56020",
  "remarks_info": {
    "codes": [
      {
        "repr": "AO2",
        "value": "Automated with precipitation sensor"
      }
    ],
    "dewpoint_decimal": {
      "repr": "1022",
      "spoken": "minus two point two",
      "value": -2.2
    },
    "maximum_temperature_24": null,
    "maximum_temperature_6": null,
    "minimum_temperature_24": null,
    "minimum_temperature_6": null,
    "precip_24_hours": null,
    "precip_36_hours": {
      "repr": "60024",
      "spoken": "zero point two four",
      "value": 0.24
    },
    "precip_hourly": {
      "repr": "P0009",
      "spoken": "zero point zero nine",
      "value": 0.09
    },
    "pressure_tendency": {
      "change": 2,
      "repr": "56020",
      "tendency": "Decreasing, then steady"
    },
    "sea_level_pressure": {
      "repr": "SLP981",
      "spoken": "nine nine eight point one",
      "value": 998.1
    },
    "snow_depth": null,
    "sunshine_minutes": null,
    "temperature_decimal": {
      "repr": "1011",
      "spoken": "minus one point one",
      "value": -1.1
    }
  },
  "runway_visibility": [],
  "sanitized": "KBLI 171453Z 03008KT 1 1/4SM -SN BR OVC014 M01/M02 A2945 RMK AO2 SLP981 P0009 60024 T10111022 56020",
  "station": "KBLI",
  "temperature": {
    "repr": "M01",
    "spoken": "minus one",
    "value": -1
  },
  "time": {
    "dt": "2024-01-17T14:53:00Z",
    "repr": "171453Z"
  },
  "units": {
    "accumulation": "in",
    "altimeter": "inHg",
    "altitude": "ft",
    "temperature": "C",
    "visibility": "sm",
    "wind_speed": "kt"
  },
  "visibility": {
    "denominator": 4,
    "normalized": "1 1/4",
    "numerator": 5,
    "repr": "5/4",
    "spoken": "one and one quarter",
    "value": 1.25
  },
  "wind_direction": {
    "repr": "030",
    "spoken": "zero three zero",
    "value": 30
  },
  "wind_gust": null,
  "wind_speed": {
    "repr": "08",
    "spoken": "eight",
    "value": 8
  },
  "wind_variable_direction": [],
  "wx_codes": [
    {
      "repr": "-SN",
      "value": "Light Snow"
    },
    {
      "repr": "BR",
      "value": "Mist"
    }
  ]
}
