{
  "meta": {
    "timestamp": "2022-11-17T11:25:57.710967Z",
    "stations_updated": "2022-09-05"
  },
  "altimeter": {
    "repr": "A3041",
    "value": 30.41,
    "spoken": "three zero point four one"
  },
  "clouds": [],
  "flight_rules": "VFR",
  "other": [],
  "visibility": {
    "repr": "10",
    "value": 10,
    "spoken": "one zero"
  },
  "wind_direction": {
    "repr": "030",
    "value": 30,
    "spoken": "zero three zero"
  },
  "wind_gust": {
    "repr": "35",
    "value": 35,
    "spoken": "three five"
  },
  "wind_speed": {
    "repr": "21",
    "value": 21,
    "spoken": "two one"
  },
  "wx_codes": [],
  "raw": "KBLI 171053Z AUTO 03021G35KT 10SM CLR 09/M02 A3041 RMK AO2 PK WND 03037/1035 SLP307 T00941022",
  "sanitized": "KBLI 171053Z 03021G35KT 10SM 09/M02 A3041 RMK AO2 PK WND 03037/1035 SLP307 T00941022",
  "station": "KBLI",
  "time": {
    "repr": "171053Z",
    "dt": "2022-11-17T10:53:00Z"
  },
  "remarks": "RMK AO2 PK WND 03037/1035 SLP307 T00941022",
  "dewpoint": {
    "repr": "M02",
    "value": -2,
    "spoken": "minus two"
  },
  "relative_humidity": 0.44136821801466064,
  "remarks_info": {
    "maximum_temperature_6": null,
    "minimum_temperature_6": null,
    "pressure_tendency": null,
    "precip_36_hours": null,
    "precip_24_hours": null,
    "sunshine_minutes": null,
    "codes": [
      {
        "repr": "AO2",
        "value": "Automated with precipitation sensor"
      }
    ],
    "dewpoint_decimal": {
      "repr": "1022",
      "value": -2.2,
      "spoken": "minus two point two"
    },
    "maximum_temperature_24": null,
    "minimum_temperature_24": null,
    "precip_hourly": null,
    "sea_level_pressure": {
      "repr": "SLP307",
      "value": 1030.7,
      "spoken": "one zero three zero point seven"
    },
    "snow_depth": null,
    "temperature_decimal": {
      "repr": "0094",
      "value": 9.4,
      "spoken": "nine point four"
    }
  },
  "runway_visibility": [],
  "temperature": {
    "repr": "09",
    "value": 9,
    "spoken": "nine"
  },
  "wind_variable_direction": [],
  "density_altitude": -951,
  "pressure_altitude": -320,
  "units": {
    "accumulation": "in",
    "altimeter": "inHg",
    "altitude": "ft",
    "temperature": "C",
    "visibility": "sm",
    "wind_speed": "kt"
  }
}
