{
  "meta": {
    "timestamp": "2022-12-22T07:02:01.737548Z",
    "stations_updated": "2022-09-05"
  },
  "altimeter": {
    "repr": "A3063",
    "value": 30.63,
    "spoken": "three zero point six three"
  },
  "clouds": [],
  "flight_rules": "VFR",
  "other": [],
  "visibility": {
    "repr": "9",
    "value": 9,
    "spoken": "nine"
  },
  "wind_direction": {
    "repr": "040",
    "value": 40,
    "spoken": "zero four zero"
  },
  "wind_gust": {
    "repr": "34",
    "value": 34,
    "spoken": "three four"
  },
  "wind_speed": {
    "repr": "21",
    "value": 21,
    "spoken": "two one"
  },
  "wx_codes": [],
  "raw": "KBLI 220653Z AUTO 04021G34KT 9SM CLR M11/M24 A3063 RMK AO2 PK WND 04036/0643 SLP387 T11111239",
  "sanitized": "KBLI 220653Z 04021G34KT 9SM M11/M24 A3063 RMK AO2 PK WND 04036/0643 SLP387 T11111239",
  "station": "KBLI",
  "time": {
    "repr": "220653Z",
    "dt": "2022-12-22T06:53:00Z"
  },
  "remarks": "RMK AO2 PK WND 04036/0643 SLP387 T11111239",
  "dewpoint": {
    "repr": "M24",
    "value": -24,
    "spoken": "minus two four"
  },
  "relative_humidity": 0.33988834986216726,
  "remarks_info": {
    "maximum_temperature_6": null,
    "minimum_temperature_6": null,
    "pressure_tendency": null,
    "precip_36_hours": null,
    "precip_24_hours": null,
    "sunshine_minutes": null,
    "codes": [
      {
        "repr": "AO2",
        "value": "Automated with precipitation sensor"
      }
    ],
    "dewpoint_decimal": {
      "repr": "1239",
      "value": -23.9,
      "spoken": "minus two three point nine"
    },
    "maximum_temperature_24": null,
    "minimum_temperature_24": null,
    "precip_hourly": null,
    "sea_level_pressure": {
      "repr": "SLP387",
      "value": 1038.7,
      "spoken": "one zero three eight point seven"
    },
    "snow_depth": null,
    "temperature_decimal": {
      "repr": "1111",
      "value": -11.1,
      "spoken": "minus one one point one"
    }
  },
  "runway_visibility": [],
  "temperature": {
    "repr": "M11",
    "value": -11,
    "spoken": "minus one one"
  },
  "wind_variable_direction": [],
  "density_altitude": -3631,
  "pressure_altitude": -540,
  "units": {
    "accumulation": "in",
    "altimeter": "inHg",
    "altitude": "ft",
    "temperature": "C",
    "visibility": "sm",
    "wind_speed": "kt"
  }
}
