{
  "meta": {
    "timestamp": "2023-04-10T08:40:37.772248Z",
    "stations_updated": "2023-03-11",
    "cache-timestamp": "2023-04-10T08:40:07.332000Z"
  },
  "altimeter": {
    "repr": "A3015",
    "value": 30.15,
    "spoken": "three zero point one five"
  },
  "clouds": [],
  "flight_rules": "VFR",
  "other": [],
  "visibility": {
    "repr": "10",
    "value": 10,
    "spoken": "one zero"
  },
  "wind_direction": {
    "repr": "000",
    "value": 0,
    "spoken": "zero zero zero"
  },
  "wind_gust": null,
  "wind_speed": {
    "repr": "00",
    "value": 0,
    "spoken": "zero"
  },
  "wx_codes": [],
  "raw": "KBLI 100753Z AUTO 00000KT 10SM CLR 07/07 A3015 RMK AO2 SLP218 T00720072 401440067",
  "sanitized": "KBLI 100753Z 00000KT 10SM 07/07 A3015 RMK AO2 SLP218 T00720072 401440067",
  "station": "KBLI",
  "time": {
    "repr": "100753Z",
    "dt": "2023-04-10T07:53:00Z"
  },
  "remarks": "RMK AO2 SLP218 T00720072 401440067",
  "dewpoint": {
    "repr": "07",
    "value": 7,
    "spoken": "seven"
  },
  "relative_humidity": 1,
  "remarks_info": {
    "maximum_temperature_6": null,
    "minimum_temperature_6": null,
    "pressure_tendency": null,
    "precip_36_hours": null,
    "precip_24_hours": null,
    "sunshine_minutes": null,
    "codes": [
      {
        "repr": "AO2",
        "value": "Automated with precipitation sensor"
      }
    ],
    "dewpoint_decimal": {
      "repr": "0072",
      "value": 7.2,
      "spoken": "seven point two"
    },
    "maximum_temperature_24": {
      "repr": "0144",
      "value": 14.4,
      "spoken": "one four point four"
    },
    "minimum_temperature_24": {
      "repr": "0067",
      "value": 6.7,
      "spoken": "six point seven"
    },
    "precip_hourly": null,
    "sea_level_pressure": {
      "repr": "SLP218",
      "value": 1021.8,
      "spoken": "one zero two one point eight"
    },
    "snow_depth": null,
    "temperature_decimal": {
      "repr": "0072",
      "value": 7.2,
      "spoken": "seven point two"
    }
  },
  "runway_visibility": [],
  "temperature": {
    "repr": "07",
    "value": 7,
    "spoken": "seven"
  },
  "wind_variable_direction": [],
  "density_altitude": -955,
  "pressure_altitude": -60,
  "units": {
    "accumulation": "in",
    "altimeter": "inHg",
    "altitude": "ft",
    "temperature": "C",
    "visibility": "sm",
    "wind_speed": "kt"
  }
}
