{
  "meta": {
    "timestamp": "2023-02-23T04:32:34.626535Z",
    "stations_updated": "2023-01-30"
  },
  "altimeter": {
    "repr": "A2964",
    "value": 29.64,
    "spoken": "two nine point six four"
  },
  "clouds": [
    {
      "repr": "OVC060",
      "type": "OVC",
      "altitude": 60,
      "modifier": null
    }
  ],
  "flight_rules": "VFR",
  "other": [],
  "visibility": {
    "repr": "10",
    "value": 10,
    "spoken": "one zero"
  },
  "wind_direction": {
    "repr": "040",
    "value": 40,
    "spoken": "zero four zero"
  },
  "wind_gust": {
    "repr": "36",
    "value": 36,
    "spoken": "three six"
  },
  "wind_speed": {
    "repr": "19",
    "value": 19,
    "spoken": "one nine"
  },
  "wx_codes": [],
  "raw": "KBLI 230353Z 04019G36KT 10SM OVC060 M03/M14 A2964 RMK AO2 PK WND 04036/0342 SLP047 T10281139",
  "sanitized": "KBLI 230353Z 04019G36KT 10SM OVC060 M03/M14 A2964 RMK AO2 PK WND 04036/0342 SLP047 T10281139",
  "station": "KBLI",
  "time": {
    "repr": "230353Z",
    "dt": "2023-02-23T03:53:00Z"
  },
  "remarks": "RMK AO2 PK WND 04036/0342 SLP047 T10281139",
  "dewpoint": {
    "repr": "M14",
    "value": -14,
    "spoken": "minus one four"
  },
  "relative_humidity": 0.42139166648709525,
  "remarks_info": {
    "maximum_temperature_6": null,
    "minimum_temperature_6": null,
    "pressure_tendency": null,
    "precip_36_hours": null,
    "precip_24_hours": null,
    "sunshine_minutes": null,
    "codes": [
      {
        "repr": "AO2",
        "value": "Automated with precipitation sensor"
      }
    ],
    "dewpoint_decimal": {
      "repr": "1139",
      "value": -13.9,
      "spoken": "minus one three point nine"
    },
    "maximum_temperature_24": null,
    "minimum_temperature_24": null,
    "precip_hourly": null,
    "sea_level_pressure": {
      "repr": "SLP047",
      "value": 1004.7,
      "spoken": "one zero zero four point seven"
    },
    "snow_depth": null,
    "temperature_decimal": {
      "repr": "1028",
      "value": -2.8,
      "spoken": "minus two point eight"
    }
  },
  "runway_visibility": [],
  "temperature": {
    "repr": "M03",
    "value": -3,
    "spoken": "minus three"
  },
  "wind_variable_direction": [],
  "density_altitude": -1645,
  "pressure_altitude": 450,
  "units": {
    "accumulation": "in",
    "altimeter": "inHg",
    "altitude": "ft",
    "temperature": "C",
    "visibility": "sm",
    "wind_speed": "kt"
  }
}
