{
  "meta": {
    "timestamp": "2022-12-15T08:32:30.006332Z",
    "stations_updated": "2022-09-05"
  },
  "altimeter": {
    "repr": "A3053",
    "value": 30.53,
    "spoken": "three zero point five three"
  },
  "clouds": [],
  "flight_rules": "MVFR",
  "other": [],
  "visibility": {
    "repr": "5",
    "value": 5,
    "spoken": "five"
  },
  "wind_direction": {
    "repr": "350",
    "value": 350,
    "spoken": "three five zero"
  },
  "wind_gust": null,
  "wind_speed": {
    "repr": "03",
    "value": 3,
    "spoken": "three"
  },
  "wx_codes": [
    {
      "repr": "BR",
      "value": "Mist"
    }
  ],
  "raw": "KBLI 150753Z AUTO 35003KT 5SM BR CLR M03/M03 A3053 RMK AO2 SLP348 I1000 T10281028 400671033",
  "sanitized": "KBLI 150753Z 35003KT 5SM BR M03/M03 A3053 RMK AO2 SLP348 I1000 T10281028 400671033",
  "station": "KBLI",
  "time": {
    "repr": "150753Z",
    "dt": "2022-12-15T07:53:00Z"
  },
  "remarks": "RMK AO2 SLP348 I1000 T10281028 400671033",
  "dewpoint": {
    "repr": "M03",
    "value": -3,
    "spoken": "minus three"
  },
  "relative_humidity": 1,
  "remarks_info": {
    "maximum_temperature_6": null,
    "minimum_temperature_6": null,
    "pressure_tendency": null,
    "precip_36_hours": null,
    "precip_24_hours": null,
    "sunshine_minutes": null,
    "codes": [
      {
        "repr": "AO2",
        "value": "Automated with precipitation sensor"
      }
    ],
    "dewpoint_decimal": {
      "repr": "1028",
      "value": -2.8,
      "spoken": "minus two point eight"
    },
    "maximum_temperature_24": {
      "repr": "0067",
      "value": 6.7,
      "spoken": "six point seven"
    },
    "minimum_temperature_24": {
      "repr": "1033",
      "value": -3.3,
      "spoken": "minus three point three"
    },
    "precip_hourly": null,
    "sea_level_pressure": {
      "repr": "SLP348",
      "value": 1034.8,
      "spoken": "one zero three four point eight"
    },
    "snow_depth": null,
    "temperature_decimal": {
      "repr": "1028",
      "value": -2.8,
      "spoken": "minus two point eight"
    }
  },
  "runway_visibility": [],
  "temperature": {
    "repr": "M03",
    "value": -3,
    "spoken": "minus three"
  },
  "wind_variable_direction": [],
  "density_altitude": -2535,
  "pressure_altitude": -440,
  "units": {
    "accumulation": "in",
    "altimeter": "inHg",
    "altitude": "ft",
    "temperature": "C",
    "visibility": "sm",
    "wind_speed": "kt"
  }
}
