{
  "meta": {
    "timestamp": "2023-01-29T11:01:24.588024Z",
    "stations_updated": "2023-01-16"
  },
  "altimeter": {
    "repr": "A3046",
    "value": 30.46,
    "spoken": "three zero point four six"
  },
  "clouds": [],
  "flight_rules": "VFR",
  "other": [],
  "visibility": {
    "repr": "10",
    "value": 10,
    "spoken": "one zero"
  },
  "wind_direction": {
    "repr": "040",
    "value": 40,
    "spoken": "zero four zero"
  },
  "wind_gust": {
    "repr": "31",
    "value": 31,
    "spoken": "three one"
  },
  "wind_speed": {
    "repr": "20",
    "value": 20,
    "spoken": "two zero"
  },
  "wx_codes": [],
  "raw": "KBLI 291053Z AUTO 04020G31KT 10SM CLR M01/M13 A3046 RMK AO2 PK WND 04032/1027 SLP323 T10061133",
  "sanitized": "KBLI 291053Z 04020G31KT 10SM M01/M13 A3046 RMK AO2 PK WND 04032/1027 SLP323 T10061133",
  "station": "KBLI",
  "time": {
    "repr": "291053Z",
    "dt": "2023-01-29T10:53:00Z"
  },
  "remarks": "RMK AO2 PK WND 04032/1027 SLP323 T10061133",
  "dewpoint": {
    "repr": "M13",
    "value": -13,
    "spoken": "minus one three"
  },
  "relative_humidity": 0.37634401270745726,
  "remarks_info": {
    "maximum_temperature_6": null,
    "minimum_temperature_6": null,
    "pressure_tendency": null,
    "precip_36_hours": null,
    "precip_24_hours": null,
    "sunshine_minutes": null,
    "codes": [
      {
        "repr": "AO2",
        "value": "Automated with precipitation sensor"
      }
    ],
    "dewpoint_decimal": {
      "repr": "1133",
      "value": -13.3,
      "spoken": "minus one three point three"
    },
    "maximum_temperature_24": null,
    "minimum_temperature_24": null,
    "precip_hourly": null,
    "sea_level_pressure": {
      "repr": "SLP323",
      "value": 1032.3,
      "spoken": "one zero three two point three"
    },
    "snow_depth": null,
    "temperature_decimal": {
      "repr": "1006",
      "value": -0.6,
      "spoken": "minus zero point six"
    }
  },
  "runway_visibility": [],
  "temperature": {
    "repr": "M01",
    "value": -1,
    "spoken": "minus one"
  },
  "wind_variable_direction": [],
  "density_altitude": -2201,
  "pressure_altitude": -370,
  "units": {
    "accumulation": "in",
    "altimeter": "inHg",
    "altitude": "ft",
    "temperature": "C",
    "visibility": "sm",
    "wind_speed": "kt"
  }
}
