{
  "meta": {
    "timestamp": "2022-10-16T11:02:32.345352Z",
    "stations_updated": "2022-09-05"
  },
  "altimeter": {
    "repr": "A2996",
    "value": 29.96,
    "spoken": "two nine point nine six"
  },
  "clouds": [
    {
      "repr": "BKN039",
      "type": "BKN",
      "altitude": 39,
      "modifier": null
    }
  ],
  "flight_rules": "LIFR",
  "other": [],
  "visibility": {
    "repr": "1/2",
    "value": 0.5,
    "spoken": "one half",
    "numerator": 1,
    "denominator": 2,
    "normalized": "1/2"
  },
  "wind_direction": {
    "repr": "000",
    "value": 0,
    "spoken": "zero zero zero"
  },
  "wind_gust": null,
  "wind_speed": {
    "repr": "00",
    "value": 0,
    "spoken": "zero"
  },
  "wx_codes": [
    {
      "repr": "FG",
      "value": "Fog"
    }
  ],
  "raw": "KBLI 161053Z AUTO 00000KT 1/2SM R16/5000VP6000FT FG BKN039 07/06 A2996 RMK AO2 SLP151 T00720061",
  "sanitized": "KBLI 161053Z 00000KT 1/2SM R16/5000VP6000FT FG BKN039 07/06 A2996 RMK AO2 SLP151 T00720061",
  "station": "KBLI",
  "time": {
    "repr": "161053Z",
    "dt": "2022-10-16T10:53:00Z"
  },
  "remarks": "RMK AO2 SLP151 T00720061",
  "dewpoint": {
    "repr": "06",
    "value": 6,
    "spoken": "six"
  },
  "relative_humidity": 0.9271535108565763,
  "remarks_info": {
    "maximum_temperature_6": null,
    "minimum_temperature_6": null,
    "pressure_tendency": null,
    "precip_36_hours": null,
    "precip_24_hours": null,
    "sunshine_minutes": null,
    "codes": [
      {
        "repr": "AO2",
        "value": "Automated with precipitation sensor"
      }
    ],
    "dewpoint_decimal": {
      "repr": "0061",
      "value": 6.1,
      "spoken": "six point one"
    },
    "maximum_temperature_24": null,
    "minimum_temperature_24": null,
    "precip_hourly": null,
    "sea_level_pressure": {
      "repr": "SLP151",
      "value": 1015.1,
      "spoken": "one zero one five point one"
    },
    "snow_depth": null,
    "temperature_decimal": {
      "repr": "0072",
      "value": 7.2,
      "spoken": "seven point two"
    }
  },
  "runway_visibility": [
    {
      "repr": "R16/5000VP6000FT",
      "runway": "16",
      "visibility": null,
      "variable_visibility": [
        {
          "repr": "5000",
          "value": 5000,
          "spoken": "five thousand"
        },
        {
          "repr": "P6000",
          "value": null,
          "spoken": "greater than six thousand"
        }
      ],
      "trend": null
    }
  ],
  "temperature": {
    "repr": "07",
    "value": 7,
    "spoken": "seven"
  },
  "wind_variable_direction": [],
  "density_altitude": -765,
  "pressure_altitude": 130,
  "units": {
    "accumulation": "in",
    "altimeter": "inHg",
    "altitude": "ft",
    "temperature": "C",
    "visibility": "sm",
    "wind_speed": "kt"
  }
}
