{
  "altimeter": {
    "repr": "A2942",
    "spoken": "two nine point four two",
    "value": 29.42
  },
  "clouds": [
    {
      "altitude": 8,
      "modifier": null,
      "repr": "VV008",
      "type": "VV"
    }
  ],
  "density_altitude": -1353,
  "dewpoint": {
    "repr": "M03",
    "spoken": "minus three",
    "value": -3
  },
  "flight_rules": "LIFR",
  "meta": {
    "cache-timestamp": "2024-01-17T17:40:05.401000Z",
    "stations_updated": "2023-10-28",
    "timestamp": "2024-01-17T17:40:29.450377Z"
  },
  "other": [],
  "pressure_altitude": 670,
  "raw": "KBLI 171719Z 04011KT 1/4SM R16/2200V3000FT +SN FZFG VV008 M02/M03 A2942 RMK AO2 P0003 T10221028",
  "relative_humidity": 0.956525227573871,
  "remarks": "RMK AO2 P0003 T10221028",
  "remarks_info": {
    "codes": [
      {
        "repr": "AO2",
        "value": "Automated with precipitation sensor"
      }
    ],
    "dewpoint_decimal": {
      "repr": "1028",
      "spoken": "minus two point eight",
      "value": -2.8
    },
    "maximum_temperature_24": null,
    "maximum_temperature_6": null,
    "minimum_temperature_24": null,
    "minimum_temperature_6": null,
    "precip_24_hours": null,
    "precip_36_hours": null,
    "precip_hourly": {
      "repr": "P0003",
      "spoken": "zero point zero three",
      "value": 0.03
    },
    "pressure_tendency": null,
    "sea_level_pressure": null,
    "snow_depth": null,
    "sunshine_minutes": null,
    "temperature_decimal": {
      "repr": "1022",
      "spoken": "minus two point two",
      "value": -2.2
    }
  },
  "runway_visibility": [
    {
      "repr": "R16/2200V3000FT",
      "runway": "16",
      "trend": null,
      "variable_visibility": [
        {
          "repr": "2200",
          "spoken": "two two hundred",
          "value": 2200
        },
        {
          "repr": "3000",
          "spoken": "three thousand",
          "value": 3000
        }
      ],
      "visibility": null
    }
  ],
  "sanitized": "KBLI 171719Z 04011KT 1/4SM R16/2200V3000FT +SN FZFG VV008 M02/M03 A2942 RMK AO2 P0003 T10221028",
  "station": "KBLI",
  "temperature": {
    "repr": "M02",
    "spoken": "minus two",
    "value": -2
  },
  "time": {
    "dt": "2024-01-17T17:19:00Z",
    "repr": "171719Z"
  },
  "units": {
    "accumulation": "in",
    "altimeter": "inHg",
    "altitude": "ft",
    "temperature": "C",
    "visibility": "sm",
    "wind_speed": "kt"
  },
  "visibility": {
    "denominator": 4,
    "normalized": "1/4",
    "numerator": 1,
    "repr": "1/4",
    "spoken": "one quarter",
    "value": 0.25
  },
  "wind_direction": {
    "repr": "040",
    "spoken": "zero four zero",
    "value": 40
  },
  "wind_gust": null,
  "wind_speed": {
    "repr": "11",
    "spoken": "one one",
    "value": 11
  },
  "wind_variable_direction": [],
  "wx_codes": [
    {
      "repr": "+SN",
      "value": "Heavy Snow"
    },
    {
      "repr": "FZFG",
      "value": "Freezing Fog"
    }
  ]
}
