{
  "meta": {
    "timestamp": "2023-10-26T23:40:36.979471Z",
    "stations_updated": "2023-10-01",
    "cache-timestamp": "2023-10-26T23:40:05.103000Z"
  },
  "altimeter": {
    "repr": "A3024",
    "value": 30.24,
    "spoken": "three zero point two four"
  },
  "clouds": [],
  "flight_rules": "VFR",
  "other": [],
  "visibility": {
    "repr": "10",
    "value": 10,
    "spoken": "one zero"
  },
  "wind_direction": {
    "repr": "VRB",
    "value": null,
    "spoken": "variable"
  },
  "wind_gust": null,
  "wind_speed": {
    "repr": "05",
    "value": 5,
    "spoken": "five"
  },
  "wx_codes": [],
  "raw": "KBLI 262253Z VRB05KT 10SM CLR 10/M06 A3024 RMK AO2 SLP251 T01001061",
  "sanitized": "KBLI 262253Z VRB05KT 10SM 10/M06 A3024 RMK AO2 SLP251 T01001061",
  "station": "KBLI",
  "time": {
    "repr": "262253Z",
    "dt": "2023-10-26T22:53:00Z"
  },
  "remarks": "RMK AO2 SLP251 T01001061",
  "dewpoint": {
    "repr": "M06",
    "value": -6,
    "spoken": "minus six"
  },
  "relative_humidity": 0.3162973296589012,
  "remarks_info": {
    "maximum_temperature_6": null,
    "minimum_temperature_6": null,
    "pressure_tendency": null,
    "precip_36_hours": null,
    "precip_24_hours": null,
    "sunshine_minutes": null,
    "codes": [
      {
        "repr": "AO2",
        "value": "Automated with precipitation sensor"
      }
    ],
    "dewpoint_decimal": {
      "repr": "1061",
      "value": -6.1,
      "spoken": "minus six point one"
    },
    "maximum_temperature_24": null,
    "minimum_temperature_24": null,
    "precip_hourly": null,
    "sea_level_pressure": {
      "repr": "SLP251",
      "value": 1025.1,
      "spoken": "one zero two five point one"
    },
    "snow_depth": null,
    "temperature_decimal": {
      "repr": "0100",
      "value": 10,
      "spoken": "one zero point zero"
    }
  },
  "runway_visibility": [],
  "temperature": {
    "repr": "10",
    "value": 10,
    "spoken": "one zero"
  },
  "wind_variable_direction": [],
  "density_altitude": -709,
  "pressure_altitude": -150,
  "units": {
    "accumulation": "in",
    "altimeter": "inHg",
    "altitude": "ft",
    "temperature": "C",
    "visibility": "sm",
    "wind_speed": "kt"
  }
}
