{
  "altimeter": {
    "repr": "A3027",
    "spoken": "three zero point two seven",
    "value": 30.27
  },
  "clouds": [
    {
      "altitude": 2,
      "modifier": null,
      "repr": "VV002",
      "type": "VV"
    }
  ],
  "density_altitude": -1003,
  "dewpoint": {
    "repr": "08",
    "spoken": "eight",
    "value": 8
  },
  "flight_rules": "LIFR",
  "meta": {
    "stations_updated": "2024-06-12",
    "timestamp": "2024-10-10T15:29:42.732603Z"
  },
  "other": [
    "M14KT"
  ],
  "pressure_altitude": -180,
  "raw": "KBLI 101453Z 06004KT M1/4SM R16/1000V1200FT FG VV002 08/08 A3027 RMK AO2 SLP258 T00780078 51006",
  "relative_humidity": 1,
  "remarks": "RMK AO2 SLP258 T00780078 51006",
  "remarks_info": {
    "codes": [
      {
        "repr": "AO2",
        "value": "Automated with precipitation sensor"
      }
    ],
    "dewpoint_decimal": {
      "repr": "0078",
      "spoken": "seven point eight",
      "value": 7.8
    },
    "maximum_temperature_24": null,
    "maximum_temperature_6": null,
    "minimum_temperature_24": null,
    "minimum_temperature_6": null,
    "precip_24_hours": null,
    "precip_36_hours": null,
    "precip_hourly": null,
    "pressure_tendency": {
      "change": 0.6,
      "repr": "51006",
      "tendency": "Increasing, then steady"
    },
    "sea_level_pressure": {
      "repr": "SLP258",
      "spoken": "one zero two five point eight",
      "value": 1025.8
    },
    "snow_depth": null,
    "sunshine_minutes": null,
    "temperature_decimal": {
      "repr": "0078",
      "spoken": "seven point eight",
      "value": 7.8
    }
  },
  "runway_visibility": [
    {
      "repr": "R16/1000V1200FT",
      "runway": "16",
      "trend": null,
      "variable_visibility": [
        {
          "repr": "1000",
          "spoken": "one thousand",
          "value": 1000
        },
        {
          "repr": "1200",
          "spoken": "one two hundred",
          "value": 1200
        }
      ],
      "visibility": null
    }
  ],
  "sanitized": "KBLI 101453Z 06004KT M14KT R16/1000V1200FT FG VV002 08/08 A3027 RMK AO2 SLP258 T00780078 51006",
  "station": "KBLI",
  "temperature": {
    "repr": "08",
    "spoken": "eight",
    "value": 8
  },
  "time": {
    "dt": "2024-10-10T14:53:00Z",
    "repr": "101453Z"
  },
  "units": {
    "accumulation": "in",
    "altimeter": "inHg",
    "altitude": "ft",
    "temperature": "C",
    "visibility": "sm",
    "wind_speed": "kt"
  },
  "visibility": null,
  "wind_direction": {
    "repr": "060",
    "spoken": "zero six zero",
    "value": 60
  },
  "wind_gust": null,
  "wind_speed": {
    "repr": "04",
    "spoken": "four",
    "value": 4
  },
  "wind_variable_direction": [],
  "wx_codes": [
    {
      "repr": "FG",
      "value": "Fog"
    }
  ]
}
