{
  "meta": {
    "timestamp": "2022-09-01T18:40:29.611550Z",
    "stations_updated": "2022-07-17"
  },
  "altimeter": {
    "repr": "A3005",
    "value": 30.05,
    "spoken": "three zero point zero five"
  },
  "clouds": [
    {
      "repr": "BKN006",
      "type": "BKN",
      "altitude": 6,
      "modifier": null
    }
  ],
  "flight_rules": "IFR",
  "other": [],
  "visibility": {
    "repr": "10",
    "value": 10,
    "spoken": "one zero"
  },
  "wind_direction": {
    "repr": "200",
    "value": 200,
    "spoken": "two zero zero"
  },
  "wind_gust": {
    "repr": "15",
    "value": 15,
    "spoken": "one five"
  },
  "wind_speed": {
    "repr": "10",
    "value": 10,
    "spoken": "one zero"
  },
  "wx_codes": [],
  "raw": "KBLI 011753Z 20010G15KT 10SM BKN006 18/16 A3005 RMK AO2 SLP179 T01780161 10178 20156 51006",
  "sanitized": "KBLI 011753Z 20010G15KT 10SM BKN006 18/16 A3005 RMK AO2 SLP179 T01780161 10178 20156 51006",
  "station": "KBLI",
  "time": {
    "repr": "011753Z",
    "dt": "2022-09-01T17:53:00Z"
  },
  "remarks": "RMK AO2 SLP179 T01780161 10178 20156 51006",
  "dewpoint": {
    "repr": "16",
    "value": 16,
    "spoken": "one six"
  },
  "relative_humidity": 0.8977800426191246,
  "remarks_info": {
    "maximum_temperature_6": {
      "repr": "10178",
      "value": 17.8,
      "spoken": "one seven point eight"
    },
    "minimum_temperature_6": {
      "repr": "20156",
      "value": 15.6,
      "spoken": "one five point six"
    },
    "pressure_tendency": {
      "repr": "51006",
      "tendency": "Increasing, then steady",
      "change": 0.6
    },
    "precip_36_hours": null,
    "precip_24_hours": null,
    "sunshine_minutes": null,
    "codes": [
      {
        "repr": "AO2",
        "value": "Automated with precipitation sensor"
      }
    ],
    "dewpoint_decimal": {
      "repr": "0161",
      "value": 16.1,
      "spoken": "one six point one"
    },
    "maximum_temperature_24": null,
    "minimum_temperature_24": null,
    "precip_hourly": null,
    "sea_level_pressure": {
      "repr": "SLP179",
      "value": 1017.9,
      "spoken": "one zero one seven point nine"
    },
    "snow_depth": null,
    "temperature_decimal": {
      "repr": "0178",
      "value": 17.8,
      "spoken": "one seven point eight"
    }
  },
  "runway_visibility": [],
  "temperature": {
    "repr": "18",
    "value": 18,
    "spoken": "one eight"
  },
  "wind_variable_direction": [],
  "density_altitude": 417,
  "pressure_altitude": 40,
  "units": {
    "accumulation": "in",
    "altimeter": "inHg",
    "altitude": "ft",
    "temperature": "C",
    "visibility": "sm",
    "wind_speed": "kt"
  }
}
