{
  "meta": {
    "timestamp": "2023-10-17T06:40:31.609242Z",
    "stations_updated": "2023-10-01",
    "cache-timestamp": "2023-10-17T06:40:03.959000Z"
  },
  "altimeter": {
    "repr": "A3003",
    "value": 30.03,
    "spoken": "three zero point zero three"
  },
  "clouds": [
    {
      "repr": "FEW100",
      "type": "FEW",
      "altitude": 100,
      "modifier": null
    }
  ],
  "flight_rules": "VFR",
  "other": [],
  "visibility": {
    "repr": "10",
    "value": 10,
    "spoken": "one zero"
  },
  "wind_direction": {
    "repr": "180",
    "value": 180,
    "spoken": "one eight zero"
  },
  "wind_gust": null,
  "wind_speed": {
    "repr": "08",
    "value": 8,
    "spoken": "eight"
  },
  "wx_codes": [],
  "raw": "KBLI 170553Z AUTO 18008KT 10SM FEW100 12/09 A3003 RMK AO2 SLP177 60000 T01220089 10139 20117 51020",
  "sanitized": "KBLI 170553Z 18008KT 10SM FEW100 12/09 A3003 RMK AO2 SLP177 60000 T01220089 10139 20117 51020",
  "station": "KBLI",
  "time": {
    "repr": "170553Z",
    "dt": "2023-10-17T05:53:00Z"
  },
  "remarks": "RMK AO2 SLP177 60000 T01220089 10139 20117 51020",
  "dewpoint": {
    "repr": "09",
    "value": 9,
    "spoken": "nine"
  },
  "relative_humidity": 0.8025160760123711,
  "remarks_info": {
    "maximum_temperature_6": {
      "repr": "10139",
      "value": 13.9,
      "spoken": "one three point nine"
    },
    "minimum_temperature_6": {
      "repr": "20117",
      "value": 11.7,
      "spoken": "one one point seven"
    },
    "pressure_tendency": {
      "repr": "51020",
      "tendency": "Increasing, then steady",
      "change": 2
    },
    "precip_36_hours": {
      "repr": "60000",
      "value": 0,
      "spoken": "zero"
    },
    "precip_24_hours": null,
    "sunshine_minutes": null,
    "codes": [
      {
        "repr": "AO2",
        "value": "Automated with precipitation sensor"
      }
    ],
    "dewpoint_decimal": {
      "repr": "0089",
      "value": 8.9,
      "spoken": "eight point nine"
    },
    "maximum_temperature_24": null,
    "minimum_temperature_24": null,
    "precip_hourly": null,
    "sea_level_pressure": {
      "repr": "SLP177",
      "value": 1017.7,
      "spoken": "one zero one seven point seven"
    },
    "snow_depth": null,
    "temperature_decimal": {
      "repr": "0122",
      "value": 12.2,
      "spoken": "one two point two"
    }
  },
  "runway_visibility": [],
  "temperature": {
    "repr": "12",
    "value": 12,
    "spoken": "one two"
  },
  "wind_variable_direction": [],
  "density_altitude": -235,
  "pressure_altitude": 60,
  "units": {
    "accumulation": "in",
    "altimeter": "inHg",
    "altitude": "ft",
    "temperature": "C",
    "visibility": "sm",
    "wind_speed": "kt"
  }
}
