{
  "altimeter": {
    "repr": "A2997",
    "spoken": "two nine point nine seven",
    "value": 29.97
  },
  "clouds": [],
  "density_altitude": 1433,
  "dewpoint": {
    "repr": "14",
    "spoken": "one four",
    "value": 14
  },
  "flight_rules": "VFR",
  "meta": {
    "stations_updated": "2024-06-12",
    "timestamp": "2024-07-07T00:33:22.986119Z"
  },
  "other": [],
  "pressure_altitude": 120,
  "raw": "KBLI 062353Z VRB04KT 10SM CLR 26/14 A2997 RMK AO2 SLP154 T02560139 10261 20217 56013",
  "relative_humidity": 0.48346633765779845,
  "remarks": "RMK AO2 SLP154 T02560139 10261 20217 56013",
  "remarks_info": {
    "codes": [
      {
        "repr": "AO2",
        "value": "Automated with precipitation sensor"
      }
    ],
    "dewpoint_decimal": {
      "repr": "0139",
      "spoken": "one three point nine",
      "value": 13.9
    },
    "maximum_temperature_24": null,
    "maximum_temperature_6": {
      "repr": "10261",
      "spoken": "two six point one",
      "value": 26.1
    },
    "minimum_temperature_24": null,
    "minimum_temperature_6": {
      "repr": "20217",
      "spoken": "two one point seven",
      "value": 21.7
    },
    "precip_24_hours": null,
    "precip_36_hours": null,
    "precip_hourly": null,
    "pressure_tendency": {
      "change": 1.3,
      "repr": "56013",
      "tendency": "Decreasing, then steady"
    },
    "sea_level_pressure": {
      "repr": "SLP154",
      "spoken": "one zero one five point four",
      "value": 1015.4
    },
    "snow_depth": null,
    "sunshine_minutes": null,
    "temperature_decimal": {
      "repr": "0256",
      "spoken": "two five point six",
      "value": 25.6
    }
  },
  "runway_visibility": [],
  "sanitized": "KBLI 062353Z VRB04KT 10SM 26/14 A2997 RMK AO2 SLP154 T02560139 10261 20217 56013",
  "station": "KBLI",
  "temperature": {
    "repr": "26",
    "spoken": "two six",
    "value": 26
  },
  "time": {
    "dt": "2024-07-06T23:53:00Z",
    "repr": "062353Z"
  },
  "units": {
    "accumulation": "in",
    "altimeter": "inHg",
    "altitude": "ft",
    "temperature": "C",
    "visibility": "sm",
    "wind_speed": "kt"
  },
  "visibility": {
    "repr": "10",
    "spoken": "one zero",
    "value": 10
  },
  "wind_direction": {
    "repr": "VRB",
    "spoken": "variable",
    "value": null
  },
  "wind_gust": null,
  "wind_speed": {
    "repr": "04",
    "spoken": "four",
    "value": 4
  },
  "wind_variable_direction": [],
  "wx_codes": []
}
