{
  "meta": {
    "timestamp": "2022-12-25T19:20:44.470818Z",
    "stations_updated": "2022-09-05"
  },
  "altimeter": {
    "repr": "A3019",
    "value": 30.19,
    "spoken": "three zero point one nine"
  },
  "clouds": [
    {
      "repr": "OVC065",
      "type": "OVC",
      "altitude": 65,
      "modifier": null
    }
  ],
  "flight_rules": "VFR",
  "other": [],
  "visibility": {
    "repr": "8",
    "value": 8,
    "spoken": "eight"
  },
  "wind_direction": {
    "repr": "030",
    "value": 30,
    "spoken": "zero three zero"
  },
  "wind_gust": null,
  "wind_speed": {
    "repr": "05",
    "value": 5,
    "spoken": "five"
  },
  "wx_codes": [],
  "raw": "KBLI 251853Z 03005KT 8SM OVC065 06/06 A3019 RMK AO2 SLP230 T00610061 $",
  "sanitized": "KBLI 251853Z 03005KT 8SM OVC065 06/06 A3019 RMK AO2 SLP230 T00610061 $",
  "station": "KBLI",
  "time": {
    "repr": "251853Z",
    "dt": "2022-12-25T18:53:00Z"
  },
  "remarks": "RMK AO2 SLP230 T00610061 $",
  "dewpoint": {
    "repr": "06",
    "value": 6,
    "spoken": "six"
  },
  "relative_humidity": 1,
  "remarks_info": {
    "maximum_temperature_6": null,
    "minimum_temperature_6": null,
    "pressure_tendency": null,
    "precip_36_hours": null,
    "precip_24_hours": null,
    "sunshine_minutes": null,
    "codes": [
      {
        "repr": "$",
        "value": "ASOS requires maintenance"
      },
      {
        "repr": "AO2",
        "value": "Automated with precipitation sensor"
      }
    ],
    "dewpoint_decimal": {
      "repr": "0061",
      "value": 6.1,
      "spoken": "six point one"
    },
    "maximum_temperature_24": null,
    "minimum_temperature_24": null,
    "precip_hourly": null,
    "sea_level_pressure": {
      "repr": "SLP230",
      "value": 1023,
      "spoken": "one zero two three point zero"
    },
    "snow_depth": null,
    "temperature_decimal": {
      "repr": "0061",
      "value": 6.1,
      "spoken": "six point one"
    }
  },
  "runway_visibility": [],
  "temperature": {
    "repr": "06",
    "value": 6,
    "spoken": "six"
  },
  "wind_variable_direction": [],
  "density_altitude": -1127,
  "pressure_altitude": -100,
  "units": {
    "accumulation": "in",
    "altimeter": "inHg",
    "altitude": "ft",
    "temperature": "C",
    "visibility": "sm",
    "wind_speed": "kt"
  }
}
