{
  "meta": {
    "timestamp": "2022-11-29T09:03:04.125586Z",
    "stations_updated": "2022-09-05"
  },
  "altimeter": {
    "repr": "A3003",
    "value": 30.03,
    "spoken": "three zero point zero three"
  },
  "clouds": [],
  "flight_rules": "VFR",
  "other": [],
  "visibility": {
    "repr": "10",
    "value": 10,
    "spoken": "one zero"
  },
  "wind_direction": {
    "repr": "040",
    "value": 40,
    "spoken": "zero four zero"
  },
  "wind_gust": {
    "repr": "16",
    "value": 16,
    "spoken": "one six"
  },
  "wind_speed": {
    "repr": "10",
    "value": 10,
    "spoken": "one zero"
  },
  "wx_codes": [],
  "raw": "KBLI 290853Z AUTO 04010G16KT 10SM CLR M03/M11 A3003 RMK AO2 SLP180 T10281111 52006",
  "sanitized": "KBLI 290853Z 04010G16KT 10SM M03/M11 A3003 RMK AO2 SLP180 T10281111 52006",
  "station": "KBLI",
  "time": {
    "repr": "290853Z",
    "dt": "2022-11-29T08:53:00Z"
  },
  "remarks": "RMK AO2 SLP180 T10281111 52006",
  "dewpoint": {
    "repr": "M11",
    "value": -11,
    "spoken": "minus one one"
  },
  "relative_humidity": 0.5281301565359418,
  "remarks_info": {
    "maximum_temperature_6": null,
    "minimum_temperature_6": null,
    "pressure_tendency": {
      "repr": "52006",
      "tendency": "Increasing steadily or unsteadily",
      "change": 0.6
    },
    "precip_36_hours": null,
    "precip_24_hours": null,
    "sunshine_minutes": null,
    "codes": [
      {
        "repr": "AO2",
        "value": "Automated with precipitation sensor"
      }
    ],
    "dewpoint_decimal": {
      "repr": "1111",
      "value": -11.1,
      "spoken": "minus one one point one"
    },
    "maximum_temperature_24": null,
    "minimum_temperature_24": null,
    "precip_hourly": null,
    "sea_level_pressure": {
      "repr": "SLP180",
      "value": 1018,
      "spoken": "one zero one eight point zero"
    },
    "snow_depth": null,
    "temperature_decimal": {
      "repr": "1028",
      "value": -2.8,
      "spoken": "minus two point eight"
    }
  },
  "runway_visibility": [],
  "temperature": {
    "repr": "M03",
    "value": -3,
    "spoken": "minus three"
  },
  "wind_variable_direction": [],
  "density_altitude": -2035,
  "pressure_altitude": 60,
  "units": {
    "accumulation": "in",
    "altimeter": "inHg",
    "altitude": "ft",
    "temperature": "C",
    "visibility": "sm",
    "wind_speed": "kt"
  }
}
