{
  "meta": {
    "timestamp": "2023-07-22T02:45:36.036743Z",
    "stations_updated": "2023-06-06"
  },
  "altimeter": {
    "repr": "A3003",
    "value": 30.03,
    "spoken": "three zero point zero three"
  },
  "clouds": [
    {
      "repr": "FEW070",
      "type": "FEW",
      "altitude": 70,
      "modifier": null
    }
  ],
  "flight_rules": "VFR",
  "other": [],
  "visibility": {
    "repr": "10",
    "value": 10,
    "spoken": "one zero"
  },
  "wind_direction": {
    "repr": "180",
    "value": 180,
    "spoken": "one eight zero"
  },
  "wind_gust": null,
  "wind_speed": {
    "repr": "06",
    "value": 6,
    "spoken": "six"
  },
  "wx_codes": [],
  "raw": "KBLI 220153Z 18006KT 10SM FEW070 22/15 A3003 RMK AO2 SLP173 T02170150",
  "sanitized": "KBLI 220153Z 18006KT 10SM FEW070 22/15 A3003 RMK AO2 SLP173 T02170150",
  "station": "KBLI",
  "time": {
    "repr": "220153Z",
    "dt": "2023-07-22T01:53:00Z"
  },
  "remarks": "RMK AO2 SLP173 T02170150",
  "dewpoint": {
    "repr": "15",
    "value": 15,
    "spoken": "one five"
  },
  "relative_humidity": 0.6567118606289203,
  "remarks_info": {
    "maximum_temperature_6": null,
    "minimum_temperature_6": null,
    "pressure_tendency": null,
    "precip_36_hours": null,
    "precip_24_hours": null,
    "sunshine_minutes": null,
    "codes": [
      {
        "repr": "AO2",
        "value": "Automated with precipitation sensor"
      }
    ],
    "dewpoint_decimal": {
      "repr": "0150",
      "value": 15,
      "spoken": "one five point zero"
    },
    "maximum_temperature_24": null,
    "minimum_temperature_24": null,
    "precip_hourly": null,
    "sea_level_pressure": {
      "repr": "SLP173",
      "value": 1017.3,
      "spoken": "one zero one seven point three"
    },
    "snow_depth": null,
    "temperature_decimal": {
      "repr": "0217",
      "value": 21.7,
      "spoken": "two one point seven"
    }
  },
  "runway_visibility": [],
  "temperature": {
    "repr": "22",
    "value": 22,
    "spoken": "two two"
  },
  "wind_variable_direction": [],
  "density_altitude": 905,
  "pressure_altitude": 60,
  "units": {
    "accumulation": "in",
    "altimeter": "inHg",
    "altitude": "ft",
    "temperature": "C",
    "visibility": "sm",
    "wind_speed": "kt"
  }
}
