{
  "meta": {
    "timestamp": "2022-12-20T21:23:41.860496Z",
    "stations_updated": "2022-09-05"
  },
  "altimeter": {
    "repr": "A3013",
    "value": 30.13,
    "spoken": "three zero point one three"
  },
  "clouds": [
    {
      "repr": "OVC022",
      "type": "OVC",
      "altitude": 22,
      "modifier": null
    }
  ],
  "flight_rules": "MVFR",
  "other": [],
  "visibility": {
    "repr": "10",
    "value": 10,
    "spoken": "one zero"
  },
  "wind_direction": {
    "repr": "030",
    "value": 30,
    "spoken": "zero three zero"
  },
  "wind_gust": null,
  "wind_speed": {
    "repr": "12",
    "value": 12,
    "spoken": "one two"
  },
  "wx_codes": [],
  "raw": "KBLI 202053Z 03012KT 10SM OVC022 M07/M11 A3013 RMK AO2 UPB25E29 SLP214 P0000 60000 T10721111 52003",
  "sanitized": "KBLI 202053Z 03012KT 10SM OVC022 M07/M11 A3013 RMK AO2 UPB25E29 SLP214 P0000 60000 T10721111 52003",
  "station": "KBLI",
  "time": {
    "repr": "202053Z",
    "dt": "2022-12-20T20:53:00Z"
  },
  "remarks": "RMK AO2 UPB25E29 SLP214 P0000 60000 T10721111 52003",
  "dewpoint": {
    "repr": "M11",
    "value": -11,
    "spoken": "minus one one"
  },
  "relative_humidity": 0.7367087439512394,
  "remarks_info": {
    "maximum_temperature_6": null,
    "minimum_temperature_6": null,
    "pressure_tendency": {
      "repr": "52003",
      "tendency": "Increasing steadily or unsteadily",
      "change": 0.3
    },
    "precip_36_hours": {
      "repr": "60000",
      "value": 0,
      "spoken": "zero"
    },
    "precip_24_hours": null,
    "sunshine_minutes": null,
    "codes": [
      {
        "repr": "AO2",
        "value": "Automated with precipitation sensor"
      },
      {
        "repr": "P0000",
        "value": "Trace amount of rain in the last hour"
      }
    ],
    "dewpoint_decimal": {
      "repr": "1111",
      "value": -11.1,
      "spoken": "minus one one point one"
    },
    "maximum_temperature_24": null,
    "minimum_temperature_24": null,
    "precip_hourly": null,
    "sea_level_pressure": {
      "repr": "SLP214",
      "value": 1021.4,
      "spoken": "one zero two one point four"
    },
    "snow_depth": null,
    "temperature_decimal": {
      "repr": "1072",
      "value": -7.2,
      "spoken": "minus seven point two"
    }
  },
  "runway_visibility": [],
  "temperature": {
    "repr": "M07",
    "value": -7,
    "spoken": "minus seven"
  },
  "wind_variable_direction": [],
  "density_altitude": -2663,
  "pressure_altitude": -40,
  "units": {
    "accumulation": "in",
    "altimeter": "inHg",
    "altitude": "ft",
    "temperature": "C",
    "visibility": "sm",
    "wind_speed": "kt"
  }
}
