{
  "meta": {
    "timestamp": "2023-09-09T12:37:08.660475Z",
    "stations_updated": "2023-08-05"
  },
  "altimeter": {
    "repr": "A3013",
    "value": 30.13,
    "spoken": "three zero point one three"
  },
  "clouds": [
    {
      "repr": "VV001",
      "type": "VV",
      "altitude": 1,
      "modifier": null
    }
  ],
  "flight_rules": "LIFR",
  "other": [],
  "visibility": {
    "repr": "1/4",
    "value": 0.25,
    "spoken": "one quarter",
    "numerator": 1,
    "denominator": 4,
    "normalized": "1/4"
  },
  "wind_direction": {
    "repr": "000",
    "value": 0,
    "spoken": "zero zero zero"
  },
  "wind_gust": null,
  "wind_speed": {
    "repr": "00",
    "value": 0,
    "spoken": "zero"
  },
  "wx_codes": [
    {
      "repr": "FG",
      "value": "Fog"
    }
  ],
  "raw": "KBLI 091221Z AUTO 00000KT 1/4SM R16/1200V3000FT FG VV001 08/08 A3013 RMK AO2 T00830083",
  "sanitized": "KBLI 091221Z 00000KT 1/4SM R16/1200V3000FT FG VV001 08/08 A3013 RMK AO2 T00830083",
  "station": "KBLI",
  "time": {
    "repr": "091221Z",
    "dt": "2023-09-09T12:21:00Z"
  },
  "remarks": "RMK AO2 T00830083",
  "dewpoint": {
    "repr": "08",
    "value": 8,
    "spoken": "eight"
  },
  "relative_humidity": 1,
  "remarks_info": {
    "maximum_temperature_6": null,
    "minimum_temperature_6": null,
    "pressure_tendency": null,
    "precip_36_hours": null,
    "precip_24_hours": null,
    "sunshine_minutes": null,
    "codes": [
      {
        "repr": "AO2",
        "value": "Automated with precipitation sensor"
      }
    ],
    "dewpoint_decimal": {
      "repr": "0083",
      "value": 8.3,
      "spoken": "eight point three"
    },
    "maximum_temperature_24": null,
    "minimum_temperature_24": null,
    "precip_hourly": null,
    "sea_level_pressure": null,
    "snow_depth": null,
    "temperature_decimal": {
      "repr": "0083",
      "value": 8.3,
      "spoken": "eight point three"
    }
  },
  "runway_visibility": [
    {
      "repr": "R16/1200V3000FT",
      "runway": "16",
      "visibility": null,
      "variable_visibility": [
        {
          "repr": "1200",
          "value": 1200,
          "spoken": "one two hundred"
        },
        {
          "repr": "3000",
          "value": 3000,
          "spoken": "three thousand"
        }
      ],
      "trend": null
    }
  ],
  "temperature": {
    "repr": "08",
    "value": 8,
    "spoken": "eight"
  },
  "wind_variable_direction": [],
  "density_altitude": -803,
  "pressure_altitude": -40,
  "units": {
    "accumulation": "in",
    "altimeter": "inHg",
    "altitude": "ft",
    "temperature": "C",
    "visibility": "sm",
    "wind_speed": "kt"
  }
}
