{
  "meta": {
    "timestamp": "2023-01-27T06:42:50.621664Z",
    "stations_updated": "2023-01-16",
    "cache-timestamp": "2023-01-27T06:42:07.017000Z"
  },
  "altimeter": {
    "repr": "A3034",
    "value": 30.34,
    "spoken": "three zero point three four"
  },
  "clouds": [
    {
      "repr": "OVC009",
      "type": "OVC",
      "altitude": 9,
      "modifier": null
    }
  ],
  "flight_rules": "IFR",
  "other": [],
  "visibility": {
    "repr": "6",
    "value": 6,
    "spoken": "six"
  },
  "wind_direction": {
    "repr": "170",
    "value": 170,
    "spoken": "one seven zero"
  },
  "wind_gust": null,
  "wind_speed": {
    "repr": "10",
    "value": 10,
    "spoken": "one zero"
  },
  "wx_codes": [
    {
      "repr": "-RA",
      "value": "Light Rain"
    },
    {
      "repr": "BR",
      "value": "Mist"
    }
  ],
  "raw": "KBLI 270553Z 17010KT 6SM -RA BR OVC009 07/07 A3034 RMK AO2 CIG 006V011 SLP283 P0005 60007 T00670067 10078 20061 56037",
  "sanitized": "KBLI 270553Z 17010KT 6SM -RA BR OVC009 07/07 A3034 RMK AO2 CIG 006V011 SLP283 P0005 60007 T00670067 10078 20061 56037",
  "station": "KBLI",
  "time": {
    "repr": "270553Z",
    "dt": "2023-01-27T05:53:00Z"
  },
  "remarks": "RMK AO2 CIG 006V011 SLP283 P0005 60007 T00670067 10078 20061 56037",
  "dewpoint": {
    "repr": "07",
    "value": 7,
    "spoken": "seven"
  },
  "relative_humidity": 1,
  "remarks_info": {
    "maximum_temperature_6": {
      "repr": "10078",
      "value": 7.8,
      "spoken": "seven point eight"
    },
    "minimum_temperature_6": {
      "repr": "20061",
      "value": 6.1,
      "spoken": "six point one"
    },
    "pressure_tendency": {
      "repr": "56037",
      "tendency": "Decreasing, then steady",
      "change": 3.7
    },
    "precip_36_hours": {
      "repr": "60007",
      "value": 0.07,
      "spoken": "zero point zero seven"
    },
    "precip_24_hours": null,
    "sunshine_minutes": null,
    "codes": [
      {
        "repr": "AO2",
        "value": "Automated with precipitation sensor"
      }
    ],
    "dewpoint_decimal": {
      "repr": "0067",
      "value": 6.7,
      "spoken": "six point seven"
    },
    "maximum_temperature_24": null,
    "minimum_temperature_24": null,
    "precip_hourly": {
      "repr": "P0005",
      "value": 0.05,
      "spoken": "zero point zero five"
    },
    "sea_level_pressure": {
      "repr": "SLP283",
      "value": 1028.3,
      "spoken": "one zero two eight point three"
    },
    "snow_depth": null,
    "temperature_decimal": {
      "repr": "0067",
      "value": 6.7,
      "spoken": "six point seven"
    }
  },
  "runway_visibility": [],
  "temperature": {
    "repr": "07",
    "value": 7,
    "spoken": "seven"
  },
  "wind_variable_direction": [],
  "density_altitude": -1205,
  "pressure_altitude": -250,
  "units": {
    "accumulation": "in",
    "altimeter": "inHg",
    "altitude": "ft",
    "temperature": "C",
    "visibility": "sm",
    "wind_speed": "kt"
  }
}
