{
  "altimeter": {
    "repr": "A2960",
    "spoken": "two nine point six zero",
    "value": 29.6
  },
  "clouds": [
    {
      "altitude": 23,
      "modifier": null,
      "repr": "BKN023",
      "type": "BKN"
    },
    {
      "altitude": 33,
      "modifier": null,
      "repr": "OVC033",
      "type": "OVC"
    }
  ],
  "density_altitude": -273,
  "dewpoint": {
    "repr": "04",
    "spoken": "four",
    "value": 4
  },
  "flight_rules": "MVFR",
  "meta": {
    "cache-timestamp": "2024-03-12T09:26:03.929000Z",
    "stations_updated": "2024-01-01",
    "timestamp": "2024-03-12T09:26:51.081821Z"
  },
  "other": [],
  "pressure_altitude": 490,
  "raw": "KBLI 120853Z AUTO 17013G25KT 10SM BKN023 OVC033 08/04 A2960 RMK AO2 PK WND 17029/0800 SLP032 T00830044 53017",
  "relative_humidity": 0.7642778368365473,
  "remarks": "RMK AO2 PK WND 17029/0800 SLP032 T00830044 53017",
  "remarks_info": {
    "codes": [
      {
        "repr": "AO2",
        "value": "Automated with precipitation sensor"
      }
    ],
    "dewpoint_decimal": {
      "repr": "0044",
      "spoken": "four point four",
      "value": 4.4
    },
    "maximum_temperature_24": null,
    "maximum_temperature_6": null,
    "minimum_temperature_24": null,
    "minimum_temperature_6": null,
    "precip_24_hours": null,
    "precip_36_hours": null,
    "precip_hourly": null,
    "pressure_tendency": {
      "change": 1.7,
      "repr": "53017",
      "tendency": "Decreasing or steady, then increasing"
    },
    "sea_level_pressure": {
      "repr": "SLP032",
      "spoken": "one zero zero three point two",
      "value": 1003.2
    },
    "snow_depth": null,
    "sunshine_minutes": null,
    "temperature_decimal": {
      "repr": "0083",
      "spoken": "eight point three",
      "value": 8.3
    }
  },
  "runway_visibility": [],
  "sanitized": "KBLI 120853Z 17013G25KT 10SM BKN023 OVC033 08/04 A2960 RMK AO2 PK WND 17029/0800 SLP032 T00830044 53017",
  "station": "KBLI",
  "temperature": {
    "repr": "08",
    "spoken": "eight",
    "value": 8
  },
  "time": {
    "dt": "2024-03-12T08:53:00Z",
    "repr": "120853Z"
  },
  "units": {
    "accumulation": "in",
    "altimeter": "inHg",
    "altitude": "ft",
    "temperature": "C",
    "visibility": "sm",
    "wind_speed": "kt"
  },
  "visibility": {
    "repr": "10",
    "spoken": "one zero",
    "value": 10
  },
  "wind_direction": {
    "repr": "170",
    "spoken": "one seven zero",
    "value": 170
  },
  "wind_gust": {
    "repr": "25",
    "spoken": "two five",
    "value": 25
  },
  "wind_speed": {
    "repr": "13",
    "spoken": "one three",
    "value": 13
  },
  "wind_variable_direction": [],
  "wx_codes": []
}
