{
  "meta": {
    "timestamp": "2023-10-27T08:40:36.955619Z",
    "stations_updated": "2023-10-01",
    "cache-timestamp": "2023-10-27T08:40:03.699000Z"
  },
  "altimeter": {
    "repr": "A3033",
    "value": 30.33,
    "spoken": "three zero point three three"
  },
  "clouds": [],
  "flight_rules": "VFR",
  "other": [],
  "visibility": {
    "repr": "10",
    "value": 10,
    "spoken": "one zero"
  },
  "wind_direction": {
    "repr": "030",
    "value": 30,
    "spoken": "zero three zero"
  },
  "wind_gust": null,
  "wind_speed": {
    "repr": "10",
    "value": 10,
    "spoken": "one zero"
  },
  "wx_codes": [],
  "raw": "KBLI 270753Z AUTO 03010KT 10SM CLR 04/M06 A3033 RMK AO2 SLP279 T00391061 401061022",
  "sanitized": "KBLI 270753Z 03010KT 10SM 04/M06 A3033 RMK AO2 SLP279 T00391061 401061022",
  "station": "KBLI",
  "time": {
    "repr": "270753Z",
    "dt": "2023-10-27T07:53:00Z"
  },
  "remarks": "RMK AO2 SLP279 T00391061 401061022",
  "dewpoint": {
    "repr": "M06",
    "value": -6,
    "spoken": "minus six"
  },
  "relative_humidity": 0.48066722911237414,
  "remarks_info": {
    "maximum_temperature_6": null,
    "minimum_temperature_6": null,
    "pressure_tendency": null,
    "precip_36_hours": null,
    "precip_24_hours": null,
    "sunshine_minutes": null,
    "codes": [
      {
        "repr": "AO2",
        "value": "Automated with precipitation sensor"
      }
    ],
    "dewpoint_decimal": {
      "repr": "1061",
      "value": -6.1,
      "spoken": "minus six point one"
    },
    "maximum_temperature_24": {
      "repr": "0106",
      "value": 10.6,
      "spoken": "one zero point six"
    },
    "minimum_temperature_24": {
      "repr": "1022",
      "value": -2.2,
      "spoken": "minus two point two"
    },
    "precip_hourly": null,
    "sea_level_pressure": {
      "repr": "SLP279",
      "value": 1027.9,
      "spoken": "one zero two seven point nine"
    },
    "snow_depth": null,
    "temperature_decimal": {
      "repr": "0039",
      "value": 3.9,
      "spoken": "three point nine"
    }
  },
  "runway_visibility": [],
  "temperature": {
    "repr": "04",
    "value": 4,
    "spoken": "four"
  },
  "wind_variable_direction": [],
  "density_altitude": -1531,
  "pressure_altitude": -240,
  "units": {
    "accumulation": "in",
    "altimeter": "inHg",
    "altitude": "ft",
    "temperature": "C",
    "visibility": "sm",
    "wind_speed": "kt"
  }
}
