{
  "altimeter": {
    "repr": "A2970",
    "spoken": "two nine point seven zero",
    "value": 29.7
  },
  "clouds": [
    {
      "altitude": 50,
      "modifier": null,
      "repr": "OVC050",
      "type": "OVC"
    }
  ],
  "density_altitude": -1441,
  "dewpoint": {
    "repr": "M08",
    "spoken": "minus eight",
    "value": -8
  },
  "flight_rules": "VFR",
  "meta": {
    "cache-timestamp": "2024-01-17T06:40:13.460000Z",
    "stations_updated": "2023-10-28",
    "timestamp": "2024-01-17T06:40:36.793201Z"
  },
  "other": [],
  "pressure_altitude": 390,
  "raw": "KBLI 170553Z 03004KT 10SM OVC050 M01/M08 A2970 RMK AO2 SLP067 T10061078 10000 21017 56020",
  "relative_humidity": 0.5821051301667359,
  "remarks": "RMK AO2 SLP067 T10061078 10000 21017 56020",
  "remarks_info": {
    "codes": [
      {
        "repr": "AO2",
        "value": "Automated with precipitation sensor"
      }
    ],
    "dewpoint_decimal": {
      "repr": "1078",
      "spoken": "minus seven point eight",
      "value": -7.8
    },
    "maximum_temperature_24": null,
    "maximum_temperature_6": {
      "repr": "10000",
      "spoken": "zero",
      "value": 0
    },
    "minimum_temperature_24": null,
    "minimum_temperature_6": {
      "repr": "21017",
      "spoken": "minus one point seven",
      "value": -1.7
    },
    "precip_24_hours": null,
    "precip_36_hours": null,
    "precip_hourly": null,
    "pressure_tendency": {
      "change": 2,
      "repr": "56020",
      "tendency": "Decreasing, then steady"
    },
    "sea_level_pressure": {
      "repr": "SLP067",
      "spoken": "one zero zero six point seven",
      "value": 1006.7
    },
    "snow_depth": null,
    "sunshine_minutes": null,
    "temperature_decimal": {
      "repr": "1006",
      "spoken": "minus zero point six",
      "value": -0.6
    }
  },
  "runway_visibility": [],
  "sanitized": "KBLI 170553Z 03004KT 10SM OVC050 M01/M08 A2970 RMK AO2 SLP067 T10061078 10000 21017 56020",
  "station": "KBLI",
  "temperature": {
    "repr": "M01",
    "spoken": "minus one",
    "value": -1
  },
  "time": {
    "dt": "2024-01-17T05:53:00Z",
    "repr": "170553Z"
  },
  "units": {
    "accumulation": "in",
    "altimeter": "inHg",
    "altitude": "ft",
    "temperature": "C",
    "visibility": "sm",
    "wind_speed": "kt"
  },
  "visibility": {
    "repr": "10",
    "spoken": "one zero",
    "value": 10
  },
  "wind_direction": {
    "repr": "030",
    "spoken": "zero three zero",
    "value": 30
  },
  "wind_gust": null,
  "wind_speed": {
    "repr": "04",
    "spoken": "four",
    "value": 4
  },
  "wind_variable_direction": [],
  "wx_codes": []
}
