{
  "meta": {
    "timestamp": "2023-09-17T18:25:21.303586Z",
    "stations_updated": "2023-08-05",
    "cache-timestamp": "2023-09-17T18:25:20.928000Z"
  },
  "altimeter": {
    "repr": "A3004",
    "value": 30.04,
    "spoken": "three zero point zero four"
  },
  "clouds": [],
  "flight_rules": "VFR",
  "other": [],
  "visibility": {
    "repr": "10",
    "value": 10,
    "spoken": "one zero"
  },
  "wind_direction": {
    "repr": "190",
    "value": 190,
    "spoken": "one nine zero"
  },
  "wind_gust": {
    "repr": "20",
    "value": 20,
    "spoken": "two zero"
  },
  "wind_speed": {
    "repr": "11",
    "value": 11,
    "spoken": "one one"
  },
  "wx_codes": [],
  "raw": "KBLI 171753Z 19011G20KT 10SM CLR 17/12 A3004 RMK AO2 SLP178 T01720117 10172 20139 53007",
  "sanitized": "KBLI 171753Z 19011G20KT 10SM 17/12 A3004 RMK AO2 SLP178 T01720117 10172 20139 53007",
  "station": "KBLI",
  "time": {
    "repr": "171753Z",
    "dt": "2023-09-17T17:53:00Z"
  },
  "remarks": "RMK AO2 SLP178 T01720117 10172 20139 53007",
  "dewpoint": {
    "repr": "12",
    "value": 12,
    "spoken": "one two"
  },
  "relative_humidity": 0.7006870183412456,
  "remarks_info": {
    "maximum_temperature_6": {
      "repr": "10172",
      "value": 17.2,
      "spoken": "one seven point two"
    },
    "minimum_temperature_6": {
      "repr": "20139",
      "value": 13.9,
      "spoken": "one three point nine"
    },
    "pressure_tendency": {
      "repr": "53007",
      "tendency": "Decreasing or steady, then increasing",
      "change": 0.7
    },
    "precip_36_hours": null,
    "precip_24_hours": null,
    "sunshine_minutes": null,
    "codes": [
      {
        "repr": "AO2",
        "value": "Automated with precipitation sensor"
      }
    ],
    "dewpoint_decimal": {
      "repr": "0117",
      "value": 11.7,
      "spoken": "one one point seven"
    },
    "maximum_temperature_24": null,
    "minimum_temperature_24": null,
    "precip_hourly": null,
    "sea_level_pressure": {
      "repr": "SLP178",
      "value": 1017.8,
      "spoken": "one zero one seven point eight"
    },
    "snow_depth": null,
    "temperature_decimal": {
      "repr": "0172",
      "value": 17.2,
      "spoken": "one seven point two"
    }
  },
  "runway_visibility": [],
  "temperature": {
    "repr": "17",
    "value": 17,
    "spoken": "one seven"
  },
  "wind_variable_direction": [],
  "density_altitude": 355,
  "pressure_altitude": 50,
  "units": {
    "accumulation": "in",
    "altimeter": "inHg",
    "altitude": "ft",
    "temperature": "C",
    "visibility": "sm",
    "wind_speed": "kt"
  }
}
