{
  "meta": {
    "timestamp": "2022-12-01T06:47:31.281333Z",
    "stations_updated": "2022-09-05",
    "cache-timestamp": "2022-12-01T06:47:10.764000Z"
  },
  "altimeter": {
    "repr": "A2955",
    "value": 29.55,
    "spoken": "two nine point five five"
  },
  "clouds": [],
  "flight_rules": "VFR",
  "other": [],
  "visibility": {
    "repr": "8",
    "value": 8,
    "spoken": "eight"
  },
  "wind_direction": {
    "repr": "020",
    "value": 20,
    "spoken": "zero two zero"
  },
  "wind_gust": null,
  "wind_speed": {
    "repr": "05",
    "value": 5,
    "spoken": "five"
  },
  "wx_codes": [],
  "raw": "KBLI 010553Z 02005KT 8SM CLR M02/M02 A2955 RMK AO2 SLP015 T10171017 10022 21017 52008",
  "sanitized": "KBLI 010553Z 02005KT 8SM M02/M02 A2955 RMK AO2 SLP015 T10171017 10022 21017 52008",
  "station": "KBLI",
  "time": {
    "repr": "010553Z",
    "dt": "2022-12-01T05:53:00Z"
  },
  "remarks": "RMK AO2 SLP015 T10171017 10022 21017 52008",
  "dewpoint": {
    "repr": "M02",
    "value": -2,
    "spoken": "minus two"
  },
  "relative_humidity": 1,
  "remarks_info": {
    "maximum_temperature_6": {
      "repr": "10022",
      "value": 2.2,
      "spoken": "two point two"
    },
    "minimum_temperature_6": {
      "repr": "21017",
      "value": -1.7,
      "spoken": "minus one point seven"
    },
    "pressure_tendency": {
      "repr": "52008",
      "tendency": "Increasing steadily or unsteadily",
      "change": 0.8
    },
    "precip_36_hours": null,
    "precip_24_hours": null,
    "sunshine_minutes": null,
    "codes": [
      {
        "repr": "AO2",
        "value": "Automated with precipitation sensor"
      }
    ],
    "dewpoint_decimal": {
      "repr": "1017",
      "value": -1.7,
      "spoken": "minus one point seven"
    },
    "maximum_temperature_24": null,
    "minimum_temperature_24": null,
    "precip_hourly": null,
    "sea_level_pressure": {
      "repr": "SLP015",
      "value": 1001.5,
      "spoken": "one zero zero one point five"
    },
    "snow_depth": null,
    "temperature_decimal": {
      "repr": "1017",
      "value": -1.7,
      "spoken": "minus one point seven"
    }
  },
  "runway_visibility": [],
  "temperature": {
    "repr": "M02",
    "value": -2,
    "spoken": "minus two"
  },
  "wind_variable_direction": [],
  "density_altitude": -1423,
  "pressure_altitude": 540,
  "units": {
    "accumulation": "in",
    "altimeter": "inHg",
    "altitude": "ft",
    "temperature": "C",
    "visibility": "sm",
    "wind_speed": "kt"
  }
}
