{
  "altimeter": {
    "repr": "A3016",
    "spoken": "three zero point one six",
    "value": 30.16
  },
  "clouds": [
    {
      "altitude": 1,
      "modifier": null,
      "repr": "VV001",
      "type": "VV"
    }
  ],
  "density_altitude": -2033,
  "dewpoint": {
    "repr": "M03",
    "spoken": "minus three",
    "value": -3
  },
  "flight_rules": "LIFR",
  "meta": {
    "cache-timestamp": "2023-11-29T06:40:04.668000Z",
    "stations_updated": "2023-10-28",
    "timestamp": "2023-11-29T06:40:34.189059Z"
  },
  "other": [],
  "pressure_altitude": -70,
  "raw": "KBLI 290620Z 00000KT 1/2SM R16/1200V2000FT FZFG VV001 M02/M03 A3016 RMK AO2 I1000 T10171028",
  "relative_humidity": 0.9218989053690371,
  "remarks": "RMK AO2 I1000 T10171028",
  "remarks_info": {
    "codes": [
      {
        "repr": "AO2",
        "value": "Automated with precipitation sensor"
      }
    ],
    "dewpoint_decimal": {
      "repr": "1028",
      "spoken": "minus two point eight",
      "value": -2.8
    },
    "maximum_temperature_24": null,
    "maximum_temperature_6": null,
    "minimum_temperature_24": null,
    "minimum_temperature_6": null,
    "precip_24_hours": null,
    "precip_36_hours": null,
    "precip_hourly": null,
    "pressure_tendency": null,
    "sea_level_pressure": null,
    "snow_depth": null,
    "sunshine_minutes": null,
    "temperature_decimal": {
      "repr": "1017",
      "spoken": "minus one point seven",
      "value": -1.7
    }
  },
  "runway_visibility": [
    {
      "repr": "R16/1200V2000FT",
      "runway": "16",
      "trend": null,
      "variable_visibility": [
        {
          "repr": "1200",
          "spoken": "one two hundred",
          "value": 1200
        },
        {
          "repr": "2000",
          "spoken": "two thousand",
          "value": 2000
        }
      ],
      "visibility": null
    }
  ],
  "sanitized": "KBLI 290620Z 00000KT 1/2SM R16/1200V2000FT FZFG VV001 M02/M03 A3016 RMK AO2 I1000 T10171028",
  "station": "KBLI",
  "temperature": {
    "repr": "M02",
    "spoken": "minus two",
    "value": -2
  },
  "time": {
    "dt": "2023-11-29T06:20:00Z",
    "repr": "290620Z"
  },
  "units": {
    "accumulation": "in",
    "altimeter": "inHg",
    "altitude": "ft",
    "temperature": "C",
    "visibility": "sm",
    "wind_speed": "kt"
  },
  "visibility": {
    "denominator": 2,
    "normalized": "1/2",
    "numerator": 1,
    "repr": "1/2",
    "spoken": "one half",
    "value": 0.5
  },
  "wind_direction": {
    "repr": "000",
    "spoken": "zero zero zero",
    "value": 0
  },
  "wind_gust": null,
  "wind_speed": {
    "repr": "00",
    "spoken": "zero",
    "value": 0
  },
  "wind_variable_direction": [],
  "wx_codes": [
    {
      "repr": "FZFG",
      "value": "Freezing Fog"
    }
  ]
}
