{
  "meta": {
    "timestamp": "2022-09-02T16:06:58.080369Z",
    "stations_updated": "2022-07-17"
  },
  "altimeter": {
    "repr": "A2989",
    "value": 29.89,
    "spoken": "two nine point eight nine"
  },
  "clouds": [
    {
      "repr": "OVC002",
      "type": "OVC",
      "altitude": 2,
      "modifier": null
    }
  ],
  "flight_rules": "LIFR",
  "other": [],
  "visibility": {
    "repr": "1/2",
    "value": 0.5,
    "spoken": "one half",
    "numerator": 1,
    "denominator": 2,
    "normalized": "1/2"
  },
  "wind_direction": {
    "repr": "180",
    "value": 180,
    "spoken": "one eight zero"
  },
  "wind_gust": null,
  "wind_speed": {
    "repr": "03",
    "value": 3,
    "spoken": "three"
  },
  "wx_codes": [
    {
      "repr": "FG",
      "value": "Fog"
    }
  ],
  "raw": "KBLI 021600Z 18003KT 1/2SM R16/1400VP6000FT FG OVC002 13/13 A2989 RMK AO2 T01330133",
  "sanitized": "KBLI 021600Z 18003KT 1/2SM R16/1400VP6000FT FG OVC002 13/13 A2989 RMK AO2 T01330133",
  "station": "KBLI",
  "time": {
    "repr": "021600Z",
    "dt": "2022-09-02T16:00:00Z"
  },
  "remarks": "RMK AO2 T01330133",
  "dewpoint": {
    "repr": "13",
    "value": 13,
    "spoken": "one three"
  },
  "relative_humidity": 1,
  "remarks_info": {
    "maximum_temperature_6": null,
    "minimum_temperature_6": null,
    "pressure_tendency": null,
    "precip_36_hours": null,
    "precip_24_hours": null,
    "sunshine_minutes": null,
    "codes": [
      {
        "repr": "AO2",
        "value": "Automated with precipitation sensor"
      }
    ],
    "dewpoint_decimal": {
      "repr": "0133",
      "value": 13.3,
      "spoken": "one three point three"
    },
    "maximum_temperature_24": null,
    "minimum_temperature_24": null,
    "precip_hourly": null,
    "sea_level_pressure": null,
    "snow_depth": null,
    "temperature_decimal": {
      "repr": "0133",
      "value": 13.3,
      "spoken": "one three point three"
    }
  },
  "runway_visibility": [
    {
      "repr": "R16/1400VP6000FT",
      "runway": "16",
      "visibility": null,
      "variable_visibility": [
        {
          "repr": "1400",
          "value": 1400,
          "spoken": "one four hundred"
        },
        {
          "repr": "P6000",
          "value": null,
          "spoken": "greater than six thousand"
        }
      ],
      "trend": null
    }
  ],
  "temperature": {
    "repr": "13",
    "value": 13,
    "spoken": "one three"
  },
  "wind_variable_direction": [],
  "density_altitude": 37,
  "pressure_altitude": 200,
  "units": {
    "accumulation": "in",
    "altimeter": "inHg",
    "altitude": "ft",
    "temperature": "C",
    "visibility": "sm",
    "wind_speed": "kt"
  }
}
