{
  "altimeter": {
    "repr": "A2993",
    "spoken": "two nine point nine three",
    "value": 29.93
  },
  "clouds": [
    {
      "altitude": 12,
      "modifier": null,
      "repr": "SCT012",
      "type": "SCT"
    },
    {
      "altitude": 25,
      "modifier": null,
      "repr": "BKN025",
      "type": "BKN"
    },
    {
      "altitude": 47,
      "modifier": null,
      "repr": "BKN047",
      "type": "BKN"
    }
  ],
  "density_altitude": -1131,
  "dewpoint": {
    "repr": "02",
    "spoken": "two",
    "value": 2
  },
  "flight_rules": "MVFR",
  "meta": {
    "cache-timestamp": "2024-03-04T21:20:06.250000Z",
    "stations_updated": "2024-01-01",
    "timestamp": "2024-03-04T21:20:55.023919Z"
  },
  "other": [],
  "pressure_altitude": 160,
  "raw": "KBLI 042053Z 16005KT 10SM SCT012 BKN025 BKN047 04/02 A2993 RMK AO2 SLP146 60004 T00390017 50010",
  "relative_humidity": 0.8555243252964272,
  "remarks": "RMK AO2 SLP146 60004 T00390017 50010",
  "remarks_info": {
    "codes": [
      {
        "repr": "AO2",
        "value": "Automated with precipitation sensor"
      }
    ],
    "dewpoint_decimal": {
      "repr": "0017",
      "spoken": "one point seven",
      "value": 1.7
    },
    "maximum_temperature_24": null,
    "maximum_temperature_6": null,
    "minimum_temperature_24": null,
    "minimum_temperature_6": null,
    "precip_24_hours": null,
    "precip_36_hours": {
      "repr": "60004",
      "spoken": "zero point zero four",
      "value": 0.04
    },
    "precip_hourly": null,
    "pressure_tendency": {
      "change": 1,
      "repr": "50010",
      "tendency": "Increasing, then decreasing"
    },
    "sea_level_pressure": {
      "repr": "SLP146",
      "spoken": "one zero one four point six",
      "value": 1014.6
    },
    "snow_depth": null,
    "sunshine_minutes": null,
    "temperature_decimal": {
      "repr": "0039",
      "spoken": "three point nine",
      "value": 3.9
    }
  },
  "runway_visibility": [],
  "sanitized": "KBLI 042053Z 16005KT 10SM SCT012 BKN025 BKN047 04/02 A2993 RMK AO2 SLP146 60004 T00390017 50010",
  "station": "KBLI",
  "temperature": {
    "repr": "04",
    "spoken": "four",
    "value": 4
  },
  "time": {
    "dt": "2024-03-04T20:53:00Z",
    "repr": "042053Z"
  },
  "units": {
    "accumulation": "in",
    "altimeter": "inHg",
    "altitude": "ft",
    "temperature": "C",
    "visibility": "sm",
    "wind_speed": "kt"
  },
  "visibility": {
    "repr": "10",
    "spoken": "one zero",
    "value": 10
  },
  "wind_direction": {
    "repr": "160",
    "spoken": "one six zero",
    "value": 160
  },
  "wind_gust": null,
  "wind_speed": {
    "repr": "05",
    "spoken": "five",
    "value": 5
  },
  "wind_variable_direction": [],
  "wx_codes": []
}
