{
  "meta": {
    "timestamp": "2023-06-19T05:26:10.644822Z",
    "stations_updated": "2023-06-06",
    "cache-timestamp": "2023-06-19T05:26:03.179000Z"
  },
  "altimeter": {
    "repr": "A2984",
    "value": 29.84,
    "spoken": "two nine point eight four"
  },
  "clouds": [],
  "flight_rules": "VFR",
  "other": [],
  "visibility": {
    "repr": "10",
    "value": 10,
    "spoken": "one zero"
  },
  "wind_direction": {
    "repr": "170",
    "value": 170,
    "spoken": "one seven zero"
  },
  "wind_gust": null,
  "wind_speed": {
    "repr": "05",
    "value": 5,
    "spoken": "five"
  },
  "wx_codes": [],
  "raw": "KBLI 190453Z 17005KT 10SM CLR 12/07 A2984 RMK AO2 SLP112 T01170072 $",
  "sanitized": "KBLI 190453Z 17005KT 10SM 12/07 A2984 RMK AO2 SLP112 T01170072 $",
  "station": "KBLI",
  "time": {
    "repr": "190453Z",
    "dt": "2023-06-19T04:53:00Z"
  },
  "remarks": "RMK AO2 SLP112 T01170072 $",
  "dewpoint": {
    "repr": "07",
    "value": 7,
    "spoken": "seven"
  },
  "relative_humidity": 0.7388718895416357,
  "remarks_info": {
    "maximum_temperature_6": null,
    "minimum_temperature_6": null,
    "pressure_tendency": null,
    "precip_36_hours": null,
    "precip_24_hours": null,
    "sunshine_minutes": null,
    "codes": [
      {
        "repr": "$",
        "value": "ASOS requires maintenance"
      },
      {
        "repr": "AO2",
        "value": "Automated with precipitation sensor"
      }
    ],
    "dewpoint_decimal": {
      "repr": "0072",
      "value": 7.2,
      "spoken": "seven point two"
    },
    "maximum_temperature_24": null,
    "minimum_temperature_24": null,
    "precip_hourly": null,
    "sea_level_pressure": {
      "repr": "SLP112",
      "value": 1011.2,
      "spoken": "one zero one one point two"
    },
    "snow_depth": null,
    "temperature_decimal": {
      "repr": "0117",
      "value": 11.7,
      "spoken": "one one point seven"
    }
  },
  "runway_visibility": [],
  "temperature": {
    "repr": "12",
    "value": 12,
    "spoken": "one two"
  },
  "wind_variable_direction": [],
  "density_altitude": -105,
  "pressure_altitude": 250,
  "units": {
    "accumulation": "in",
    "altimeter": "inHg",
    "altitude": "ft",
    "temperature": "C",
    "visibility": "sm",
    "wind_speed": "kt"
  }
}
