{
  "meta": {
    "timestamp": "2023-04-22T00:26:52.610593Z",
    "stations_updated": "2023-03-11",
    "cache-timestamp": "2023-04-22T00:26:05.925000Z"
  },
  "altimeter": {
    "repr": "A3038",
    "value": 30.38,
    "spoken": "three zero point three eight"
  },
  "clouds": [
    {
      "repr": "SCT030",
      "type": "SCT",
      "altitude": 30,
      "modifier": null
    },
    {
      "repr": "BKN070",
      "type": "BKN",
      "altitude": 70,
      "modifier": null
    }
  ],
  "flight_rules": "VFR",
  "other": [],
  "visibility": {
    "repr": "10",
    "value": 10,
    "spoken": "one zero"
  },
  "wind_direction": {
    "repr": "200",
    "value": 200,
    "spoken": "two zero zero"
  },
  "wind_gust": null,
  "wind_speed": {
    "repr": "06",
    "value": 6,
    "spoken": "six"
  },
  "wx_codes": [],
  "raw": "KBLI 212353Z 20006KT 10SM SCT030 BKN070 11/06 A3038 RMK AO2 SLP296 T01110056 10117 20094 58001",
  "sanitized": "KBLI 212353Z 20006KT 10SM SCT030 BKN070 11/06 A3038 RMK AO2 SLP296 T01110056 10117 20094 58001",
  "station": "KBLI",
  "time": {
    "repr": "212353Z",
    "dt": "2023-04-21T23:53:00Z"
  },
  "remarks": "RMK AO2 SLP296 T01110056 10117 20094 58001",
  "dewpoint": {
    "repr": "06",
    "value": 6,
    "spoken": "six"
  },
  "relative_humidity": 0.688572216070134,
  "remarks_info": {
    "maximum_temperature_6": {
      "repr": "10117",
      "value": 11.7,
      "spoken": "one one point seven"
    },
    "minimum_temperature_6": {
      "repr": "20094",
      "value": 9.4,
      "spoken": "nine point four"
    },
    "pressure_tendency": {
      "repr": "58001",
      "tendency": "Steady or increasing, then decreasing",
      "change": 0.1
    },
    "precip_36_hours": null,
    "precip_24_hours": null,
    "sunshine_minutes": null,
    "codes": [
      {
        "repr": "AO2",
        "value": "Automated with precipitation sensor"
      }
    ],
    "dewpoint_decimal": {
      "repr": "0056",
      "value": 5.6,
      "spoken": "five point six"
    },
    "maximum_temperature_24": null,
    "minimum_temperature_24": null,
    "precip_hourly": null,
    "sea_level_pressure": {
      "repr": "SLP296",
      "value": 1029.6,
      "spoken": "one zero two nine point six"
    },
    "snow_depth": null,
    "temperature_decimal": {
      "repr": "0111",
      "value": 11.1,
      "spoken": "one one point one"
    }
  },
  "runway_visibility": [],
  "temperature": {
    "repr": "11",
    "value": 11,
    "spoken": "one one"
  },
  "wind_variable_direction": [],
  "density_altitude": -717,
  "pressure_altitude": -290,
  "units": {
    "accumulation": "in",
    "altimeter": "inHg",
    "altitude": "ft",
    "temperature": "C",
    "visibility": "sm",
    "wind_speed": "kt"
  }
}
