{
  "meta": {
    "timestamp": "2022-11-23T17:26:03.792056Z",
    "stations_updated": "2022-09-05"
  },
  "altimeter": {
    "repr": "A3036",
    "value": 30.36,
    "spoken": "three zero point three six"
  },
  "clouds": [
    {
      "repr": "BKN039",
      "type": "BKN",
      "altitude": 39,
      "modifier": null
    },
    {
      "repr": "OVC047",
      "type": "OVC",
      "altitude": 47,
      "modifier": null
    }
  ],
  "flight_rules": "VFR",
  "other": [],
  "visibility": {
    "repr": "10",
    "value": 10,
    "spoken": "one zero"
  },
  "wind_direction": {
    "repr": "180",
    "value": 180,
    "spoken": "one eight zero"
  },
  "wind_gust": null,
  "wind_speed": {
    "repr": "05",
    "value": 5,
    "spoken": "five"
  },
  "wx_codes": [],
  "raw": "KBLI 231653Z 18005KT 10SM BKN039 OVC047 08/08 A3036 RMK AO2 SLP288 T00830078",
  "sanitized": "KBLI 231653Z 18005KT 10SM BKN039 OVC047 08/08 A3036 RMK AO2 SLP288 T00830078",
  "station": "KBLI",
  "time": {
    "repr": "231653Z",
    "dt": "2022-11-23T16:53:00Z"
  },
  "remarks": "RMK AO2 SLP288 T00830078",
  "dewpoint": {
    "repr": "08",
    "value": 8,
    "spoken": "eight"
  },
  "relative_humidity": 0.9665731399975396,
  "remarks_info": {
    "maximum_temperature_6": null,
    "minimum_temperature_6": null,
    "pressure_tendency": null,
    "precip_36_hours": null,
    "precip_24_hours": null,
    "sunshine_minutes": null,
    "codes": [
      {
        "repr": "AO2",
        "value": "Automated with precipitation sensor"
      }
    ],
    "dewpoint_decimal": {
      "repr": "0078",
      "value": 7.8,
      "spoken": "seven point eight"
    },
    "maximum_temperature_24": null,
    "minimum_temperature_24": null,
    "precip_hourly": null,
    "sea_level_pressure": {
      "repr": "SLP288",
      "value": 1028.8,
      "spoken": "one zero two eight point eight"
    },
    "snow_depth": null,
    "temperature_decimal": {
      "repr": "0083",
      "value": 8.3,
      "spoken": "eight point three"
    }
  },
  "runway_visibility": [],
  "temperature": {
    "repr": "08",
    "value": 8,
    "spoken": "eight"
  },
  "wind_variable_direction": [],
  "density_altitude": -1033,
  "pressure_altitude": -270,
  "units": {
    "accumulation": "in",
    "altimeter": "inHg",
    "altitude": "ft",
    "temperature": "C",
    "visibility": "sm",
    "wind_speed": "kt"
  }
}
