{
  "altimeter": {
    "repr": "A2990",
    "spoken": "two nine point nine zero",
    "value": 29.9
  },
  "clouds": [
    {
      "altitude": 120,
      "modifier": null,
      "repr": "FEW120",
      "type": "FEW"
    }
  ],
  "density_altitude": -633,
  "dewpoint": {
    "repr": "03",
    "spoken": "three",
    "value": 3
  },
  "flight_rules": "VFR",
  "meta": {
    "cache-timestamp": "2023-11-12T18:40:02.646000Z",
    "stations_updated": "2023-10-28",
    "timestamp": "2023-11-12T18:40:37.579032Z"
  },
  "other": [],
  "pressure_altitude": 190,
  "raw": "KBLI 121753Z 04011KT 10SM FEW120 08/03 A2990 RMK AO2 SLP134 T00780033 10078 20056 57024",
  "relative_humidity": 0.731846990709336,
  "remarks": "RMK AO2 SLP134 T00780033 10078 20056 57024",
  "remarks_info": {
    "codes": [
      {
        "repr": "AO2",
        "value": "Automated with precipitation sensor"
      }
    ],
    "dewpoint_decimal": {
      "repr": "0033",
      "spoken": "three point three",
      "value": 3.3
    },
    "maximum_temperature_24": null,
    "maximum_temperature_6": {
      "repr": "10078",
      "spoken": "seven point eight",
      "value": 7.8
    },
    "minimum_temperature_24": null,
    "minimum_temperature_6": {
      "repr": "20056",
      "spoken": "five point six",
      "value": 5.6
    },
    "precip_24_hours": null,
    "precip_36_hours": null,
    "precip_hourly": null,
    "pressure_tendency": {
      "change": 2.4,
      "repr": "57024",
      "tendency": "Decreasing steadily or unsteadily"
    },
    "sea_level_pressure": {
      "repr": "SLP134",
      "spoken": "one zero one three point four",
      "value": 1013.4
    },
    "snow_depth": null,
    "sunshine_minutes": null,
    "temperature_decimal": {
      "repr": "0078",
      "spoken": "seven point eight",
      "value": 7.8
    }
  },
  "runway_visibility": [],
  "sanitized": "KBLI 121753Z 04011KT 10SM FEW120 08/03 A2990 RMK AO2 SLP134 T00780033 10078 20056 57024",
  "station": "KBLI",
  "temperature": {
    "repr": "08",
    "spoken": "eight",
    "value": 8
  },
  "time": {
    "dt": "2023-11-12T17:53:00Z",
    "repr": "121753Z"
  },
  "units": {
    "accumulation": "in",
    "altimeter": "inHg",
    "altitude": "ft",
    "temperature": "C",
    "visibility": "sm",
    "wind_speed": "kt"
  },
  "visibility": {
    "repr": "10",
    "spoken": "one zero",
    "value": 10
  },
  "wind_direction": {
    "repr": "040",
    "spoken": "zero four zero",
    "value": 40
  },
  "wind_gust": null,
  "wind_speed": {
    "repr": "11",
    "spoken": "one one",
    "value": 11
  },
  "wind_variable_direction": [],
  "wx_codes": []
}
