{
  "meta": {
    "timestamp": "2022-08-18T00:34:17.800654Z",
    "stations_updated": "2022-07-17",
    "cache-timestamp": "2022-08-18T00:33:20.335000Z"
  },
  "altimeter": {
    "repr": "A2992",
    "value": 29.92,
    "spoken": "two nine point nine two"
  },
  "clouds": [],
  "flight_rules": "VFR",
  "other": [],
  "visibility": {
    "repr": "10",
    "value": 10,
    "spoken": "one zero"
  },
  "wind_direction": {
    "repr": "VRB",
    "value": null,
    "spoken": "variable"
  },
  "wind_gust": null,
  "wind_speed": {
    "repr": "06",
    "value": 6,
    "spoken": "six"
  },
  "wx_codes": [],
  "raw": "KBLI 172353Z VRB06KT 10SM CLR 29/18 A2992 RMK AO2 SLP135 T02890178 10289 20250 58023",
  "sanitized": "KBLI 172353Z VRB06KT 10SM 29/18 A2992 RMK AO2 SLP135 T02890178 10289 20250 58023",
  "station": "KBLI",
  "time": {
    "repr": "172353Z",
    "dt": "2022-08-17T23:53:00Z"
  },
  "remarks": "RMK AO2 SLP135 T02890178 10289 20250 58023",
  "dewpoint": {
    "repr": "18",
    "value": 18,
    "spoken": "one eight"
  },
  "relative_humidity": 0.5112054490598964,
  "remarks_info": {
    "maximum_temperature_6": {
      "repr": "10289",
      "value": 28.9,
      "spoken": "two eight point nine"
    },
    "minimum_temperature_6": {
      "repr": "20250",
      "value": 25,
      "spoken": "two five point zero"
    },
    "pressure_tendency": {
      "repr": "58023",
      "tendency": "Steady or increasing, then decreasing",
      "change": 2.3
    },
    "precip_36_hours": null,
    "precip_24_hours": null,
    "sunshine_minutes": null,
    "codes": [
      {
        "repr": "AO2",
        "value": "Automated with precipitation sensor"
      }
    ],
    "dewpoint_decimal": {
      "repr": "0178",
      "value": 17.8,
      "spoken": "one seven point eight"
    },
    "maximum_temperature_24": null,
    "minimum_temperature_24": null,
    "precip_hourly": null,
    "sea_level_pressure": {
      "repr": "SLP135",
      "value": 1013.5,
      "spoken": "one zero one three point five"
    },
    "snow_depth": null,
    "temperature_decimal": {
      "repr": "0289",
      "value": 28.9,
      "spoken": "two eight point nine"
    }
  },
  "runway_visibility": [],
  "temperature": {
    "repr": "29",
    "value": 29,
    "spoken": "two nine"
  },
  "wind_variable_direction": [],
  "density_altitude": 1879,
  "pressure_altitude": 170,
  "units": {
    "accumulation": "in",
    "altimeter": "inHg",
    "altitude": "ft",
    "temperature": "C",
    "visibility": "sm",
    "wind_speed": "kt"
  }
}
