{
  "altimeter": {
    "repr": "A3071",
    "spoken": "three zero point seven one",
    "value": 30.71
  },
  "clouds": [],
  "density_altitude": -2715,
  "dewpoint": {
    "repr": "M04",
    "spoken": "minus four",
    "value": -4
  },
  "flight_rules": "VFR",
  "meta": {
    "stations_updated": "2024-12-02",
    "timestamp": "2025-01-22T08:10:17.241555Z"
  },
  "other": [],
  "pressure_altitude": -620,
  "raw": "KBLI 220753Z AUTO 02003KT 10SM CLR M03/M04 A3071 RMK AO2 SLP411 T10281044 400561044",
  "relative_humidity": 0.8872584999260705,
  "remarks": "RMK AO2 SLP411 T10281044 400561044",
  "remarks_info": {
    "codes": [
      {
        "repr": "AO2",
        "value": "Automated with precipitation sensor"
      }
    ],
    "dewpoint_decimal": {
      "repr": "1044",
      "spoken": "minus four point four",
      "value": -4.4
    },
    "maximum_temperature_24": {
      "repr": "0056",
      "spoken": "five point six",
      "value": 5.6
    },
    "maximum_temperature_6": null,
    "minimum_temperature_24": {
      "repr": "1044",
      "spoken": "minus four point four",
      "value": -4.4
    },
    "minimum_temperature_6": null,
    "precip_24_hours": null,
    "precip_36_hours": null,
    "precip_hourly": null,
    "pressure_tendency": null,
    "sea_level_pressure": {
      "repr": "SLP411",
      "spoken": "one zero four one point one",
      "value": 1041.1
    },
    "snow_depth": null,
    "sunshine_minutes": null,
    "temperature_decimal": {
      "repr": "1028",
      "spoken": "minus two point eight",
      "value": -2.8
    }
  },
  "runway_visibility": [],
  "sanitized": "KBLI 220753Z 02003KT 10SM M03/M04 A3071 RMK AO2 SLP411 T10281044 400561044",
  "station": "KBLI",
  "temperature": {
    "repr": "M03",
    "spoken": "minus three",
    "value": -3
  },
  "time": {
    "dt": "2025-01-22T07:53:00Z",
    "repr": "220753Z"
  },
  "units": {
    "accumulation": "in",
    "altimeter": "inHg",
    "altitude": "ft",
    "temperature": "C",
    "visibility": "sm",
    "wind_speed": "kt"
  },
  "visibility": {
    "repr": "10",
    "spoken": "one zero",
    "value": 10
  },
  "wind_direction": {
    "repr": "020",
    "spoken": "zero two zero",
    "value": 20
  },
  "wind_gust": null,
  "wind_speed": {
    "repr": "03",
    "spoken": "three",
    "value": 3
  },
  "wind_variable_direction": [],
  "wx_codes": []
}
