{
  "meta": {
    "timestamp": "2023-02-04T06:05:21.926874Z",
    "stations_updated": "2023-01-30"
  },
  "altimeter": {
    "repr": "A2998",
    "value": 29.98,
    "spoken": "two nine point nine eight"
  },
  "clouds": [
    {
      "repr": "OVC022",
      "type": "OVC",
      "altitude": 22,
      "modifier": null
    }
  ],
  "flight_rules": "MVFR",
  "other": [],
  "visibility": {
    "repr": "10",
    "value": 10,
    "spoken": "one zero"
  },
  "wind_direction": {
    "repr": "190",
    "value": 190,
    "spoken": "one nine zero"
  },
  "wind_gust": {
    "repr": "23",
    "value": 23,
    "spoken": "two three"
  },
  "wind_speed": {
    "repr": "09",
    "value": 9,
    "spoken": "nine"
  },
  "wx_codes": [],
  "raw": "KBLI 040553Z 19009G23KT 10SM OVC022 09/07 A2998 RMK AO2 PK WND 18032/0455 RAE23 SLP161 P0001 60001 T00890067 10106 20089 53045",
  "sanitized": "KBLI 040553Z 19009G23KT 10SM OVC022 09/07 A2998 RMK AO2 PK WND 18032/0455 RAE23 SLP161 P0001 60001 T00890067 10106 20089 53045",
  "station": "KBLI",
  "time": {
    "repr": "040553Z",
    "dt": "2023-02-04T05:53:00Z"
  },
  "remarks": "RMK AO2 PK WND 18032/0455 RAE23 SLP161 P0001 60001 T00890067 10106 20089 53045",
  "dewpoint": {
    "repr": "07",
    "value": 7,
    "spoken": "seven"
  },
  "relative_humidity": 0.8608000212004648,
  "remarks_info": {
    "maximum_temperature_6": {
      "repr": "10106",
      "value": 10.6,
      "spoken": "one zero point six"
    },
    "minimum_temperature_6": {
      "repr": "20089",
      "value": 8.9,
      "spoken": "eight point nine"
    },
    "pressure_tendency": {
      "repr": "53045",
      "tendency": "Decreasing or steady, then increasing",
      "change": 4.5
    },
    "precip_36_hours": {
      "repr": "60001",
      "value": 0.01,
      "spoken": "zero point zero one"
    },
    "precip_24_hours": null,
    "sunshine_minutes": null,
    "codes": [
      {
        "repr": "AO2",
        "value": "Automated with precipitation sensor"
      },
      {
        "repr": "RAE23",
        "value": "Rain ended at :23"
      }
    ],
    "dewpoint_decimal": {
      "repr": "0067",
      "value": 6.7,
      "spoken": "six point seven"
    },
    "maximum_temperature_24": null,
    "minimum_temperature_24": null,
    "precip_hourly": {
      "repr": "P0001",
      "value": 0.01,
      "spoken": "zero point zero one"
    },
    "sea_level_pressure": {
      "repr": "SLP161",
      "value": 1016.1,
      "spoken": "one zero one six point one"
    },
    "snow_depth": null,
    "temperature_decimal": {
      "repr": "0089",
      "value": 8.9,
      "spoken": "eight point nine"
    }
  },
  "runway_visibility": [],
  "temperature": {
    "repr": "09",
    "value": 9,
    "spoken": "nine"
  },
  "wind_variable_direction": [],
  "density_altitude": -581,
  "pressure_altitude": 110,
  "units": {
    "accumulation": "in",
    "altimeter": "inHg",
    "altitude": "ft",
    "temperature": "C",
    "visibility": "sm",
    "wind_speed": "kt"
  }
}
