{
  "meta": {
    "timestamp": "2023-05-31T08:06:32.704845Z",
    "stations_updated": "2023-05-30",
    "cache-timestamp": "2023-05-31T08:06:04.267000Z"
  },
  "altimeter": {
    "repr": "A3001",
    "value": 30.01,
    "spoken": "three zero point zero one"
  },
  "clouds": [],
  "flight_rules": "VFR",
  "other": [],
  "visibility": {
    "repr": "10",
    "value": 10,
    "spoken": "one zero"
  },
  "wind_direction": {
    "repr": "170",
    "value": 170,
    "spoken": "one seven zero"
  },
  "wind_gust": null,
  "wind_speed": {
    "repr": "08",
    "value": 8,
    "spoken": "eight"
  },
  "wx_codes": [],
  "raw": "KBLI 310753Z AUTO 17008KT 10SM CLR 10/06 A3001 RMK AO2 SLP168 T01000061 401670100",
  "sanitized": "KBLI 310753Z 17008KT 10SM 10/06 A3001 RMK AO2 SLP168 T01000061 401670100",
  "station": "KBLI",
  "time": {
    "repr": "310753Z",
    "dt": "2023-05-31T07:53:00Z"
  },
  "remarks": "RMK AO2 SLP168 T01000061 401670100",
  "dewpoint": {
    "repr": "06",
    "value": 6,
    "spoken": "six"
  },
  "relative_humidity": 0.7670506235203972,
  "remarks_info": {
    "maximum_temperature_6": null,
    "minimum_temperature_6": null,
    "pressure_tendency": null,
    "precip_36_hours": null,
    "precip_24_hours": null,
    "sunshine_minutes": null,
    "codes": [
      {
        "repr": "AO2",
        "value": "Automated with precipitation sensor"
      }
    ],
    "dewpoint_decimal": {
      "repr": "0061",
      "value": 6.1,
      "spoken": "six point one"
    },
    "maximum_temperature_24": {
      "repr": "0167",
      "value": 16.7,
      "spoken": "one six point seven"
    },
    "minimum_temperature_24": {
      "repr": "0100",
      "value": 10,
      "spoken": "one zero point zero"
    },
    "precip_hourly": null,
    "sea_level_pressure": {
      "repr": "SLP168",
      "value": 1016.8,
      "spoken": "one zero one six point eight"
    },
    "snow_depth": null,
    "temperature_decimal": {
      "repr": "0100",
      "value": 10,
      "spoken": "one zero point zero"
    }
  },
  "runway_visibility": [],
  "temperature": {
    "repr": "10",
    "value": 10,
    "spoken": "one zero"
  },
  "wind_variable_direction": [],
  "density_altitude": -479,
  "pressure_altitude": 80,
  "units": {
    "accumulation": "in",
    "altimeter": "inHg",
    "altitude": "ft",
    "temperature": "C",
    "visibility": "sm",
    "wind_speed": "kt"
  }
}
