{
  "meta": {
    "timestamp": "2023-08-17T06:26:56.910013Z",
    "stations_updated": "2023-08-05",
    "cache-timestamp": "2023-08-17T06:26:05.298000Z"
  },
  "altimeter": {
    "repr": "A2989",
    "value": 29.89,
    "spoken": "two nine point eight nine"
  },
  "clouds": [],
  "flight_rules": "VFR",
  "other": [],
  "visibility": {
    "repr": "10",
    "value": 10,
    "spoken": "one zero"
  },
  "wind_direction": {
    "repr": "000",
    "value": 0,
    "spoken": "zero zero zero"
  },
  "wind_gust": null,
  "wind_speed": {
    "repr": "00",
    "value": 0,
    "spoken": "zero"
  },
  "wx_codes": [],
  "raw": "KBLI 170553Z AUTO 00000KT 10SM CLR 18/17 A2989 RMK AO2 SLP125 T01830172 10283 20178 50001",
  "sanitized": "KBLI 170553Z 00000KT 10SM 18/17 A2989 RMK AO2 SLP125 T01830172 10283 20178 50001",
  "station": "KBLI",
  "time": {
    "repr": "170553Z",
    "dt": "2023-08-17T05:53:00Z"
  },
  "remarks": "RMK AO2 SLP125 T01830172 10283 20178 50001",
  "dewpoint": {
    "repr": "17",
    "value": 17,
    "spoken": "one seven"
  },
  "relative_humidity": 0.9330043841927117,
  "remarks_info": {
    "maximum_temperature_6": {
      "repr": "10283",
      "value": 28.3,
      "spoken": "two eight point three"
    },
    "minimum_temperature_6": {
      "repr": "20178",
      "value": 17.8,
      "spoken": "one seven point eight"
    },
    "pressure_tendency": {
      "repr": "50001",
      "tendency": "Increasing, then decreasing",
      "change": 0.1
    },
    "precip_36_hours": null,
    "precip_24_hours": null,
    "sunshine_minutes": null,
    "codes": [
      {
        "repr": "AO2",
        "value": "Automated with precipitation sensor"
      }
    ],
    "dewpoint_decimal": {
      "repr": "0172",
      "value": 17.2,
      "spoken": "one seven point two"
    },
    "maximum_temperature_24": null,
    "minimum_temperature_24": null,
    "precip_hourly": null,
    "sea_level_pressure": {
      "repr": "SLP125",
      "value": 1012.5,
      "spoken": "one zero one two point five"
    },
    "snow_depth": null,
    "temperature_decimal": {
      "repr": "0183",
      "value": 18.3,
      "spoken": "one eight point three"
    }
  },
  "runway_visibility": [],
  "temperature": {
    "repr": "18",
    "value": 18,
    "spoken": "one eight"
  },
  "wind_variable_direction": [],
  "density_altitude": 637,
  "pressure_altitude": 200,
  "units": {
    "accumulation": "in",
    "altimeter": "inHg",
    "altitude": "ft",
    "temperature": "C",
    "visibility": "sm",
    "wind_speed": "kt"
  }
}
