{
  "meta": {
    "timestamp": "2023-06-02T12:08:31.381464Z",
    "stations_updated": "2023-05-30",
    "cache-timestamp": "2023-06-02T12:08:05.346000Z"
  },
  "altimeter": {
    "repr": "A3007",
    "value": 30.07,
    "spoken": "three zero point zero seven"
  },
  "clouds": [],
  "flight_rules": "VFR",
  "other": [],
  "visibility": {
    "repr": "10",
    "value": 10,
    "spoken": "one zero"
  },
  "wind_direction": {
    "repr": "170",
    "value": 170,
    "spoken": "one seven zero"
  },
  "wind_gust": null,
  "wind_speed": {
    "repr": "03",
    "value": 3,
    "spoken": "three"
  },
  "wx_codes": [],
  "raw": "KBLI 021153Z AUTO 17003KT 10SM CLR 09/06 A3007 RMK AO2 SLP189 T00890061 10139 20089 53008",
  "sanitized": "KBLI 021153Z 17003KT 10SM 09/06 A3007 RMK AO2 SLP189 T00890061 10139 20089 53008",
  "station": "KBLI",
  "time": {
    "repr": "021153Z",
    "dt": "2023-06-02T11:53:00Z"
  },
  "remarks": "RMK AO2 SLP189 T00890061 10139 20089 53008",
  "dewpoint": {
    "repr": "06",
    "value": 6,
    "spoken": "six"
  },
  "relative_humidity": 0.8259412939623852,
  "remarks_info": {
    "maximum_temperature_6": {
      "repr": "10139",
      "value": 13.9,
      "spoken": "one three point nine"
    },
    "minimum_temperature_6": {
      "repr": "20089",
      "value": 8.9,
      "spoken": "eight point nine"
    },
    "pressure_tendency": {
      "repr": "53008",
      "tendency": "Decreasing or steady, then increasing",
      "change": 0.8
    },
    "precip_36_hours": null,
    "precip_24_hours": null,
    "sunshine_minutes": null,
    "codes": [
      {
        "repr": "AO2",
        "value": "Automated with precipitation sensor"
      }
    ],
    "dewpoint_decimal": {
      "repr": "0061",
      "value": 6.1,
      "spoken": "six point one"
    },
    "maximum_temperature_24": null,
    "minimum_temperature_24": null,
    "precip_hourly": null,
    "sea_level_pressure": {
      "repr": "SLP189",
      "value": 1018.9,
      "spoken": "one zero one eight point nine"
    },
    "snow_depth": null,
    "temperature_decimal": {
      "repr": "0089",
      "value": 8.9,
      "spoken": "eight point nine"
    }
  },
  "runway_visibility": [],
  "temperature": {
    "repr": "09",
    "value": 9,
    "spoken": "nine"
  },
  "wind_variable_direction": [],
  "density_altitude": -671,
  "pressure_altitude": 20,
  "units": {
    "accumulation": "in",
    "altimeter": "inHg",
    "altitude": "ft",
    "temperature": "C",
    "visibility": "sm",
    "wind_speed": "kt"
  }
}
