{
  "meta": {
    "timestamp": "2023-01-03T19:20:50.626487Z",
    "stations_updated": "2022-12-27",
    "cache-timestamp": "2023-01-03T19:20:07.121000Z"
  },
  "altimeter": {
    "repr": "A2987",
    "value": 29.87,
    "spoken": "two nine point eight seven"
  },
  "clouds": [
    {
      "repr": "OVC024",
      "type": "OVC",
      "altitude": 24,
      "modifier": null
    }
  ],
  "flight_rules": "MVFR",
  "other": [],
  "visibility": {
    "repr": "10",
    "value": 10,
    "spoken": "one zero"
  },
  "wind_direction": {
    "repr": "010",
    "value": 10,
    "spoken": "zero one zero"
  },
  "wind_gust": null,
  "wind_speed": {
    "repr": "04",
    "value": 4,
    "spoken": "four"
  },
  "wx_codes": [],
  "raw": "KBLI 031853Z 01004KT 10SM OVC024 03/03 A2987 RMK AO2 SLP124 T00330028",
  "sanitized": "KBLI 031853Z 01004KT 10SM OVC024 03/03 A2987 RMK AO2 SLP124 T00330028",
  "station": "KBLI",
  "time": {
    "repr": "031853Z",
    "dt": "2023-01-03T18:53:00Z"
  },
  "remarks": "RMK AO2 SLP124 T00330028",
  "dewpoint": {
    "repr": "03",
    "value": 3,
    "spoken": "three"
  },
  "relative_humidity": 0.9652276930831346,
  "remarks_info": {
    "maximum_temperature_6": null,
    "minimum_temperature_6": null,
    "pressure_tendency": null,
    "precip_36_hours": null,
    "precip_24_hours": null,
    "sunshine_minutes": null,
    "codes": [
      {
        "repr": "AO2",
        "value": "Automated with precipitation sensor"
      }
    ],
    "dewpoint_decimal": {
      "repr": "0028",
      "value": 2.8,
      "spoken": "two point eight"
    },
    "maximum_temperature_24": null,
    "minimum_temperature_24": null,
    "precip_hourly": null,
    "sea_level_pressure": {
      "repr": "SLP124",
      "value": 1012.4,
      "spoken": "one zero one two point four"
    },
    "snow_depth": null,
    "temperature_decimal": {
      "repr": "0033",
      "value": 3.3,
      "spoken": "three point three"
    }
  },
  "runway_visibility": [],
  "temperature": {
    "repr": "03",
    "value": 3,
    "spoken": "three"
  },
  "wind_variable_direction": [],
  "density_altitude": -1143,
  "pressure_altitude": 220,
  "units": {
    "accumulation": "in",
    "altimeter": "inHg",
    "altitude": "ft",
    "temperature": "C",
    "visibility": "sm",
    "wind_speed": "kt"
  }
}
