{
  "altimeter": {
    "repr": "A2982",
    "spoken": "two nine point eight two",
    "value": 29.82
  },
  "clouds": [
    {
      "altitude": 25,
      "modifier": null,
      "repr": "FEW025",
      "type": "FEW"
    },
    {
      "altitude": 34,
      "modifier": null,
      "repr": "BKN034",
      "type": "BKN"
    }
  ],
  "density_altitude": -85,
  "dewpoint": {
    "repr": "11",
    "spoken": "one one",
    "value": 11
  },
  "flight_rules": "VFR",
  "meta": {
    "cache-timestamp": "2023-11-05T09:20:05.018000Z",
    "stations_updated": "2023-10-28",
    "timestamp": "2023-11-05T09:20:44.919036Z"
  },
  "other": [],
  "pressure_altitude": 270,
  "raw": "KBLI 050853Z AUTO 19004KT 10SM FEW025 BKN034 12/11 A2982 RMK AO2 SLP104 T01170106 51010",
  "relative_humidity": 0.9296133286105723,
  "remarks": "RMK AO2 SLP104 T01170106 51010",
  "remarks_info": {
    "codes": [
      {
        "repr": "AO2",
        "value": "Automated with precipitation sensor"
      }
    ],
    "dewpoint_decimal": {
      "repr": "0106",
      "spoken": "one zero point six",
      "value": 10.6
    },
    "maximum_temperature_24": null,
    "maximum_temperature_6": null,
    "minimum_temperature_24": null,
    "minimum_temperature_6": null,
    "precip_24_hours": null,
    "precip_36_hours": null,
    "precip_hourly": null,
    "pressure_tendency": {
      "change": 1,
      "repr": "51010",
      "tendency": "Increasing, then steady"
    },
    "sea_level_pressure": {
      "repr": "SLP104",
      "spoken": "one zero one zero point four",
      "value": 1010.4
    },
    "snow_depth": null,
    "sunshine_minutes": null,
    "temperature_decimal": {
      "repr": "0117",
      "spoken": "one one point seven",
      "value": 11.7
    }
  },
  "runway_visibility": [],
  "sanitized": "KBLI 050853Z 19004KT 10SM FEW025 BKN034 12/11 A2982 RMK AO2 SLP104 T01170106 51010",
  "station": "KBLI",
  "temperature": {
    "repr": "12",
    "spoken": "one two",
    "value": 12
  },
  "time": {
    "dt": "2023-11-05T08:53:00Z",
    "repr": "050853Z"
  },
  "units": {
    "accumulation": "in",
    "altimeter": "inHg",
    "altitude": "ft",
    "temperature": "C",
    "visibility": "sm",
    "wind_speed": "kt"
  },
  "visibility": {
    "repr": "10",
    "spoken": "one zero",
    "value": 10
  },
  "wind_direction": {
    "repr": "190",
    "spoken": "one nine zero",
    "value": 190
  },
  "wind_gust": null,
  "wind_speed": {
    "repr": "04",
    "spoken": "four",
    "value": 4
  },
  "wind_variable_direction": [],
  "wx_codes": []
}
