{
  "altimeter": {
    "repr": "A3000",
    "spoken": "three zero point zero zero",
    "value": 30
  },
  "clouds": [
    {
      "altitude": 30,
      "modifier": null,
      "repr": "FEW030",
      "type": "FEW"
    },
    {
      "altitude": 45,
      "modifier": null,
      "repr": "SCT045",
      "type": "SCT"
    },
    {
      "altitude": 55,
      "modifier": null,
      "repr": "BKN055",
      "type": "BKN"
    }
  ],
  "density_altitude": -205,
  "dewpoint": {
    "repr": "11",
    "spoken": "one one",
    "value": 11
  },
  "flight_rules": "VFR",
  "meta": {
    "cache-timestamp": "2023-11-03T03:40:05.145000Z",
    "stations_updated": "2023-10-28",
    "timestamp": "2023-11-03T03:40:33.293080Z"
  },
  "other": [],
  "pressure_altitude": 90,
  "raw": "KBLI 030253Z 18008KT 10SM FEW030 SCT045 BKN055 12/11 A3000 RMK AO2 RAB0158E50 SLP165 P0005 60005 T01220111 51031",
  "relative_humidity": 0.9298790264187491,
  "remarks": "RMK AO2 RAB0158E50 SLP165 P0005 60005 T01220111 51031",
  "remarks_info": {
    "codes": [
      {
        "repr": "AO2",
        "value": "Automated with precipitation sensor"
      }
    ],
    "dewpoint_decimal": {
      "repr": "0111",
      "spoken": "one one point one",
      "value": 11.1
    },
    "maximum_temperature_24": null,
    "maximum_temperature_6": null,
    "minimum_temperature_24": null,
    "minimum_temperature_6": null,
    "precip_24_hours": null,
    "precip_36_hours": {
      "repr": "60005",
      "spoken": "zero point zero five",
      "value": 0.05
    },
    "precip_hourly": {
      "repr": "P0005",
      "spoken": "zero point zero five",
      "value": 0.05
    },
    "pressure_tendency": {
      "change": 3.1,
      "repr": "51031",
      "tendency": "Increasing, then steady"
    },
    "sea_level_pressure": {
      "repr": "SLP165",
      "spoken": "one zero one six point five",
      "value": 1016.5
    },
    "snow_depth": null,
    "sunshine_minutes": null,
    "temperature_decimal": {
      "repr": "0122",
      "spoken": "one two point two",
      "value": 12.2
    }
  },
  "runway_visibility": [],
  "sanitized": "KBLI 030253Z 18008KT 10SM FEW030 SCT045 BKN055 12/11 A3000 RMK AO2 RAB0158E50 SLP165 P0005 60005 T01220111 51031",
  "station": "KBLI",
  "temperature": {
    "repr": "12",
    "spoken": "one two",
    "value": 12
  },
  "time": {
    "dt": "2023-11-03T02:53:00Z",
    "repr": "030253Z"
  },
  "units": {
    "accumulation": "in",
    "altimeter": "inHg",
    "altitude": "ft",
    "temperature": "C",
    "visibility": "sm",
    "wind_speed": "kt"
  },
  "visibility": {
    "repr": "10",
    "spoken": "one zero",
    "value": 10
  },
  "wind_direction": {
    "repr": "180",
    "spoken": "one eight zero",
    "value": 180
  },
  "wind_gust": null,
  "wind_speed": {
    "repr": "08",
    "spoken": "eight",
    "value": 8
  },
  "wind_variable_direction": [],
  "wx_codes": []
}
