{
  "meta": {
    "timestamp": "2023-02-22T13:41:46.960338Z",
    "stations_updated": "2023-01-30"
  },
  "altimeter": {
    "repr": "A2959",
    "value": 29.59,
    "spoken": "two nine point five nine"
  },
  "clouds": [
    {
      "repr": "OVC095",
      "type": "OVC",
      "altitude": 95,
      "modifier": null
    }
  ],
  "flight_rules": "VFR",
  "other": [],
  "visibility": {
    "repr": "10",
    "value": 10,
    "spoken": "one zero"
  },
  "wind_direction": {
    "repr": "030",
    "value": 30,
    "spoken": "zero three zero"
  },
  "wind_gust": {
    "repr": "38",
    "value": 38,
    "spoken": "three eight"
  },
  "wind_speed": {
    "repr": "22",
    "value": 22,
    "spoken": "two two"
  },
  "wx_codes": [],
  "raw": "KBLI 221253Z AUTO 03022G38KT 10SM OVC095 M02/M13 A2959 RMK AO2 PK WND 04047/1235 SLP030 T10221128",
  "sanitized": "KBLI 221253Z 03022G38KT 10SM OVC095 M02/M13 A2959 RMK AO2 PK WND 04047/1235 SLP030 T10221128",
  "station": "KBLI",
  "time": {
    "repr": "221253Z",
    "dt": "2023-02-22T12:53:00Z"
  },
  "remarks": "RMK AO2 PK WND 04047/1235 SLP030 T10221128",
  "dewpoint": {
    "repr": "M13",
    "value": -13,
    "spoken": "minus one three"
  },
  "relative_humidity": 0.44074546156498107,
  "remarks_info": {
    "maximum_temperature_6": null,
    "minimum_temperature_6": null,
    "pressure_tendency": null,
    "precip_36_hours": null,
    "precip_24_hours": null,
    "sunshine_minutes": null,
    "codes": [
      {
        "repr": "AO2",
        "value": "Automated with precipitation sensor"
      }
    ],
    "dewpoint_decimal": {
      "repr": "1128",
      "value": -12.8,
      "spoken": "minus one two point eight"
    },
    "maximum_temperature_24": null,
    "minimum_temperature_24": null,
    "precip_hourly": null,
    "sea_level_pressure": {
      "repr": "SLP030",
      "value": 1003,
      "spoken": "one zero zero three point zero"
    },
    "snow_depth": null,
    "temperature_decimal": {
      "repr": "1022",
      "value": -2.2,
      "spoken": "minus two point two"
    }
  },
  "runway_visibility": [],
  "temperature": {
    "repr": "M02",
    "value": -2,
    "spoken": "minus two"
  },
  "wind_variable_direction": [],
  "density_altitude": -1523,
  "pressure_altitude": 500,
  "units": {
    "accumulation": "in",
    "altimeter": "inHg",
    "altitude": "ft",
    "temperature": "C",
    "visibility": "sm",
    "wind_speed": "kt"
  }
}
