{
  "meta": {
    "timestamp": "2023-10-30T00:26:30.777950Z",
    "stations_updated": "2023-10-28",
    "cache-timestamp": "2023-10-30T00:26:05.117000Z"
  },
  "altimeter": {
    "repr": "A3041",
    "value": 30.41,
    "spoken": "three zero point four one"
  },
  "clouds": [],
  "flight_rules": "VFR",
  "other": [],
  "visibility": {
    "repr": "10",
    "value": 10,
    "spoken": "one zero"
  },
  "wind_direction": {
    "repr": "290",
    "value": 290,
    "spoken": "two nine zero"
  },
  "wind_gust": null,
  "wind_speed": {
    "repr": "04",
    "value": 4,
    "spoken": "four"
  },
  "wx_codes": [],
  "raw": "KBLI 292353Z 29004KT 10SM CLR 09/03 A3041 RMK AO2 SLP308 T00940028 10117 20050 56014",
  "sanitized": "KBLI 292353Z 29004KT 10SM 09/03 A3041 RMK AO2 SLP308 T00940028 10117 20050 56014",
  "station": "KBLI",
  "time": {
    "repr": "292353Z",
    "dt": "2023-10-29T23:53:00Z"
  },
  "remarks": "RMK AO2 SLP308 T00940028 10117 20050 56014",
  "dewpoint": {
    "repr": "03",
    "value": 3,
    "spoken": "three"
  },
  "relative_humidity": 0.6338794725921372,
  "remarks_info": {
    "maximum_temperature_6": {
      "repr": "10117",
      "value": 11.7,
      "spoken": "one one point seven"
    },
    "minimum_temperature_6": {
      "repr": "20050",
      "value": 5,
      "spoken": "five point zero"
    },
    "pressure_tendency": {
      "repr": "56014",
      "tendency": "Decreasing, then steady",
      "change": 1.4
    },
    "precip_36_hours": null,
    "precip_24_hours": null,
    "sunshine_minutes": null,
    "codes": [
      {
        "repr": "AO2",
        "value": "Automated with precipitation sensor"
      }
    ],
    "dewpoint_decimal": {
      "repr": "0028",
      "value": 2.8,
      "spoken": "two point eight"
    },
    "maximum_temperature_24": null,
    "minimum_temperature_24": null,
    "precip_hourly": null,
    "sea_level_pressure": {
      "repr": "SLP308",
      "value": 1030.8,
      "spoken": "one zero three zero point eight"
    },
    "snow_depth": null,
    "temperature_decimal": {
      "repr": "0094",
      "value": 9.4,
      "spoken": "nine point four"
    }
  },
  "runway_visibility": [],
  "temperature": {
    "repr": "09",
    "value": 9,
    "spoken": "nine"
  },
  "wind_variable_direction": [],
  "density_altitude": -951,
  "pressure_altitude": -320,
  "units": {
    "accumulation": "in",
    "altimeter": "inHg",
    "altitude": "ft",
    "temperature": "C",
    "visibility": "sm",
    "wind_speed": "kt"
  }
}
