{
  "altimeter": {
    "repr": "A2998",
    "spoken": "two nine point nine eight",
    "value": 29.98
  },
  "clouds": [
    {
      "altitude": 18,
      "modifier": null,
      "repr": "FEW018",
      "type": "FEW"
    }
  ],
  "density_altitude": -917,
  "dewpoint": {
    "repr": "03",
    "spoken": "three",
    "value": 3
  },
  "flight_rules": "VFR",
  "meta": {
    "stations_updated": "2024-01-01",
    "timestamp": "2024-04-29T12:10:13.849368Z"
  },
  "other": [],
  "pressure_altitude": 110,
  "raw": "KBLI 291153Z AUTO 18004KT 10SM FEW018 06/03 A2998 RMK AO2 SLP160 70011 T00610033 10072 20044 58011",
  "relative_humidity": 0.8223651929534089,
  "remarks": "RMK AO2 SLP160 70011 T00610033 10072 20044 58011",
  "remarks_info": {
    "codes": [
      {
        "repr": "AO2",
        "value": "Automated with precipitation sensor"
      }
    ],
    "dewpoint_decimal": {
      "repr": "0033",
      "spoken": "three point three",
      "value": 3.3
    },
    "maximum_temperature_24": null,
    "maximum_temperature_6": {
      "repr": "10072",
      "spoken": "seven point two",
      "value": 7.2
    },
    "minimum_temperature_24": null,
    "minimum_temperature_6": {
      "repr": "20044",
      "spoken": "four point four",
      "value": 4.4
    },
    "precip_24_hours": {
      "repr": "70011",
      "spoken": "zero point one one",
      "value": 0.11
    },
    "precip_36_hours": null,
    "precip_hourly": null,
    "pressure_tendency": {
      "change": 1.1,
      "repr": "58011",
      "tendency": "Steady or increasing, then decreasing"
    },
    "sea_level_pressure": {
      "repr": "SLP160",
      "spoken": "one zero one six point zero",
      "value": 1016
    },
    "snow_depth": null,
    "sunshine_minutes": null,
    "temperature_decimal": {
      "repr": "0061",
      "spoken": "six point one",
      "value": 6.1
    }
  },
  "runway_visibility": [],
  "sanitized": "KBLI 291153Z 18004KT 10SM FEW018 06/03 A2998 RMK AO2 SLP160 70011 T00610033 10072 20044 58011",
  "station": "KBLI",
  "temperature": {
    "repr": "06",
    "spoken": "six",
    "value": 6
  },
  "time": {
    "dt": "2024-04-29T11:53:00Z",
    "repr": "291153Z"
  },
  "units": {
    "accumulation": "in",
    "altimeter": "inHg",
    "altitude": "ft",
    "temperature": "C",
    "visibility": "sm",
    "wind_speed": "kt"
  },
  "visibility": {
    "repr": "10",
    "spoken": "one zero",
    "value": 10
  },
  "wind_direction": {
    "repr": "180",
    "spoken": "one eight zero",
    "value": 180
  },
  "wind_gust": null,
  "wind_speed": {
    "repr": "04",
    "spoken": "four",
    "value": 4
  },
  "wind_variable_direction": [],
  "wx_codes": []
}
