{
  "meta": {
    "timestamp": "2023-08-10T18:26:50.325602Z",
    "stations_updated": "2023-08-05",
    "cache-timestamp": "2023-08-10T18:26:07.390000Z"
  },
  "altimeter": {
    "repr": "A3001",
    "value": 30.01,
    "spoken": "three zero point zero one"
  },
  "clouds": [
    {
      "repr": "OVC060",
      "type": "OVC",
      "altitude": 60,
      "modifier": null
    }
  ],
  "flight_rules": "VFR",
  "other": [],
  "visibility": {
    "repr": "10",
    "value": 10,
    "spoken": "one zero"
  },
  "wind_direction": {
    "repr": "180",
    "value": 180,
    "spoken": "one eight zero"
  },
  "wind_gust": null,
  "wind_speed": {
    "repr": "08",
    "value": 8,
    "spoken": "eight"
  },
  "wx_codes": [],
  "raw": "KBLI 101753Z 18008KT 10SM OVC060 18/14 A3001 RMK AO2 RAB14E24 SLP168 P0000 60000 T01830144 10183 20156 51009",
  "sanitized": "KBLI 101753Z 18008KT 10SM OVC060 18/14 A3001 RMK AO2 RAB14E24 SLP168 P0000 60000 T01830144 10183 20156 51009",
  "station": "KBLI",
  "time": {
    "repr": "101753Z",
    "dt": "2023-08-10T17:53:00Z"
  },
  "remarks": "RMK AO2 RAB14E24 SLP168 P0000 60000 T01830144 10183 20156 51009",
  "dewpoint": {
    "repr": "14",
    "value": 14,
    "spoken": "one four"
  },
  "relative_humidity": 0.7799463201968359,
  "remarks_info": {
    "maximum_temperature_6": {
      "repr": "10183",
      "value": 18.3,
      "spoken": "one eight point three"
    },
    "minimum_temperature_6": {
      "repr": "20156",
      "value": 15.6,
      "spoken": "one five point six"
    },
    "pressure_tendency": {
      "repr": "51009",
      "tendency": "Increasing, then steady",
      "change": 0.9
    },
    "precip_36_hours": {
      "repr": "60000",
      "value": 0,
      "spoken": "zero"
    },
    "precip_24_hours": null,
    "sunshine_minutes": null,
    "codes": [
      {
        "repr": "AO2",
        "value": "Automated with precipitation sensor"
      },
      {
        "repr": "P0000",
        "value": "Trace amount of rain in the last hour"
      }
    ],
    "dewpoint_decimal": {
      "repr": "0144",
      "value": 14.4,
      "spoken": "one four point four"
    },
    "maximum_temperature_24": null,
    "minimum_temperature_24": null,
    "precip_hourly": null,
    "sea_level_pressure": {
      "repr": "SLP168",
      "value": 1016.8,
      "spoken": "one zero one six point eight"
    },
    "snow_depth": null,
    "temperature_decimal": {
      "repr": "0183",
      "value": 18.3,
      "spoken": "one eight point three"
    }
  },
  "runway_visibility": [],
  "temperature": {
    "repr": "18",
    "value": 18,
    "spoken": "one eight"
  },
  "wind_variable_direction": [],
  "density_altitude": 517,
  "pressure_altitude": 80,
  "units": {
    "accumulation": "in",
    "altimeter": "inHg",
    "altitude": "ft",
    "temperature": "C",
    "visibility": "sm",
    "wind_speed": "kt"
  }
}
