{
  "meta": {
    "timestamp": "2023-04-19T18:40:39.679143Z",
    "stations_updated": "2023-03-11",
    "cache-timestamp": "2023-04-19T18:40:06.824000Z"
  },
  "altimeter": {
    "repr": "A3007",
    "value": 30.07,
    "spoken": "three zero point zero seven"
  },
  "clouds": [
    {
      "repr": "OVC032",
      "type": "OVC",
      "altitude": 32,
      "modifier": null
    }
  ],
  "flight_rules": "VFR",
  "other": [],
  "visibility": {
    "repr": "10",
    "value": 10,
    "spoken": "one zero"
  },
  "wind_direction": {
    "repr": "150",
    "value": 150,
    "spoken": "one five zero"
  },
  "wind_gust": {
    "repr": "17",
    "value": 17,
    "spoken": "one seven"
  },
  "wind_speed": {
    "repr": "12",
    "value": 12,
    "spoken": "one two"
  },
  "wx_codes": [],
  "raw": "KBLI 191753Z 15012G17KT 10SM OVC032 09/03 A3007 RMK AO2 SLP190 T00890028 10089 20039 51022",
  "sanitized": "KBLI 191753Z 15012G17KT 10SM OVC032 09/03 A3007 RMK AO2 SLP190 T00890028 10089 20039 51022",
  "station": "KBLI",
  "time": {
    "repr": "191753Z",
    "dt": "2023-04-19T17:53:00Z"
  },
  "remarks": "RMK AO2 SLP190 T00890028 10089 20039 51022",
  "dewpoint": {
    "repr": "03",
    "value": 3,
    "spoken": "three"
  },
  "relative_humidity": 0.6556071384913482,
  "remarks_info": {
    "maximum_temperature_6": {
      "repr": "10089",
      "value": 8.9,
      "spoken": "eight point nine"
    },
    "minimum_temperature_6": {
      "repr": "20039",
      "value": 3.9,
      "spoken": "three point nine"
    },
    "pressure_tendency": {
      "repr": "51022",
      "tendency": "Increasing, then steady",
      "change": 2.2
    },
    "precip_36_hours": null,
    "precip_24_hours": null,
    "sunshine_minutes": null,
    "codes": [
      {
        "repr": "AO2",
        "value": "Automated with precipitation sensor"
      }
    ],
    "dewpoint_decimal": {
      "repr": "0028",
      "value": 2.8,
      "spoken": "two point eight"
    },
    "maximum_temperature_24": null,
    "minimum_temperature_24": null,
    "precip_hourly": null,
    "sea_level_pressure": {
      "repr": "SLP190",
      "value": 1019,
      "spoken": "one zero one nine point zero"
    },
    "snow_depth": null,
    "temperature_decimal": {
      "repr": "0089",
      "value": 8.9,
      "spoken": "eight point nine"
    }
  },
  "runway_visibility": [],
  "temperature": {
    "repr": "09",
    "value": 9,
    "spoken": "nine"
  },
  "wind_variable_direction": [],
  "density_altitude": -671,
  "pressure_altitude": 20,
  "units": {
    "accumulation": "in",
    "altimeter": "inHg",
    "altitude": "ft",
    "temperature": "C",
    "visibility": "sm",
    "wind_speed": "kt"
  }
}
