{
  "altimeter": {
    "repr": "A2992",
    "spoken": "two nine point nine two",
    "value": 29.92
  },
  "clouds": [
    {
      "altitude": 16,
      "modifier": null,
      "repr": "FEW016",
      "type": "FEW"
    },
    {
      "altitude": 60,
      "modifier": null,
      "repr": "BKN060",
      "type": "BKN"
    },
    {
      "altitude": 70,
      "modifier": null,
      "repr": "OVC070",
      "type": "OVC"
    }
  ],
  "density_altitude": -53,
  "dewpoint": {
    "repr": "12",
    "spoken": "one two",
    "value": 12
  },
  "flight_rules": "VFR",
  "meta": {
    "stations_updated": "2024-05-13",
    "timestamp": "2024-06-02T01:45:40.418582Z"
  },
  "other": [],
  "pressure_altitude": 170,
  "raw": "KBLI 020053Z 18008KT 6SM -RA BR FEW016 BKN060 OVC070 13/12 A2992 RMK AO2 RAB13 SLP139 P0002 T01280122",
  "relative_humidity": 0.9613738290736719,
  "remarks": "RMK AO2 RAB13 SLP139 P0002 T01280122",
  "remarks_info": {
    "codes": [
      {
        "repr": "AO2",
        "value": "Automated with precipitation sensor"
      },
      {
        "repr": "RAB13",
        "value": "Rain began at :13"
      }
    ],
    "dewpoint_decimal": {
      "repr": "0122",
      "spoken": "one two point two",
      "value": 12.2
    },
    "maximum_temperature_24": null,
    "maximum_temperature_6": null,
    "minimum_temperature_24": null,
    "minimum_temperature_6": null,
    "precip_24_hours": null,
    "precip_36_hours": null,
    "precip_hourly": {
      "repr": "P0002",
      "spoken": "zero point zero two",
      "value": 0.02
    },
    "pressure_tendency": null,
    "sea_level_pressure": {
      "repr": "SLP139",
      "spoken": "one zero one three point nine",
      "value": 1013.9
    },
    "snow_depth": null,
    "sunshine_minutes": null,
    "temperature_decimal": {
      "repr": "0128",
      "spoken": "one two point eight",
      "value": 12.8
    }
  },
  "runway_visibility": [],
  "sanitized": "KBLI 020053Z 18008KT 6SM -RA BR FEW016 BKN060 OVC070 13/12 A2992 RMK AO2 RAB13 SLP139 P0002 T01280122",
  "station": "KBLI",
  "temperature": {
    "repr": "13",
    "spoken": "one three",
    "value": 13
  },
  "time": {
    "dt": "2024-06-02T00:53:00Z",
    "repr": "020053Z"
  },
  "units": {
    "accumulation": "in",
    "altimeter": "inHg",
    "altitude": "ft",
    "temperature": "C",
    "visibility": "sm",
    "wind_speed": "kt"
  },
  "visibility": {
    "repr": "6",
    "spoken": "six",
    "value": 6
  },
  "wind_direction": {
    "repr": "180",
    "spoken": "one eight zero",
    "value": 180
  },
  "wind_gust": null,
  "wind_speed": {
    "repr": "08",
    "spoken": "eight",
    "value": 8
  },
  "wind_variable_direction": [],
  "wx_codes": [
    {
      "repr": "-RA",
      "value": "Light Rain"
    },
    {
      "repr": "BR",
      "value": "Mist"
    }
  ]
}
