{
  "altimeter": {
    "repr": "A2952",
    "spoken": "two nine point five two",
    "value": 29.52
  },
  "clouds": [
    {
      "altitude": 31,
      "modifier": null,
      "repr": "OVC031",
      "type": "OVC"
    }
  ],
  "density_altitude": -589,
  "dewpoint": {
    "repr": "05",
    "spoken": "five",
    "value": 5
  },
  "flight_rules": "VFR",
  "meta": {
    "stations_updated": "2024-12-02",
    "timestamp": "2024-12-28T10:06:44.052273Z"
  },
  "other": [],
  "pressure_altitude": 570,
  "raw": "KBLI 280953Z AUTO 00000KT 10SM OVC031 05/05 A2952 RMK AO2 SLP006 T00500050",
  "relative_humidity": 1,
  "remarks": "RMK AO2 SLP006 T00500050",
  "remarks_info": {
    "codes": [
      {
        "repr": "AO2",
        "value": "Automated with precipitation sensor"
      }
    ],
    "dewpoint_decimal": {
      "repr": "0050",
      "spoken": "five point zero",
      "value": 5
    },
    "maximum_temperature_24": null,
    "maximum_temperature_6": null,
    "minimum_temperature_24": null,
    "minimum_temperature_6": null,
    "precip_24_hours": null,
    "precip_36_hours": null,
    "precip_hourly": null,
    "pressure_tendency": null,
    "sea_level_pressure": {
      "repr": "SLP006",
      "spoken": "one zero zero zero point six",
      "value": 1000.6
    },
    "snow_depth": null,
    "sunshine_minutes": null,
    "temperature_decimal": {
      "repr": "0050",
      "spoken": "five point zero",
      "value": 5
    }
  },
  "runway_visibility": [],
  "sanitized": "KBLI 280953Z 00000KT 10SM OVC031 05/05 A2952 RMK AO2 SLP006 T00500050",
  "station": "KBLI",
  "temperature": {
    "repr": "05",
    "spoken": "five",
    "value": 5
  },
  "time": {
    "dt": "2024-12-28T09:53:00Z",
    "repr": "280953Z"
  },
  "units": {
    "accumulation": "in",
    "altimeter": "inHg",
    "altitude": "ft",
    "temperature": "C",
    "visibility": "sm",
    "wind_speed": "kt"
  },
  "visibility": {
    "repr": "10",
    "spoken": "one zero",
    "value": 10
  },
  "wind_direction": {
    "repr": "000",
    "spoken": "zero zero zero",
    "value": 0
  },
  "wind_gust": null,
  "wind_speed": {
    "repr": "00",
    "spoken": "zero",
    "value": 0
  },
  "wind_variable_direction": [],
  "wx_codes": []
}
