{
  "altimeter": {
    "repr": "A2971",
    "spoken": "two nine point seven one",
    "value": 29.71
  },
  "clouds": [
    {
      "altitude": 34,
      "modifier": null,
      "repr": "OVC034",
      "type": "OVC"
    }
  ],
  "density_altitude": -311,
  "dewpoint": {
    "repr": "04",
    "spoken": "four",
    "value": 4
  },
  "flight_rules": "VFR",
  "meta": {
    "stations_updated": "2024-01-01",
    "timestamp": "2024-03-28T06:07:35.399520Z"
  },
  "other": [],
  "pressure_altitude": 380,
  "raw": "KBLI 280553Z AUTO 17013G20KT 10SM OVC034 09/04 A2971 RMK AO2 PK WND 17034/0529 SLP067 60030 T00890039 10094 20050 53012",
  "relative_humidity": 0.7085592369885465,
  "remarks": "RMK AO2 PK WND 17034/0529 SLP067 60030 T00890039 10094 20050 53012",
  "remarks_info": {
    "codes": [
      {
        "repr": "AO2",
        "value": "Automated with precipitation sensor"
      }
    ],
    "dewpoint_decimal": {
      "repr": "0039",
      "spoken": "three point nine",
      "value": 3.9
    },
    "maximum_temperature_24": null,
    "maximum_temperature_6": {
      "repr": "10094",
      "spoken": "nine point four",
      "value": 9.4
    },
    "minimum_temperature_24": null,
    "minimum_temperature_6": {
      "repr": "20050",
      "spoken": "five point zero",
      "value": 5
    },
    "precip_24_hours": null,
    "precip_36_hours": {
      "repr": "60030",
      "spoken": "zero point three",
      "value": 0.3
    },
    "precip_hourly": null,
    "pressure_tendency": {
      "change": 1.2,
      "repr": "53012",
      "tendency": "Decreasing or steady, then increasing"
    },
    "sea_level_pressure": {
      "repr": "SLP067",
      "spoken": "one zero zero six point seven",
      "value": 1006.7
    },
    "snow_depth": null,
    "sunshine_minutes": null,
    "temperature_decimal": {
      "repr": "0089",
      "spoken": "eight point nine",
      "value": 8.9
    }
  },
  "runway_visibility": [],
  "sanitized": "KBLI 280553Z 17013G20KT 10SM OVC034 09/04 A2971 RMK AO2 PK WND 17034/0529 SLP067 60030 T00890039 10094 20050 53012",
  "station": "KBLI",
  "temperature": {
    "repr": "09",
    "spoken": "nine",
    "value": 9
  },
  "time": {
    "dt": "2024-03-28T05:53:00Z",
    "repr": "280553Z"
  },
  "units": {
    "accumulation": "in",
    "altimeter": "inHg",
    "altitude": "ft",
    "temperature": "C",
    "visibility": "sm",
    "wind_speed": "kt"
  },
  "visibility": {
    "repr": "10",
    "spoken": "one zero",
    "value": 10
  },
  "wind_direction": {
    "repr": "170",
    "spoken": "one seven zero",
    "value": 170
  },
  "wind_gust": {
    "repr": "20",
    "spoken": "two zero",
    "value": 20
  },
  "wind_speed": {
    "repr": "13",
    "spoken": "one three",
    "value": 13
  },
  "wind_variable_direction": [],
  "wx_codes": []
}
