{
  "altimeter": {
    "repr": "A2993",
    "spoken": "two nine point nine three",
    "value": 29.93
  },
  "clouds": [],
  "density_altitude": 1197,
  "dewpoint": {
    "repr": "09",
    "spoken": "nine",
    "value": 9
  },
  "flight_rules": "VFR",
  "meta": {
    "stations_updated": "2024-05-13",
    "timestamp": "2024-06-08T00:29:22.988869Z"
  },
  "other": [],
  "pressure_altitude": 160,
  "raw": "KBLI 072353Z 30007KT 260V330 10SM CLR 23/09 A2993 RMK AO2 SLP142 T02330089 10233 20189 56020",
  "relative_humidity": 0.39848949012752705,
  "remarks": "RMK AO2 SLP142 T02330089 10233 20189 56020",
  "remarks_info": {
    "codes": [
      {
        "repr": "AO2",
        "value": "Automated with precipitation sensor"
      }
    ],
    "dewpoint_decimal": {
      "repr": "0089",
      "spoken": "eight point nine",
      "value": 8.9
    },
    "maximum_temperature_24": null,
    "maximum_temperature_6": {
      "repr": "10233",
      "spoken": "two three point three",
      "value": 23.3
    },
    "minimum_temperature_24": null,
    "minimum_temperature_6": {
      "repr": "20189",
      "spoken": "one eight point nine",
      "value": 18.9
    },
    "precip_24_hours": null,
    "precip_36_hours": null,
    "precip_hourly": null,
    "pressure_tendency": {
      "change": 2,
      "repr": "56020",
      "tendency": "Decreasing, then steady"
    },
    "sea_level_pressure": {
      "repr": "SLP142",
      "spoken": "one zero one four point two",
      "value": 1014.2
    },
    "snow_depth": null,
    "sunshine_minutes": null,
    "temperature_decimal": {
      "repr": "0233",
      "spoken": "two three point three",
      "value": 23.3
    }
  },
  "runway_visibility": [],
  "sanitized": "KBLI 072353Z 30007KT 260V330 10SM 23/09 A2993 RMK AO2 SLP142 T02330089 10233 20189 56020",
  "station": "KBLI",
  "temperature": {
    "repr": "23",
    "spoken": "two three",
    "value": 23
  },
  "time": {
    "dt": "2024-06-07T23:53:00Z",
    "repr": "072353Z"
  },
  "units": {
    "accumulation": "in",
    "altimeter": "inHg",
    "altitude": "ft",
    "temperature": "C",
    "visibility": "sm",
    "wind_speed": "kt"
  },
  "visibility": {
    "repr": "10",
    "spoken": "one zero",
    "value": 10
  },
  "wind_direction": {
    "repr": "300",
    "spoken": "three zero zero",
    "value": 300
  },
  "wind_gust": null,
  "wind_speed": {
    "repr": "07",
    "spoken": "seven",
    "value": 7
  },
  "wind_variable_direction": [
    {
      "repr": "260",
      "spoken": "two six zero",
      "value": 260
    },
    {
      "repr": "330",
      "spoken": "three three zero",
      "value": 330
    }
  ],
  "wx_codes": []
}
