{
  "meta": {
    "timestamp": "2022-12-29T22:01:23.483978Z",
    "stations_updated": "2022-12-27"
  },
  "altimeter": {
    "repr": "A2958",
    "value": 29.58,
    "spoken": "two nine point five eight"
  },
  "clouds": [
    {
      "repr": "OVC042",
      "type": "OVC",
      "altitude": 42,
      "modifier": null
    }
  ],
  "flight_rules": "VFR",
  "other": [],
  "visibility": {
    "repr": "10",
    "value": 10,
    "spoken": "one zero"
  },
  "wind_direction": {
    "repr": "340",
    "value": 340,
    "spoken": "three four zero"
  },
  "wind_gust": null,
  "wind_speed": {
    "repr": "03",
    "value": 3,
    "spoken": "three"
  },
  "wx_codes": [
    {
      "repr": "-RA",
      "value": "Light Rain"
    }
  ],
  "raw": "KBLI 292153Z 34003KT 10SM -RA OVC042 06/03 A2958 RMK AO2 RAB06 SLP027 P0000 T00560033",
  "sanitized": "KBLI 292153Z 34003KT 10SM -RA OVC042 06/03 A2958 RMK AO2 RAB06 SLP027 P0000 T00560033",
  "station": "KBLI",
  "time": {
    "repr": "292153Z",
    "dt": "2022-12-29T21:53:00Z"
  },
  "remarks": "RMK AO2 RAB06 SLP027 P0000 T00560033",
  "dewpoint": {
    "repr": "03",
    "value": 3,
    "spoken": "three"
  },
  "relative_humidity": 0.8513177604096042,
  "remarks_info": {
    "maximum_temperature_6": null,
    "minimum_temperature_6": null,
    "pressure_tendency": null,
    "precip_36_hours": null,
    "precip_24_hours": null,
    "sunshine_minutes": null,
    "codes": [
      {
        "repr": "AO2",
        "value": "Automated with precipitation sensor"
      },
      {
        "repr": "P0000",
        "value": "Trace amount of rain in the last hour"
      },
      {
        "repr": "RAB06",
        "value": "Rain began at :06"
      }
    ],
    "dewpoint_decimal": {
      "repr": "0033",
      "value": 3.3,
      "spoken": "three point three"
    },
    "maximum_temperature_24": null,
    "minimum_temperature_24": null,
    "precip_hourly": null,
    "sea_level_pressure": {
      "repr": "SLP027",
      "value": 1002.7,
      "spoken": "one zero zero two point seven"
    },
    "snow_depth": null,
    "temperature_decimal": {
      "repr": "0056",
      "value": 5.6,
      "spoken": "five point six"
    }
  },
  "runway_visibility": [],
  "temperature": {
    "repr": "06",
    "value": 6,
    "spoken": "six"
  },
  "wind_variable_direction": [],
  "density_altitude": -577,
  "pressure_altitude": 510,
  "units": {
    "accumulation": "in",
    "altimeter": "inHg",
    "altitude": "ft",
    "temperature": "C",
    "visibility": "sm",
    "wind_speed": "kt"
  }
}
