{
  "altimeter": {
    "repr": "A3025",
    "spoken": "three zero point two five",
    "value": 30.25
  },
  "clouds": [
    {
      "altitude": 30,
      "modifier": null,
      "repr": "FEW030",
      "type": "FEW"
    },
    {
      "altitude": 41,
      "modifier": null,
      "repr": "BKN041",
      "type": "BKN"
    }
  ],
  "density_altitude": -1319,
  "dewpoint": {
    "repr": "02",
    "spoken": "two",
    "value": 2
  },
  "flight_rules": "VFR",
  "meta": {
    "stations_updated": "2024-10-29",
    "timestamp": "2024-11-30T04:33:18.467435Z"
  },
  "other": [],
  "pressure_altitude": -160,
  "raw": "KBLI 300353Z 17007KT 10SM FEW030 BKN041 05/02 A3025 RMK AO2 SLP254 T00500017",
  "relative_humidity": 0.7921337361968764,
  "remarks": "RMK AO2 SLP254 T00500017",
  "remarks_info": {
    "codes": [
      {
        "repr": "AO2",
        "value": "Automated with precipitation sensor"
      }
    ],
    "dewpoint_decimal": {
      "repr": "0017",
      "spoken": "one point seven",
      "value": 1.7
    },
    "maximum_temperature_24": null,
    "maximum_temperature_6": null,
    "minimum_temperature_24": null,
    "minimum_temperature_6": null,
    "precip_24_hours": null,
    "precip_36_hours": null,
    "precip_hourly": null,
    "pressure_tendency": null,
    "sea_level_pressure": {
      "repr": "SLP254",
      "spoken": "one zero two five point four",
      "value": 1025.4
    },
    "snow_depth": null,
    "sunshine_minutes": null,
    "temperature_decimal": {
      "repr": "0050",
      "spoken": "five point zero",
      "value": 5
    }
  },
  "runway_visibility": [],
  "sanitized": "KBLI 300353Z 17007KT 10SM FEW030 BKN041 05/02 A3025 RMK AO2 SLP254 T00500017",
  "station": "KBLI",
  "temperature": {
    "repr": "05",
    "spoken": "five",
    "value": 5
  },
  "time": {
    "dt": "2024-11-30T03:53:00Z",
    "repr": "300353Z"
  },
  "units": {
    "accumulation": "in",
    "altimeter": "inHg",
    "altitude": "ft",
    "temperature": "C",
    "visibility": "sm",
    "wind_speed": "kt"
  },
  "visibility": {
    "repr": "10",
    "spoken": "one zero",
    "value": 10
  },
  "wind_direction": {
    "repr": "170",
    "spoken": "one seven zero",
    "value": 170
  },
  "wind_gust": null,
  "wind_speed": {
    "repr": "07",
    "spoken": "seven",
    "value": 7
  },
  "wind_variable_direction": [],
  "wx_codes": []
}
