{
  "altimeter": {
    "repr": "A3034",
    "spoken": "three zero point three four",
    "value": 30.34
  },
  "clouds": [],
  "density_altitude": -2873,
  "dewpoint": {
    "repr": "M15",
    "spoken": "minus one five",
    "value": -15
  },
  "flight_rules": "VFR",
  "meta": {
    "cache-timestamp": "2024-01-15T05:03:25.843000Z",
    "stations_updated": "2023-10-28",
    "timestamp": "2024-01-15T05:03:42.236072Z"
  },
  "other": [],
  "pressure_altitude": -250,
  "raw": "KBLI 150453Z 04003KT 10SM CLR M07/M15 A3034 RMK AO2 SLP288 T10721150",
  "relative_humidity": 0.5371081018383984,
  "remarks": "RMK AO2 SLP288 T10721150",
  "remarks_info": {
    "codes": [
      {
        "repr": "AO2",
        "value": "Automated with precipitation sensor"
      }
    ],
    "dewpoint_decimal": {
      "repr": "1150",
      "spoken": "minus one five point zero",
      "value": -15
    },
    "maximum_temperature_24": null,
    "maximum_temperature_6": null,
    "minimum_temperature_24": null,
    "minimum_temperature_6": null,
    "precip_24_hours": null,
    "precip_36_hours": null,
    "precip_hourly": null,
    "pressure_tendency": null,
    "sea_level_pressure": {
      "repr": "SLP288",
      "spoken": "one zero two eight point eight",
      "value": 1028.8
    },
    "snow_depth": null,
    "sunshine_minutes": null,
    "temperature_decimal": {
      "repr": "1072",
      "spoken": "minus seven point two",
      "value": -7.2
    }
  },
  "runway_visibility": [],
  "sanitized": "KBLI 150453Z 04003KT 10SM M07/M15 A3034 RMK AO2 SLP288 T10721150",
  "station": "KBLI",
  "temperature": {
    "repr": "M07",
    "spoken": "minus seven",
    "value": -7
  },
  "time": {
    "dt": "2024-01-15T04:53:00Z",
    "repr": "150453Z"
  },
  "units": {
    "accumulation": "in",
    "altimeter": "inHg",
    "altitude": "ft",
    "temperature": "C",
    "visibility": "sm",
    "wind_speed": "kt"
  },
  "visibility": {
    "repr": "10",
    "spoken": "one zero",
    "value": 10
  },
  "wind_direction": {
    "repr": "040",
    "spoken": "zero four zero",
    "value": 40
  },
  "wind_gust": null,
  "wind_speed": {
    "repr": "03",
    "spoken": "three",
    "value": 3
  },
  "wind_variable_direction": [],
  "wx_codes": []
}
