{
  "meta": {
    "timestamp": "2023-05-20T08:40:35.985343Z",
    "stations_updated": "2023-03-11",
    "cache-timestamp": "2023-05-20T08:40:04.892000Z"
  },
  "altimeter": {
    "repr": "A3007",
    "value": 30.07,
    "spoken": "three zero point zero seven"
  },
  "clouds": [
    {
      "repr": "BKN100",
      "type": "BKN",
      "altitude": 100,
      "modifier": null
    }
  ],
  "flight_rules": "VFR",
  "other": [],
  "visibility": {
    "repr": "10",
    "value": 10,
    "spoken": "one zero"
  },
  "wind_direction": {
    "repr": "190",
    "value": 190,
    "spoken": "one nine zero"
  },
  "wind_gust": {
    "repr": "16",
    "value": 16,
    "spoken": "one six"
  },
  "wind_speed": {
    "repr": "07",
    "value": 7,
    "spoken": "seven"
  },
  "wx_codes": [],
  "raw": "KBLI 200753Z AUTO 19007G16KT 10SM BKN100 15/12 A3007 RMK AO2 SLP188 T01500122 402280133",
  "sanitized": "KBLI 200753Z 19007G16KT 10SM BKN100 15/12 A3007 RMK AO2 SLP188 T01500122 402280133",
  "station": "KBLI",
  "time": {
    "repr": "200753Z",
    "dt": "2023-05-20T07:53:00Z"
  },
  "remarks": "RMK AO2 SLP188 T01500122 402280133",
  "dewpoint": {
    "repr": "12",
    "value": 12,
    "spoken": "one two"
  },
  "relative_humidity": 0.8333808182210515,
  "remarks_info": {
    "maximum_temperature_6": null,
    "minimum_temperature_6": null,
    "pressure_tendency": null,
    "precip_36_hours": null,
    "precip_24_hours": null,
    "sunshine_minutes": null,
    "codes": [
      {
        "repr": "AO2",
        "value": "Automated with precipitation sensor"
      }
    ],
    "dewpoint_decimal": {
      "repr": "0122",
      "value": 12.2,
      "spoken": "one two point two"
    },
    "maximum_temperature_24": {
      "repr": "0228",
      "value": 22.8,
      "spoken": "two two point eight"
    },
    "minimum_temperature_24": {
      "repr": "0133",
      "value": 13.3,
      "spoken": "one three point three"
    },
    "precip_hourly": null,
    "sea_level_pressure": {
      "repr": "SLP188",
      "value": 1018.8,
      "spoken": "one zero one eight point eight"
    },
    "snow_depth": null,
    "temperature_decimal": {
      "repr": "0150",
      "value": 15,
      "spoken": "one five point zero"
    }
  },
  "runway_visibility": [],
  "temperature": {
    "repr": "15",
    "value": 15,
    "spoken": "one five"
  },
  "wind_variable_direction": [],
  "density_altitude": 61,
  "pressure_altitude": 20,
  "units": {
    "accumulation": "in",
    "altimeter": "inHg",
    "altitude": "ft",
    "temperature": "C",
    "visibility": "sm",
    "wind_speed": "kt"
  }
}
