{
  "meta": {
    "timestamp": "2023-06-04T02:28:50.596740Z",
    "stations_updated": "2023-05-30",
    "cache-timestamp": "2023-06-04T02:28:04.181000Z"
  },
  "altimeter": {
    "repr": "A3007",
    "value": 30.07,
    "spoken": "three zero point zero seven"
  },
  "clouds": [],
  "flight_rules": "VFR",
  "other": [],
  "visibility": {
    "repr": "10",
    "value": 10,
    "spoken": "one zero"
  },
  "wind_direction": {
    "repr": "190",
    "value": 190,
    "spoken": "one nine zero"
  },
  "wind_gust": {
    "repr": "16",
    "value": 16,
    "spoken": "one six"
  },
  "wind_speed": {
    "repr": "08",
    "value": 8,
    "spoken": "eight"
  },
  "wx_codes": [],
  "raw": "KBLI 040153Z 19008G16KT 10SM CLR 19/11 A3007 RMK AO2 SLP187 T01890111",
  "sanitized": "KBLI 040153Z 19008G16KT 10SM 19/11 A3007 RMK AO2 SLP187 T01890111",
  "station": "KBLI",
  "time": {
    "repr": "040153Z",
    "dt": "2023-06-04T01:53:00Z"
  },
  "remarks": "RMK AO2 SLP187 T01890111",
  "dewpoint": {
    "repr": "11",
    "value": 11,
    "spoken": "one one"
  },
  "relative_humidity": 0.6051059494458122,
  "remarks_info": {
    "maximum_temperature_6": null,
    "minimum_temperature_6": null,
    "pressure_tendency": null,
    "precip_36_hours": null,
    "precip_24_hours": null,
    "sunshine_minutes": null,
    "codes": [
      {
        "repr": "AO2",
        "value": "Automated with precipitation sensor"
      }
    ],
    "dewpoint_decimal": {
      "repr": "0111",
      "value": 11.1,
      "spoken": "one one point one"
    },
    "maximum_temperature_24": null,
    "minimum_temperature_24": null,
    "precip_hourly": null,
    "sea_level_pressure": {
      "repr": "SLP187",
      "value": 1018.7,
      "spoken": "one zero one eight point seven"
    },
    "snow_depth": null,
    "temperature_decimal": {
      "repr": "0189",
      "value": 18.9,
      "spoken": "one eight point nine"
    }
  },
  "runway_visibility": [],
  "temperature": {
    "repr": "19",
    "value": 19,
    "spoken": "one nine"
  },
  "wind_variable_direction": [],
  "density_altitude": 529,
  "pressure_altitude": 20,
  "units": {
    "accumulation": "in",
    "altimeter": "inHg",
    "altitude": "ft",
    "temperature": "C",
    "visibility": "sm",
    "wind_speed": "kt"
  }
}
