{
  "meta": {
    "timestamp": "2023-01-28T00:28:39.345952Z",
    "stations_updated": "2023-01-16",
    "cache-timestamp": "2023-01-28T00:28:06.450000Z"
  },
  "altimeter": {
    "repr": "A3020",
    "value": 30.2,
    "spoken": "three zero point two zero"
  },
  "clouds": [
    {
      "repr": "SCT007",
      "type": "SCT",
      "altitude": 7,
      "modifier": null
    },
    {
      "repr": "BKN011",
      "type": "BKN",
      "altitude": 11,
      "modifier": null
    },
    {
      "repr": "OVC022",
      "type": "OVC",
      "altitude": 22,
      "modifier": null
    }
  ],
  "flight_rules": "MVFR",
  "other": [],
  "visibility": {
    "repr": "8",
    "value": 8,
    "spoken": "eight"
  },
  "wind_direction": {
    "repr": "000",
    "value": 0,
    "spoken": "zero zero zero"
  },
  "wind_gust": null,
  "wind_speed": {
    "repr": "00",
    "value": 0,
    "spoken": "zero"
  },
  "wx_codes": [],
  "raw": "KBLI 272353Z 00000KT 8SM SCT007 BKN011 OVC022 07/06 A3020 RMK AO2 SLP235 T00720061 10072 20067 56009",
  "sanitized": "KBLI 272353Z 00000KT 8SM SCT007 BKN011 OVC022 07/06 A3020 RMK AO2 SLP235 T00720061 10072 20067 56009",
  "station": "KBLI",
  "time": {
    "repr": "272353Z",
    "dt": "2023-01-27T23:53:00Z"
  },
  "remarks": "RMK AO2 SLP235 T00720061 10072 20067 56009",
  "dewpoint": {
    "repr": "06",
    "value": 6,
    "spoken": "six"
  },
  "relative_humidity": 0.9271535108565763,
  "remarks_info": {
    "maximum_temperature_6": {
      "repr": "10072",
      "value": 7.2,
      "spoken": "seven point two"
    },
    "minimum_temperature_6": {
      "repr": "20067",
      "value": 6.7,
      "spoken": "six point seven"
    },
    "pressure_tendency": {
      "repr": "56009",
      "tendency": "Decreasing, then steady",
      "change": 0.9
    },
    "precip_36_hours": null,
    "precip_24_hours": null,
    "sunshine_minutes": null,
    "codes": [
      {
        "repr": "AO2",
        "value": "Automated with precipitation sensor"
      }
    ],
    "dewpoint_decimal": {
      "repr": "0061",
      "value": 6.1,
      "spoken": "six point one"
    },
    "maximum_temperature_24": null,
    "minimum_temperature_24": null,
    "precip_hourly": null,
    "sea_level_pressure": {
      "repr": "SLP235",
      "value": 1023.5,
      "spoken": "one zero two three point five"
    },
    "snow_depth": null,
    "temperature_decimal": {
      "repr": "0072",
      "value": 7.2,
      "spoken": "seven point two"
    }
  },
  "runway_visibility": [],
  "temperature": {
    "repr": "07",
    "value": 7,
    "spoken": "seven"
  },
  "wind_variable_direction": [],
  "density_altitude": -1005,
  "pressure_altitude": -110,
  "units": {
    "accumulation": "in",
    "altimeter": "inHg",
    "altitude": "ft",
    "temperature": "C",
    "visibility": "sm",
    "wind_speed": "kt"
  }
}
