{
  "altimeter": {
    "repr": "A3016",
    "spoken": "three zero point one six",
    "value": 30.16
  },
  "clouds": [],
  "density_altitude": -3497,
  "dewpoint": {
    "repr": "M22",
    "spoken": "minus two two",
    "value": -22
  },
  "flight_rules": "VFR",
  "meta": {
    "stations_updated": "2023-10-28",
    "timestamp": "2024-01-13T13:23:52.114265Z"
  },
  "other": [],
  "pressure_altitude": -70,
  "raw": "KBLI 131253Z AUTO 02008KT 10SM CLR M14/M22 A3016 RMK AO2 SLP227 T11391222",
  "relative_humidity": 0.49517392523839493,
  "remarks": "RMK AO2 SLP227 T11391222",
  "remarks_info": {
    "codes": [
      {
        "repr": "AO2",
        "value": "Automated with precipitation sensor"
      }
    ],
    "dewpoint_decimal": {
      "repr": "1222",
      "spoken": "minus two two point two",
      "value": -22.2
    },
    "maximum_temperature_24": null,
    "maximum_temperature_6": null,
    "minimum_temperature_24": null,
    "minimum_temperature_6": null,
    "precip_24_hours": null,
    "precip_36_hours": null,
    "precip_hourly": null,
    "pressure_tendency": null,
    "sea_level_pressure": {
      "repr": "SLP227",
      "spoken": "one zero two two point seven",
      "value": 1022.7
    },
    "snow_depth": null,
    "sunshine_minutes": null,
    "temperature_decimal": {
      "repr": "1139",
      "spoken": "minus one three point nine",
      "value": -13.9
    }
  },
  "runway_visibility": [],
  "sanitized": "KBLI 131253Z 02008KT 10SM M14/M22 A3016 RMK AO2 SLP227 T11391222",
  "station": "KBLI",
  "temperature": {
    "repr": "M14",
    "spoken": "minus one four",
    "value": -14
  },
  "time": {
    "dt": "2024-01-13T12:53:00Z",
    "repr": "131253Z"
  },
  "units": {
    "accumulation": "in",
    "altimeter": "inHg",
    "altitude": "ft",
    "temperature": "C",
    "visibility": "sm",
    "wind_speed": "kt"
  },
  "visibility": {
    "repr": "10",
    "spoken": "one zero",
    "value": 10
  },
  "wind_direction": {
    "repr": "020",
    "spoken": "zero two zero",
    "value": 20
  },
  "wind_gust": null,
  "wind_speed": {
    "repr": "08",
    "spoken": "eight",
    "value": 8
  },
  "wind_variable_direction": [],
  "wx_codes": []
}
