{
  "altimeter": {
    "repr": "A3047",
    "spoken": "three zero point four seven",
    "value": 30.47
  },
  "clouds": [
    {
      "altitude": 38,
      "modifier": null,
      "repr": "OVC038",
      "type": "OVC"
    }
  ],
  "density_altitude": -1539,
  "dewpoint": {
    "repr": "05",
    "spoken": "five",
    "value": 5
  },
  "flight_rules": "VFR",
  "meta": {
    "stations_updated": "2024-12-02",
    "timestamp": "2024-12-09T12:56:44.418314Z"
  },
  "other": [],
  "pressure_altitude": -380,
  "raw": "KBLI 091253Z AUTO 18003KT 10SM OVC038 05/05 A3047 RMK AO2 SLP325 T00500050",
  "relative_humidity": 1,
  "remarks": "RMK AO2 SLP325 T00500050",
  "remarks_info": {
    "codes": [
      {
        "repr": "AO2",
        "value": "Automated with precipitation sensor"
      }
    ],
    "dewpoint_decimal": {
      "repr": "0050",
      "spoken": "five point zero",
      "value": 5
    },
    "maximum_temperature_24": null,
    "maximum_temperature_6": null,
    "minimum_temperature_24": null,
    "minimum_temperature_6": null,
    "precip_24_hours": null,
    "precip_36_hours": null,
    "precip_hourly": null,
    "pressure_tendency": null,
    "sea_level_pressure": {
      "repr": "SLP325",
      "spoken": "one zero three two point five",
      "value": 1032.5
    },
    "snow_depth": null,
    "sunshine_minutes": null,
    "temperature_decimal": {
      "repr": "0050",
      "spoken": "five point zero",
      "value": 5
    }
  },
  "runway_visibility": [],
  "sanitized": "KBLI 091253Z 18003KT 10SM OVC038 05/05 A3047 RMK AO2 SLP325 T00500050",
  "station": "KBLI",
  "temperature": {
    "repr": "05",
    "spoken": "five",
    "value": 5
  },
  "time": {
    "dt": "2024-12-09T12:53:00Z",
    "repr": "091253Z"
  },
  "units": {
    "accumulation": "in",
    "altimeter": "inHg",
    "altitude": "ft",
    "temperature": "C",
    "visibility": "sm",
    "wind_speed": "kt"
  },
  "visibility": {
    "repr": "10",
    "spoken": "one zero",
    "value": 10
  },
  "wind_direction": {
    "repr": "180",
    "spoken": "one eight zero",
    "value": 180
  },
  "wind_gust": null,
  "wind_speed": {
    "repr": "03",
    "spoken": "three",
    "value": 3
  },
  "wind_variable_direction": [],
  "wx_codes": []
}
