{
  "altimeter": {
    "repr": "A2996",
    "spoken": "two nine point nine six",
    "value": 29.96
  },
  "clouds": [
    {
      "altitude": 19,
      "modifier": null,
      "repr": "BKN019",
      "type": "BKN"
    },
    {
      "altitude": 29,
      "modifier": null,
      "repr": "BKN029",
      "type": "BKN"
    },
    {
      "altitude": 47,
      "modifier": null,
      "repr": "OVC047",
      "type": "OVC"
    }
  ],
  "density_altitude": -297,
  "dewpoint": {
    "repr": "09",
    "spoken": "nine",
    "value": 9
  },
  "flight_rules": "MVFR",
  "meta": {
    "cache-timestamp": "2024-05-21T21:22:02.530000Z",
    "stations_updated": "2024-05-13",
    "timestamp": "2024-05-21T21:22:45.635378Z"
  },
  "other": [],
  "pressure_altitude": 130,
  "raw": "KBLI 212101Z 17010G19KT 5SM -RA BR BKN019 BKN029 OVC047 11/09 A2996 RMK AO2 P0002 T01110094",
  "relative_humidity": 0.8926151927981825,
  "remarks": "RMK AO2 P0002 T01110094",
  "remarks_info": {
    "codes": [
      {
        "repr": "AO2",
        "value": "Automated with precipitation sensor"
      }
    ],
    "dewpoint_decimal": {
      "repr": "0094",
      "spoken": "nine point four",
      "value": 9.4
    },
    "maximum_temperature_24": null,
    "maximum_temperature_6": null,
    "minimum_temperature_24": null,
    "minimum_temperature_6": null,
    "precip_24_hours": null,
    "precip_36_hours": null,
    "precip_hourly": {
      "repr": "P0002",
      "spoken": "zero point zero two",
      "value": 0.02
    },
    "pressure_tendency": null,
    "sea_level_pressure": null,
    "snow_depth": null,
    "sunshine_minutes": null,
    "temperature_decimal": {
      "repr": "0111",
      "spoken": "one one point one",
      "value": 11.1
    }
  },
  "runway_visibility": [],
  "sanitized": "KBLI 212101Z 17010G19KT 5SM -RA BR BKN019 BKN029 OVC047 11/09 A2996 RMK AO2 P0002 T01110094",
  "station": "KBLI",
  "temperature": {
    "repr": "11",
    "spoken": "one one",
    "value": 11
  },
  "time": {
    "dt": "2024-05-21T21:01:00Z",
    "repr": "212101Z"
  },
  "units": {
    "accumulation": "in",
    "altimeter": "inHg",
    "altitude": "ft",
    "temperature": "C",
    "visibility": "sm",
    "wind_speed": "kt"
  },
  "visibility": {
    "repr": "5",
    "spoken": "five",
    "value": 5
  },
  "wind_direction": {
    "repr": "170",
    "spoken": "one seven zero",
    "value": 170
  },
  "wind_gust": {
    "repr": "19",
    "spoken": "one nine",
    "value": 19
  },
  "wind_speed": {
    "repr": "10",
    "spoken": "one zero",
    "value": 10
  },
  "wind_variable_direction": [],
  "wx_codes": [
    {
      "repr": "-RA",
      "value": "Light Rain"
    },
    {
      "repr": "BR",
      "value": "Mist"
    }
  ]
}
