{
  "meta": {
    "timestamp": "2023-02-22T06:07:42.383525Z",
    "stations_updated": "2023-01-30"
  },
  "altimeter": {
    "repr": "A2953",
    "value": 29.53,
    "spoken": "two nine point five three"
  },
  "clouds": [],
  "flight_rules": "VFR",
  "other": [],
  "visibility": {
    "repr": "10",
    "value": 10,
    "spoken": "one zero"
  },
  "wind_direction": {
    "repr": "040",
    "value": 40,
    "spoken": "zero four zero"
  },
  "wind_gust": {
    "repr": "34",
    "value": 34,
    "spoken": "three four"
  },
  "wind_speed": {
    "repr": "24",
    "value": 24,
    "spoken": "two four"
  },
  "wx_codes": [],
  "raw": "KBLI 220553Z 04024G34KT 10SM CLR 01/M08 A2953 RMK AO2 PK WND 04037/0540 SLP009 T00111083 10072 20011 53014",
  "sanitized": "KBLI 220553Z 04024G34KT 10SM 01/M08 A2953 RMK AO2 PK WND 04037/0540 SLP009 T00111083 10072 20011 53014",
  "station": "KBLI",
  "time": {
    "repr": "220553Z",
    "dt": "2023-02-22T05:53:00Z"
  },
  "remarks": "RMK AO2 PK WND 04037/0540 SLP009 T00111083 10072 20011 53014",
  "dewpoint": {
    "repr": "M08",
    "value": -8,
    "spoken": "minus eight"
  },
  "relative_humidity": 0.4950863410825104,
  "remarks_info": {
    "maximum_temperature_6": {
      "repr": "10072",
      "value": 7.2,
      "spoken": "seven point two"
    },
    "minimum_temperature_6": {
      "repr": "20011",
      "value": 1.1,
      "spoken": "one point one"
    },
    "pressure_tendency": {
      "repr": "53014",
      "tendency": "Decreasing or steady, then increasing",
      "change": 1.4
    },
    "precip_36_hours": null,
    "precip_24_hours": null,
    "sunshine_minutes": null,
    "codes": [
      {
        "repr": "AO2",
        "value": "Automated with precipitation sensor"
      }
    ],
    "dewpoint_decimal": {
      "repr": "1083",
      "value": -8.3,
      "spoken": "minus eight point three"
    },
    "maximum_temperature_24": null,
    "minimum_temperature_24": null,
    "precip_hourly": null,
    "sea_level_pressure": {
      "repr": "SLP009",
      "value": 1000.9,
      "spoken": "one zero zero zero point nine"
    },
    "snow_depth": null,
    "temperature_decimal": {
      "repr": "0011",
      "value": 1.1,
      "spoken": "one point one"
    }
  },
  "runway_visibility": [],
  "temperature": {
    "repr": "01",
    "value": 1,
    "spoken": "one"
  },
  "wind_variable_direction": [],
  "density_altitude": -1067,
  "pressure_altitude": 560,
  "units": {
    "accumulation": "in",
    "altimeter": "inHg",
    "altitude": "ft",
    "temperature": "C",
    "visibility": "sm",
    "wind_speed": "kt"
  }
}
