{
  "altimeter": {
    "repr": "A2953",
    "spoken": "two nine point five three",
    "value": 29.53
  },
  "clouds": [
    {
      "altitude": 34,
      "modifier": null,
      "repr": "OVC034",
      "type": "OVC"
    }
  ],
  "density_altitude": -71,
  "dewpoint": {
    "repr": "09",
    "spoken": "nine",
    "value": 9
  },
  "flight_rules": "VFR",
  "meta": {
    "stations_updated": "2024-10-29",
    "timestamp": "2024-11-11T09:29:32.247898Z"
  },
  "other": [],
  "pressure_altitude": 560,
  "raw": "KBLI 110853Z AUTO 04005KT 7SM -RA OVC034 09/09 A2953 RMK AO2 SLP005 P0010 60025 T00940094 58034",
  "relative_humidity": 1,
  "remarks": "RMK AO2 SLP005 P0010 60025 T00940094 58034",
  "remarks_info": {
    "codes": [
      {
        "repr": "AO2",
        "value": "Automated with precipitation sensor"
      }
    ],
    "dewpoint_decimal": {
      "repr": "0094",
      "spoken": "nine point four",
      "value": 9.4
    },
    "maximum_temperature_24": null,
    "maximum_temperature_6": null,
    "minimum_temperature_24": null,
    "minimum_temperature_6": null,
    "precip_24_hours": null,
    "precip_36_hours": {
      "repr": "60025",
      "spoken": "zero point two five",
      "value": 0.25
    },
    "precip_hourly": {
      "repr": "P0010",
      "spoken": "zero point one",
      "value": 0.1
    },
    "pressure_tendency": {
      "change": 3.4,
      "repr": "58034",
      "tendency": "Steady or increasing, then decreasing"
    },
    "sea_level_pressure": {
      "repr": "SLP005",
      "spoken": "one zero zero zero point five",
      "value": 1000.5
    },
    "snow_depth": null,
    "sunshine_minutes": null,
    "temperature_decimal": {
      "repr": "0094",
      "spoken": "nine point four",
      "value": 9.4
    }
  },
  "runway_visibility": [],
  "sanitized": "KBLI 110853Z 04005KT 7SM -RA OVC034 09/09 A2953 RMK AO2 SLP005 P0010 60025 T00940094 58034",
  "station": "KBLI",
  "temperature": {
    "repr": "09",
    "spoken": "nine",
    "value": 9
  },
  "time": {
    "dt": "2024-11-11T08:53:00Z",
    "repr": "110853Z"
  },
  "units": {
    "accumulation": "in",
    "altimeter": "inHg",
    "altitude": "ft",
    "temperature": "C",
    "visibility": "sm",
    "wind_speed": "kt"
  },
  "visibility": {
    "repr": "7",
    "spoken": "seven",
    "value": 7
  },
  "wind_direction": {
    "repr": "040",
    "spoken": "zero four zero",
    "value": 40
  },
  "wind_gust": null,
  "wind_speed": {
    "repr": "05",
    "spoken": "five",
    "value": 5
  },
  "wind_variable_direction": [],
  "wx_codes": [
    {
      "repr": "-RA",
      "value": "Light Rain"
    }
  ]
}
