{
  "meta": {
    "timestamp": "2022-09-29T11:04:23.235624Z",
    "stations_updated": "2022-09-05"
  },
  "altimeter": {
    "repr": "A3006",
    "value": 30.06,
    "spoken": "three zero point zero six"
  },
  "clouds": [
    {
      "repr": "FEW002",
      "type": "FEW",
      "altitude": 2,
      "modifier": null
    }
  ],
  "flight_rules": "MVFR",
  "other": [],
  "visibility": {
    "repr": "3",
    "value": 3,
    "spoken": "three"
  },
  "wind_direction": {
    "repr": "000",
    "value": 0,
    "spoken": "zero zero zero"
  },
  "wind_gust": null,
  "wind_speed": {
    "repr": "00",
    "value": 0,
    "spoken": "zero"
  },
  "wx_codes": [
    {
      "repr": "BR",
      "value": "Mist"
    }
  ],
  "raw": "KBLI 291059Z AUTO 00000KT 3SM R16/2000V5500FT BR FEW002 09/09 A3006 RMK AO2 T00940094",
  "sanitized": "KBLI 291059Z 00000KT 3SM R16/2000V5500FT BR FEW002 09/09 A3006 RMK AO2 T00940094",
  "station": "KBLI",
  "time": {
    "repr": "291059Z",
    "dt": "2022-09-29T10:59:00Z"
  },
  "remarks": "RMK AO2 T00940094",
  "dewpoint": {
    "repr": "09",
    "value": 9,
    "spoken": "nine"
  },
  "relative_humidity": 1,
  "remarks_info": {
    "maximum_temperature_6": null,
    "minimum_temperature_6": null,
    "pressure_tendency": null,
    "precip_36_hours": null,
    "precip_24_hours": null,
    "sunshine_minutes": null,
    "codes": [
      {
        "repr": "AO2",
        "value": "Automated with precipitation sensor"
      }
    ],
    "dewpoint_decimal": {
      "repr": "0094",
      "value": 9.4,
      "spoken": "nine point four"
    },
    "maximum_temperature_24": null,
    "minimum_temperature_24": null,
    "precip_hourly": null,
    "sea_level_pressure": null,
    "snow_depth": null,
    "temperature_decimal": {
      "repr": "0094",
      "value": 9.4,
      "spoken": "nine point four"
    }
  },
  "runway_visibility": [
    {
      "repr": "R16/2000V5500FT",
      "runway": "16",
      "visibility": null,
      "variable_visibility": [
        {
          "repr": "2000",
          "value": 2000,
          "spoken": "two thousand"
        },
        {
          "repr": "5500",
          "value": 5500,
          "spoken": "five five hundred"
        }
      ],
      "trend": null
    }
  ],
  "temperature": {
    "repr": "09",
    "value": 9,
    "spoken": "nine"
  },
  "wind_variable_direction": [],
  "density_altitude": -601,
  "pressure_altitude": 30,
  "units": {
    "accumulation": "in",
    "altimeter": "inHg",
    "altitude": "ft",
    "temperature": "C",
    "visibility": "sm",
    "wind_speed": "kt"
  }
}
