{
  "meta": {
    "timestamp": "2023-10-26T09:01:34.492068Z",
    "stations_updated": "2023-10-01"
  },
  "altimeter": {
    "repr": "A3012",
    "value": 30.12,
    "spoken": "three zero point one two"
  },
  "clouds": [],
  "flight_rules": "VFR",
  "other": [],
  "visibility": {
    "repr": "10",
    "value": 10,
    "spoken": "one zero"
  },
  "wind_direction": {
    "repr": "030",
    "value": 30,
    "spoken": "zero three zero"
  },
  "wind_gust": null,
  "wind_speed": {
    "repr": "05",
    "value": 5,
    "spoken": "five"
  },
  "wx_codes": [],
  "raw": "KBLI 260853Z AUTO 03005KT 10SM CLR 01/M04 A3012 RMK AO2 SLP208 T00111039 53018",
  "sanitized": "KBLI 260853Z 03005KT 10SM 01/M04 A3012 RMK AO2 SLP208 T00111039 53018",
  "station": "KBLI",
  "time": {
    "repr": "260853Z",
    "dt": "2023-10-26T08:53:00Z"
  },
  "remarks": "RMK AO2 SLP208 T00111039 53018",
  "dewpoint": {
    "repr": "M04",
    "value": -4,
    "spoken": "minus four"
  },
  "relative_humidity": 0.6927533266475614,
  "remarks_info": {
    "maximum_temperature_6": null,
    "minimum_temperature_6": null,
    "pressure_tendency": {
      "repr": "53018",
      "tendency": "Decreasing or steady, then increasing",
      "change": 1.8
    },
    "precip_36_hours": null,
    "precip_24_hours": null,
    "sunshine_minutes": null,
    "codes": [
      {
        "repr": "AO2",
        "value": "Automated with precipitation sensor"
      }
    ],
    "dewpoint_decimal": {
      "repr": "1039",
      "value": -3.9,
      "spoken": "minus three point nine"
    },
    "maximum_temperature_24": null,
    "minimum_temperature_24": null,
    "precip_hourly": null,
    "sea_level_pressure": {
      "repr": "SLP208",
      "value": 1020.8,
      "spoken": "one zero two zero point eight"
    },
    "snow_depth": null,
    "temperature_decimal": {
      "repr": "0011",
      "value": 1.1,
      "spoken": "one point one"
    }
  },
  "runway_visibility": [],
  "temperature": {
    "repr": "01",
    "value": 1,
    "spoken": "one"
  },
  "wind_variable_direction": [],
  "density_altitude": -1657,
  "pressure_altitude": -30,
  "units": {
    "accumulation": "in",
    "altimeter": "inHg",
    "altitude": "ft",
    "temperature": "C",
    "visibility": "sm",
    "wind_speed": "kt"
  }
}
