{
  "meta": {
    "timestamp": "2023-01-27T09:02:41.797427Z",
    "stations_updated": "2023-01-16"
  },
  "altimeter": {
    "repr": "A3022",
    "value": 30.22,
    "spoken": "three zero point two two"
  },
  "clouds": [
    {
      "repr": "OVC013",
      "type": "OVC",
      "altitude": 13,
      "modifier": null
    }
  ],
  "flight_rules": "MVFR",
  "other": [],
  "visibility": {
    "repr": "7",
    "value": 7,
    "spoken": "seven"
  },
  "wind_direction": {
    "repr": "170",
    "value": 170,
    "spoken": "one seven zero"
  },
  "wind_gust": {
    "repr": "19",
    "value": 19,
    "spoken": "one nine"
  },
  "wind_speed": {
    "repr": "10",
    "value": 10,
    "spoken": "one zero"
  },
  "wx_codes": [
    {
      "repr": "-RA",
      "value": "Light Rain"
    }
  ],
  "raw": "KBLI 270853Z AUTO 17010G19KT 7SM -RA OVC013 07/06 A3022 RMK AO2 SLP241 P0006 60007 T00670061 56042",
  "sanitized": "KBLI 270853Z 17010G19KT 7SM -RA OVC013 07/06 A3022 RMK AO2 SLP241 P0006 60007 T00670061 56042",
  "station": "KBLI",
  "time": {
    "repr": "270853Z",
    "dt": "2023-01-27T08:53:00Z"
  },
  "remarks": "RMK AO2 SLP241 P0006 60007 T00670061 56042",
  "dewpoint": {
    "repr": "06",
    "value": 6,
    "spoken": "six"
  },
  "relative_humidity": 0.9595042676817481,
  "remarks_info": {
    "maximum_temperature_6": null,
    "minimum_temperature_6": null,
    "pressure_tendency": {
      "repr": "56042",
      "tendency": "Decreasing, then steady",
      "change": 4.2
    },
    "precip_36_hours": {
      "repr": "60007",
      "value": 0.07,
      "spoken": "zero point zero seven"
    },
    "precip_24_hours": null,
    "sunshine_minutes": null,
    "codes": [
      {
        "repr": "AO2",
        "value": "Automated with precipitation sensor"
      }
    ],
    "dewpoint_decimal": {
      "repr": "0061",
      "value": 6.1,
      "spoken": "six point one"
    },
    "maximum_temperature_24": null,
    "minimum_temperature_24": null,
    "precip_hourly": {
      "repr": "P0006",
      "value": 0.06,
      "spoken": "zero point zero six"
    },
    "sea_level_pressure": {
      "repr": "SLP241",
      "value": 1024.1,
      "spoken": "one zero two four point one"
    },
    "snow_depth": null,
    "temperature_decimal": {
      "repr": "0067",
      "value": 6.7,
      "spoken": "six point seven"
    }
  },
  "runway_visibility": [],
  "temperature": {
    "repr": "07",
    "value": 7,
    "spoken": "seven"
  },
  "wind_variable_direction": [],
  "density_altitude": -1085,
  "pressure_altitude": -130,
  "units": {
    "accumulation": "in",
    "altimeter": "inHg",
    "altitude": "ft",
    "temperature": "C",
    "visibility": "sm",
    "wind_speed": "kt"
  }
}
