{
  "meta": {
    "timestamp": "2022-12-18T03:26:28.927102Z",
    "stations_updated": "2022-09-05"
  },
  "altimeter": {
    "repr": "A2997",
    "value": 29.97,
    "spoken": "two nine point nine seven"
  },
  "clouds": [
    {
      "repr": "OVC010",
      "type": "OVC",
      "altitude": 10,
      "modifier": null
    }
  ],
  "flight_rules": "MVFR",
  "other": [],
  "visibility": {
    "repr": "10",
    "value": 10,
    "spoken": "one zero"
  },
  "wind_direction": {
    "repr": "170",
    "value": 170,
    "spoken": "one seven zero"
  },
  "wind_gust": null,
  "wind_speed": {
    "repr": "09",
    "value": 9,
    "spoken": "nine"
  },
  "wx_codes": [],
  "raw": "KBLI 180253Z 17009KT 10SM OVC010 03/03 A2997 RMK AO2 RAE35 SLP159 P0001 60005 T00330028 56008 $",
  "sanitized": "KBLI 180253Z 17009KT 10SM OVC010 03/03 A2997 RMK AO2 RAE35 SLP159 P0001 60005 T00330028 56008 $",
  "station": "KBLI",
  "time": {
    "repr": "180253Z",
    "dt": "2022-12-18T02:53:00Z"
  },
  "remarks": "RMK AO2 RAE35 SLP159 P0001 60005 T00330028 56008 $",
  "dewpoint": {
    "repr": "03",
    "value": 3,
    "spoken": "three"
  },
  "relative_humidity": 0.9652276930831346,
  "remarks_info": {
    "maximum_temperature_6": null,
    "minimum_temperature_6": null,
    "pressure_tendency": {
      "repr": "56008",
      "tendency": "Decreasing, then steady",
      "change": 0.8
    },
    "precip_36_hours": {
      "repr": "60005",
      "value": 0.05,
      "spoken": "zero point zero five"
    },
    "precip_24_hours": null,
    "sunshine_minutes": null,
    "codes": [
      {
        "repr": "$",
        "value": "ASOS requires maintenance"
      },
      {
        "repr": "AO2",
        "value": "Automated with precipitation sensor"
      },
      {
        "repr": "RAE35",
        "value": "Rain ended at :35"
      }
    ],
    "dewpoint_decimal": {
      "repr": "0028",
      "value": 2.8,
      "spoken": "two point eight"
    },
    "maximum_temperature_24": null,
    "minimum_temperature_24": null,
    "precip_hourly": {
      "repr": "P0001",
      "value": 0.01,
      "spoken": "zero point zero one"
    },
    "sea_level_pressure": {
      "repr": "SLP159",
      "value": 1015.9,
      "spoken": "one zero one five point nine"
    },
    "snow_depth": null,
    "temperature_decimal": {
      "repr": "0033",
      "value": 3.3,
      "spoken": "three point three"
    }
  },
  "runway_visibility": [],
  "temperature": {
    "repr": "03",
    "value": 3,
    "spoken": "three"
  },
  "wind_variable_direction": [],
  "density_altitude": -1243,
  "pressure_altitude": 120,
  "units": {
    "accumulation": "in",
    "altimeter": "inHg",
    "altitude": "ft",
    "temperature": "C",
    "visibility": "sm",
    "wind_speed": "kt"
  }
}
