{
  "altimeter": {
    "repr": "A3009",
    "spoken": "three zero point zero nine",
    "value": 30.09
  },
  "clouds": [
    {
      "altitude": 110,
      "modifier": null,
      "repr": "OVC110",
      "type": "OVC"
    }
  ],
  "density_altitude": -1555,
  "dewpoint": {
    "repr": "01",
    "spoken": "one",
    "value": 1
  },
  "flight_rules": "VFR",
  "meta": {
    "stations_updated": "2024-12-02",
    "timestamp": "2024-12-16T05:08:54.061707Z"
  },
  "other": [],
  "pressure_altitude": 0,
  "raw": "KBLI 160453Z 03007KT 10SM OVC110 02/01 A3009 RMK AO2 SLP200 T00170006 $",
  "relative_humidity": 0.9239704971399328,
  "remarks": "RMK AO2 SLP200 T00170006 $",
  "remarks_info": {
    "codes": [
      {
        "repr": "$",
        "value": "ASOS requires maintenance"
      },
      {
        "repr": "AO2",
        "value": "Automated with precipitation sensor"
      }
    ],
    "dewpoint_decimal": {
      "repr": "0006",
      "spoken": "zero point six",
      "value": 0.6
    },
    "maximum_temperature_24": null,
    "maximum_temperature_6": null,
    "minimum_temperature_24": null,
    "minimum_temperature_6": null,
    "precip_24_hours": null,
    "precip_36_hours": null,
    "precip_hourly": null,
    "pressure_tendency": null,
    "sea_level_pressure": {
      "repr": "SLP200",
      "spoken": "one zero two zero point zero",
      "value": 1020
    },
    "snow_depth": null,
    "sunshine_minutes": null,
    "temperature_decimal": {
      "repr": "0017",
      "spoken": "one point seven",
      "value": 1.7
    }
  },
  "runway_visibility": [],
  "sanitized": "KBLI 160453Z 03007KT 10SM OVC110 02/01 A3009 RMK AO2 SLP200 T00170006 $",
  "station": "KBLI",
  "temperature": {
    "repr": "02",
    "spoken": "two",
    "value": 2
  },
  "time": {
    "dt": "2024-12-16T04:53:00Z",
    "repr": "160453Z"
  },
  "units": {
    "accumulation": "in",
    "altimeter": "inHg",
    "altitude": "ft",
    "temperature": "C",
    "visibility": "sm",
    "wind_speed": "kt"
  },
  "visibility": {
    "repr": "10",
    "spoken": "one zero",
    "value": 10
  },
  "wind_direction": {
    "repr": "030",
    "spoken": "zero three zero",
    "value": 30
  },
  "wind_gust": null,
  "wind_speed": {
    "repr": "07",
    "spoken": "seven",
    "value": 7
  },
  "wind_variable_direction": [],
  "wx_codes": []
}
