{
  "meta": {
    "timestamp": "2023-04-23T21:01:15.160661Z",
    "stations_updated": "2023-03-11"
  },
  "altimeter": {
    "repr": "A2986",
    "value": 29.86,
    "spoken": "two nine point eight six"
  },
  "clouds": [
    {
      "repr": "SCT020",
      "type": "SCT",
      "altitude": 20,
      "modifier": null
    },
    {
      "repr": "BKN035",
      "type": "BKN",
      "altitude": 35,
      "modifier": null
    },
    {
      "repr": "OVC045",
      "type": "OVC",
      "altitude": 45,
      "modifier": null
    }
  ],
  "flight_rules": "VFR",
  "other": [],
  "visibility": {
    "repr": "10",
    "value": 10,
    "spoken": "one zero"
  },
  "wind_direction": {
    "repr": "190",
    "value": 190,
    "spoken": "one nine zero"
  },
  "wind_gust": null,
  "wind_speed": {
    "repr": "08",
    "value": 8,
    "spoken": "eight"
  },
  "wx_codes": [],
  "raw": "KBLI 232053Z 19008KT 160V220 10SM SCT020 BKN035 OVC045 11/08 A2986 RMK AO2 SLP119 60000 T01060078 53010",
  "sanitized": "KBLI 232053Z 19008KT 160V220 10SM SCT020 BKN035 OVC045 11/08 A2986 RMK AO2 SLP119 60000 T01060078 53010",
  "station": "KBLI",
  "time": {
    "repr": "232053Z",
    "dt": "2023-04-23T20:53:00Z"
  },
  "remarks": "RMK AO2 SLP119 60000 T01060078 53010",
  "dewpoint": {
    "repr": "08",
    "value": 8,
    "spoken": "eight"
  },
  "relative_humidity": 0.828062043990444,
  "remarks_info": {
    "maximum_temperature_6": null,
    "minimum_temperature_6": null,
    "pressure_tendency": {
      "repr": "53010",
      "tendency": "Decreasing or steady, then increasing",
      "change": 1
    },
    "precip_36_hours": {
      "repr": "60000",
      "value": 0,
      "spoken": "zero"
    },
    "precip_24_hours": null,
    "sunshine_minutes": null,
    "codes": [
      {
        "repr": "AO2",
        "value": "Automated with precipitation sensor"
      }
    ],
    "dewpoint_decimal": {
      "repr": "0078",
      "value": 7.8,
      "spoken": "seven point eight"
    },
    "maximum_temperature_24": null,
    "minimum_temperature_24": null,
    "precip_hourly": null,
    "sea_level_pressure": {
      "repr": "SLP119",
      "value": 1011.9,
      "spoken": "one zero one one point nine"
    },
    "snow_depth": null,
    "temperature_decimal": {
      "repr": "0106",
      "value": 10.6,
      "spoken": "one zero point six"
    }
  },
  "runway_visibility": [],
  "temperature": {
    "repr": "11",
    "value": 11,
    "spoken": "one one"
  },
  "wind_variable_direction": [
    {
      "repr": "160",
      "value": 160,
      "spoken": "one six zero"
    },
    {
      "repr": "220",
      "value": 220,
      "spoken": "two two zero"
    }
  ],
  "density_altitude": -257,
  "pressure_altitude": 230,
  "units": {
    "accumulation": "in",
    "altimeter": "inHg",
    "altitude": "ft",
    "temperature": "C",
    "visibility": "sm",
    "wind_speed": "kt"
  }
}
