{
  "meta": {
    "timestamp": "2022-12-27T08:41:35.112782Z",
    "stations_updated": "2022-09-05"
  },
  "altimeter": {
    "repr": "A2900",
    "value": 29,
    "spoken": "two nine point zero zero"
  },
  "clouds": [
    {
      "repr": "OVC039",
      "type": "OVC",
      "altitude": 39,
      "modifier": null
    }
  ],
  "flight_rules": "MVFR",
  "other": [],
  "visibility": {
    "repr": "4",
    "value": 4,
    "spoken": "four"
  },
  "wind_direction": {
    "repr": "050",
    "value": 50,
    "spoken": "zero five zero"
  },
  "wind_gust": {
    "repr": "18",
    "value": 18,
    "spoken": "one eight"
  },
  "wind_speed": {
    "repr": "10",
    "value": 10,
    "spoken": "one zero"
  },
  "wx_codes": [
    {
      "repr": "-RA",
      "value": "Light Rain"
    },
    {
      "repr": "BR",
      "value": "Mist"
    }
  ],
  "raw": "KBLI 270753Z AUTO 05010G18KT 4SM -RA BR OVC039 08/07 A2900 RMK AO2 SLP827 P0004 T00830072 401610061",
  "sanitized": "KBLI 270753Z 05010G18KT 4SM -RA BR OVC039 08/07 A2900 RMK AO2 SLP827 P0004 T00830072 401610061",
  "station": "KBLI",
  "time": {
    "repr": "270753Z",
    "dt": "2022-12-27T07:53:00Z"
  },
  "remarks": "RMK AO2 SLP827 P0004 T00830072 401610061",
  "dewpoint": {
    "repr": "07",
    "value": 7,
    "spoken": "seven"
  },
  "relative_humidity": 0.9277664133595805,
  "remarks_info": {
    "maximum_temperature_6": null,
    "minimum_temperature_6": null,
    "pressure_tendency": null,
    "precip_36_hours": null,
    "precip_24_hours": null,
    "sunshine_minutes": null,
    "codes": [
      {
        "repr": "AO2",
        "value": "Automated with precipitation sensor"
      }
    ],
    "dewpoint_decimal": {
      "repr": "0072",
      "value": 7.2,
      "spoken": "seven point two"
    },
    "maximum_temperature_24": {
      "repr": "0161",
      "value": 16.1,
      "spoken": "one six point one"
    },
    "minimum_temperature_24": {
      "repr": "0061",
      "value": 6.1,
      "spoken": "six point one"
    },
    "precip_hourly": {
      "repr": "P0004",
      "value": 0.04,
      "spoken": "zero point zero four"
    },
    "sea_level_pressure": {
      "repr": "SLP827",
      "value": 982.7,
      "spoken": "nine eight two point seven"
    },
    "snow_depth": null,
    "temperature_decimal": {
      "repr": "0083",
      "value": 8.3,
      "spoken": "eight point three"
    }
  },
  "runway_visibility": [],
  "temperature": {
    "repr": "08",
    "value": 8,
    "spoken": "eight"
  },
  "wind_variable_direction": [],
  "density_altitude": 327,
  "pressure_altitude": 1090,
  "units": {
    "accumulation": "in",
    "altimeter": "inHg",
    "altitude": "ft",
    "temperature": "C",
    "visibility": "sm",
    "wind_speed": "kt"
  }
}
