{
  "altimeter": {
    "repr": "A2991",
    "spoken": "two nine point nine one",
    "value": 29.91
  },
  "clouds": [
    {
      "altitude": 50,
      "modifier": null,
      "repr": "OVC050",
      "type": "OVC"
    }
  ],
  "density_altitude": -979,
  "dewpoint": {
    "repr": "01",
    "spoken": "one",
    "value": 1
  },
  "flight_rules": "VFR",
  "meta": {
    "stations_updated": "2024-10-29",
    "timestamp": "2024-11-25T06:11:42.709298Z"
  },
  "other": [],
  "pressure_altitude": 180,
  "raw": "KBLI 250553Z 02007KT 10SM OVC050 05/01 A2991 RMK AO2 RAB0459E16 SLP137 P0000 60001 T00500011 10061 20050 56002",
  "relative_humidity": 0.7587607509100204,
  "remarks": "RMK AO2 RAB0459E16 SLP137 P0000 60001 T00500011 10061 20050 56002",
  "remarks_info": {
    "codes": [
      {
        "repr": "AO2",
        "value": "Automated with precipitation sensor"
      },
      {
        "repr": "P0000",
        "value": "Trace amount of rain in the last hour"
      }
    ],
    "dewpoint_decimal": {
      "repr": "0011",
      "spoken": "one point one",
      "value": 1.1
    },
    "maximum_temperature_24": null,
    "maximum_temperature_6": {
      "repr": "10061",
      "spoken": "six point one",
      "value": 6.1
    },
    "minimum_temperature_24": null,
    "minimum_temperature_6": {
      "repr": "20050",
      "spoken": "five point zero",
      "value": 5
    },
    "precip_24_hours": null,
    "precip_36_hours": {
      "repr": "60001",
      "spoken": "zero point zero one",
      "value": 0.01
    },
    "precip_hourly": null,
    "pressure_tendency": {
      "change": 0.2,
      "repr": "56002",
      "tendency": "Decreasing, then steady"
    },
    "sea_level_pressure": {
      "repr": "SLP137",
      "spoken": "one zero one three point seven",
      "value": 1013.7
    },
    "snow_depth": null,
    "sunshine_minutes": null,
    "temperature_decimal": {
      "repr": "0050",
      "spoken": "five point zero",
      "value": 5
    }
  },
  "runway_visibility": [],
  "sanitized": "KBLI 250553Z 02007KT 10SM OVC050 05/01 A2991 RMK AO2 RAB0459E16 SLP137 P0000 60001 T00500011 10061 20050 56002",
  "station": "KBLI",
  "temperature": {
    "repr": "05",
    "spoken": "five",
    "value": 5
  },
  "time": {
    "dt": "2024-11-25T05:53:00Z",
    "repr": "250553Z"
  },
  "units": {
    "accumulation": "in",
    "altimeter": "inHg",
    "altitude": "ft",
    "temperature": "C",
    "visibility": "sm",
    "wind_speed": "kt"
  },
  "visibility": {
    "repr": "10",
    "spoken": "one zero",
    "value": 10
  },
  "wind_direction": {
    "repr": "020",
    "spoken": "zero two zero",
    "value": 20
  },
  "wind_gust": null,
  "wind_speed": {
    "repr": "07",
    "spoken": "seven",
    "value": 7
  },
  "wind_variable_direction": [],
  "wx_codes": []
}
