{
  "meta": {
    "timestamp": "2023-05-03T06:27:54.121144Z",
    "stations_updated": "2023-03-11"
  },
  "altimeter": {
    "repr": "A2979",
    "value": 29.79,
    "spoken": "two nine point seven nine"
  },
  "clouds": [],
  "flight_rules": "VFR",
  "other": [],
  "visibility": {
    "repr": "10",
    "value": 10,
    "spoken": "one zero"
  },
  "wind_direction": {
    "repr": "180",
    "value": 180,
    "spoken": "one eight zero"
  },
  "wind_gust": null,
  "wind_speed": {
    "repr": "07",
    "value": 7,
    "spoken": "seven"
  },
  "wx_codes": [],
  "raw": "KBLI 030553Z AUTO 18007KT 10SM CLR 18/13 A2979 RMK AO2 SLP094 T01780128 10183 20167 51024",
  "sanitized": "KBLI 030553Z 18007KT 10SM 18/13 A2979 RMK AO2 SLP094 T01780128 10183 20167 51024",
  "station": "KBLI",
  "time": {
    "repr": "030553Z",
    "dt": "2023-05-03T05:53:00Z"
  },
  "remarks": "RMK AO2 SLP094 T01780128 10183 20167 51024",
  "dewpoint": {
    "repr": "13",
    "value": 13,
    "spoken": "one three"
  },
  "relative_humidity": 0.7252556687108693,
  "remarks_info": {
    "maximum_temperature_6": {
      "repr": "10183",
      "value": 18.3,
      "spoken": "one eight point three"
    },
    "minimum_temperature_6": {
      "repr": "20167",
      "value": 16.7,
      "spoken": "one six point seven"
    },
    "pressure_tendency": {
      "repr": "51024",
      "tendency": "Increasing, then steady",
      "change": 2.4
    },
    "precip_36_hours": null,
    "precip_24_hours": null,
    "sunshine_minutes": null,
    "codes": [
      {
        "repr": "AO2",
        "value": "Automated with precipitation sensor"
      }
    ],
    "dewpoint_decimal": {
      "repr": "0128",
      "value": 12.8,
      "spoken": "one two point eight"
    },
    "maximum_temperature_24": null,
    "minimum_temperature_24": null,
    "precip_hourly": null,
    "sea_level_pressure": {
      "repr": "SLP094",
      "value": 1009.4,
      "spoken": "one zero zero nine point four"
    },
    "snow_depth": null,
    "temperature_decimal": {
      "repr": "0178",
      "value": 17.8,
      "spoken": "one seven point eight"
    }
  },
  "runway_visibility": [],
  "temperature": {
    "repr": "18",
    "value": 18,
    "spoken": "one eight"
  },
  "wind_variable_direction": [],
  "density_altitude": 677,
  "pressure_altitude": 300,
  "units": {
    "accumulation": "in",
    "altimeter": "inHg",
    "altitude": "ft",
    "temperature": "C",
    "visibility": "sm",
    "wind_speed": "kt"
  }
}
