{
  "meta": {
    "timestamp": "2023-01-04T08:30:51.265517Z",
    "stations_updated": "2022-12-27",
    "cache-timestamp": "2023-01-04T08:30:08.356000Z"
  },
  "altimeter": {
    "repr": "A2990",
    "value": 29.9,
    "spoken": "two nine point nine zero"
  },
  "clouds": [],
  "flight_rules": "VFR",
  "other": [],
  "visibility": {
    "repr": "10",
    "value": 10,
    "spoken": "one zero"
  },
  "wind_direction": {
    "repr": "030",
    "value": 30,
    "spoken": "zero three zero"
  },
  "wind_gust": null,
  "wind_speed": {
    "repr": "06",
    "value": 6,
    "spoken": "six"
  },
  "wx_codes": [],
  "raw": "KBLI 040753Z AUTO 03006KT 10SM CLR 02/01 A2990 RMK AO2 SLP135 T00220006 400561011",
  "sanitized": "KBLI 040753Z 03006KT 10SM 02/01 A2990 RMK AO2 SLP135 T00220006 400561011",
  "station": "KBLI",
  "time": {
    "repr": "040753Z",
    "dt": "2023-01-04T07:53:00Z"
  },
  "remarks": "RMK AO2 SLP135 T00220006 400561011",
  "dewpoint": {
    "repr": "01",
    "value": 1,
    "spoken": "one"
  },
  "relative_humidity": 0.8915584154150683,
  "remarks_info": {
    "maximum_temperature_6": null,
    "minimum_temperature_6": null,
    "pressure_tendency": null,
    "precip_36_hours": null,
    "precip_24_hours": null,
    "sunshine_minutes": null,
    "codes": [
      {
        "repr": "AO2",
        "value": "Automated with precipitation sensor"
      }
    ],
    "dewpoint_decimal": {
      "repr": "0006",
      "value": 0.6,
      "spoken": "zero point six"
    },
    "maximum_temperature_24": {
      "repr": "0056",
      "value": 5.6,
      "spoken": "five point six"
    },
    "minimum_temperature_24": {
      "repr": "1011",
      "value": -1.1,
      "spoken": "minus one point one"
    },
    "precip_hourly": null,
    "sea_level_pressure": {
      "repr": "SLP135",
      "value": 1013.5,
      "spoken": "one zero one three point five"
    },
    "snow_depth": null,
    "temperature_decimal": {
      "repr": "0022",
      "value": 2.2,
      "spoken": "two point two"
    }
  },
  "runway_visibility": [],
  "temperature": {
    "repr": "02",
    "value": 2,
    "spoken": "two"
  },
  "wind_variable_direction": [],
  "density_altitude": -1305,
  "pressure_altitude": 190,
  "units": {
    "accumulation": "in",
    "altimeter": "inHg",
    "altitude": "ft",
    "temperature": "C",
    "visibility": "sm",
    "wind_speed": "kt"
  }
}
