{
  "meta": {
    "timestamp": "2023-01-15T00:30:53.097090Z",
    "stations_updated": "2022-12-27",
    "cache-timestamp": "2023-01-15T00:30:06.672000Z"
  },
  "altimeter": {
    "repr": "A2934",
    "value": 29.34,
    "spoken": "two nine point three four"
  },
  "clouds": [],
  "flight_rules": "VFR",
  "other": [],
  "visibility": {
    "repr": "10",
    "value": 10,
    "spoken": "one zero"
  },
  "wind_direction": {
    "repr": "020",
    "value": 20,
    "spoken": "zero two zero"
  },
  "wind_gust": null,
  "wind_speed": {
    "repr": "08",
    "value": 8,
    "spoken": "eight"
  },
  "wx_codes": [],
  "raw": "KBLI 142353Z 02008KT 10SM CLR 11/07 A2934 RMK AO2 SLP941 T01060072 10122 20100 56022",
  "sanitized": "KBLI 142353Z 02008KT 10SM 11/07 A2934 RMK AO2 SLP941 T01060072 10122 20100 56022",
  "station": "KBLI",
  "time": {
    "repr": "142353Z",
    "dt": "2023-01-14T23:53:00Z"
  },
  "remarks": "RMK AO2 SLP941 T01060072 10122 20100 56022",
  "dewpoint": {
    "repr": "07",
    "value": 7,
    "spoken": "seven"
  },
  "relative_humidity": 0.794816368054851,
  "remarks_info": {
    "maximum_temperature_6": {
      "repr": "10122",
      "value": 12.2,
      "spoken": "one two point two"
    },
    "minimum_temperature_6": {
      "repr": "20100",
      "value": 10,
      "spoken": "one zero point zero"
    },
    "pressure_tendency": {
      "repr": "56022",
      "tendency": "Decreasing, then steady",
      "change": 2.2
    },
    "precip_36_hours": null,
    "precip_24_hours": null,
    "sunshine_minutes": null,
    "codes": [
      {
        "repr": "AO2",
        "value": "Automated with precipitation sensor"
      }
    ],
    "dewpoint_decimal": {
      "repr": "0072",
      "value": 7.2,
      "spoken": "seven point two"
    },
    "maximum_temperature_24": null,
    "minimum_temperature_24": null,
    "precip_hourly": null,
    "sea_level_pressure": {
      "repr": "SLP941",
      "value": 994.1,
      "spoken": "nine nine four point one"
    },
    "snow_depth": null,
    "temperature_decimal": {
      "repr": "0106",
      "value": 10.6,
      "spoken": "one zero point six"
    }
  },
  "runway_visibility": [],
  "temperature": {
    "repr": "11",
    "value": 11,
    "spoken": "one one"
  },
  "wind_variable_direction": [],
  "density_altitude": 263,
  "pressure_altitude": 750,
  "units": {
    "accumulation": "in",
    "altimeter": "inHg",
    "altitude": "ft",
    "temperature": "C",
    "visibility": "sm",
    "wind_speed": "kt"
  }
}
