{
  "altimeter": {
    "repr": "A3034",
    "spoken": "three zero point three four",
    "value": 30.34
  },
  "clouds": [
    {
      "altitude": 60,
      "modifier": null,
      "repr": "OVC060",
      "type": "OVC"
    }
  ],
  "density_altitude": -677,
  "dewpoint": {
    "repr": "07",
    "spoken": "seven",
    "value": 7
  },
  "flight_rules": "VFR",
  "meta": {
    "cache-timestamp": "2024-05-30T06:30:02.908000Z",
    "stations_updated": "2024-05-13",
    "timestamp": "2024-05-30T06:30:42.704543Z"
  },
  "other": [],
  "pressure_altitude": -250,
  "raw": "KBLI 300553Z AUTO 18004KT 10SM OVC060 11/07 A3034 RMK AO2 SLP281 T01110072 10150 20100 53012",
  "relative_humidity": 0.7688202633766026,
  "remarks": "RMK AO2 SLP281 T01110072 10150 20100 53012",
  "remarks_info": {
    "codes": [
      {
        "repr": "AO2",
        "value": "Automated with precipitation sensor"
      }
    ],
    "dewpoint_decimal": {
      "repr": "0072",
      "spoken": "seven point two",
      "value": 7.2
    },
    "maximum_temperature_24": null,
    "maximum_temperature_6": {
      "repr": "10150",
      "spoken": "one five point zero",
      "value": 15
    },
    "minimum_temperature_24": null,
    "minimum_temperature_6": {
      "repr": "20100",
      "spoken": "one zero point zero",
      "value": 10
    },
    "precip_24_hours": null,
    "precip_36_hours": null,
    "precip_hourly": null,
    "pressure_tendency": {
      "change": 1.2,
      "repr": "53012",
      "tendency": "Decreasing or steady, then increasing"
    },
    "sea_level_pressure": {
      "repr": "SLP281",
      "spoken": "one zero two eight point one",
      "value": 1028.1
    },
    "snow_depth": null,
    "sunshine_minutes": null,
    "temperature_decimal": {
      "repr": "0111",
      "spoken": "one one point one",
      "value": 11.1
    }
  },
  "runway_visibility": [],
  "sanitized": "KBLI 300553Z 18004KT 10SM OVC060 11/07 A3034 RMK AO2 SLP281 T01110072 10150 20100 53012",
  "station": "KBLI",
  "temperature": {
    "repr": "11",
    "spoken": "one one",
    "value": 11
  },
  "time": {
    "dt": "2024-05-30T05:53:00Z",
    "repr": "300553Z"
  },
  "units": {
    "accumulation": "in",
    "altimeter": "inHg",
    "altitude": "ft",
    "temperature": "C",
    "visibility": "sm",
    "wind_speed": "kt"
  },
  "visibility": {
    "repr": "10",
    "spoken": "one zero",
    "value": 10
  },
  "wind_direction": {
    "repr": "180",
    "spoken": "one eight zero",
    "value": 180
  },
  "wind_gust": null,
  "wind_speed": {
    "repr": "04",
    "spoken": "four",
    "value": 4
  },
  "wind_variable_direction": [],
  "wx_codes": []
}
