{
  "meta": {
    "timestamp": "2023-01-29T14:40:38.530100Z",
    "stations_updated": "2023-01-16",
    "cache-timestamp": "2023-01-29T14:40:05.985000Z"
  },
  "altimeter": {
    "repr": "A3047",
    "value": 30.47,
    "spoken": "three zero point four seven"
  },
  "clouds": [],
  "flight_rules": "VFR",
  "other": [],
  "visibility": {
    "repr": "10",
    "value": 10,
    "spoken": "one zero"
  },
  "wind_direction": {
    "repr": "050",
    "value": 50,
    "spoken": "zero five zero"
  },
  "wind_gust": {
    "repr": "28",
    "value": 28,
    "spoken": "two eight"
  },
  "wind_speed": {
    "repr": "14",
    "value": 14,
    "spoken": "one four"
  },
  "wx_codes": [],
  "raw": "KBLI 291353Z AUTO 05014G28KT 10SM CLR M01/M14 A3047 RMK AO2 PK WND 04033/1259 SLP329 T10111139",
  "sanitized": "KBLI 291353Z 05014G28KT 10SM M01/M14 A3047 RMK AO2 PK WND 04033/1259 SLP329 T10111139",
  "station": "KBLI",
  "time": {
    "repr": "291353Z",
    "dt": "2023-01-29T13:53:00Z"
  },
  "remarks": "RMK AO2 PK WND 04033/1259 SLP329 T10111139",
  "dewpoint": {
    "repr": "M14",
    "value": -14,
    "spoken": "minus one four"
  },
  "relative_humidity": 0.3717411918031019,
  "remarks_info": {
    "maximum_temperature_6": null,
    "minimum_temperature_6": null,
    "pressure_tendency": null,
    "precip_36_hours": null,
    "precip_24_hours": null,
    "sunshine_minutes": null,
    "codes": [
      {
        "repr": "AO2",
        "value": "Automated with precipitation sensor"
      }
    ],
    "dewpoint_decimal": {
      "repr": "1139",
      "value": -13.9,
      "spoken": "minus one three point nine"
    },
    "maximum_temperature_24": null,
    "minimum_temperature_24": null,
    "precip_hourly": null,
    "sea_level_pressure": {
      "repr": "SLP329",
      "value": 1032.9,
      "spoken": "one zero three two point nine"
    },
    "snow_depth": null,
    "temperature_decimal": {
      "repr": "1011",
      "value": -1.1,
      "spoken": "minus one point one"
    }
  },
  "runway_visibility": [],
  "temperature": {
    "repr": "M01",
    "value": -1,
    "spoken": "minus one"
  },
  "wind_variable_direction": [],
  "density_altitude": -2271,
  "pressure_altitude": -380,
  "units": {
    "accumulation": "in",
    "altimeter": "inHg",
    "altitude": "ft",
    "temperature": "C",
    "visibility": "sm",
    "wind_speed": "kt"
  }
}
