{
  "altimeter": {
    "repr": "A2965",
    "spoken": "two nine point six five",
    "value": 29.65
  },
  "clouds": [
    {
      "altitude": 20,
      "modifier": null,
      "repr": "OVC020",
      "type": "OVC"
    }
  ],
  "density_altitude": -251,
  "dewpoint": {
    "repr": "07",
    "spoken": "seven",
    "value": 7
  },
  "flight_rules": "MVFR",
  "meta": {
    "stations_updated": "2023-10-28",
    "timestamp": "2023-12-20T01:53:59.821434Z"
  },
  "other": [],
  "pressure_altitude": 440,
  "raw": "KBLI 200053Z 00000KT 8SM OVC020 09/07 A2965 RMK AO2 RAB39E48 SLP048 P0000 T00890067",
  "relative_humidity": 0.8608000212004648,
  "remarks": "RMK AO2 RAB39E48 SLP048 P0000 T00890067",
  "remarks_info": {
    "codes": [
      {
        "repr": "AO2",
        "value": "Automated with precipitation sensor"
      },
      {
        "repr": "P0000",
        "value": "Trace amount of rain in the last hour"
      }
    ],
    "dewpoint_decimal": {
      "repr": "0067",
      "spoken": "six point seven",
      "value": 6.7
    },
    "maximum_temperature_24": null,
    "maximum_temperature_6": null,
    "minimum_temperature_24": null,
    "minimum_temperature_6": null,
    "precip_24_hours": null,
    "precip_36_hours": null,
    "precip_hourly": null,
    "pressure_tendency": null,
    "sea_level_pressure": {
      "repr": "SLP048",
      "spoken": "one zero zero four point eight",
      "value": 1004.8
    },
    "snow_depth": null,
    "sunshine_minutes": null,
    "temperature_decimal": {
      "repr": "0089",
      "spoken": "eight point nine",
      "value": 8.9
    }
  },
  "runway_visibility": [],
  "sanitized": "KBLI 200053Z 00000KT 8SM OVC020 09/07 A2965 RMK AO2 RAB39E48 SLP048 P0000 T00890067",
  "station": "KBLI",
  "temperature": {
    "repr": "09",
    "spoken": "nine",
    "value": 9
  },
  "time": {
    "dt": "2023-12-20T00:53:00Z",
    "repr": "200053Z"
  },
  "units": {
    "accumulation": "in",
    "altimeter": "inHg",
    "altitude": "ft",
    "temperature": "C",
    "visibility": "sm",
    "wind_speed": "kt"
  },
  "visibility": {
    "repr": "8",
    "spoken": "eight",
    "value": 8
  },
  "wind_direction": {
    "repr": "000",
    "spoken": "zero zero zero",
    "value": 0
  },
  "wind_gust": null,
  "wind_speed": {
    "repr": "00",
    "spoken": "zero",
    "value": 0
  },
  "wind_variable_direction": [],
  "wx_codes": []
}
