{
  "meta": {
    "timestamp": "2022-10-14T20:07:33.045832Z",
    "stations_updated": "2022-09-05"
  },
  "altimeter": {
    "repr": "A3004",
    "value": 30.04,
    "spoken": "three zero point zero four"
  },
  "clouds": [],
  "flight_rules": "VFR",
  "other": [],
  "visibility": {
    "repr": "6",
    "value": 6,
    "spoken": "six"
  },
  "wind_direction": {
    "repr": "360",
    "value": 360,
    "spoken": "three six zero"
  },
  "wind_gust": null,
  "wind_speed": {
    "repr": "03",
    "value": 3,
    "spoken": "three"
  },
  "wx_codes": [
    {
      "repr": "FU",
      "value": "Smoke"
    }
  ],
  "raw": "KBLI 141953Z 36003KT 6SM FU CLR 20/09 A3004 RMK AO2 SLP179 T02000094",
  "sanitized": "KBLI 141953Z 36003KT 6SM FU 20/09 A3004 RMK AO2 SLP179 T02000094",
  "station": "KBLI",
  "time": {
    "repr": "141953Z",
    "dt": "2022-10-14T19:53:00Z"
  },
  "remarks": "RMK AO2 SLP179 T02000094",
  "dewpoint": {
    "repr": "09",
    "value": 9,
    "spoken": "nine"
  },
  "relative_humidity": 0.5043912399270472,
  "remarks_info": {
    "maximum_temperature_6": null,
    "minimum_temperature_6": null,
    "pressure_tendency": null,
    "precip_36_hours": null,
    "precip_24_hours": null,
    "sunshine_minutes": null,
    "codes": [
      {
        "repr": "AO2",
        "value": "Automated with precipitation sensor"
      }
    ],
    "dewpoint_decimal": {
      "repr": "0094",
      "value": 9.4,
      "spoken": "nine point four"
    },
    "maximum_temperature_24": null,
    "minimum_temperature_24": null,
    "precip_hourly": null,
    "sea_level_pressure": {
      "repr": "SLP179",
      "value": 1017.9,
      "spoken": "one zero one seven point nine"
    },
    "snow_depth": null,
    "temperature_decimal": {
      "repr": "0200",
      "value": 20,
      "spoken": "two zero point zero"
    }
  },
  "runway_visibility": [],
  "temperature": {
    "repr": "20",
    "value": 20,
    "spoken": "two zero"
  },
  "wind_variable_direction": [],
  "density_altitude": 691,
  "pressure_altitude": 50,
  "units": {
    "accumulation": "in",
    "altimeter": "inHg",
    "altitude": "ft",
    "temperature": "C",
    "visibility": "sm",
    "wind_speed": "kt"
  }
}
