{
  "altimeter": {
    "repr": "A3023",
    "spoken": "three zero point two three",
    "value": 30.23
  },
  "clouds": [
    {
      "altitude": 25,
      "modifier": null,
      "repr": "FEW025",
      "type": "FEW"
    },
    {
      "altitude": 70,
      "modifier": null,
      "repr": "OVC070",
      "type": "OVC"
    }
  ],
  "density_altitude": -27,
  "dewpoint": {
    "repr": "12",
    "spoken": "one two",
    "value": 12
  },
  "flight_rules": "VFR",
  "meta": {
    "cache-timestamp": "2024-07-02T18:40:52.406000Z",
    "stations_updated": "2024-06-12",
    "timestamp": "2024-07-02T18:41:31.953565Z"
  },
  "other": [],
  "pressure_altitude": -140,
  "raw": "KBLI 021753Z 18008G19KT 10SM FEW025 OVC070 16/12 A3023 RMK AO2 SLP244 T01560117 10161 20128 51009",
  "relative_humidity": 0.7758649003750742,
  "remarks": "RMK AO2 SLP244 T01560117 10161 20128 51009",
  "remarks_info": {
    "codes": [
      {
        "repr": "AO2",
        "value": "Automated with precipitation sensor"
      }
    ],
    "dewpoint_decimal": {
      "repr": "0117",
      "spoken": "one one point seven",
      "value": 11.7
    },
    "maximum_temperature_24": null,
    "maximum_temperature_6": {
      "repr": "10161",
      "spoken": "one six point one",
      "value": 16.1
    },
    "minimum_temperature_24": null,
    "minimum_temperature_6": {
      "repr": "20128",
      "spoken": "one two point eight",
      "value": 12.8
    },
    "precip_24_hours": null,
    "precip_36_hours": null,
    "precip_hourly": null,
    "pressure_tendency": {
      "change": 0.9,
      "repr": "51009",
      "tendency": "Increasing, then steady"
    },
    "sea_level_pressure": {
      "repr": "SLP244",
      "spoken": "one zero two four point four",
      "value": 1024.4
    },
    "snow_depth": null,
    "sunshine_minutes": null,
    "temperature_decimal": {
      "repr": "0156",
      "spoken": "one five point six",
      "value": 15.6
    }
  },
  "runway_visibility": [],
  "sanitized": "KBLI 021753Z 18008G19KT 10SM FEW025 OVC070 16/12 A3023 RMK AO2 SLP244 T01560117 10161 20128 51009",
  "station": "KBLI",
  "temperature": {
    "repr": "16",
    "spoken": "one six",
    "value": 16
  },
  "time": {
    "dt": "2024-07-02T17:53:00Z",
    "repr": "021753Z"
  },
  "units": {
    "accumulation": "in",
    "altimeter": "inHg",
    "altitude": "ft",
    "temperature": "C",
    "visibility": "sm",
    "wind_speed": "kt"
  },
  "visibility": {
    "repr": "10",
    "spoken": "one zero",
    "value": 10
  },
  "wind_direction": {
    "repr": "180",
    "spoken": "one eight zero",
    "value": 180
  },
  "wind_gust": {
    "repr": "19",
    "spoken": "one nine",
    "value": 19
  },
  "wind_speed": {
    "repr": "08",
    "spoken": "eight",
    "value": 8
  },
  "wind_variable_direction": [],
  "wx_codes": []
}
