{
  "meta": {
    "timestamp": "2023-03-04T12:45:08.094693Z",
    "stations_updated": "2023-01-30"
  },
  "altimeter": {
    "repr": "A2959",
    "value": 29.59,
    "spoken": "two nine point five nine"
  },
  "clouds": [
    {
      "repr": "OVC032",
      "type": "OVC",
      "altitude": 32,
      "modifier": null
    }
  ],
  "flight_rules": "VFR",
  "other": [],
  "visibility": {
    "repr": "10",
    "value": 10,
    "spoken": "one zero"
  },
  "wind_direction": {
    "repr": "040",
    "value": 40,
    "spoken": "zero four zero"
  },
  "wind_gust": null,
  "wind_speed": {
    "repr": "03",
    "value": 3,
    "spoken": "three"
  },
  "wx_codes": [],
  "raw": "KBLI 041153Z AUTO 04003KT 10SM OVC032 03/02 A2959 RMK AO2 RAB29E41UPB41E49 SLP028 P0000 60000 70003 T00280022 10050 20028 56023",
  "sanitized": "KBLI 041153Z 04003KT 10SM OVC032 03/02 A2959 RMK AO2 RAB29E41UPB41E49 SLP028 P0000 60000 70003 T00280022 10050 20028 56023",
  "station": "KBLI",
  "time": {
    "repr": "041153Z",
    "dt": "2023-03-04T11:53:00Z"
  },
  "remarks": "RMK AO2 RAB29E41UPB41E49 SLP028 P0000 60000 70003 T00280022 10050 20028 56023",
  "dewpoint": {
    "repr": "02",
    "value": 2,
    "spoken": "two"
  },
  "relative_humidity": 0.958237479247377,
  "remarks_info": {
    "maximum_temperature_6": {
      "repr": "10050",
      "value": 5,
      "spoken": "five point zero"
    },
    "minimum_temperature_6": {
      "repr": "20028",
      "value": 2.8,
      "spoken": "two point eight"
    },
    "pressure_tendency": {
      "repr": "56023",
      "tendency": "Decreasing, then steady",
      "change": 2.3
    },
    "precip_36_hours": {
      "repr": "60000",
      "value": 0,
      "spoken": "zero"
    },
    "precip_24_hours": {
      "repr": "70003",
      "value": 0.03,
      "spoken": "zero point zero three"
    },
    "sunshine_minutes": null,
    "codes": [
      {
        "repr": "AO2",
        "value": "Automated with precipitation sensor"
      },
      {
        "repr": "P0000",
        "value": "Trace amount of rain in the last hour"
      }
    ],
    "dewpoint_decimal": {
      "repr": "0022",
      "value": 2.2,
      "spoken": "two point two"
    },
    "maximum_temperature_24": null,
    "minimum_temperature_24": null,
    "precip_hourly": null,
    "sea_level_pressure": {
      "repr": "SLP028",
      "value": 1002.8,
      "spoken": "one zero zero two point eight"
    },
    "snow_depth": null,
    "temperature_decimal": {
      "repr": "0028",
      "value": 2.8,
      "spoken": "two point eight"
    }
  },
  "runway_visibility": [],
  "temperature": {
    "repr": "03",
    "value": 3,
    "spoken": "three"
  },
  "wind_variable_direction": [],
  "density_altitude": -923,
  "pressure_altitude": 500,
  "units": {
    "accumulation": "in",
    "altimeter": "inHg",
    "altitude": "ft",
    "temperature": "C",
    "visibility": "sm",
    "wind_speed": "kt"
  }
}
