{
  "meta": {
    "timestamp": "2023-09-30T06:40:33.123365Z",
    "stations_updated": "2023-08-05",
    "cache-timestamp": "2023-09-30T06:40:02.390000Z"
  },
  "altimeter": {
    "repr": "A2996",
    "value": 29.96,
    "spoken": "two nine point nine six"
  },
  "clouds": [],
  "flight_rules": "MVFR",
  "other": [],
  "visibility": {
    "repr": "3",
    "value": 3,
    "spoken": "three"
  },
  "wind_direction": {
    "repr": "000",
    "value": 0,
    "spoken": "zero zero zero"
  },
  "wind_gust": null,
  "wind_speed": {
    "repr": "00",
    "value": 0,
    "spoken": "zero"
  },
  "wx_codes": [
    {
      "repr": "BR",
      "value": "Mist"
    }
  ],
  "raw": "KBLI 300600Z AUTO 00000KT 3SM BR CLR 07/07 A2996 RMK AO2 T00670067",
  "sanitized": "KBLI 300600Z 00000KT 3SM BR 07/07 A2996 RMK AO2 T00670067",
  "station": "KBLI",
  "time": {
    "repr": "300600Z",
    "dt": "2023-09-30T06:00:00Z"
  },
  "remarks": "RMK AO2 T00670067",
  "dewpoint": {
    "repr": "07",
    "value": 7,
    "spoken": "seven"
  },
  "relative_humidity": 1,
  "remarks_info": {
    "maximum_temperature_6": null,
    "minimum_temperature_6": null,
    "pressure_tendency": null,
    "precip_36_hours": null,
    "precip_24_hours": null,
    "sunshine_minutes": null,
    "codes": [
      {
        "repr": "AO2",
        "value": "Automated with precipitation sensor"
      }
    ],
    "dewpoint_decimal": {
      "repr": "0067",
      "value": 6.7,
      "spoken": "six point seven"
    },
    "maximum_temperature_24": null,
    "minimum_temperature_24": null,
    "precip_hourly": null,
    "sea_level_pressure": null,
    "snow_depth": null,
    "temperature_decimal": {
      "repr": "0067",
      "value": 6.7,
      "spoken": "six point seven"
    }
  },
  "runway_visibility": [],
  "temperature": {
    "repr": "07",
    "value": 7,
    "spoken": "seven"
  },
  "wind_variable_direction": [],
  "density_altitude": -825,
  "pressure_altitude": 130,
  "units": {
    "accumulation": "in",
    "altimeter": "inHg",
    "altitude": "ft",
    "temperature": "C",
    "visibility": "sm",
    "wind_speed": "kt"
  }
}
