{
  "meta": {
    "timestamp": "2022-12-31T03:40:37.644942Z",
    "stations_updated": "2022-12-27",
    "cache-timestamp": "2022-12-31T03:40:06.049000Z"
  },
  "altimeter": {
    "repr": "A2951",
    "value": 29.51,
    "spoken": "two nine point five one"
  },
  "clouds": [
    {
      "repr": "FEW020",
      "type": "FEW",
      "altitude": 20,
      "modifier": null
    },
    {
      "repr": "SCT035",
      "type": "SCT",
      "altitude": 35,
      "modifier": null
    },
    {
      "repr": "BKN045",
      "type": "BKN",
      "altitude": 45,
      "modifier": null
    }
  ],
  "flight_rules": "VFR",
  "other": [],
  "visibility": {
    "repr": "10",
    "value": 10,
    "spoken": "one zero"
  },
  "wind_direction": {
    "repr": "180",
    "value": 180,
    "spoken": "one eight zero"
  },
  "wind_gust": null,
  "wind_speed": {
    "repr": "08",
    "value": 8,
    "spoken": "eight"
  },
  "wx_codes": [],
  "raw": "KBLI 310312Z 18008KT 10SM FEW020 SCT035 BKN045 09/08 A2951 RMK AO2 RAE0257 P0000 T00890078",
  "sanitized": "KBLI 310312Z 18008KT 10SM FEW020 SCT035 BKN045 09/08 A2951 RMK AO2 RAE0257 P0000 T00890078",
  "station": "KBLI",
  "time": {
    "repr": "310312Z",
    "dt": "2022-12-31T03:12:00Z"
  },
  "remarks": "RMK AO2 RAE0257 P0000 T00890078",
  "dewpoint": {
    "repr": "08",
    "value": 8,
    "spoken": "eight"
  },
  "relative_humidity": 0.9280975124584884,
  "remarks_info": {
    "maximum_temperature_6": null,
    "minimum_temperature_6": null,
    "pressure_tendency": null,
    "precip_36_hours": null,
    "precip_24_hours": null,
    "sunshine_minutes": null,
    "codes": [
      {
        "repr": "AO2",
        "value": "Automated with precipitation sensor"
      },
      {
        "repr": "P0000",
        "value": "Trace amount of rain in the last hour"
      }
    ],
    "dewpoint_decimal": {
      "repr": "0078",
      "value": 7.8,
      "spoken": "seven point eight"
    },
    "maximum_temperature_24": null,
    "minimum_temperature_24": null,
    "precip_hourly": null,
    "sea_level_pressure": null,
    "snow_depth": null,
    "temperature_decimal": {
      "repr": "0089",
      "value": 8.9,
      "spoken": "eight point nine"
    }
  },
  "runway_visibility": [],
  "temperature": {
    "repr": "09",
    "value": 9,
    "spoken": "nine"
  },
  "wind_variable_direction": [],
  "density_altitude": -111,
  "pressure_altitude": 580,
  "units": {
    "accumulation": "in",
    "altimeter": "inHg",
    "altitude": "ft",
    "temperature": "C",
    "visibility": "sm",
    "wind_speed": "kt"
  }
}
