{
  "meta": {
    "timestamp": "2022-11-05T15:44:24.997132Z",
    "stations_updated": "2022-09-05"
  },
  "altimeter": {
    "repr": "A2975",
    "value": 29.75,
    "spoken": "two nine point seven five"
  },
  "clouds": [
    {
      "repr": "BKN110",
      "type": "BKN",
      "altitude": 110,
      "modifier": null
    }
  ],
  "flight_rules": "VFR",
  "other": [],
  "visibility": {
    "repr": "10",
    "value": 10,
    "spoken": "one zero"
  },
  "wind_direction": {
    "repr": "190",
    "value": 190,
    "spoken": "one nine zero"
  },
  "wind_gust": null,
  "wind_speed": {
    "repr": "04",
    "value": 4,
    "spoken": "four"
  },
  "wx_codes": [],
  "raw": "KBLI 051453Z 19004KT 10SM BKN110 06/02 A2975 RMK AO2 SLP080 T00610022 51021",
  "sanitized": "KBLI 051453Z 19004KT 10SM BKN110 06/02 A2975 RMK AO2 SLP080 T00610022 51021",
  "station": "KBLI",
  "time": {
    "repr": "051453Z",
    "dt": "2022-11-05T14:53:00Z"
  },
  "remarks": "RMK AO2 SLP080 T00610022 51021",
  "dewpoint": {
    "repr": "02",
    "value": 2,
    "spoken": "two"
  },
  "relative_humidity": 0.76061983624849,
  "remarks_info": {
    "maximum_temperature_6": null,
    "minimum_temperature_6": null,
    "pressure_tendency": {
      "repr": "51021",
      "tendency": "Increasing, then steady",
      "change": 2.1
    },
    "precip_36_hours": null,
    "precip_24_hours": null,
    "sunshine_minutes": null,
    "codes": [
      {
        "repr": "AO2",
        "value": "Automated with precipitation sensor"
      }
    ],
    "dewpoint_decimal": {
      "repr": "0022",
      "value": 2.2,
      "spoken": "two point two"
    },
    "maximum_temperature_24": null,
    "minimum_temperature_24": null,
    "precip_hourly": null,
    "sea_level_pressure": {
      "repr": "SLP080",
      "value": 1008,
      "spoken": "one zero zero eight point zero"
    },
    "snow_depth": null,
    "temperature_decimal": {
      "repr": "0061",
      "value": 6.1,
      "spoken": "six point one"
    }
  },
  "runway_visibility": [],
  "temperature": {
    "repr": "06",
    "value": 6,
    "spoken": "six"
  },
  "wind_variable_direction": [],
  "density_altitude": -687,
  "pressure_altitude": 340,
  "units": {
    "accumulation": "in",
    "altimeter": "inHg",
    "altitude": "ft",
    "temperature": "C",
    "visibility": "sm",
    "wind_speed": "kt"
  }
}
