{
  "altimeter": {
    "repr": "A2979",
    "spoken": "two nine point seven nine",
    "value": 29.79
  },
  "clouds": [
    {
      "altitude": 4,
      "modifier": null,
      "repr": "BKN004",
      "type": "BKN"
    },
    {
      "altitude": 12,
      "modifier": null,
      "repr": "BKN012",
      "type": "BKN"
    },
    {
      "altitude": 18,
      "modifier": null,
      "repr": "OVC018",
      "type": "OVC"
    }
  ],
  "density_altitude": 137,
  "dewpoint": {
    "repr": "13",
    "spoken": "one three",
    "value": 13
  },
  "flight_rules": "LIFR",
  "meta": {
    "stations_updated": "2023-10-28",
    "timestamp": "2023-11-02T20:02:19.443100Z"
  },
  "other": [],
  "pressure_altitude": 300,
  "raw": "KBLI 021953Z 19008G18KT 10SM BKN004 BKN012 OVC018 13/13 A2979 RMK AO2 RAE14 CIG 002V008 SLP094 P0000 T01330133",
  "relative_humidity": 1,
  "remarks": "RMK AO2 RAE14 CIG 002V008 SLP094 P0000 T01330133",
  "remarks_info": {
    "codes": [
      {
        "repr": "AO2",
        "value": "Automated with precipitation sensor"
      },
      {
        "repr": "P0000",
        "value": "Trace amount of rain in the last hour"
      },
      {
        "repr": "RAE14",
        "value": "Rain ended at :14"
      }
    ],
    "dewpoint_decimal": {
      "repr": "0133",
      "spoken": "one three point three",
      "value": 13.3
    },
    "maximum_temperature_24": null,
    "maximum_temperature_6": null,
    "minimum_temperature_24": null,
    "minimum_temperature_6": null,
    "precip_24_hours": null,
    "precip_36_hours": null,
    "precip_hourly": null,
    "pressure_tendency": null,
    "sea_level_pressure": {
      "repr": "SLP094",
      "spoken": "one zero zero nine point four",
      "value": 1009.4
    },
    "snow_depth": null,
    "sunshine_minutes": null,
    "temperature_decimal": {
      "repr": "0133",
      "spoken": "one three point three",
      "value": 13.3
    }
  },
  "runway_visibility": [],
  "sanitized": "KBLI 021953Z 19008G18KT 10SM BKN004 BKN012 OVC018 13/13 A2979 RMK AO2 RAE14 CIG 002V008 SLP094 P0000 T01330133",
  "station": "KBLI",
  "temperature": {
    "repr": "13",
    "spoken": "one three",
    "value": 13
  },
  "time": {
    "dt": "2023-11-02T19:53:00Z",
    "repr": "021953Z"
  },
  "units": {
    "accumulation": "in",
    "altimeter": "inHg",
    "altitude": "ft",
    "temperature": "C",
    "visibility": "sm",
    "wind_speed": "kt"
  },
  "visibility": {
    "repr": "10",
    "spoken": "one zero",
    "value": 10
  },
  "wind_direction": {
    "repr": "190",
    "spoken": "one nine zero",
    "value": 190
  },
  "wind_gust": {
    "repr": "18",
    "spoken": "one eight",
    "value": 18
  },
  "wind_speed": {
    "repr": "08",
    "spoken": "eight",
    "value": 8
  },
  "wind_variable_direction": [],
  "wx_codes": []
}
