{
  "altimeter": {
    "repr": "A3002",
    "spoken": "three zero point zero two",
    "value": 30.02
  },
  "clouds": [
    {
      "altitude": 23,
      "modifier": null,
      "repr": "BKN023",
      "type": "BKN"
    },
    {
      "altitude": 55,
      "modifier": null,
      "repr": "BKN055",
      "type": "BKN"
    },
    {
      "altitude": 65,
      "modifier": null,
      "repr": "OVC065",
      "type": "OVC"
    }
  ],
  "density_altitude": 111,
  "dewpoint": {
    "repr": "12",
    "spoken": "one two",
    "value": 12
  },
  "flight_rules": "MVFR",
  "meta": {
    "stations_updated": "2024-06-12",
    "timestamp": "2024-10-19T17:41:03.730511Z"
  },
  "other": [],
  "pressure_altitude": 70,
  "raw": "KBLI 191654Z 17015G35KT 9SM -RA BKN023 BKN055 OVC065 15/12 A3002 RMK AO2 PK WND 16026/1654 P0000 T01500122 $",
  "relative_humidity": 0.8333808182210515,
  "remarks": "RMK AO2 PK WND 16026/1654 P0000 T01500122 $",
  "remarks_info": {
    "codes": [
      {
        "repr": "$",
        "value": "ASOS requires maintenance"
      },
      {
        "repr": "AO2",
        "value": "Automated with precipitation sensor"
      },
      {
        "repr": "P0000",
        "value": "Trace amount of rain in the last hour"
      }
    ],
    "dewpoint_decimal": {
      "repr": "0122",
      "spoken": "one two point two",
      "value": 12.2
    },
    "maximum_temperature_24": null,
    "maximum_temperature_6": null,
    "minimum_temperature_24": null,
    "minimum_temperature_6": null,
    "precip_24_hours": null,
    "precip_36_hours": null,
    "precip_hourly": null,
    "pressure_tendency": null,
    "sea_level_pressure": null,
    "snow_depth": null,
    "sunshine_minutes": null,
    "temperature_decimal": {
      "repr": "0150",
      "spoken": "one five point zero",
      "value": 15
    }
  },
  "runway_visibility": [],
  "sanitized": "KBLI 191654Z 17015G35KT 9SM -RA BKN023 BKN055 OVC065 15/12 A3002 RMK AO2 PK WND 16026/1654 P0000 T01500122 $",
  "station": "KBLI",
  "temperature": {
    "repr": "15",
    "spoken": "one five",
    "value": 15
  },
  "time": {
    "dt": "2024-10-19T16:54:00Z",
    "repr": "191654Z"
  },
  "units": {
    "accumulation": "in",
    "altimeter": "inHg",
    "altitude": "ft",
    "temperature": "C",
    "visibility": "sm",
    "wind_speed": "kt"
  },
  "visibility": {
    "repr": "9",
    "spoken": "nine",
    "value": 9
  },
  "wind_direction": {
    "repr": "170",
    "spoken": "one seven zero",
    "value": 170
  },
  "wind_gust": {
    "repr": "35",
    "spoken": "three five",
    "value": 35
  },
  "wind_speed": {
    "repr": "15",
    "spoken": "one five",
    "value": 15
  },
  "wind_variable_direction": [],
  "wx_codes": [
    {
      "repr": "-RA",
      "value": "Light Rain"
    }
  ]
}
