{
  "altimeter": {
    "repr": "A2995",
    "spoken": "two nine point nine five",
    "value": 29.95
  },
  "clouds": [
    {
      "altitude": 8,
      "modifier": null,
      "repr": "FEW008",
      "type": "FEW"
    },
    {
      "altitude": 13,
      "modifier": null,
      "repr": "OVC013",
      "type": "OVC"
    }
  ],
  "density_altitude": 181,
  "dewpoint": {
    "repr": "14",
    "spoken": "one four",
    "value": 14
  },
  "flight_rules": "MVFR",
  "meta": {
    "stations_updated": "2024-06-12",
    "timestamp": "2024-10-08T23:07:22.349672Z"
  },
  "other": [],
  "pressure_altitude": 140,
  "raw": "KBLI 082253Z VRB04KT 5SM -RA BR FEW008 OVC013 15/14 A2995 RMK AO2 RAE02B27 SLP147 P0003 T01500144",
  "relative_humidity": 0.9620166466516531,
  "remarks": "RMK AO2 RAE02B27 SLP147 P0003 T01500144",
  "remarks_info": {
    "codes": [
      {
        "repr": "AO2",
        "value": "Automated with precipitation sensor"
      }
    ],
    "dewpoint_decimal": {
      "repr": "0144",
      "spoken": "one four point four",
      "value": 14.4
    },
    "maximum_temperature_24": null,
    "maximum_temperature_6": null,
    "minimum_temperature_24": null,
    "minimum_temperature_6": null,
    "precip_24_hours": null,
    "precip_36_hours": null,
    "precip_hourly": {
      "repr": "P0003",
      "spoken": "zero point zero three",
      "value": 0.03
    },
    "pressure_tendency": null,
    "sea_level_pressure": {
      "repr": "SLP147",
      "spoken": "one zero one four point seven",
      "value": 1014.7
    },
    "snow_depth": null,
    "sunshine_minutes": null,
    "temperature_decimal": {
      "repr": "0150",
      "spoken": "one five point zero",
      "value": 15
    }
  },
  "runway_visibility": [],
  "sanitized": "KBLI 082253Z VRB04KT 5SM -RA BR FEW008 OVC013 15/14 A2995 RMK AO2 RAE02B27 SLP147 P0003 T01500144",
  "station": "KBLI",
  "temperature": {
    "repr": "15",
    "spoken": "one five",
    "value": 15
  },
  "time": {
    "dt": "2024-10-08T22:53:00Z",
    "repr": "082253Z"
  },
  "units": {
    "accumulation": "in",
    "altimeter": "inHg",
    "altitude": "ft",
    "temperature": "C",
    "visibility": "sm",
    "wind_speed": "kt"
  },
  "visibility": {
    "repr": "5",
    "spoken": "five",
    "value": 5
  },
  "wind_direction": {
    "repr": "VRB",
    "spoken": "variable",
    "value": null
  },
  "wind_gust": null,
  "wind_speed": {
    "repr": "04",
    "spoken": "four",
    "value": 4
  },
  "wind_variable_direction": [],
  "wx_codes": [
    {
      "repr": "-RA",
      "value": "Light Rain"
    },
    {
      "repr": "BR",
      "value": "Mist"
    }
  ]
}
