{
  "meta": {
    "timestamp": "2022-11-16T09:03:31.897734Z",
    "stations_updated": "2022-09-05"
  },
  "altimeter": {
    "repr": "A3061",
    "value": 30.61,
    "spoken": "three zero point six one"
  },
  "clouds": [],
  "flight_rules": "VFR",
  "other": [],
  "visibility": {
    "repr": "7",
    "value": 7,
    "spoken": "seven"
  },
  "wind_direction": {
    "repr": "000",
    "value": 0,
    "spoken": "zero zero zero"
  },
  "wind_gust": null,
  "wind_speed": {
    "repr": "00",
    "value": 0,
    "spoken": "zero"
  },
  "wx_codes": [],
  "raw": "KBLI 160853Z AUTO 00000KT 7SM CLR M01/M02 A3061 RMK AO2 SLP373 I3000 T10111017 51005",
  "sanitized": "KBLI 160853Z 00000KT 7SM M01/M02 A3061 RMK AO2 SLP373 I3000 T10111017 51005",
  "station": "KBLI",
  "time": {
    "repr": "160853Z",
    "dt": "2022-11-16T08:53:00Z"
  },
  "remarks": "RMK AO2 SLP373 I3000 T10111017 51005",
  "dewpoint": {
    "repr": "M02",
    "value": -2,
    "spoken": "minus two"
  },
  "relative_humidity": 0.9569107752623097,
  "remarks_info": {
    "maximum_temperature_6": null,
    "minimum_temperature_6": null,
    "pressure_tendency": {
      "repr": "51005",
      "tendency": "Increasing, then steady",
      "change": 0.5
    },
    "precip_36_hours": null,
    "precip_24_hours": null,
    "sunshine_minutes": null,
    "codes": [
      {
        "repr": "AO2",
        "value": "Automated with precipitation sensor"
      }
    ],
    "dewpoint_decimal": {
      "repr": "1017",
      "value": -1.7,
      "spoken": "minus one point seven"
    },
    "maximum_temperature_24": null,
    "minimum_temperature_24": null,
    "precip_hourly": null,
    "sea_level_pressure": {
      "repr": "SLP373",
      "value": 1037.3,
      "spoken": "one zero three seven point three"
    },
    "snow_depth": null,
    "temperature_decimal": {
      "repr": "1011",
      "value": -1.1,
      "spoken": "minus one point one"
    }
  },
  "runway_visibility": [],
  "temperature": {
    "repr": "M01",
    "value": -1,
    "spoken": "minus one"
  },
  "wind_variable_direction": [],
  "density_altitude": -2411,
  "pressure_altitude": -520,
  "units": {
    "accumulation": "in",
    "altimeter": "inHg",
    "altitude": "ft",
    "temperature": "C",
    "visibility": "sm",
    "wind_speed": "kt"
  }
}
