{
  "altimeter": {
    "repr": "A3073",
    "spoken": "three zero point seven three",
    "value": 30.73
  },
  "clouds": [],
  "density_altitude": -2735,
  "dewpoint": {
    "repr": "M04",
    "spoken": "minus four",
    "value": -4
  },
  "flight_rules": "VFR",
  "meta": {
    "stations_updated": "2024-12-02",
    "timestamp": "2025-01-22T10:31:05.903281Z"
  },
  "other": [],
  "pressure_altitude": -640,
  "raw": "KBLI 220953Z AUTO 01004KT 10SM CLR M03/M04 A3073 RMK AO2 SLP416 T10281044",
  "relative_humidity": 0.8872584999260705,
  "remarks": "RMK AO2 SLP416 T10281044",
  "remarks_info": {
    "codes": [
      {
        "repr": "AO2",
        "value": "Automated with precipitation sensor"
      }
    ],
    "dewpoint_decimal": {
      "repr": "1044",
      "spoken": "minus four point four",
      "value": -4.4
    },
    "maximum_temperature_24": null,
    "maximum_temperature_6": null,
    "minimum_temperature_24": null,
    "minimum_temperature_6": null,
    "precip_24_hours": null,
    "precip_36_hours": null,
    "precip_hourly": null,
    "pressure_tendency": null,
    "sea_level_pressure": {
      "repr": "SLP416",
      "spoken": "one zero four one point six",
      "value": 1041.6
    },
    "snow_depth": null,
    "sunshine_minutes": null,
    "temperature_decimal": {
      "repr": "1028",
      "spoken": "minus two point eight",
      "value": -2.8
    }
  },
  "runway_visibility": [],
  "sanitized": "KBLI 220953Z 01004KT 10SM M03/M04 A3073 RMK AO2 SLP416 T10281044",
  "station": "KBLI",
  "temperature": {
    "repr": "M03",
    "spoken": "minus three",
    "value": -3
  },
  "time": {
    "dt": "2025-01-22T09:53:00Z",
    "repr": "220953Z"
  },
  "units": {
    "accumulation": "in",
    "altimeter": "inHg",
    "altitude": "ft",
    "temperature": "C",
    "visibility": "sm",
    "wind_speed": "kt"
  },
  "visibility": {
    "repr": "10",
    "spoken": "one zero",
    "value": 10
  },
  "wind_direction": {
    "repr": "010",
    "spoken": "zero one zero",
    "value": 10
  },
  "wind_gust": null,
  "wind_speed": {
    "repr": "04",
    "spoken": "four",
    "value": 4
  },
  "wind_variable_direction": [],
  "wx_codes": []
}
