{
  "meta": {
    "timestamp": "2023-06-18T17:23:57.305039Z",
    "stations_updated": "2023-06-06"
  },
  "altimeter": {
    "repr": "A2985",
    "value": 29.85,
    "spoken": "two nine point eight five"
  },
  "clouds": [
    {
      "repr": "FEW019",
      "type": "FEW",
      "altitude": 19,
      "modifier": null
    },
    {
      "repr": "BKN050",
      "type": "BKN",
      "altitude": 50,
      "modifier": null
    },
    {
      "repr": "OVC070",
      "type": "OVC",
      "altitude": 70,
      "modifier": null
    }
  ],
  "flight_rules": "VFR",
  "other": [],
  "visibility": {
    "repr": "10",
    "value": 10,
    "spoken": "one zero"
  },
  "wind_direction": {
    "repr": "190",
    "value": 190,
    "spoken": "one nine zero"
  },
  "wind_gust": {
    "repr": "17",
    "value": 17,
    "spoken": "one seven"
  },
  "wind_speed": {
    "repr": "08",
    "value": 8,
    "spoken": "eight"
  },
  "wx_codes": [],
  "raw": "KBLI 181653Z 19008G17KT 10SM FEW019 BKN050 OVC070 12/10 A2985 RMK AO2 SLP113 P0008 T01220100 $",
  "sanitized": "KBLI 181653Z 19008G17KT 10SM FEW019 BKN050 OVC070 12/10 A2985 RMK AO2 SLP113 P0008 T01220100 $",
  "station": "KBLI",
  "time": {
    "repr": "181653Z",
    "dt": "2023-06-18T16:53:00Z"
  },
  "remarks": "RMK AO2 SLP113 P0008 T01220100 $",
  "dewpoint": {
    "repr": "10",
    "value": 10,
    "spoken": "one zero"
  },
  "relative_humidity": 0.8641296231599346,
  "remarks_info": {
    "maximum_temperature_6": null,
    "minimum_temperature_6": null,
    "pressure_tendency": null,
    "precip_36_hours": null,
    "precip_24_hours": null,
    "sunshine_minutes": null,
    "codes": [
      {
        "repr": "$",
        "value": "ASOS requires maintenance"
      },
      {
        "repr": "AO2",
        "value": "Automated with precipitation sensor"
      }
    ],
    "dewpoint_decimal": {
      "repr": "0100",
      "value": 10,
      "spoken": "one zero point zero"
    },
    "maximum_temperature_24": null,
    "minimum_temperature_24": null,
    "precip_hourly": {
      "repr": "P0008",
      "value": 0.08,
      "spoken": "zero point zero eight"
    },
    "sea_level_pressure": {
      "repr": "SLP113",
      "value": 1011.3,
      "spoken": "one zero one one point three"
    },
    "snow_depth": null,
    "temperature_decimal": {
      "repr": "0122",
      "value": 12.2,
      "spoken": "one two point two"
    }
  },
  "runway_visibility": [],
  "temperature": {
    "repr": "12",
    "value": 12,
    "spoken": "one two"
  },
  "wind_variable_direction": [],
  "density_altitude": -55,
  "pressure_altitude": 240,
  "units": {
    "accumulation": "in",
    "altimeter": "inHg",
    "altitude": "ft",
    "temperature": "C",
    "visibility": "sm",
    "wind_speed": "kt"
  }
}
