{
  "altimeter": {
    "repr": "A2977",
    "spoken": "two nine point seven seven",
    "value": 29.77
  },
  "clouds": [
    {
      "altitude": 2,
      "modifier": null,
      "repr": "VV002",
      "type": "VV"
    }
  ],
  "density_altitude": -911,
  "dewpoint": {
    "repr": "04",
    "spoken": "four",
    "value": 4
  },
  "flight_rules": "LIFR",
  "meta": {
    "cache-timestamp": "2024-03-24T16:26:04.554000Z",
    "stations_updated": "2024-01-01",
    "timestamp": "2024-03-24T16:26:51.890304Z"
  },
  "other": [],
  "pressure_altitude": 320,
  "raw": "KBLI 241553Z 00000KT 1/4SM R16/1600V2200FT FG VV002 04/04 A2977 RMK AO2 SLP087 T00440044 $",
  "relative_humidity": 1,
  "remarks": "RMK AO2 SLP087 T00440044 $",
  "remarks_info": {
    "codes": [
      {
        "repr": "$",
        "value": "ASOS requires maintenance"
      },
      {
        "repr": "AO2",
        "value": "Automated with precipitation sensor"
      }
    ],
    "dewpoint_decimal": {
      "repr": "0044",
      "spoken": "four point four",
      "value": 4.4
    },
    "maximum_temperature_24": null,
    "maximum_temperature_6": null,
    "minimum_temperature_24": null,
    "minimum_temperature_6": null,
    "precip_24_hours": null,
    "precip_36_hours": null,
    "precip_hourly": null,
    "pressure_tendency": null,
    "sea_level_pressure": {
      "repr": "SLP087",
      "spoken": "one zero zero eight point seven",
      "value": 1008.7
    },
    "snow_depth": null,
    "sunshine_minutes": null,
    "temperature_decimal": {
      "repr": "0044",
      "spoken": "four point four",
      "value": 4.4
    }
  },
  "runway_visibility": [
    {
      "repr": "R16/1600V2200FT",
      "runway": "16",
      "trend": null,
      "variable_visibility": [
        {
          "repr": "1600",
          "spoken": "one six hundred",
          "value": 1600
        },
        {
          "repr": "2200",
          "spoken": "two two hundred",
          "value": 2200
        }
      ],
      "visibility": null
    }
  ],
  "sanitized": "KBLI 241553Z 00000KT 1/4SM R16/1600V2200FT FG VV002 04/04 A2977 RMK AO2 SLP087 T00440044 $",
  "station": "KBLI",
  "temperature": {
    "repr": "04",
    "spoken": "four",
    "value": 4
  },
  "time": {
    "dt": "2024-03-24T15:53:00Z",
    "repr": "241553Z"
  },
  "units": {
    "accumulation": "in",
    "altimeter": "inHg",
    "altitude": "ft",
    "temperature": "C",
    "visibility": "sm",
    "wind_speed": "kt"
  },
  "visibility": {
    "denominator": 4,
    "normalized": "1/4",
    "numerator": 1,
    "repr": "1/4",
    "spoken": "one quarter",
    "value": 0.25
  },
  "wind_direction": {
    "repr": "000",
    "spoken": "zero zero zero",
    "value": 0
  },
  "wind_gust": null,
  "wind_speed": {
    "repr": "00",
    "spoken": "zero",
    "value": 0
  },
  "wind_variable_direction": [],
  "wx_codes": [
    {
      "repr": "FG",
      "value": "Fog"
    }
  ]
}
