{
  "altimeter": {
    "repr": "A3035",
    "spoken": "three zero point three five",
    "value": 30.35
  },
  "clouds": [],
  "density_altitude": -3615,
  "dewpoint": {
    "repr": "M25",
    "spoken": "minus two five",
    "value": -25
  },
  "flight_rules": "VFR",
  "meta": {
    "cache-timestamp": "2024-01-13T04:28:04.621000Z",
    "stations_updated": "2023-10-28",
    "timestamp": "2024-01-13T04:28:36.963614Z"
  },
  "other": [],
  "pressure_altitude": -260,
  "raw": "KBLI 130353Z 05015G21KT 10SM CLR M13/M25 A3035 RMK AO2 SLP292 T11331250",
  "relative_humidity": 0.3675705844049756,
  "remarks": "RMK AO2 SLP292 T11331250",
  "remarks_info": {
    "codes": [
      {
        "repr": "AO2",
        "value": "Automated with precipitation sensor"
      }
    ],
    "dewpoint_decimal": {
      "repr": "1250",
      "spoken": "minus two five point zero",
      "value": -25
    },
    "maximum_temperature_24": null,
    "maximum_temperature_6": null,
    "minimum_temperature_24": null,
    "minimum_temperature_6": null,
    "precip_24_hours": null,
    "precip_36_hours": null,
    "precip_hourly": null,
    "pressure_tendency": null,
    "sea_level_pressure": {
      "repr": "SLP292",
      "spoken": "one zero two nine point two",
      "value": 1029.2
    },
    "snow_depth": null,
    "sunshine_minutes": null,
    "temperature_decimal": {
      "repr": "1133",
      "spoken": "minus one three point three",
      "value": -13.3
    }
  },
  "runway_visibility": [],
  "sanitized": "KBLI 130353Z 05015G21KT 10SM M13/M25 A3035 RMK AO2 SLP292 T11331250",
  "station": "KBLI",
  "temperature": {
    "repr": "M13",
    "spoken": "minus one three",
    "value": -13
  },
  "time": {
    "dt": "2024-01-13T03:53:00Z",
    "repr": "130353Z"
  },
  "units": {
    "accumulation": "in",
    "altimeter": "inHg",
    "altitude": "ft",
    "temperature": "C",
    "visibility": "sm",
    "wind_speed": "kt"
  },
  "visibility": {
    "repr": "10",
    "spoken": "one zero",
    "value": 10
  },
  "wind_direction": {
    "repr": "050",
    "spoken": "zero five zero",
    "value": 50
  },
  "wind_gust": {
    "repr": "21",
    "spoken": "two one",
    "value": 21
  },
  "wind_speed": {
    "repr": "15",
    "spoken": "one five",
    "value": 15
  },
  "wind_variable_direction": [],
  "wx_codes": []
}
