{
  "meta": {
    "timestamp": "2023-10-13T08:28:14.196409Z",
    "stations_updated": "2023-10-01",
    "cache-timestamp": "2023-10-13T08:28:04.582000Z"
  },
  "altimeter": {
    "repr": "A2990",
    "value": 29.9,
    "spoken": "two nine point nine zero"
  },
  "clouds": [],
  "flight_rules": "MVFR",
  "other": [],
  "visibility": {
    "repr": "3",
    "value": 3,
    "spoken": "three"
  },
  "wind_direction": {
    "repr": "000",
    "value": 0,
    "spoken": "zero zero zero"
  },
  "wind_gust": null,
  "wind_speed": {
    "repr": "00",
    "value": 0,
    "spoken": "zero"
  },
  "wx_codes": [
    {
      "repr": "BR",
      "value": "Mist"
    }
  ],
  "raw": "KBLI 130753Z AUTO 00000KT 3SM BR CLR 07/07 A2990 RMK AO2 SLP133 T00670067 401940033",
  "sanitized": "KBLI 130753Z 00000KT 3SM BR 07/07 A2990 RMK AO2 SLP133 T00670067 401940033",
  "station": "KBLI",
  "time": {
    "repr": "130753Z",
    "dt": "2023-10-13T07:53:00Z"
  },
  "remarks": "RMK AO2 SLP133 T00670067 401940033",
  "dewpoint": {
    "repr": "07",
    "value": 7,
    "spoken": "seven"
  },
  "relative_humidity": 1,
  "remarks_info": {
    "maximum_temperature_6": null,
    "minimum_temperature_6": null,
    "pressure_tendency": null,
    "precip_36_hours": null,
    "precip_24_hours": null,
    "sunshine_minutes": null,
    "codes": [
      {
        "repr": "AO2",
        "value": "Automated with precipitation sensor"
      }
    ],
    "dewpoint_decimal": {
      "repr": "0067",
      "value": 6.7,
      "spoken": "six point seven"
    },
    "maximum_temperature_24": {
      "repr": "0194",
      "value": 19.4,
      "spoken": "one nine point four"
    },
    "minimum_temperature_24": {
      "repr": "0033",
      "value": 3.3,
      "spoken": "three point three"
    },
    "precip_hourly": null,
    "sea_level_pressure": {
      "repr": "SLP133",
      "value": 1013.3,
      "spoken": "one zero one three point three"
    },
    "snow_depth": null,
    "temperature_decimal": {
      "repr": "0067",
      "value": 6.7,
      "spoken": "six point seven"
    }
  },
  "runway_visibility": [],
  "temperature": {
    "repr": "07",
    "value": 7,
    "spoken": "seven"
  },
  "wind_variable_direction": [],
  "density_altitude": -765,
  "pressure_altitude": 190,
  "units": {
    "accumulation": "in",
    "altimeter": "inHg",
    "altitude": "ft",
    "temperature": "C",
    "visibility": "sm",
    "wind_speed": "kt"
  }
}
