{
  "meta": {
    "timestamp": "2022-12-21T03:03:22.724335Z",
    "stations_updated": "2022-09-05"
  },
  "altimeter": {
    "repr": "A3021",
    "value": 30.21,
    "spoken": "three zero point two one"
  },
  "clouds": [
    {
      "repr": "OVC023",
      "type": "OVC",
      "altitude": 23,
      "modifier": null
    }
  ],
  "flight_rules": "MVFR",
  "other": [],
  "visibility": {
    "repr": "10",
    "value": 10,
    "spoken": "one zero"
  },
  "wind_direction": {
    "repr": "040",
    "value": 40,
    "spoken": "zero four zero"
  },
  "wind_gust": null,
  "wind_speed": {
    "repr": "09",
    "value": 9,
    "spoken": "nine"
  },
  "wx_codes": [],
  "raw": "KBLI 210253Z 04009KT 10SM OVC023 M08/M13 A3021 RMK AO2 SLP244 T10781128 53015",
  "sanitized": "KBLI 210253Z 04009KT 10SM OVC023 M08/M13 A3021 RMK AO2 SLP244 T10781128 53015",
  "station": "KBLI",
  "time": {
    "repr": "210253Z",
    "dt": "2022-12-21T02:53:00Z"
  },
  "remarks": "RMK AO2 SLP244 T10781128 53015",
  "dewpoint": {
    "repr": "M13",
    "value": -13,
    "spoken": "minus one three"
  },
  "relative_humidity": 0.6732501571331362,
  "remarks_info": {
    "maximum_temperature_6": null,
    "minimum_temperature_6": null,
    "pressure_tendency": {
      "repr": "53015",
      "tendency": "Decreasing or steady, then increasing",
      "change": 1.5
    },
    "precip_36_hours": null,
    "precip_24_hours": null,
    "sunshine_minutes": null,
    "codes": [
      {
        "repr": "AO2",
        "value": "Automated with precipitation sensor"
      }
    ],
    "dewpoint_decimal": {
      "repr": "1128",
      "value": -12.8,
      "spoken": "minus one two point eight"
    },
    "maximum_temperature_24": null,
    "minimum_temperature_24": null,
    "precip_hourly": null,
    "sea_level_pressure": {
      "repr": "SLP244",
      "value": 1024.4,
      "spoken": "one zero two four point four"
    },
    "snow_depth": null,
    "temperature_decimal": {
      "repr": "1078",
      "value": -7.8,
      "spoken": "minus seven point eight"
    }
  },
  "runway_visibility": [],
  "temperature": {
    "repr": "M08",
    "value": -8,
    "spoken": "minus eight"
  },
  "wind_variable_direction": [],
  "density_altitude": -2815,
  "pressure_altitude": -120,
  "units": {
    "accumulation": "in",
    "altimeter": "inHg",
    "altitude": "ft",
    "temperature": "C",
    "visibility": "sm",
    "wind_speed": "kt"
  }
}
