{
  "altimeter": {
    "repr": "A3043",
    "spoken": "three zero point four three",
    "value": 30.43
  },
  "clouds": [
    {
      "altitude": 29,
      "modifier": null,
      "repr": "SCT029",
      "type": "SCT"
    },
    {
      "altitude": 34,
      "modifier": null,
      "repr": "OVC034",
      "type": "OVC"
    }
  ],
  "density_altitude": -1235,
  "dewpoint": {
    "repr": "03",
    "spoken": "three",
    "value": 3
  },
  "flight_rules": "VFR",
  "meta": {
    "stations_updated": "2024-12-02",
    "timestamp": "2025-01-11T12:11:39.165482Z"
  },
  "other": [],
  "pressure_altitude": -340,
  "raw": "KBLI 111153Z AUTO VRB03KT 10SM SCT029 OVC034 07/03 A3043 RMK AO2 SLP314 70047 T00720033 10078 20050 50013",
  "relative_humidity": 0.7624587758529988,
  "remarks": "RMK AO2 SLP314 70047 T00720033 10078 20050 50013",
  "remarks_info": {
    "codes": [
      {
        "repr": "AO2",
        "value": "Automated with precipitation sensor"
      }
    ],
    "dewpoint_decimal": {
      "repr": "0033",
      "spoken": "three point three",
      "value": 3.3
    },
    "maximum_temperature_24": null,
    "maximum_temperature_6": {
      "repr": "10078",
      "spoken": "seven point eight",
      "value": 7.8
    },
    "minimum_temperature_24": null,
    "minimum_temperature_6": {
      "repr": "20050",
      "spoken": "five point zero",
      "value": 5
    },
    "precip_24_hours": {
      "repr": "70047",
      "spoken": "zero point four seven",
      "value": 0.47
    },
    "precip_36_hours": null,
    "precip_hourly": null,
    "pressure_tendency": {
      "change": 1.3,
      "repr": "50013",
      "tendency": "Increasing, then decreasing"
    },
    "sea_level_pressure": {
      "repr": "SLP314",
      "spoken": "one zero three one point four",
      "value": 1031.4
    },
    "snow_depth": null,
    "sunshine_minutes": null,
    "temperature_decimal": {
      "repr": "0072",
      "spoken": "seven point two",
      "value": 7.2
    }
  },
  "runway_visibility": [],
  "sanitized": "KBLI 111153Z VRB03KT 10SM SCT029 OVC034 07/03 A3043 RMK AO2 SLP314 70047 T00720033 10078 20050 50013",
  "station": "KBLI",
  "temperature": {
    "repr": "07",
    "spoken": "seven",
    "value": 7
  },
  "time": {
    "dt": "2025-01-11T11:53:00Z",
    "repr": "111153Z"
  },
  "units": {
    "accumulation": "in",
    "altimeter": "inHg",
    "altitude": "ft",
    "temperature": "C",
    "visibility": "sm",
    "wind_speed": "kt"
  },
  "visibility": {
    "repr": "10",
    "spoken": "one zero",
    "value": 10
  },
  "wind_direction": {
    "repr": "VRB",
    "spoken": "variable",
    "value": null
  },
  "wind_gust": null,
  "wind_speed": {
    "repr": "03",
    "spoken": "three",
    "value": 3
  },
  "wind_variable_direction": [],
  "wx_codes": []
}
