{
  "altimeter": {
    "repr": "A3025",
    "spoken": "three zero point two five",
    "value": 30.25
  },
  "clouds": [
    {
      "altitude": 60,
      "modifier": null,
      "repr": "SCT060",
      "type": "SCT"
    }
  ],
  "density_altitude": -119,
  "dewpoint": {
    "repr": "08",
    "spoken": "eight",
    "value": 8
  },
  "flight_rules": "VFR",
  "meta": {
    "cache-timestamp": "2024-06-05T20:06:07.027000Z",
    "stations_updated": "2024-05-13",
    "timestamp": "2024-06-05T20:06:45.831497Z"
  },
  "other": [],
  "pressure_altitude": -160,
  "raw": "KBLI 051953Z 17007KT 150V220 10SM SCT060 15/08 A3025 RMK AO2 SLP252 T01500083",
  "relative_humidity": 0.6421790411543012,
  "remarks": "RMK AO2 SLP252 T01500083",
  "remarks_info": {
    "codes": [
      {
        "repr": "AO2",
        "value": "Automated with precipitation sensor"
      }
    ],
    "dewpoint_decimal": {
      "repr": "0083",
      "spoken": "eight point three",
      "value": 8.3
    },
    "maximum_temperature_24": null,
    "maximum_temperature_6": null,
    "minimum_temperature_24": null,
    "minimum_temperature_6": null,
    "precip_24_hours": null,
    "precip_36_hours": null,
    "precip_hourly": null,
    "pressure_tendency": null,
    "sea_level_pressure": {
      "repr": "SLP252",
      "spoken": "one zero two five point two",
      "value": 1025.2
    },
    "snow_depth": null,
    "sunshine_minutes": null,
    "temperature_decimal": {
      "repr": "0150",
      "spoken": "one five point zero",
      "value": 15
    }
  },
  "runway_visibility": [],
  "sanitized": "KBLI 051953Z 17007KT 150V220 10SM SCT060 15/08 A3025 RMK AO2 SLP252 T01500083",
  "station": "KBLI",
  "temperature": {
    "repr": "15",
    "spoken": "one five",
    "value": 15
  },
  "time": {
    "dt": "2024-06-05T19:53:00Z",
    "repr": "051953Z"
  },
  "units": {
    "accumulation": "in",
    "altimeter": "inHg",
    "altitude": "ft",
    "temperature": "C",
    "visibility": "sm",
    "wind_speed": "kt"
  },
  "visibility": {
    "repr": "10",
    "spoken": "one zero",
    "value": 10
  },
  "wind_direction": {
    "repr": "170",
    "spoken": "one seven zero",
    "value": 170
  },
  "wind_gust": null,
  "wind_speed": {
    "repr": "07",
    "spoken": "seven",
    "value": 7
  },
  "wind_variable_direction": [
    {
      "repr": "150",
      "spoken": "one five zero",
      "value": 150
    },
    {
      "repr": "220",
      "spoken": "two two zero",
      "value": 220
    }
  ],
  "wx_codes": []
}
