{
  "meta": {
    "timestamp": "2023-07-17T08:08:23.320662Z",
    "stations_updated": "2023-06-06"
  },
  "altimeter": {
    "repr": "A2995",
    "value": 29.95,
    "spoken": "two nine point nine five"
  },
  "clouds": [
    {
      "repr": "OVC060",
      "type": "OVC",
      "altitude": 60,
      "modifier": null
    }
  ],
  "flight_rules": "VFR",
  "other": [],
  "visibility": {
    "repr": "10",
    "value": 10,
    "spoken": "one zero"
  },
  "wind_direction": {
    "repr": "200",
    "value": 200,
    "spoken": "two zero zero"
  },
  "wind_gust": null,
  "wind_speed": {
    "repr": "08",
    "value": 8,
    "spoken": "eight"
  },
  "wx_codes": [],
  "raw": "KBLI 170753Z AUTO 20008KT 10SM OVC060 18/13 A2995 RMK AO2 SLP145 T01830133 402440144",
  "sanitized": "KBLI 170753Z 20008KT 10SM OVC060 18/13 A2995 RMK AO2 SLP145 T01830133 402440144",
  "station": "KBLI",
  "time": {
    "repr": "170753Z",
    "dt": "2023-07-17T07:53:00Z"
  },
  "remarks": "RMK AO2 SLP145 T01830133 402440144",
  "dewpoint": {
    "repr": "13",
    "value": 13,
    "spoken": "one three"
  },
  "relative_humidity": 0.7261539169497305,
  "remarks_info": {
    "maximum_temperature_6": null,
    "minimum_temperature_6": null,
    "pressure_tendency": null,
    "precip_36_hours": null,
    "precip_24_hours": null,
    "sunshine_minutes": null,
    "codes": [
      {
        "repr": "AO2",
        "value": "Automated with precipitation sensor"
      }
    ],
    "dewpoint_decimal": {
      "repr": "0133",
      "value": 13.3,
      "spoken": "one three point three"
    },
    "maximum_temperature_24": {
      "repr": "0244",
      "value": 24.4,
      "spoken": "two four point four"
    },
    "minimum_temperature_24": {
      "repr": "0144",
      "value": 14.4,
      "spoken": "one four point four"
    },
    "precip_hourly": null,
    "sea_level_pressure": {
      "repr": "SLP145",
      "value": 1014.5,
      "spoken": "one zero one four point five"
    },
    "snow_depth": null,
    "temperature_decimal": {
      "repr": "0183",
      "value": 18.3,
      "spoken": "one eight point three"
    }
  },
  "runway_visibility": [],
  "temperature": {
    "repr": "18",
    "value": 18,
    "spoken": "one eight"
  },
  "wind_variable_direction": [],
  "density_altitude": 577,
  "pressure_altitude": 140,
  "units": {
    "accumulation": "in",
    "altimeter": "inHg",
    "altitude": "ft",
    "temperature": "C",
    "visibility": "sm",
    "wind_speed": "kt"
  }
}
