{
  "altimeter": {
    "repr": "A2994",
    "spoken": "two nine point nine four",
    "value": 29.94
  },
  "clouds": [],
  "density_altitude": 1127,
  "dewpoint": {
    "repr": "11",
    "spoken": "one one",
    "value": 11
  },
  "flight_rules": "VFR",
  "meta": {
    "cache-timestamp": "2024-06-21T03:06:05.157000Z",
    "stations_updated": "2024-05-13",
    "timestamp": "2024-06-21T03:06:52.976185Z"
  },
  "other": [],
  "pressure_altitude": 150,
  "raw": "KBLI 210253Z 28003KT 10SM CLR 23/11 A2994 RMK AO2 SLP144 T02280111 56010",
  "relative_humidity": 0.47592640154545474,
  "remarks": "RMK AO2 SLP144 T02280111 56010",
  "remarks_info": {
    "codes": [
      {
        "repr": "AO2",
        "value": "Automated with precipitation sensor"
      }
    ],
    "dewpoint_decimal": {
      "repr": "0111",
      "spoken": "one one point one",
      "value": 11.1
    },
    "maximum_temperature_24": null,
    "maximum_temperature_6": null,
    "minimum_temperature_24": null,
    "minimum_temperature_6": null,
    "precip_24_hours": null,
    "precip_36_hours": null,
    "precip_hourly": null,
    "pressure_tendency": {
      "change": 1,
      "repr": "56010",
      "tendency": "Decreasing, then steady"
    },
    "sea_level_pressure": {
      "repr": "SLP144",
      "spoken": "one zero one four point four",
      "value": 1014.4
    },
    "snow_depth": null,
    "sunshine_minutes": null,
    "temperature_decimal": {
      "repr": "0228",
      "spoken": "two two point eight",
      "value": 22.8
    }
  },
  "runway_visibility": [],
  "sanitized": "KBLI 210253Z 28003KT 10SM 23/11 A2994 RMK AO2 SLP144 T02280111 56010",
  "station": "KBLI",
  "temperature": {
    "repr": "23",
    "spoken": "two three",
    "value": 23
  },
  "time": {
    "dt": "2024-06-21T02:53:00Z",
    "repr": "210253Z"
  },
  "units": {
    "accumulation": "in",
    "altimeter": "inHg",
    "altitude": "ft",
    "temperature": "C",
    "visibility": "sm",
    "wind_speed": "kt"
  },
  "visibility": {
    "repr": "10",
    "spoken": "one zero",
    "value": 10
  },
  "wind_direction": {
    "repr": "280",
    "spoken": "two eight zero",
    "value": 280
  },
  "wind_gust": null,
  "wind_speed": {
    "repr": "03",
    "spoken": "three",
    "value": 3
  },
  "wind_variable_direction": [],
  "wx_codes": []
}
