{
  "meta": {
    "timestamp": "2023-01-28T12:43:19.914476Z",
    "stations_updated": "2023-01-16"
  },
  "altimeter": {
    "repr": "A3014",
    "value": 30.14,
    "spoken": "three zero point one four"
  },
  "clouds": [
    {
      "repr": "FEW002",
      "type": "FEW",
      "altitude": 2,
      "modifier": null
    },
    {
      "repr": "SCT020",
      "type": "SCT",
      "altitude": 20,
      "modifier": null
    },
    {
      "repr": "OVC031",
      "type": "OVC",
      "altitude": 31,
      "modifier": null
    }
  ],
  "flight_rules": "IFR",
  "other": [],
  "visibility": {
    "repr": "5/2",
    "value": 2.5,
    "spoken": "two and one half",
    "numerator": 5,
    "denominator": 2,
    "normalized": "2 1/2"
  },
  "wind_direction": {
    "repr": "080",
    "value": 80,
    "spoken": "zero eight zero"
  },
  "wind_gust": null,
  "wind_speed": {
    "repr": "03",
    "value": 3,
    "spoken": "three"
  },
  "wx_codes": [
    {
      "repr": "BR",
      "value": "Mist"
    }
  ],
  "raw": "KBLI 281238Z AUTO 08003KT 2 1/2SM BR FEW002 SCT020 OVC031 04/04 A3014 RMK AO2 T00440044",
  "sanitized": "KBLI 281238Z 08003KT 2 1/2SM BR FEW002 SCT020 OVC031 04/04 A3014 RMK AO2 T00440044",
  "station": "KBLI",
  "time": {
    "repr": "281238Z",
    "dt": "2023-01-28T12:38:00Z"
  },
  "remarks": "RMK AO2 T00440044",
  "dewpoint": {
    "repr": "04",
    "value": 4,
    "spoken": "four"
  },
  "relative_humidity": 1,
  "remarks_info": {
    "maximum_temperature_6": null,
    "minimum_temperature_6": null,
    "pressure_tendency": null,
    "precip_36_hours": null,
    "precip_24_hours": null,
    "sunshine_minutes": null,
    "codes": [
      {
        "repr": "AO2",
        "value": "Automated with precipitation sensor"
      }
    ],
    "dewpoint_decimal": {
      "repr": "0044",
      "value": 4.4,
      "spoken": "four point four"
    },
    "maximum_temperature_24": null,
    "minimum_temperature_24": null,
    "precip_hourly": null,
    "sea_level_pressure": null,
    "snow_depth": null,
    "temperature_decimal": {
      "repr": "0044",
      "value": 4.4,
      "spoken": "four point four"
    }
  },
  "runway_visibility": [],
  "temperature": {
    "repr": "04",
    "value": 4,
    "spoken": "four"
  },
  "wind_variable_direction": [],
  "density_altitude": -1281,
  "pressure_altitude": -50,
  "units": {
    "accumulation": "in",
    "altimeter": "inHg",
    "altitude": "ft",
    "temperature": "C",
    "visibility": "sm",
    "wind_speed": "kt"
  }
}
