{
  "altimeter": {
    "repr": "A3006",
    "spoken": "three zero point zero six",
    "value": 30.06
  },
  "clouds": [
    {
      "altitude": 6,
      "modifier": null,
      "repr": "OVC006",
      "type": "OVC"
    }
  ],
  "density_altitude": -1597,
  "dewpoint": {
    "repr": "01",
    "spoken": "one",
    "value": 1
  },
  "flight_rules": "IFR",
  "meta": {
    "stations_updated": "2023-10-28",
    "timestamp": "2024-01-07T18:05:58.928915Z"
  },
  "other": [],
  "pressure_altitude": 30,
  "raw": "KBLI 071753Z 02003KT 8SM OVC006 01/01 A3006 RMK AO2 SLP188 I6001 T00110011 10011 21006 51010",
  "relative_humidity": 1,
  "remarks": "RMK AO2 SLP188 I6001 T00110011 10011 21006 51010",
  "remarks_info": {
    "codes": [
      {
        "repr": "AO2",
        "value": "Automated with precipitation sensor"
      }
    ],
    "dewpoint_decimal": {
      "repr": "0011",
      "spoken": "one point one",
      "value": 1.1
    },
    "maximum_temperature_24": null,
    "maximum_temperature_6": {
      "repr": "10011",
      "spoken": "one point one",
      "value": 1.1
    },
    "minimum_temperature_24": null,
    "minimum_temperature_6": {
      "repr": "21006",
      "spoken": "minus zero point six",
      "value": -0.6
    },
    "precip_24_hours": null,
    "precip_36_hours": null,
    "precip_hourly": null,
    "pressure_tendency": {
      "change": 1,
      "repr": "51010",
      "tendency": "Increasing, then steady"
    },
    "sea_level_pressure": {
      "repr": "SLP188",
      "spoken": "one zero one eight point eight",
      "value": 1018.8
    },
    "snow_depth": null,
    "sunshine_minutes": null,
    "temperature_decimal": {
      "repr": "0011",
      "spoken": "one point one",
      "value": 1.1
    }
  },
  "runway_visibility": [],
  "sanitized": "KBLI 071753Z 02003KT 8SM OVC006 01/01 A3006 RMK AO2 SLP188 I6001 T00110011 10011 21006 51010",
  "station": "KBLI",
  "temperature": {
    "repr": "01",
    "spoken": "one",
    "value": 1
  },
  "time": {
    "dt": "2024-01-07T17:53:00Z",
    "repr": "071753Z"
  },
  "units": {
    "accumulation": "in",
    "altimeter": "inHg",
    "altitude": "ft",
    "temperature": "C",
    "visibility": "sm",
    "wind_speed": "kt"
  },
  "visibility": {
    "repr": "8",
    "spoken": "eight",
    "value": 8
  },
  "wind_direction": {
    "repr": "020",
    "spoken": "zero two zero",
    "value": 20
  },
  "wind_gust": null,
  "wind_speed": {
    "repr": "03",
    "spoken": "three",
    "value": 3
  },
  "wind_variable_direction": [],
  "wx_codes": []
}
