{
  "altimeter": {
    "repr": "A3024",
    "spoken": "three zero point two four",
    "value": 30.24
  },
  "clouds": [
    {
      "altitude": 48,
      "modifier": null,
      "repr": "SCT048",
      "type": "SCT"
    },
    {
      "altitude": 60,
      "modifier": null,
      "repr": "BKN060",
      "type": "BKN"
    }
  ],
  "density_altitude": -637,
  "dewpoint": {
    "repr": "03",
    "spoken": "three",
    "value": 3
  },
  "flight_rules": "VFR",
  "meta": {
    "cache-timestamp": "2024-04-09T18:40:04.971000Z",
    "stations_updated": "2024-01-01",
    "timestamp": "2024-04-09T18:40:33.590937Z"
  },
  "other": [],
  "pressure_altitude": -150,
  "raw": "KBLI 091753Z VRB05KT 10SM SCT048 BKN060 11/03 A3024 RMK AO2 SLP247 T01060028 10111 20061 53026",
  "relative_humidity": 0.5849421853483889,
  "remarks": "RMK AO2 SLP247 T01060028 10111 20061 53026",
  "remarks_info": {
    "codes": [
      {
        "repr": "AO2",
        "value": "Automated with precipitation sensor"
      }
    ],
    "dewpoint_decimal": {
      "repr": "0028",
      "spoken": "two point eight",
      "value": 2.8
    },
    "maximum_temperature_24": null,
    "maximum_temperature_6": {
      "repr": "10111",
      "spoken": "one one point one",
      "value": 11.1
    },
    "minimum_temperature_24": null,
    "minimum_temperature_6": {
      "repr": "20061",
      "spoken": "six point one",
      "value": 6.1
    },
    "precip_24_hours": null,
    "precip_36_hours": null,
    "precip_hourly": null,
    "pressure_tendency": {
      "change": 2.6,
      "repr": "53026",
      "tendency": "Decreasing or steady, then increasing"
    },
    "sea_level_pressure": {
      "repr": "SLP247",
      "spoken": "one zero two four point seven",
      "value": 1024.7
    },
    "snow_depth": null,
    "sunshine_minutes": null,
    "temperature_decimal": {
      "repr": "0106",
      "spoken": "one zero point six",
      "value": 10.6
    }
  },
  "runway_visibility": [],
  "sanitized": "KBLI 091753Z VRB05KT 10SM SCT048 BKN060 11/03 A3024 RMK AO2 SLP247 T01060028 10111 20061 53026",
  "station": "KBLI",
  "temperature": {
    "repr": "11",
    "spoken": "one one",
    "value": 11
  },
  "time": {
    "dt": "2024-04-09T17:53:00Z",
    "repr": "091753Z"
  },
  "units": {
    "accumulation": "in",
    "altimeter": "inHg",
    "altitude": "ft",
    "temperature": "C",
    "visibility": "sm",
    "wind_speed": "kt"
  },
  "visibility": {
    "repr": "10",
    "spoken": "one zero",
    "value": 10
  },
  "wind_direction": {
    "repr": "VRB",
    "spoken": "variable",
    "value": null
  },
  "wind_gust": null,
  "wind_speed": {
    "repr": "05",
    "spoken": "five",
    "value": 5
  },
  "wind_variable_direction": [],
  "wx_codes": []
}
