{
  "altimeter": {
    "repr": "A3002",
    "spoken": "three zero point zero two",
    "value": 30.02
  },
  "clouds": [],
  "density_altitude": 183,
  "dewpoint": {
    "repr": "13",
    "spoken": "one three",
    "value": 13
  },
  "flight_rules": "VFR",
  "meta": {
    "stations_updated": "2024-06-12",
    "timestamp": "2024-07-15T08:09:01.027787Z"
  },
  "other": [],
  "pressure_altitude": 70,
  "raw": "KBLI 150753Z AUTO 18008G16KT 10SM CLR 16/13 A3002 RMK AO2 SLP172 T01560128 402560144",
  "relative_humidity": 0.8340876297806936,
  "remarks": "RMK AO2 SLP172 T01560128 402560144",
  "remarks_info": {
    "codes": [
      {
        "repr": "AO2",
        "value": "Automated with precipitation sensor"
      }
    ],
    "dewpoint_decimal": {
      "repr": "0128",
      "spoken": "one two point eight",
      "value": 12.8
    },
    "maximum_temperature_24": {
      "repr": "0256",
      "spoken": "two five point six",
      "value": 25.6
    },
    "maximum_temperature_6": null,
    "minimum_temperature_24": {
      "repr": "0144",
      "spoken": "one four point four",
      "value": 14.4
    },
    "minimum_temperature_6": null,
    "precip_24_hours": null,
    "precip_36_hours": null,
    "precip_hourly": null,
    "pressure_tendency": null,
    "sea_level_pressure": {
      "repr": "SLP172",
      "spoken": "one zero one seven point two",
      "value": 1017.2
    },
    "snow_depth": null,
    "sunshine_minutes": null,
    "temperature_decimal": {
      "repr": "0156",
      "spoken": "one five point six",
      "value": 15.6
    }
  },
  "runway_visibility": [],
  "sanitized": "KBLI 150753Z 18008G16KT 10SM 16/13 A3002 RMK AO2 SLP172 T01560128 402560144",
  "station": "KBLI",
  "temperature": {
    "repr": "16",
    "spoken": "one six",
    "value": 16
  },
  "time": {
    "dt": "2024-07-15T07:53:00Z",
    "repr": "150753Z"
  },
  "units": {
    "accumulation": "in",
    "altimeter": "inHg",
    "altitude": "ft",
    "temperature": "C",
    "visibility": "sm",
    "wind_speed": "kt"
  },
  "visibility": {
    "repr": "10",
    "spoken": "one zero",
    "value": 10
  },
  "wind_direction": {
    "repr": "180",
    "spoken": "one eight zero",
    "value": 180
  },
  "wind_gust": {
    "repr": "16",
    "spoken": "one six",
    "value": 16
  },
  "wind_speed": {
    "repr": "08",
    "spoken": "eight",
    "value": 8
  },
  "wind_variable_direction": [],
  "wx_codes": []
}
