{
  "meta": {
    "timestamp": "2022-11-10T10:06:30.356083Z",
    "stations_updated": "2022-09-05"
  },
  "altimeter": {
    "repr": "A3035",
    "value": 30.35,
    "spoken": "three zero point three five"
  },
  "clouds": [
    {
      "repr": "OVC046",
      "type": "OVC",
      "altitude": 46,
      "modifier": null
    }
  ],
  "flight_rules": "VFR",
  "other": [],
  "visibility": {
    "repr": "10",
    "value": 10,
    "spoken": "one zero"
  },
  "wind_direction": {
    "repr": "360",
    "value": 360,
    "spoken": "three six zero"
  },
  "wind_gust": null,
  "wind_speed": {
    "repr": "04",
    "value": 4,
    "spoken": "four"
  },
  "wx_codes": [],
  "raw": "KBLI 100953Z AUTO 36004KT 10SM OVC046 00/M03 A3035 RMK AO2 SLP287 T00001033",
  "sanitized": "KBLI 100953Z 36004KT 10SM OVC046 00/M03 A3035 RMK AO2 SLP287 T00001033",
  "station": "KBLI",
  "time": {
    "repr": "100953Z",
    "dt": "2022-11-10T09:53:00Z"
  },
  "remarks": "RMK AO2 SLP287 T00001033",
  "dewpoint": {
    "repr": "M03",
    "value": -3,
    "spoken": "minus three"
  },
  "relative_humidity": 0.7844596047623861,
  "remarks_info": {
    "maximum_temperature_6": null,
    "minimum_temperature_6": null,
    "pressure_tendency": null,
    "precip_36_hours": null,
    "precip_24_hours": null,
    "sunshine_minutes": null,
    "codes": [
      {
        "repr": "AO2",
        "value": "Automated with precipitation sensor"
      }
    ],
    "dewpoint_decimal": {
      "repr": "1033",
      "value": -3.3,
      "spoken": "minus three point three"
    },
    "maximum_temperature_24": null,
    "minimum_temperature_24": null,
    "precip_hourly": null,
    "sea_level_pressure": {
      "repr": "SLP287",
      "value": 1028.7,
      "spoken": "one zero two eight point seven"
    },
    "snow_depth": null,
    "temperature_decimal": {
      "repr": "0000",
      "value": 0,
      "spoken": "zero"
    }
  },
  "runway_visibility": [],
  "temperature": {
    "repr": "00",
    "value": 0,
    "spoken": "zero"
  },
  "wind_variable_direction": [],
  "density_altitude": -2019,
  "pressure_altitude": -260,
  "units": {
    "accumulation": "in",
    "altimeter": "inHg",
    "altitude": "ft",
    "temperature": "C",
    "visibility": "sm",
    "wind_speed": "kt"
  }
}
