{
  "meta": {
    "timestamp": "2023-01-12T06:06:57.405328Z",
    "stations_updated": "2022-12-27",
    "cache-timestamp": "2023-01-12T06:06:06.331000Z"
  },
  "altimeter": {
    "repr": "A2983",
    "value": 29.83,
    "spoken": "two nine point eight three"
  },
  "clouds": [
    {
      "repr": "BKN070",
      "type": "BKN",
      "altitude": 70,
      "modifier": null
    },
    {
      "repr": "OVC110",
      "type": "OVC",
      "altitude": 110,
      "modifier": null
    }
  ],
  "flight_rules": "VFR",
  "other": [],
  "visibility": {
    "repr": "10",
    "value": 10,
    "spoken": "one zero"
  },
  "wind_direction": {
    "repr": "010",
    "value": 10,
    "spoken": "zero one zero"
  },
  "wind_gust": null,
  "wind_speed": {
    "repr": "03",
    "value": 3,
    "spoken": "three"
  },
  "wx_codes": [],
  "raw": "KBLI 120553Z 01003KT 10SM BKN070 OVC110 08/02 A2983 RMK AO2 SLP108 T00830022 10089 20083 55003",
  "sanitized": "KBLI 120553Z 01003KT 10SM BKN070 OVC110 08/02 A2983 RMK AO2 SLP108 T00830022 10089 20083 55003",
  "station": "KBLI",
  "time": {
    "repr": "120553Z",
    "dt": "2023-01-12T05:53:00Z"
  },
  "remarks": "RMK AO2 SLP108 T00830022 10089 20083 55003",
  "dewpoint": {
    "repr": "02",
    "value": 2,
    "spoken": "two"
  },
  "relative_humidity": 0.6542714063389788,
  "remarks_info": {
    "maximum_temperature_6": {
      "repr": "10089",
      "value": 8.9,
      "spoken": "eight point nine"
    },
    "minimum_temperature_6": {
      "repr": "20083",
      "value": 8.3,
      "spoken": "eight point three"
    },
    "pressure_tendency": {
      "repr": "55003",
      "tendency": "Decreasing, then increasing",
      "change": 0.3
    },
    "precip_36_hours": null,
    "precip_24_hours": null,
    "sunshine_minutes": null,
    "codes": [
      {
        "repr": "AO2",
        "value": "Automated with precipitation sensor"
      }
    ],
    "dewpoint_decimal": {
      "repr": "0022",
      "value": 2.2,
      "spoken": "two point two"
    },
    "maximum_temperature_24": null,
    "minimum_temperature_24": null,
    "precip_hourly": null,
    "sea_level_pressure": {
      "repr": "SLP108",
      "value": 1010.8,
      "spoken": "one zero one zero point eight"
    },
    "snow_depth": null,
    "temperature_decimal": {
      "repr": "0083",
      "value": 8.3,
      "spoken": "eight point three"
    }
  },
  "runway_visibility": [],
  "temperature": {
    "repr": "08",
    "value": 8,
    "spoken": "eight"
  },
  "wind_variable_direction": [],
  "density_altitude": -503,
  "pressure_altitude": 260,
  "units": {
    "accumulation": "in",
    "altimeter": "inHg",
    "altitude": "ft",
    "temperature": "C",
    "visibility": "sm",
    "wind_speed": "kt"
  }
}
