{
  "meta": {
    "timestamp": "2023-01-03T03:26:50.302242Z",
    "stations_updated": "2022-12-27",
    "cache-timestamp": "2023-01-03T03:26:06.675000Z"
  },
  "altimeter": {
    "repr": "A2968",
    "value": 29.68,
    "spoken": "two nine point six eight"
  },
  "clouds": [],
  "flight_rules": "VFR",
  "other": [],
  "visibility": {
    "repr": "10",
    "value": 10,
    "spoken": "one zero"
  },
  "wind_direction": {
    "repr": "000",
    "value": 0,
    "spoken": "zero zero zero"
  },
  "wind_gust": null,
  "wind_speed": {
    "repr": "00",
    "value": 0,
    "spoken": "zero"
  },
  "wx_codes": [],
  "raw": "KBLI 030253Z 00000KT 10SM CLR M01/M01 A2968 RMK AO2 SLP062 T10061006 53005",
  "sanitized": "KBLI 030253Z 00000KT 10SM M01/M01 A2968 RMK AO2 SLP062 T10061006 53005",
  "station": "KBLI",
  "time": {
    "repr": "030253Z",
    "dt": "2023-01-03T02:53:00Z"
  },
  "remarks": "RMK AO2 SLP062 T10061006 53005",
  "dewpoint": {
    "repr": "M01",
    "value": -1,
    "spoken": "minus one"
  },
  "relative_humidity": 1,
  "remarks_info": {
    "maximum_temperature_6": null,
    "minimum_temperature_6": null,
    "pressure_tendency": {
      "repr": "53005",
      "tendency": "Decreasing or steady, then increasing",
      "change": 0.5
    },
    "precip_36_hours": null,
    "precip_24_hours": null,
    "sunshine_minutes": null,
    "codes": [
      {
        "repr": "AO2",
        "value": "Automated with precipitation sensor"
      }
    ],
    "dewpoint_decimal": {
      "repr": "1006",
      "value": -0.6,
      "spoken": "minus zero point six"
    },
    "maximum_temperature_24": null,
    "minimum_temperature_24": null,
    "precip_hourly": null,
    "sea_level_pressure": {
      "repr": "SLP062",
      "value": 1006.2,
      "spoken": "one zero zero six point two"
    },
    "snow_depth": null,
    "temperature_decimal": {
      "repr": "1006",
      "value": -0.6,
      "spoken": "minus zero point six"
    }
  },
  "runway_visibility": [],
  "temperature": {
    "repr": "M01",
    "value": -1,
    "spoken": "minus one"
  },
  "wind_variable_direction": [],
  "density_altitude": -1421,
  "pressure_altitude": 410,
  "units": {
    "accumulation": "in",
    "altimeter": "inHg",
    "altitude": "ft",
    "temperature": "C",
    "visibility": "sm",
    "wind_speed": "kt"
  }
}
