{
  "meta": {
    "timestamp": "2023-04-27T03:40:39.792860Z",
    "stations_updated": "2023-03-11",
    "cache-timestamp": "2023-04-27T03:40:06.186000Z"
  },
  "altimeter": {
    "repr": "A3016",
    "value": 30.16,
    "spoken": "three zero point one six"
  },
  "clouds": [
    {
      "repr": "OVC050",
      "type": "OVC",
      "altitude": 50,
      "modifier": null
    }
  ],
  "flight_rules": "VFR",
  "other": [],
  "visibility": {
    "repr": "10",
    "value": 10,
    "spoken": "one zero"
  },
  "wind_direction": {
    "repr": "280",
    "value": 280,
    "spoken": "two eight zero"
  },
  "wind_gust": null,
  "wind_speed": {
    "repr": "03",
    "value": 3,
    "spoken": "three"
  },
  "wx_codes": [],
  "raw": "KBLI 270253Z 28003KT 10SM OVC050 13/08 A3016 RMK AO2 SLP221 T01330083 53001",
  "sanitized": "KBLI 270253Z 28003KT 10SM OVC050 13/08 A3016 RMK AO2 SLP221 T01330083 53001",
  "station": "KBLI",
  "time": {
    "repr": "270253Z",
    "dt": "2023-04-27T02:53:00Z"
  },
  "remarks": "RMK AO2 SLP221 T01330083 53001",
  "dewpoint": {
    "repr": "08",
    "value": 8,
    "spoken": "eight"
  },
  "relative_humidity": 0.7169841735828416,
  "remarks_info": {
    "maximum_temperature_6": null,
    "minimum_temperature_6": null,
    "pressure_tendency": {
      "repr": "53001",
      "tendency": "Decreasing or steady, then increasing",
      "change": 0.1
    },
    "precip_36_hours": null,
    "precip_24_hours": null,
    "sunshine_minutes": null,
    "codes": [
      {
        "repr": "AO2",
        "value": "Automated with precipitation sensor"
      }
    ],
    "dewpoint_decimal": {
      "repr": "0083",
      "value": 8.3,
      "spoken": "eight point three"
    },
    "maximum_temperature_24": null,
    "minimum_temperature_24": null,
    "precip_hourly": null,
    "sea_level_pressure": {
      "repr": "SLP221",
      "value": 1022.1,
      "spoken": "one zero two two point one"
    },
    "snow_depth": null,
    "temperature_decimal": {
      "repr": "0133",
      "value": 13.3,
      "spoken": "one three point three"
    }
  },
  "runway_visibility": [],
  "temperature": {
    "repr": "13",
    "value": 13,
    "spoken": "one three"
  },
  "wind_variable_direction": [],
  "density_altitude": -233,
  "pressure_altitude": -70,
  "units": {
    "accumulation": "in",
    "altimeter": "inHg",
    "altitude": "ft",
    "temperature": "C",
    "visibility": "sm",
    "wind_speed": "kt"
  }
}
