{
  "altimeter": {
    "repr": "A2997",
    "spoken": "two nine point nine seven",
    "value": 29.97
  },
  "clouds": [],
  "density_altitude": 1025,
  "dewpoint": {
    "repr": "16",
    "spoken": "one six",
    "value": 16
  },
  "flight_rules": "VFR",
  "meta": {
    "cache-timestamp": "2024-07-17T17:02:17.519000Z",
    "stations_updated": "2024-06-12",
    "timestamp": "2024-07-17T17:02:41.884201Z"
  },
  "other": [],
  "pressure_altitude": 120,
  "raw": "KBLI 171653Z 16004KT 10SM CLR 22/16 A2997 RMK AO2 SLP152 T02220156",
  "relative_humidity": 0.6619953783249523,
  "remarks": "RMK AO2 SLP152 T02220156",
  "remarks_info": {
    "codes": [
      {
        "repr": "AO2",
        "value": "Automated with precipitation sensor"
      }
    ],
    "dewpoint_decimal": {
      "repr": "0156",
      "spoken": "one five point six",
      "value": 15.6
    },
    "maximum_temperature_24": null,
    "maximum_temperature_6": null,
    "minimum_temperature_24": null,
    "minimum_temperature_6": null,
    "precip_24_hours": null,
    "precip_36_hours": null,
    "precip_hourly": null,
    "pressure_tendency": null,
    "sea_level_pressure": {
      "repr": "SLP152",
      "spoken": "one zero one five point two",
      "value": 1015.2
    },
    "snow_depth": null,
    "sunshine_minutes": null,
    "temperature_decimal": {
      "repr": "0222",
      "spoken": "two two point two",
      "value": 22.2
    }
  },
  "runway_visibility": [],
  "sanitized": "KBLI 171653Z 16004KT 10SM 22/16 A2997 RMK AO2 SLP152 T02220156",
  "station": "KBLI",
  "temperature": {
    "repr": "22",
    "spoken": "two two",
    "value": 22
  },
  "time": {
    "dt": "2024-07-17T16:53:00Z",
    "repr": "171653Z"
  },
  "units": {
    "accumulation": "in",
    "altimeter": "inHg",
    "altitude": "ft",
    "temperature": "C",
    "visibility": "sm",
    "wind_speed": "kt"
  },
  "visibility": {
    "repr": "10",
    "spoken": "one zero",
    "value": 10
  },
  "wind_direction": {
    "repr": "160",
    "spoken": "one six zero",
    "value": 160
  },
  "wind_gust": null,
  "wind_speed": {
    "repr": "04",
    "spoken": "four",
    "value": 4
  },
  "wind_variable_direction": [],
  "wx_codes": []
}
