{
  "meta": {
    "timestamp": "2022-12-22T12:46:03.225208Z",
    "stations_updated": "2022-09-05"
  },
  "altimeter": {
    "repr": "A3057",
    "value": 30.57,
    "spoken": "three zero point five seven"
  },
  "clouds": [],
  "flight_rules": "VFR",
  "other": [],
  "visibility": {
    "repr": "9",
    "value": 9,
    "spoken": "nine"
  },
  "wind_direction": {
    "repr": "040",
    "value": 40,
    "spoken": "zero four zero"
  },
  "wind_gust": {
    "repr": "29",
    "value": 29,
    "spoken": "two nine"
  },
  "wind_speed": {
    "repr": "19",
    "value": 19,
    "spoken": "one nine"
  },
  "wx_codes": [],
  "raw": "KBLI 221153Z AUTO 04019G29KT 9SM CLR M11/M21 A3057 RMK AO2 PK WND 04032/1105 SLP365 T11061206 11106 21117 58017",
  "sanitized": "KBLI 221153Z 04019G29KT 9SM M11/M21 A3057 RMK AO2 PK WND 04032/1105 SLP365 T11061206 11106 21117 58017",
  "station": "KBLI",
  "time": {
    "repr": "221153Z",
    "dt": "2022-12-22T11:53:00Z"
  },
  "remarks": "RMK AO2 PK WND 04032/1105 SLP365 T11061206 11106 21117 58017",
  "dewpoint": {
    "repr": "M21",
    "value": -21,
    "spoken": "minus two one"
  },
  "relative_humidity": 0.43656768099063126,
  "remarks_info": {
    "maximum_temperature_6": {
      "repr": "11106",
      "value": -10.6,
      "spoken": "minus one zero point six"
    },
    "minimum_temperature_6": {
      "repr": "21117",
      "value": -11.7,
      "spoken": "minus one one point seven"
    },
    "pressure_tendency": {
      "repr": "58017",
      "tendency": "Steady or increasing, then decreasing",
      "change": 1.7
    },
    "precip_36_hours": null,
    "precip_24_hours": null,
    "sunshine_minutes": null,
    "codes": [
      {
        "repr": "AO2",
        "value": "Automated with precipitation sensor"
      }
    ],
    "dewpoint_decimal": {
      "repr": "1206",
      "value": -20.6,
      "spoken": "minus two zero point six"
    },
    "maximum_temperature_24": null,
    "minimum_temperature_24": null,
    "precip_hourly": null,
    "sea_level_pressure": {
      "repr": "SLP365",
      "value": 1036.5,
      "spoken": "one zero three six point five"
    },
    "snow_depth": null,
    "temperature_decimal": {
      "repr": "1106",
      "value": -10.6,
      "spoken": "minus one zero point six"
    }
  },
  "runway_visibility": [],
  "temperature": {
    "repr": "M11",
    "value": -11,
    "spoken": "minus one one"
  },
  "wind_variable_direction": [],
  "density_altitude": -3511,
  "pressure_altitude": -480,
  "units": {
    "accumulation": "in",
    "altimeter": "inHg",
    "altitude": "ft",
    "temperature": "C",
    "visibility": "sm",
    "wind_speed": "kt"
  }
}
