{
  "meta": {
    "timestamp": "2023-10-28T22:02:05.064290Z",
    "stations_updated": "2023-10-01",
    "cache-timestamp": "2023-10-28T22:01:54.281000Z"
  },
  "altimeter": {
    "repr": "A3053",
    "value": 30.53,
    "spoken": "three zero point five three"
  },
  "clouds": [],
  "flight_rules": "VFR",
  "other": [],
  "visibility": {
    "repr": "10",
    "value": 10,
    "spoken": "one zero"
  },
  "wind_direction": {
    "repr": "VRB",
    "value": null,
    "spoken": "variable"
  },
  "wind_gust": null,
  "wind_speed": {
    "repr": "03",
    "value": 3,
    "spoken": "three"
  },
  "wx_codes": [],
  "raw": "KBLI 282153Z VRB03KT 10SM CLR 09/M04 A3053 RMK AO2 SLP346 T00941044",
  "sanitized": "KBLI 282153Z VRB03KT 10SM 09/M04 A3053 RMK AO2 SLP346 T00941044",
  "station": "KBLI",
  "time": {
    "repr": "282153Z",
    "dt": "2023-10-28T21:53:00Z"
  },
  "remarks": "RMK AO2 SLP346 T00941044",
  "dewpoint": {
    "repr": "M04",
    "value": -4,
    "spoken": "minus four"
  },
  "relative_humidity": 0.37458264726115054,
  "remarks_info": {
    "maximum_temperature_6": null,
    "minimum_temperature_6": null,
    "pressure_tendency": null,
    "precip_36_hours": null,
    "precip_24_hours": null,
    "sunshine_minutes": null,
    "codes": [
      {
        "repr": "AO2",
        "value": "Automated with precipitation sensor"
      }
    ],
    "dewpoint_decimal": {
      "repr": "1044",
      "value": -4.4,
      "spoken": "minus four point four"
    },
    "maximum_temperature_24": null,
    "minimum_temperature_24": null,
    "precip_hourly": null,
    "sea_level_pressure": {
      "repr": "SLP346",
      "value": 1034.6,
      "spoken": "one zero three four point six"
    },
    "snow_depth": null,
    "temperature_decimal": {
      "repr": "0094",
      "value": 9.4,
      "spoken": "nine point four"
    }
  },
  "runway_visibility": [],
  "temperature": {
    "repr": "09",
    "value": 9,
    "spoken": "nine"
  },
  "wind_variable_direction": [],
  "density_altitude": -1071,
  "pressure_altitude": -440,
  "units": {
    "accumulation": "in",
    "altimeter": "inHg",
    "altitude": "ft",
    "temperature": "C",
    "visibility": "sm",
    "wind_speed": "kt"
  }
}
