{
  "meta": {
    "timestamp": "2023-02-22T19:40:33.045525Z",
    "stations_updated": "2023-01-30",
    "cache-timestamp": "2023-02-22T19:40:06.101000Z"
  },
  "altimeter": {
    "repr": "A2965",
    "value": 29.65,
    "spoken": "two nine point six five"
  },
  "clouds": [
    {
      "repr": "BKN041",
      "type": "BKN",
      "altitude": 41,
      "modifier": null
    },
    {
      "repr": "OVC050",
      "type": "OVC",
      "altitude": 50,
      "modifier": null
    }
  ],
  "flight_rules": "VFR",
  "other": [],
  "visibility": {
    "repr": "10",
    "value": 10,
    "spoken": "one zero"
  },
  "wind_direction": {
    "repr": "040",
    "value": 40,
    "spoken": "zero four zero"
  },
  "wind_gust": {
    "repr": "50",
    "value": 50,
    "spoken": "five zero"
  },
  "wind_speed": {
    "repr": "23",
    "value": 23,
    "spoken": "two three"
  },
  "wx_codes": [],
  "raw": "KBLI 221853Z 04023G50KT 10SM BKN041 OVC050 M02/M13 A2965 RMK AO2 PK WND 03050/1849 SLP052 T10221128",
  "sanitized": "KBLI 221853Z 04023G50KT 10SM BKN041 OVC050 M02/M13 A2965 RMK AO2 PK WND 03050/1849 SLP052 T10221128",
  "station": "KBLI",
  "time": {
    "repr": "221853Z",
    "dt": "2023-02-22T18:53:00Z"
  },
  "remarks": "RMK AO2 PK WND 03050/1849 SLP052 T10221128",
  "dewpoint": {
    "repr": "M13",
    "value": -13,
    "spoken": "minus one three"
  },
  "relative_humidity": 0.44074546156498107,
  "remarks_info": {
    "maximum_temperature_6": null,
    "minimum_temperature_6": null,
    "pressure_tendency": null,
    "precip_36_hours": null,
    "precip_24_hours": null,
    "sunshine_minutes": null,
    "codes": [
      {
        "repr": "AO2",
        "value": "Automated with precipitation sensor"
      }
    ],
    "dewpoint_decimal": {
      "repr": "1128",
      "value": -12.8,
      "spoken": "minus one two point eight"
    },
    "maximum_temperature_24": null,
    "minimum_temperature_24": null,
    "precip_hourly": null,
    "sea_level_pressure": {
      "repr": "SLP052",
      "value": 1005.2,
      "spoken": "one zero zero five point two"
    },
    "snow_depth": null,
    "temperature_decimal": {
      "repr": "1022",
      "value": -2.2,
      "spoken": "minus two point two"
    }
  },
  "runway_visibility": [],
  "temperature": {
    "repr": "M02",
    "value": -2,
    "spoken": "minus two"
  },
  "wind_variable_direction": [],
  "density_altitude": -1583,
  "pressure_altitude": 440,
  "units": {
    "accumulation": "in",
    "altimeter": "inHg",
    "altitude": "ft",
    "temperature": "C",
    "visibility": "sm",
    "wind_speed": "kt"
  }
}
