{
  "meta": {
    "timestamp": "2022-12-20T04:30:46.666420Z",
    "stations_updated": "2022-09-05"
  },
  "altimeter": {
    "repr": "A3029",
    "value": 30.29,
    "spoken": "three zero point two nine"
  },
  "clouds": [
    {
      "repr": "OVC025",
      "type": "OVC",
      "altitude": 25,
      "modifier": null
    }
  ],
  "flight_rules": "IFR",
  "other": [],
  "visibility": {
    "repr": "2",
    "value": 2,
    "spoken": "two"
  },
  "wind_direction": {
    "repr": "030",
    "value": 30,
    "spoken": "zero three zero"
  },
  "wind_gust": {
    "repr": "19",
    "value": 19,
    "spoken": "one nine"
  },
  "wind_speed": {
    "repr": "13",
    "value": 13,
    "spoken": "one three"
  },
  "wx_codes": [
    {
      "repr": "-SN",
      "value": "Light Snow"
    },
    {
      "repr": "BR",
      "value": "Mist"
    }
  ],
  "raw": "KBLI 200353Z 03013G19KT 2SM -SN BR OVC025 M09/M11 A3029 RMK AO2 SLP269 P0000 T10891106",
  "sanitized": "KBLI 200353Z 03013G19KT 2SM -SN BR OVC025 M09/M11 A3029 RMK AO2 SLP269 P0000 T10891106",
  "station": "KBLI",
  "time": {
    "repr": "200353Z",
    "dt": "2022-12-20T03:53:00Z"
  },
  "remarks": "RMK AO2 SLP269 P0000 T10891106",
  "dewpoint": {
    "repr": "M11",
    "value": -11,
    "spoken": "minus one one"
  },
  "relative_humidity": 0.874702777359988,
  "remarks_info": {
    "maximum_temperature_6": null,
    "minimum_temperature_6": null,
    "pressure_tendency": null,
    "precip_36_hours": null,
    "precip_24_hours": null,
    "sunshine_minutes": null,
    "codes": [
      {
        "repr": "AO2",
        "value": "Automated with precipitation sensor"
      },
      {
        "repr": "P0000",
        "value": "Trace amount of rain in the last hour"
      }
    ],
    "dewpoint_decimal": {
      "repr": "1106",
      "value": -10.6,
      "spoken": "minus one zero point six"
    },
    "maximum_temperature_24": null,
    "minimum_temperature_24": null,
    "precip_hourly": null,
    "sea_level_pressure": {
      "repr": "SLP269",
      "value": 1026.9,
      "spoken": "one zero two six point nine"
    },
    "snow_depth": null,
    "temperature_decimal": {
      "repr": "1089",
      "value": -8.9,
      "spoken": "minus eight point nine"
    }
  },
  "runway_visibility": [],
  "temperature": {
    "repr": "M09",
    "value": -9,
    "spoken": "minus nine"
  },
  "wind_variable_direction": [],
  "density_altitude": -3027,
  "pressure_altitude": -200,
  "units": {
    "accumulation": "in",
    "altimeter": "inHg",
    "altitude": "ft",
    "temperature": "C",
    "visibility": "sm",
    "wind_speed": "kt"
  }
}
