{
  "meta": {
    "timestamp": "2022-10-22T08:45:45.036315Z",
    "stations_updated": "2022-09-05"
  },
  "altimeter": {
    "repr": "A2966",
    "value": 29.66,
    "spoken": "two nine point six six"
  },
  "clouds": [
    {
      "repr": "FEW002",
      "type": "FEW",
      "altitude": 2,
      "modifier": null
    },
    {
      "repr": "BKN055",
      "type": "BKN",
      "altitude": 55,
      "modifier": null
    }
  ],
  "flight_rules": "LIFR",
  "other": [],
  "visibility": {
    "repr": "3/4",
    "value": 0.75,
    "spoken": "three quarters",
    "numerator": 3,
    "denominator": 4,
    "normalized": "3/4"
  },
  "wind_direction": {
    "repr": "000",
    "value": 0,
    "spoken": "zero zero zero"
  },
  "wind_gust": null,
  "wind_speed": {
    "repr": "00",
    "value": 0,
    "spoken": "zero"
  },
  "wx_codes": [
    {
      "repr": "BR",
      "value": "Mist"
    }
  ],
  "raw": "KBLI 220839Z AUTO 00000KT 3/4SM R16/P6000FT BR FEW002 BKN055 07/07 A2966 RMK AO2 T00670067",
  "sanitized": "KBLI 220839Z 00000KT 3/4SM R16/P6000FT BR FEW002 BKN055 07/07 A2966 RMK AO2 T00670067",
  "station": "KBLI",
  "time": {
    "repr": "220839Z",
    "dt": "2022-10-22T08:39:00Z"
  },
  "remarks": "RMK AO2 T00670067",
  "dewpoint": {
    "repr": "07",
    "value": 7,
    "spoken": "seven"
  },
  "relative_humidity": 1,
  "remarks_info": {
    "maximum_temperature_6": null,
    "minimum_temperature_6": null,
    "pressure_tendency": null,
    "precip_36_hours": null,
    "precip_24_hours": null,
    "sunshine_minutes": null,
    "codes": [
      {
        "repr": "AO2",
        "value": "Automated with precipitation sensor"
      }
    ],
    "dewpoint_decimal": {
      "repr": "0067",
      "value": 6.7,
      "spoken": "six point seven"
    },
    "maximum_temperature_24": null,
    "minimum_temperature_24": null,
    "precip_hourly": null,
    "sea_level_pressure": null,
    "snow_depth": null,
    "temperature_decimal": {
      "repr": "0067",
      "value": 6.7,
      "spoken": "six point seven"
    }
  },
  "runway_visibility": [
    {
      "repr": "R16/P6000FT",
      "runway": "16",
      "visibility": {
        "repr": "P6000",
        "value": null,
        "spoken": "greater than six thousand"
      },
      "variable_visibility": [],
      "trend": null
    }
  ],
  "temperature": {
    "repr": "07",
    "value": 7,
    "spoken": "seven"
  },
  "wind_variable_direction": [],
  "density_altitude": -525,
  "pressure_altitude": 430,
  "units": {
    "accumulation": "in",
    "altimeter": "inHg",
    "altitude": "ft",
    "temperature": "C",
    "visibility": "sm",
    "wind_speed": "kt"
  }
}
