{
  "meta": {
    "timestamp": "2023-08-27T08:24:32.040435Z",
    "stations_updated": "2023-08-05",
    "cache-timestamp": "2023-08-27T08:24:04.931000Z"
  },
  "altimeter": {
    "repr": "A2999",
    "value": 29.99,
    "spoken": "two nine point nine nine"
  },
  "clouds": [],
  "flight_rules": "VFR",
  "other": [],
  "visibility": {
    "repr": "7",
    "value": 7,
    "spoken": "seven"
  },
  "wind_direction": {
    "repr": "000",
    "value": 0,
    "spoken": "zero zero zero"
  },
  "wind_gust": null,
  "wind_speed": {
    "repr": "00",
    "value": 0,
    "spoken": "zero"
  },
  "wx_codes": [],
  "raw": "KBLI 270753Z AUTO 00000KT 7SM CLR 16/14 A2999 RMK AO2 SLP162 T01560144 402890106",
  "sanitized": "KBLI 270753Z 00000KT 7SM 16/14 A2999 RMK AO2 SLP162 T01560144 402890106",
  "station": "KBLI",
  "time": {
    "repr": "270753Z",
    "dt": "2023-08-27T07:53:00Z"
  },
  "remarks": "RMK AO2 SLP162 T01560144 402890106",
  "dewpoint": {
    "repr": "14",
    "value": 14,
    "spoken": "one four"
  },
  "relative_humidity": 0.9256420226021359,
  "remarks_info": {
    "maximum_temperature_6": null,
    "minimum_temperature_6": null,
    "pressure_tendency": null,
    "precip_36_hours": null,
    "precip_24_hours": null,
    "sunshine_minutes": null,
    "codes": [
      {
        "repr": "AO2",
        "value": "Automated with precipitation sensor"
      }
    ],
    "dewpoint_decimal": {
      "repr": "0144",
      "value": 14.4,
      "spoken": "one four point four"
    },
    "maximum_temperature_24": {
      "repr": "0289",
      "value": 28.9,
      "spoken": "two eight point nine"
    },
    "minimum_temperature_24": {
      "repr": "0106",
      "value": 10.6,
      "spoken": "one zero point six"
    },
    "precip_hourly": null,
    "sea_level_pressure": {
      "repr": "SLP162",
      "value": 1016.2,
      "spoken": "one zero one six point two"
    },
    "snow_depth": null,
    "temperature_decimal": {
      "repr": "0156",
      "value": 15.6,
      "spoken": "one five point six"
    }
  },
  "runway_visibility": [],
  "temperature": {
    "repr": "16",
    "value": 16,
    "spoken": "one six"
  },
  "wind_variable_direction": [],
  "density_altitude": 213,
  "pressure_altitude": 100,
  "units": {
    "accumulation": "in",
    "altimeter": "inHg",
    "altitude": "ft",
    "temperature": "C",
    "visibility": "sm",
    "wind_speed": "kt"
  }
}
