{
  "altimeter": {
    "repr": "A2988",
    "spoken": "two nine point eight eight",
    "value": 29.88
  },
  "clouds": [],
  "density_altitude": 1919,
  "dewpoint": {
    "repr": "12",
    "spoken": "one two",
    "value": 12
  },
  "flight_rules": "VFR",
  "meta": {
    "stations_updated": "2024-06-12",
    "timestamp": "2024-07-09T01:46:09.523668Z"
  },
  "other": [],
  "pressure_altitude": 210,
  "raw": "KBLI 090053Z VRB03KT 10SM CLR 29/12 A2988 RMK AO2 SLP122 T02890122",
  "relative_humidity": 0.3564338173314157,
  "remarks": "RMK AO2 SLP122 T02890122",
  "remarks_info": {
    "codes": [
      {
        "repr": "AO2",
        "value": "Automated with precipitation sensor"
      }
    ],
    "dewpoint_decimal": {
      "repr": "0122",
      "spoken": "one two point two",
      "value": 12.2
    },
    "maximum_temperature_24": null,
    "maximum_temperature_6": null,
    "minimum_temperature_24": null,
    "minimum_temperature_6": null,
    "precip_24_hours": null,
    "precip_36_hours": null,
    "precip_hourly": null,
    "pressure_tendency": null,
    "sea_level_pressure": {
      "repr": "SLP122",
      "spoken": "one zero one two point two",
      "value": 1012.2
    },
    "snow_depth": null,
    "sunshine_minutes": null,
    "temperature_decimal": {
      "repr": "0289",
      "spoken": "two eight point nine",
      "value": 28.9
    }
  },
  "runway_visibility": [],
  "sanitized": "KBLI 090053Z VRB03KT 10SM 29/12 A2988 RMK AO2 SLP122 T02890122",
  "station": "KBLI",
  "temperature": {
    "repr": "29",
    "spoken": "two nine",
    "value": 29
  },
  "time": {
    "dt": "2024-07-09T00:53:00Z",
    "repr": "090053Z"
  },
  "units": {
    "accumulation": "in",
    "altimeter": "inHg",
    "altitude": "ft",
    "temperature": "C",
    "visibility": "sm",
    "wind_speed": "kt"
  },
  "visibility": {
    "repr": "10",
    "spoken": "one zero",
    "value": 10
  },
  "wind_direction": {
    "repr": "VRB",
    "spoken": "variable",
    "value": null
  },
  "wind_gust": null,
  "wind_speed": {
    "repr": "03",
    "spoken": "three",
    "value": 3
  },
  "wind_variable_direction": [],
  "wx_codes": []
}
