{
  "altimeter": {
    "repr": "A2970",
    "spoken": "two nine point seven zero",
    "value": 29.7
  },
  "clouds": [
    {
      "altitude": 85,
      "modifier": null,
      "repr": "BKN085",
      "type": "BKN"
    },
    {
      "altitude": 100,
      "modifier": null,
      "repr": "OVC100",
      "type": "OVC"
    }
  ],
  "density_altitude": 167,
  "dewpoint": {
    "repr": "12",
    "spoken": "one two",
    "value": 12
  },
  "flight_rules": "VFR",
  "meta": {
    "stations_updated": "2024-06-12",
    "timestamp": "2024-10-27T08:09:44.814709Z"
  },
  "other": [],
  "pressure_altitude": 390,
  "raw": "KBLI 270753Z AUTO 19005KT 10SM BKN085 OVC100 13/12 A2970 RMK AO2 RAE0656B40E52 SLP062 P0000 T01280122 401610100",
  "relative_humidity": 0.9613738290736719,
  "remarks": "RMK AO2 RAE0656B40E52 SLP062 P0000 T01280122 401610100",
  "remarks_info": {
    "codes": [
      {
        "repr": "AO2",
        "value": "Automated with precipitation sensor"
      },
      {
        "repr": "P0000",
        "value": "Trace amount of rain in the last hour"
      }
    ],
    "dewpoint_decimal": {
      "repr": "0122",
      "spoken": "one two point two",
      "value": 12.2
    },
    "maximum_temperature_24": {
      "repr": "0161",
      "spoken": "one six point one",
      "value": 16.1
    },
    "maximum_temperature_6": null,
    "minimum_temperature_24": {
      "repr": "0100",
      "spoken": "one zero point zero",
      "value": 10
    },
    "minimum_temperature_6": null,
    "precip_24_hours": null,
    "precip_36_hours": null,
    "precip_hourly": null,
    "pressure_tendency": null,
    "sea_level_pressure": {
      "repr": "SLP062",
      "spoken": "one zero zero six point two",
      "value": 1006.2
    },
    "snow_depth": null,
    "sunshine_minutes": null,
    "temperature_decimal": {
      "repr": "0128",
      "spoken": "one two point eight",
      "value": 12.8
    }
  },
  "runway_visibility": [],
  "sanitized": "KBLI 270753Z 19005KT 10SM BKN085 OVC100 13/12 A2970 RMK AO2 RAE0656B40E52 SLP062 P0000 T01280122 401610100",
  "station": "KBLI",
  "temperature": {
    "repr": "13",
    "spoken": "one three",
    "value": 13
  },
  "time": {
    "dt": "2024-10-27T07:53:00Z",
    "repr": "270753Z"
  },
  "units": {
    "accumulation": "in",
    "altimeter": "inHg",
    "altitude": "ft",
    "temperature": "C",
    "visibility": "sm",
    "wind_speed": "kt"
  },
  "visibility": {
    "repr": "10",
    "spoken": "one zero",
    "value": 10
  },
  "wind_direction": {
    "repr": "190",
    "spoken": "one nine zero",
    "value": 190
  },
  "wind_gust": null,
  "wind_speed": {
    "repr": "05",
    "spoken": "five",
    "value": 5
  },
  "wind_variable_direction": [],
  "wx_codes": []
}
