{
  "altimeter": {
    "repr": "A2985",
    "spoken": "two nine point eight five",
    "value": 29.85
  },
  "clouds": [
    {
      "altitude": 12,
      "modifier": null,
      "repr": "BKN012",
      "type": "BKN"
    },
    {
      "altitude": 40,
      "modifier": null,
      "repr": "OVC040",
      "type": "OVC"
    }
  ],
  "density_altitude": -451,
  "dewpoint": {
    "repr": "08",
    "spoken": "eight",
    "value": 8
  },
  "flight_rules": "MVFR",
  "meta": {
    "cache-timestamp": "2024-01-23T18:40:09.992000Z",
    "stations_updated": "2023-10-28",
    "timestamp": "2024-01-23T18:40:43.762048Z"
  },
  "other": [],
  "pressure_altitude": 240,
  "raw": "KBLI 231753Z 17004KT 10SM BKN012 OVC040 09/08 A2985 RMK AO2 SLP116 60030 T00890078 10089 20039 53018",
  "relative_humidity": 0.9280975124584884,
  "remarks": "RMK AO2 SLP116 60030 T00890078 10089 20039 53018",
  "remarks_info": {
    "codes": [
      {
        "repr": "AO2",
        "value": "Automated with precipitation sensor"
      }
    ],
    "dewpoint_decimal": {
      "repr": "0078",
      "spoken": "seven point eight",
      "value": 7.8
    },
    "maximum_temperature_24": null,
    "maximum_temperature_6": {
      "repr": "10089",
      "spoken": "eight point nine",
      "value": 8.9
    },
    "minimum_temperature_24": null,
    "minimum_temperature_6": {
      "repr": "20039",
      "spoken": "three point nine",
      "value": 3.9
    },
    "precip_24_hours": null,
    "precip_36_hours": {
      "repr": "60030",
      "spoken": "zero point three",
      "value": 0.3
    },
    "precip_hourly": null,
    "pressure_tendency": {
      "change": 1.8,
      "repr": "53018",
      "tendency": "Decreasing or steady, then increasing"
    },
    "sea_level_pressure": {
      "repr": "SLP116",
      "spoken": "one zero one one point six",
      "value": 1011.6
    },
    "snow_depth": null,
    "sunshine_minutes": null,
    "temperature_decimal": {
      "repr": "0089",
      "spoken": "eight point nine",
      "value": 8.9
    }
  },
  "runway_visibility": [],
  "sanitized": "KBLI 231753Z 17004KT 10SM BKN012 OVC040 09/08 A2985 RMK AO2 SLP116 60030 T00890078 10089 20039 53018",
  "station": "KBLI",
  "temperature": {
    "repr": "09",
    "spoken": "nine",
    "value": 9
  },
  "time": {
    "dt": "2024-01-23T17:53:00Z",
    "repr": "231753Z"
  },
  "units": {
    "accumulation": "in",
    "altimeter": "inHg",
    "altitude": "ft",
    "temperature": "C",
    "visibility": "sm",
    "wind_speed": "kt"
  },
  "visibility": {
    "repr": "10",
    "spoken": "one zero",
    "value": 10
  },
  "wind_direction": {
    "repr": "170",
    "spoken": "one seven zero",
    "value": 170
  },
  "wind_gust": null,
  "wind_speed": {
    "repr": "04",
    "spoken": "four",
    "value": 4
  },
  "wind_variable_direction": [],
  "wx_codes": []
}
