{
  "altimeter": {
    "repr": "A2976",
    "spoken": "two nine point seven six",
    "value": 29.76
  },
  "clouds": [
    {
      "altitude": 5,
      "modifier": null,
      "repr": "SCT005",
      "type": "SCT"
    },
    {
      "altitude": 15,
      "modifier": null,
      "repr": "BKN015",
      "type": "BKN"
    },
    {
      "altitude": 28,
      "modifier": null,
      "repr": "OVC028",
      "type": "OVC"
    }
  ],
  "density_altitude": -697,
  "dewpoint": {
    "repr": "06",
    "spoken": "six",
    "value": 6
  },
  "flight_rules": "MVFR",
  "meta": {
    "stations_updated": "2024-12-02",
    "timestamp": "2024-12-29T21:03:29.276675Z"
  },
  "other": [],
  "pressure_altitude": 330,
  "raw": "KBLI 292053Z 00000KT 3SM -RA BR SCT005 BKN015 OVC028 06/06 A2976 RMK AO2 SLP085 P0011 60015 T00610061 53011",
  "relative_humidity": 1,
  "remarks": "RMK AO2 SLP085 P0011 60015 T00610061 53011",
  "remarks_info": {
    "codes": [
      {
        "repr": "AO2",
        "value": "Automated with precipitation sensor"
      }
    ],
    "dewpoint_decimal": {
      "repr": "0061",
      "spoken": "six point one",
      "value": 6.1
    },
    "maximum_temperature_24": null,
    "maximum_temperature_6": null,
    "minimum_temperature_24": null,
    "minimum_temperature_6": null,
    "precip_24_hours": null,
    "precip_36_hours": {
      "repr": "60015",
      "spoken": "zero point one five",
      "value": 0.15
    },
    "precip_hourly": {
      "repr": "P0011",
      "spoken": "zero point one one",
      "value": 0.11
    },
    "pressure_tendency": {
      "change": 1.1,
      "repr": "53011",
      "tendency": "Decreasing or steady, then increasing"
    },
    "sea_level_pressure": {
      "repr": "SLP085",
      "spoken": "one zero zero eight point five",
      "value": 1008.5
    },
    "snow_depth": null,
    "sunshine_minutes": null,
    "temperature_decimal": {
      "repr": "0061",
      "spoken": "six point one",
      "value": 6.1
    }
  },
  "runway_visibility": [],
  "sanitized": "KBLI 292053Z 00000KT 3SM -RA BR SCT005 BKN015 OVC028 06/06 A2976 RMK AO2 SLP085 P0011 60015 T00610061 53011",
  "station": "KBLI",
  "temperature": {
    "repr": "06",
    "spoken": "six",
    "value": 6
  },
  "time": {
    "dt": "2024-12-29T20:53:00Z",
    "repr": "292053Z"
  },
  "units": {
    "accumulation": "in",
    "altimeter": "inHg",
    "altitude": "ft",
    "temperature": "C",
    "visibility": "sm",
    "wind_speed": "kt"
  },
  "visibility": {
    "repr": "3",
    "spoken": "three",
    "value": 3
  },
  "wind_direction": {
    "repr": "000",
    "spoken": "zero zero zero",
    "value": 0
  },
  "wind_gust": null,
  "wind_speed": {
    "repr": "00",
    "spoken": "zero",
    "value": 0
  },
  "wind_variable_direction": [],
  "wx_codes": [
    {
      "repr": "-RA",
      "value": "Light Rain"
    },
    {
      "repr": "BR",
      "value": "Mist"
    }
  ]
}
