{
  "altimeter": {
    "repr": "A2986",
    "spoken": "two nine point eight six",
    "value": 29.86
  },
  "clouds": [],
  "density_altitude": -2465,
  "dewpoint": {
    "repr": "M19",
    "spoken": "minus one nine",
    "value": -19
  },
  "flight_rules": "VFR",
  "meta": {
    "stations_updated": "2023-10-28",
    "timestamp": "2024-01-14T00:30:47.344734Z"
  },
  "other": [],
  "pressure_altitude": 230,
  "raw": "KBLI 132353Z 03013G22KT 10SM CLR M08/M19 A2986 RMK AO2 PK WND 03026/2305 SLP124 T10781189 11072 21111 55013",
  "relative_humidity": 0.4056877044323704,
  "remarks": "RMK AO2 PK WND 03026/2305 SLP124 T10781189 11072 21111 55013",
  "remarks_info": {
    "codes": [
      {
        "repr": "AO2",
        "value": "Automated with precipitation sensor"
      }
    ],
    "dewpoint_decimal": {
      "repr": "1189",
      "spoken": "minus one eight point nine",
      "value": -18.9
    },
    "maximum_temperature_24": null,
    "maximum_temperature_6": {
      "repr": "11072",
      "spoken": "minus seven point two",
      "value": -7.2
    },
    "minimum_temperature_24": null,
    "minimum_temperature_6": {
      "repr": "21111",
      "spoken": "minus one one point one",
      "value": -11.1
    },
    "precip_24_hours": null,
    "precip_36_hours": null,
    "precip_hourly": null,
    "pressure_tendency": {
      "change": 1.3,
      "repr": "55013",
      "tendency": "Decreasing, then increasing"
    },
    "sea_level_pressure": {
      "repr": "SLP124",
      "spoken": "one zero one two point four",
      "value": 1012.4
    },
    "snow_depth": null,
    "sunshine_minutes": null,
    "temperature_decimal": {
      "repr": "1078",
      "spoken": "minus seven point eight",
      "value": -7.8
    }
  },
  "runway_visibility": [],
  "sanitized": "KBLI 132353Z 03013G22KT 10SM M08/M19 A2986 RMK AO2 PK WND 03026/2305 SLP124 T10781189 11072 21111 55013",
  "station": "KBLI",
  "temperature": {
    "repr": "M08",
    "spoken": "minus eight",
    "value": -8
  },
  "time": {
    "dt": "2024-01-13T23:53:00Z",
    "repr": "132353Z"
  },
  "units": {
    "accumulation": "in",
    "altimeter": "inHg",
    "altitude": "ft",
    "temperature": "C",
    "visibility": "sm",
    "wind_speed": "kt"
  },
  "visibility": {
    "repr": "10",
    "spoken": "one zero",
    "value": 10
  },
  "wind_direction": {
    "repr": "030",
    "spoken": "zero three zero",
    "value": 30
  },
  "wind_gust": {
    "repr": "22",
    "spoken": "two two",
    "value": 22
  },
  "wind_speed": {
    "repr": "13",
    "spoken": "one three",
    "value": 13
  },
  "wind_variable_direction": [],
  "wx_codes": []
}
