{
  "altimeter": {
    "repr": "A3032",
    "spoken": "three zero point three two",
    "value": 30.32
  },
  "clouds": [
    {
      "altitude": 17,
      "modifier": null,
      "repr": "FEW017",
      "type": "FEW"
    },
    {
      "altitude": 32,
      "modifier": null,
      "repr": "SCT032",
      "type": "SCT"
    },
    {
      "altitude": 39,
      "modifier": null,
      "repr": "SCT039",
      "type": "SCT"
    }
  ],
  "density_altitude": -1317,
  "dewpoint": {
    "repr": "04",
    "spoken": "four",
    "value": 4
  },
  "flight_rules": "VFR",
  "meta": {
    "cache-timestamp": "2023-12-08T18:06:05.826000Z",
    "stations_updated": "2023-10-28",
    "timestamp": "2023-12-08T18:07:01.609461Z"
  },
  "other": [],
  "pressure_altitude": -230,
  "raw": "KBLI 081753Z 00000KT 10SM FEW017 SCT032 SCT039 06/04 A3032 RMK AO2 SLP276 T00560039 10056 20028 51032",
  "relative_humidity": 0.8880838201753524,
  "remarks": "RMK AO2 SLP276 T00560039 10056 20028 51032",
  "remarks_info": {
    "codes": [
      {
        "repr": "AO2",
        "value": "Automated with precipitation sensor"
      }
    ],
    "dewpoint_decimal": {
      "repr": "0039",
      "spoken": "three point nine",
      "value": 3.9
    },
    "maximum_temperature_24": null,
    "maximum_temperature_6": {
      "repr": "10056",
      "spoken": "five point six",
      "value": 5.6
    },
    "minimum_temperature_24": null,
    "minimum_temperature_6": {
      "repr": "20028",
      "spoken": "two point eight",
      "value": 2.8
    },
    "precip_24_hours": null,
    "precip_36_hours": null,
    "precip_hourly": null,
    "pressure_tendency": {
      "change": 3.2,
      "repr": "51032",
      "tendency": "Increasing, then steady"
    },
    "sea_level_pressure": {
      "repr": "SLP276",
      "spoken": "one zero two seven point six",
      "value": 1027.6
    },
    "snow_depth": null,
    "sunshine_minutes": null,
    "temperature_decimal": {
      "repr": "0056",
      "spoken": "five point six",
      "value": 5.6
    }
  },
  "runway_visibility": [],
  "sanitized": "KBLI 081753Z 00000KT 10SM FEW017 SCT032 SCT039 06/04 A3032 RMK AO2 SLP276 T00560039 10056 20028 51032",
  "station": "KBLI",
  "temperature": {
    "repr": "06",
    "spoken": "six",
    "value": 6
  },
  "time": {
    "dt": "2023-12-08T17:53:00Z",
    "repr": "081753Z"
  },
  "units": {
    "accumulation": "in",
    "altimeter": "inHg",
    "altitude": "ft",
    "temperature": "C",
    "visibility": "sm",
    "wind_speed": "kt"
  },
  "visibility": {
    "repr": "10",
    "spoken": "one zero",
    "value": 10
  },
  "wind_direction": {
    "repr": "000",
    "spoken": "zero zero zero",
    "value": 0
  },
  "wind_gust": null,
  "wind_speed": {
    "repr": "00",
    "spoken": "zero",
    "value": 0
  },
  "wind_variable_direction": [],
  "wx_codes": []
}
