{
  "altimeter": {
    "repr": "A3011",
    "spoken": "three zero point one one",
    "value": 30.11
  },
  "clouds": [
    {
      "altitude": 48,
      "modifier": null,
      "repr": "SCT048",
      "type": "SCT"
    },
    {
      "altitude": 95,
      "modifier": null,
      "repr": "OVC095",
      "type": "OVC"
    }
  ],
  "density_altitude": 621,
  "dewpoint": {
    "repr": "16",
    "spoken": "one six",
    "value": 16
  },
  "flight_rules": "VFR",
  "meta": {
    "stations_updated": "2024-06-12",
    "timestamp": "2024-09-24T00:35:16.134837Z"
  },
  "other": [],
  "pressure_altitude": -20,
  "raw": "KBLI 232353Z 16003KT 10SM SCT048 OVC095 20/16 A3011 RMK AO2 SLP202 T02000161 10206 20161 58014",
  "relative_humidity": 0.7824621310520947,
  "remarks": "RMK AO2 SLP202 T02000161 10206 20161 58014",
  "remarks_info": {
    "codes": [
      {
        "repr": "AO2",
        "value": "Automated with precipitation sensor"
      }
    ],
    "dewpoint_decimal": {
      "repr": "0161",
      "spoken": "one six point one",
      "value": 16.1
    },
    "maximum_temperature_24": null,
    "maximum_temperature_6": {
      "repr": "10206",
      "spoken": "two zero point six",
      "value": 20.6
    },
    "minimum_temperature_24": null,
    "minimum_temperature_6": {
      "repr": "20161",
      "spoken": "one six point one",
      "value": 16.1
    },
    "precip_24_hours": null,
    "precip_36_hours": null,
    "precip_hourly": null,
    "pressure_tendency": {
      "change": 1.4,
      "repr": "58014",
      "tendency": "Steady or increasing, then decreasing"
    },
    "sea_level_pressure": {
      "repr": "SLP202",
      "spoken": "one zero two zero point two",
      "value": 1020.2
    },
    "snow_depth": null,
    "sunshine_minutes": null,
    "temperature_decimal": {
      "repr": "0200",
      "spoken": "two zero point zero",
      "value": 20
    }
  },
  "runway_visibility": [],
  "sanitized": "KBLI 232353Z 16003KT 10SM SCT048 OVC095 20/16 A3011 RMK AO2 SLP202 T02000161 10206 20161 58014",
  "station": "KBLI",
  "temperature": {
    "repr": "20",
    "spoken": "two zero",
    "value": 20
  },
  "time": {
    "dt": "2024-09-23T23:53:00Z",
    "repr": "232353Z"
  },
  "units": {
    "accumulation": "in",
    "altimeter": "inHg",
    "altitude": "ft",
    "temperature": "C",
    "visibility": "sm",
    "wind_speed": "kt"
  },
  "visibility": {
    "repr": "10",
    "spoken": "one zero",
    "value": 10
  },
  "wind_direction": {
    "repr": "160",
    "spoken": "one six zero",
    "value": 160
  },
  "wind_gust": null,
  "wind_speed": {
    "repr": "03",
    "spoken": "three",
    "value": 3
  },
  "wind_variable_direction": [],
  "wx_codes": []
}
