{
  "altimeter": {
    "repr": "A3054",
    "spoken": "three zero point five four",
    "value": 30.54
  },
  "clouds": [],
  "density_altitude": -1741,
  "dewpoint": {
    "repr": "M08",
    "spoken": "minus eight",
    "value": -8
  },
  "flight_rules": "VFR",
  "meta": {
    "stations_updated": "2024-12-02",
    "timestamp": "2025-01-20T04:31:33.273012Z"
  },
  "other": [],
  "pressure_altitude": -450,
  "raw": "KBLI 200353Z 07010G22KT 10SM CLR 04/M08 A3054 RMK AO2 PK WND 05028/0326 SLP353 T00391078",
  "relative_humidity": 0.42176764882128953,
  "remarks": "RMK AO2 PK WND 05028/0326 SLP353 T00391078",
  "remarks_info": {
    "codes": [
      {
        "repr": "AO2",
        "value": "Automated with precipitation sensor"
      }
    ],
    "dewpoint_decimal": {
      "repr": "1078",
      "spoken": "minus seven point eight",
      "value": -7.8
    },
    "maximum_temperature_24": null,
    "maximum_temperature_6": null,
    "minimum_temperature_24": null,
    "minimum_temperature_6": null,
    "precip_24_hours": null,
    "precip_36_hours": null,
    "precip_hourly": null,
    "pressure_tendency": null,
    "sea_level_pressure": {
      "repr": "SLP353",
      "spoken": "one zero three five point three",
      "value": 1035.3
    },
    "snow_depth": null,
    "sunshine_minutes": null,
    "temperature_decimal": {
      "repr": "0039",
      "spoken": "three point nine",
      "value": 3.9
    }
  },
  "runway_visibility": [],
  "sanitized": "KBLI 200353Z 07010G22KT 10SM 04/M08 A3054 RMK AO2 PK WND 05028/0326 SLP353 T00391078",
  "station": "KBLI",
  "temperature": {
    "repr": "04",
    "spoken": "four",
    "value": 4
  },
  "time": {
    "dt": "2025-01-20T03:53:00Z",
    "repr": "200353Z"
  },
  "units": {
    "accumulation": "in",
    "altimeter": "inHg",
    "altitude": "ft",
    "temperature": "C",
    "visibility": "sm",
    "wind_speed": "kt"
  },
  "visibility": {
    "repr": "10",
    "spoken": "one zero",
    "value": 10
  },
  "wind_direction": {
    "repr": "070",
    "spoken": "zero seven zero",
    "value": 70
  },
  "wind_gust": {
    "repr": "22",
    "spoken": "two two",
    "value": 22
  },
  "wind_speed": {
    "repr": "10",
    "spoken": "one zero",
    "value": 10
  },
  "wind_variable_direction": [],
  "wx_codes": []
}
