{
  "altimeter": {
    "repr": "A2988",
    "spoken": "two nine point eight eight",
    "value": 29.88
  },
  "clouds": [],
  "density_altitude": -1213,
  "dewpoint": {
    "repr": "M08",
    "spoken": "minus eight",
    "value": -8
  },
  "flight_rules": "VFR",
  "meta": {
    "cache-timestamp": "2024-02-27T07:40:04.914000Z",
    "stations_updated": "2024-01-01",
    "timestamp": "2024-02-27T07:40:34.521090Z"
  },
  "other": [],
  "pressure_altitude": 210,
  "raw": "KBLI 270653Z AUTO 30013G28KT 280V340 10SM CLR 03/M08 A2988 RMK AO2 PK WND 31029/0641 SLP128 T00281078",
  "relative_humidity": 0.4558329918782755,
  "remarks": "RMK AO2 PK WND 31029/0641 SLP128 T00281078",
  "remarks_info": {
    "codes": [
      {
        "repr": "AO2",
        "value": "Automated with precipitation sensor"
      }
    ],
    "dewpoint_decimal": {
      "repr": "1078",
      "spoken": "minus seven point eight",
      "value": -7.8
    },
    "maximum_temperature_24": null,
    "maximum_temperature_6": null,
    "minimum_temperature_24": null,
    "minimum_temperature_6": null,
    "precip_24_hours": null,
    "precip_36_hours": null,
    "precip_hourly": null,
    "pressure_tendency": null,
    "sea_level_pressure": {
      "repr": "SLP128",
      "spoken": "one zero one two point eight",
      "value": 1012.8
    },
    "snow_depth": null,
    "sunshine_minutes": null,
    "temperature_decimal": {
      "repr": "0028",
      "spoken": "two point eight",
      "value": 2.8
    }
  },
  "runway_visibility": [],
  "sanitized": "KBLI 270653Z 30013G28KT 280V340 10SM 03/M08 A2988 RMK AO2 PK WND 31029/0641 SLP128 T00281078",
  "station": "KBLI",
  "temperature": {
    "repr": "03",
    "spoken": "three",
    "value": 3
  },
  "time": {
    "dt": "2024-02-27T06:53:00Z",
    "repr": "270653Z"
  },
  "units": {
    "accumulation": "in",
    "altimeter": "inHg",
    "altitude": "ft",
    "temperature": "C",
    "visibility": "sm",
    "wind_speed": "kt"
  },
  "visibility": {
    "repr": "10",
    "spoken": "one zero",
    "value": 10
  },
  "wind_direction": {
    "repr": "300",
    "spoken": "three zero zero",
    "value": 300
  },
  "wind_gust": {
    "repr": "28",
    "spoken": "two eight",
    "value": 28
  },
  "wind_speed": {
    "repr": "13",
    "spoken": "one three",
    "value": 13
  },
  "wind_variable_direction": [
    {
      "repr": "280",
      "spoken": "two eight zero",
      "value": 280
    },
    {
      "repr": "340",
      "spoken": "three four zero",
      "value": 340
    }
  ],
  "wx_codes": []
}
