{
  "altimeter": {
    "repr": "A3013",
    "spoken": "three zero point one three",
    "value": 30.13
  },
  "clouds": [],
  "density_altitude": -2663,
  "dewpoint": {
    "repr": "M11",
    "spoken": "minus one one",
    "value": -11
  },
  "flight_rules": "VFR",
  "meta": {
    "cache-timestamp": "2024-01-16T13:26:04.926000Z",
    "stations_updated": "2023-10-28",
    "timestamp": "2024-01-16T13:26:57.457242Z"
  },
  "other": [],
  "pressure_altitude": -40,
  "raw": "KBLI 161253Z AUTO 00000KT 10SM CLR M07/M11 A3013 RMK AO2 SLP215 T10721111",
  "relative_humidity": 0.7367087439512394,
  "remarks": "RMK AO2 SLP215 T10721111",
  "remarks_info": {
    "codes": [
      {
        "repr": "AO2",
        "value": "Automated with precipitation sensor"
      }
    ],
    "dewpoint_decimal": {
      "repr": "1111",
      "spoken": "minus one one point one",
      "value": -11.1
    },
    "maximum_temperature_24": null,
    "maximum_temperature_6": null,
    "minimum_temperature_24": null,
    "minimum_temperature_6": null,
    "precip_24_hours": null,
    "precip_36_hours": null,
    "precip_hourly": null,
    "pressure_tendency": null,
    "sea_level_pressure": {
      "repr": "SLP215",
      "spoken": "one zero two one point five",
      "value": 1021.5
    },
    "snow_depth": null,
    "sunshine_minutes": null,
    "temperature_decimal": {
      "repr": "1072",
      "spoken": "minus seven point two",
      "value": -7.2
    }
  },
  "runway_visibility": [],
  "sanitized": "KBLI 161253Z 00000KT 10SM M07/M11 A3013 RMK AO2 SLP215 T10721111",
  "station": "KBLI",
  "temperature": {
    "repr": "M07",
    "spoken": "minus seven",
    "value": -7
  },
  "time": {
    "dt": "2024-01-16T12:53:00Z",
    "repr": "161253Z"
  },
  "units": {
    "accumulation": "in",
    "altimeter": "inHg",
    "altitude": "ft",
    "temperature": "C",
    "visibility": "sm",
    "wind_speed": "kt"
  },
  "visibility": {
    "repr": "10",
    "spoken": "one zero",
    "value": 10
  },
  "wind_direction": {
    "repr": "000",
    "spoken": "zero zero zero",
    "value": 0
  },
  "wind_gust": null,
  "wind_speed": {
    "repr": "00",
    "spoken": "zero",
    "value": 0
  },
  "wind_variable_direction": [],
  "wx_codes": []
}
