{
  "altimeter": {
    "repr": "A3018",
    "spoken": "three zero point one eight",
    "value": 30.18
  },
  "clouds": [],
  "density_altitude": 83,
  "dewpoint": {
    "repr": "05",
    "spoken": "five",
    "value": 5
  },
  "flight_rules": "VFR",
  "meta": {
    "cache-timestamp": "2024-06-13T03:40:06.263000Z",
    "stations_updated": "2024-05-13",
    "timestamp": "2024-06-13T03:40:36.587379Z"
  },
  "other": [],
  "pressure_altitude": -90,
  "raw": "KBLI 130253Z AUTO 28003KT 10SM CLR 16/05 A3018 RMK AO2 SLP226 T01610050 56012",
  "relative_humidity": 0.4769548155778181,
  "remarks": "RMK AO2 SLP226 T01610050 56012",
  "remarks_info": {
    "codes": [
      {
        "repr": "AO2",
        "value": "Automated with precipitation sensor"
      }
    ],
    "dewpoint_decimal": {
      "repr": "0050",
      "spoken": "five point zero",
      "value": 5
    },
    "maximum_temperature_24": null,
    "maximum_temperature_6": null,
    "minimum_temperature_24": null,
    "minimum_temperature_6": null,
    "precip_24_hours": null,
    "precip_36_hours": null,
    "precip_hourly": null,
    "pressure_tendency": {
      "change": 1.2,
      "repr": "56012",
      "tendency": "Decreasing, then steady"
    },
    "sea_level_pressure": {
      "repr": "SLP226",
      "spoken": "one zero two two point six",
      "value": 1022.6
    },
    "snow_depth": null,
    "sunshine_minutes": null,
    "temperature_decimal": {
      "repr": "0161",
      "spoken": "one six point one",
      "value": 16.1
    }
  },
  "runway_visibility": [],
  "sanitized": "KBLI 130253Z 28003KT 10SM 16/05 A3018 RMK AO2 SLP226 T01610050 56012",
  "station": "KBLI",
  "temperature": {
    "repr": "16",
    "spoken": "one six",
    "value": 16
  },
  "time": {
    "dt": "2024-06-13T02:53:00Z",
    "repr": "130253Z"
  },
  "units": {
    "accumulation": "in",
    "altimeter": "inHg",
    "altitude": "ft",
    "temperature": "C",
    "visibility": "sm",
    "wind_speed": "kt"
  },
  "visibility": {
    "repr": "10",
    "spoken": "one zero",
    "value": 10
  },
  "wind_direction": {
    "repr": "280",
    "spoken": "two eight zero",
    "value": 280
  },
  "wind_gust": null,
  "wind_speed": {
    "repr": "03",
    "spoken": "three",
    "value": 3
  },
  "wind_variable_direction": [],
  "wx_codes": []
}
