{
  "meta": {
    "timestamp": "2023-01-14T08:29:20.508592Z",
    "stations_updated": "2022-12-27"
  },
  "altimeter": {
    "repr": "A2961",
    "value": 29.61,
    "spoken": "two nine point six one"
  },
  "clouds": [
    {
      "repr": "OVC070",
      "type": "OVC",
      "altitude": 70,
      "modifier": null
    }
  ],
  "flight_rules": "VFR",
  "other": [],
  "visibility": {
    "repr": "10",
    "value": 10,
    "spoken": "one zero"
  },
  "wind_direction": {
    "repr": "170",
    "value": 170,
    "spoken": "one seven zero"
  },
  "wind_gust": {
    "repr": "26",
    "value": 26,
    "spoken": "two six"
  },
  "wind_speed": {
    "repr": "15",
    "value": 15,
    "spoken": "one five"
  },
  "wx_codes": [
    {
      "repr": "-RA",
      "value": "Light Rain"
    }
  ],
  "raw": "KBLI 140753Z AUTO 17015G26KT 10SM -RA OVC070 11/09 A2961 RMK AO2 PK WND 18026/0750 SLP034 P0002 T01110094 401560089",
  "sanitized": "KBLI 140753Z 17015G26KT 10SM -RA OVC070 11/09 A2961 RMK AO2 PK WND 18026/0750 SLP034 P0002 T01110094 401560089",
  "station": "KBLI",
  "time": {
    "repr": "140753Z",
    "dt": "2023-01-14T07:53:00Z"
  },
  "remarks": "RMK AO2 PK WND 18026/0750 SLP034 P0002 T01110094 401560089",
  "dewpoint": {
    "repr": "09",
    "value": 9,
    "spoken": "nine"
  },
  "relative_humidity": 0.8926151927981825,
  "remarks_info": {
    "maximum_temperature_6": null,
    "minimum_temperature_6": null,
    "pressure_tendency": null,
    "precip_36_hours": null,
    "precip_24_hours": null,
    "sunshine_minutes": null,
    "codes": [
      {
        "repr": "AO2",
        "value": "Automated with precipitation sensor"
      }
    ],
    "dewpoint_decimal": {
      "repr": "0094",
      "value": 9.4,
      "spoken": "nine point four"
    },
    "maximum_temperature_24": {
      "repr": "0156",
      "value": 15.6,
      "spoken": "one five point six"
    },
    "minimum_temperature_24": {
      "repr": "0089",
      "value": 8.9,
      "spoken": "eight point nine"
    },
    "precip_hourly": {
      "repr": "P0002",
      "value": 0.02,
      "spoken": "zero point zero two"
    },
    "sea_level_pressure": {
      "repr": "SLP034",
      "value": 1003.4,
      "spoken": "one zero zero three point four"
    },
    "snow_depth": null,
    "temperature_decimal": {
      "repr": "0111",
      "value": 11.1,
      "spoken": "one one point one"
    }
  },
  "runway_visibility": [],
  "temperature": {
    "repr": "11",
    "value": 11,
    "spoken": "one one"
  },
  "wind_variable_direction": [],
  "density_altitude": 53,
  "pressure_altitude": 480,
  "units": {
    "accumulation": "in",
    "altimeter": "inHg",
    "altitude": "ft",
    "temperature": "C",
    "visibility": "sm",
    "wind_speed": "kt"
  }
}
