{
  "meta": {
    "timestamp": "2022-10-31T16:08:39.684250Z",
    "stations_updated": "2022-09-05"
  },
  "altimeter": {
    "repr": "A2971",
    "value": 29.71,
    "spoken": "two nine point seven one"
  },
  "clouds": [
    {
      "repr": "BKN032",
      "type": "BKN",
      "altitude": 32,
      "modifier": null
    },
    {
      "repr": "OVC044",
      "type": "OVC",
      "altitude": 44,
      "modifier": null
    }
  ],
  "flight_rules": "VFR",
  "other": [],
  "visibility": {
    "repr": "10",
    "value": 10,
    "spoken": "one zero"
  },
  "wind_direction": {
    "repr": "180",
    "value": 180,
    "spoken": "one eight zero"
  },
  "wind_gust": {
    "repr": "21",
    "value": 21,
    "spoken": "two one"
  },
  "wind_speed": {
    "repr": "12",
    "value": 12,
    "spoken": "one two"
  },
  "wx_codes": [
    {
      "repr": "-RA",
      "value": "Light Rain"
    }
  ],
  "raw": "KBLI 311553Z 18012G21KT 10SM -RA BKN032 OVC044 12/11 A2971 RMK AO2 SLP066 P0003 T01170111",
  "sanitized": "KBLI 311553Z 18012G21KT 10SM -RA BKN032 OVC044 12/11 A2971 RMK AO2 SLP066 P0003 T01170111",
  "station": "KBLI",
  "time": {
    "repr": "311553Z",
    "dt": "2022-10-31T15:53:00Z"
  },
  "remarks": "RMK AO2 SLP066 P0003 T01170111",
  "dewpoint": {
    "repr": "11",
    "value": 11,
    "spoken": "one one"
  },
  "relative_humidity": 0.9610463260900074,
  "remarks_info": {
    "maximum_temperature_6": null,
    "minimum_temperature_6": null,
    "pressure_tendency": null,
    "precip_36_hours": null,
    "precip_24_hours": null,
    "sunshine_minutes": null,
    "codes": [
      {
        "repr": "AO2",
        "value": "Automated with precipitation sensor"
      }
    ],
    "dewpoint_decimal": {
      "repr": "0111",
      "value": 11.1,
      "spoken": "one one point one"
    },
    "maximum_temperature_24": null,
    "minimum_temperature_24": null,
    "precip_hourly": {
      "repr": "P0003",
      "value": 0.03,
      "spoken": "zero point zero three"
    },
    "sea_level_pressure": {
      "repr": "SLP066",
      "value": 1006.6,
      "spoken": "one zero zero six point six"
    },
    "snow_depth": null,
    "temperature_decimal": {
      "repr": "0117",
      "value": 11.7,
      "spoken": "one one point seven"
    }
  },
  "runway_visibility": [],
  "temperature": {
    "repr": "12",
    "value": 12,
    "spoken": "one two"
  },
  "wind_variable_direction": [],
  "density_altitude": 25,
  "pressure_altitude": 380,
  "units": {
    "accumulation": "in",
    "altimeter": "inHg",
    "altitude": "ft",
    "temperature": "C",
    "visibility": "sm",
    "wind_speed": "kt"
  }
}
