{
  "meta": {
    "timestamp": "2022-11-16T23:43:04.553736Z",
    "stations_updated": "2022-09-05"
  },
  "altimeter": {
    "repr": "A3047",
    "value": 30.47,
    "spoken": "three zero point four seven"
  },
  "clouds": [],
  "flight_rules": "VFR",
  "other": [],
  "visibility": {
    "repr": "10",
    "value": 10,
    "spoken": "one zero"
  },
  "wind_direction": {
    "repr": "330",
    "value": 330,
    "spoken": "three three zero"
  },
  "wind_gust": null,
  "wind_speed": {
    "repr": "03",
    "value": 3,
    "spoken": "three"
  },
  "wx_codes": [],
  "raw": "KBLI 162253Z 33003KT 10SM CLR 09/01 A3047 RMK AO2 SLP328 T00940011",
  "sanitized": "KBLI 162253Z 33003KT 10SM 09/01 A3047 RMK AO2 SLP328 T00940011",
  "station": "KBLI",
  "time": {
    "repr": "162253Z",
    "dt": "2022-11-16T22:53:00Z"
  },
  "remarks": "RMK AO2 SLP328 T00940011",
  "dewpoint": {
    "repr": "01",
    "value": 1,
    "spoken": "one"
  },
  "relative_humidity": 0.5614070840970474,
  "remarks_info": {
    "maximum_temperature_6": null,
    "minimum_temperature_6": null,
    "pressure_tendency": null,
    "precip_36_hours": null,
    "precip_24_hours": null,
    "sunshine_minutes": null,
    "codes": [
      {
        "repr": "AO2",
        "value": "Automated with precipitation sensor"
      }
    ],
    "dewpoint_decimal": {
      "repr": "0011",
      "value": 1.1,
      "spoken": "one point one"
    },
    "maximum_temperature_24": null,
    "minimum_temperature_24": null,
    "precip_hourly": null,
    "sea_level_pressure": {
      "repr": "SLP328",
      "value": 1032.8,
      "spoken": "one zero three two point eight"
    },
    "snow_depth": null,
    "temperature_decimal": {
      "repr": "0094",
      "value": 9.4,
      "spoken": "nine point four"
    }
  },
  "runway_visibility": [],
  "temperature": {
    "repr": "09",
    "value": 9,
    "spoken": "nine"
  },
  "wind_variable_direction": [],
  "density_altitude": -1011,
  "pressure_altitude": -380,
  "units": {
    "accumulation": "in",
    "altimeter": "inHg",
    "altitude": "ft",
    "temperature": "C",
    "visibility": "sm",
    "wind_speed": "kt"
  }
}
