{
  "meta": {
    "timestamp": "2023-07-28T00:28:55.705325Z",
    "stations_updated": "2023-06-06",
    "cache-timestamp": "2023-07-28T00:28:03.384000Z"
  },
  "altimeter": {
    "repr": "A3003",
    "value": 30.03,
    "spoken": "three zero point zero three"
  },
  "clouds": [
    {
      "repr": "FEW090",
      "type": "FEW",
      "altitude": 90,
      "modifier": null
    }
  ],
  "flight_rules": "VFR",
  "other": [],
  "visibility": {
    "repr": "10",
    "value": 10,
    "spoken": "one zero"
  },
  "wind_direction": {
    "repr": "190",
    "value": 190,
    "spoken": "one nine zero"
  },
  "wind_gust": null,
  "wind_speed": {
    "repr": "06",
    "value": 6,
    "spoken": "six"
  },
  "wx_codes": [],
  "raw": "KBLI 272353Z 19006KT 10SM FEW090 24/14 A3003 RMK AO2 SLP174 6//// T02390144 10244 20194 58009",
  "sanitized": "KBLI 272353Z 19006KT 10SM FEW090 24/14 A3003 RMK AO2 SLP174 6//// T02390144 10244 20194 58009",
  "station": "KBLI",
  "time": {
    "repr": "272353Z",
    "dt": "2023-07-27T23:53:00Z"
  },
  "remarks": "RMK AO2 SLP174 6//// T02390144 10244 20194 58009",
  "dewpoint": {
    "repr": "14",
    "value": 14,
    "spoken": "one four"
  },
  "relative_humidity": 0.5528239824740444,
  "remarks_info": {
    "maximum_temperature_6": {
      "repr": "10244",
      "value": 24.4,
      "spoken": "two four point four"
    },
    "minimum_temperature_6": {
      "repr": "20194",
      "value": 19.4,
      "spoken": "one nine point four"
    },
    "pressure_tendency": {
      "repr": "58009",
      "tendency": "Steady or increasing, then decreasing",
      "change": 0.9
    },
    "precip_36_hours": null,
    "precip_24_hours": null,
    "sunshine_minutes": null,
    "codes": [
      {
        "repr": "AO2",
        "value": "Automated with precipitation sensor"
      }
    ],
    "dewpoint_decimal": {
      "repr": "0144",
      "value": 14.4,
      "spoken": "one four point four"
    },
    "maximum_temperature_24": null,
    "minimum_temperature_24": null,
    "precip_hourly": null,
    "sea_level_pressure": {
      "repr": "SLP174",
      "value": 1017.4,
      "spoken": "one zero one seven point four"
    },
    "snow_depth": null,
    "temperature_decimal": {
      "repr": "0239",
      "value": 23.9,
      "spoken": "two three point nine"
    }
  },
  "runway_visibility": [],
  "temperature": {
    "repr": "24",
    "value": 24,
    "spoken": "two four"
  },
  "wind_variable_direction": [],
  "density_altitude": 1169,
  "pressure_altitude": 60,
  "units": {
    "accumulation": "in",
    "altimeter": "inHg",
    "altitude": "ft",
    "temperature": "C",
    "visibility": "sm",
    "wind_speed": "kt"
  }
}
