{
  "altimeter": {
    "repr": "A2966",
    "spoken": "two nine point six six",
    "value": 29.66
  },
  "clouds": [
    {
      "altitude": 16,
      "modifier": null,
      "repr": "FEW016",
      "type": "FEW"
    },
    {
      "altitude": 31,
      "modifier": null,
      "repr": "SCT031",
      "type": "SCT"
    },
    {
      "altitude": 48,
      "modifier": null,
      "repr": "OVC048",
      "type": "OVC"
    }
  ],
  "density_altitude": -201,
  "dewpoint": {
    "repr": "07",
    "spoken": "seven",
    "value": 7
  },
  "flight_rules": "MVFR",
  "meta": {
    "cache-timestamp": "2023-11-11T13:22:04.588000Z",
    "stations_updated": "2023-10-28",
    "timestamp": "2023-11-11T13:22:40.431471Z"
  },
  "other": [],
  "pressure_altitude": 430,
  "raw": "KBLI 111253Z AUTO 19008G16KT 4SM -RA BR FEW016 SCT031 OVC048 09/07 A2966 RMK AO2 PK WND 18026/1203 SLP050 P0015 T00940072 $",
  "relative_humidity": 0.8613120968359211,
  "remarks": "RMK AO2 PK WND 18026/1203 SLP050 P0015 T00940072 $",
  "remarks_info": {
    "codes": [
      {
        "repr": "$",
        "value": "ASOS requires maintenance"
      },
      {
        "repr": "AO2",
        "value": "Automated with precipitation sensor"
      }
    ],
    "dewpoint_decimal": {
      "repr": "0072",
      "spoken": "seven point two",
      "value": 7.2
    },
    "maximum_temperature_24": null,
    "maximum_temperature_6": null,
    "minimum_temperature_24": null,
    "minimum_temperature_6": null,
    "precip_24_hours": null,
    "precip_36_hours": null,
    "precip_hourly": {
      "repr": "P0015",
      "spoken": "zero point one five",
      "value": 0.15
    },
    "pressure_tendency": null,
    "sea_level_pressure": {
      "repr": "SLP050",
      "spoken": "one zero zero five point zero",
      "value": 1005
    },
    "snow_depth": null,
    "sunshine_minutes": null,
    "temperature_decimal": {
      "repr": "0094",
      "spoken": "nine point four",
      "value": 9.4
    }
  },
  "runway_visibility": [],
  "sanitized": "KBLI 111253Z 19008G16KT 4SM -RA BR FEW016 SCT031 OVC048 09/07 A2966 RMK AO2 PK WND 18026/1203 SLP050 P0015 T00940072 $",
  "station": "KBLI",
  "temperature": {
    "repr": "09",
    "spoken": "nine",
    "value": 9
  },
  "time": {
    "dt": "2023-11-11T12:53:00Z",
    "repr": "111253Z"
  },
  "units": {
    "accumulation": "in",
    "altimeter": "inHg",
    "altitude": "ft",
    "temperature": "C",
    "visibility": "sm",
    "wind_speed": "kt"
  },
  "visibility": {
    "repr": "4",
    "spoken": "four",
    "value": 4
  },
  "wind_direction": {
    "repr": "190",
    "spoken": "one nine zero",
    "value": 190
  },
  "wind_gust": {
    "repr": "16",
    "spoken": "one six",
    "value": 16
  },
  "wind_speed": {
    "repr": "08",
    "spoken": "eight",
    "value": 8
  },
  "wind_variable_direction": [],
  "wx_codes": [
    {
      "repr": "-RA",
      "value": "Light Rain"
    },
    {
      "repr": "BR",
      "value": "Mist"
    }
  ]
}
