{
  "altimeter": {
    "repr": "A3024",
    "spoken": "three zero point two four",
    "value": 30.24
  },
  "clouds": [],
  "density_altitude": -3709,
  "dewpoint": {
    "repr": "M27",
    "spoken": "minus two seven",
    "value": -27
  },
  "flight_rules": "VFR",
  "meta": {
    "stations_updated": "2023-10-28",
    "timestamp": "2024-01-12T14:27:41.902316Z"
  },
  "other": [],
  "pressure_altitude": -150,
  "raw": "KBLI 121353Z AUTO 04023G43KT 10SM CLR M15/M27 A3024 RMK AO2 PK WND 04043/1350 SLP255 T11501272",
  "relative_humidity": 0.34573982798934894,
  "remarks": "RMK AO2 PK WND 04043/1350 SLP255 T11501272",
  "remarks_info": {
    "codes": [
      {
        "repr": "AO2",
        "value": "Automated with precipitation sensor"
      }
    ],
    "dewpoint_decimal": {
      "repr": "1272",
      "spoken": "minus two seven point two",
      "value": -27.2
    },
    "maximum_temperature_24": null,
    "maximum_temperature_6": null,
    "minimum_temperature_24": null,
    "minimum_temperature_6": null,
    "precip_24_hours": null,
    "precip_36_hours": null,
    "precip_hourly": null,
    "pressure_tendency": null,
    "sea_level_pressure": {
      "repr": "SLP255",
      "spoken": "one zero two five point five",
      "value": 1025.5
    },
    "snow_depth": null,
    "sunshine_minutes": null,
    "temperature_decimal": {
      "repr": "1150",
      "spoken": "minus one five point zero",
      "value": -15
    }
  },
  "runway_visibility": [],
  "sanitized": "KBLI 121353Z 04023G43KT 10SM M15/M27 A3024 RMK AO2 PK WND 04043/1350 SLP255 T11501272",
  "station": "KBLI",
  "temperature": {
    "repr": "M15",
    "spoken": "minus one five",
    "value": -15
  },
  "time": {
    "dt": "2024-01-12T13:53:00Z",
    "repr": "121353Z"
  },
  "units": {
    "accumulation": "in",
    "altimeter": "inHg",
    "altitude": "ft",
    "temperature": "C",
    "visibility": "sm",
    "wind_speed": "kt"
  },
  "visibility": {
    "repr": "10",
    "spoken": "one zero",
    "value": 10
  },
  "wind_direction": {
    "repr": "040",
    "spoken": "zero four zero",
    "value": 40
  },
  "wind_gust": {
    "repr": "43",
    "spoken": "four three",
    "value": 43
  },
  "wind_speed": {
    "repr": "23",
    "spoken": "two three",
    "value": 23
  },
  "wind_variable_direction": [],
  "wx_codes": []
}
