{
  "meta": {
    "timestamp": "2022-11-22T22:31:15.312261Z",
    "stations_updated": "2022-09-05"
  },
  "altimeter": {
    "repr": "A2976",
    "value": 29.76,
    "spoken": "two nine point seven six"
  },
  "clouds": [
    {
      "repr": "SCT011",
      "type": "SCT",
      "altitude": 11,
      "modifier": null
    },
    {
      "repr": "BKN018",
      "type": "BKN",
      "altitude": 18,
      "modifier": null
    },
    {
      "repr": "OVC055",
      "type": "OVC",
      "altitude": 55,
      "modifier": null
    }
  ],
  "flight_rules": "MVFR",
  "other": [],
  "visibility": {
    "repr": "4",
    "value": 4,
    "spoken": "four"
  },
  "wind_direction": {
    "repr": "000",
    "value": 0,
    "spoken": "zero zero zero"
  },
  "wind_gust": null,
  "wind_speed": {
    "repr": "00",
    "value": 0,
    "spoken": "zero"
  },
  "wx_codes": [
    {
      "repr": "-RA",
      "value": "Light Rain"
    },
    {
      "repr": "BR",
      "value": "Mist"
    }
  ],
  "raw": "KBLI 222153Z 00000KT 4SM -RA BR SCT011 BKN018 OVC055 08/08 A2976 RMK AO2 SLP085 P0009 T00780078",
  "sanitized": "KBLI 222153Z 00000KT 4SM -RA BR SCT011 BKN018 OVC055 08/08 A2976 RMK AO2 SLP085 P0009 T00780078",
  "station": "KBLI",
  "time": {
    "repr": "222153Z",
    "dt": "2022-11-22T21:53:00Z"
  },
  "remarks": "RMK AO2 SLP085 P0009 T00780078",
  "dewpoint": {
    "repr": "08",
    "value": 8,
    "spoken": "eight"
  },
  "relative_humidity": 1,
  "remarks_info": {
    "maximum_temperature_6": null,
    "minimum_temperature_6": null,
    "pressure_tendency": null,
    "precip_36_hours": null,
    "precip_24_hours": null,
    "sunshine_minutes": null,
    "codes": [
      {
        "repr": "AO2",
        "value": "Automated with precipitation sensor"
      }
    ],
    "dewpoint_decimal": {
      "repr": "0078",
      "value": 7.8,
      "spoken": "seven point eight"
    },
    "maximum_temperature_24": null,
    "minimum_temperature_24": null,
    "precip_hourly": {
      "repr": "P0009",
      "value": 0.09,
      "spoken": "zero point zero nine"
    },
    "sea_level_pressure": {
      "repr": "SLP085",
      "value": 1008.5,
      "spoken": "one zero zero eight point five"
    },
    "snow_depth": null,
    "temperature_decimal": {
      "repr": "0078",
      "value": 7.8,
      "spoken": "seven point eight"
    }
  },
  "runway_visibility": [],
  "temperature": {
    "repr": "08",
    "value": 8,
    "spoken": "eight"
  },
  "wind_variable_direction": [],
  "density_altitude": -493,
  "pressure_altitude": 330,
  "units": {
    "accumulation": "in",
    "altimeter": "inHg",
    "altitude": "ft",
    "temperature": "C",
    "visibility": "sm",
    "wind_speed": "kt"
  }
}
