{
  "altimeter": {
    "repr": "A3014",
    "spoken": "three zero point one four",
    "value": 30.14
  },
  "clouds": [],
  "density_altitude": -1137,
  "dewpoint": {
    "repr": "M09",
    "spoken": "minus nine",
    "value": -9
  },
  "flight_rules": "VFR",
  "meta": {
    "cache-timestamp": "2024-02-17T08:40:03.359000Z",
    "stations_updated": "2024-01-01",
    "timestamp": "2024-02-17T08:40:36.173358Z"
  },
  "other": [],
  "pressure_altitude": -50,
  "raw": "KBLI 170753Z AUTO 04010KT 10SM CLR 06/M09 A3014 RMK AO2 SLP214 T00561089 401110000",
  "relative_humidity": 0.3438384597861015,
  "remarks": "RMK AO2 SLP214 T00561089 401110000",
  "remarks_info": {
    "codes": [
      {
        "repr": "AO2",
        "value": "Automated with precipitation sensor"
      }
    ],
    "dewpoint_decimal": {
      "repr": "1089",
      "spoken": "minus eight point nine",
      "value": -8.9
    },
    "maximum_temperature_24": {
      "repr": "0111",
      "spoken": "one one point one",
      "value": 11.1
    },
    "maximum_temperature_6": null,
    "minimum_temperature_24": {
      "repr": "0000",
      "spoken": "zero",
      "value": 0
    },
    "minimum_temperature_6": null,
    "precip_24_hours": null,
    "precip_36_hours": null,
    "precip_hourly": null,
    "pressure_tendency": null,
    "sea_level_pressure": {
      "repr": "SLP214",
      "spoken": "one zero two one point four",
      "value": 1021.4
    },
    "snow_depth": null,
    "sunshine_minutes": null,
    "temperature_decimal": {
      "repr": "0056",
      "spoken": "five point six",
      "value": 5.6
    }
  },
  "runway_visibility": [],
  "sanitized": "KBLI 170753Z 04010KT 10SM 06/M09 A3014 RMK AO2 SLP214 T00561089 401110000",
  "station": "KBLI",
  "temperature": {
    "repr": "06",
    "spoken": "six",
    "value": 6
  },
  "time": {
    "dt": "2024-02-17T07:53:00Z",
    "repr": "170753Z"
  },
  "units": {
    "accumulation": "in",
    "altimeter": "inHg",
    "altitude": "ft",
    "temperature": "C",
    "visibility": "sm",
    "wind_speed": "kt"
  },
  "visibility": {
    "repr": "10",
    "spoken": "one zero",
    "value": 10
  },
  "wind_direction": {
    "repr": "040",
    "spoken": "zero four zero",
    "value": 40
  },
  "wind_gust": null,
  "wind_speed": {
    "repr": "10",
    "spoken": "one zero",
    "value": 10
  },
  "wind_variable_direction": [],
  "wx_codes": []
}
