{
  "altimeter": {
    "repr": "A3001",
    "spoken": "three zero point zero one",
    "value": 30.01
  },
  "clouds": [
    {
      "altitude": 80,
      "modifier": null,
      "repr": "SCT080",
      "type": "SCT"
    }
  ],
  "density_altitude": -143,
  "dewpoint": {
    "repr": "02",
    "spoken": "two",
    "value": 2
  },
  "flight_rules": "VFR",
  "meta": {
    "cache-timestamp": "2023-11-01T23:40:37.368000Z",
    "stations_updated": "2023-10-28",
    "timestamp": "2023-11-01T23:40:39.105380Z"
  },
  "other": [],
  "pressure_altitude": 80,
  "raw": "KBLI 012253Z 01004KT 10SM SCT080 13/02 A3001 RMK AO2 SLP170 T01280022",
  "relative_humidity": 0.4846886649520131,
  "remarks": "RMK AO2 SLP170 T01280022",
  "remarks_info": {
    "codes": [
      {
        "repr": "AO2",
        "value": "Automated with precipitation sensor"
      }
    ],
    "dewpoint_decimal": {
      "repr": "0022",
      "spoken": "two point two",
      "value": 2.2
    },
    "maximum_temperature_24": null,
    "maximum_temperature_6": null,
    "minimum_temperature_24": null,
    "minimum_temperature_6": null,
    "precip_24_hours": null,
    "precip_36_hours": null,
    "precip_hourly": null,
    "pressure_tendency": null,
    "sea_level_pressure": {
      "repr": "SLP170",
      "spoken": "one zero one seven point zero",
      "value": 1017
    },
    "snow_depth": null,
    "sunshine_minutes": null,
    "temperature_decimal": {
      "repr": "0128",
      "spoken": "one two point eight",
      "value": 12.8
    }
  },
  "runway_visibility": [],
  "sanitized": "KBLI 012253Z 01004KT 10SM SCT080 13/02 A3001 RMK AO2 SLP170 T01280022",
  "station": "KBLI",
  "temperature": {
    "repr": "13",
    "spoken": "one three",
    "value": 13
  },
  "time": {
    "dt": "2023-11-01T22:53:00Z",
    "repr": "012253Z"
  },
  "units": {
    "accumulation": "in",
    "altimeter": "inHg",
    "altitude": "ft",
    "temperature": "C",
    "visibility": "sm",
    "wind_speed": "kt"
  },
  "visibility": {
    "repr": "10",
    "spoken": "one zero",
    "value": 10
  },
  "wind_direction": {
    "repr": "010",
    "spoken": "zero one zero",
    "value": 10
  },
  "wind_gust": null,
  "wind_speed": {
    "repr": "04",
    "spoken": "four",
    "value": 4
  },
  "wind_variable_direction": [],
  "wx_codes": []
}
