{
  "altimeter": {
    "repr": "A3005",
    "spoken": "three zero point zero five",
    "value": 30.05
  },
  "clouds": [
    {
      "altitude": 23,
      "modifier": null,
      "repr": "OVC023",
      "type": "OVC"
    }
  ],
  "density_altitude": -1119,
  "dewpoint": {
    "repr": "05",
    "spoken": "five",
    "value": 5
  },
  "flight_rules": "MVFR",
  "meta": {
    "stations_updated": "2024-12-02",
    "timestamp": "2025-01-05T10:41:06.585928Z"
  },
  "other": [],
  "pressure_altitude": 40,
  "raw": "KBLI 050953Z AUTO 03005KT 3SM -RA BR OVC023 05/05 A3005 RMK AO2 RAB24 SLP186 P0004 T00500050",
  "relative_humidity": 1,
  "remarks": "RMK AO2 RAB24 SLP186 P0004 T00500050",
  "remarks_info": {
    "codes": [
      {
        "repr": "AO2",
        "value": "Automated with precipitation sensor"
      },
      {
        "repr": "RAB24",
        "value": "Rain began at :24"
      }
    ],
    "dewpoint_decimal": {
      "repr": "0050",
      "spoken": "five point zero",
      "value": 5
    },
    "maximum_temperature_24": null,
    "maximum_temperature_6": null,
    "minimum_temperature_24": null,
    "minimum_temperature_6": null,
    "precip_24_hours": null,
    "precip_36_hours": null,
    "precip_hourly": {
      "repr": "P0004",
      "spoken": "zero point zero four",
      "value": 0.04
    },
    "pressure_tendency": null,
    "sea_level_pressure": {
      "repr": "SLP186",
      "spoken": "one zero one eight point six",
      "value": 1018.6
    },
    "snow_depth": null,
    "sunshine_minutes": null,
    "temperature_decimal": {
      "repr": "0050",
      "spoken": "five point zero",
      "value": 5
    }
  },
  "runway_visibility": [],
  "sanitized": "KBLI 050953Z 03005KT 3SM -RA BR OVC023 05/05 A3005 RMK AO2 RAB24 SLP186 P0004 T00500050",
  "station": "KBLI",
  "temperature": {
    "repr": "05",
    "spoken": "five",
    "value": 5
  },
  "time": {
    "dt": "2025-01-05T09:53:00Z",
    "repr": "050953Z"
  },
  "units": {
    "accumulation": "in",
    "altimeter": "inHg",
    "altitude": "ft",
    "temperature": "C",
    "visibility": "sm",
    "wind_speed": "kt"
  },
  "visibility": {
    "repr": "3",
    "spoken": "three",
    "value": 3
  },
  "wind_direction": {
    "repr": "030",
    "spoken": "zero three zero",
    "value": 30
  },
  "wind_gust": null,
  "wind_speed": {
    "repr": "05",
    "spoken": "five",
    "value": 5
  },
  "wind_variable_direction": [],
  "wx_codes": [
    {
      "repr": "-RA",
      "value": "Light Rain"
    },
    {
      "repr": "BR",
      "value": "Mist"
    }
  ]
}
