{
  "meta": {
    "timestamp": "2023-06-27T06:43:50.921803Z",
    "stations_updated": "2023-06-06"
  },
  "altimeter": {
    "repr": "A2992",
    "value": 29.92,
    "spoken": "two nine point nine two"
  },
  "clouds": [],
  "flight_rules": "VFR",
  "other": [],
  "visibility": {
    "repr": "10",
    "value": 10,
    "spoken": "one zero"
  },
  "wind_direction": {
    "repr": "180",
    "value": 180,
    "spoken": "one eight zero"
  },
  "wind_gust": null,
  "wind_speed": {
    "repr": "10",
    "value": 10,
    "spoken": "one zero"
  },
  "wx_codes": [],
  "raw": "KBLI 270553Z AUTO 18010KT 10SM CLR 17/12 A2992 RMK AO2 SLP139 T01670122 10200 20167 55000",
  "sanitized": "KBLI 270553Z 18010KT 10SM 17/12 A2992 RMK AO2 SLP139 T01670122 10200 20167 55000",
  "station": "KBLI",
  "time": {
    "repr": "270553Z",
    "dt": "2023-06-27T05:53:00Z"
  },
  "remarks": "RMK AO2 SLP139 T01670122 10200 20167 55000",
  "dewpoint": {
    "repr": "12",
    "value": 12,
    "spoken": "one two"
  },
  "relative_humidity": 0.7475071532173421,
  "remarks_info": {
    "maximum_temperature_6": {
      "repr": "10200",
      "value": 20,
      "spoken": "two zero point zero"
    },
    "minimum_temperature_6": {
      "repr": "20167",
      "value": 16.7,
      "spoken": "one six point seven"
    },
    "pressure_tendency": {
      "repr": "55000",
      "tendency": "Decreasing, then increasing",
      "change": 0
    },
    "precip_36_hours": null,
    "precip_24_hours": null,
    "sunshine_minutes": null,
    "codes": [
      {
        "repr": "AO2",
        "value": "Automated with precipitation sensor"
      }
    ],
    "dewpoint_decimal": {
      "repr": "0122",
      "value": 12.2,
      "spoken": "one two point two"
    },
    "maximum_temperature_24": null,
    "minimum_temperature_24": null,
    "precip_hourly": null,
    "sea_level_pressure": {
      "repr": "SLP139",
      "value": 1013.9,
      "spoken": "one zero one three point nine"
    },
    "snow_depth": null,
    "temperature_decimal": {
      "repr": "0167",
      "value": 16.7,
      "spoken": "one six point seven"
    }
  },
  "runway_visibility": [],
  "temperature": {
    "repr": "17",
    "value": 17,
    "spoken": "one seven"
  },
  "wind_variable_direction": [],
  "density_altitude": 415,
  "pressure_altitude": 170,
  "units": {
    "accumulation": "in",
    "altimeter": "inHg",
    "altitude": "ft",
    "temperature": "C",
    "visibility": "sm",
    "wind_speed": "kt"
  }
}
