{
  "meta": {
    "timestamp": "2023-05-25T08:27:29.045325Z",
    "stations_updated": "2023-03-11"
  },
  "altimeter": {
    "repr": "A2999",
    "value": 29.99,
    "spoken": "two nine point nine nine"
  },
  "clouds": [],
  "flight_rules": "VFR",
  "other": [],
  "visibility": {
    "repr": "10",
    "value": 10,
    "spoken": "one zero"
  },
  "wind_direction": {
    "repr": "000",
    "value": 0,
    "spoken": "zero zero zero"
  },
  "wind_gust": null,
  "wind_speed": {
    "repr": "00",
    "value": 0,
    "spoken": "zero"
  },
  "wx_codes": [],
  "raw": "KBLI 250753Z AUTO 00000KT 10SM CLR 11/11 A2999 RMK AO2 SLP163 T01060106 402060078",
  "sanitized": "KBLI 250753Z 00000KT 10SM 11/11 A2999 RMK AO2 SLP163 T01060106 402060078",
  "station": "KBLI",
  "time": {
    "repr": "250753Z",
    "dt": "2023-05-25T07:53:00Z"
  },
  "remarks": "RMK AO2 SLP163 T01060106 402060078",
  "dewpoint": {
    "repr": "11",
    "value": 11,
    "spoken": "one one"
  },
  "relative_humidity": 1,
  "remarks_info": {
    "maximum_temperature_6": null,
    "minimum_temperature_6": null,
    "pressure_tendency": null,
    "precip_36_hours": null,
    "precip_24_hours": null,
    "sunshine_minutes": null,
    "codes": [
      {
        "repr": "AO2",
        "value": "Automated with precipitation sensor"
      }
    ],
    "dewpoint_decimal": {
      "repr": "0106",
      "value": 10.6,
      "spoken": "one zero point six"
    },
    "maximum_temperature_24": {
      "repr": "0206",
      "value": 20.6,
      "spoken": "two zero point six"
    },
    "minimum_temperature_24": {
      "repr": "0078",
      "value": 7.8,
      "spoken": "seven point eight"
    },
    "precip_hourly": null,
    "sea_level_pressure": {
      "repr": "SLP163",
      "value": 1016.3,
      "spoken": "one zero one six point three"
    },
    "snow_depth": null,
    "temperature_decimal": {
      "repr": "0106",
      "value": 10.6,
      "spoken": "one zero point six"
    }
  },
  "runway_visibility": [],
  "temperature": {
    "repr": "11",
    "value": 11,
    "spoken": "one one"
  },
  "wind_variable_direction": [],
  "density_altitude": -387,
  "pressure_altitude": 100,
  "units": {
    "accumulation": "in",
    "altimeter": "inHg",
    "altitude": "ft",
    "temperature": "C",
    "visibility": "sm",
    "wind_speed": "kt"
  }
}
