{
  "meta": {
    "timestamp": "2023-02-28T02:08:49.410398Z",
    "stations_updated": "2023-01-30",
    "cache-timestamp": "2023-02-28T02:08:07.388000Z"
  },
  "altimeter": {
    "repr": "A2941",
    "value": 29.41,
    "spoken": "two nine point four one"
  },
  "clouds": [
    {
      "repr": "FEW016",
      "type": "FEW",
      "altitude": 16,
      "modifier": null
    },
    {
      "repr": "SCT028",
      "type": "SCT",
      "altitude": 28,
      "modifier": null
    },
    {
      "repr": "BKN040",
      "type": "BKN",
      "altitude": 40,
      "modifier": null
    }
  ],
  "flight_rules": "VFR",
  "other": [],
  "visibility": {
    "repr": "10",
    "value": 10,
    "spoken": "one zero"
  },
  "wind_direction": {
    "repr": "030",
    "value": 30,
    "spoken": "zero three zero"
  },
  "wind_gust": null,
  "wind_speed": {
    "repr": "05",
    "value": 5,
    "spoken": "five"
  },
  "wx_codes": [],
  "raw": "KBLI 280153Z 03005KT 10SM FEW016 SCT028 BKN040 02/01 A2941 RMK AO2 SNE33 SLP969 P0000 T00220006",
  "sanitized": "KBLI 280153Z 03005KT 10SM FEW016 SCT028 BKN040 02/01 A2941 RMK AO2 SNE33 SLP969 P0000 T00220006",
  "station": "KBLI",
  "time": {
    "repr": "280153Z",
    "dt": "2023-02-28T01:53:00Z"
  },
  "remarks": "RMK AO2 SNE33 SLP969 P0000 T00220006",
  "dewpoint": {
    "repr": "01",
    "value": 1,
    "spoken": "one"
  },
  "relative_humidity": 0.8915584154150683,
  "remarks_info": {
    "maximum_temperature_6": null,
    "minimum_temperature_6": null,
    "pressure_tendency": null,
    "precip_36_hours": null,
    "precip_24_hours": null,
    "sunshine_minutes": null,
    "codes": [
      {
        "repr": "AO2",
        "value": "Automated with precipitation sensor"
      },
      {
        "repr": "P0000",
        "value": "Trace amount of rain in the last hour"
      },
      {
        "repr": "SNE33",
        "value": "Snow ended at :33"
      }
    ],
    "dewpoint_decimal": {
      "repr": "0006",
      "value": 0.6,
      "spoken": "zero point six"
    },
    "maximum_temperature_24": null,
    "minimum_temperature_24": null,
    "precip_hourly": null,
    "sea_level_pressure": {
      "repr": "SLP969",
      "value": 996.9,
      "spoken": "nine nine six point nine"
    },
    "snow_depth": null,
    "temperature_decimal": {
      "repr": "0022",
      "value": 2.2,
      "spoken": "two point two"
    }
  },
  "runway_visibility": [],
  "temperature": {
    "repr": "02",
    "value": 2,
    "spoken": "two"
  },
  "wind_variable_direction": [],
  "density_altitude": -815,
  "pressure_altitude": 680,
  "units": {
    "accumulation": "in",
    "altimeter": "inHg",
    "altitude": "ft",
    "temperature": "C",
    "visibility": "sm",
    "wind_speed": "kt"
  }
}
