{
  "meta": {
    "timestamp": "2022-10-28T05:27:56.369493Z",
    "stations_updated": "2022-09-05"
  },
  "altimeter": {
    "repr": "A2989",
    "value": 29.89,
    "spoken": "two nine point eight nine"
  },
  "clouds": [
    {
      "repr": "SCT020",
      "type": "SCT",
      "altitude": 20,
      "modifier": null
    },
    {
      "repr": "BKN030",
      "type": "BKN",
      "altitude": 30,
      "modifier": null
    },
    {
      "repr": "OVC060",
      "type": "OVC",
      "altitude": 60,
      "modifier": null
    }
  ],
  "flight_rules": "MVFR",
  "other": [],
  "visibility": {
    "repr": "6",
    "value": 6,
    "spoken": "six"
  },
  "wind_direction": {
    "repr": "160",
    "value": 160,
    "spoken": "one six zero"
  },
  "wind_gust": {
    "repr": "24",
    "value": 24,
    "spoken": "two four"
  },
  "wind_speed": {
    "repr": "14",
    "value": 14,
    "spoken": "one four"
  },
  "wx_codes": [
    {
      "repr": "-RA",
      "value": "Light Rain"
    },
    {
      "repr": "BR",
      "value": "Mist"
    }
  ],
  "raw": "KBLI 280453Z 16014G24KT 6SM -RA BR SCT020 BKN030 OVC060 12/11 A2989 RMK AO2 SLP130 P0007 T01170106",
  "sanitized": "KBLI 280453Z 16014G24KT 6SM -RA BR SCT020 BKN030 OVC060 12/11 A2989 RMK AO2 SLP130 P0007 T01170106",
  "station": "KBLI",
  "time": {
    "repr": "280453Z",
    "dt": "2022-10-28T04:53:00Z"
  },
  "remarks": "RMK AO2 SLP130 P0007 T01170106",
  "dewpoint": {
    "repr": "11",
    "value": 11,
    "spoken": "one one"
  },
  "relative_humidity": 0.9296133286105723,
  "remarks_info": {
    "maximum_temperature_6": null,
    "minimum_temperature_6": null,
    "pressure_tendency": null,
    "precip_36_hours": null,
    "precip_24_hours": null,
    "sunshine_minutes": null,
    "codes": [
      {
        "repr": "AO2",
        "value": "Automated with precipitation sensor"
      }
    ],
    "dewpoint_decimal": {
      "repr": "0106",
      "value": 10.6,
      "spoken": "one zero point six"
    },
    "maximum_temperature_24": null,
    "minimum_temperature_24": null,
    "precip_hourly": {
      "repr": "P0007",
      "value": 0.07,
      "spoken": "zero point zero seven"
    },
    "sea_level_pressure": {
      "repr": "SLP130",
      "value": 1013,
      "spoken": "one zero one three point zero"
    },
    "snow_depth": null,
    "temperature_decimal": {
      "repr": "0117",
      "value": 11.7,
      "spoken": "one one point seven"
    }
  },
  "runway_visibility": [],
  "temperature": {
    "repr": "12",
    "value": 12,
    "spoken": "one two"
  },
  "wind_variable_direction": [],
  "density_altitude": -155,
  "pressure_altitude": 200,
  "units": {
    "accumulation": "in",
    "altimeter": "inHg",
    "altitude": "ft",
    "temperature": "C",
    "visibility": "sm",
    "wind_speed": "kt"
  }
}
