{
  "meta": {
    "timestamp": "2023-01-06T00:29:29.861801Z",
    "stations_updated": "2022-12-27"
  },
  "altimeter": {
    "repr": "A2948",
    "value": 29.48,
    "spoken": "two nine point four eight"
  },
  "clouds": [
    {
      "repr": "OVC065",
      "type": "OVC",
      "altitude": 65,
      "modifier": null
    }
  ],
  "flight_rules": "VFR",
  "other": [],
  "visibility": {
    "repr": "10",
    "value": 10,
    "spoken": "one zero"
  },
  "wind_direction": {
    "repr": "150",
    "value": 150,
    "spoken": "one five zero"
  },
  "wind_gust": {
    "repr": "31",
    "value": 31,
    "spoken": "three one"
  },
  "wind_speed": {
    "repr": "12",
    "value": 12,
    "spoken": "one two"
  },
  "wx_codes": [],
  "raw": "KBLI 052353Z 15012G31KT 10SM OVC065 16/03 A2948 RMK AO2 PK WND 17031/2345 SLP990 T01560028 10161 20100 53017",
  "sanitized": "KBLI 052353Z 15012G31KT 10SM OVC065 16/03 A2948 RMK AO2 PK WND 17031/2345 SLP990 T01560028 10161 20100 53017",
  "station": "KBLI",
  "time": {
    "repr": "052353Z",
    "dt": "2023-01-05T23:53:00Z"
  },
  "remarks": "RMK AO2 PK WND 17031/2345 SLP990 T01560028 10161 20100 53017",
  "dewpoint": {
    "repr": "03",
    "value": 3,
    "spoken": "three"
  },
  "relative_humidity": 0.42189209719590504,
  "remarks_info": {
    "maximum_temperature_6": {
      "repr": "10161",
      "value": 16.1,
      "spoken": "one six point one"
    },
    "minimum_temperature_6": {
      "repr": "20100",
      "value": 10,
      "spoken": "one zero point zero"
    },
    "pressure_tendency": {
      "repr": "53017",
      "tendency": "Decreasing or steady, then increasing",
      "change": 1.7
    },
    "precip_36_hours": null,
    "precip_24_hours": null,
    "sunshine_minutes": null,
    "codes": [
      {
        "repr": "AO2",
        "value": "Automated with precipitation sensor"
      }
    ],
    "dewpoint_decimal": {
      "repr": "0028",
      "value": 2.8,
      "spoken": "two point eight"
    },
    "maximum_temperature_24": null,
    "minimum_temperature_24": null,
    "precip_hourly": null,
    "sea_level_pressure": {
      "repr": "SLP990",
      "value": 999,
      "spoken": "nine nine nine point zero"
    },
    "snow_depth": null,
    "temperature_decimal": {
      "repr": "0156",
      "value": 15.6,
      "spoken": "one five point six"
    }
  },
  "runway_visibility": [],
  "temperature": {
    "repr": "16",
    "value": 16,
    "spoken": "one six"
  },
  "wind_variable_direction": [],
  "density_altitude": 723,
  "pressure_altitude": 610,
  "units": {
    "accumulation": "in",
    "altimeter": "inHg",
    "altitude": "ft",
    "temperature": "C",
    "visibility": "sm",
    "wind_speed": "kt"
  }
}
