{
  "meta": {
    "timestamp": "2023-10-23T22:01:28.208295Z",
    "stations_updated": "2023-10-01"
  },
  "altimeter": {
    "repr": "A2999",
    "value": 29.99,
    "spoken": "two nine point nine nine"
  },
  "clouds": [
    {
      "repr": "SCT025",
      "type": "SCT",
      "altitude": 25,
      "modifier": null
    },
    {
      "repr": "BKN033",
      "type": "BKN",
      "altitude": 33,
      "modifier": null
    },
    {
      "repr": "OVC041",
      "type": "OVC",
      "altitude": 41,
      "modifier": null
    }
  ],
  "flight_rules": "VFR",
  "other": [],
  "visibility": {
    "repr": "10",
    "value": 10,
    "spoken": "one zero"
  },
  "wind_direction": {
    "repr": "000",
    "value": 0,
    "spoken": "zero zero zero"
  },
  "wind_gust": null,
  "wind_speed": {
    "repr": "00",
    "value": 0,
    "spoken": "zero"
  },
  "wx_codes": [],
  "raw": "KBLI 232153Z 00000KT 10SM SCT025 BKN033 OVC041 10/04 A2999 RMK AO2 SLP165 T01000044 KBLI 232144Z VRB03KT 10SM BKN026 OVC033 10/04 A2999 RMK AO2 T01000044 KBLI 232053Z 30007KT 10SM FEW024 BKN038 OVC065 10/05 A2999 RMK AO2 SLP164 T01000050 50003",
  "sanitized": "KBLI 232153Z 00000KT 10SM SCT025 BKN033 OVC041 10/04 A2999 RMK AO2 SLP165 T01000044 KBLI 232144Z VRB03KT 10SM BKN026 OVC033 10/04 A2999 RMK AO2 T01000044 KBLI 232053Z 30007KT 10SM FEW024 BKN038 OVC065 10/05 A2999 RMK AO2 SLP164 T01000050 50003",
  "station": "KBLI",
  "time": {
    "repr": "232153Z",
    "dt": "2023-10-23T21:53:00Z"
  },
  "remarks": "RMK AO2 SLP165 T01000044 KBLI 232144Z VRB03KT 10SM BKN026 OVC033 10/04 A2999 RMK AO2 T01000044 KBLI 232053Z 30007KT 10SM FEW024 BKN038 OVC065 10/05 A2999 RMK AO2 SLP164 T01000050 50003",
  "dewpoint": {
    "repr": "04",
    "value": 4,
    "spoken": "four"
  },
  "relative_humidity": 0.7106976250052686,
  "remarks_info": {
    "maximum_temperature_6": null,
    "minimum_temperature_6": null,
    "pressure_tendency": {
      "repr": "50003",
      "tendency": "Increasing, then decreasing",
      "change": 0.3
    },
    "precip_36_hours": null,
    "precip_24_hours": null,
    "sunshine_minutes": null,
    "codes": [
      {
        "repr": "AO2",
        "value": "Automated with precipitation sensor"
      },
      {
        "repr": "AO2",
        "value": "Automated with precipitation sensor"
      },
      {
        "repr": "AO2",
        "value": "Automated with precipitation sensor"
      }
    ],
    "dewpoint_decimal": {
      "repr": "0050",
      "value": 5,
      "spoken": "five point zero"
    },
    "maximum_temperature_24": null,
    "minimum_temperature_24": null,
    "precip_hourly": null,
    "sea_level_pressure": {
      "repr": "SLP165",
      "value": 1016.5,
      "spoken": "one zero one six point five"
    },
    "snow_depth": null,
    "temperature_decimal": {
      "repr": "0100",
      "value": 10,
      "spoken": "one zero point zero"
    }
  },
  "runway_visibility": [],
  "temperature": {
    "repr": "10",
    "value": 10,
    "spoken": "one zero"
  },
  "wind_variable_direction": [],
  "density_altitude": -459,
  "pressure_altitude": 100,
  "units": {
    "accumulation": "in",
    "altimeter": "inHg",
    "altitude": "ft",
    "temperature": "C",
    "visibility": "sm",
    "wind_speed": "kt"
  }
}
