{
  "meta": {
    "timestamp": "2023-05-28T07:20:41.762588Z",
    "stations_updated": "2023-03-11",
    "cache-timestamp": "2023-05-28T07:20:07.096000Z"
  },
  "altimeter": {
    "repr": "A2998",
    "value": 29.98,
    "spoken": "two nine point nine eight"
  },
  "clouds": [
    {
      "repr": "SCT060",
      "type": "SCT",
      "altitude": 60,
      "modifier": null
    }
  ],
  "flight_rules": "VFR",
  "other": [],
  "visibility": {
    "repr": "10",
    "value": 10,
    "spoken": "one zero"
  },
  "wind_direction": {
    "repr": "170",
    "value": 170,
    "spoken": "one seven zero"
  },
  "wind_gust": {
    "repr": "17",
    "value": 17,
    "spoken": "one seven"
  },
  "wind_speed": {
    "repr": "10",
    "value": 10,
    "spoken": "one zero"
  },
  "wx_codes": [],
  "raw": "KBLI 280653Z AUTO 17010G17KT 10SM SCT060 15/11 A2998 RMK AO2 SLP159 T01500106",
  "sanitized": "KBLI 280653Z 17010G17KT 10SM SCT060 15/11 A2998 RMK AO2 SLP159 T01500106",
  "station": "KBLI",
  "time": {
    "repr": "280653Z",
    "dt": "2023-05-28T06:53:00Z"
  },
  "remarks": "RMK AO2 SLP159 T01500106",
  "dewpoint": {
    "repr": "11",
    "value": 11,
    "spoken": "one one"
  },
  "relative_humidity": 0.7495972273501348,
  "remarks_info": {
    "maximum_temperature_6": null,
    "minimum_temperature_6": null,
    "pressure_tendency": null,
    "precip_36_hours": null,
    "precip_24_hours": null,
    "sunshine_minutes": null,
    "codes": [
      {
        "repr": "AO2",
        "value": "Automated with precipitation sensor"
      }
    ],
    "dewpoint_decimal": {
      "repr": "0106",
      "value": 10.6,
      "spoken": "one zero point six"
    },
    "maximum_temperature_24": null,
    "minimum_temperature_24": null,
    "precip_hourly": null,
    "sea_level_pressure": {
      "repr": "SLP159",
      "value": 1015.9,
      "spoken": "one zero one five point nine"
    },
    "snow_depth": null,
    "temperature_decimal": {
      "repr": "0150",
      "value": 15,
      "spoken": "one five point zero"
    }
  },
  "runway_visibility": [],
  "temperature": {
    "repr": "15",
    "value": 15,
    "spoken": "one five"
  },
  "wind_variable_direction": [],
  "density_altitude": 151,
  "pressure_altitude": 110,
  "units": {
    "accumulation": "in",
    "altimeter": "inHg",
    "altitude": "ft",
    "temperature": "C",
    "visibility": "sm",
    "wind_speed": "kt"
  }
}
