{
  "meta": {
    "timestamp": "2023-01-18T00:30:07.199905Z",
    "stations_updated": "2023-01-16"
  },
  "altimeter": {
    "repr": "A2989",
    "value": 29.89,
    "spoken": "two nine point eight nine"
  },
  "clouds": [
    {
      "repr": "OVC033",
      "type": "OVC",
      "altitude": 33,
      "modifier": null
    }
  ],
  "flight_rules": "VFR",
  "other": [],
  "visibility": {
    "repr": "10",
    "value": 10,
    "spoken": "one zero"
  },
  "wind_direction": {
    "repr": "150",
    "value": 150,
    "spoken": "one five zero"
  },
  "wind_gust": {
    "repr": "18",
    "value": 18,
    "spoken": "one eight"
  },
  "wind_speed": {
    "repr": "13",
    "value": 13,
    "spoken": "one three"
  },
  "wx_codes": [],
  "raw": "KBLI 172353Z 15013G18KT 10SM OVC033 09/04 A2989 RMK AO2 SLP128 T00940044 10094 20078 56007",
  "sanitized": "KBLI 172353Z 15013G18KT 10SM OVC033 09/04 A2989 RMK AO2 SLP128 T00940044 10094 20078 56007",
  "station": "KBLI",
  "time": {
    "repr": "172353Z",
    "dt": "2023-01-17T23:53:00Z"
  },
  "remarks": "RMK AO2 SLP128 T00940044 10094 20078 56007",
  "dewpoint": {
    "repr": "04",
    "value": 4,
    "spoken": "four"
  },
  "relative_humidity": 0.7095339265701289,
  "remarks_info": {
    "maximum_temperature_6": {
      "repr": "10094",
      "value": 9.4,
      "spoken": "nine point four"
    },
    "minimum_temperature_6": {
      "repr": "20078",
      "value": 7.8,
      "spoken": "seven point eight"
    },
    "pressure_tendency": {
      "repr": "56007",
      "tendency": "Decreasing, then steady",
      "change": 0.7
    },
    "precip_36_hours": null,
    "precip_24_hours": null,
    "sunshine_minutes": null,
    "codes": [
      {
        "repr": "AO2",
        "value": "Automated with precipitation sensor"
      }
    ],
    "dewpoint_decimal": {
      "repr": "0044",
      "value": 4.4,
      "spoken": "four point four"
    },
    "maximum_temperature_24": null,
    "minimum_temperature_24": null,
    "precip_hourly": null,
    "sea_level_pressure": {
      "repr": "SLP128",
      "value": 1012.8,
      "spoken": "one zero one two point eight"
    },
    "snow_depth": null,
    "temperature_decimal": {
      "repr": "0094",
      "value": 9.4,
      "spoken": "nine point four"
    }
  },
  "runway_visibility": [],
  "temperature": {
    "repr": "09",
    "value": 9,
    "spoken": "nine"
  },
  "wind_variable_direction": [],
  "density_altitude": -431,
  "pressure_altitude": 200,
  "units": {
    "accumulation": "in",
    "altimeter": "inHg",
    "altitude": "ft",
    "temperature": "C",
    "visibility": "sm",
    "wind_speed": "kt"
  }
}
