{
  "meta": {
    "timestamp": "2022-12-21T20:02:20.972423Z",
    "stations_updated": "2022-09-05"
  },
  "altimeter": {
    "repr": "A3056",
    "value": 30.56,
    "spoken": "three zero point five six"
  },
  "clouds": [],
  "flight_rules": "VFR",
  "other": [],
  "visibility": {
    "repr": "10",
    "value": 10,
    "spoken": "one zero"
  },
  "wind_direction": {
    "repr": "040",
    "value": 40,
    "spoken": "zero four zero"
  },
  "wind_gust": {
    "repr": "39",
    "value": 39,
    "spoken": "three nine"
  },
  "wind_speed": {
    "repr": "23",
    "value": 23,
    "spoken": "two three"
  },
  "wx_codes": [],
  "raw": "KBLI 211953Z 04023G39KT 10SM CLR M11/M19 A3056 RMK AO2 PK WND 04039/1950 SLP361 T11061189",
  "sanitized": "KBLI 211953Z 04023G39KT 10SM M11/M19 A3056 RMK AO2 PK WND 04039/1950 SLP361 T11061189",
  "station": "KBLI",
  "time": {
    "repr": "211953Z",
    "dt": "2022-12-21T19:53:00Z"
  },
  "remarks": "RMK AO2 PK WND 04039/1950 SLP361 T11061189",
  "dewpoint": {
    "repr": "M19",
    "value": -19,
    "spoken": "minus one nine"
  },
  "relative_humidity": 0.5052474258463985,
  "remarks_info": {
    "maximum_temperature_6": null,
    "minimum_temperature_6": null,
    "pressure_tendency": null,
    "precip_36_hours": null,
    "precip_24_hours": null,
    "sunshine_minutes": null,
    "codes": [
      {
        "repr": "AO2",
        "value": "Automated with precipitation sensor"
      }
    ],
    "dewpoint_decimal": {
      "repr": "1189",
      "value": -18.9,
      "spoken": "minus one eight point nine"
    },
    "maximum_temperature_24": null,
    "minimum_temperature_24": null,
    "precip_hourly": null,
    "sea_level_pressure": {
      "repr": "SLP361",
      "value": 1036.1,
      "spoken": "one zero three six point one"
    },
    "snow_depth": null,
    "temperature_decimal": {
      "repr": "1106",
      "value": -10.6,
      "spoken": "minus one zero point six"
    }
  },
  "runway_visibility": [],
  "temperature": {
    "repr": "M11",
    "value": -11,
    "spoken": "minus one one"
  },
  "wind_variable_direction": [],
  "density_altitude": -3501,
  "pressure_altitude": -470,
  "units": {
    "accumulation": "in",
    "altimeter": "inHg",
    "altitude": "ft",
    "temperature": "C",
    "visibility": "sm",
    "wind_speed": "kt"
  }
}
