{
  "altimeter": {
    "repr": "A3060",
    "spoken": "three zero point six zero",
    "value": 30.6
  },
  "clouds": [],
  "density_altitude": -1741,
  "dewpoint": {
    "repr": "M02",
    "spoken": "minus two",
    "value": -2
  },
  "flight_rules": "VFR",
  "meta": {
    "stations_updated": "2024-12-02",
    "timestamp": "2025-01-22T00:36:01.015965Z"
  },
  "other": [],
  "pressure_altitude": -510,
  "raw": "KBLI 212353Z 19003KT 10SM CLR 04/M02 A3060 RMK AO2 SLP373 T00441017 10056 20000 51004",
  "relative_humidity": 0.6454179216194228,
  "remarks": "RMK AO2 SLP373 T00441017 10056 20000 51004",
  "remarks_info": {
    "codes": [
      {
        "repr": "AO2",
        "value": "Automated with precipitation sensor"
      }
    ],
    "dewpoint_decimal": {
      "repr": "1017",
      "spoken": "minus one point seven",
      "value": -1.7
    },
    "maximum_temperature_24": null,
    "maximum_temperature_6": {
      "repr": "10056",
      "spoken": "five point six",
      "value": 5.6
    },
    "minimum_temperature_24": null,
    "minimum_temperature_6": {
      "repr": "20000",
      "spoken": "zero",
      "value": 0
    },
    "precip_24_hours": null,
    "precip_36_hours": null,
    "precip_hourly": null,
    "pressure_tendency": {
      "change": 0.4,
      "repr": "51004",
      "tendency": "Increasing, then steady"
    },
    "sea_level_pressure": {
      "repr": "SLP373",
      "spoken": "one zero three seven point three",
      "value": 1037.3
    },
    "snow_depth": null,
    "sunshine_minutes": null,
    "temperature_decimal": {
      "repr": "0044",
      "spoken": "four point four",
      "value": 4.4
    }
  },
  "runway_visibility": [],
  "sanitized": "KBLI 212353Z 19003KT 10SM 04/M02 A3060 RMK AO2 SLP373 T00441017 10056 20000 51004",
  "station": "KBLI",
  "temperature": {
    "repr": "04",
    "spoken": "four",
    "value": 4
  },
  "time": {
    "dt": "2025-01-21T23:53:00Z",
    "repr": "212353Z"
  },
  "units": {
    "accumulation": "in",
    "altimeter": "inHg",
    "altitude": "ft",
    "temperature": "C",
    "visibility": "sm",
    "wind_speed": "kt"
  },
  "visibility": {
    "repr": "10",
    "spoken": "one zero",
    "value": 10
  },
  "wind_direction": {
    "repr": "190",
    "spoken": "one nine zero",
    "value": 190
  },
  "wind_gust": null,
  "wind_speed": {
    "repr": "03",
    "spoken": "three",
    "value": 3
  },
  "wind_variable_direction": [],
  "wx_codes": []
}
