{
  "meta": {
    "timestamp": "2022-12-07T08:07:32.137450Z",
    "stations_updated": "2022-09-05"
  },
  "altimeter": {
    "repr": "A3017",
    "value": 30.17,
    "spoken": "three zero point one seven"
  },
  "clouds": [
    {
      "repr": "OVC016",
      "type": "OVC",
      "altitude": 16,
      "modifier": null
    }
  ],
  "flight_rules": "MVFR",
  "other": [],
  "visibility": {
    "repr": "3",
    "value": 3,
    "spoken": "three"
  },
  "wind_direction": {
    "repr": "000",
    "value": 0,
    "spoken": "zero zero zero"
  },
  "wind_gust": null,
  "wind_speed": {
    "repr": "00",
    "value": 0,
    "spoken": "zero"
  },
  "wx_codes": [
    {
      "repr": "-RA",
      "value": "Light Rain"
    },
    {
      "repr": "BR",
      "value": "Mist"
    }
  ],
  "raw": "KBLI 070753Z AUTO 00000KT 3SM -RA BR OVC016 03/01 A3017 RMK AO2 RAE00B41 SLP226 P0000 T00280011 400440000",
  "sanitized": "KBLI 070753Z 00000KT 3SM -RA BR OVC016 03/01 A3017 RMK AO2 RAE00B41 SLP226 P0000 T00280011 400440000",
  "station": "KBLI",
  "time": {
    "repr": "070753Z",
    "dt": "2022-12-07T07:53:00Z"
  },
  "remarks": "RMK AO2 RAE00B41 SLP226 P0000 T00280011 400440000",
  "dewpoint": {
    "repr": "01",
    "value": 1,
    "spoken": "one"
  },
  "relative_humidity": 0.8856685038265605,
  "remarks_info": {
    "maximum_temperature_6": null,
    "minimum_temperature_6": null,
    "pressure_tendency": null,
    "precip_36_hours": null,
    "precip_24_hours": null,
    "sunshine_minutes": null,
    "codes": [
      {
        "repr": "AO2",
        "value": "Automated with precipitation sensor"
      },
      {
        "repr": "P0000",
        "value": "Trace amount of rain in the last hour"
      }
    ],
    "dewpoint_decimal": {
      "repr": "0011",
      "value": 1.1,
      "spoken": "one point one"
    },
    "maximum_temperature_24": {
      "repr": "0044",
      "value": 4.4,
      "spoken": "four point four"
    },
    "minimum_temperature_24": {
      "repr": "0000",
      "value": 0,
      "spoken": "zero"
    },
    "precip_hourly": null,
    "sea_level_pressure": {
      "repr": "SLP226",
      "value": 1022.6,
      "spoken": "one zero two two point six"
    },
    "snow_depth": null,
    "temperature_decimal": {
      "repr": "0028",
      "value": 2.8,
      "spoken": "two point eight"
    }
  },
  "runway_visibility": [],
  "temperature": {
    "repr": "03",
    "value": 3,
    "spoken": "three"
  },
  "wind_variable_direction": [],
  "density_altitude": -1503,
  "pressure_altitude": -80,
  "units": {
    "accumulation": "in",
    "altimeter": "inHg",
    "altitude": "ft",
    "temperature": "C",
    "visibility": "sm",
    "wind_speed": "kt"
  }
}
