{
  "meta": {
    "timestamp": "2023-10-19T23:01:37.063503Z",
    "stations_updated": "2023-10-01"
  },
  "altimeter": {
    "repr": "A3005",
    "value": 30.05,
    "spoken": "three zero point zero five"
  },
  "clouds": [
    {
      "repr": "FEW010",
      "type": "FEW",
      "altitude": 10,
      "modifier": null
    },
    {
      "repr": "SCT025",
      "type": "SCT",
      "altitude": 25,
      "modifier": null
    },
    {
      "repr": "BKN055",
      "type": "BKN",
      "altitude": 55,
      "modifier": null
    }
  ],
  "flight_rules": "VFR",
  "other": [],
  "visibility": {
    "repr": "10",
    "value": 10,
    "spoken": "one zero"
  },
  "wind_direction": {
    "repr": "180",
    "value": 180,
    "spoken": "one eight zero"
  },
  "wind_gust": null,
  "wind_speed": {
    "repr": "06",
    "value": 6,
    "spoken": "six"
  },
  "wx_codes": [],
  "raw": "KBLI 192253Z 18006KT 10SM FEW010 SCT025 BKN055 15/14 A3005 RMK AO2 RAE12B21E44 SLP181 P0001 T01500139 KBLI 192220Z 20005KT 7SM SCT010 BKN025 OVC060 14/14 A3005 RMK AO2 RAE12 P0000 T01440139 KBLI 192153Z 20007KT 7SM -RA FEW031 BKN038 OVC048 14/14 A3005 RMK AO2 RAE2058B36 SLP181 P0001 T01440139",
  "sanitized": "KBLI 192253Z 18006KT 10SM FEW010 SCT025 BKN055 15/14 A3005 RMK AO2 RAE12B21E44 SLP181 P0001 T01500139 KBLI 192220Z 20005KT 7SM SCT010 BKN025 OVC060 14/14 A3005 RMK AO2 RAE12 P0000 T01440139 KBLI 192153Z 20007KT 7SM -RA FEW031 BKN038 OVC048 14/14 A3005 RMK AO2 RAE2058B36 SLP181 P0001 T01440139",
  "station": "KBLI",
  "time": {
    "repr": "192253Z",
    "dt": "2023-10-19T22:53:00Z"
  },
  "remarks": "RMK AO2 RAE12B21E44 SLP181 P0001 T01500139 KBLI 192220Z 20005KT 7SM SCT010 BKN025 OVC060 14/14 A3005 RMK AO2 RAE12 P0000 T01440139 KBLI 192153Z 20007KT 7SM -RA FEW031 BKN038 OVC048 14/14 A3005 RMK AO2 RAE2058B36 SLP181 P0001 T01440139",
  "dewpoint": {
    "repr": "14",
    "value": 14,
    "spoken": "one four"
  },
  "relative_humidity": 0.968111988465146,
  "remarks_info": {
    "maximum_temperature_6": null,
    "minimum_temperature_6": null,
    "pressure_tendency": null,
    "precip_36_hours": null,
    "precip_24_hours": null,
    "sunshine_minutes": null,
    "codes": [
      {
        "repr": "AO2",
        "value": "Automated with precipitation sensor"
      },
      {
        "repr": "AO2",
        "value": "Automated with precipitation sensor"
      },
      {
        "repr": "AO2",
        "value": "Automated with precipitation sensor"
      },
      {
        "repr": "P0000",
        "value": "Trace amount of rain in the last hour"
      },
      {
        "repr": "RAE12",
        "value": "Rain ended at :12"
      }
    ],
    "dewpoint_decimal": {
      "repr": "0139",
      "value": 13.9,
      "spoken": "one three point nine"
    },
    "maximum_temperature_24": null,
    "minimum_temperature_24": null,
    "precip_hourly": {
      "repr": "P0001",
      "value": 0.01,
      "spoken": "zero point zero one"
    },
    "sea_level_pressure": {
      "repr": "SLP181",
      "value": 1018.1,
      "spoken": "one zero one eight point one"
    },
    "snow_depth": null,
    "temperature_decimal": {
      "repr": "0144",
      "value": 14.4,
      "spoken": "one four point four"
    }
  },
  "runway_visibility": [],
  "temperature": {
    "repr": "15",
    "value": 15,
    "spoken": "one five"
  },
  "wind_variable_direction": [],
  "density_altitude": 9,
  "pressure_altitude": 40,
  "units": {
    "accumulation": "in",
    "altimeter": "inHg",
    "altitude": "ft",
    "temperature": "C",
    "visibility": "sm",
    "wind_speed": "kt"
  }
}
