{
  "meta": {
    "timestamp": "2023-02-16T11:02:01.703457Z",
    "stations_updated": "2023-01-30"
  },
  "altimeter": {
    "repr": "A3021",
    "value": 30.21,
    "spoken": "three zero point two one"
  },
  "clouds": [
    {
      "repr": "BKN095",
      "type": "BKN",
      "altitude": 95,
      "modifier": null
    },
    {
      "repr": "BKN110",
      "type": "BKN",
      "altitude": 110,
      "modifier": null
    }
  ],
  "flight_rules": "VFR",
  "other": [],
  "visibility": {
    "repr": "10",
    "value": 10,
    "spoken": "one zero"
  },
  "wind_direction": {
    "repr": "000",
    "value": 0,
    "spoken": "zero zero zero"
  },
  "wind_gust": null,
  "wind_speed": {
    "repr": "00",
    "value": 0,
    "spoken": "zero"
  },
  "wx_codes": [],
  "raw": "KBLI 161053Z AUTO 00000KT 10SM BKN095 BKN110 02/01 A3021 RMK AO2 SLP240 T00170006",
  "sanitized": "KBLI 161053Z 00000KT 10SM BKN095 BKN110 02/01 A3021 RMK AO2 SLP240 T00170006",
  "station": "KBLI",
  "time": {
    "repr": "161053Z",
    "dt": "2023-02-16T10:53:00Z"
  },
  "remarks": "RMK AO2 SLP240 T00170006",
  "dewpoint": {
    "repr": "01",
    "value": 1,
    "spoken": "one"
  },
  "relative_humidity": 0.9239704971399328,
  "remarks_info": {
    "maximum_temperature_6": null,
    "minimum_temperature_6": null,
    "pressure_tendency": null,
    "precip_36_hours": null,
    "precip_24_hours": null,
    "sunshine_minutes": null,
    "codes": [
      {
        "repr": "AO2",
        "value": "Automated with precipitation sensor"
      }
    ],
    "dewpoint_decimal": {
      "repr": "0006",
      "value": 0.6,
      "spoken": "zero point six"
    },
    "maximum_temperature_24": null,
    "minimum_temperature_24": null,
    "precip_hourly": null,
    "sea_level_pressure": {
      "repr": "SLP240",
      "value": 1024,
      "spoken": "one zero two four point zero"
    },
    "snow_depth": null,
    "temperature_decimal": {
      "repr": "0017",
      "value": 1.7,
      "spoken": "one point seven"
    }
  },
  "runway_visibility": [],
  "temperature": {
    "repr": "02",
    "value": 2,
    "spoken": "two"
  },
  "wind_variable_direction": [],
  "density_altitude": -1675,
  "pressure_altitude": -120,
  "units": {
    "accumulation": "in",
    "altimeter": "inHg",
    "altitude": "ft",
    "temperature": "C",
    "visibility": "sm",
    "wind_speed": "kt"
  }
}
