{
  "meta": {
    "timestamp": "2023-05-15T22:25:19.469147Z",
    "stations_updated": "2023-03-11"
  },
  "altimeter": {
    "repr": "A2995",
    "value": 29.95,
    "spoken": "two nine point nine five"
  },
  "clouds": [],
  "flight_rules": "VFR",
  "other": [],
  "visibility": {
    "repr": "10",
    "value": 10,
    "spoken": "one zero"
  },
  "wind_direction": {
    "repr": "VRB",
    "value": null,
    "spoken": "variable"
  },
  "wind_gust": null,
  "wind_speed": {
    "repr": "03",
    "value": 3,
    "spoken": "three"
  },
  "wx_codes": [],
  "raw": "KBLI 152153Z VRB03KT 10SM CLR 29/13 A2995 RMK AO2 SLP145 T02890128",
  "sanitized": "KBLI 152153Z VRB03KT 10SM 29/13 A2995 RMK AO2 SLP145 T02890128",
  "station": "KBLI",
  "time": {
    "repr": "152153Z",
    "dt": "2023-05-15T21:53:00Z"
  },
  "remarks": "RMK AO2 SLP145 T02890128",
  "dewpoint": {
    "repr": "13",
    "value": 13,
    "spoken": "one three"
  },
  "relative_humidity": 0.37075464980657546,
  "remarks_info": {
    "maximum_temperature_6": null,
    "minimum_temperature_6": null,
    "pressure_tendency": null,
    "precip_36_hours": null,
    "precip_24_hours": null,
    "sunshine_minutes": null,
    "codes": [
      {
        "repr": "AO2",
        "value": "Automated with precipitation sensor"
      }
    ],
    "dewpoint_decimal": {
      "repr": "0128",
      "value": 12.8,
      "spoken": "one two point eight"
    },
    "maximum_temperature_24": null,
    "minimum_temperature_24": null,
    "precip_hourly": null,
    "sea_level_pressure": {
      "repr": "SLP145",
      "value": 1014.5,
      "spoken": "one zero one four point five"
    },
    "snow_depth": null,
    "temperature_decimal": {
      "repr": "0289",
      "value": 28.9,
      "spoken": "two eight point nine"
    }
  },
  "runway_visibility": [],
  "temperature": {
    "repr": "29",
    "value": 29,
    "spoken": "two nine"
  },
  "wind_variable_direction": [],
  "density_altitude": 1849,
  "pressure_altitude": 140,
  "units": {
    "accumulation": "in",
    "altimeter": "inHg",
    "altitude": "ft",
    "temperature": "C",
    "visibility": "sm",
    "wind_speed": "kt"
  }
}
