{
  "altimeter": {
    "repr": "A3000",
    "spoken": "three zero point zero zero",
    "value": 30
  },
  "clouds": [],
  "density_altitude": 1067,
  "dewpoint": {
    "repr": "16",
    "spoken": "one six",
    "value": 16
  },
  "flight_rules": "VFR",
  "meta": {
    "stations_updated": "2024-06-12",
    "timestamp": "2024-08-08T19:40:46.839790Z"
  },
  "other": [],
  "pressure_altitude": 90,
  "raw": "KBLI 081853Z VRB03KT 10SM CLR 23/16 A3000 RMK AO2 SLP162 T02280161",
  "relative_humidity": 0.6590219271871831,
  "remarks": "RMK AO2 SLP162 T02280161",
  "remarks_info": {
    "codes": [
      {
        "repr": "AO2",
        "value": "Automated with precipitation sensor"
      }
    ],
    "dewpoint_decimal": {
      "repr": "0161",
      "spoken": "one six point one",
      "value": 16.1
    },
    "maximum_temperature_24": null,
    "maximum_temperature_6": null,
    "minimum_temperature_24": null,
    "minimum_temperature_6": null,
    "precip_24_hours": null,
    "precip_36_hours": null,
    "precip_hourly": null,
    "pressure_tendency": null,
    "sea_level_pressure": {
      "repr": "SLP162",
      "spoken": "one zero one six point two",
      "value": 1016.2
    },
    "snow_depth": null,
    "sunshine_minutes": null,
    "temperature_decimal": {
      "repr": "0228",
      "spoken": "two two point eight",
      "value": 22.8
    }
  },
  "runway_visibility": [],
  "sanitized": "KBLI 081853Z VRB03KT 10SM 23/16 A3000 RMK AO2 SLP162 T02280161",
  "station": "KBLI",
  "temperature": {
    "repr": "23",
    "spoken": "two three",
    "value": 23
  },
  "time": {
    "dt": "2024-08-08T18:53:00Z",
    "repr": "081853Z"
  },
  "units": {
    "accumulation": "in",
    "altimeter": "inHg",
    "altitude": "ft",
    "temperature": "C",
    "visibility": "sm",
    "wind_speed": "kt"
  },
  "visibility": {
    "repr": "10",
    "spoken": "one zero",
    "value": 10
  },
  "wind_direction": {
    "repr": "VRB",
    "spoken": "variable",
    "value": null
  },
  "wind_gust": null,
  "wind_speed": {
    "repr": "03",
    "spoken": "three",
    "value": 3
  },
  "wind_variable_direction": [],
  "wx_codes": []
}
