{
  "meta": {
    "timestamp": "2022-12-17T22:40:32.291457Z",
    "stations_updated": "2022-09-05"
  },
  "altimeter": {
    "repr": "A3002",
    "value": 30.02,
    "spoken": "three zero point zero two"
  },
  "clouds": [
    {
      "repr": "BKN008",
      "type": "BKN",
      "altitude": 8,
      "modifier": null
    },
    {
      "repr": "BKN011",
      "type": "BKN",
      "altitude": 11,
      "modifier": null
    },
    {
      "repr": "OVC018",
      "type": "OVC",
      "altitude": 18,
      "modifier": null
    }
  ],
  "flight_rules": "IFR",
  "other": [],
  "visibility": {
    "repr": "7",
    "value": 7,
    "spoken": "seven"
  },
  "wind_direction": {
    "repr": "180",
    "value": 180,
    "spoken": "one eight zero"
  },
  "wind_gust": null,
  "wind_speed": {
    "repr": "08",
    "value": 8,
    "spoken": "eight"
  },
  "wx_codes": [
    {
      "repr": "-RA",
      "value": "Light Rain"
    }
  ],
  "raw": "KBLI 172153Z 18008KT 7SM -RA BKN008 BKN011 OVC018 03/02 A3002 RMK AO2 RAB39 SLP174 P0000 T00330022 $",
  "sanitized": "KBLI 172153Z 18008KT 7SM -RA BKN008 BKN011 OVC018 03/02 A3002 RMK AO2 RAB39 SLP174 P0000 T00330022 $",
  "station": "KBLI",
  "time": {
    "repr": "172153Z",
    "dt": "2022-12-17T21:53:00Z"
  },
  "remarks": "RMK AO2 RAB39 SLP174 P0000 T00330022 $",
  "dewpoint": {
    "repr": "02",
    "value": 2,
    "spoken": "two"
  },
  "relative_humidity": 0.9249173515197439,
  "remarks_info": {
    "maximum_temperature_6": null,
    "minimum_temperature_6": null,
    "pressure_tendency": null,
    "precip_36_hours": null,
    "precip_24_hours": null,
    "sunshine_minutes": null,
    "codes": [
      {
        "repr": "$",
        "value": "ASOS requires maintenance"
      },
      {
        "repr": "AO2",
        "value": "Automated with precipitation sensor"
      },
      {
        "repr": "P0000",
        "value": "Trace amount of rain in the last hour"
      },
      {
        "repr": "RAB39",
        "value": "Rain began at :39"
      }
    ],
    "dewpoint_decimal": {
      "repr": "0022",
      "value": 2.2,
      "spoken": "two point two"
    },
    "maximum_temperature_24": null,
    "minimum_temperature_24": null,
    "precip_hourly": null,
    "sea_level_pressure": {
      "repr": "SLP174",
      "value": 1017.4,
      "spoken": "one zero one seven point four"
    },
    "snow_depth": null,
    "temperature_decimal": {
      "repr": "0033",
      "value": 3.3,
      "spoken": "three point three"
    }
  },
  "runway_visibility": [],
  "temperature": {
    "repr": "03",
    "value": 3,
    "spoken": "three"
  },
  "wind_variable_direction": [],
  "density_altitude": -1293,
  "pressure_altitude": 70,
  "units": {
    "accumulation": "in",
    "altimeter": "inHg",
    "altitude": "ft",
    "temperature": "C",
    "visibility": "sm",
    "wind_speed": "kt"
  }
}
