{
  "meta": {
    "timestamp": "2023-02-14T00:29:54.494472Z",
    "stations_updated": "2023-01-30"
  },
  "altimeter": {
    "repr": "A2976",
    "value": 29.76,
    "spoken": "two nine point seven six"
  },
  "clouds": [
    {
      "repr": "SCT027",
      "type": "SCT",
      "altitude": 27,
      "modifier": null
    },
    {
      "repr": "OVC040",
      "type": "OVC",
      "altitude": 40,
      "modifier": null
    }
  ],
  "flight_rules": "VFR",
  "other": [],
  "visibility": {
    "repr": "10",
    "value": 10,
    "spoken": "one zero"
  },
  "wind_direction": {
    "repr": "320",
    "value": 320,
    "spoken": "three two zero"
  },
  "wind_gust": {
    "repr": "19",
    "value": 19,
    "spoken": "one nine"
  },
  "wind_speed": {
    "repr": "09",
    "value": 9,
    "spoken": "nine"
  },
  "wx_codes": [
    {
      "repr": "-RA",
      "value": "Light Rain"
    }
  ],
  "raw": "KBLI 140003Z 32009G19KT 10SM -RA SCT027 OVC040 06/01 A2976 RMK AO2 WSHFT 2343 RAB2354 P0000 T00610011",
  "sanitized": "KBLI 140003Z 32009G19KT 10SM -RA SCT027 OVC040 06/01 A2976 RMK AO2 WSHFT 2343 RAB2354 P0000 T00610011",
  "station": "KBLI",
  "time": {
    "repr": "140003Z",
    "dt": "2023-02-14T00:03:00Z"
  },
  "remarks": "RMK AO2 WSHFT 2343 RAB2354 P0000 T00610011",
  "dewpoint": {
    "repr": "01",
    "value": 1,
    "spoken": "one"
  },
  "relative_humidity": 0.7030167854424878,
  "remarks_info": {
    "maximum_temperature_6": null,
    "minimum_temperature_6": null,
    "pressure_tendency": null,
    "precip_36_hours": null,
    "precip_24_hours": null,
    "sunshine_minutes": null,
    "codes": [
      {
        "repr": "AO2",
        "value": "Automated with precipitation sensor"
      },
      {
        "repr": "P0000",
        "value": "Trace amount of rain in the last hour"
      }
    ],
    "dewpoint_decimal": {
      "repr": "0011",
      "value": 1.1,
      "spoken": "one point one"
    },
    "maximum_temperature_24": null,
    "minimum_temperature_24": null,
    "precip_hourly": null,
    "sea_level_pressure": null,
    "snow_depth": null,
    "temperature_decimal": {
      "repr": "0061",
      "value": 6.1,
      "spoken": "six point one"
    }
  },
  "runway_visibility": [],
  "temperature": {
    "repr": "06",
    "value": 6,
    "spoken": "six"
  },
  "wind_variable_direction": [],
  "density_altitude": -697,
  "pressure_altitude": 330,
  "units": {
    "accumulation": "in",
    "altimeter": "inHg",
    "altitude": "ft",
    "temperature": "C",
    "visibility": "sm",
    "wind_speed": "kt"
  }
}
