{
  "meta": {
    "timestamp": "2023-08-15T00:23:50.957141Z",
    "stations_updated": "2023-08-05"
  },
  "altimeter": {
    "repr": "A2996",
    "value": 29.96,
    "spoken": "two nine point nine six"
  },
  "clouds": [],
  "flight_rules": "VFR",
  "other": [],
  "visibility": {
    "repr": "10",
    "value": 10,
    "spoken": "one zero"
  },
  "wind_direction": {
    "repr": "280",
    "value": 280,
    "spoken": "two eight zero"
  },
  "wind_gust": null,
  "wind_speed": {
    "repr": "04",
    "value": 4,
    "spoken": "four"
  },
  "wx_codes": [],
  "raw": "KBLI 142353Z 28004KT 10SM CLR 30/17 A2996 RMK AO2 SLP151 T03000172 10306 20261 57016",
  "sanitized": "KBLI 142353Z 28004KT 10SM 30/17 A2996 RMK AO2 SLP151 T03000172 10306 20261 57016",
  "station": "KBLI",
  "time": {
    "repr": "142353Z",
    "dt": "2023-08-14T23:53:00Z"
  },
  "remarks": "RMK AO2 SLP151 T03000172 10306 20261 57016",
  "dewpoint": {
    "repr": "17",
    "value": 17,
    "spoken": "one seven"
  },
  "relative_humidity": 0.4618991786915279,
  "remarks_info": {
    "maximum_temperature_6": {
      "repr": "10306",
      "value": 30.6,
      "spoken": "three zero point six"
    },
    "minimum_temperature_6": {
      "repr": "20261",
      "value": 26.1,
      "spoken": "two six point one"
    },
    "pressure_tendency": {
      "repr": "57016",
      "tendency": "Decreasing steadily or unsteadily",
      "change": 1.6
    },
    "precip_36_hours": null,
    "precip_24_hours": null,
    "sunshine_minutes": null,
    "codes": [
      {
        "repr": "AO2",
        "value": "Automated with precipitation sensor"
      }
    ],
    "dewpoint_decimal": {
      "repr": "0172",
      "value": 17.2,
      "spoken": "one seven point two"
    },
    "maximum_temperature_24": null,
    "minimum_temperature_24": null,
    "precip_hourly": null,
    "sea_level_pressure": {
      "repr": "SLP151",
      "value": 1015.1,
      "spoken": "one zero one five point one"
    },
    "snow_depth": null,
    "temperature_decimal": {
      "repr": "0300",
      "value": 30,
      "spoken": "three zero point zero"
    }
  },
  "runway_visibility": [],
  "temperature": {
    "repr": "30",
    "value": 30,
    "spoken": "three zero"
  },
  "wind_variable_direction": [],
  "density_altitude": 1971,
  "pressure_altitude": 130,
  "units": {
    "accumulation": "in",
    "altimeter": "inHg",
    "altitude": "ft",
    "temperature": "C",
    "visibility": "sm",
    "wind_speed": "kt"
  }
}
