{
  "meta": {
    "timestamp": "2022-11-07T19:02:04.024663Z",
    "stations_updated": "2022-09-05"
  },
  "altimeter": {
    "repr": "A2966",
    "value": 29.66,
    "spoken": "two nine point six six"
  },
  "clouds": [
    {
      "repr": "OVC014",
      "type": "OVC",
      "altitude": 14,
      "modifier": null
    }
  ],
  "flight_rules": "MVFR",
  "other": [],
  "visibility": {
    "repr": "5",
    "value": 5,
    "spoken": "five"
  },
  "wind_direction": {
    "repr": "040",
    "value": 40,
    "spoken": "zero four zero"
  },
  "wind_gust": {
    "repr": "25",
    "value": 25,
    "spoken": "two five"
  },
  "wind_speed": {
    "repr": "14",
    "value": 14,
    "spoken": "one four"
  },
  "wx_codes": [
    {
      "repr": "-SN",
      "value": "Light Snow"
    }
  ],
  "raw": "KBLI 071853Z 04014G25KT 5SM -SN OVC014 01/M04 A2966 RMK AO2 PK WND 05030/1802 SNB1754 SLP052 P0000 T00111039",
  "sanitized": "KBLI 071853Z 04014G25KT 5SM -SN OVC014 01/M04 A2966 RMK AO2 PK WND 05030/1802 SNB1754 SLP052 P0000 T00111039",
  "station": "KBLI",
  "time": {
    "repr": "071853Z",
    "dt": "2022-11-07T18:53:00Z"
  },
  "remarks": "RMK AO2 PK WND 05030/1802 SNB1754 SLP052 P0000 T00111039",
  "dewpoint": {
    "repr": "M04",
    "value": -4,
    "spoken": "minus four"
  },
  "relative_humidity": 0.6927533266475614,
  "remarks_info": {
    "maximum_temperature_6": null,
    "minimum_temperature_6": null,
    "pressure_tendency": null,
    "precip_36_hours": null,
    "precip_24_hours": null,
    "sunshine_minutes": null,
    "codes": [
      {
        "repr": "AO2",
        "value": "Automated with precipitation sensor"
      },
      {
        "repr": "P0000",
        "value": "Trace amount of rain in the last hour"
      }
    ],
    "dewpoint_decimal": {
      "repr": "1039",
      "value": -3.9,
      "spoken": "minus three point nine"
    },
    "maximum_temperature_24": null,
    "minimum_temperature_24": null,
    "precip_hourly": null,
    "sea_level_pressure": {
      "repr": "SLP052",
      "value": 1005.2,
      "spoken": "one zero zero five point two"
    },
    "snow_depth": null,
    "temperature_decimal": {
      "repr": "0011",
      "value": 1.1,
      "spoken": "one point one"
    }
  },
  "runway_visibility": [],
  "temperature": {
    "repr": "01",
    "value": 1,
    "spoken": "one"
  },
  "wind_variable_direction": [],
  "density_altitude": -1197,
  "pressure_altitude": 430,
  "units": {
    "accumulation": "in",
    "altimeter": "inHg",
    "altitude": "ft",
    "temperature": "C",
    "visibility": "sm",
    "wind_speed": "kt"
  }
}
