{
  "altimeter": {
    "repr": "A3040",
    "spoken": "three zero point four zero",
    "value": 30.4
  },
  "clouds": [
    {
      "altitude": 29,
      "modifier": null,
      "repr": "OVC029",
      "type": "OVC"
    }
  ],
  "density_altitude": -1133,
  "dewpoint": {
    "repr": "03",
    "spoken": "three",
    "value": 3
  },
  "flight_rules": "MVFR",
  "meta": {
    "stations_updated": "2024-12-02",
    "timestamp": "2025-01-11T09:40:33.832795Z"
  },
  "other": [],
  "pressure_altitude": -310,
  "raw": "KBLI 110853Z AUTO VRB03KT 10SM OVC029 08/03 A3040 RMK AO2 SLP301 T00780033 51013",
  "relative_humidity": 0.731846990709336,
  "remarks": "RMK AO2 SLP301 T00780033 51013",
  "remarks_info": {
    "codes": [
      {
        "repr": "AO2",
        "value": "Automated with precipitation sensor"
      }
    ],
    "dewpoint_decimal": {
      "repr": "0033",
      "spoken": "three point three",
      "value": 3.3
    },
    "maximum_temperature_24": null,
    "maximum_temperature_6": null,
    "minimum_temperature_24": null,
    "minimum_temperature_6": null,
    "precip_24_hours": null,
    "precip_36_hours": null,
    "precip_hourly": null,
    "pressure_tendency": {
      "change": 1.3,
      "repr": "51013",
      "tendency": "Increasing, then steady"
    },
    "sea_level_pressure": {
      "repr": "SLP301",
      "spoken": "one zero three zero point one",
      "value": 1030.1
    },
    "snow_depth": null,
    "sunshine_minutes": null,
    "temperature_decimal": {
      "repr": "0078",
      "spoken": "seven point eight",
      "value": 7.8
    }
  },
  "runway_visibility": [],
  "sanitized": "KBLI 110853Z VRB03KT 10SM OVC029 08/03 A3040 RMK AO2 SLP301 T00780033 51013",
  "station": "KBLI",
  "temperature": {
    "repr": "08",
    "spoken": "eight",
    "value": 8
  },
  "time": {
    "dt": "2025-01-11T08:53:00Z",
    "repr": "110853Z"
  },
  "units": {
    "accumulation": "in",
    "altimeter": "inHg",
    "altitude": "ft",
    "temperature": "C",
    "visibility": "sm",
    "wind_speed": "kt"
  },
  "visibility": {
    "repr": "10",
    "spoken": "one zero",
    "value": 10
  },
  "wind_direction": {
    "repr": "VRB",
    "spoken": "variable",
    "value": null
  },
  "wind_gust": null,
  "wind_speed": {
    "repr": "03",
    "spoken": "three",
    "value": 3
  },
  "wind_variable_direction": [],
  "wx_codes": []
}
