{
  "altimeter": {
    "repr": "A2961",
    "spoken": "two nine point six one",
    "value": 29.61
  },
  "clouds": [
    {
      "altitude": 23,
      "modifier": null,
      "repr": "FEW023",
      "type": "FEW"
    },
    {
      "altitude": 100,
      "modifier": null,
      "repr": "BKN100",
      "type": "BKN"
    }
  ],
  "density_altitude": -7,
  "dewpoint": {
    "repr": "06",
    "spoken": "six",
    "value": 6
  },
  "flight_rules": "VFR",
  "meta": {
    "cache-timestamp": "2024-06-03T15:26:02.830000Z",
    "stations_updated": "2024-05-13",
    "timestamp": "2024-06-03T15:26:28.588881Z"
  },
  "other": [],
  "pressure_altitude": 480,
  "raw": "KBLI 031453Z 19005KT 10SM FEW023 BKN100 11/06 A2961 RMK AO2 SLP032 60013 T01060061 53067",
  "relative_humidity": 0.7369167861283278,
  "remarks": "RMK AO2 SLP032 60013 T01060061 53067",
  "remarks_info": {
    "codes": [
      {
        "repr": "AO2",
        "value": "Automated with precipitation sensor"
      }
    ],
    "dewpoint_decimal": {
      "repr": "0061",
      "spoken": "six point one",
      "value": 6.1
    },
    "maximum_temperature_24": null,
    "maximum_temperature_6": null,
    "minimum_temperature_24": null,
    "minimum_temperature_6": null,
    "precip_24_hours": null,
    "precip_36_hours": {
      "repr": "60013",
      "spoken": "zero point one three",
      "value": 0.13
    },
    "precip_hourly": null,
    "pressure_tendency": {
      "change": 6.7,
      "repr": "53067",
      "tendency": "Decreasing or steady, then increasing"
    },
    "sea_level_pressure": {
      "repr": "SLP032",
      "spoken": "one zero zero three point two",
      "value": 1003.2
    },
    "snow_depth": null,
    "sunshine_minutes": null,
    "temperature_decimal": {
      "repr": "0106",
      "spoken": "one zero point six",
      "value": 10.6
    }
  },
  "runway_visibility": [],
  "sanitized": "KBLI 031453Z 19005KT 10SM FEW023 BKN100 11/06 A2961 RMK AO2 SLP032 60013 T01060061 53067",
  "station": "KBLI",
  "temperature": {
    "repr": "11",
    "spoken": "one one",
    "value": 11
  },
  "time": {
    "dt": "2024-06-03T14:53:00Z",
    "repr": "031453Z"
  },
  "units": {
    "accumulation": "in",
    "altimeter": "inHg",
    "altitude": "ft",
    "temperature": "C",
    "visibility": "sm",
    "wind_speed": "kt"
  },
  "visibility": {
    "repr": "10",
    "spoken": "one zero",
    "value": 10
  },
  "wind_direction": {
    "repr": "190",
    "spoken": "one nine zero",
    "value": 190
  },
  "wind_gust": null,
  "wind_speed": {
    "repr": "05",
    "spoken": "five",
    "value": 5
  },
  "wind_variable_direction": [],
  "wx_codes": []
}
