{
  "meta": {
    "timestamp": "2023-01-16T10:30:34.461978Z",
    "stations_updated": "2022-12-27",
    "cache-timestamp": "2023-01-16T10:30:04.983000Z"
  },
  "altimeter": {
    "repr": "A2953",
    "value": 29.53,
    "spoken": "two nine point five three"
  },
  "clouds": [
    {
      "repr": "OVC021",
      "type": "OVC",
      "altitude": 21,
      "modifier": null
    }
  ],
  "flight_rules": "MVFR",
  "other": [],
  "visibility": {
    "repr": "10",
    "value": 10,
    "spoken": "one zero"
  },
  "wind_direction": {
    "repr": "160",
    "value": 160,
    "spoken": "one six zero"
  },
  "wind_gust": {
    "repr": "28",
    "value": 28,
    "spoken": "two eight"
  },
  "wind_speed": {
    "repr": "16",
    "value": 16,
    "spoken": "one six"
  },
  "wx_codes": [],
  "raw": "KBLI 160953Z AUTO 16016G28KT 10SM OVC021 08/06 A2953 RMK AO2 PK WND 15029/0916 SLP008 T00830061",
  "sanitized": "KBLI 160953Z 16016G28KT 10SM OVC021 08/06 A2953 RMK AO2 PK WND 15029/0916 SLP008 T00830061",
  "station": "KBLI",
  "time": {
    "repr": "160953Z",
    "dt": "2023-01-16T09:53:00Z"
  },
  "remarks": "RMK AO2 PK WND 15029/0916 SLP008 T00830061",
  "dewpoint": {
    "repr": "06",
    "value": 6,
    "spoken": "six"
  },
  "relative_humidity": 0.8601818874011486,
  "remarks_info": {
    "maximum_temperature_6": null,
    "minimum_temperature_6": null,
    "pressure_tendency": null,
    "precip_36_hours": null,
    "precip_24_hours": null,
    "sunshine_minutes": null,
    "codes": [
      {
        "repr": "AO2",
        "value": "Automated with precipitation sensor"
      }
    ],
    "dewpoint_decimal": {
      "repr": "0061",
      "value": 6.1,
      "spoken": "six point one"
    },
    "maximum_temperature_24": null,
    "minimum_temperature_24": null,
    "precip_hourly": null,
    "sea_level_pressure": {
      "repr": "SLP008",
      "value": 1000.8,
      "spoken": "one zero zero zero point eight"
    },
    "snow_depth": null,
    "temperature_decimal": {
      "repr": "0083",
      "value": 8.3,
      "spoken": "eight point three"
    }
  },
  "runway_visibility": [],
  "temperature": {
    "repr": "08",
    "value": 8,
    "spoken": "eight"
  },
  "wind_variable_direction": [],
  "density_altitude": -203,
  "pressure_altitude": 560,
  "units": {
    "accumulation": "in",
    "altimeter": "inHg",
    "altitude": "ft",
    "temperature": "C",
    "visibility": "sm",
    "wind_speed": "kt"
  }
}
