{
  "altimeter": {
    "repr": "A2989",
    "spoken": "two nine point eight nine",
    "value": 29.89
  },
  "clouds": [],
  "density_altitude": -1223,
  "dewpoint": {
    "repr": "M07",
    "spoken": "minus seven",
    "value": -7
  },
  "flight_rules": "VFR",
  "meta": {
    "stations_updated": "2024-01-01",
    "timestamp": "2024-02-27T08:26:01.308484Z"
  },
  "other": [],
  "pressure_altitude": 200,
  "raw": "KBLI 270753Z AUTO 30010G21KT 10SM CLR 03/M07 A2989 RMK AO2 SLP131 T00281067 400721006",
  "relative_humidity": 0.49617304771050524,
  "remarks": "RMK AO2 SLP131 T00281067 400721006",
  "remarks_info": {
    "codes": [
      {
        "repr": "AO2",
        "value": "Automated with precipitation sensor"
      }
    ],
    "dewpoint_decimal": {
      "repr": "1067",
      "spoken": "minus six point seven",
      "value": -6.7
    },
    "maximum_temperature_24": {
      "repr": "0072",
      "spoken": "seven point two",
      "value": 7.2
    },
    "maximum_temperature_6": null,
    "minimum_temperature_24": {
      "repr": "1006",
      "spoken": "minus zero point six",
      "value": -0.6
    },
    "minimum_temperature_6": null,
    "precip_24_hours": null,
    "precip_36_hours": null,
    "precip_hourly": null,
    "pressure_tendency": null,
    "sea_level_pressure": {
      "repr": "SLP131",
      "spoken": "one zero one three point one",
      "value": 1013.1
    },
    "snow_depth": null,
    "sunshine_minutes": null,
    "temperature_decimal": {
      "repr": "0028",
      "spoken": "two point eight",
      "value": 2.8
    }
  },
  "runway_visibility": [],
  "sanitized": "KBLI 270753Z 30010G21KT 10SM 03/M07 A2989 RMK AO2 SLP131 T00281067 400721006",
  "station": "KBLI",
  "temperature": {
    "repr": "03",
    "spoken": "three",
    "value": 3
  },
  "time": {
    "dt": "2024-02-27T07:53:00Z",
    "repr": "270753Z"
  },
  "units": {
    "accumulation": "in",
    "altimeter": "inHg",
    "altitude": "ft",
    "temperature": "C",
    "visibility": "sm",
    "wind_speed": "kt"
  },
  "visibility": {
    "repr": "10",
    "spoken": "one zero",
    "value": 10
  },
  "wind_direction": {
    "repr": "300",
    "spoken": "three zero zero",
    "value": 300
  },
  "wind_gust": {
    "repr": "21",
    "spoken": "two one",
    "value": 21
  },
  "wind_speed": {
    "repr": "10",
    "spoken": "one zero",
    "value": 10
  },
  "wind_variable_direction": [],
  "wx_codes": []
}
