{
  "altimeter": {
    "repr": "A3004",
    "spoken": "three zero point zero four",
    "value": 30.04
  },
  "clouds": [],
  "density_altitude": 1423,
  "dewpoint": {
    "repr": "18",
    "spoken": "one eight",
    "value": 18
  },
  "flight_rules": "VFR",
  "meta": {
    "stations_updated": "2024-06-12",
    "timestamp": "2024-09-06T00:33:13.165452Z"
  },
  "other": [],
  "pressure_altitude": 50,
  "raw": "KBLI 052353Z 29006KT 10SM CLR 26/18 A3004 RMK AO2 SLP176 T02610178 10294 20239 56017",
  "relative_humidity": 0.6023374919629105,
  "remarks": "RMK AO2 SLP176 T02610178 10294 20239 56017",
  "remarks_info": {
    "codes": [
      {
        "repr": "AO2",
        "value": "Automated with precipitation sensor"
      }
    ],
    "dewpoint_decimal": {
      "repr": "0178",
      "spoken": "one seven point eight",
      "value": 17.8
    },
    "maximum_temperature_24": null,
    "maximum_temperature_6": {
      "repr": "10294",
      "spoken": "two nine point four",
      "value": 29.4
    },
    "minimum_temperature_24": null,
    "minimum_temperature_6": {
      "repr": "20239",
      "spoken": "two three point nine",
      "value": 23.9
    },
    "precip_24_hours": null,
    "precip_36_hours": null,
    "precip_hourly": null,
    "pressure_tendency": {
      "change": 1.7,
      "repr": "56017",
      "tendency": "Decreasing, then steady"
    },
    "sea_level_pressure": {
      "repr": "SLP176",
      "spoken": "one zero one seven point six",
      "value": 1017.6
    },
    "snow_depth": null,
    "sunshine_minutes": null,
    "temperature_decimal": {
      "repr": "0261",
      "spoken": "two six point one",
      "value": 26.1
    }
  },
  "runway_visibility": [],
  "sanitized": "KBLI 052353Z 29006KT 10SM 26/18 A3004 RMK AO2 SLP176 T02610178 10294 20239 56017",
  "station": "KBLI",
  "temperature": {
    "repr": "26",
    "spoken": "two six",
    "value": 26
  },
  "time": {
    "dt": "2024-09-05T23:53:00Z",
    "repr": "052353Z"
  },
  "units": {
    "accumulation": "in",
    "altimeter": "inHg",
    "altitude": "ft",
    "temperature": "C",
    "visibility": "sm",
    "wind_speed": "kt"
  },
  "visibility": {
    "repr": "10",
    "spoken": "one zero",
    "value": 10
  },
  "wind_direction": {
    "repr": "290",
    "spoken": "two nine zero",
    "value": 290
  },
  "wind_gust": null,
  "wind_speed": {
    "repr": "06",
    "spoken": "six",
    "value": 6
  },
  "wind_variable_direction": [],
  "wx_codes": []
}
