{
  "meta": {
    "timestamp": "2022-10-30T17:33:48.983611Z",
    "stations_updated": "2022-09-05"
  },
  "altimeter": {
    "repr": "A3003",
    "value": 30.03,
    "spoken": "three zero point zero three"
  },
  "clouds": [
    {
      "repr": "FEW038",
      "type": "FEW",
      "altitude": 38,
      "modifier": null
    },
    {
      "repr": "OVC048",
      "type": "OVC",
      "altitude": 48,
      "modifier": null
    }
  ],
  "flight_rules": "VFR",
  "other": [],
  "visibility": {
    "repr": "6",
    "value": 6,
    "spoken": "six"
  },
  "wind_direction": {
    "repr": "160",
    "value": 160,
    "spoken": "one six zero"
  },
  "wind_gust": {
    "repr": "27",
    "value": 27,
    "spoken": "two seven"
  },
  "wind_speed": {
    "repr": "18",
    "value": 18,
    "spoken": "one eight"
  },
  "wx_codes": [
    {
      "repr": "-RA",
      "value": "Light Rain"
    },
    {
      "repr": "BR",
      "value": "Mist"
    }
  ],
  "raw": "KBLI 301653Z 16018G27KT 6SM -RA BR FEW038 OVC048 11/09 A3003 RMK AO2 PK WND 16032/1606 SLP175 P0009 T01060094",
  "sanitized": "KBLI 301653Z 16018G27KT 6SM -RA BR FEW038 OVC048 11/09 A3003 RMK AO2 PK WND 16032/1606 SLP175 P0009 T01060094",
  "station": "KBLI",
  "time": {
    "repr": "301653Z",
    "dt": "2022-10-30T16:53:00Z"
  },
  "remarks": "RMK AO2 PK WND 16032/1606 SLP175 P0009 T01060094",
  "dewpoint": {
    "repr": "09",
    "value": 9,
    "spoken": "nine"
  },
  "relative_humidity": 0.9227971730278188,
  "remarks_info": {
    "maximum_temperature_6": null,
    "minimum_temperature_6": null,
    "pressure_tendency": null,
    "precip_36_hours": null,
    "precip_24_hours": null,
    "sunshine_minutes": null,
    "codes": [
      {
        "repr": "AO2",
        "value": "Automated with precipitation sensor"
      }
    ],
    "dewpoint_decimal": {
      "repr": "0094",
      "value": 9.4,
      "spoken": "nine point four"
    },
    "maximum_temperature_24": null,
    "minimum_temperature_24": null,
    "precip_hourly": {
      "repr": "P0009",
      "value": 0.09,
      "spoken": "zero point zero nine"
    },
    "sea_level_pressure": {
      "repr": "SLP175",
      "value": 1017.5,
      "spoken": "one zero one seven point five"
    },
    "snow_depth": null,
    "temperature_decimal": {
      "repr": "0106",
      "value": 10.6,
      "spoken": "one zero point six"
    }
  },
  "runway_visibility": [],
  "temperature": {
    "repr": "11",
    "value": 11,
    "spoken": "one one"
  },
  "wind_variable_direction": [],
  "density_altitude": -427,
  "pressure_altitude": 60,
  "units": {
    "accumulation": "in",
    "altimeter": "inHg",
    "altitude": "ft",
    "temperature": "C",
    "visibility": "sm",
    "wind_speed": "kt"
  }
}
