{
  "altimeter": {
    "repr": "A2992",
    "spoken": "two nine point nine two",
    "value": 29.92
  },
  "clouds": [],
  "density_altitude": 1615,
  "dewpoint": {
    "repr": "17",
    "spoken": "one seven",
    "value": 17
  },
  "flight_rules": "VFR",
  "meta": {
    "stations_updated": "2024-06-12",
    "timestamp": "2024-08-09T00:31:30.187926Z"
  },
  "other": [],
  "pressure_altitude": 170,
  "raw": "KBLI 082353Z 28005KT 10SM CLR 27/17 A2992 RMK AO2 SLP135 T02670172 10267 20217 58019",
  "relative_humidity": 0.5597452501502059,
  "remarks": "RMK AO2 SLP135 T02670172 10267 20217 58019",
  "remarks_info": {
    "codes": [
      {
        "repr": "AO2",
        "value": "Automated with precipitation sensor"
      }
    ],
    "dewpoint_decimal": {
      "repr": "0172",
      "spoken": "one seven point two",
      "value": 17.2
    },
    "maximum_temperature_24": null,
    "maximum_temperature_6": {
      "repr": "10267",
      "spoken": "two six point seven",
      "value": 26.7
    },
    "minimum_temperature_24": null,
    "minimum_temperature_6": {
      "repr": "20217",
      "spoken": "two one point seven",
      "value": 21.7
    },
    "precip_24_hours": null,
    "precip_36_hours": null,
    "precip_hourly": null,
    "pressure_tendency": {
      "change": 1.9,
      "repr": "58019",
      "tendency": "Steady or increasing, then decreasing"
    },
    "sea_level_pressure": {
      "repr": "SLP135",
      "spoken": "one zero one three point five",
      "value": 1013.5
    },
    "snow_depth": null,
    "sunshine_minutes": null,
    "temperature_decimal": {
      "repr": "0267",
      "spoken": "two six point seven",
      "value": 26.7
    }
  },
  "runway_visibility": [],
  "sanitized": "KBLI 082353Z 28005KT 10SM 27/17 A2992 RMK AO2 SLP135 T02670172 10267 20217 58019",
  "station": "KBLI",
  "temperature": {
    "repr": "27",
    "spoken": "two seven",
    "value": 27
  },
  "time": {
    "dt": "2024-08-08T23:53:00Z",
    "repr": "082353Z"
  },
  "units": {
    "accumulation": "in",
    "altimeter": "inHg",
    "altitude": "ft",
    "temperature": "C",
    "visibility": "sm",
    "wind_speed": "kt"
  },
  "visibility": {
    "repr": "10",
    "spoken": "one zero",
    "value": 10
  },
  "wind_direction": {
    "repr": "280",
    "spoken": "two eight zero",
    "value": 280
  },
  "wind_gust": null,
  "wind_speed": {
    "repr": "05",
    "spoken": "five",
    "value": 5
  },
  "wind_variable_direction": [],
  "wx_codes": []
}
