{
  "meta": {
    "timestamp": "2023-05-16T06:40:39.142473Z",
    "stations_updated": "2023-03-11",
    "cache-timestamp": "2023-05-16T06:40:07.108000Z"
  },
  "altimeter": {
    "repr": "A2997",
    "value": 29.97,
    "spoken": "two nine point nine seven"
  },
  "clouds": [],
  "flight_rules": "VFR",
  "other": [],
  "visibility": {
    "repr": "10",
    "value": 10,
    "spoken": "one zero"
  },
  "wind_direction": {
    "repr": "180",
    "value": 180,
    "spoken": "one eight zero"
  },
  "wind_gust": {
    "repr": "21",
    "value": 21,
    "spoken": "two one"
  },
  "wind_speed": {
    "repr": "11",
    "value": 11,
    "spoken": "one one"
  },
  "wx_codes": [],
  "raw": "KBLI 160553Z AUTO 18011G21KT 10SM CLR 21/13 A2997 RMK AO2 PRESRR SLP153 T02060133 10300 20206 53020",
  "sanitized": "KBLI 160553Z 18011G21KT 10SM 21/13 A2997 RMK AO2 PRESRR SLP153 T02060133 10300 20206 53020",
  "station": "KBLI",
  "time": {
    "repr": "160553Z",
    "dt": "2023-05-16T05:53:00Z"
  },
  "remarks": "RMK AO2 PRESRR SLP153 T02060133 10300 20206 53020",
  "dewpoint": {
    "repr": "13",
    "value": 13,
    "spoken": "one three"
  },
  "relative_humidity": 0.6293161583113158,
  "remarks_info": {
    "maximum_temperature_6": {
      "repr": "10300",
      "value": 30,
      "spoken": "three zero point zero"
    },
    "minimum_temperature_6": {
      "repr": "20206",
      "value": 20.6,
      "spoken": "two zero point six"
    },
    "pressure_tendency": {
      "repr": "53020",
      "tendency": "Decreasing or steady, then increasing",
      "change": 2
    },
    "precip_36_hours": null,
    "precip_24_hours": null,
    "sunshine_minutes": null,
    "codes": [
      {
        "repr": "AO2",
        "value": "Automated with precipitation sensor"
      },
      {
        "repr": "PRESRR",
        "value": "Pressure Rising Rapidly"
      }
    ],
    "dewpoint_decimal": {
      "repr": "0133",
      "value": 13.3,
      "spoken": "one three point three"
    },
    "maximum_temperature_24": null,
    "minimum_temperature_24": null,
    "precip_hourly": null,
    "sea_level_pressure": {
      "repr": "SLP153",
      "value": 1015.3,
      "spoken": "one zero one five point three"
    },
    "snow_depth": null,
    "temperature_decimal": {
      "repr": "0206",
      "value": 20.6,
      "spoken": "two zero point six"
    }
  },
  "runway_visibility": [],
  "temperature": {
    "repr": "21",
    "value": 21,
    "spoken": "two one"
  },
  "wind_variable_direction": [],
  "density_altitude": 833,
  "pressure_altitude": 120,
  "units": {
    "accumulation": "in",
    "altimeter": "inHg",
    "altitude": "ft",
    "temperature": "C",
    "visibility": "sm",
    "wind_speed": "kt"
  }
}
