{
  "meta": {
    "timestamp": "2023-06-07T06:40:41.171019Z",
    "stations_updated": "2023-06-06",
    "cache-timestamp": "2023-06-07T06:40:06.788000Z"
  },
  "altimeter": {
    "repr": "A2979",
    "value": 29.79,
    "spoken": "two nine point seven nine"
  },
  "clouds": [],
  "flight_rules": "VFR",
  "other": [],
  "visibility": {
    "repr": "10",
    "value": 10,
    "spoken": "one zero"
  },
  "wind_direction": {
    "repr": "000",
    "value": 0,
    "spoken": "zero zero zero"
  },
  "wind_gust": null,
  "wind_speed": {
    "repr": "00",
    "value": 0,
    "spoken": "zero"
  },
  "wx_codes": [],
  "raw": "KBLI 070553Z AUTO 00000KT 10SM CLR 14/11 A2979 RMK AO2 SLP093 T01390106 10261 20139 53001",
  "sanitized": "KBLI 070553Z 00000KT 10SM 14/11 A2979 RMK AO2 SLP093 T01390106 10261 20139 53001",
  "station": "KBLI",
  "time": {
    "repr": "070553Z",
    "dt": "2023-06-07T05:53:00Z"
  },
  "remarks": "RMK AO2 SLP093 T01390106 10261 20139 53001",
  "dewpoint": {
    "repr": "11",
    "value": 11,
    "spoken": "one one"
  },
  "relative_humidity": 0.8048589656881102,
  "remarks_info": {
    "maximum_temperature_6": {
      "repr": "10261",
      "value": 26.1,
      "spoken": "two six point one"
    },
    "minimum_temperature_6": {
      "repr": "20139",
      "value": 13.9,
      "spoken": "one three point nine"
    },
    "pressure_tendency": {
      "repr": "53001",
      "tendency": "Decreasing or steady, then increasing",
      "change": 0.1
    },
    "precip_36_hours": null,
    "precip_24_hours": null,
    "sunshine_minutes": null,
    "codes": [
      {
        "repr": "AO2",
        "value": "Automated with precipitation sensor"
      }
    ],
    "dewpoint_decimal": {
      "repr": "0106",
      "value": 10.6,
      "spoken": "one zero point six"
    },
    "maximum_temperature_24": null,
    "minimum_temperature_24": null,
    "precip_hourly": null,
    "sea_level_pressure": {
      "repr": "SLP093",
      "value": 1009.3,
      "spoken": "one zero zero nine point three"
    },
    "snow_depth": null,
    "temperature_decimal": {
      "repr": "0139",
      "value": 13.9,
      "spoken": "one three point nine"
    }
  },
  "runway_visibility": [],
  "temperature": {
    "repr": "14",
    "value": 14,
    "spoken": "one four"
  },
  "wind_variable_direction": [],
  "density_altitude": 209,
  "pressure_altitude": 300,
  "units": {
    "accumulation": "in",
    "altimeter": "inHg",
    "altitude": "ft",
    "temperature": "C",
    "visibility": "sm",
    "wind_speed": "kt"
  }
}
