{
  "altimeter": {
    "repr": "A3035",
    "spoken": "three zero point three five",
    "value": 30.35
  },
  "clouds": [
    {
      "altitude": 8,
      "modifier": null,
      "repr": "SCT008",
      "type": "SCT"
    },
    {
      "altitude": 19,
      "modifier": null,
      "repr": "BKN019",
      "type": "BKN"
    },
    {
      "altitude": 40,
      "modifier": null,
      "repr": "OVC040",
      "type": "OVC"
    }
  ],
  "density_altitude": -1623,
  "dewpoint": {
    "repr": "03",
    "spoken": "three",
    "value": 3
  },
  "flight_rules": "MVFR",
  "meta": {
    "stations_updated": "2024-10-29",
    "timestamp": "2024-11-27T15:44:15.584093Z"
  },
  "other": [],
  "pressure_altitude": -260,
  "raw": "KBLI 271503Z 00000KT 6SM -RA BR SCT008 BKN019 OVC040 03/03 A3035 RMK AO2 P0000 T00330033",
  "relative_humidity": 1,
  "remarks": "RMK AO2 P0000 T00330033",
  "remarks_info": {
    "codes": [
      {
        "repr": "AO2",
        "value": "Automated with precipitation sensor"
      },
      {
        "repr": "P0000",
        "value": "Trace amount of rain in the last hour"
      }
    ],
    "dewpoint_decimal": {
      "repr": "0033",
      "spoken": "three point three",
      "value": 3.3
    },
    "maximum_temperature_24": null,
    "maximum_temperature_6": null,
    "minimum_temperature_24": null,
    "minimum_temperature_6": null,
    "precip_24_hours": null,
    "precip_36_hours": null,
    "precip_hourly": null,
    "pressure_tendency": null,
    "sea_level_pressure": null,
    "snow_depth": null,
    "sunshine_minutes": null,
    "temperature_decimal": {
      "repr": "0033",
      "spoken": "three point three",
      "value": 3.3
    }
  },
  "runway_visibility": [],
  "sanitized": "KBLI 271503Z 00000KT 6SM -RA BR SCT008 BKN019 OVC040 03/03 A3035 RMK AO2 P0000 T00330033",
  "station": "KBLI",
  "temperature": {
    "repr": "03",
    "spoken": "three",
    "value": 3
  },
  "time": {
    "dt": "2024-11-27T15:03:00Z",
    "repr": "271503Z"
  },
  "units": {
    "accumulation": "in",
    "altimeter": "inHg",
    "altitude": "ft",
    "temperature": "C",
    "visibility": "sm",
    "wind_speed": "kt"
  },
  "visibility": {
    "repr": "6",
    "spoken": "six",
    "value": 6
  },
  "wind_direction": {
    "repr": "000",
    "spoken": "zero zero zero",
    "value": 0
  },
  "wind_gust": null,
  "wind_speed": {
    "repr": "00",
    "spoken": "zero",
    "value": 0
  },
  "wind_variable_direction": [],
  "wx_codes": [
    {
      "repr": "-RA",
      "value": "Light Rain"
    },
    {
      "repr": "BR",
      "value": "Mist"
    }
  ]
}
