{
  "meta": {
    "timestamp": "2023-10-10T18:27:28.420966Z",
    "stations_updated": "2023-10-01"
  },
  "altimeter": {
    "repr": "A2947",
    "value": 29.47,
    "spoken": "two nine point four seven"
  },
  "clouds": [
    {
      "repr": "BKN070",
      "type": "BKN",
      "altitude": 70,
      "modifier": null
    },
    {
      "repr": "OVC080",
      "type": "OVC",
      "altitude": 80,
      "modifier": null
    }
  ],
  "flight_rules": "VFR",
  "other": [],
  "visibility": {
    "repr": "10",
    "value": 10,
    "spoken": "one zero"
  },
  "wind_direction": {
    "repr": "100",
    "value": 100,
    "spoken": "one zero zero"
  },
  "wind_gust": null,
  "wind_speed": {
    "repr": "06",
    "value": 6,
    "spoken": "six"
  },
  "wx_codes": [
    {
      "repr": "-RA",
      "value": "Light Rain"
    }
  ],
  "raw": "KBLI 101753Z 10006KT 10SM -RA BKN070 OVC080 11/09 A2947 RMK AO2 SLP985 P0003 60004 T01110089 10139 20111 56015",
  "sanitized": "KBLI 101753Z 10006KT 10SM -RA BKN070 OVC080 11/09 A2947 RMK AO2 SLP985 P0003 60004 T01110089 10139 20111 56015",
  "station": "KBLI",
  "time": {
    "repr": "101753Z",
    "dt": "2023-10-10T17:53:00Z"
  },
  "remarks": "RMK AO2 SLP985 P0003 60004 T01110089 10139 20111 56015",
  "dewpoint": {
    "repr": "09",
    "value": 9,
    "spoken": "nine"
  },
  "relative_humidity": 0.8630327743847583,
  "remarks_info": {
    "maximum_temperature_6": {
      "repr": "10139",
      "value": 13.9,
      "spoken": "one three point nine"
    },
    "minimum_temperature_6": {
      "repr": "20111",
      "value": 11.1,
      "spoken": "one one point one"
    },
    "pressure_tendency": {
      "repr": "56015",
      "tendency": "Decreasing, then steady",
      "change": 1.5
    },
    "precip_36_hours": {
      "repr": "60004",
      "value": 0.04,
      "spoken": "zero point zero four"
    },
    "precip_24_hours": null,
    "sunshine_minutes": null,
    "codes": [
      {
        "repr": "AO2",
        "value": "Automated with precipitation sensor"
      }
    ],
    "dewpoint_decimal": {
      "repr": "0089",
      "value": 8.9,
      "spoken": "eight point nine"
    },
    "maximum_temperature_24": null,
    "minimum_temperature_24": null,
    "precip_hourly": {
      "repr": "P0003",
      "value": 0.03,
      "spoken": "zero point zero three"
    },
    "sea_level_pressure": {
      "repr": "SLP985",
      "value": 998.5,
      "spoken": "nine nine eight point five"
    },
    "snow_depth": null,
    "temperature_decimal": {
      "repr": "0111",
      "value": 11.1,
      "spoken": "one one point one"
    }
  },
  "runway_visibility": [],
  "temperature": {
    "repr": "11",
    "value": 11,
    "spoken": "one one"
  },
  "wind_variable_direction": [],
  "density_altitude": 193,
  "pressure_altitude": 620,
  "units": {
    "accumulation": "in",
    "altimeter": "inHg",
    "altitude": "ft",
    "temperature": "C",
    "visibility": "sm",
    "wind_speed": "kt"
  }
}
