{
  "altimeter": {
    "repr": "A2990",
    "spoken": "two nine point nine zero",
    "value": 29.9
  },
  "clouds": [
    {
      "altitude": 22,
      "modifier": null,
      "repr": "OVC022",
      "type": "OVC"
    }
  ],
  "density_altitude": -1305,
  "dewpoint": {
    "repr": "02",
    "spoken": "two",
    "value": 2
  },
  "flight_rules": "MVFR",
  "meta": {
    "stations_updated": "2024-10-29",
    "timestamp": "2024-11-19T09:07:57.483393Z"
  },
  "other": [],
  "pressure_altitude": 190,
  "raw": "KBLI 190853Z AUTO 06003KT 10SM OVC022 02/02 A2990 RMK AO2 RAE0757B16E49UPB02E16 SLP134 P0000 60001 T00220022 56005",
  "relative_humidity": 1,
  "remarks": "RMK AO2 RAE0757B16E49UPB02E16 SLP134 P0000 60001 T00220022 56005",
  "remarks_info": {
    "codes": [
      {
        "repr": "AO2",
        "value": "Automated with precipitation sensor"
      },
      {
        "repr": "P0000",
        "value": "Trace amount of rain in the last hour"
      }
    ],
    "dewpoint_decimal": {
      "repr": "0022",
      "spoken": "two point two",
      "value": 2.2
    },
    "maximum_temperature_24": null,
    "maximum_temperature_6": null,
    "minimum_temperature_24": null,
    "minimum_temperature_6": null,
    "precip_24_hours": null,
    "precip_36_hours": {
      "repr": "60001",
      "spoken": "zero point zero one",
      "value": 0.01
    },
    "precip_hourly": null,
    "pressure_tendency": {
      "change": 0.5,
      "repr": "56005",
      "tendency": "Decreasing, then steady"
    },
    "sea_level_pressure": {
      "repr": "SLP134",
      "spoken": "one zero one three point four",
      "value": 1013.4
    },
    "snow_depth": null,
    "sunshine_minutes": null,
    "temperature_decimal": {
      "repr": "0022",
      "spoken": "two point two",
      "value": 2.2
    }
  },
  "runway_visibility": [],
  "sanitized": "KBLI 190853Z 06003KT 10SM OVC022 02/02 A2990 RMK AO2 RAE0757B16E49UPB02E16 SLP134 P0000 60001 T00220022 56005",
  "station": "KBLI",
  "temperature": {
    "repr": "02",
    "spoken": "two",
    "value": 2
  },
  "time": {
    "dt": "2024-11-19T08:53:00Z",
    "repr": "190853Z"
  },
  "units": {
    "accumulation": "in",
    "altimeter": "inHg",
    "altitude": "ft",
    "temperature": "C",
    "visibility": "sm",
    "wind_speed": "kt"
  },
  "visibility": {
    "repr": "10",
    "spoken": "one zero",
    "value": 10
  },
  "wind_direction": {
    "repr": "060",
    "spoken": "zero six zero",
    "value": 60
  },
  "wind_gust": null,
  "wind_speed": {
    "repr": "03",
    "spoken": "three",
    "value": 3
  },
  "wind_variable_direction": [],
  "wx_codes": []
}
