{
  "altimeter": {
    "repr": "A3025",
    "spoken": "three zero point two five",
    "value": 30.25
  },
  "clouds": [
    {
      "altitude": 2,
      "modifier": null,
      "repr": "OVC002",
      "type": "OVC"
    }
  ],
  "density_altitude": -1847,
  "dewpoint": {
    "repr": "01",
    "spoken": "one",
    "value": 1
  },
  "flight_rules": "LIFR",
  "meta": {
    "cache-timestamp": "2023-12-12T13:40:02.739000Z",
    "stations_updated": "2023-10-28",
    "timestamp": "2023-12-12T13:40:37.095796Z"
  },
  "other": [],
  "pressure_altitude": -160,
  "raw": "KBLI 121327Z AUTO 02005KT 3/4SM R16/5000V6000FT BR OVC002 01/01 A3025 RMK AO2 T00060006",
  "relative_humidity": 1,
  "remarks": "RMK AO2 T00060006",
  "remarks_info": {
    "codes": [
      {
        "repr": "AO2",
        "value": "Automated with precipitation sensor"
      }
    ],
    "dewpoint_decimal": {
      "repr": "0006",
      "spoken": "zero point six",
      "value": 0.6
    },
    "maximum_temperature_24": null,
    "maximum_temperature_6": null,
    "minimum_temperature_24": null,
    "minimum_temperature_6": null,
    "precip_24_hours": null,
    "precip_36_hours": null,
    "precip_hourly": null,
    "pressure_tendency": null,
    "sea_level_pressure": null,
    "snow_depth": null,
    "sunshine_minutes": null,
    "temperature_decimal": {
      "repr": "0006",
      "spoken": "zero point six",
      "value": 0.6
    }
  },
  "runway_visibility": [
    {
      "repr": "R16/5000V6000FT",
      "runway": "16",
      "trend": null,
      "variable_visibility": [
        {
          "repr": "5000",
          "spoken": "five thousand",
          "value": 5000
        },
        {
          "repr": "6000",
          "spoken": "six thousand",
          "value": 6000
        }
      ],
      "visibility": null
    }
  ],
  "sanitized": "KBLI 121327Z 02005KT 3/4SM R16/5000V6000FT BR OVC002 01/01 A3025 RMK AO2 T00060006",
  "station": "KBLI",
  "temperature": {
    "repr": "01",
    "spoken": "one",
    "value": 1
  },
  "time": {
    "dt": "2023-12-12T13:27:00Z",
    "repr": "121327Z"
  },
  "units": {
    "accumulation": "in",
    "altimeter": "inHg",
    "altitude": "ft",
    "temperature": "C",
    "visibility": "sm",
    "wind_speed": "kt"
  },
  "visibility": {
    "denominator": 4,
    "normalized": "3/4",
    "numerator": 3,
    "repr": "3/4",
    "spoken": "three quarters",
    "value": 0.75
  },
  "wind_direction": {
    "repr": "020",
    "spoken": "zero two zero",
    "value": 20
  },
  "wind_gust": null,
  "wind_speed": {
    "repr": "05",
    "spoken": "five",
    "value": 5
  },
  "wind_variable_direction": [],
  "wx_codes": [
    {
      "repr": "BR",
      "value": "Mist"
    }
  ]
}
