{
  "meta": {
    "timestamp": "2023-03-24T10:28:17.133064Z",
    "stations_updated": "2023-03-11",
    "cache-timestamp": "2023-03-24T10:28:06.683000Z"
  },
  "altimeter": {
    "repr": "A3003",
    "value": 30.03,
    "spoken": "three zero point zero three"
  },
  "clouds": [
    {
      "repr": "SCT028",
      "type": "SCT",
      "altitude": 28,
      "modifier": null
    },
    {
      "repr": "SCT034",
      "type": "SCT",
      "altitude": 34,
      "modifier": null
    },
    {
      "repr": "OVC085",
      "type": "OVC",
      "altitude": 85,
      "modifier": null
    }
  ],
  "flight_rules": "VFR",
  "other": [],
  "visibility": {
    "repr": "10",
    "value": 10,
    "spoken": "one zero"
  },
  "wind_direction": {
    "repr": "160",
    "value": 160,
    "spoken": "one six zero"
  },
  "wind_gust": null,
  "wind_speed": {
    "repr": "08",
    "value": 8,
    "spoken": "eight"
  },
  "wx_codes": [
    {
      "repr": "-RA",
      "value": "Light Rain"
    }
  ],
  "raw": "KBLI 241000Z AUTO 16008KT 10SM -RA SCT028 SCT034 OVC085 04/03 A3003 RMK AO2 P0000 T00440033",
  "sanitized": "KBLI 241000Z 16008KT 10SM -RA SCT028 SCT034 OVC085 04/03 A3003 RMK AO2 P0000 T00440033",
  "station": "KBLI",
  "time": {
    "repr": "241000Z",
    "dt": "2023-03-24T10:00:00Z"
  },
  "remarks": "RMK AO2 P0000 T00440033",
  "dewpoint": {
    "repr": "03",
    "value": 3,
    "spoken": "three"
  },
  "relative_humidity": 0.9255582325082627,
  "remarks_info": {
    "maximum_temperature_6": null,
    "minimum_temperature_6": null,
    "pressure_tendency": null,
    "precip_36_hours": null,
    "precip_24_hours": null,
    "sunshine_minutes": null,
    "codes": [
      {
        "repr": "AO2",
        "value": "Automated with precipitation sensor"
      },
      {
        "repr": "P0000",
        "value": "Trace amount of rain in the last hour"
      }
    ],
    "dewpoint_decimal": {
      "repr": "0033",
      "value": 3.3,
      "spoken": "three point three"
    },
    "maximum_temperature_24": null,
    "minimum_temperature_24": null,
    "precip_hourly": null,
    "sea_level_pressure": null,
    "snow_depth": null,
    "temperature_decimal": {
      "repr": "0044",
      "value": 4.4,
      "spoken": "four point four"
    }
  },
  "runway_visibility": [],
  "temperature": {
    "repr": "04",
    "value": 4,
    "spoken": "four"
  },
  "wind_variable_direction": [],
  "density_altitude": -1171,
  "pressure_altitude": 60,
  "units": {
    "accumulation": "in",
    "altimeter": "inHg",
    "altitude": "ft",
    "temperature": "C",
    "visibility": "sm",
    "wind_speed": "kt"
  }
}
