{
  "altimeter": {
    "repr": "A3010",
    "spoken": "three zero point one zero",
    "value": 30.1
  },
  "clouds": [
    {
      "altitude": 15,
      "modifier": null,
      "repr": "FEW015",
      "type": "FEW"
    },
    {
      "altitude": 20,
      "modifier": null,
      "repr": "OVC020",
      "type": "OVC"
    }
  ],
  "density_altitude": -1169,
  "dewpoint": {
    "repr": "05",
    "spoken": "five",
    "value": 5
  },
  "flight_rules": "MVFR",
  "meta": {
    "stations_updated": "2024-12-02",
    "timestamp": "2025-01-05T12:47:54.485768Z"
  },
  "other": [],
  "pressure_altitude": -10,
  "raw": "KBLI 051153Z AUTO 01004KT 6SM BR FEW015 OVC020 05/05 A3010 RMK AO2 SLP202 60008 70019 T00500050 10056 20050 51024",
  "relative_humidity": 1,
  "remarks": "RMK AO2 SLP202 60008 70019 T00500050 10056 20050 51024",
  "remarks_info": {
    "codes": [
      {
        "repr": "AO2",
        "value": "Automated with precipitation sensor"
      }
    ],
    "dewpoint_decimal": {
      "repr": "0050",
      "spoken": "five point zero",
      "value": 5
    },
    "maximum_temperature_24": null,
    "maximum_temperature_6": {
      "repr": "10056",
      "spoken": "five point six",
      "value": 5.6
    },
    "minimum_temperature_24": null,
    "minimum_temperature_6": {
      "repr": "20050",
      "spoken": "five point zero",
      "value": 5
    },
    "precip_24_hours": {
      "repr": "70019",
      "spoken": "zero point one nine",
      "value": 0.19
    },
    "precip_36_hours": {
      "repr": "60008",
      "spoken": "zero point zero eight",
      "value": 0.08
    },
    "precip_hourly": null,
    "pressure_tendency": {
      "change": 2.4,
      "repr": "51024",
      "tendency": "Increasing, then steady"
    },
    "sea_level_pressure": {
      "repr": "SLP202",
      "spoken": "one zero two zero point two",
      "value": 1020.2
    },
    "snow_depth": null,
    "sunshine_minutes": null,
    "temperature_decimal": {
      "repr": "0050",
      "spoken": "five point zero",
      "value": 5
    }
  },
  "runway_visibility": [],
  "sanitized": "KBLI 051153Z 01004KT 6SM BR FEW015 OVC020 05/05 A3010 RMK AO2 SLP202 60008 70019 T00500050 10056 20050 51024",
  "station": "KBLI",
  "temperature": {
    "repr": "05",
    "spoken": "five",
    "value": 5
  },
  "time": {
    "dt": "2025-01-05T11:53:00Z",
    "repr": "051153Z"
  },
  "units": {
    "accumulation": "in",
    "altimeter": "inHg",
    "altitude": "ft",
    "temperature": "C",
    "visibility": "sm",
    "wind_speed": "kt"
  },
  "visibility": {
    "repr": "6",
    "spoken": "six",
    "value": 6
  },
  "wind_direction": {
    "repr": "010",
    "spoken": "zero one zero",
    "value": 10
  },
  "wind_gust": null,
  "wind_speed": {
    "repr": "04",
    "spoken": "four",
    "value": 4
  },
  "wind_variable_direction": [],
  "wx_codes": [
    {
      "repr": "BR",
      "value": "Mist"
    }
  ]
}
