{
  "altimeter": {
    "repr": "A3059",
    "spoken": "three zero point five nine",
    "value": 30.59
  },
  "clouds": [],
  "density_altitude": -2331,
  "dewpoint": {
    "repr": "M04",
    "spoken": "minus four",
    "value": -4
  },
  "flight_rules": "VFR",
  "meta": {
    "stations_updated": "2024-12-02",
    "timestamp": "2025-01-20T18:09:15.379921Z"
  },
  "other": [],
  "pressure_altitude": -500,
  "raw": "KBLI 201753Z 03004KT 10SM CLR M01/M04 A3059 RMK AO2 SLP367 T10061044 11006 21050 56005",
  "relative_humidity": 0.7546344692995841,
  "remarks": "RMK AO2 SLP367 T10061044 11006 21050 56005",
  "remarks_info": {
    "codes": [
      {
        "repr": "AO2",
        "value": "Automated with precipitation sensor"
      }
    ],
    "dewpoint_decimal": {
      "repr": "1044",
      "spoken": "minus four point four",
      "value": -4.4
    },
    "maximum_temperature_24": null,
    "maximum_temperature_6": {
      "repr": "11006",
      "spoken": "minus zero point six",
      "value": -0.6
    },
    "minimum_temperature_24": null,
    "minimum_temperature_6": {
      "repr": "21050",
      "spoken": "minus five point zero",
      "value": -5.0
    },
    "precip_24_hours": null,
    "precip_36_hours": null,
    "precip_hourly": null,
    "pressure_tendency": {
      "change": 0.5,
      "repr": "56005",
      "tendency": "Decreasing, then steady"
    },
    "sea_level_pressure": {
      "repr": "SLP367",
      "spoken": "one zero three six point seven",
      "value": 1036.7
    },
    "snow_depth": null,
    "sunshine_minutes": null,
    "temperature_decimal": {
      "repr": "1006",
      "spoken": "minus zero point six",
      "value": -0.6
    }
  },
  "runway_visibility": [],
  "sanitized": "KBLI 201753Z 03004KT 10SM M01/M04 A3059 RMK AO2 SLP367 T10061044 11006 21050 56005",
  "station": "KBLI",
  "temperature": {
    "repr": "M01",
    "spoken": "minus one",
    "value": -1
  },
  "time": {
    "dt": "2025-01-20T17:53:00Z",
    "repr": "201753Z"
  },
  "units": {
    "accumulation": "in",
    "altimeter": "inHg",
    "altitude": "ft",
    "temperature": "C",
    "visibility": "sm",
    "wind_speed": "kt"
  },
  "visibility": {
    "repr": "10",
    "spoken": "one zero",
    "value": 10
  },
  "wind_direction": {
    "repr": "030",
    "spoken": "zero three zero",
    "value": 30
  },
  "wind_gust": null,
  "wind_speed": {
    "repr": "04",
    "spoken": "four",
    "value": 4
  },
  "wind_variable_direction": [],
  "wx_codes": []
}
