{
  "altimeter": {
    "repr": "A2979",
    "spoken": "two nine point seven nine",
    "value": 29.79
  },
  "clouds": [],
  "density_altitude": 941,
  "dewpoint": {
    "repr": "07",
    "spoken": "seven",
    "value": 7
  },
  "flight_rules": "VFR",
  "meta": {
    "stations_updated": "2023-10-28",
    "timestamp": "2024-01-30T03:03:43.291057Z"
  },
  "other": [],
  "pressure_altitude": 300,
  "raw": "KBLI 300253Z 17011G23KT 10SM CLR 20/07 A2979 RMK AO2 SLP093 T02000067 56020",
  "relative_humidity": 0.41979070532828444,
  "remarks": "RMK AO2 SLP093 T02000067 56020",
  "remarks_info": {
    "codes": [
      {
        "repr": "AO2",
        "value": "Automated with precipitation sensor"
      }
    ],
    "dewpoint_decimal": {
      "repr": "0067",
      "spoken": "six point seven",
      "value": 6.7
    },
    "maximum_temperature_24": null,
    "maximum_temperature_6": null,
    "minimum_temperature_24": null,
    "minimum_temperature_6": null,
    "precip_24_hours": null,
    "precip_36_hours": null,
    "precip_hourly": null,
    "pressure_tendency": {
      "change": 2,
      "repr": "56020",
      "tendency": "Decreasing, then steady"
    },
    "sea_level_pressure": {
      "repr": "SLP093",
      "spoken": "one zero zero nine point three",
      "value": 1009.3
    },
    "snow_depth": null,
    "sunshine_minutes": null,
    "temperature_decimal": {
      "repr": "0200",
      "spoken": "two zero point zero",
      "value": 20
    }
  },
  "runway_visibility": [],
  "sanitized": "KBLI 300253Z 17011G23KT 10SM 20/07 A2979 RMK AO2 SLP093 T02000067 56020",
  "station": "KBLI",
  "temperature": {
    "repr": "20",
    "spoken": "two zero",
    "value": 20
  },
  "time": {
    "dt": "2024-01-30T02:53:00Z",
    "repr": "300253Z"
  },
  "units": {
    "accumulation": "in",
    "altimeter": "inHg",
    "altitude": "ft",
    "temperature": "C",
    "visibility": "sm",
    "wind_speed": "kt"
  },
  "visibility": {
    "repr": "10",
    "spoken": "one zero",
    "value": 10
  },
  "wind_direction": {
    "repr": "170",
    "spoken": "one seven zero",
    "value": 170
  },
  "wind_gust": {
    "repr": "23",
    "spoken": "two three",
    "value": 23
  },
  "wind_speed": {
    "repr": "11",
    "spoken": "one one",
    "value": 11
  },
  "wind_variable_direction": [],
  "wx_codes": []
}
