{
  "meta": {
    "timestamp": "2022-09-10T18:07:22.681994Z",
    "stations_updated": "2022-07-17"
  },
  "altimeter": {
    "repr": "A2990",
    "value": 29.9,
    "spoken": "two nine point nine zero"
  },
  "clouds": [
    {
      "repr": "SCT040",
      "type": "SCT",
      "altitude": 40,
      "modifier": null
    }
  ],
  "flight_rules": "MVFR",
  "other": [],
  "visibility": {
    "repr": "3",
    "value": 3,
    "spoken": "three"
  },
  "wind_direction": {
    "repr": "000",
    "value": 0,
    "spoken": "zero zero zero"
  },
  "wind_gust": null,
  "wind_speed": {
    "repr": "00",
    "value": 0,
    "spoken": "zero"
  },
  "wx_codes": [
    {
      "repr": "FU",
      "value": "Smoke"
    }
  ],
  "raw": "KBLI 101753Z 00000KT 3SM FU SCT040 21/11 A2990 RMK AO2 SLP130 T02110106 10217 20083 50000 $",
  "sanitized": "KBLI 101753Z 00000KT 3SM FU SCT040 21/11 A2990 RMK AO2 SLP130 T02110106 10217 20083 50000 $",
  "station": "KBLI",
  "time": {
    "repr": "101753Z",
    "dt": "2022-09-10T17:53:00Z"
  },
  "remarks": "RMK AO2 SLP130 T02110106 10217 20083 50000 $",
  "dewpoint": {
    "repr": "11",
    "value": 11,
    "spoken": "one one"
  },
  "relative_humidity": 0.5107169722752292,
  "remarks_info": {
    "maximum_temperature_6": {
      "repr": "10217",
      "value": 21.7,
      "spoken": "two one point seven"
    },
    "minimum_temperature_6": {
      "repr": "20083",
      "value": 8.3,
      "spoken": "eight point three"
    },
    "pressure_tendency": {
      "repr": "50000",
      "tendency": "Increasing, then decreasing",
      "change": 0
    },
    "precip_36_hours": null,
    "precip_24_hours": null,
    "sunshine_minutes": null,
    "codes": [
      {
        "repr": "$",
        "value": "ASOS requires maintenance"
      },
      {
        "repr": "AO2",
        "value": "Automated with precipitation sensor"
      }
    ],
    "dewpoint_decimal": {
      "repr": "0106",
      "value": 10.6,
      "spoken": "one zero point six"
    },
    "maximum_temperature_24": null,
    "minimum_temperature_24": null,
    "precip_hourly": null,
    "sea_level_pressure": {
      "repr": "SLP130",
      "value": 1013,
      "spoken": "one zero one three point zero"
    },
    "snow_depth": null,
    "temperature_decimal": {
      "repr": "0211",
      "value": 21.1,
      "spoken": "two one point one"
    }
  },
  "runway_visibility": [],
  "temperature": {
    "repr": "21",
    "value": 21,
    "spoken": "two one"
  },
  "wind_variable_direction": [],
  "density_altitude": 963,
  "pressure_altitude": 190,
  "units": {
    "accumulation": "in",
    "altimeter": "inHg",
    "altitude": "ft",
    "temperature": "C",
    "visibility": "sm",
    "wind_speed": "kt"
  }
}
