{
  "meta": {
    "timestamp": "2023-01-14T10:27:44.383894Z",
    "stations_updated": "2022-12-27"
  },
  "altimeter": {
    "repr": "A2962",
    "value": 29.62,
    "spoken": "two nine point six two"
  },
  "clouds": [
    {
      "repr": "OVC020",
      "type": "OVC",
      "altitude": 20,
      "modifier": null
    }
  ],
  "flight_rules": "MVFR",
  "other": [],
  "visibility": {
    "repr": "10",
    "value": 10,
    "spoken": "one zero"
  },
  "wind_direction": {
    "repr": "170",
    "value": 170,
    "spoken": "one seven zero"
  },
  "wind_gust": {
    "repr": "23",
    "value": 23,
    "spoken": "two three"
  },
  "wind_speed": {
    "repr": "13",
    "value": 13,
    "spoken": "one three"
  },
  "wx_codes": [],
  "raw": "KBLI 140953Z AUTO 17013G23KT 10SM OVC020 11/09 A2962 RMK AO2 RAE05 SLP035 P0000 T01110089",
  "sanitized": "KBLI 140953Z 17013G23KT 10SM OVC020 11/09 A2962 RMK AO2 RAE05 SLP035 P0000 T01110089",
  "station": "KBLI",
  "time": {
    "repr": "140953Z",
    "dt": "2023-01-14T09:53:00Z"
  },
  "remarks": "RMK AO2 RAE05 SLP035 P0000 T01110089",
  "dewpoint": {
    "repr": "09",
    "value": 9,
    "spoken": "nine"
  },
  "relative_humidity": 0.8630327743847583,
  "remarks_info": {
    "maximum_temperature_6": null,
    "minimum_temperature_6": null,
    "pressure_tendency": null,
    "precip_36_hours": null,
    "precip_24_hours": null,
    "sunshine_minutes": null,
    "codes": [
      {
        "repr": "AO2",
        "value": "Automated with precipitation sensor"
      },
      {
        "repr": "P0000",
        "value": "Trace amount of rain in the last hour"
      },
      {
        "repr": "RAE05",
        "value": "Rain ended at :05"
      }
    ],
    "dewpoint_decimal": {
      "repr": "0089",
      "value": 8.9,
      "spoken": "eight point nine"
    },
    "maximum_temperature_24": null,
    "minimum_temperature_24": null,
    "precip_hourly": null,
    "sea_level_pressure": {
      "repr": "SLP035",
      "value": 1003.5,
      "spoken": "one zero zero three point five"
    },
    "snow_depth": null,
    "temperature_decimal": {
      "repr": "0111",
      "value": 11.1,
      "spoken": "one one point one"
    }
  },
  "runway_visibility": [],
  "temperature": {
    "repr": "11",
    "value": 11,
    "spoken": "one one"
  },
  "wind_variable_direction": [],
  "density_altitude": 43,
  "pressure_altitude": 470,
  "units": {
    "accumulation": "in",
    "altimeter": "inHg",
    "altitude": "ft",
    "temperature": "C",
    "visibility": "sm",
    "wind_speed": "kt"
  }
}
