{
  "altimeter": {
    "repr": "A3001",
    "spoken": "three zero point zero one",
    "value": 30.01
  },
  "clouds": [],
  "density_altitude": -479,
  "dewpoint": {
    "repr": "02",
    "spoken": "two",
    "value": 2
  },
  "flight_rules": "VFR",
  "meta": {
    "stations_updated": "2023-10-28",
    "timestamp": "2023-11-17T22:01:48.124841Z"
  },
  "other": [],
  "pressure_altitude": 80,
  "raw": "KBLI 172153Z 05006KT 10SM CLR 10/02 A3001 RMK AO2 SLP171 T01000017",
  "relative_humidity": 0.56296756500167,
  "remarks": "RMK AO2 SLP171 T01000017",
  "remarks_info": {
    "codes": [
      {
        "repr": "AO2",
        "value": "Automated with precipitation sensor"
      }
    ],
    "dewpoint_decimal": {
      "repr": "0017",
      "spoken": "one point seven",
      "value": 1.7
    },
    "maximum_temperature_24": null,
    "maximum_temperature_6": null,
    "minimum_temperature_24": null,
    "minimum_temperature_6": null,
    "precip_24_hours": null,
    "precip_36_hours": null,
    "precip_hourly": null,
    "pressure_tendency": null,
    "sea_level_pressure": {
      "repr": "SLP171",
      "spoken": "one zero one seven point one",
      "value": 1017.1
    },
    "snow_depth": null,
    "sunshine_minutes": null,
    "temperature_decimal": {
      "repr": "0100",
      "spoken": "one zero point zero",
      "value": 10
    }
  },
  "runway_visibility": [],
  "sanitized": "KBLI 172153Z 05006KT 10SM 10/02 A3001 RMK AO2 SLP171 T01000017",
  "station": "KBLI",
  "temperature": {
    "repr": "10",
    "spoken": "one zero",
    "value": 10
  },
  "time": {
    "dt": "2023-11-17T21:53:00Z",
    "repr": "172153Z"
  },
  "units": {
    "accumulation": "in",
    "altimeter": "inHg",
    "altitude": "ft",
    "temperature": "C",
    "visibility": "sm",
    "wind_speed": "kt"
  },
  "visibility": {
    "repr": "10",
    "spoken": "one zero",
    "value": 10
  },
  "wind_direction": {
    "repr": "050",
    "spoken": "zero five zero",
    "value": 50
  },
  "wind_gust": null,
  "wind_speed": {
    "repr": "06",
    "spoken": "six",
    "value": 6
  },
  "wind_variable_direction": [],
  "wx_codes": []
}
