{
  "altimeter": {
    "repr": "A2967",
    "spoken": "two nine point six seven",
    "value": 29.67
  },
  "clouds": [
    {
      "altitude": 25,
      "modifier": null,
      "repr": "FEW025",
      "type": "FEW"
    },
    {
      "altitude": 35,
      "modifier": null,
      "repr": "SCT035",
      "type": "SCT"
    },
    {
      "altitude": 70,
      "modifier": null,
      "repr": "BKN070",
      "type": "BKN"
    }
  ],
  "density_altitude": -139,
  "dewpoint": {
    "repr": "04",
    "spoken": "four",
    "value": 4
  },
  "flight_rules": "VFR",
  "meta": {
    "stations_updated": "2024-01-01",
    "timestamp": "2024-03-09T21:01:07.475725Z"
  },
  "other": [],
  "pressure_altitude": 420,
  "raw": "KBLI 092053Z 17021G36KT 10SM FEW025 SCT035 BKN070 10/04 A2967 RMK AO2 PK WND 16042/2009 RAB37E46 SLP055 P0000 60000 T01000044 51004",
  "relative_humidity": 0.6815300343738803,
  "remarks": "RMK AO2 PK WND 16042/2009 RAB37E46 SLP055 P0000 60000 T01000044 51004",
  "remarks_info": {
    "codes": [
      {
        "repr": "AO2",
        "value": "Automated with precipitation sensor"
      },
      {
        "repr": "P0000",
        "value": "Trace amount of rain in the last hour"
      }
    ],
    "dewpoint_decimal": {
      "repr": "0044",
      "spoken": "four point four",
      "value": 4.4
    },
    "maximum_temperature_24": null,
    "maximum_temperature_6": null,
    "minimum_temperature_24": null,
    "minimum_temperature_6": null,
    "precip_24_hours": null,
    "precip_36_hours": {
      "repr": "60000",
      "spoken": "zero",
      "value": 0
    },
    "precip_hourly": null,
    "pressure_tendency": {
      "change": 0.4,
      "repr": "51004",
      "tendency": "Increasing, then steady"
    },
    "sea_level_pressure": {
      "repr": "SLP055",
      "spoken": "one zero zero five point five",
      "value": 1005.5
    },
    "snow_depth": null,
    "sunshine_minutes": null,
    "temperature_decimal": {
      "repr": "0100",
      "spoken": "one zero point zero",
      "value": 10
    }
  },
  "runway_visibility": [],
  "sanitized": "KBLI 092053Z 17021G36KT 10SM FEW025 SCT035 BKN070 10/04 A2967 RMK AO2 PK WND 16042/2009 RAB37E46 SLP055 P0000 60000 T01000044 51004",
  "station": "KBLI",
  "temperature": {
    "repr": "10",
    "spoken": "one zero",
    "value": 10
  },
  "time": {
    "dt": "2024-03-09T20:53:00Z",
    "repr": "092053Z"
  },
  "units": {
    "accumulation": "in",
    "altimeter": "inHg",
    "altitude": "ft",
    "temperature": "C",
    "visibility": "sm",
    "wind_speed": "kt"
  },
  "visibility": {
    "repr": "10",
    "spoken": "one zero",
    "value": 10
  },
  "wind_direction": {
    "repr": "170",
    "spoken": "one seven zero",
    "value": 170
  },
  "wind_gust": {
    "repr": "36",
    "spoken": "three six",
    "value": 36
  },
  "wind_speed": {
    "repr": "21",
    "spoken": "two one",
    "value": 21
  },
  "wind_variable_direction": [],
  "wx_codes": []
}
