{
  "meta": {
    "timestamp": "2022-08-14T06:37:00.633313Z",
    "stations_updated": "2022-07-17"
  },
  "altimeter": {
    "repr": "A3016",
    "value": 30.16,
    "spoken": "three zero point one six"
  },
  "clouds": [],
  "flight_rules": "VFR",
  "other": [],
  "visibility": {
    "repr": "10",
    "value": 10,
    "spoken": "one zero"
  },
  "wind_direction": {
    "repr": "200",
    "value": 200,
    "spoken": "two zero zero"
  },
  "wind_gust": null,
  "wind_speed": {
    "repr": "04",
    "value": 4,
    "spoken": "four"
  },
  "wx_codes": [],
  "raw": "KBLI 140553Z AUTO 20004KT 10SM CLR 16/15 A3016 RMK AO2 SLP218 T01610150 10233 20144 58000",
  "sanitized": "KBLI 140553Z 20004KT 10SM 16/15 A3016 RMK AO2 SLP218 T01610150 10233 20144 58000",
  "station": "KBLI",
  "time": {
    "repr": "140553Z",
    "dt": "2022-08-14T05:53:00Z"
  },
  "remarks": "RMK AO2 SLP218 T01610150 10233 20144 58000",
  "dewpoint": {
    "repr": "15",
    "value": 15,
    "spoken": "one five"
  },
  "relative_humidity": 0.9319014346226949,
  "remarks_info": {
    "maximum_temperature_6": {
      "repr": "10233",
      "value": 23.3,
      "spoken": "two three point three"
    },
    "minimum_temperature_6": {
      "repr": "20144",
      "value": 14.4,
      "spoken": "one four point four"
    },
    "pressure_tendency": {
      "repr": "58000",
      "tendency": "Steady or increasing, then decreasing",
      "change": 0
    },
    "precip_36_hours": null,
    "precip_24_hours": null,
    "sunshine_minutes": null,
    "codes": [
      {
        "repr": "AO2",
        "value": "Automated with precipitation sensor"
      }
    ],
    "dewpoint_decimal": {
      "repr": "0150",
      "value": 15,
      "spoken": "one five point zero"
    },
    "maximum_temperature_24": null,
    "minimum_temperature_24": null,
    "precip_hourly": null,
    "sea_level_pressure": {
      "repr": "SLP218",
      "value": 1021.8,
      "spoken": "one zero two one point eight"
    },
    "snow_depth": null,
    "temperature_decimal": {
      "repr": "0161",
      "value": 16.1,
      "spoken": "one six point one"
    }
  },
  "runway_visibility": [],
  "temperature": {
    "repr": "16",
    "value": 16,
    "spoken": "one six"
  },
  "wind_variable_direction": [],
  "density_altitude": 103,
  "pressure_altitude": -70,
  "units": {
    "accumulation": "in",
    "altimeter": "inHg",
    "altitude": "ft",
    "temperature": "C",
    "visibility": "sm",
    "wind_speed": "kt"
  }
}
