{
  "meta": {
    "timestamp": "2023-05-18T00:26:50.457146Z",
    "stations_updated": "2023-03-11",
    "cache-timestamp": "2023-05-18T00:26:06.158000Z"
  },
  "altimeter": {
    "repr": "A2988",
    "value": 29.88,
    "spoken": "two nine point eight eight"
  },
  "clouds": [],
  "flight_rules": "VFR",
  "other": [],
  "visibility": {
    "repr": "10",
    "value": 10,
    "spoken": "one zero"
  },
  "wind_direction": {
    "repr": "250",
    "value": 250,
    "spoken": "two five zero"
  },
  "wind_gust": null,
  "wind_speed": {
    "repr": "04",
    "value": 4,
    "spoken": "four"
  },
  "wx_codes": [],
  "raw": "KBLI 172353Z 25004KT 10SM CLR 24/15 A2988 RMK AO2 SLP123 T02440150 10250 20178 58024",
  "sanitized": "KBLI 172353Z 25004KT 10SM 24/15 A2988 RMK AO2 SLP123 T02440150 10250 20178 58024",
  "station": "KBLI",
  "time": {
    "repr": "172353Z",
    "dt": "2023-05-17T23:53:00Z"
  },
  "remarks": "RMK AO2 SLP123 T02440150 10250 20178 58024",
  "dewpoint": {
    "repr": "15",
    "value": 15,
    "spoken": "one five"
  },
  "relative_humidity": 0.5576503026422408,
  "remarks_info": {
    "maximum_temperature_6": {
      "repr": "10250",
      "value": 25,
      "spoken": "two five point zero"
    },
    "minimum_temperature_6": {
      "repr": "20178",
      "value": 17.8,
      "spoken": "one seven point eight"
    },
    "pressure_tendency": {
      "repr": "58024",
      "tendency": "Steady or increasing, then decreasing",
      "change": 2.4
    },
    "precip_36_hours": null,
    "precip_24_hours": null,
    "sunshine_minutes": null,
    "codes": [
      {
        "repr": "AO2",
        "value": "Automated with precipitation sensor"
      }
    ],
    "dewpoint_decimal": {
      "repr": "0150",
      "value": 15,
      "spoken": "one five point zero"
    },
    "maximum_temperature_24": null,
    "minimum_temperature_24": null,
    "precip_hourly": null,
    "sea_level_pressure": {
      "repr": "SLP123",
      "value": 1012.3,
      "spoken": "one zero one two point three"
    },
    "snow_depth": null,
    "temperature_decimal": {
      "repr": "0244",
      "value": 24.4,
      "spoken": "two four point four"
    }
  },
  "runway_visibility": [],
  "temperature": {
    "repr": "24",
    "value": 24,
    "spoken": "two four"
  },
  "wind_variable_direction": [],
  "density_altitude": 1379,
  "pressure_altitude": 210,
  "units": {
    "accumulation": "in",
    "altimeter": "inHg",
    "altitude": "ft",
    "temperature": "C",
    "visibility": "sm",
    "wind_speed": "kt"
  }
}
