{
  "altimeter": {
    "repr": "A2996",
    "spoken": "two nine point nine six",
    "value": 29.96
  },
  "clouds": [
    {
      "altitude": 1,
      "modifier": null,
      "repr": "OVC001",
      "type": "OVC"
    }
  ],
  "density_altitude": -33,
  "dewpoint": {
    "repr": "13",
    "spoken": "one three",
    "value": 13
  },
  "flight_rules": "LIFR",
  "meta": {
    "stations_updated": "2024-06-12",
    "timestamp": "2024-09-24T12:51:36.880489Z"
  },
  "other": [],
  "pressure_altitude": 130,
  "raw": "KBLI 241235Z AUTO 00000KT 3/4SM R16/2400V3500FT BR OVC001 13/13 A2996 RMK AO2 T01330133",
  "relative_humidity": 1,
  "remarks": "RMK AO2 T01330133",
  "remarks_info": {
    "codes": [
      {
        "repr": "AO2",
        "value": "Automated with precipitation sensor"
      }
    ],
    "dewpoint_decimal": {
      "repr": "0133",
      "spoken": "one three point three",
      "value": 13.3
    },
    "maximum_temperature_24": null,
    "maximum_temperature_6": null,
    "minimum_temperature_24": null,
    "minimum_temperature_6": null,
    "precip_24_hours": null,
    "precip_36_hours": null,
    "precip_hourly": null,
    "pressure_tendency": null,
    "sea_level_pressure": null,
    "snow_depth": null,
    "sunshine_minutes": null,
    "temperature_decimal": {
      "repr": "0133",
      "spoken": "one three point three",
      "value": 13.3
    }
  },
  "runway_visibility": [
    {
      "repr": "R16/2400V3500FT",
      "runway": "16",
      "trend": null,
      "variable_visibility": [
        {
          "repr": "2400",
          "spoken": "two four hundred",
          "value": 2400
        },
        {
          "repr": "3500",
          "spoken": "three five hundred",
          "value": 3500
        }
      ],
      "visibility": null
    }
  ],
  "sanitized": "KBLI 241235Z 00000KT 3/4SM R16/2400V3500FT BR OVC001 13/13 A2996 RMK AO2 T01330133",
  "station": "KBLI",
  "temperature": {
    "repr": "13",
    "spoken": "one three",
    "value": 13
  },
  "time": {
    "dt": "2024-09-24T12:35:00Z",
    "repr": "241235Z"
  },
  "units": {
    "accumulation": "in",
    "altimeter": "inHg",
    "altitude": "ft",
    "temperature": "C",
    "visibility": "sm",
    "wind_speed": "kt"
  },
  "visibility": {
    "denominator": 4,
    "normalized": "3/4",
    "numerator": 3,
    "repr": "3/4",
    "spoken": "three quarters",
    "value": 0.75
  },
  "wind_direction": {
    "repr": "000",
    "spoken": "zero zero zero",
    "value": 0
  },
  "wind_gust": null,
  "wind_speed": {
    "repr": "00",
    "spoken": "zero",
    "value": 0
  },
  "wind_variable_direction": [],
  "wx_codes": [
    {
      "repr": "BR",
      "value": "Mist"
    }
  ]
}
