{
  "meta": {
    "timestamp": "2022-10-08T19:29:35.206738Z",
    "stations_updated": "2022-09-05"
  },
  "altimeter": {
    "repr": "A3019",
    "value": 30.19,
    "spoken": "three zero point one nine"
  },
  "clouds": [],
  "flight_rules": "VFR",
  "other": [],
  "visibility": {
    "repr": "6",
    "value": 6,
    "spoken": "six"
  },
  "wind_direction": {
    "repr": "VRB",
    "value": null,
    "spoken": "variable"
  },
  "wind_gust": null,
  "wind_speed": {
    "repr": "04",
    "value": 4,
    "spoken": "four"
  },
  "wx_codes": [
    {
      "repr": "HZ",
      "value": "Haze"
    },
    {
      "repr": "FU",
      "value": "Smoke"
    }
  ],
  "raw": "KBLI 081853Z VRB04KT 6SM HZ FU CLR 21/12 A3019 RMK AO2 SLP230 T02060122 $",
  "sanitized": "KBLI 081853Z VRB04KT 6SM HZ FU 21/12 A3019 RMK AO2 SLP230 T02060122 $",
  "station": "KBLI",
  "time": {
    "repr": "081853Z",
    "dt": "2022-10-08T18:53:00Z"
  },
  "remarks": "RMK AO2 SLP230 T02060122 $",
  "dewpoint": {
    "repr": "12",
    "value": 12,
    "spoken": "one two"
  },
  "relative_humidity": 0.5855524803615992,
  "remarks_info": {
    "maximum_temperature_6": null,
    "minimum_temperature_6": null,
    "pressure_tendency": null,
    "precip_36_hours": null,
    "precip_24_hours": null,
    "sunshine_minutes": null,
    "codes": [
      {
        "repr": "$",
        "value": "ASOS requires maintenance"
      },
      {
        "repr": "AO2",
        "value": "Automated with precipitation sensor"
      }
    ],
    "dewpoint_decimal": {
      "repr": "0122",
      "value": 12.2,
      "spoken": "one two point two"
    },
    "maximum_temperature_24": null,
    "minimum_temperature_24": null,
    "precip_hourly": null,
    "sea_level_pressure": {
      "repr": "SLP230",
      "value": 1023,
      "spoken": "one zero two three point zero"
    },
    "snow_depth": null,
    "temperature_decimal": {
      "repr": "0206",
      "value": 20.6,
      "spoken": "two zero point six"
    }
  },
  "runway_visibility": [],
  "temperature": {
    "repr": "21",
    "value": 21,
    "spoken": "two one"
  },
  "wind_variable_direction": [],
  "density_altitude": 613,
  "pressure_altitude": -100,
  "units": {
    "accumulation": "in",
    "altimeter": "inHg",
    "altitude": "ft",
    "temperature": "C",
    "visibility": "sm",
    "wind_speed": "kt"
  }
}
