{
  "altimeter": {
    "repr": "A2955",
    "spoken": "two nine point five five",
    "value": 29.55
  },
  "clouds": [
    {
      "altitude": 18,
      "modifier": null,
      "repr": "OVC018",
      "type": "OVC"
    }
  ],
  "density_altitude": 509,
  "dewpoint": {
    "repr": "13",
    "spoken": "one three",
    "value": 13
  },
  "flight_rules": "MVFR",
  "meta": {
    "cache-timestamp": "2024-06-03T03:28:02.819000Z",
    "stations_updated": "2024-05-13",
    "timestamp": "2024-06-03T03:28:30.353468Z"
  },
  "other": [],
  "pressure_altitude": 540,
  "raw": "KBLI 030253Z 18015G27KT 10SM OVC018 14/13 A2955 RMK AO2 PK WND 16032/0208 RAE33 SLP011 P0001 60002 T01440128 55011",
  "relative_humidity": 0.9010909286896165,
  "remarks": "RMK AO2 PK WND 16032/0208 RAE33 SLP011 P0001 60002 T01440128 55011",
  "remarks_info": {
    "codes": [
      {
        "repr": "AO2",
        "value": "Automated with precipitation sensor"
      },
      {
        "repr": "RAE33",
        "value": "Rain ended at :33"
      }
    ],
    "dewpoint_decimal": {
      "repr": "0128",
      "spoken": "one two point eight",
      "value": 12.8
    },
    "maximum_temperature_24": null,
    "maximum_temperature_6": null,
    "minimum_temperature_24": null,
    "minimum_temperature_6": null,
    "precip_24_hours": null,
    "precip_36_hours": {
      "repr": "60002",
      "spoken": "zero point zero two",
      "value": 0.02
    },
    "precip_hourly": {
      "repr": "P0001",
      "spoken": "zero point zero one",
      "value": 0.01
    },
    "pressure_tendency": {
      "change": 1.1,
      "repr": "55011",
      "tendency": "Decreasing, then increasing"
    },
    "sea_level_pressure": {
      "repr": "SLP011",
      "spoken": "one zero zero one point one",
      "value": 1001.1
    },
    "snow_depth": null,
    "sunshine_minutes": null,
    "temperature_decimal": {
      "repr": "0144",
      "spoken": "one four point four",
      "value": 14.4
    }
  },
  "runway_visibility": [],
  "sanitized": "KBLI 030253Z 18015G27KT 10SM OVC018 14/13 A2955 RMK AO2 PK WND 16032/0208 RAE33 SLP011 P0001 60002 T01440128 55011",
  "station": "KBLI",
  "temperature": {
    "repr": "14",
    "spoken": "one four",
    "value": 14
  },
  "time": {
    "dt": "2024-06-03T02:53:00Z",
    "repr": "030253Z"
  },
  "units": {
    "accumulation": "in",
    "altimeter": "inHg",
    "altitude": "ft",
    "temperature": "C",
    "visibility": "sm",
    "wind_speed": "kt"
  },
  "visibility": {
    "repr": "10",
    "spoken": "one zero",
    "value": 10
  },
  "wind_direction": {
    "repr": "180",
    "spoken": "one eight zero",
    "value": 180
  },
  "wind_gust": {
    "repr": "27",
    "spoken": "two seven",
    "value": 27
  },
  "wind_speed": {
    "repr": "15",
    "spoken": "one five",
    "value": 15
  },
  "wind_variable_direction": [],
  "wx_codes": []
}
