{
  "meta": {
    "timestamp": "2023-10-21T18:26:57.168187Z",
    "stations_updated": "2023-10-01",
    "cache-timestamp": "2023-10-21T18:26:09.858000Z"
  },
  "altimeter": {
    "repr": "A2991",
    "value": 29.91,
    "spoken": "two nine point nine one"
  },
  "clouds": [
    {
      "repr": "OVC007",
      "type": "OVC",
      "altitude": 7,
      "modifier": null
    }
  ],
  "flight_rules": "IFR",
  "other": [],
  "visibility": {
    "repr": "2",
    "value": 2,
    "spoken": "two"
  },
  "wind_direction": {
    "repr": "000",
    "value": 0,
    "spoken": "zero zero zero"
  },
  "wind_gust": null,
  "wind_speed": {
    "repr": "00",
    "value": 0,
    "spoken": "zero"
  },
  "wx_codes": [
    {
      "repr": "BR",
      "value": "Mist"
    }
  ],
  "raw": "KBLI 211800Z 00000KT 2SM BR OVC007 12/11 A2991 RMK AO2 CIG 004V009 T01220111 KBLI 211753Z 00000KT 1 1/2SM BR OVC005 12/11 A2992 RMK AO2 CIG 003V009 SLP137 T01170111 10117 20106 51000 KBLI 211750Z 02003KT 1 1/2SM BR OVC005 12/11 A2991 RMK AO2 CIG 003V008 KBLI 211720Z 01004KT 1SM R16/P6000FT BR OVC004 12/11 A2992 RMK AO2 T01170111 KBLI 211653Z 00000KT 3/4SM R16/P6000FT BR OVC003 11/11 A2992 RMK AO2 SLP139 T01110111 KBLI 211633Z 33004KT 3/4SM R16/P6000FT BR OVC002 11/11 A2992 RMK AO2 T01110111",
  "sanitized": "KBLI 211800Z 00000KT 2SM BR OVC007 12/11 A2991 RMK AO2 CIG 004V009 T01220111 KBLI 211753Z 00000KT 1 1/2SM BR OVC005 12/11 A2992 RMK AO2 CIG 003V009 SLP137 T01170111 10117 20106 51000 KBLI 211750Z 02003KT 1 1/2SM BR OVC005 12/11 A2991 RMK AO2 CIG 003V008 KBLI 211720Z 01004KT 1SM R16/P6000FT BR OVC004 12/11 A2992 RMK AO2 T01170111 KBLI 211653Z 00000KT 3/4SM R16/P6000FT BR OVC003 11/11 A2992 RMK AO2 SLP139 T01110111 KBLI 211633Z 33004KT 3/4SM R16/P6000FT BR OVC002 11/11 A2992 RMK AO2 T01110111",
  "station": "KBLI",
  "time": {
    "repr": "211800Z",
    "dt": "2023-10-21T18:00:00Z"
  },
  "remarks": "RMK AO2 CIG 004V009 T01220111 KBLI 211753Z 00000KT 1 1/2SM BR OVC005 12/11 A2992 RMK AO2 CIG 003V009 SLP137 T01170111 10117 20106 51000 KBLI 211750Z 02003KT 1 1/2SM BR OVC005 12/11 A2991 RMK AO2 CIG 003V008 KBLI 211720Z 01004KT 1SM R16/P6000FT BR OVC004 12/11 A2992 RMK AO2 T01170111 KBLI 211653Z 00000KT 3/4SM R16/P6000FT BR OVC003 11/11 A2992 RMK AO2 SLP139 T01110111 KBLI 211633Z 33004KT 3/4SM R16/P6000FT BR OVC002 11/11 A2992 RMK AO2 T01110111",
  "dewpoint": {
    "repr": "11",
    "value": 11,
    "spoken": "one one"
  },
  "relative_humidity": 1,
  "remarks_info": {
    "maximum_temperature_6": {
      "repr": "10117",
      "value": 11.7,
      "spoken": "one one point seven"
    },
    "minimum_temperature_6": {
      "repr": "20106",
      "value": 10.6,
      "spoken": "one zero point six"
    },
    "pressure_tendency": {
      "repr": "51000",
      "tendency": "Increasing, then steady",
      "change": 0
    },
    "precip_36_hours": null,
    "precip_24_hours": null,
    "sunshine_minutes": null,
    "codes": [
      {
        "repr": "AO2",
        "value": "Automated with precipitation sensor"
      },
      {
        "repr": "AO2",
        "value": "Automated with precipitation sensor"
      },
      {
        "repr": "AO2",
        "value": "Automated with precipitation sensor"
      },
      {
        "repr": "AO2",
        "value": "Automated with precipitation sensor"
      },
      {
        "repr": "AO2",
        "value": "Automated with precipitation sensor"
      },
      {
        "repr": "AO2",
        "value": "Automated with precipitation sensor"
      }
    ],
    "dewpoint_decimal": {
      "repr": "0111",
      "value": 11.1,
      "spoken": "one one point one"
    },
    "maximum_temperature_24": null,
    "minimum_temperature_24": null,
    "precip_hourly": null,
    "sea_level_pressure": {
      "repr": "SLP137",
      "value": 1013.7,
      "spoken": "one zero one three point seven"
    },
    "snow_depth": null,
    "temperature_decimal": {
      "repr": "0111",
      "value": 11.1,
      "spoken": "one one point one"
    }
  },
  "runway_visibility": [],
  "temperature": {
    "repr": "12",
    "value": 12,
    "spoken": "one two"
  },
  "wind_variable_direction": [],
  "density_altitude": -247,
  "pressure_altitude": 180,
  "units": {
    "accumulation": "in",
    "altimeter": "inHg",
    "altitude": "ft",
    "temperature": "C",
    "visibility": "sm",
    "wind_speed": "kt"
  }
}
