{
  "meta": {
    "timestamp": "2023-02-28T08:33:36.846319Z",
    "stations_updated": "2023-01-30",
    "cache-timestamp": "2023-02-28T08:33:06.585000Z"
  },
  "altimeter": {
    "repr": "A2937",
    "value": 29.37,
    "spoken": "two nine point three seven"
  },
  "clouds": [
    {
      "repr": "FEW060",
      "type": "FEW",
      "altitude": 60,
      "modifier": null
    },
    {
      "repr": "SCT085",
      "type": "SCT",
      "altitude": 85,
      "modifier": null
    }
  ],
  "flight_rules": "VFR",
  "other": [],
  "visibility": {
    "repr": "10",
    "value": 10,
    "spoken": "one zero"
  },
  "wind_direction": {
    "repr": "030",
    "value": 30,
    "spoken": "zero three zero"
  },
  "wind_gust": null,
  "wind_speed": {
    "repr": "03",
    "value": 3,
    "spoken": "three"
  },
  "wx_codes": [],
  "raw": "KBLI 280753Z AUTO 03003KT 10SM FEW060 SCT085 01/M01 A2937 RMK AO2 SLP955 T00061006 400391011",
  "sanitized": "KBLI 280753Z 03003KT 10SM FEW060 SCT085 01/M01 A2937 RMK AO2 SLP955 T00061006 400391011",
  "station": "KBLI",
  "time": {
    "repr": "280753Z",
    "dt": "2023-02-28T07:53:00Z"
  },
  "remarks": "RMK AO2 SLP955 T00061006 400391011",
  "dewpoint": {
    "repr": "M01",
    "value": -1,
    "spoken": "minus one"
  },
  "relative_humidity": 0.9166032044861565,
  "remarks_info": {
    "maximum_temperature_6": null,
    "minimum_temperature_6": null,
    "pressure_tendency": null,
    "precip_36_hours": null,
    "precip_24_hours": null,
    "sunshine_minutes": null,
    "codes": [
      {
        "repr": "AO2",
        "value": "Automated with precipitation sensor"
      }
    ],
    "dewpoint_decimal": {
      "repr": "1006",
      "value": -0.6,
      "spoken": "minus zero point six"
    },
    "maximum_temperature_24": {
      "repr": "0039",
      "value": 3.9,
      "spoken": "three point nine"
    },
    "minimum_temperature_24": {
      "repr": "1011",
      "value": -1.1,
      "spoken": "minus one point one"
    },
    "precip_hourly": null,
    "sea_level_pressure": {
      "repr": "SLP955",
      "value": 995.5,
      "spoken": "nine nine five point five"
    },
    "snow_depth": null,
    "temperature_decimal": {
      "repr": "0006",
      "value": 0.6,
      "spoken": "zero point six"
    }
  },
  "runway_visibility": [],
  "temperature": {
    "repr": "01",
    "value": 1,
    "spoken": "one"
  },
  "wind_variable_direction": [],
  "density_altitude": -967,
  "pressure_altitude": 720,
  "units": {
    "accumulation": "in",
    "altimeter": "inHg",
    "altitude": "ft",
    "temperature": "C",
    "visibility": "sm",
    "wind_speed": "kt"
  }
}
