{
  "meta": {
    "timestamp": "2022-12-27T09:02:16.826253Z",
    "stations_updated": "2022-09-05"
  },
  "altimeter": {
    "repr": "A2897",
    "value": 28.97,
    "spoken": "two eight point nine seven"
  },
  "clouds": [
    {
      "repr": "OVC030",
      "type": "OVC",
      "altitude": 30,
      "modifier": null
    }
  ],
  "flight_rules": "MVFR",
  "other": [],
  "visibility": {
    "repr": "10",
    "value": 10,
    "spoken": "one zero"
  },
  "wind_direction": {
    "repr": "050",
    "value": 50,
    "spoken": "zero five zero"
  },
  "wind_gust": null,
  "wind_speed": {
    "repr": "08",
    "value": 8,
    "spoken": "eight"
  },
  "wx_codes": [],
  "raw": "KBLI 270853Z AUTO 05008KT 10SM OVC030 08/08 A2897 RMK AO2 RAE21 SLP816 P0001 60005 T00830083 56058",
  "sanitized": "KBLI 270853Z 05008KT 10SM OVC030 08/08 A2897 RMK AO2 RAE21 SLP816 P0001 60005 T00830083 56058",
  "station": "KBLI",
  "time": {
    "repr": "270853Z",
    "dt": "2022-12-27T08:53:00Z"
  },
  "remarks": "RMK AO2 RAE21 SLP816 P0001 60005 T00830083 56058",
  "dewpoint": {
    "repr": "08",
    "value": 8,
    "spoken": "eight"
  },
  "relative_humidity": 1,
  "remarks_info": {
    "maximum_temperature_6": null,
    "minimum_temperature_6": null,
    "pressure_tendency": {
      "repr": "56058",
      "tendency": "Decreasing, then steady",
      "change": 5.8
    },
    "precip_36_hours": {
      "repr": "60005",
      "value": 0.05,
      "spoken": "zero point zero five"
    },
    "precip_24_hours": null,
    "sunshine_minutes": null,
    "codes": [
      {
        "repr": "AO2",
        "value": "Automated with precipitation sensor"
      },
      {
        "repr": "RAE21",
        "value": "Rain ended at :21"
      }
    ],
    "dewpoint_decimal": {
      "repr": "0083",
      "value": 8.3,
      "spoken": "eight point three"
    },
    "maximum_temperature_24": null,
    "minimum_temperature_24": null,
    "precip_hourly": {
      "repr": "P0001",
      "value": 0.01,
      "spoken": "zero point zero one"
    },
    "sea_level_pressure": {
      "repr": "SLP816",
      "value": 981.6,
      "spoken": "nine eight one point six"
    },
    "snow_depth": null,
    "temperature_decimal": {
      "repr": "0083",
      "value": 8.3,
      "spoken": "eight point three"
    }
  },
  "runway_visibility": [],
  "temperature": {
    "repr": "08",
    "value": 8,
    "spoken": "eight"
  },
  "wind_variable_direction": [],
  "density_altitude": 357,
  "pressure_altitude": 1120,
  "units": {
    "accumulation": "in",
    "altimeter": "inHg",
    "altitude": "ft",
    "temperature": "C",
    "visibility": "sm",
    "wind_speed": "kt"
  }
}
