{
  "meta": {
    "timestamp": "2022-12-27T14:24:49.566095Z",
    "stations_updated": "2022-09-05"
  },
  "altimeter": {
    "repr": "A2882",
    "value": 28.82,
    "spoken": "two eight point eight two"
  },
  "clouds": [
    {
      "repr": "BKN042",
      "type": "BKN",
      "altitude": 42,
      "modifier": null
    },
    {
      "repr": "BKN080",
      "type": "BKN",
      "altitude": 80,
      "modifier": null
    },
    {
      "repr": "OVC090",
      "type": "OVC",
      "altitude": 90,
      "modifier": null
    }
  ],
  "flight_rules": "VFR",
  "other": [],
  "visibility": {
    "repr": "10",
    "value": 10,
    "spoken": "one zero"
  },
  "wind_direction": {
    "repr": "100",
    "value": 100,
    "spoken": "one zero zero"
  },
  "wind_gust": null,
  "wind_speed": {
    "repr": "08",
    "value": 8,
    "spoken": "eight"
  },
  "wx_codes": [],
  "raw": "KBLI 271353Z AUTO 10008KT 10SM BKN042 BKN080 OVC090 11/09 A2882 RMK AO2 RAE53 SLP766 P0001 T01110089",
  "sanitized": "KBLI 271353Z 10008KT 10SM BKN042 BKN080 OVC090 11/09 A2882 RMK AO2 RAE53 SLP766 P0001 T01110089",
  "station": "KBLI",
  "time": {
    "repr": "271353Z",
    "dt": "2022-12-27T13:53:00Z"
  },
  "remarks": "RMK AO2 RAE53 SLP766 P0001 T01110089",
  "dewpoint": {
    "repr": "09",
    "value": 9,
    "spoken": "nine"
  },
  "relative_humidity": 0.8630327743847583,
  "remarks_info": {
    "maximum_temperature_6": null,
    "minimum_temperature_6": null,
    "pressure_tendency": null,
    "precip_36_hours": null,
    "precip_24_hours": null,
    "sunshine_minutes": null,
    "codes": [
      {
        "repr": "AO2",
        "value": "Automated with precipitation sensor"
      },
      {
        "repr": "RAE53",
        "value": "Rain ended at :53"
      }
    ],
    "dewpoint_decimal": {
      "repr": "0089",
      "value": 8.9,
      "spoken": "eight point nine"
    },
    "maximum_temperature_24": null,
    "minimum_temperature_24": null,
    "precip_hourly": {
      "repr": "P0001",
      "value": 0.01,
      "spoken": "zero point zero one"
    },
    "sea_level_pressure": {
      "repr": "SLP766",
      "value": 976.6,
      "spoken": "nine seven six point six"
    },
    "snow_depth": null,
    "temperature_decimal": {
      "repr": "0111",
      "value": 11.1,
      "spoken": "one one point one"
    }
  },
  "runway_visibility": [],
  "temperature": {
    "repr": "11",
    "value": 11,
    "spoken": "one one"
  },
  "wind_variable_direction": [],
  "density_altitude": 843,
  "pressure_altitude": 1270,
  "units": {
    "accumulation": "in",
    "altimeter": "inHg",
    "altitude": "ft",
    "temperature": "C",
    "visibility": "sm",
    "wind_speed": "kt"
  }
}
