{
  "meta": {
    "timestamp": "2023-06-30T18:06:44.765329Z",
    "stations_updated": "2023-06-06",
    "cache-timestamp": "2023-06-30T18:06:03.489000Z"
  },
  "altimeter": {
    "repr": "A3010",
    "value": 30.1,
    "spoken": "three zero point one zero"
  },
  "clouds": [],
  "flight_rules": "VFR",
  "other": [],
  "visibility": {
    "repr": "10",
    "value": 10,
    "spoken": "one zero"
  },
  "wind_direction": {
    "repr": "VRB",
    "value": null,
    "spoken": "variable"
  },
  "wind_gust": null,
  "wind_speed": {
    "repr": "06",
    "value": 6,
    "spoken": "six"
  },
  "wx_codes": [],
  "raw": "KBLI 301753Z VRB06KT 10SM CLR 19/15 A3010 RMK AO2 SLP200 T01890150 10189 20139 50001",
  "sanitized": "KBLI 301753Z VRB06KT 10SM 19/15 A3010 RMK AO2 SLP200 T01890150 10189 20139 50001",
  "station": "KBLI",
  "time": {
    "repr": "301753Z",
    "dt": "2023-06-30T17:53:00Z"
  },
  "remarks": "RMK AO2 SLP200 T01890150 10189 20139 50001",
  "dewpoint": {
    "repr": "15",
    "value": 15,
    "spoken": "one five"
  },
  "relative_humidity": 0.7808389532239374,
  "remarks_info": {
    "maximum_temperature_6": {
      "repr": "10189",
      "value": 18.9,
      "spoken": "one eight point nine"
    },
    "minimum_temperature_6": {
      "repr": "20139",
      "value": 13.9,
      "spoken": "one three point nine"
    },
    "pressure_tendency": {
      "repr": "50001",
      "tendency": "Increasing, then decreasing",
      "change": 0.1
    },
    "precip_36_hours": null,
    "precip_24_hours": null,
    "sunshine_minutes": null,
    "codes": [
      {
        "repr": "AO2",
        "value": "Automated with precipitation sensor"
      }
    ],
    "dewpoint_decimal": {
      "repr": "0150",
      "value": 15,
      "spoken": "one five point zero"
    },
    "maximum_temperature_24": null,
    "minimum_temperature_24": null,
    "precip_hourly": null,
    "sea_level_pressure": {
      "repr": "SLP200",
      "value": 1020,
      "spoken": "one zero two zero point zero"
    },
    "snow_depth": null,
    "temperature_decimal": {
      "repr": "0189",
      "value": 18.9,
      "spoken": "one eight point nine"
    }
  },
  "runway_visibility": [],
  "temperature": {
    "repr": "19",
    "value": 19,
    "spoken": "one nine"
  },
  "wind_variable_direction": [],
  "density_altitude": 499,
  "pressure_altitude": -10,
  "units": {
    "accumulation": "in",
    "altimeter": "inHg",
    "altitude": "ft",
    "temperature": "C",
    "visibility": "sm",
    "wind_speed": "kt"
  }
}
