{
  "altimeter": {
    "repr": "A3013",
    "spoken": "three zero point one three",
    "value": 30.13
  },
  "clouds": [
    {
      "altitude": 100,
      "modifier": null,
      "repr": "FEW100",
      "type": "FEW"
    }
  ],
  "density_altitude": -1667,
  "dewpoint": {
    "repr": "01",
    "spoken": "one",
    "value": 1
  },
  "flight_rules": "MVFR",
  "meta": {
    "stations_updated": "2023-10-28",
    "timestamp": "2023-12-16T10:27:40.559743Z"
  },
  "other": [],
  "pressure_altitude": -40,
  "raw": "KBLI 161019Z AUTO 33003KT 4SM R16/5000VP6000FT BR FEW100 01/01 A3013 RMK AO2 T00110011",
  "relative_humidity": 1,
  "remarks": "RMK AO2 T00110011",
  "remarks_info": {
    "codes": [
      {
        "repr": "AO2",
        "value": "Automated with precipitation sensor"
      }
    ],
    "dewpoint_decimal": {
      "repr": "0011",
      "spoken": "one point one",
      "value": 1.1
    },
    "maximum_temperature_24": null,
    "maximum_temperature_6": null,
    "minimum_temperature_24": null,
    "minimum_temperature_6": null,
    "precip_24_hours": null,
    "precip_36_hours": null,
    "precip_hourly": null,
    "pressure_tendency": null,
    "sea_level_pressure": null,
    "snow_depth": null,
    "sunshine_minutes": null,
    "temperature_decimal": {
      "repr": "0011",
      "spoken": "one point one",
      "value": 1.1
    }
  },
  "runway_visibility": [
    {
      "repr": "R16/5000VP6000FT",
      "runway": "16",
      "trend": null,
      "variable_visibility": [
        {
          "repr": "5000",
          "spoken": "five thousand",
          "value": 5000
        },
        {
          "repr": "P6000",
          "spoken": "greater than six thousand",
          "value": null
        }
      ],
      "visibility": null
    }
  ],
  "sanitized": "KBLI 161019Z 33003KT 4SM R16/5000VP6000FT BR FEW100 01/01 A3013 RMK AO2 T00110011",
  "station": "KBLI",
  "temperature": {
    "repr": "01",
    "spoken": "one",
    "value": 1
  },
  "time": {
    "dt": "2023-12-16T10:19:00Z",
    "repr": "161019Z"
  },
  "units": {
    "accumulation": "in",
    "altimeter": "inHg",
    "altitude": "ft",
    "temperature": "C",
    "visibility": "sm",
    "wind_speed": "kt"
  },
  "visibility": {
    "repr": "4",
    "spoken": "four",
    "value": 4
  },
  "wind_direction": {
    "repr": "330",
    "spoken": "three three zero",
    "value": 330
  },
  "wind_gust": null,
  "wind_speed": {
    "repr": "03",
    "spoken": "three",
    "value": 3
  },
  "wind_variable_direction": [],
  "wx_codes": [
    {
      "repr": "BR",
      "value": "Mist"
    }
  ]
}
