{
  "altimeter": {
    "repr": "A3019",
    "spoken": "three zero point one nine",
    "value": 30.19
  },
  "clouds": [],
  "density_altitude": -2663,
  "dewpoint": {
    "repr": "M11",
    "spoken": "minus one one",
    "value": -11
  },
  "flight_rules": "VFR",
  "meta": {
    "stations_updated": "2023-10-28",
    "timestamp": "2024-01-16T11:01:11.106578Z"
  },
  "other": [],
  "pressure_altitude": -100,
  "raw": "KBLI 161053Z AUTO 00000KT 10SM CLR M07/M11 A3019 RMK AO2 SLP236 T10671111",
  "relative_humidity": 0.7089222304473171,
  "remarks": "RMK AO2 SLP236 T10671111",
  "remarks_info": {
    "codes": [
      {
        "repr": "AO2",
        "value": "Automated with precipitation sensor"
      }
    ],
    "dewpoint_decimal": {
      "repr": "1111",
      "spoken": "minus one one point one",
      "value": -11.1
    },
    "maximum_temperature_24": null,
    "maximum_temperature_6": null,
    "minimum_temperature_24": null,
    "minimum_temperature_6": null,
    "precip_24_hours": null,
    "precip_36_hours": null,
    "precip_hourly": null,
    "pressure_tendency": null,
    "sea_level_pressure": {
      "repr": "SLP236",
      "spoken": "one zero two three point six",
      "value": 1023.6
    },
    "snow_depth": null,
    "sunshine_minutes": null,
    "temperature_decimal": {
      "repr": "1067",
      "spoken": "minus six point seven",
      "value": -6.7
    }
  },
  "runway_visibility": [],
  "sanitized": "KBLI 161053Z 00000KT 10SM M07/M11 A3019 RMK AO2 SLP236 T10671111",
  "station": "KBLI",
  "temperature": {
    "repr": "M07",
    "spoken": "minus seven",
    "value": -7
  },
  "time": {
    "dt": "2024-01-16T10:53:00Z",
    "repr": "161053Z"
  },
  "units": {
    "accumulation": "in",
    "altimeter": "inHg",
    "altitude": "ft",
    "temperature": "C",
    "visibility": "sm",
    "wind_speed": "kt"
  },
  "visibility": {
    "repr": "10",
    "spoken": "one zero",
    "value": 10
  },
  "wind_direction": {
    "repr": "000",
    "spoken": "zero zero zero",
    "value": 0
  },
  "wind_gust": null,
  "wind_speed": {
    "repr": "00",
    "spoken": "zero",
    "value": 0
  },
  "wind_variable_direction": [],
  "wx_codes": []
}
