{
  "altimeter": {
    "repr": "A2966",
    "spoken": "two nine point six six",
    "value": 29.66
  },
  "clouds": [
    {
      "altitude": 5,
      "modifier": null,
      "repr": "FEW005",
      "type": "FEW"
    },
    {
      "altitude": 15,
      "modifier": null,
      "repr": "BKN015",
      "type": "BKN"
    },
    {
      "altitude": 28,
      "modifier": null,
      "repr": "OVC028",
      "type": "OVC"
    }
  ],
  "density_altitude": -657,
  "dewpoint": {
    "repr": "06",
    "spoken": "six",
    "value": 6
  },
  "flight_rules": "MVFR",
  "meta": {
    "stations_updated": "2024-10-29",
    "timestamp": "2024-11-02T06:46:13.946637Z"
  },
  "other": [],
  "pressure_altitude": 430,
  "raw": "KBLI 020624Z AUTO 01005KT 8SM -RA FEW005 BKN015 OVC028 06/06 A2966 RMK AO2 P0015 T00560056",
  "relative_humidity": 1,
  "remarks": "RMK AO2 P0015 T00560056",
  "remarks_info": {
    "codes": [
      {
        "repr": "AO2",
        "value": "Automated with precipitation sensor"
      }
    ],
    "dewpoint_decimal": {
      "repr": "0056",
      "spoken": "five point six",
      "value": 5.6
    },
    "maximum_temperature_24": null,
    "maximum_temperature_6": null,
    "minimum_temperature_24": null,
    "minimum_temperature_6": null,
    "precip_24_hours": null,
    "precip_36_hours": null,
    "precip_hourly": {
      "repr": "P0015",
      "spoken": "zero point one five",
      "value": 0.15
    },
    "pressure_tendency": null,
    "sea_level_pressure": null,
    "snow_depth": null,
    "sunshine_minutes": null,
    "temperature_decimal": {
      "repr": "0056",
      "spoken": "five point six",
      "value": 5.6
    }
  },
  "runway_visibility": [],
  "sanitized": "KBLI 020624Z 01005KT 8SM -RA FEW005 BKN015 OVC028 06/06 A2966 RMK AO2 P0015 T00560056",
  "station": "KBLI",
  "temperature": {
    "repr": "06",
    "spoken": "six",
    "value": 6
  },
  "time": {
    "dt": "2024-11-02T06:24:00Z",
    "repr": "020624Z"
  },
  "units": {
    "accumulation": "in",
    "altimeter": "inHg",
    "altitude": "ft",
    "temperature": "C",
    "visibility": "sm",
    "wind_speed": "kt"
  },
  "visibility": {
    "repr": "8",
    "spoken": "eight",
    "value": 8
  },
  "wind_direction": {
    "repr": "010",
    "spoken": "zero one zero",
    "value": 10
  },
  "wind_gust": null,
  "wind_speed": {
    "repr": "05",
    "spoken": "five",
    "value": 5
  },
  "wind_variable_direction": [],
  "wx_codes": [
    {
      "repr": "-RA",
      "value": "Light Rain"
    }
  ]
}
