{
  "altimeter": {
    "repr": "A3001",
    "spoken": "three zero point zero one",
    "value": 30.01
  },
  "clouds": [
    {
      "altitude": 95,
      "modifier": null,
      "repr": "OVC095",
      "type": "OVC"
    }
  ],
  "density_altitude": -3011,
  "dewpoint": {
    "repr": "M23",
    "spoken": "minus two three",
    "value": -23
  },
  "flight_rules": "VFR",
  "meta": {
    "stations_updated": "2023-10-28",
    "timestamp": "2024-01-12T06:29:52.161400Z"
  },
  "other": [],
  "pressure_altitude": 80,
  "raw": "KBLI 120553Z 03024G39KT 10SM OVC095 M11/M23 A3001 RMK AO2 PK WND 04050/0532 SLP174 T11111228 11067 21111 51031",
  "relative_humidity": 0.3747548079352723,
  "remarks": "RMK AO2 PK WND 04050/0532 SLP174 T11111228 11067 21111 51031",
  "remarks_info": {
    "codes": [
      {
        "repr": "AO2",
        "value": "Automated with precipitation sensor"
      }
    ],
    "dewpoint_decimal": {
      "repr": "1228",
      "spoken": "minus two two point eight",
      "value": -22.8
    },
    "maximum_temperature_24": null,
    "maximum_temperature_6": {
      "repr": "11067",
      "spoken": "minus six point seven",
      "value": -6.7
    },
    "minimum_temperature_24": null,
    "minimum_temperature_6": {
      "repr": "21111",
      "spoken": "minus one one point one",
      "value": -11.1
    },
    "precip_24_hours": null,
    "precip_36_hours": null,
    "precip_hourly": null,
    "pressure_tendency": {
      "change": 3.1,
      "repr": "51031",
      "tendency": "Increasing, then steady"
    },
    "sea_level_pressure": {
      "repr": "SLP174",
      "spoken": "one zero one seven point four",
      "value": 1017.4
    },
    "snow_depth": null,
    "sunshine_minutes": null,
    "temperature_decimal": {
      "repr": "1111",
      "spoken": "minus one one point one",
      "value": -11.1
    }
  },
  "runway_visibility": [],
  "sanitized": "KBLI 120553Z 03024G39KT 10SM OVC095 M11/M23 A3001 RMK AO2 PK WND 04050/0532 SLP174 T11111228 11067 21111 51031",
  "station": "KBLI",
  "temperature": {
    "repr": "M11",
    "spoken": "minus one one",
    "value": -11
  },
  "time": {
    "dt": "2024-01-12T05:53:00Z",
    "repr": "120553Z"
  },
  "units": {
    "accumulation": "in",
    "altimeter": "inHg",
    "altitude": "ft",
    "temperature": "C",
    "visibility": "sm",
    "wind_speed": "kt"
  },
  "visibility": {
    "repr": "10",
    "spoken": "one zero",
    "value": 10
  },
  "wind_direction": {
    "repr": "030",
    "spoken": "zero three zero",
    "value": 30
  },
  "wind_gust": {
    "repr": "39",
    "spoken": "three nine",
    "value": 39
  },
  "wind_speed": {
    "repr": "24",
    "spoken": "two four",
    "value": 24
  },
  "wind_variable_direction": [],
  "wx_codes": []
}
