{
  "altimeter": {
    "repr": "A3033",
    "spoken": "three zero point three three",
    "value": 30.33
  },
  "clouds": [],
  "density_altitude": -1603,
  "dewpoint": {
    "repr": "02",
    "spoken": "two",
    "value": 2
  },
  "flight_rules": "VFR",
  "meta": {
    "stations_updated": "2024-01-01",
    "timestamp": "2024-03-15T12:09:05.504564Z"
  },
  "other": [],
  "pressure_altitude": -240,
  "raw": "KBLI 151153Z AUTO 00000KT 10SM CLR 03/02 A3033 RMK AO2 SLP278 T00330022 10039 20011 58009",
  "relative_humidity": 0.9249173515197439,
  "remarks": "RMK AO2 SLP278 T00330022 10039 20011 58009",
  "remarks_info": {
    "codes": [
      {
        "repr": "AO2",
        "value": "Automated with precipitation sensor"
      }
    ],
    "dewpoint_decimal": {
      "repr": "0022",
      "spoken": "two point two",
      "value": 2.2
    },
    "maximum_temperature_24": null,
    "maximum_temperature_6": {
      "repr": "10039",
      "spoken": "three point nine",
      "value": 3.9
    },
    "minimum_temperature_24": null,
    "minimum_temperature_6": {
      "repr": "20011",
      "spoken": "one point one",
      "value": 1.1
    },
    "precip_24_hours": null,
    "precip_36_hours": null,
    "precip_hourly": null,
    "pressure_tendency": {
      "change": 0.9,
      "repr": "58009",
      "tendency": "Steady or increasing, then decreasing"
    },
    "sea_level_pressure": {
      "repr": "SLP278",
      "spoken": "one zero two seven point eight",
      "value": 1027.8
    },
    "snow_depth": null,
    "sunshine_minutes": null,
    "temperature_decimal": {
      "repr": "0033",
      "spoken": "three point three",
      "value": 3.3
    }
  },
  "runway_visibility": [],
  "sanitized": "KBLI 151153Z 00000KT 10SM 03/02 A3033 RMK AO2 SLP278 T00330022 10039 20011 58009",
  "station": "KBLI",
  "temperature": {
    "repr": "03",
    "spoken": "three",
    "value": 3
  },
  "time": {
    "dt": "2024-03-15T11:53:00Z",
    "repr": "151153Z"
  },
  "units": {
    "accumulation": "in",
    "altimeter": "inHg",
    "altitude": "ft",
    "temperature": "C",
    "visibility": "sm",
    "wind_speed": "kt"
  },
  "visibility": {
    "repr": "10",
    "spoken": "one zero",
    "value": 10
  },
  "wind_direction": {
    "repr": "000",
    "spoken": "zero zero zero",
    "value": 0
  },
  "wind_gust": null,
  "wind_speed": {
    "repr": "00",
    "spoken": "zero",
    "value": 0
  },
  "wind_variable_direction": [],
  "wx_codes": []
}
