{
  "meta": {
    "timestamp": "2023-01-09T05:01:41.077567Z",
    "stations_updated": "2022-12-27"
  },
  "altimeter": {
    "repr": "A2975",
    "value": 29.75,
    "spoken": "two nine point seven five"
  },
  "clouds": [
    {
      "repr": "FEW036",
      "type": "FEW",
      "altitude": 36,
      "modifier": null
    },
    {
      "repr": "SCT044",
      "type": "SCT",
      "altitude": 44,
      "modifier": null
    },
    {
      "repr": "BKN095",
      "type": "BKN",
      "altitude": 95,
      "modifier": null
    }
  ],
  "flight_rules": "VFR",
  "other": [],
  "visibility": {
    "repr": "10",
    "value": 10,
    "spoken": "one zero"
  },
  "wind_direction": {
    "repr": "170",
    "value": 170,
    "spoken": "one seven zero"
  },
  "wind_gust": {
    "repr": "21",
    "value": 21,
    "spoken": "two one"
  },
  "wind_speed": {
    "repr": "10",
    "value": 10,
    "spoken": "one zero"
  },
  "wx_codes": [],
  "raw": "KBLI 090453Z 17010G21KT 10SM FEW036 SCT044 BKN095 09/05 A2975 RMK AO2 PK WND 16030/0357 SLP083 T00940050",
  "sanitized": "KBLI 090453Z 17010G21KT 10SM FEW036 SCT044 BKN095 09/05 A2975 RMK AO2 PK WND 16030/0357 SLP083 T00940050",
  "station": "KBLI",
  "time": {
    "repr": "090453Z",
    "dt": "2023-01-09T04:53:00Z"
  },
  "remarks": "RMK AO2 PK WND 16030/0357 SLP083 T00940050",
  "dewpoint": {
    "repr": "05",
    "value": 5,
    "spoken": "five"
  },
  "relative_humidity": 0.7399000059290406,
  "remarks_info": {
    "maximum_temperature_6": null,
    "minimum_temperature_6": null,
    "pressure_tendency": null,
    "precip_36_hours": null,
    "precip_24_hours": null,
    "sunshine_minutes": null,
    "codes": [
      {
        "repr": "AO2",
        "value": "Automated with precipitation sensor"
      }
    ],
    "dewpoint_decimal": {
      "repr": "0050",
      "value": 5,
      "spoken": "five point zero"
    },
    "maximum_temperature_24": null,
    "minimum_temperature_24": null,
    "precip_hourly": null,
    "sea_level_pressure": {
      "repr": "SLP083",
      "value": 1008.3,
      "spoken": "one zero zero eight point three"
    },
    "snow_depth": null,
    "temperature_decimal": {
      "repr": "0094",
      "value": 9.4,
      "spoken": "nine point four"
    }
  },
  "runway_visibility": [],
  "temperature": {
    "repr": "09",
    "value": 9,
    "spoken": "nine"
  },
  "wind_variable_direction": [],
  "density_altitude": -291,
  "pressure_altitude": 340,
  "units": {
    "accumulation": "in",
    "altimeter": "inHg",
    "altitude": "ft",
    "temperature": "C",
    "visibility": "sm",
    "wind_speed": "kt"
  }
}
