{
  "altimeter": {
    "repr": "A3013",
    "spoken": "three zero point one three",
    "value": 30.13
  },
  "clouds": [],
  "density_altitude": -1799,
  "dewpoint": {
    "repr": "M01",
    "spoken": "minus one",
    "value": -1
  },
  "flight_rules": "VFR",
  "meta": {
    "stations_updated": "2023-10-28",
    "timestamp": "2023-11-17T12:09:08.714540Z"
  },
  "other": [],
  "pressure_altitude": -40,
  "raw": "KBLI 171153Z AUTO 01003KT 10SM CLR 00/M01 A3013 RMK AO2 SLP212 T00001011 10000 21022 58001",
  "relative_humidity": 0.9229449916837179,
  "remarks": "RMK AO2 SLP212 T00001011 10000 21022 58001",
  "remarks_info": {
    "codes": [
      {
        "repr": "AO2",
        "value": "Automated with precipitation sensor"
      }
    ],
    "dewpoint_decimal": {
      "repr": "1011",
      "spoken": "minus one point one",
      "value": -1.1
    },
    "maximum_temperature_24": null,
    "maximum_temperature_6": {
      "repr": "10000",
      "spoken": "zero",
      "value": 0
    },
    "minimum_temperature_24": null,
    "minimum_temperature_6": {
      "repr": "21022",
      "spoken": "minus two point two",
      "value": -2.2
    },
    "precip_24_hours": null,
    "precip_36_hours": null,
    "precip_hourly": null,
    "pressure_tendency": {
      "change": 0.1,
      "repr": "58001",
      "tendency": "Steady or increasing, then decreasing"
    },
    "sea_level_pressure": {
      "repr": "SLP212",
      "spoken": "one zero two one point two",
      "value": 1021.2
    },
    "snow_depth": null,
    "sunshine_minutes": null,
    "temperature_decimal": {
      "repr": "0000",
      "spoken": "zero",
      "value": 0
    }
  },
  "runway_visibility": [],
  "sanitized": "KBLI 171153Z 01003KT 10SM 00/M01 A3013 RMK AO2 SLP212 T00001011 10000 21022 58001",
  "station": "KBLI",
  "temperature": {
    "repr": "00",
    "spoken": "zero",
    "value": 0
  },
  "time": {
    "dt": "2023-11-17T11:53:00Z",
    "repr": "171153Z"
  },
  "units": {
    "accumulation": "in",
    "altimeter": "inHg",
    "altitude": "ft",
    "temperature": "C",
    "visibility": "sm",
    "wind_speed": "kt"
  },
  "visibility": {
    "repr": "10",
    "spoken": "one zero",
    "value": 10
  },
  "wind_direction": {
    "repr": "010",
    "spoken": "zero one zero",
    "value": 10
  },
  "wind_gust": null,
  "wind_speed": {
    "repr": "03",
    "spoken": "three",
    "value": 3
  },
  "wind_variable_direction": [],
  "wx_codes": []
}
