{
  "meta": {
    "timestamp": "2022-07-28T22:43:08.384049Z",
    "stations_updated": "2022-07-17"
  },
  "altimeter": {
    "repr": "A2994",
    "value": 29.94,
    "spoken": "two nine point nine four"
  },
  "clouds": [],
  "flight_rules": "VFR",
  "other": [],
  "visibility": {
    "repr": "10",
    "value": 10,
    "spoken": "one zero"
  },
  "wind_direction": {
    "repr": "190",
    "value": 190,
    "spoken": "one nine zero"
  },
  "wind_gust": null,
  "wind_speed": {
    "repr": "05",
    "value": 5,
    "spoken": "five"
  },
  "wx_codes": [],
  "raw": "KBLI 282153Z 19005KT 10SM CLR 27/19 A2994 RMK AO2 SLP143 T02720194",
  "sanitized": "KBLI 282153Z 19005KT 10SM 27/19 A2994 RMK AO2 SLP143 T02720194",
  "station": "KBLI",
  "time": {
    "repr": "282153Z",
    "dt": "2022-07-28T21:53:00Z"
  },
  "remarks": "RMK AO2 SLP143 T02720194",
  "dewpoint": {
    "repr": "19",
    "value": 19,
    "spoken": "one nine"
  },
  "relative_humidity": 0.6240183240455788,
  "remarks_info": {
    "maximum_temperature_6": null,
    "minimum_temperature_6": null,
    "pressure_tendency": null,
    "precip_36_hours": null,
    "precip_24_hours": null,
    "sunshine_minutes": null,
    "codes": [
      {
        "repr": "AO2",
        "value": "Automated with precipitation sensor"
      }
    ],
    "dewpoint_decimal": {
      "repr": "0194",
      "value": 19.4,
      "spoken": "one nine point four"
    },
    "maximum_temperature_24": null,
    "minimum_temperature_24": null,
    "precip_hourly": null,
    "sea_level_pressure": {
      "repr": "SLP143",
      "value": 1014.3,
      "spoken": "one zero one four point three"
    },
    "snow_depth": null,
    "temperature_decimal": {
      "repr": "0272",
      "value": 27.2,
      "spoken": "two seven point two"
    }
  },
  "runway_visibility": [],
  "temperature": {
    "repr": "27",
    "value": 27,
    "spoken": "two seven"
  },
  "wind_variable_direction": [],
  "density_altitude": 1655,
  "pressure_altitude": 150,
  "units": {
    "accumulation": "in",
    "altimeter": "inHg",
    "altitude": "ft",
    "temperature": "C",
    "visibility": "sm",
    "wind_speed": "kt"
  }
}
