{
  "meta": {
    "timestamp": "2023-09-03T03:22:07.642011Z",
    "stations_updated": "2023-08-05"
  },
  "altimeter": {
    "repr": "A2986",
    "value": 29.86,
    "spoken": "two nine point eight six"
  },
  "clouds": [],
  "flight_rules": "VFR",
  "other": [],
  "visibility": {
    "repr": "10",
    "value": 10,
    "spoken": "one zero"
  },
  "wind_direction": {
    "repr": "000",
    "value": 0,
    "spoken": "zero zero zero"
  },
  "wind_gust": null,
  "wind_speed": {
    "repr": "00",
    "value": 0,
    "spoken": "zero"
  },
  "wx_codes": [],
  "raw": "KBLI 030253Z 00000KT 10SM CLR 19/15 A2986 RMK AO2 SLP118 T01940150 56007",
  "sanitized": "KBLI 030253Z 00000KT 10SM 19/15 A2986 RMK AO2 SLP118 T01940150 56007",
  "station": "KBLI",
  "time": {
    "repr": "030253Z",
    "dt": "2023-09-03T02:53:00Z"
  },
  "remarks": "RMK AO2 SLP118 T01940150 56007",
  "dewpoint": {
    "repr": "15",
    "value": 15,
    "spoken": "one five"
  },
  "relative_humidity": 0.7568639678275122,
  "remarks_info": {
    "maximum_temperature_6": null,
    "minimum_temperature_6": null,
    "pressure_tendency": {
      "repr": "56007",
      "tendency": "Decreasing, then steady",
      "change": 0.7
    },
    "precip_36_hours": null,
    "precip_24_hours": null,
    "sunshine_minutes": null,
    "codes": [
      {
        "repr": "AO2",
        "value": "Automated with precipitation sensor"
      }
    ],
    "dewpoint_decimal": {
      "repr": "0150",
      "value": 15,
      "spoken": "one five point zero"
    },
    "maximum_temperature_24": null,
    "minimum_temperature_24": null,
    "precip_hourly": null,
    "sea_level_pressure": {
      "repr": "SLP118",
      "value": 1011.8,
      "spoken": "one zero one one point eight"
    },
    "snow_depth": null,
    "temperature_decimal": {
      "repr": "0194",
      "value": 19.4,
      "spoken": "one nine point four"
    }
  },
  "runway_visibility": [],
  "temperature": {
    "repr": "19",
    "value": 19,
    "spoken": "one nine"
  },
  "wind_variable_direction": [],
  "density_altitude": 799,
  "pressure_altitude": 230,
  "units": {
    "accumulation": "in",
    "altimeter": "inHg",
    "altitude": "ft",
    "temperature": "C",
    "visibility": "sm",
    "wind_speed": "kt"
  }
}
