{
  "meta": {
    "timestamp": "2022-11-22T20:28:49.901968Z",
    "stations_updated": "2022-09-05"
  },
  "altimeter": {
    "repr": "A2978",
    "value": 29.78,
    "spoken": "two nine point seven eight"
  },
  "clouds": [
    {
      "repr": "SCT007",
      "type": "SCT",
      "altitude": 7,
      "modifier": null
    },
    {
      "repr": "BKN013",
      "type": "BKN",
      "altitude": 13,
      "modifier": null
    },
    {
      "repr": "OVC016",
      "type": "OVC",
      "altitude": 16,
      "modifier": null
    }
  ],
  "flight_rules": "MVFR",
  "other": [],
  "visibility": {
    "repr": "3",
    "value": 3,
    "spoken": "three"
  },
  "wind_direction": {
    "repr": "VRB",
    "value": null,
    "spoken": "variable"
  },
  "wind_gust": null,
  "wind_speed": {
    "repr": "04",
    "value": 4,
    "spoken": "four"
  },
  "wx_codes": [
    {
      "repr": "RA",
      "value": "Rain"
    },
    {
      "repr": "BR",
      "value": "Mist"
    }
  ],
  "raw": "KBLI 221957Z VRB04KT 3SM RA BR SCT007 BKN013 OVC016 08/08 A2978 RMK AO2 P0001 T00830083",
  "sanitized": "KBLI 221957Z VRB04KT 3SM RA BR SCT007 BKN013 OVC016 08/08 A2978 RMK AO2 P0001 T00830083",
  "station": "KBLI",
  "time": {
    "repr": "221957Z",
    "dt": "2022-11-22T19:57:00Z"
  },
  "remarks": "RMK AO2 P0001 T00830083",
  "dewpoint": {
    "repr": "08",
    "value": 8,
    "spoken": "eight"
  },
  "relative_humidity": 1,
  "remarks_info": {
    "maximum_temperature_6": null,
    "minimum_temperature_6": null,
    "pressure_tendency": null,
    "precip_36_hours": null,
    "precip_24_hours": null,
    "sunshine_minutes": null,
    "codes": [
      {
        "repr": "AO2",
        "value": "Automated with precipitation sensor"
      }
    ],
    "dewpoint_decimal": {
      "repr": "0083",
      "value": 8.3,
      "spoken": "eight point three"
    },
    "maximum_temperature_24": null,
    "minimum_temperature_24": null,
    "precip_hourly": {
      "repr": "P0001",
      "value": 0.01,
      "spoken": "zero point zero one"
    },
    "sea_level_pressure": null,
    "snow_depth": null,
    "temperature_decimal": {
      "repr": "0083",
      "value": 8.3,
      "spoken": "eight point three"
    }
  },
  "runway_visibility": [],
  "temperature": {
    "repr": "08",
    "value": 8,
    "spoken": "eight"
  },
  "wind_variable_direction": [],
  "density_altitude": -453,
  "pressure_altitude": 310,
  "units": {
    "accumulation": "in",
    "altimeter": "inHg",
    "altitude": "ft",
    "temperature": "C",
    "visibility": "sm",
    "wind_speed": "kt"
  }
}
