{
  "meta": {
    "timestamp": "2023-02-23T16:53:20.115243Z",
    "stations_updated": "2023-01-30"
  },
  "altimeter": {
    "repr": "A2978",
    "value": 29.78,
    "spoken": "two nine point seven eight"
  },
  "clouds": [
    {
      "repr": "SCT070",
      "type": "SCT",
      "altitude": 70,
      "modifier": null
    },
    {
      "repr": "SCT095",
      "type": "SCT",
      "altitude": 95,
      "modifier": null
    },
    {
      "repr": "BKN120",
      "type": "BKN",
      "altitude": 120,
      "modifier": null
    }
  ],
  "flight_rules": "VFR",
  "other": [],
  "visibility": {
    "repr": "10",
    "value": 10,
    "spoken": "one zero"
  },
  "wind_direction": {
    "repr": "050",
    "value": 50,
    "spoken": "zero five zero"
  },
  "wind_gust": {
    "repr": "36",
    "value": 36,
    "spoken": "three six"
  },
  "wind_speed": {
    "repr": "23",
    "value": 23,
    "spoken": "two three"
  },
  "wx_codes": [],
  "raw": "KBLI 231553Z 05023G36KT 10SM SCT070 SCT095 BKN120 M06/M17 A2978 RMK AO2 PK WND 04039/1534 SLP096 T10561172",
  "sanitized": "KBLI 231553Z 05023G36KT 10SM SCT070 SCT095 BKN120 M06/M17 A2978 RMK AO2 PK WND 04039/1534 SLP096 T10561172",
  "station": "KBLI",
  "time": {
    "repr": "231553Z",
    "dt": "2023-02-23T15:53:00Z"
  },
  "remarks": "RMK AO2 PK WND 04039/1534 SLP096 T10561172",
  "dewpoint": {
    "repr": "M17",
    "value": -17,
    "spoken": "minus one seven"
  },
  "relative_humidity": 0.39570977483125536,
  "remarks_info": {
    "maximum_temperature_6": null,
    "minimum_temperature_6": null,
    "pressure_tendency": null,
    "precip_36_hours": null,
    "precip_24_hours": null,
    "sunshine_minutes": null,
    "codes": [
      {
        "repr": "AO2",
        "value": "Automated with precipitation sensor"
      }
    ],
    "dewpoint_decimal": {
      "repr": "1172",
      "value": -17.2,
      "spoken": "minus one seven point two"
    },
    "maximum_temperature_24": null,
    "minimum_temperature_24": null,
    "precip_hourly": null,
    "sea_level_pressure": {
      "repr": "SLP096",
      "value": 1009.6,
      "spoken": "one zero zero nine point six"
    },
    "snow_depth": null,
    "temperature_decimal": {
      "repr": "1056",
      "value": -5.6,
      "spoken": "minus five point six"
    }
  },
  "runway_visibility": [],
  "temperature": {
    "repr": "M06",
    "value": -6,
    "spoken": "minus six"
  },
  "wind_variable_direction": [],
  "density_altitude": -2121,
  "pressure_altitude": 310,
  "units": {
    "accumulation": "in",
    "altimeter": "inHg",
    "altitude": "ft",
    "temperature": "C",
    "visibility": "sm",
    "wind_speed": "kt"
  }
}
