{
  "meta": {
    "timestamp": "2022-12-21T12:08:54.061461Z",
    "stations_updated": "2022-09-05"
  },
  "altimeter": {
    "repr": "A3042",
    "value": 30.42,
    "spoken": "three zero point four two"
  },
  "clouds": [
    {
      "repr": "FEW034",
      "type": "FEW",
      "altitude": 34,
      "modifier": null
    }
  ],
  "flight_rules": "VFR",
  "other": [],
  "visibility": {
    "repr": "10",
    "value": 10,
    "spoken": "one zero"
  },
  "wind_direction": {
    "repr": "040",
    "value": 40,
    "spoken": "zero four zero"
  },
  "wind_gust": {
    "repr": "24",
    "value": 24,
    "spoken": "two four"
  },
  "wind_speed": {
    "repr": "14",
    "value": 14,
    "spoken": "one four"
  },
  "wx_codes": [],
  "raw": "KBLI 211153Z AUTO 04014G24KT 10SM FEW034 M10/M17 A3042 RMK AO2 SLP315 70008 T11001167 11078 21100 51027 $",
  "sanitized": "KBLI 211153Z 04014G24KT 10SM FEW034 M10/M17 A3042 RMK AO2 SLP315 70008 T11001167 11078 21100 51027 $",
  "station": "KBLI",
  "time": {
    "repr": "211153Z",
    "dt": "2022-12-21T11:53:00Z"
  },
  "remarks": "RMK AO2 SLP315 70008 T11001167 11078 21100 51027 $",
  "dewpoint": {
    "repr": "M17",
    "value": -17,
    "spoken": "minus one seven"
  },
  "relative_humidity": 0.5802172355088201,
  "remarks_info": {
    "maximum_temperature_6": {
      "repr": "11078",
      "value": -7.8,
      "spoken": "minus seven point eight"
    },
    "minimum_temperature_6": {
      "repr": "21100",
      "value": -10,
      "spoken": "minus one zero point zero"
    },
    "pressure_tendency": {
      "repr": "51027",
      "tendency": "Increasing, then steady",
      "change": 2.7
    },
    "precip_36_hours": null,
    "precip_24_hours": {
      "repr": "70008",
      "value": 0.08,
      "spoken": "zero point zero eight"
    },
    "sunshine_minutes": null,
    "codes": [
      {
        "repr": "$",
        "value": "ASOS requires maintenance"
      },
      {
        "repr": "AO2",
        "value": "Automated with precipitation sensor"
      }
    ],
    "dewpoint_decimal": {
      "repr": "1167",
      "value": -16.7,
      "spoken": "minus one six point seven"
    },
    "maximum_temperature_24": null,
    "minimum_temperature_24": null,
    "precip_hourly": null,
    "sea_level_pressure": {
      "repr": "SLP315",
      "value": 1031.5,
      "spoken": "one zero three one point five"
    },
    "snow_depth": null,
    "temperature_decimal": {
      "repr": "1100",
      "value": -10,
      "spoken": "minus one zero point zero"
    }
  },
  "runway_visibility": [],
  "temperature": {
    "repr": "M10",
    "value": -10,
    "spoken": "minus one zero"
  },
  "wind_variable_direction": [],
  "density_altitude": -3289,
  "pressure_altitude": -330,
  "units": {
    "accumulation": "in",
    "altimeter": "inHg",
    "altitude": "ft",
    "temperature": "C",
    "visibility": "sm",
    "wind_speed": "kt"
  }
}
