{
  "altimeter": {
    "repr": "A2968",
    "spoken": "two nine point six eight",
    "value": 29.68
  },
  "clouds": [
    {
      "altitude": 39,
      "modifier": null,
      "repr": "OVC039",
      "type": "OVC"
    }
  ],
  "density_altitude": -677,
  "dewpoint": {
    "repr": "06",
    "spoken": "six",
    "value": 6
  },
  "flight_rules": "MVFR",
  "meta": {
    "stations_updated": "2024-10-29",
    "timestamp": "2024-11-02T08:09:23.101487Z"
  },
  "other": [],
  "pressure_altitude": 410,
  "raw": "KBLI 020753Z AUTO 09006KT 5SM -RA BR OVC039 06/06 A2968 RMK AO2 SLP060 P0021 T00560056 400780056",
  "relative_humidity": 1,
  "remarks": "RMK AO2 SLP060 P0021 T00560056 400780056",
  "remarks_info": {
    "codes": [
      {
        "repr": "AO2",
        "value": "Automated with precipitation sensor"
      }
    ],
    "dewpoint_decimal": {
      "repr": "0056",
      "spoken": "five point six",
      "value": 5.6
    },
    "maximum_temperature_24": {
      "repr": "0078",
      "spoken": "seven point eight",
      "value": 7.8
    },
    "maximum_temperature_6": null,
    "minimum_temperature_24": {
      "repr": "0056",
      "spoken": "five point six",
      "value": 5.6
    },
    "minimum_temperature_6": null,
    "precip_24_hours": null,
    "precip_36_hours": null,
    "precip_hourly": {
      "repr": "P0021",
      "spoken": "zero point two one",
      "value": 0.21
    },
    "pressure_tendency": null,
    "sea_level_pressure": {
      "repr": "SLP060",
      "spoken": "one zero zero six point zero",
      "value": 1006
    },
    "snow_depth": null,
    "sunshine_minutes": null,
    "temperature_decimal": {
      "repr": "0056",
      "spoken": "five point six",
      "value": 5.6
    }
  },
  "runway_visibility": [],
  "sanitized": "KBLI 020753Z 09006KT 5SM -RA BR OVC039 06/06 A2968 RMK AO2 SLP060 P0021 T00560056 400780056",
  "station": "KBLI",
  "temperature": {
    "repr": "06",
    "spoken": "six",
    "value": 6
  },
  "time": {
    "dt": "2024-11-02T07:53:00Z",
    "repr": "020753Z"
  },
  "units": {
    "accumulation": "in",
    "altimeter": "inHg",
    "altitude": "ft",
    "temperature": "C",
    "visibility": "sm",
    "wind_speed": "kt"
  },
  "visibility": {
    "repr": "5",
    "spoken": "five",
    "value": 5
  },
  "wind_direction": {
    "repr": "090",
    "spoken": "zero nine zero",
    "value": 90
  },
  "wind_gust": null,
  "wind_speed": {
    "repr": "06",
    "spoken": "six",
    "value": 6
  },
  "wind_variable_direction": [],
  "wx_codes": [
    {
      "repr": "-RA",
      "value": "Light Rain"
    },
    {
      "repr": "BR",
      "value": "Mist"
    }
  ]
}
