{
  "altimeter": {
    "repr": "A3019",
    "spoken": "three zero point one nine",
    "value": 30.19
  },
  "clouds": [],
  "density_altitude": 409,
  "dewpoint": {
    "repr": "14",
    "spoken": "one four",
    "value": 14
  },
  "flight_rules": "VFR",
  "meta": {
    "stations_updated": "2024-06-12",
    "timestamp": "2024-07-19T18:08:01.195226Z"
  },
  "other": [],
  "pressure_altitude": -100,
  "raw": "KBLI 191753Z 21008G17KT 10SM CLR 19/14 A3019 RMK AO2 SLP230 T01890139 10189 20156 51007",
  "relative_humidity": 0.7272264325753433,
  "remarks": "RMK AO2 SLP230 T01890139 10189 20156 51007",
  "remarks_info": {
    "codes": [
      {
        "repr": "AO2",
        "value": "Automated with precipitation sensor"
      }
    ],
    "dewpoint_decimal": {
      "repr": "0139",
      "spoken": "one three point nine",
      "value": 13.9
    },
    "maximum_temperature_24": null,
    "maximum_temperature_6": {
      "repr": "10189",
      "spoken": "one eight point nine",
      "value": 18.9
    },
    "minimum_temperature_24": null,
    "minimum_temperature_6": {
      "repr": "20156",
      "spoken": "one five point six",
      "value": 15.6
    },
    "precip_24_hours": null,
    "precip_36_hours": null,
    "precip_hourly": null,
    "pressure_tendency": {
      "change": 0.7,
      "repr": "51007",
      "tendency": "Increasing, then steady"
    },
    "sea_level_pressure": {
      "repr": "SLP230",
      "spoken": "one zero two three point zero",
      "value": 1023
    },
    "snow_depth": null,
    "sunshine_minutes": null,
    "temperature_decimal": {
      "repr": "0189",
      "spoken": "one eight point nine",
      "value": 18.9
    }
  },
  "runway_visibility": [],
  "sanitized": "KBLI 191753Z 21008G17KT 10SM 19/14 A3019 RMK AO2 SLP230 T01890139 10189 20156 51007",
  "station": "KBLI",
  "temperature": {
    "repr": "19",
    "spoken": "one nine",
    "value": 19
  },
  "time": {
    "dt": "2024-07-19T17:53:00Z",
    "repr": "191753Z"
  },
  "units": {
    "accumulation": "in",
    "altimeter": "inHg",
    "altitude": "ft",
    "temperature": "C",
    "visibility": "sm",
    "wind_speed": "kt"
  },
  "visibility": {
    "repr": "10",
    "spoken": "one zero",
    "value": 10
  },
  "wind_direction": {
    "repr": "210",
    "spoken": "two one zero",
    "value": 210
  },
  "wind_gust": {
    "repr": "17",
    "spoken": "one seven",
    "value": 17
  },
  "wind_speed": {
    "repr": "08",
    "spoken": "eight",
    "value": 8
  },
  "wind_variable_direction": [],
  "wx_codes": []
}
