{
  "meta": {
    "timestamp": "2023-02-28T14:28:21.342480Z",
    "stations_updated": "2023-01-30",
    "cache-timestamp": "2023-02-28T14:28:07.091000Z"
  },
  "altimeter": {
    "repr": "A2940",
    "value": 29.4,
    "spoken": "two nine point four zero"
  },
  "clouds": [
    {
      "repr": "FEW004",
      "type": "FEW",
      "altitude": 4,
      "modifier": null
    },
    {
      "repr": "OVC016",
      "type": "OVC",
      "altitude": 16,
      "modifier": null
    }
  ],
  "flight_rules": "IFR",
  "other": [],
  "visibility": {
    "repr": "7/4",
    "value": 1.75,
    "spoken": "one and three quarters",
    "numerator": 7,
    "denominator": 4,
    "normalized": "1 3/4"
  },
  "wind_direction": {
    "repr": "030",
    "value": 30,
    "spoken": "zero three zero"
  },
  "wind_gust": null,
  "wind_speed": {
    "repr": "04",
    "value": 4,
    "spoken": "four"
  },
  "wx_codes": [
    {
      "repr": "-SN",
      "value": "Light Snow"
    },
    {
      "repr": "BR",
      "value": "Mist"
    }
  ],
  "raw": "KBLI 281415Z AUTO 03004KT 1 3/4SM -SN BR FEW004 OVC016 01/01 A2940 RMK AO2 P0001 T00110011",
  "sanitized": "KBLI 281415Z 03004KT 1 3/4SM -SN BR FEW004 OVC016 01/01 A2940 RMK AO2 P0001 T00110011",
  "station": "KBLI",
  "time": {
    "repr": "281415Z",
    "dt": "2023-02-28T14:15:00Z"
  },
  "remarks": "RMK AO2 P0001 T00110011",
  "dewpoint": {
    "repr": "01",
    "value": 1,
    "spoken": "one"
  },
  "relative_humidity": 1,
  "remarks_info": {
    "maximum_temperature_6": null,
    "minimum_temperature_6": null,
    "pressure_tendency": null,
    "precip_36_hours": null,
    "precip_24_hours": null,
    "sunshine_minutes": null,
    "codes": [
      {
        "repr": "AO2",
        "value": "Automated with precipitation sensor"
      }
    ],
    "dewpoint_decimal": {
      "repr": "0011",
      "value": 1.1,
      "spoken": "one point one"
    },
    "maximum_temperature_24": null,
    "minimum_temperature_24": null,
    "precip_hourly": {
      "repr": "P0001",
      "value": 0.01,
      "spoken": "zero point zero one"
    },
    "sea_level_pressure": null,
    "snow_depth": null,
    "temperature_decimal": {
      "repr": "0011",
      "value": 1.1,
      "spoken": "one point one"
    }
  },
  "runway_visibility": [],
  "temperature": {
    "repr": "01",
    "value": 1,
    "spoken": "one"
  },
  "wind_variable_direction": [],
  "density_altitude": -937,
  "pressure_altitude": 690,
  "units": {
    "accumulation": "in",
    "altimeter": "inHg",
    "altitude": "ft",
    "temperature": "C",
    "visibility": "sm",
    "wind_speed": "kt"
  }
}
