{
  "altimeter": {
    "repr": "A2946",
    "spoken": "two nine point four six",
    "value": 29.46
  },
  "clouds": [
    {
      "altitude": 100,
      "modifier": null,
      "repr": "SCT100",
      "type": "SCT"
    }
  ],
  "density_altitude": 275,
  "dewpoint": {
    "repr": "04",
    "spoken": "four",
    "value": 4
  },
  "flight_rules": "VFR",
  "meta": {
    "cache-timestamp": "2024-02-02T03:02:02.682000Z",
    "stations_updated": "2024-01-01",
    "timestamp": "2024-02-02T03:02:29.787667Z"
  },
  "other": [],
  "pressure_altitude": 630,
  "raw": "KBLI 020153Z 11005KT 10SM SCT100 12/04 A2946 RMK AO2 SLP984 T01170039",
  "relative_humidity": 0.5876892890537989,
  "remarks": "RMK AO2 SLP984 T01170039",
  "remarks_info": {
    "codes": [
      {
        "repr": "AO2",
        "value": "Automated with precipitation sensor"
      }
    ],
    "dewpoint_decimal": {
      "repr": "0039",
      "spoken": "three point nine",
      "value": 3.9
    },
    "maximum_temperature_24": null,
    "maximum_temperature_6": null,
    "minimum_temperature_24": null,
    "minimum_temperature_6": null,
    "precip_24_hours": null,
    "precip_36_hours": null,
    "precip_hourly": null,
    "pressure_tendency": null,
    "sea_level_pressure": {
      "repr": "SLP984",
      "spoken": "nine nine eight point four",
      "value": 998.4
    },
    "snow_depth": null,
    "sunshine_minutes": null,
    "temperature_decimal": {
      "repr": "0117",
      "spoken": "one one point seven",
      "value": 11.7
    }
  },
  "runway_visibility": [],
  "sanitized": "KBLI 020153Z 11005KT 10SM SCT100 12/04 A2946 RMK AO2 SLP984 T01170039",
  "station": "KBLI",
  "temperature": {
    "repr": "12",
    "spoken": "one two",
    "value": 12
  },
  "time": {
    "dt": "2024-02-02T01:53:00Z",
    "repr": "020153Z"
  },
  "units": {
    "accumulation": "in",
    "altimeter": "inHg",
    "altitude": "ft",
    "temperature": "C",
    "visibility": "sm",
    "wind_speed": "kt"
  },
  "visibility": {
    "repr": "10",
    "spoken": "one zero",
    "value": 10
  },
  "wind_direction": {
    "repr": "110",
    "spoken": "one one zero",
    "value": 110
  },
  "wind_gust": null,
  "wind_speed": {
    "repr": "05",
    "spoken": "five",
    "value": 5
  },
  "wind_variable_direction": [],
  "wx_codes": []
}
