{
  "meta": {
    "timestamp": "2022-12-29T08:06:41.548933Z",
    "stations_updated": "2022-12-27",
    "cache-timestamp": "2022-12-29T08:06:08.577000Z"
  },
  "altimeter": {
    "repr": "A2977",
    "value": 29.77,
    "spoken": "two nine point seven seven"
  },
  "clouds": [
    {
      "repr": "SCT031",
      "type": "SCT",
      "altitude": 31,
      "modifier": null
    }
  ],
  "flight_rules": "VFR",
  "other": [],
  "visibility": {
    "repr": "10",
    "value": 10,
    "spoken": "one zero"
  },
  "wind_direction": {
    "repr": "030",
    "value": 30,
    "spoken": "zero three zero"
  },
  "wind_gust": null,
  "wind_speed": {
    "repr": "04",
    "value": 4,
    "spoken": "four"
  },
  "wx_codes": [],
  "raw": "KBLI 290753Z AUTO 03004KT 10SM SCT031 01/01 A2977 RMK AO2 SLP088 T00110011 400830006",
  "sanitized": "KBLI 290753Z 03004KT 10SM SCT031 01/01 A2977 RMK AO2 SLP088 T00110011 400830006",
  "station": "KBLI",
  "time": {
    "repr": "290753Z",
    "dt": "2022-12-29T07:53:00Z"
  },
  "remarks": "RMK AO2 SLP088 T00110011 400830006",
  "dewpoint": {
    "repr": "01",
    "value": 1,
    "spoken": "one"
  },
  "relative_humidity": 1,
  "remarks_info": {
    "maximum_temperature_6": null,
    "minimum_temperature_6": null,
    "pressure_tendency": null,
    "precip_36_hours": null,
    "precip_24_hours": null,
    "sunshine_minutes": null,
    "codes": [
      {
        "repr": "AO2",
        "value": "Automated with precipitation sensor"
      }
    ],
    "dewpoint_decimal": {
      "repr": "0011",
      "value": 1.1,
      "spoken": "one point one"
    },
    "maximum_temperature_24": {
      "repr": "0083",
      "value": 8.3,
      "spoken": "eight point three"
    },
    "minimum_temperature_24": {
      "repr": "0006",
      "value": 0.6,
      "spoken": "zero point six"
    },
    "precip_hourly": null,
    "sea_level_pressure": {
      "repr": "SLP088",
      "value": 1008.8,
      "spoken": "one zero zero eight point eight"
    },
    "snow_depth": null,
    "temperature_decimal": {
      "repr": "0011",
      "value": 1.1,
      "spoken": "one point one"
    }
  },
  "runway_visibility": [],
  "temperature": {
    "repr": "01",
    "value": 1,
    "spoken": "one"
  },
  "wind_variable_direction": [],
  "density_altitude": -1307,
  "pressure_altitude": 320,
  "units": {
    "accumulation": "in",
    "altimeter": "inHg",
    "altitude": "ft",
    "temperature": "C",
    "visibility": "sm",
    "wind_speed": "kt"
  }
}
