{
  "altimeter": {
    "repr": "A3042",
    "spoken": "three zero point four two",
    "value": 30.42
  },
  "clouds": [],
  "density_altitude": -1281,
  "dewpoint": {
    "repr": "07",
    "spoken": "seven",
    "value": 7
  },
  "flight_rules": "VFR",
  "meta": {
    "stations_updated": "2024-01-01",
    "timestamp": "2024-03-13T17:25:18.994038Z"
  },
  "other": [],
  "pressure_altitude": -356,
  "raw": "KBVS 131715Z AUTO 19005G11KT 10SM CLR 07/07 A3042 RMK A01",
  "relative_humidity": 1,
  "remarks": "RMK A01",
  "remarks_info": {
    "codes": [],
    "dewpoint_decimal": null,
    "maximum_temperature_24": null,
    "maximum_temperature_6": null,
    "minimum_temperature_24": null,
    "minimum_temperature_6": null,
    "precip_24_hours": null,
    "precip_36_hours": null,
    "precip_hourly": null,
    "pressure_tendency": null,
    "sea_level_pressure": null,
    "snow_depth": null,
    "sunshine_minutes": null,
    "temperature_decimal": null
  },
  "runway_visibility": [],
  "sanitized": "KBVS 131715Z 19005G11KT 10SM 07/07 A3042 RMK A01",
  "station": "KBVS",
  "temperature": {
    "repr": "07",
    "spoken": "seven",
    "value": 7
  },
  "time": {
    "dt": "2024-03-13T17:15:00Z",
    "repr": "131715Z"
  },
  "units": {
    "accumulation": "in",
    "altimeter": "inHg",
    "altitude": "ft",
    "temperature": "C",
    "visibility": "sm",
    "wind_speed": "kt"
  },
  "visibility": {
    "repr": "10",
    "spoken": "one zero",
    "value": 10
  },
  "wind_direction": {
    "repr": "190",
    "spoken": "one nine zero",
    "value": 190
  },
  "wind_gust": {
    "repr": "11",
    "spoken": "one one",
    "value": 11
  },
  "wind_speed": {
    "repr": "05",
    "spoken": "five",
    "value": 5
  },
  "wind_variable_direction": [],
  "wx_codes": []
}
