{
  "altimeter": {
    "repr": "A2984",
    "spoken": "two nine point eight four",
    "value": 29.84
  },
  "clouds": [
    {
      "altitude": 28,
      "modifier": null,
      "repr": "BKN028",
      "type": "BKN"
    },
    {
      "altitude": 75,
      "modifier": null,
      "repr": "BKN075",
      "type": "BKN"
    },
    {
      "altitude": 85,
      "modifier": null,
      "repr": "OVC085",
      "type": "OVC"
    }
  ],
  "density_altitude": -581,
  "dewpoint": {
    "repr": "07",
    "spoken": "seven",
    "value": 7
  },
  "flight_rules": "MVFR",
  "meta": {
    "cache-timestamp": "2024-03-29T09:40:05.598000Z",
    "stations_updated": "2024-01-01",
    "timestamp": "2024-03-29T09:40:29.184550Z"
  },
  "other": [],
  "pressure_altitude": 224,
  "raw": "KBVS 290915Z AUTO 14008G17KT 10SM BKN028 BKN075 OVC085 08/07 A2984 RMK A01",
  "relative_humidity": 0.933984777240729,
  "remarks": "RMK A01",
  "remarks_info": {
    "codes": [],
    "dewpoint_decimal": null,
    "maximum_temperature_24": null,
    "maximum_temperature_6": null,
    "minimum_temperature_24": null,
    "minimum_temperature_6": null,
    "precip_24_hours": null,
    "precip_36_hours": null,
    "precip_hourly": null,
    "pressure_tendency": null,
    "sea_level_pressure": null,
    "snow_depth": null,
    "sunshine_minutes": null,
    "temperature_decimal": null
  },
  "runway_visibility": [],
  "sanitized": "KBVS 290915Z 14008G17KT 10SM BKN028 BKN075 OVC085 08/07 A2984 RMK A01",
  "station": "KBVS",
  "temperature": {
    "repr": "08",
    "spoken": "eight",
    "value": 8
  },
  "time": {
    "dt": "2024-03-29T09:15:00Z",
    "repr": "290915Z"
  },
  "units": {
    "accumulation": "in",
    "altimeter": "inHg",
    "altitude": "ft",
    "temperature": "C",
    "visibility": "sm",
    "wind_speed": "kt"
  },
  "visibility": {
    "repr": "10",
    "spoken": "one zero",
    "value": 10
  },
  "wind_direction": {
    "repr": "140",
    "spoken": "one four zero",
    "value": 140
  },
  "wind_gust": {
    "repr": "17",
    "spoken": "one seven",
    "value": 17
  },
  "wind_speed": {
    "repr": "08",
    "spoken": "eight",
    "value": 8
  },
  "wind_variable_direction": [],
  "wx_codes": []
}
