{
  "meta": {
    "timestamp": "2023-10-18T21:01:24.001928Z",
    "stations_updated": "2023-10-01"
  },
  "altimeter": {
    "repr": "A3002",
    "value": 30.02,
    "spoken": "three zero point zero two"
  },
  "clouds": [
    {
      "repr": "BKN070",
      "type": "BKN",
      "altitude": 70,
      "modifier": null
    },
    {
      "repr": "BKN080",
      "type": "BKN",
      "altitude": 80,
      "modifier": null
    }
  ],
  "flight_rules": "VFR",
  "other": [],
  "visibility": {
    "repr": "10",
    "value": 10,
    "spoken": "one zero"
  },
  "wind_direction": {
    "repr": "300",
    "value": 300,
    "spoken": "three zero zero"
  },
  "wind_gust": null,
  "wind_speed": {
    "repr": "06",
    "value": 6,
    "spoken": "six"
  },
  "wx_codes": [],
  "raw": "KBVS 182055Z AUTO 30006KT 10SM BKN070 BKN080 19/14 A3002 RMK A01 KBVS 182035Z AUTO 00000KT 10SM BKN070 BKN080 21/11 A3002 RMK A01 KBVS 182015Z AUTO 17004G11KT 10SM BKN070 BKN080 21/10 A3002 RMK A01 KBVS 181955Z AUTO 17005KT 10SM OVC070 22/09 A3003 RMK A01 KBVS 181935Z AUTO 17004G10KT 10SM BKN070 BKN085 21/09 A3004 RMK A01 KBVS 181915Z AUTO VRB05G12KT 10SM OVC075 21/08 A3004 RMK A01",
  "sanitized": "KBVS 182055Z 30006KT 10SM BKN070 BKN080 19/14 A3002 RMK A01 KBVS 182035Z AUTO 00000KT 10SM BKN070 BKN080 21/11 A3002 RMK A01 KBVS 182015Z AUTO 17004G11KT 10SM BKN070 BKN080 21/10 A3002 RMK A01 KBVS 181955Z AUTO 17005KT 10SM OVC070 22/09 A3003 RMK A01 KBVS 181935Z AUTO 17004G10KT 10SM BKN070 BKN085 21/09 A3004 RMK A01 KBVS 181915Z AUTO VRB05G12KT 10SM OVC075 21/08 A3004 RMK A01",
  "station": "KBVS",
  "time": {
    "repr": "182055Z",
    "dt": "2023-10-18T20:55:00Z"
  },
  "remarks": "RMK A01 KBVS 182035Z AUTO 00000KT 10SM BKN070 BKN080 21/11 A3002 RMK A01 KBVS 182015Z AUTO 17004G11KT 10SM BKN070 BKN080 21/10 A3002 RMK A01 KBVS 181955Z AUTO 17005KT 10SM OVC070 22/09 A3003 RMK A01 KBVS 181935Z AUTO 17004G10KT 10SM BKN070 BKN085 21/09 A3004 RMK A01 KBVS 181915Z AUTO VRB05G12KT 10SM OVC075 21/08 A3004 RMK A01",
  "dewpoint": {
    "repr": "14",
    "value": 14,
    "spoken": "one four"
  },
  "relative_humidity": 0.7274046168108372,
  "remarks_info": {
    "maximum_temperature_6": null,
    "minimum_temperature_6": null,
    "pressure_tendency": null,
    "precip_36_hours": null,
    "precip_24_hours": null,
    "sunshine_minutes": null,
    "codes": [],
    "dewpoint_decimal": null,
    "maximum_temperature_24": null,
    "minimum_temperature_24": null,
    "precip_hourly": null,
    "sea_level_pressure": null,
    "snow_depth": null,
    "temperature_decimal": null
  },
  "runway_visibility": [],
  "temperature": {
    "repr": "19",
    "value": 19,
    "spoken": "one nine"
  },
  "wind_variable_direction": [],
  "density_altitude": 559,
  "pressure_altitude": 44,
  "units": {
    "accumulation": "in",
    "altimeter": "inHg",
    "altitude": "ft",
    "temperature": "C",
    "visibility": "sm",
    "wind_speed": "kt"
  }
}
