{
  "altimeter": {
    "repr": "A3038",
    "spoken": "three zero point three eight",
    "value": 30.38
  },
  "clouds": [],
  "density_altitude": 79,
  "dewpoint": {
    "repr": "07",
    "spoken": "seven",
    "value": 7
  },
  "flight_rules": "IFR",
  "meta": {
    "stations_updated": "2024-06-12",
    "timestamp": "2024-09-30T22:06:37.188438Z"
  },
  "other": [],
  "pressure_altitude": -316,
  "raw": "KBVS 302155Z AUTO 29009KT CLR 18/07 A3038 RMK A01",
  "relative_humidity": 0.48552807017135413,
  "remarks": "RMK A01",
  "remarks_info": {
    "codes": [],
    "dewpoint_decimal": null,
    "maximum_temperature_24": null,
    "maximum_temperature_6": null,
    "minimum_temperature_24": null,
    "minimum_temperature_6": null,
    "precip_24_hours": null,
    "precip_36_hours": null,
    "precip_hourly": null,
    "pressure_tendency": null,
    "sea_level_pressure": null,
    "snow_depth": null,
    "sunshine_minutes": null,
    "temperature_decimal": null
  },
  "runway_visibility": [],
  "sanitized": "KBVS 302155Z 29009KT 18/07 A3038 RMK A01",
  "station": "KBVS",
  "temperature": {
    "repr": "18",
    "spoken": "one eight",
    "value": 18
  },
  "time": {
    "dt": "2024-09-30T21:55:00Z",
    "repr": "302155Z"
  },
  "units": {
    "accumulation": "in",
    "altimeter": "inHg",
    "altitude": "ft",
    "temperature": "C",
    "visibility": "sm",
    "wind_speed": "kt"
  },
  "visibility": null,
  "wind_direction": {
    "repr": "290",
    "spoken": "two nine zero",
    "value": 290
  },
  "wind_gust": null,
  "wind_speed": {
    "repr": "09",
    "spoken": "nine",
    "value": 9
  },
  "wind_variable_direction": [],
  "wx_codes": []
}
