{
  "meta": {
    "timestamp": "2022-12-21T15:42:15.292924Z",
    "stations_updated": "2022-09-05",
    "cache-timestamp": "2022-12-21T15:29:18.124000Z",
    "warning": "Unable to fetch report. This cached data might be out of date. To return an error instead, set ?onfail=error"
  },
  "altimeter": {
    "repr": "A3048",
    "value": 30.48,
    "spoken": "three zero point four eight"
  },
  "clouds": [
    {
      "repr": "FEW048",
      "type": "FEW",
      "altitude": 48,
      "modifier": null
    },
    {
      "repr": "OVC055",
      "type": "OVC",
      "altitude": 55,
      "modifier": null
    }
  ],
  "flight_rules": "VFR",
  "other": [],
  "visibility": {
    "repr": "10",
    "value": 10,
    "spoken": "one zero"
  },
  "wind_direction": {
    "repr": "040",
    "value": 40,
    "spoken": "zero four zero"
  },
  "wind_gust": null,
  "wind_speed": {
    "repr": "05",
    "value": 5,
    "spoken": "five"
  },
  "wx_codes": [],
  "raw": "KBVS 211515Z AUTO 04005KT 10SM FEW048 OVC055 M10/M15 A3048 RMK A01",
  "sanitized": "KBVS 211515Z 04005KT 10SM FEW048 OVC055 M10/M15 A3048 RMK A01",
  "station": "KBVS",
  "time": {
    "repr": "211515Z",
    "dt": "2022-12-21T15:15:00Z"
  },
  "remarks": "RMK A01",
  "dewpoint": {
    "repr": "M15",
    "value": -15,
    "spoken": "minus one five"
  },
  "relative_humidity": 0.6681710640574764,
  "remarks_info": {
    "maximum_temperature_6": null,
    "minimum_temperature_6": null,
    "pressure_tendency": null,
    "precip_36_hours": null,
    "precip_24_hours": null,
    "sunshine_minutes": null,
    "codes": [],
    "dewpoint_decimal": null,
    "maximum_temperature_24": null,
    "minimum_temperature_24": null,
    "precip_hourly": null,
    "sea_level_pressure": null,
    "snow_depth": null,
    "temperature_decimal": null
  },
  "runway_visibility": [],
  "temperature": {
    "repr": "M10",
    "value": -10,
    "spoken": "minus one zero"
  },
  "wind_variable_direction": [],
  "density_altitude": -3381,
  "pressure_altitude": -416,
  "units": {
    "accumulation": "in",
    "altimeter": "inHg",
    "altitude": "ft",
    "temperature": "C",
    "visibility": "sm",
    "wind_speed": "kt"
  }
}
