{
  "altimeter": {
    "repr": "A2979",
    "spoken": "two nine point seven nine",
    "value": 29.79
  },
  "clouds": [],
  "density_altitude": 1029,
  "dewpoint": {
    "repr": "18",
    "spoken": "one eight",
    "value": 18
  },
  "flight_rules": "VFR",
  "meta": {
    "stations_updated": "2024-06-12",
    "timestamp": "2024-09-24T20:29:23.023111Z"
  },
  "other": [],
  "pressure_altitude": 274,
  "raw": "KBVS 242015Z AUTO 31007KT 10SM CLR 21/18 A2979 RMK A01",
  "relative_humidity": 0.8297585516451343,
  "remarks": "RMK A01",
  "remarks_info": {
    "codes": [],
    "dewpoint_decimal": null,
    "maximum_temperature_24": null,
    "maximum_temperature_6": null,
    "minimum_temperature_24": null,
    "minimum_temperature_6": null,
    "precip_24_hours": null,
    "precip_36_hours": null,
    "precip_hourly": null,
    "pressure_tendency": null,
    "sea_level_pressure": null,
    "snow_depth": null,
    "sunshine_minutes": null,
    "temperature_decimal": null
  },
  "runway_visibility": [],
  "sanitized": "KBVS 242015Z 31007KT 10SM 21/18 A2979 RMK A01",
  "station": "KBVS",
  "temperature": {
    "repr": "21",
    "spoken": "two one",
    "value": 21
  },
  "time": {
    "dt": "2024-09-24T20:15:00Z",
    "repr": "242015Z"
  },
  "units": {
    "accumulation": "in",
    "altimeter": "inHg",
    "altitude": "ft",
    "temperature": "C",
    "visibility": "sm",
    "wind_speed": "kt"
  },
  "visibility": {
    "repr": "10",
    "spoken": "one zero",
    "value": 10
  },
  "wind_direction": {
    "repr": "310",
    "spoken": "three one zero",
    "value": 310
  },
  "wind_gust": null,
  "wind_speed": {
    "repr": "07",
    "spoken": "seven",
    "value": 7
  },
  "wind_variable_direction": [],
  "wx_codes": []
}
