{
  "meta": {
    "timestamp": "2023-10-24T20:40:36.211482Z",
    "stations_updated": "2023-10-01",
    "cache-timestamp": "2023-10-24T20:40:02.766000Z"
  },
  "altimeter": {
    "repr": "A2983",
    "value": 29.83,
    "spoken": "two nine point eight three"
  },
  "clouds": [
    {
      "repr": "FEW028",
      "type": "FEW",
      "altitude": 28,
      "modifier": null
    },
    {
      "repr": "BKN034",
      "type": "BKN",
      "altitude": 34,
      "modifier": null
    },
    {
      "repr": "BKN040",
      "type": "BKN",
      "altitude": 40,
      "modifier": null
    }
  ],
  "flight_rules": "VFR",
  "other": [],
  "visibility": {
    "repr": "10",
    "value": 10,
    "spoken": "one zero"
  },
  "wind_direction": {
    "repr": "080",
    "value": 80,
    "spoken": "zero eight zero"
  },
  "wind_gust": null,
  "wind_speed": {
    "repr": "09",
    "value": 9,
    "spoken": "nine"
  },
  "wx_codes": [],
  "raw": "KBVS 242010Z AUTO 08009KT 10SM FEW028 BKN034 BKN040 09/09 A2983 RMK A01",
  "sanitized": "KBVS 242010Z 08009KT 10SM FEW028 BKN034 BKN040 09/09 A2983 RMK A01",
  "station": "KBVS",
  "time": {
    "repr": "242010Z",
    "dt": "2023-10-24T20:10:00Z"
  },
  "remarks": "RMK A01",
  "dewpoint": {
    "repr": "09",
    "value": 9,
    "spoken": "nine"
  },
  "relative_humidity": 1,
  "remarks_info": {
    "maximum_temperature_6": null,
    "minimum_temperature_6": null,
    "pressure_tendency": null,
    "precip_36_hours": null,
    "precip_24_hours": null,
    "sunshine_minutes": null,
    "codes": [],
    "dewpoint_decimal": null,
    "maximum_temperature_24": null,
    "minimum_temperature_24": null,
    "precip_hourly": null,
    "sea_level_pressure": null,
    "snow_depth": null,
    "temperature_decimal": null
  },
  "runway_visibility": [],
  "temperature": {
    "repr": "09",
    "value": 9,
    "spoken": "nine"
  },
  "wind_variable_direction": [],
  "density_altitude": -451,
  "pressure_altitude": 234,
  "units": {
    "accumulation": "in",
    "altimeter": "inHg",
    "altitude": "ft",
    "temperature": "C",
    "visibility": "sm",
    "wind_speed": "kt"
  }
}
