{
  "altimeter": {
    "repr": "A2924",
    "spoken": "two nine point two four",
    "value": 29.24
  },
  "clouds": [
    {
      "altitude": 39,
      "modifier": null,
      "repr": "OVC039",
      "type": "OVC"
    }
  ],
  "density_altitude": -101,
  "dewpoint": {
    "repr": "06",
    "spoken": "six",
    "value": 6
  },
  "flight_rules": "VFR",
  "meta": {
    "stations_updated": "2024-12-02",
    "timestamp": "2024-12-26T15:06:53.055967Z"
  },
  "other": [],
  "pressure_altitude": 824,
  "raw": "KBVS 261455Z AUTO 10009KT 10SM OVC039 07/06 A2924 RMK A01 P0001",
  "relative_humidity": 0.9334736015813517,
  "remarks": "RMK A01 P0001",
  "remarks_info": {
    "codes": [],
    "dewpoint_decimal": null,
    "maximum_temperature_24": null,
    "maximum_temperature_6": null,
    "minimum_temperature_24": null,
    "minimum_temperature_6": null,
    "precip_24_hours": null,
    "precip_36_hours": null,
    "precip_hourly": {
      "repr": "P0001",
      "spoken": "zero point zero one",
      "value": 0.01
    },
    "pressure_tendency": null,
    "sea_level_pressure": null,
    "snow_depth": null,
    "sunshine_minutes": null,
    "temperature_decimal": null
  },
  "runway_visibility": [],
  "sanitized": "KBVS 261455Z 10009KT 10SM OVC039 07/06 A2924 RMK A01 P0001",
  "station": "KBVS",
  "temperature": {
    "repr": "07",
    "spoken": "seven",
    "value": 7
  },
  "time": {
    "dt": "2024-12-26T14:55:00Z",
    "repr": "261455Z"
  },
  "units": {
    "accumulation": "in",
    "altimeter": "inHg",
    "altitude": "ft",
    "temperature": "C",
    "visibility": "sm",
    "wind_speed": "kt"
  },
  "visibility": {
    "repr": "10",
    "spoken": "one zero",
    "value": 10
  },
  "wind_direction": {
    "repr": "100",
    "spoken": "one zero zero",
    "value": 100
  },
  "wind_gust": null,
  "wind_speed": {
    "repr": "09",
    "spoken": "nine",
    "value": 9
  },
  "wind_variable_direction": [],
  "wx_codes": []
}
