{
  "meta": {
    "timestamp": "2023-10-25T03:40:31.858476Z",
    "stations_updated": "2023-10-01",
    "cache-timestamp": "2023-10-25T03:40:04.681000Z"
  },
  "altimeter": {
    "repr": "A2965",
    "value": 29.65,
    "spoken": "two nine point six five"
  },
  "clouds": [
    {
      "repr": "FEW023",
      "type": "FEW",
      "altitude": 23,
      "modifier": null
    },
    {
      "repr": "OVC029",
      "type": "OVC",
      "altitude": 29,
      "modifier": null
    }
  ],
  "flight_rules": "MVFR",
  "other": [],
  "visibility": {
    "repr": "10",
    "value": 10,
    "spoken": "one zero"
  },
  "wind_direction": {
    "repr": "070",
    "value": 70,
    "spoken": "zero seven zero"
  },
  "wind_gust": null,
  "wind_speed": {
    "repr": "07",
    "value": 7,
    "spoken": "seven"
  },
  "wx_codes": [],
  "raw": "KBVS 250315Z AUTO 07007KT 10SM FEW023 OVC029 06/06 A2965 RMK A01",
  "sanitized": "KBVS 250315Z 07007KT 10SM FEW023 OVC029 06/06 A2965 RMK A01",
  "station": "KBVS",
  "time": {
    "repr": "250315Z",
    "dt": "2023-10-25T03:15:00Z"
  },
  "remarks": "RMK A01",
  "dewpoint": {
    "repr": "06",
    "value": 6,
    "spoken": "six"
  },
  "relative_humidity": 1,
  "remarks_info": {
    "maximum_temperature_6": null,
    "minimum_temperature_6": null,
    "pressure_tendency": null,
    "precip_36_hours": null,
    "precip_24_hours": null,
    "sunshine_minutes": null,
    "codes": [],
    "dewpoint_decimal": null,
    "maximum_temperature_24": null,
    "minimum_temperature_24": null,
    "precip_hourly": null,
    "sea_level_pressure": null,
    "snow_depth": null,
    "temperature_decimal": null
  },
  "runway_visibility": [],
  "temperature": {
    "repr": "06",
    "value": 6,
    "spoken": "six"
  },
  "wind_variable_direction": [],
  "density_altitude": -631,
  "pressure_altitude": 414,
  "units": {
    "accumulation": "in",
    "altimeter": "inHg",
    "altitude": "ft",
    "temperature": "C",
    "visibility": "sm",
    "wind_speed": "kt"
  }
}
