{
  "altimeter": {
    "repr": "A2978",
    "spoken": "two nine point seven eight",
    "value": 29.78
  },
  "clouds": [
    {
      "altitude": 37,
      "modifier": null,
      "repr": "SCT037",
      "type": "SCT"
    }
  ],
  "density_altitude": -401,
  "dewpoint": {
    "repr": "07",
    "spoken": "seven",
    "value": 7
  },
  "flight_rules": "VFR",
  "meta": {
    "stations_updated": "2024-01-01",
    "timestamp": "2024-04-04T22:01:39.822269Z"
  },
  "other": [],
  "pressure_altitude": 284,
  "raw": "KBVS 042155Z AUTO 29011KT 10SM SCT037 09/07 A2978 RMK A01",
  "relative_humidity": 0.8727995787648956,
  "remarks": "RMK A01",
  "remarks_info": {
    "codes": [],
    "dewpoint_decimal": null,
    "maximum_temperature_24": null,
    "maximum_temperature_6": null,
    "minimum_temperature_24": null,
    "minimum_temperature_6": null,
    "precip_24_hours": null,
    "precip_36_hours": null,
    "precip_hourly": null,
    "pressure_tendency": null,
    "sea_level_pressure": null,
    "snow_depth": null,
    "sunshine_minutes": null,
    "temperature_decimal": null
  },
  "runway_visibility": [],
  "sanitized": "KBVS 042155Z 29011KT 10SM SCT037 09/07 A2978 RMK A01",
  "station": "KBVS",
  "temperature": {
    "repr": "09",
    "spoken": "nine",
    "value": 9
  },
  "time": {
    "dt": "2024-04-04T21:55:00Z",
    "repr": "042155Z"
  },
  "units": {
    "accumulation": "in",
    "altimeter": "inHg",
    "altitude": "ft",
    "temperature": "C",
    "visibility": "sm",
    "wind_speed": "kt"
  },
  "visibility": {
    "repr": "10",
    "spoken": "one zero",
    "value": 10
  },
  "wind_direction": {
    "repr": "290",
    "spoken": "two nine zero",
    "value": 290
  },
  "wind_gust": null,
  "wind_speed": {
    "repr": "11",
    "spoken": "one one",
    "value": 11
  },
  "wind_variable_direction": [],
  "wx_codes": []
}
