{
  "meta": {
    "timestamp": "2022-12-18T19:20:36.038840Z",
    "stations_updated": "2022-09-05"
  },
  "altimeter": {
    "repr": "A2990",
    "value": 29.9,
    "spoken": "two nine point nine zero"
  },
  "clouds": [
    {
      "repr": "SCT017",
      "type": "SCT",
      "altitude": 17,
      "modifier": null
    },
    {
      "repr": "SCT031",
      "type": "SCT",
      "altitude": 31,
      "modifier": null
    },
    {
      "repr": "BKN060",
      "type": "BKN",
      "altitude": 60,
      "modifier": null
    }
  ],
  "flight_rules": "VFR",
  "other": [],
  "visibility": {
    "repr": "10",
    "value": 10,
    "spoken": "one zero"
  },
  "wind_direction": {
    "repr": "VRB",
    "value": null,
    "spoken": "variable"
  },
  "wind_gust": {
    "repr": "15",
    "value": 15,
    "spoken": "one five"
  },
  "wind_speed": {
    "repr": "05",
    "value": 5,
    "spoken": "five"
  },
  "wx_codes": [],
  "raw": "KBVS 181855Z AUTO VRB05G15KT 10SM SCT017 SCT031 BKN060 03/02 A2990 RMK A01",
  "sanitized": "KBVS 181855Z VRB05G15KT 10SM SCT017 SCT031 BKN060 03/02 A2990 RMK A01",
  "station": "KBVS",
  "time": {
    "repr": "181855Z",
    "dt": "2022-12-18T18:55:00Z"
  },
  "remarks": "RMK A01",
  "dewpoint": {
    "repr": "02",
    "value": 2,
    "spoken": "two"
  },
  "relative_humidity": 0.9313691326652258,
  "remarks_info": {
    "maximum_temperature_6": null,
    "minimum_temperature_6": null,
    "pressure_tendency": null,
    "precip_36_hours": null,
    "precip_24_hours": null,
    "sunshine_minutes": null,
    "codes": [],
    "dewpoint_decimal": null,
    "maximum_temperature_24": null,
    "minimum_temperature_24": null,
    "precip_hourly": null,
    "sea_level_pressure": null,
    "snow_depth": null,
    "temperature_decimal": null
  },
  "runway_visibility": [],
  "temperature": {
    "repr": "03",
    "value": 3,
    "spoken": "three"
  },
  "wind_variable_direction": [],
  "density_altitude": -1241,
  "pressure_altitude": 164,
  "units": {
    "accumulation": "in",
    "altimeter": "inHg",
    "altitude": "ft",
    "temperature": "C",
    "visibility": "sm",
    "wind_speed": "kt"
  }
}
