{
  "meta": {
    "timestamp": "2023-10-17T11:01:37.274645Z",
    "stations_updated": "2023-10-01"
  },
  "altimeter": {
    "repr": "A3016",
    "value": 30.16,
    "spoken": "three zero point one six"
  },
  "clouds": [
    {
      "repr": "SCT043",
      "type": "SCT",
      "altitude": 43,
      "modifier": null
    },
    {
      "repr": "SCT050",
      "type": "SCT",
      "altitude": 50,
      "modifier": null
    },
    {
      "repr": "BKN090",
      "type": "BKN",
      "altitude": 90,
      "modifier": null
    }
  ],
  "flight_rules": "MVFR",
  "other": [],
  "visibility": {
    "repr": "5",
    "value": 5,
    "spoken": "five"
  },
  "wind_direction": {
    "repr": "000",
    "value": 0,
    "spoken": "zero zero zero"
  },
  "wind_gust": null,
  "wind_speed": {
    "repr": "00",
    "value": 0,
    "spoken": "zero"
  },
  "wx_codes": [
    {
      "repr": "BR",
      "value": "Mist"
    }
  ],
  "raw": "KBVS 171055Z AUTO 00000KT 5SM BR SCT043 SCT050 BKN090 08/08 A3016 RMK A01 KBVS 171035Z AUTO 00000KT 3SM BR FEW036 SCT042 BKN060 08/08 A3016 RMK A01 KBVS 171015Z AUTO 04004KT 7SM FEW002 FEW036 BKN044 09/09 A3014 RMK A01 KBVS 170955Z AUTO 00000KT 10SM BKN043 BKN049 OVC085 08/08 A3015 RMK A01 KBVS 170935Z AUTO 00000KT 2 1/2SM BR SCT039 BKN048 BKN055 09/09 A3014 RMK A01 KBVS 170915Z AUTO 00000KT 8SM BKN039 BKN047 BKN055 09/09 A3013 RMK A01",
  "sanitized": "KBVS 171055Z 00000KT 5SM BR SCT043 SCT050 BKN090 08/08 A3016 RMK A01 KBVS 171035Z AUTO 00000KT 3SM BR FEW036 SCT042 BKN060 08/08 A3016 RMK A01 KBVS 171015Z AUTO 04004KT 7SM FEW002 FEW036 BKN044 09/09 A3014 RMK A01 KBVS 170955Z AUTO 00000KT 10SM BKN043 BKN049 OVC085 08/08 A3015 RMK A01 KBVS 170935Z AUTO 00000KT 2 1/2SM BR SCT039 BKN048 BKN055 09/09 A3014 RMK A01 KBVS 170915Z AUTO 00000KT 8SM BKN039 BKN047 BKN055 09/09 A3013 RMK A01",
  "station": "KBVS",
  "time": {
    "repr": "171055Z",
    "dt": "2023-10-17T10:55:00Z"
  },
  "remarks": "RMK A01 KBVS 171035Z AUTO 00000KT 3SM BR FEW036 SCT042 BKN060 08/08 A3016 RMK A01 KBVS 171015Z AUTO 04004KT 7SM FEW002 FEW036 BKN044 09/09 A3014 RMK A01 KBVS 170955Z AUTO 00000KT 10SM BKN043 BKN049 OVC085 08/08 A3015 RMK A01 KBVS 170935Z AUTO 00000KT 2 1/2SM BR SCT039 BKN048 BKN055 09/09 A3014 RMK A01 KBVS 170915Z AUTO 00000KT 8SM BKN039 BKN047 BKN055 09/09 A3013 RMK A01",
  "dewpoint": {
    "repr": "08",
    "value": 8,
    "spoken": "eight"
  },
  "relative_humidity": 1,
  "remarks_info": {
    "maximum_temperature_6": null,
    "minimum_temperature_6": null,
    "pressure_tendency": null,
    "precip_36_hours": null,
    "precip_24_hours": null,
    "sunshine_minutes": null,
    "codes": [],
    "dewpoint_decimal": null,
    "maximum_temperature_24": null,
    "minimum_temperature_24": null,
    "precip_hourly": null,
    "sea_level_pressure": null,
    "snow_depth": null,
    "temperature_decimal": null
  },
  "runway_visibility": [],
  "temperature": {
    "repr": "08",
    "value": 8,
    "spoken": "eight"
  },
  "wind_variable_direction": [],
  "density_altitude": -901,
  "pressure_altitude": -96,
  "units": {
    "accumulation": "in",
    "altimeter": "inHg",
    "altitude": "ft",
    "temperature": "C",
    "visibility": "sm",
    "wind_speed": "kt"
  }
}
