{
  "altimeter": {
    "repr": "A2979",
    "spoken": "two nine point seven nine",
    "value": 29.79
  },
  "clouds": [
    {
      "altitude": 20,
      "modifier": null,
      "repr": "BKN020",
      "type": "BKN"
    },
    {
      "altitude": 25,
      "modifier": null,
      "repr": "OVC025",
      "type": "OVC"
    }
  ],
  "density_altitude": -51,
  "dewpoint": {
    "repr": "12",
    "spoken": "one two",
    "value": 12
  },
  "flight_rules": "MVFR",
  "meta": {
    "cache-timestamp": "2024-06-04T14:02:02.897000Z",
    "stations_updated": "2024-05-13",
    "timestamp": "2024-06-04T14:02:42.578003Z"
  },
  "other": [],
  "pressure_altitude": 274,
  "raw": "KBVS 041335Z AUTO 12011G19KT 080V150 10SM BKN020 OVC025 12/12 A2979 RMK A01",
  "relative_humidity": 1,
  "remarks": "RMK A01",
  "remarks_info": {
    "codes": [],
    "dewpoint_decimal": null,
    "maximum_temperature_24": null,
    "maximum_temperature_6": null,
    "minimum_temperature_24": null,
    "minimum_temperature_6": null,
    "precip_24_hours": null,
    "precip_36_hours": null,
    "precip_hourly": null,
    "pressure_tendency": null,
    "sea_level_pressure": null,
    "snow_depth": null,
    "sunshine_minutes": null,
    "temperature_decimal": null
  },
  "runway_visibility": [],
  "sanitized": "KBVS 041335Z 12011G19KT 080V150 10SM BKN020 OVC025 12/12 A2979 RMK A01",
  "station": "KBVS",
  "temperature": {
    "repr": "12",
    "spoken": "one two",
    "value": 12
  },
  "time": {
    "dt": "2024-06-04T13:35:00Z",
    "repr": "041335Z"
  },
  "units": {
    "accumulation": "in",
    "altimeter": "inHg",
    "altitude": "ft",
    "temperature": "C",
    "visibility": "sm",
    "wind_speed": "kt"
  },
  "visibility": {
    "repr": "10",
    "spoken": "one zero",
    "value": 10
  },
  "wind_direction": {
    "repr": "120",
    "spoken": "one two zero",
    "value": 120
  },
  "wind_gust": {
    "repr": "19",
    "spoken": "one nine",
    "value": 19
  },
  "wind_speed": {
    "repr": "11",
    "spoken": "one one",
    "value": 11
  },
  "wind_variable_direction": [
    {
      "repr": "080",
      "spoken": "zero eight zero",
      "value": 80
    },
    {
      "repr": "150",
      "spoken": "one five zero",
      "value": 150
    }
  ],
  "wx_codes": []
}
