{
  "meta": {
    "timestamp": "2022-08-26T19:01:36.030967Z",
    "stations_updated": "2022-07-17"
  },
  "altimeter": {
    "repr": "A3000",
    "value": 30,
    "spoken": "three zero point zero zero"
  },
  "clouds": [
    {
      "repr": "BKN016",
      "type": "BKN",
      "altitude": 16,
      "modifier": null
    },
    {
      "repr": "OVC022",
      "type": "OVC",
      "altitude": 22,
      "modifier": null
    }
  ],
  "flight_rules": "MVFR",
  "other": [],
  "visibility": {
    "repr": "9",
    "value": 9,
    "spoken": "nine"
  },
  "wind_direction": {
    "repr": "180",
    "value": 180,
    "spoken": "one eight zero"
  },
  "wind_gust": {
    "repr": "13",
    "value": 13,
    "spoken": "one three"
  },
  "wind_speed": {
    "repr": "07",
    "value": 7,
    "spoken": "seven"
  },
  "wx_codes": [],
  "raw": "KBVS 261855Z AUTO 18007G13KT 9SM BKN016 OVC022 18/18 A3000 RMK A01",
  "sanitized": "KBVS 261855Z 18007G13KT 9SM BKN016 OVC022 18/18 A3000 RMK A01",
  "station": "KBVS",
  "time": {
    "repr": "261855Z",
    "dt": "2022-08-26T18:55:00Z"
  },
  "remarks": "RMK A01",
  "dewpoint": {
    "repr": "18",
    "value": 18,
    "spoken": "one eight"
  },
  "relative_humidity": 1,
  "remarks_info": {
    "maximum_temperature_6": null,
    "minimum_temperature_6": null,
    "pressure_tendency": null,
    "precip_36_hours": null,
    "precip_24_hours": null,
    "sunshine_minutes": null,
    "codes": [],
    "dewpoint_decimal": null,
    "maximum_temperature_24": null,
    "minimum_temperature_24": null,
    "precip_hourly": null,
    "sea_level_pressure": null,
    "snow_depth": null,
    "temperature_decimal": null
  },
  "runway_visibility": [],
  "temperature": {
    "repr": "18",
    "value": 18,
    "spoken": "one eight"
  },
  "wind_variable_direction": [],
  "density_altitude": 459,
  "pressure_altitude": 64,
  "units": {
    "accumulation": "in",
    "altimeter": "inHg",
    "altitude": "ft",
    "temperature": "C",
    "visibility": "sm",
    "wind_speed": "kt"
  }
}
