{
  "altimeter": {
    "repr": "A3023",
    "spoken": "three zero point two three",
    "value": 30.23
  },
  "clouds": [
    {
      "altitude": 23,
      "modifier": null,
      "repr": "FEW023",
      "type": "FEW"
    },
    {
      "altitude": 32,
      "modifier": null,
      "repr": "SCT032",
      "type": "SCT"
    },
    {
      "altitude": 38,
      "modifier": null,
      "repr": "BKN038",
      "type": "BKN"
    }
  ],
  "density_altitude": -1211,
  "dewpoint": {
    "repr": "02",
    "spoken": "two",
    "value": 2
  },
  "flight_rules": "VFR",
  "meta": {
    "cache-timestamp": "2023-12-09T18:04:03.832000Z",
    "stations_updated": "2023-10-28",
    "timestamp": "2023-12-09T18:04:34.460259Z"
  },
  "other": [],
  "pressure_altitude": -166,
  "raw": "KBVS 091735Z AUTO 15007KT 120V190 10SM FEW023 SCT032 BKN038 06/02 A3023 RMK A01",
  "relative_humidity": 0.7550443878881108,
  "remarks": "RMK A01",
  "remarks_info": {
    "codes": [],
    "dewpoint_decimal": null,
    "maximum_temperature_24": null,
    "maximum_temperature_6": null,
    "minimum_temperature_24": null,
    "minimum_temperature_6": null,
    "precip_24_hours": null,
    "precip_36_hours": null,
    "precip_hourly": null,
    "pressure_tendency": null,
    "sea_level_pressure": null,
    "snow_depth": null,
    "sunshine_minutes": null,
    "temperature_decimal": null
  },
  "runway_visibility": [],
  "sanitized": "KBVS 091735Z 15007KT 120V190 10SM FEW023 SCT032 BKN038 06/02 A3023 RMK A01",
  "station": "KBVS",
  "temperature": {
    "repr": "06",
    "spoken": "six",
    "value": 6
  },
  "time": {
    "dt": "2023-12-09T17:35:00Z",
    "repr": "091735Z"
  },
  "units": {
    "accumulation": "in",
    "altimeter": "inHg",
    "altitude": "ft",
    "temperature": "C",
    "visibility": "sm",
    "wind_speed": "kt"
  },
  "visibility": {
    "repr": "10",
    "spoken": "one zero",
    "value": 10
  },
  "wind_direction": {
    "repr": "150",
    "spoken": "one five zero",
    "value": 150
  },
  "wind_gust": null,
  "wind_speed": {
    "repr": "07",
    "spoken": "seven",
    "value": 7
  },
  "wind_variable_direction": [
    {
      "repr": "120",
      "spoken": "one two zero",
      "value": 120
    },
    {
      "repr": "190",
      "spoken": "one nine zero",
      "value": 190
    }
  ],
  "wx_codes": []
}
