{
  "altimeter": {
    "repr": "A3061",
    "spoken": "three zero point six one",
    "value": 30.61
  },
  "clouds": [
    {
      "altitude": 15,
      "modifier": null,
      "repr": "FEW015",
      "type": "FEW"
    },
    {
      "altitude": 26,
      "modifier": null,
      "repr": "SCT026",
      "type": "SCT"
    }
  ],
  "density_altitude": -2311,
  "dewpoint": {
    "repr": "M00",
    "spoken": "zero",
    "value": 0
  },
  "flight_rules": "IFR",
  "meta": {
    "stations_updated": "2024-12-02",
    "timestamp": "2025-01-13T11:06:41.373169Z"
  },
  "other": [],
  "pressure_altitude": -546,
  "raw": "KBVS 131055Z AUTO 00000KT 2SM BR FEW015 SCT026 M00/M00 A3061 RMK A01 VIS 1 1/4V5",
  "relative_humidity": 1.0,
  "remarks": "RMK A01 VIS 1 1/4V5",
  "remarks_info": {
    "codes": [],
    "dewpoint_decimal": null,
    "maximum_temperature_24": null,
    "maximum_temperature_6": null,
    "minimum_temperature_24": null,
    "minimum_temperature_6": null,
    "precip_24_hours": null,
    "precip_36_hours": null,
    "precip_hourly": null,
    "pressure_tendency": null,
    "sea_level_pressure": null,
    "snow_depth": null,
    "sunshine_minutes": null,
    "temperature_decimal": null
  },
  "runway_visibility": [],
  "sanitized": "KBVS 131055Z 00000KT 2SM BR FEW015 SCT026 M00/M00 A3061 RMK A01 VIS 1 1/4V5",
  "station": "KBVS",
  "temperature": {
    "repr": "M00",
    "spoken": "zero",
    "value": 0
  },
  "time": {
    "dt": "2025-01-13T10:55:00Z",
    "repr": "131055Z"
  },
  "units": {
    "accumulation": "in",
    "altimeter": "inHg",
    "altitude": "ft",
    "temperature": "C",
    "visibility": "sm",
    "wind_speed": "kt"
  },
  "visibility": {
    "repr": "2",
    "spoken": "two",
    "value": 2
  },
  "wind_direction": {
    "repr": "000",
    "spoken": "zero zero zero",
    "value": 0
  },
  "wind_gust": null,
  "wind_speed": {
    "repr": "00",
    "spoken": "zero",
    "value": 0
  },
  "wind_variable_direction": [],
  "wx_codes": [
    {
      "repr": "BR",
      "value": "Mist"
    }
  ]
}
