{
  "altimeter": {
    "repr": "A2967",
    "spoken": "two nine point six seven",
    "value": 29.67
  },
  "clouds": [
    {
      "altitude": 4,
      "modifier": null,
      "repr": "FEW004",
      "type": "FEW"
    },
    {
      "altitude": 11,
      "modifier": null,
      "repr": "SCT011",
      "type": "SCT"
    },
    {
      "altitude": 47,
      "modifier": null,
      "repr": "OVC047",
      "type": "OVC"
    }
  ],
  "density_altitude": 69,
  "dewpoint": {
    "repr": "10",
    "spoken": "one zero",
    "value": 10
  },
  "flight_rules": "VFR",
  "meta": {
    "stations_updated": "2024-06-12",
    "timestamp": "2024-10-27T11:01:50.132387Z"
  },
  "other": [],
  "pressure_altitude": 394,
  "raw": "KBVS 271055Z AUTO 00000KT 7SM FEW004 SCT011 OVC047 12/10 A2967 RMK A01 P0026",
  "relative_humidity": 0.8755870244132871,
  "remarks": "RMK A01 P0026",
  "remarks_info": {
    "codes": [],
    "dewpoint_decimal": null,
    "maximum_temperature_24": null,
    "maximum_temperature_6": null,
    "minimum_temperature_24": null,
    "minimum_temperature_6": null,
    "precip_24_hours": null,
    "precip_36_hours": null,
    "precip_hourly": {
      "repr": "P0026",
      "spoken": "zero point two six",
      "value": 0.26
    },
    "pressure_tendency": null,
    "sea_level_pressure": null,
    "snow_depth": null,
    "sunshine_minutes": null,
    "temperature_decimal": null
  },
  "runway_visibility": [],
  "sanitized": "KBVS 271055Z 00000KT 7SM FEW004 SCT011 OVC047 12/10 A2967 RMK A01 P0026",
  "station": "KBVS",
  "temperature": {
    "repr": "12",
    "spoken": "one two",
    "value": 12
  },
  "time": {
    "dt": "2024-10-27T10:55:00Z",
    "repr": "271055Z"
  },
  "units": {
    "accumulation": "in",
    "altimeter": "inHg",
    "altitude": "ft",
    "temperature": "C",
    "visibility": "sm",
    "wind_speed": "kt"
  },
  "visibility": {
    "repr": "7",
    "spoken": "seven",
    "value": 7
  },
  "wind_direction": {
    "repr": "000",
    "spoken": "zero zero zero",
    "value": 0
  },
  "wind_gust": null,
  "wind_speed": {
    "repr": "00",
    "spoken": "zero",
    "value": 0
  },
  "wind_variable_direction": [],
  "wx_codes": []
}
