{
  "altimeter": {
    "repr": "A3007",
    "spoken": "three zero point zero seven",
    "value": 30.07
  },
  "clouds": [
    {
      "altitude": 4,
      "modifier": null,
      "repr": "FEW004",
      "type": "FEW"
    },
    {
      "altitude": 13,
      "modifier": null,
      "repr": "SCT013",
      "type": "SCT"
    },
    {
      "altitude": 24,
      "modifier": null,
      "repr": "OVC024",
      "type": "OVC"
    }
  ],
  "density_altitude": -571,
  "dewpoint": {
    "repr": "10",
    "spoken": "one zero",
    "value": 10
  },
  "flight_rules": "MVFR",
  "meta": {
    "cache-timestamp": "2024-05-28T17:01:40.101000Z",
    "stations_updated": "2024-05-13",
    "timestamp": "2024-05-28T17:01:56.222039Z"
  },
  "other": [],
  "pressure_altitude": -6,
  "raw": "KBVS 281655Z AUTO 00000KT 10SM FEW004 SCT013 OVC024 10/10 A3007 RMK A01 P0006",
  "relative_humidity": 1,
  "remarks": "RMK A01 P0006",
  "remarks_info": {
    "codes": [],
    "dewpoint_decimal": null,
    "maximum_temperature_24": null,
    "maximum_temperature_6": null,
    "minimum_temperature_24": null,
    "minimum_temperature_6": null,
    "precip_24_hours": null,
    "precip_36_hours": null,
    "precip_hourly": {
      "repr": "P0006",
      "spoken": "zero point zero six",
      "value": 0.06
    },
    "pressure_tendency": null,
    "sea_level_pressure": null,
    "snow_depth": null,
    "sunshine_minutes": null,
    "temperature_decimal": null
  },
  "runway_visibility": [],
  "sanitized": "KBVS 281655Z 00000KT 10SM FEW004 SCT013 OVC024 10/10 A3007 RMK A01 P0006",
  "station": "KBVS",
  "temperature": {
    "repr": "10",
    "spoken": "one zero",
    "value": 10
  },
  "time": {
    "dt": "2024-05-28T16:55:00Z",
    "repr": "281655Z"
  },
  "units": {
    "accumulation": "in",
    "altimeter": "inHg",
    "altitude": "ft",
    "temperature": "C",
    "visibility": "sm",
    "wind_speed": "kt"
  },
  "visibility": {
    "repr": "10",
    "spoken": "one zero",
    "value": 10
  },
  "wind_direction": {
    "repr": "000",
    "spoken": "zero zero zero",
    "value": 0
  },
  "wind_gust": null,
  "wind_speed": {
    "repr": "00",
    "spoken": "zero",
    "value": 0
  },
  "wind_variable_direction": [],
  "wx_codes": []
}
