{
  "meta": {
    "timestamp": "2023-05-25T16:29:41.828505Z",
    "stations_updated": "2023-03-11"
  },
  "altimeter": {
    "repr": "A2998",
    "value": 29.98,
    "spoken": "two nine point nine eight"
  },
  "clouds": [],
  "flight_rules": "VFR",
  "other": [],
  "visibility": {
    "repr": "8",
    "value": 8,
    "spoken": "eight"
  },
  "wind_direction": {
    "repr": "000",
    "value": 0,
    "spoken": "zero zero zero"
  },
  "wind_gust": null,
  "wind_speed": {
    "repr": "00",
    "value": 0,
    "spoken": "zero"
  },
  "wx_codes": [],
  "raw": "KBVS 251615Z AUTO 00000KT 8SM CLR 16/13 A2998 RMK A01",
  "sanitized": "KBVS 251615Z 00000KT 8SM 16/13 A2998 RMK A01",
  "station": "KBVS",
  "time": {
    "repr": "251615Z",
    "dt": "2023-05-25T16:15:00Z"
  },
  "remarks": "RMK A01",
  "dewpoint": {
    "repr": "13",
    "value": 13,
    "spoken": "one three"
  },
  "relative_humidity": 0.8237203290057102,
  "remarks_info": {
    "maximum_temperature_6": null,
    "minimum_temperature_6": null,
    "pressure_tendency": null,
    "precip_36_hours": null,
    "precip_24_hours": null,
    "sunshine_minutes": null,
    "codes": [],
    "dewpoint_decimal": null,
    "maximum_temperature_24": null,
    "minimum_temperature_24": null,
    "precip_hourly": null,
    "sea_level_pressure": null,
    "snow_depth": null,
    "temperature_decimal": null
  },
  "runway_visibility": [],
  "temperature": {
    "repr": "16",
    "value": 16,
    "spoken": "one six"
  },
  "wind_variable_direction": [],
  "density_altitude": 239,
  "pressure_altitude": 84,
  "units": {
    "accumulation": "in",
    "altimeter": "inHg",
    "altitude": "ft",
    "temperature": "C",
    "visibility": "sm",
    "wind_speed": "kt"
  }
}
