{
  "meta": {
    "timestamp": "2023-01-15T13:08:44.078992Z",
    "stations_updated": "2022-12-27",
    "cache-timestamp": "2023-01-15T13:08:05.297000Z"
  },
  "altimeter": {
    "repr": "A2928",
    "value": 29.28,
    "spoken": "two nine point two eight"
  },
  "clouds": [
    {
      "repr": "FEW120",
      "type": "FEW",
      "altitude": 120,
      "modifier": null
    }
  ],
  "flight_rules": "VFR",
  "other": [],
  "visibility": {
    "repr": "10",
    "value": 10,
    "spoken": "one zero"
  },
  "wind_direction": {
    "repr": "030",
    "value": 30,
    "spoken": "zero three zero"
  },
  "wind_gust": null,
  "wind_speed": {
    "repr": "09",
    "value": 9,
    "spoken": "nine"
  },
  "wx_codes": [],
  "raw": "KBVS 151255Z AUTO 03009KT 10SM FEW120 08/06 A2928 RMK A01",
  "sanitized": "KBVS 151255Z 03009KT 10SM FEW120 08/06 A2928 RMK A01",
  "station": "KBVS",
  "time": {
    "repr": "151255Z",
    "dt": "2023-01-15T12:55:00Z"
  },
  "remarks": "RMK A01",
  "dewpoint": {
    "repr": "06",
    "value": 6,
    "spoken": "six"
  },
  "relative_humidity": 0.87185013383306,
  "remarks_info": {
    "maximum_temperature_6": null,
    "minimum_temperature_6": null,
    "pressure_tendency": null,
    "precip_36_hours": null,
    "precip_24_hours": null,
    "sunshine_minutes": null,
    "codes": [],
    "dewpoint_decimal": null,
    "maximum_temperature_24": null,
    "minimum_temperature_24": null,
    "precip_hourly": null,
    "sea_level_pressure": null,
    "snow_depth": null,
    "temperature_decimal": null
  },
  "runway_visibility": [],
  "temperature": {
    "repr": "08",
    "value": 8,
    "spoken": "eight"
  },
  "wind_variable_direction": [],
  "density_altitude": -21,
  "pressure_altitude": 784,
  "units": {
    "accumulation": "in",
    "altimeter": "inHg",
    "altitude": "ft",
    "temperature": "C",
    "visibility": "sm",
    "wind_speed": "kt"
  }
}
