{
  "altimeter": {
    "repr": "A2989",
    "spoken": "two nine point eight nine",
    "value": 29.89
  },
  "clouds": [
    {
      "altitude": 29,
      "modifier": null,
      "repr": "OVC029",
      "type": "OVC"
    }
  ],
  "density_altitude": -391,
  "dewpoint": {
    "repr": "10",
    "spoken": "one zero",
    "value": 10
  },
  "flight_rules": "MVFR",
  "meta": {
    "stations_updated": "2023-10-28",
    "timestamp": "2023-11-02T06:06:58.452052Z"
  },
  "other": [],
  "pressure_altitude": 174,
  "raw": "KBVS 020555Z AUTO 00000KT 10SM OVC029 10/10 A2989 RMK A01 P0004",
  "relative_humidity": 1,
  "remarks": "RMK A01 P0004",
  "remarks_info": {
    "codes": [],
    "dewpoint_decimal": null,
    "maximum_temperature_24": null,
    "maximum_temperature_6": null,
    "minimum_temperature_24": null,
    "minimum_temperature_6": null,
    "precip_24_hours": null,
    "precip_36_hours": null,
    "precip_hourly": {
      "repr": "P0004",
      "spoken": "zero point zero four",
      "value": 0.04
    },
    "pressure_tendency": null,
    "sea_level_pressure": null,
    "snow_depth": null,
    "sunshine_minutes": null,
    "temperature_decimal": null
  },
  "runway_visibility": [],
  "sanitized": "KBVS 020555Z 00000KT 10SM OVC029 10/10 A2989 RMK A01 P0004",
  "station": "KBVS",
  "temperature": {
    "repr": "10",
    "spoken": "one zero",
    "value": 10
  },
  "time": {
    "dt": "2023-11-02T05:55:00Z",
    "repr": "020555Z"
  },
  "units": {
    "accumulation": "in",
    "altimeter": "inHg",
    "altitude": "ft",
    "temperature": "C",
    "visibility": "sm",
    "wind_speed": "kt"
  },
  "visibility": {
    "repr": "10",
    "spoken": "one zero",
    "value": 10
  },
  "wind_direction": {
    "repr": "000",
    "spoken": "zero zero zero",
    "value": 0
  },
  "wind_gust": null,
  "wind_speed": {
    "repr": "00",
    "spoken": "zero",
    "value": 0
  },
  "wind_variable_direction": [],
  "wx_codes": []
}
