{
  "meta": {
    "timestamp": "2023-10-19T05:01:55.658939Z",
    "stations_updated": "2023-10-01"
  },
  "altimeter": {
    "repr": "A3001",
    "value": 30.01,
    "spoken": "three zero point zero one"
  },
  "clouds": [],
  "flight_rules": "IFR",
  "other": [],
  "visibility": {
    "repr": "3/2",
    "value": 1.5,
    "spoken": "one and one half",
    "numerator": 3,
    "denominator": 2,
    "normalized": "1 1/2"
  },
  "wind_direction": {
    "repr": "000",
    "value": 0,
    "spoken": "zero zero zero"
  },
  "wind_gust": null,
  "wind_speed": {
    "repr": "00",
    "value": 0,
    "spoken": "zero"
  },
  "wx_codes": [
    {
      "repr": "BR",
      "value": "Mist"
    }
  ],
  "raw": "KBVS 190455Z AUTO 00000KT 1 1/2SM BR CLR 10/10 A3001 RMK A01 VIS 1/2V5 KBVS 190435Z AUTO 00000KT 10SM CLR 11/11 A3001 RMK A01 KBVS 190415Z AUTO 00000KT 10SM CLR 11/11 A3001 RMK A01 KBVS 190355Z AUTO 00000KT 10SM CLR 12/12 A3000 RMK A01 KBVS 190335Z AUTO 29004KT 10SM CLR 12/12 A3000 RMK A01 KBVS 190315Z AUTO 00000KT 10SM CLR 12/12 A2999 RMK A01",
  "sanitized": "KBVS 190455Z 00000KT 1 1/2SM BR 10/10 A3001 RMK A01 VIS 1/2V5 KBVS 190435Z AUTO 00000KT 10SM CLR 11/11 A3001 RMK A01 KBVS 190415Z AUTO 00000KT 10SM CLR 11/11 A3001 RMK A01 KBVS 190355Z AUTO 00000KT 10SM CLR 12/12 A3000 RMK A01 KBVS 190335Z AUTO 29004KT 10SM CLR 12/12 A3000 RMK A01 KBVS 190315Z AUTO 00000KT 10SM CLR 12/12 A2999 RMK A01",
  "station": "KBVS",
  "time": {
    "repr": "190455Z",
    "dt": "2023-10-19T04:55:00Z"
  },
  "remarks": "RMK A01 VIS 1/2V5 KBVS 190435Z AUTO 00000KT 10SM CLR 11/11 A3001 RMK A01 KBVS 190415Z AUTO 00000KT 10SM CLR 11/11 A3001 RMK A01 KBVS 190355Z AUTO 00000KT 10SM CLR 12/12 A3000 RMK A01 KBVS 190335Z AUTO 29004KT 10SM CLR 12/12 A3000 RMK A01 KBVS 190315Z AUTO 00000KT 10SM CLR 12/12 A2999 RMK A01",
  "dewpoint": {
    "repr": "10",
    "value": 10,
    "spoken": "one zero"
  },
  "relative_humidity": 1,
  "remarks_info": {
    "maximum_temperature_6": null,
    "minimum_temperature_6": null,
    "pressure_tendency": null,
    "precip_36_hours": null,
    "precip_24_hours": null,
    "sunshine_minutes": null,
    "codes": [],
    "dewpoint_decimal": null,
    "maximum_temperature_24": null,
    "minimum_temperature_24": null,
    "precip_hourly": null,
    "sea_level_pressure": null,
    "snow_depth": null,
    "temperature_decimal": null
  },
  "runway_visibility": [],
  "temperature": {
    "repr": "10",
    "value": 10,
    "spoken": "one zero"
  },
  "wind_variable_direction": [],
  "density_altitude": -511,
  "pressure_altitude": 54,
  "units": {
    "accumulation": "in",
    "altimeter": "inHg",
    "altitude": "ft",
    "temperature": "C",
    "visibility": "sm",
    "wind_speed": "kt"
  }
}
