{
  "meta": {
    "timestamp": "2022-12-20T10:30:23.416692Z",
    "stations_updated": "2022-09-05"
  },
  "altimeter": {
    "repr": "A3015",
    "value": 30.15,
    "spoken": "three zero point one five"
  },
  "clouds": [
    {
      "repr": "OVC003",
      "type": "OVC",
      "altitude": 3,
      "modifier": null
    }
  ],
  "flight_rules": "LIFR",
  "other": [],
  "visibility": {
    "repr": "5/4",
    "value": 1.25,
    "spoken": "one and one quarter",
    "numerator": 5,
    "denominator": 4,
    "normalized": "1 1/4"
  },
  "wind_direction": {
    "repr": "330",
    "value": 330,
    "spoken": "three three zero"
  },
  "wind_gust": null,
  "wind_speed": {
    "repr": "10",
    "value": 10,
    "spoken": "one zero"
  },
  "wx_codes": [
    {
      "repr": "BR",
      "value": "Mist"
    }
  ],
  "raw": "KBVS 201015Z AUTO 33010KT 1 1/4SM BR OVC003 M05/M05 A3015 RMK A01",
  "sanitized": "KBVS 201015Z 33010KT 1 1/4SM BR OVC003 M05/M05 A3015 RMK A01",
  "station": "KBVS",
  "time": {
    "repr": "201015Z",
    "dt": "2022-12-20T10:15:00Z"
  },
  "remarks": "RMK A01",
  "dewpoint": {
    "repr": "M05",
    "value": -5,
    "spoken": "minus five"
  },
  "relative_humidity": 1,
  "remarks_info": {
    "maximum_temperature_6": null,
    "minimum_temperature_6": null,
    "pressure_tendency": null,
    "precip_36_hours": null,
    "precip_24_hours": null,
    "sunshine_minutes": null,
    "codes": [],
    "dewpoint_decimal": null,
    "maximum_temperature_24": null,
    "minimum_temperature_24": null,
    "precip_hourly": null,
    "sea_level_pressure": null,
    "snow_depth": null,
    "temperature_decimal": null
  },
  "runway_visibility": [],
  "temperature": {
    "repr": "M05",
    "value": -5,
    "spoken": "minus five"
  },
  "wind_variable_direction": [],
  "density_altitude": -2451,
  "pressure_altitude": -86,
  "units": {
    "accumulation": "in",
    "altimeter": "inHg",
    "altitude": "ft",
    "temperature": "C",
    "visibility": "sm",
    "wind_speed": "kt"
  }
}
