{
  "altimeter": {
    "repr": "A2991",
    "spoken": "two nine point nine one",
    "value": 29.91
  },
  "clouds": [],
  "density_altitude": -2451,
  "dewpoint": {
    "repr": "M12",
    "spoken": "minus one two",
    "value": -12
  },
  "flight_rules": "VFR",
  "meta": {
    "cache-timestamp": "2024-01-14T03:40:03.774000Z",
    "stations_updated": "2023-10-28",
    "timestamp": "2024-01-14T03:40:36.707696Z"
  },
  "other": [],
  "pressure_altitude": 154,
  "raw": "KBVS 140315Z AUTO 00000KT 10SM CLR M07/M12 A2991 RMK A01",
  "relative_humidity": 0.6750709985032918,
  "remarks": "RMK A01",
  "remarks_info": {
    "codes": [],
    "dewpoint_decimal": null,
    "maximum_temperature_24": null,
    "maximum_temperature_6": null,
    "minimum_temperature_24": null,
    "minimum_temperature_6": null,
    "precip_24_hours": null,
    "precip_36_hours": null,
    "precip_hourly": null,
    "pressure_tendency": null,
    "sea_level_pressure": null,
    "snow_depth": null,
    "sunshine_minutes": null,
    "temperature_decimal": null
  },
  "runway_visibility": [],
  "sanitized": "KBVS 140315Z 00000KT 10SM M07/M12 A2991 RMK A01",
  "station": "KBVS",
  "temperature": {
    "repr": "M07",
    "spoken": "minus seven",
    "value": -7
  },
  "time": {
    "dt": "2024-01-14T03:15:00Z",
    "repr": "140315Z"
  },
  "units": {
    "accumulation": "in",
    "altimeter": "inHg",
    "altitude": "ft",
    "temperature": "C",
    "visibility": "sm",
    "wind_speed": "kt"
  },
  "visibility": {
    "repr": "10",
    "spoken": "one zero",
    "value": 10
  },
  "wind_direction": {
    "repr": "000",
    "spoken": "zero zero zero",
    "value": 0
  },
  "wind_gust": null,
  "wind_speed": {
    "repr": "00",
    "spoken": "zero",
    "value": 0
  },
  "wind_variable_direction": [],
  "wx_codes": []
}
