{
  "altimeter": {
    "repr": "A2997",
    "spoken": "two nine point nine seven",
    "value": 29.97
  },
  "clouds": [
    {
      "altitude": 20,
      "modifier": null,
      "repr": "FEW020",
      "type": "FEW"
    },
    {
      "altitude": 34,
      "modifier": null,
      "repr": "BKN034",
      "type": "BKN"
    },
    {
      "altitude": 39,
      "modifier": null,
      "repr": "OVC039",
      "type": "OVC"
    }
  ],
  "density_altitude": -351,
  "dewpoint": {
    "repr": "11",
    "spoken": "one one",
    "value": 11
  },
  "flight_rules": "VFR",
  "meta": {
    "cache-timestamp": "2023-11-02T02:28:36.693000Z",
    "stations_updated": "2023-10-28",
    "timestamp": "2023-11-02T02:28:46.852225Z"
  },
  "other": [],
  "pressure_altitude": 94,
  "raw": "KBVS 020215Z AUTO 14004G11KT 7SM FEW020 BKN034 OVC039 11/11 A2997 RMK A01",
  "relative_humidity": 1,
  "remarks": "RMK A01",
  "remarks_info": {
    "codes": [],
    "dewpoint_decimal": null,
    "maximum_temperature_24": null,
    "maximum_temperature_6": null,
    "minimum_temperature_24": null,
    "minimum_temperature_6": null,
    "precip_24_hours": null,
    "precip_36_hours": null,
    "precip_hourly": null,
    "pressure_tendency": null,
    "sea_level_pressure": null,
    "snow_depth": null,
    "sunshine_minutes": null,
    "temperature_decimal": null
  },
  "runway_visibility": [],
  "sanitized": "KBVS 020215Z 14004G11KT 7SM FEW020 BKN034 OVC039 11/11 A2997 RMK A01",
  "station": "KBVS",
  "temperature": {
    "repr": "11",
    "spoken": "one one",
    "value": 11
  },
  "time": {
    "dt": "2023-11-02T02:15:00Z",
    "repr": "020215Z"
  },
  "units": {
    "accumulation": "in",
    "altimeter": "inHg",
    "altitude": "ft",
    "temperature": "C",
    "visibility": "sm",
    "wind_speed": "kt"
  },
  "visibility": {
    "repr": "7",
    "spoken": "seven",
    "value": 7
  },
  "wind_direction": {
    "repr": "140",
    "spoken": "one four zero",
    "value": 140
  },
  "wind_gust": {
    "repr": "11",
    "spoken": "one one",
    "value": 11
  },
  "wind_speed": {
    "repr": "04",
    "spoken": "four",
    "value": 4
  },
  "wind_variable_direction": [],
  "wx_codes": []
}
