{
  "meta": {
    "timestamp": "2022-10-31T19:02:18.416065Z",
    "stations_updated": "2022-09-05"
  },
  "altimeter": {
    "repr": "A2980",
    "value": 29.8,
    "spoken": "two nine point eight zero"
  },
  "clouds": [
    {
      "repr": "BKN090",
      "type": "BKN",
      "altitude": 90,
      "modifier": null
    }
  ],
  "flight_rules": "VFR",
  "other": [],
  "visibility": {
    "repr": "10",
    "value": 10,
    "spoken": "one zero"
  },
  "wind_direction": {
    "repr": "290",
    "value": 290,
    "spoken": "two nine zero"
  },
  "wind_gust": {
    "repr": "18",
    "value": 18,
    "spoken": "one eight"
  },
  "wind_speed": {
    "repr": "13",
    "value": 13,
    "spoken": "one three"
  },
  "wx_codes": [],
  "raw": "KBVS 311855Z AUTO 29013G18KT 250V310 10SM BKN090 11/07 A2980 RMK A01",
  "sanitized": "KBVS 311855Z 29013G18KT 250V310 10SM BKN090 11/07 A2980 RMK A01",
  "station": "KBVS",
  "time": {
    "repr": "311855Z",
    "dt": "2022-10-31T18:55:00Z"
  },
  "remarks": "RMK A01",
  "dewpoint": {
    "repr": "07",
    "value": 7,
    "spoken": "seven"
  },
  "relative_humidity": 0.7634097596203441,
  "remarks_info": {
    "maximum_temperature_6": null,
    "minimum_temperature_6": null,
    "pressure_tendency": null,
    "precip_36_hours": null,
    "precip_24_hours": null,
    "sunshine_minutes": null,
    "codes": [],
    "dewpoint_decimal": null,
    "maximum_temperature_24": null,
    "minimum_temperature_24": null,
    "precip_hourly": null,
    "sea_level_pressure": null,
    "snow_depth": null,
    "temperature_decimal": null
  },
  "runway_visibility": [],
  "temperature": {
    "repr": "11",
    "value": 11,
    "spoken": "one one"
  },
  "wind_variable_direction": [
    {
      "repr": "250",
      "value": 250,
      "spoken": "two five zero"
    },
    {
      "repr": "310",
      "value": 310,
      "spoken": "three one zero"
    }
  ],
  "density_altitude": -181,
  "pressure_altitude": 264,
  "units": {
    "accumulation": "in",
    "altimeter": "inHg",
    "altitude": "ft",
    "temperature": "C",
    "visibility": "sm",
    "wind_speed": "kt"
  }
}
