{
  "meta": {
    "timestamp": "2023-10-09T18:40:41.057200Z",
    "stations_updated": "2023-10-01",
    "cache-timestamp": "2023-10-09T18:40:04.975000Z"
  },
  "altimeter": {
    "repr": "A2964",
    "value": 29.64,
    "spoken": "two nine point six four"
  },
  "clouds": [],
  "flight_rules": "VFR",
  "other": [],
  "visibility": {
    "repr": "10",
    "value": 10,
    "spoken": "one zero"
  },
  "wind_direction": {
    "repr": "150",
    "value": 150,
    "spoken": "one five zero"
  },
  "wind_gust": {
    "repr": "16",
    "value": 16,
    "spoken": "one six"
  },
  "wind_speed": {
    "repr": "10",
    "value": 10,
    "spoken": "one zero"
  },
  "wx_codes": [],
  "raw": "KBVS 091815Z AUTO 15010G16KT 120V180 10SM CLR 19/13 A2964 RMK A01",
  "sanitized": "KBVS 091815Z 15010G16KT 120V180 10SM 19/13 A2964 RMK A01",
  "station": "KBVS",
  "time": {
    "repr": "091815Z",
    "dt": "2023-10-09T18:15:00Z"
  },
  "remarks": "RMK A01",
  "dewpoint": {
    "repr": "13",
    "value": 13,
    "spoken": "one three"
  },
  "relative_humidity": 0.6815294106510259,
  "remarks_info": {
    "maximum_temperature_6": null,
    "minimum_temperature_6": null,
    "pressure_tendency": null,
    "precip_36_hours": null,
    "precip_24_hours": null,
    "sunshine_minutes": null,
    "codes": [],
    "dewpoint_decimal": null,
    "maximum_temperature_24": null,
    "minimum_temperature_24": null,
    "precip_hourly": null,
    "sea_level_pressure": null,
    "snow_depth": null,
    "temperature_decimal": null
  },
  "runway_visibility": [],
  "temperature": {
    "repr": "19",
    "value": 19,
    "spoken": "one nine"
  },
  "wind_variable_direction": [
    {
      "repr": "120",
      "value": 120,
      "spoken": "one two zero"
    },
    {
      "repr": "180",
      "value": 180,
      "spoken": "one eight zero"
    }
  ],
  "density_altitude": 939,
  "pressure_altitude": 424,
  "units": {
    "accumulation": "in",
    "altimeter": "inHg",
    "altitude": "ft",
    "temperature": "C",
    "visibility": "sm",
    "wind_speed": "kt"
  }
}
