{
  "meta": {
    "timestamp": "2022-10-31T20:34:30.740083Z",
    "stations_updated": "2022-09-05"
  },
  "altimeter": {
    "repr": "A2982",
    "value": 29.82,
    "spoken": "two nine point eight two"
  },
  "clouds": [
    {
      "repr": "BKN075",
      "type": "BKN",
      "altitude": 75,
      "modifier": null
    },
    {
      "repr": "BKN100",
      "type": "BKN",
      "altitude": 100,
      "modifier": null
    }
  ],
  "flight_rules": "VFR",
  "other": [],
  "visibility": {
    "repr": "10",
    "value": 10,
    "spoken": "one zero"
  },
  "wind_direction": {
    "repr": "290",
    "value": 290,
    "spoken": "two nine zero"
  },
  "wind_gust": null,
  "wind_speed": {
    "repr": "10",
    "value": 10,
    "spoken": "one zero"
  },
  "wx_codes": [],
  "raw": "KBVS 312015Z AUTO 29010KT 10SM BKN075 BKN100 11/07 A2982 RMK A01",
  "sanitized": "KBVS 312015Z 29010KT 10SM BKN075 BKN100 11/07 A2982 RMK A01",
  "station": "KBVS",
  "time": {
    "repr": "312015Z",
    "dt": "2022-10-31T20:15:00Z"
  },
  "remarks": "RMK A01",
  "dewpoint": {
    "repr": "07",
    "value": 7,
    "spoken": "seven"
  },
  "relative_humidity": 0.7634097596203441,
  "remarks_info": {
    "maximum_temperature_6": null,
    "minimum_temperature_6": null,
    "pressure_tendency": null,
    "precip_36_hours": null,
    "precip_24_hours": null,
    "sunshine_minutes": null,
    "codes": [],
    "dewpoint_decimal": null,
    "maximum_temperature_24": null,
    "minimum_temperature_24": null,
    "precip_hourly": null,
    "sea_level_pressure": null,
    "snow_depth": null,
    "temperature_decimal": null
  },
  "runway_visibility": [],
  "temperature": {
    "repr": "11",
    "value": 11,
    "spoken": "one one"
  },
  "wind_variable_direction": [],
  "density_altitude": -201,
  "pressure_altitude": 244,
  "units": {
    "accumulation": "in",
    "altimeter": "inHg",
    "altitude": "ft",
    "temperature": "C",
    "visibility": "sm",
    "wind_speed": "kt"
  }
}
