{
  "altimeter": {
    "repr": "A3035",
    "spoken": "three zero point three five",
    "value": 30.35
  },
  "clouds": [],
  "density_altitude": -3371,
  "dewpoint": {
    "repr": "M20",
    "spoken": "minus two zero",
    "value": -20
  },
  "flight_rules": "VFR",
  "meta": {
    "stations_updated": "2023-10-28",
    "timestamp": "2024-01-13T02:16:39.034048Z"
  },
  "other": [],
  "pressure_altitude": -286,
  "raw": "KBVS 130155Z AUTO 03009KT 10SM CLR M11/M20 A3035 RMK A01",
  "relative_humidity": 0.4746355399904772,
  "remarks": "RMK A01",
  "remarks_info": {
    "codes": [],
    "dewpoint_decimal": null,
    "maximum_temperature_24": null,
    "maximum_temperature_6": null,
    "minimum_temperature_24": null,
    "minimum_temperature_6": null,
    "precip_24_hours": null,
    "precip_36_hours": null,
    "precip_hourly": null,
    "pressure_tendency": null,
    "sea_level_pressure": null,
    "snow_depth": null,
    "sunshine_minutes": null,
    "temperature_decimal": null
  },
  "runway_visibility": [],
  "sanitized": "KBVS 130155Z 03009KT 10SM M11/M20 A3035 RMK A01",
  "station": "KBVS",
  "temperature": {
    "repr": "M11",
    "spoken": "minus one one",
    "value": -11
  },
  "time": {
    "dt": "2024-01-13T01:55:00Z",
    "repr": "130155Z"
  },
  "units": {
    "accumulation": "in",
    "altimeter": "inHg",
    "altitude": "ft",
    "temperature": "C",
    "visibility": "sm",
    "wind_speed": "kt"
  },
  "visibility": {
    "repr": "10",
    "spoken": "one zero",
    "value": 10
  },
  "wind_direction": {
    "repr": "030",
    "spoken": "zero three zero",
    "value": 30
  },
  "wind_gust": null,
  "wind_speed": {
    "repr": "09",
    "spoken": "nine",
    "value": 9
  },
  "wind_variable_direction": [],
  "wx_codes": []
}
