{
  "meta": {
    "timestamp": "2023-10-18T06:08:01.237889Z",
    "stations_updated": "2023-10-01",
    "cache-timestamp": "2023-10-18T06:06:31.037000Z",
    "warning": "Unable to fetch report. This cached data might be out of date. To return an error instead, set ?onfail=error"
  },
  "altimeter": {
    "repr": "A3008",
    "value": 30.08,
    "spoken": "three zero point zero eight"
  },
  "clouds": [
    {
      "repr": "FEW095",
      "type": "FEW",
      "altitude": 95,
      "modifier": null
    },
    {
      "repr": "OVC120",
      "type": "OVC",
      "altitude": 120,
      "modifier": null
    }
  ],
  "flight_rules": "VFR",
  "other": [],
  "visibility": {
    "repr": "10",
    "value": 10,
    "spoken": "one zero"
  },
  "wind_direction": {
    "repr": "080",
    "value": 80,
    "spoken": "zero eight zero"
  },
  "wind_gust": null,
  "wind_speed": {
    "repr": "07",
    "value": 7,
    "spoken": "seven"
  },
  "wx_codes": [],
  "raw": "KBVS 180555Z AUTO 08007KT 10SM FEW095 OVC120 12/12 A3008 RMK A01 KBVS 180535Z AUTO 09006KT 10SM FEW060 OVC095 12/12 A3008 RMK A01 KBVS 180515Z AUTO 07007KT 10SM FEW042 SCT055 BKN070 12/12 A3009 RMK A01 KBVS 180455Z AUTO 07006KT 10SM FEW013 SCT050 BKN070 12/12 A3010 RMK A01 KBVS 180435Z AUTO 00000G11KT 10SM FEW036 SCT060 BKN075 12/12 A3010 RMK A01 KBVS 180415Z AUTO 08008KT 10SM FEW050 BKN060 OVC070 12/12 A3012 RMK A01",
  "sanitized": "KBVS 180555Z 08007KT 10SM FEW095 OVC120 12/12 A3008 RMK A01 KBVS 180535Z AUTO 09006KT 10SM FEW060 OVC095 12/12 A3008 RMK A01 KBVS 180515Z AUTO 07007KT 10SM FEW042 SCT055 BKN070 12/12 A3009 RMK A01 KBVS 180455Z AUTO 07006KT 10SM FEW013 SCT050 BKN070 12/12 A3010 RMK A01 KBVS 180435Z AUTO 00000G11KT 10SM FEW036 SCT060 BKN075 12/12 A3010 RMK A01 KBVS 180415Z AUTO 08008KT 10SM FEW050 BKN060 OVC070 12/12 A3012 RMK A01",
  "station": "KBVS",
  "time": {
    "repr": "180555Z",
    "dt": "2023-10-18T05:55:00Z"
  },
  "remarks": "RMK A01 KBVS 180535Z AUTO 09006KT 10SM FEW060 OVC095 12/12 A3008 RMK A01 KBVS 180515Z AUTO 07007KT 10SM FEW042 SCT055 BKN070 12/12 A3009 RMK A01 KBVS 180455Z AUTO 07006KT 10SM FEW013 SCT050 BKN070 12/12 A3010 RMK A01 KBVS 180435Z AUTO 00000G11KT 10SM FEW036 SCT060 BKN075 12/12 A3010 RMK A01 KBVS 180415Z AUTO 08008KT 10SM FEW050 BKN060 OVC070 12/12 A3012 RMK A01",
  "dewpoint": {
    "repr": "12",
    "value": 12,
    "spoken": "one two"
  },
  "relative_humidity": 1,
  "remarks_info": {
    "maximum_temperature_6": null,
    "minimum_temperature_6": null,
    "pressure_tendency": null,
    "precip_36_hours": null,
    "precip_24_hours": null,
    "sunshine_minutes": null,
    "codes": [],
    "dewpoint_decimal": null,
    "maximum_temperature_24": null,
    "minimum_temperature_24": null,
    "precip_hourly": null,
    "sea_level_pressure": null,
    "snow_depth": null,
    "temperature_decimal": null
  },
  "runway_visibility": [],
  "temperature": {
    "repr": "12",
    "value": 12,
    "spoken": "one two"
  },
  "wind_variable_direction": [],
  "density_altitude": -341,
  "pressure_altitude": -16,
  "units": {
    "accumulation": "in",
    "altimeter": "inHg",
    "altitude": "ft",
    "temperature": "C",
    "visibility": "sm",
    "wind_speed": "kt"
  }
}
