{
  "meta": {
    "timestamp": "2023-01-08T04:42:12.836263Z",
    "stations_updated": "2022-12-27",
    "cache-timestamp": "2023-01-08T04:42:06.387000Z"
  },
  "altimeter": {
    "repr": "A2973",
    "value": 29.73,
    "spoken": "two nine point seven three"
  },
  "clouds": [
    {
      "repr": "BKN060",
      "type": "BKN",
      "altitude": 60,
      "modifier": null
    },
    {
      "repr": "OVC070",
      "type": "OVC",
      "altitude": 70,
      "modifier": null
    }
  ],
  "flight_rules": "VFR",
  "other": [],
  "visibility": {
    "repr": "10",
    "value": 10,
    "spoken": "one zero"
  },
  "wind_direction": {
    "repr": "150",
    "value": 150,
    "spoken": "one five zero"
  },
  "wind_gust": null,
  "wind_speed": {
    "repr": "06",
    "value": 6,
    "spoken": "six"
  },
  "wx_codes": [],
  "raw": "KBVS 080415Z AUTO 15006KT 10SM BKN060 OVC070 10/06 A2973 RMK A01",
  "sanitized": "KBVS 080415Z 15006KT 10SM BKN060 OVC070 10/06 A2973 RMK A01",
  "station": "KBVS",
  "time": {
    "repr": "080415Z",
    "dt": "2023-01-08T04:15:00Z"
  },
  "remarks": "RMK A01",
  "dewpoint": {
    "repr": "06",
    "value": 6,
    "spoken": "six"
  },
  "relative_humidity": 0.7617692730653005,
  "remarks_info": {
    "maximum_temperature_6": null,
    "minimum_temperature_6": null,
    "pressure_tendency": null,
    "precip_36_hours": null,
    "precip_24_hours": null,
    "sunshine_minutes": null,
    "codes": [],
    "dewpoint_decimal": null,
    "maximum_temperature_24": null,
    "minimum_temperature_24": null,
    "precip_hourly": null,
    "sea_level_pressure": null,
    "snow_depth": null,
    "temperature_decimal": null
  },
  "runway_visibility": [],
  "temperature": {
    "repr": "10",
    "value": 10,
    "spoken": "one zero"
  },
  "wind_variable_direction": [],
  "density_altitude": -231,
  "pressure_altitude": 334,
  "units": {
    "accumulation": "in",
    "altimeter": "inHg",
    "altitude": "ft",
    "temperature": "C",
    "visibility": "sm",
    "wind_speed": "kt"
  }
}
