{
  "meta": {
    "timestamp": "2023-05-22T19:20:55.095992Z",
    "stations_updated": "2023-03-11",
    "cache-timestamp": "2023-05-22T19:20:05.393000Z"
  },
  "altimeter": {
    "repr": "A3018",
    "value": 30.18,
    "spoken": "three zero point one eight"
  },
  "clouds": [
    {
      "repr": "FEW014",
      "type": "FEW",
      "altitude": 14,
      "modifier": null
    },
    {
      "repr": "OVC030",
      "type": "OVC",
      "altitude": 30,
      "modifier": null
    }
  ],
  "flight_rules": "MVFR",
  "other": [],
  "visibility": {
    "repr": "10",
    "value": 10,
    "spoken": "one zero"
  },
  "wind_direction": {
    "repr": "170",
    "value": 170,
    "spoken": "one seven zero"
  },
  "wind_gust": null,
  "wind_speed": {
    "repr": "04",
    "value": 4,
    "spoken": "four"
  },
  "wx_codes": [],
  "raw": "KBVS 221855Z AUTO 17004KT 10SM FEW014 OVC030 12/12 A3018 RMK A01",
  "sanitized": "KBVS 221855Z 17004KT 10SM FEW014 OVC030 12/12 A3018 RMK A01",
  "station": "KBVS",
  "time": {
    "repr": "221855Z",
    "dt": "2023-05-22T18:55:00Z"
  },
  "remarks": "RMK A01",
  "dewpoint": {
    "repr": "12",
    "value": 12,
    "spoken": "one two"
  },
  "relative_humidity": 1,
  "remarks_info": {
    "maximum_temperature_6": null,
    "minimum_temperature_6": null,
    "pressure_tendency": null,
    "precip_36_hours": null,
    "precip_24_hours": null,
    "sunshine_minutes": null,
    "codes": [],
    "dewpoint_decimal": null,
    "maximum_temperature_24": null,
    "minimum_temperature_24": null,
    "precip_hourly": null,
    "sea_level_pressure": null,
    "snow_depth": null,
    "temperature_decimal": null
  },
  "runway_visibility": [],
  "temperature": {
    "repr": "12",
    "value": 12,
    "spoken": "one two"
  },
  "wind_variable_direction": [],
  "density_altitude": -441,
  "pressure_altitude": -116,
  "units": {
    "accumulation": "in",
    "altimeter": "inHg",
    "altitude": "ft",
    "temperature": "C",
    "visibility": "sm",
    "wind_speed": "kt"
  }
}
