{
  "meta": {
    "timestamp": "2023-09-26T20:23:31.582800Z",
    "stations_updated": "2023-08-05"
  },
  "altimeter": {
    "repr": "A2995",
    "value": 29.95,
    "spoken": "two nine point nine five"
  },
  "clouds": [
    {
      "repr": "FEW032",
      "type": "FEW",
      "altitude": 32,
      "modifier": null
    },
    {
      "repr": "FEW075",
      "type": "FEW",
      "altitude": 75,
      "modifier": null
    }
  ],
  "flight_rules": "VFR",
  "other": [],
  "visibility": {
    "repr": "10",
    "value": 10,
    "spoken": "one zero"
  },
  "wind_direction": {
    "repr": "160",
    "value": 160,
    "spoken": "one six zero"
  },
  "wind_gust": {
    "repr": "23",
    "value": 23,
    "spoken": "two three"
  },
  "wind_speed": {
    "repr": "13",
    "value": 13,
    "spoken": "one three"
  },
  "wx_codes": [],
  "raw": "KBVS 262015Z AUTO 16013G23KT 10SM FEW032 FEW075 16/14 A2995 RMK A01",
  "sanitized": "KBVS 262015Z 16013G23KT 10SM FEW032 FEW075 16/14 A2995 RMK A01",
  "station": "KBVS",
  "time": {
    "repr": "262015Z",
    "dt": "2023-09-26T20:15:00Z"
  },
  "remarks": "RMK A01",
  "dewpoint": {
    "repr": "14",
    "value": 14,
    "spoken": "one four"
  },
  "relative_humidity": 0.8791667108061192,
  "remarks_info": {
    "maximum_temperature_6": null,
    "minimum_temperature_6": null,
    "pressure_tendency": null,
    "precip_36_hours": null,
    "precip_24_hours": null,
    "sunshine_minutes": null,
    "codes": [],
    "dewpoint_decimal": null,
    "maximum_temperature_24": null,
    "minimum_temperature_24": null,
    "precip_hourly": null,
    "sea_level_pressure": null,
    "snow_depth": null,
    "temperature_decimal": null
  },
  "runway_visibility": [],
  "temperature": {
    "repr": "16",
    "value": 16,
    "spoken": "one six"
  },
  "wind_variable_direction": [],
  "density_altitude": 269,
  "pressure_altitude": 114,
  "units": {
    "accumulation": "in",
    "altimeter": "inHg",
    "altitude": "ft",
    "temperature": "C",
    "visibility": "sm",
    "wind_speed": "kt"
  }
}
