{
  "altimeter": {
    "repr": "A3036",
    "spoken": "three zero point three six",
    "value": 30.36
  },
  "clouds": [],
  "density_altitude": -1221,
  "dewpoint": {
    "repr": "05",
    "spoken": "five",
    "value": 5
  },
  "flight_rules": "VFR",
  "meta": {
    "cache-timestamp": "2023-10-30T18:40:30.798000Z",
    "stations_updated": "2023-10-28",
    "timestamp": "2023-10-30T18:40:37.316327Z"
  },
  "other": [],
  "pressure_altitude": -296,
  "raw": "KBVS 301815Z AUTO 00000KT 10SM CLR 07/05 A3036 RMK A01",
  "relative_humidity": 0.8708903011793067,
  "remarks": "RMK A01",
  "remarks_info": {
    "codes": [],
    "dewpoint_decimal": null,
    "maximum_temperature_24": null,
    "maximum_temperature_6": null,
    "minimum_temperature_24": null,
    "minimum_temperature_6": null,
    "precip_24_hours": null,
    "precip_36_hours": null,
    "precip_hourly": null,
    "pressure_tendency": null,
    "sea_level_pressure": null,
    "snow_depth": null,
    "sunshine_minutes": null,
    "temperature_decimal": null
  },
  "runway_visibility": [],
  "sanitized": "KBVS 301815Z 00000KT 10SM 07/05 A3036 RMK A01",
  "station": "KBVS",
  "temperature": {
    "repr": "07",
    "spoken": "seven",
    "value": 7
  },
  "time": {
    "dt": "2023-10-30T18:15:00Z",
    "repr": "301815Z"
  },
  "units": {
    "accumulation": "in",
    "altimeter": "inHg",
    "altitude": "ft",
    "temperature": "C",
    "visibility": "sm",
    "wind_speed": "kt"
  },
  "visibility": {
    "repr": "10",
    "spoken": "one zero",
    "value": 10
  },
  "wind_direction": {
    "repr": "000",
    "spoken": "zero zero zero",
    "value": 0
  },
  "wind_gust": null,
  "wind_speed": {
    "repr": "00",
    "spoken": "zero",
    "value": 0
  },
  "wind_variable_direction": [],
  "wx_codes": []
}
