{
  "altimeter": {
    "repr": "A2953",
    "spoken": "two nine point five three",
    "value": 29.53
  },
  "clouds": [
    {
      "altitude": 4,
      "modifier": null,
      "repr": "FEW004",
      "type": "FEW"
    },
    {
      "altitude": 22,
      "modifier": null,
      "repr": "SCT022",
      "type": "SCT"
    },
    {
      "altitude": 30,
      "modifier": null,
      "repr": "BKN030",
      "type": "BKN"
    }
  ],
  "density_altitude": -151,
  "dewpoint": {
    "repr": "08",
    "spoken": "eight",
    "value": 8
  },
  "flight_rules": "MVFR",
  "meta": {
    "stations_updated": "2024-10-29",
    "timestamp": "2024-11-11T16:08:27.482418Z"
  },
  "other": [],
  "pressure_altitude": 534,
  "raw": "KBVS 111555Z AUTO 21008KT 4SM BR FEW004 SCT022 BKN030 09/08 A2953 RMK A01 P0020",
  "relative_humidity": 0.9344901544791844,
  "remarks": "RMK A01 P0020",
  "remarks_info": {
    "codes": [],
    "dewpoint_decimal": null,
    "maximum_temperature_24": null,
    "maximum_temperature_6": null,
    "minimum_temperature_24": null,
    "minimum_temperature_6": null,
    "precip_24_hours": null,
    "precip_36_hours": null,
    "precip_hourly": {
      "repr": "P0020",
      "spoken": "zero point two",
      "value": 0.2
    },
    "pressure_tendency": null,
    "sea_level_pressure": null,
    "snow_depth": null,
    "sunshine_minutes": null,
    "temperature_decimal": null
  },
  "runway_visibility": [],
  "sanitized": "KBVS 111555Z 21008KT 4SM BR FEW004 SCT022 BKN030 09/08 A2953 RMK A01 P0020",
  "station": "KBVS",
  "temperature": {
    "repr": "09",
    "spoken": "nine",
    "value": 9
  },
  "time": {
    "dt": "2024-11-11T15:55:00Z",
    "repr": "111555Z"
  },
  "units": {
    "accumulation": "in",
    "altimeter": "inHg",
    "altitude": "ft",
    "temperature": "C",
    "visibility": "sm",
    "wind_speed": "kt"
  },
  "visibility": {
    "repr": "4",
    "spoken": "four",
    "value": 4
  },
  "wind_direction": {
    "repr": "210",
    "spoken": "two one zero",
    "value": 210
  },
  "wind_gust": null,
  "wind_speed": {
    "repr": "08",
    "spoken": "eight",
    "value": 8
  },
  "wind_variable_direction": [],
  "wx_codes": [
    {
      "repr": "BR",
      "value": "Mist"
    }
  ]
}
