{
  "altimeter": {
    "repr": "A2993",
    "spoken": "two nine point nine three",
    "value": 29.93
  },
  "clouds": [
    {
      "altitude": 60,
      "modifier": null,
      "repr": "BKN060",
      "type": "BKN"
    },
    {
      "altitude": 75,
      "modifier": null,
      "repr": "OVC075",
      "type": "OVC"
    }
  ],
  "density_altitude": -1151,
  "dewpoint": {
    "repr": "M00",
    "spoken": "zero",
    "value": 0
  },
  "flight_rules": "VFR",
  "meta": {
    "stations_updated": "2024-12-02",
    "timestamp": "2024-12-16T10:48:05.313747Z"
  },
  "other": [],
  "pressure_altitude": 134,
  "raw": "KBVS 161035Z AUTO 07009G15KT 10SM BKN060 OVC075 04/M00 A2993 RMK A01",
  "relative_humidity": 0.7515814010366164,
  "remarks": "RMK A01",
  "remarks_info": {
    "codes": [],
    "dewpoint_decimal": null,
    "maximum_temperature_24": null,
    "maximum_temperature_6": null,
    "minimum_temperature_24": null,
    "minimum_temperature_6": null,
    "precip_24_hours": null,
    "precip_36_hours": null,
    "precip_hourly": null,
    "pressure_tendency": null,
    "sea_level_pressure": null,
    "snow_depth": null,
    "sunshine_minutes": null,
    "temperature_decimal": null
  },
  "runway_visibility": [],
  "sanitized": "KBVS 161035Z 07009G15KT 10SM BKN060 OVC075 04/M00 A2993 RMK A01",
  "station": "KBVS",
  "temperature": {
    "repr": "04",
    "spoken": "four",
    "value": 4
  },
  "time": {
    "dt": "2024-12-16T10:35:00Z",
    "repr": "161035Z"
  },
  "units": {
    "accumulation": "in",
    "altimeter": "inHg",
    "altitude": "ft",
    "temperature": "C",
    "visibility": "sm",
    "wind_speed": "kt"
  },
  "visibility": {
    "repr": "10",
    "spoken": "one zero",
    "value": 10
  },
  "wind_direction": {
    "repr": "070",
    "spoken": "zero seven zero",
    "value": 70
  },
  "wind_gust": {
    "repr": "15",
    "spoken": "one five",
    "value": 15
  },
  "wind_speed": {
    "repr": "09",
    "spoken": "nine",
    "value": 9
  },
  "wind_variable_direction": [],
  "wx_codes": []
}
