{
  "meta": {
    "timestamp": "2022-11-18T19:40:41.793867Z",
    "stations_updated": "2022-09-05"
  },
  "altimeter": {
    "repr": "A3051",
    "value": 30.51,
    "spoken": "three zero point five one"
  },
  "clouds": [],
  "flight_rules": "VFR",
  "other": [],
  "visibility": {
    "repr": "10",
    "value": 10,
    "spoken": "one zero"
  },
  "wind_direction": {
    "repr": "040",
    "value": 40,
    "spoken": "zero four zero"
  },
  "wind_gust": null,
  "wind_speed": {
    "repr": "04",
    "value": 4,
    "spoken": "four"
  },
  "wx_codes": [],
  "raw": "KBVS 181935Z AUTO 04004KT 10SM CLR 06/M05 A3051 RMK A01",
  "sanitized": "KBVS 181935Z 04004KT 10SM 06/M05 A3051 RMK A01",
  "station": "KBVS",
  "time": {
    "repr": "181935Z",
    "dt": "2022-11-18T19:35:00Z"
  },
  "remarks": "RMK A01",
  "dewpoint": {
    "repr": "M05",
    "value": -5,
    "spoken": "minus five"
  },
  "relative_humidity": 0.4514141305339159,
  "remarks_info": {
    "maximum_temperature_6": null,
    "minimum_temperature_6": null,
    "pressure_tendency": null,
    "precip_36_hours": null,
    "precip_24_hours": null,
    "sunshine_minutes": null,
    "codes": [],
    "dewpoint_decimal": null,
    "maximum_temperature_24": null,
    "minimum_temperature_24": null,
    "precip_hourly": null,
    "sea_level_pressure": null,
    "snow_depth": null,
    "temperature_decimal": null
  },
  "runway_visibility": [],
  "temperature": {
    "repr": "06",
    "value": 6,
    "spoken": "six"
  },
  "wind_variable_direction": [],
  "density_altitude": -1491,
  "pressure_altitude": -446,
  "units": {
    "accumulation": "in",
    "altimeter": "inHg",
    "altitude": "ft",
    "temperature": "C",
    "visibility": "sm",
    "wind_speed": "kt"
  }
}
