{
  "meta": {
    "timestamp": "2023-10-17T08:07:28.071676Z",
    "stations_updated": "2023-10-01"
  },
  "altimeter": {
    "repr": "A3010",
    "value": 30.1,
    "spoken": "three zero point one zero"
  },
  "clouds": [
    {
      "repr": "BKN038",
      "type": "BKN",
      "altitude": 38,
      "modifier": null
    },
    {
      "repr": "OVC046",
      "type": "OVC",
      "altitude": 46,
      "modifier": null
    }
  ],
  "flight_rules": "LIFR",
  "other": [],
  "visibility": {
    "repr": "1/4",
    "value": 0.25,
    "spoken": "one quarter",
    "numerator": 1,
    "denominator": 4,
    "normalized": "1/4"
  },
  "wind_direction": {
    "repr": "000",
    "value": 0,
    "spoken": "zero zero zero"
  },
  "wind_gust": null,
  "wind_speed": {
    "repr": "00",
    "value": 0,
    "spoken": "zero"
  },
  "wx_codes": [
    {
      "repr": "FG",
      "value": "Fog"
    }
  ],
  "raw": "KBVS 170755Z AUTO 00000KT 1/4SM FG BKN038 OVC046 08/08 A3010 RMK A01 KBVS 170735Z AUTO 00000KT 1/2SM FG SCT001 BKN038 BKN055 08/08 A3010 RMK A01 KBVS 170715Z AUTO 00000KT 1/2SM BR BKN001 OVC037 09/09 A3009 RMK A01 VIS 1/4V4 KBVS 170655Z AUTO 00000KT 1/2SM BR BKN043 10/10 A3008 RMK A01 KBVS 170635Z AUTO 00000KT 10SM SCT039 SCT047 11/11 A3007 RMK A01 KBVS 170615Z AUTO 00000KT 10SM SCT042 SCT049 11/11 A3007 RMK A01",
  "sanitized": "KBVS 170755Z 00000KT 1/4SM FG BKN038 OVC046 08/08 A3010 RMK A01 KBVS 170735Z AUTO 00000KT 1/2SM FG SCT001 BKN038 BKN055 08/08 A3010 RMK A01 KBVS 170715Z AUTO 00000KT 1/2SM BR BKN001 OVC037 09/09 A3009 RMK A01 VIS 1/4V4 KBVS 170655Z AUTO 00000KT 1/2SM BR BKN043 10/10 A3008 RMK A01 KBVS 170635Z AUTO 00000KT 10SM SCT039 SCT047 11/11 A3007 RMK A01 KBVS 170615Z AUTO 00000KT 10SM SCT042 SCT049 11/11 A3007 RMK A01",
  "station": "KBVS",
  "time": {
    "repr": "170755Z",
    "dt": "2023-10-17T07:55:00Z"
  },
  "remarks": "RMK A01 KBVS 170735Z AUTO 00000KT 1/2SM FG SCT001 BKN038 BKN055 08/08 A3010 RMK A01 KBVS 170715Z AUTO 00000KT 1/2SM BR BKN001 OVC037 09/09 A3009 RMK A01 VIS 1/4V4 KBVS 170655Z AUTO 00000KT 1/2SM BR BKN043 10/10 A3008 RMK A01 KBVS 170635Z AUTO 00000KT 10SM SCT039 SCT047 11/11 A3007 RMK A01 KBVS 170615Z AUTO 00000KT 10SM SCT042 SCT049 11/11 A3007 RMK A01",
  "dewpoint": {
    "repr": "08",
    "value": 8,
    "spoken": "eight"
  },
  "relative_humidity": 1,
  "remarks_info": {
    "maximum_temperature_6": null,
    "minimum_temperature_6": null,
    "pressure_tendency": null,
    "precip_36_hours": null,
    "precip_24_hours": null,
    "sunshine_minutes": null,
    "codes": [],
    "dewpoint_decimal": null,
    "maximum_temperature_24": null,
    "minimum_temperature_24": null,
    "precip_hourly": null,
    "sea_level_pressure": null,
    "snow_depth": null,
    "temperature_decimal": null
  },
  "runway_visibility": [],
  "temperature": {
    "repr": "08",
    "value": 8,
    "spoken": "eight"
  },
  "wind_variable_direction": [],
  "density_altitude": -841,
  "pressure_altitude": -36,
  "units": {
    "accumulation": "in",
    "altimeter": "inHg",
    "altitude": "ft",
    "temperature": "C",
    "visibility": "sm",
    "wind_speed": "kt"
  }
}
