{
  "meta": {
    "timestamp": "2023-05-27T02:45:09.758645Z",
    "stations_updated": "2023-03-11"
  },
  "altimeter": {
    "repr": "A2984",
    "value": 29.84,
    "spoken": "two nine point eight four"
  },
  "clouds": [],
  "flight_rules": "VFR",
  "other": [],
  "visibility": {
    "repr": "10",
    "value": 10,
    "spoken": "one zero"
  },
  "wind_direction": {
    "repr": "210",
    "value": 210,
    "spoken": "two one zero"
  },
  "wind_gust": {
    "repr": "12",
    "value": 12,
    "spoken": "one two"
  },
  "wind_speed": {
    "repr": "06",
    "value": 6,
    "spoken": "six"
  },
  "wx_codes": [],
  "raw": "KBVS 270235Z AUTO 21006G12KT 10SM CLR 20/11 A2984 RMK A01",
  "sanitized": "KBVS 270235Z 21006G12KT 10SM 20/11 A2984 RMK A01",
  "station": "KBVS",
  "time": {
    "repr": "270235Z",
    "dt": "2023-05-27T02:35:00Z"
  },
  "remarks": "RMK A01",
  "dewpoint": {
    "repr": "11",
    "value": 11,
    "spoken": "one one"
  },
  "relative_humidity": 0.5613314874983519,
  "remarks_info": {
    "maximum_temperature_6": null,
    "minimum_temperature_6": null,
    "pressure_tendency": null,
    "precip_36_hours": null,
    "precip_24_hours": null,
    "sunshine_minutes": null,
    "codes": [],
    "dewpoint_decimal": null,
    "maximum_temperature_24": null,
    "minimum_temperature_24": null,
    "precip_hourly": null,
    "sea_level_pressure": null,
    "snow_depth": null,
    "temperature_decimal": null
  },
  "runway_visibility": [],
  "temperature": {
    "repr": "20",
    "value": 20,
    "spoken": "two zero"
  },
  "wind_variable_direction": [],
  "density_altitude": 859,
  "pressure_altitude": 224,
  "units": {
    "accumulation": "in",
    "altimeter": "inHg",
    "altitude": "ft",
    "temperature": "C",
    "visibility": "sm",
    "wind_speed": "kt"
  }
}
