{
  "meta": {
    "timestamp": "2023-10-17T07:21:59.562070Z",
    "stations_updated": "2023-10-01"
  },
  "altimeter": {
    "repr": "A3009",
    "value": 30.09,
    "spoken": "three zero point zero nine"
  },
  "clouds": [
    {
      "repr": "BKN001",
      "type": "BKN",
      "altitude": 1,
      "modifier": null
    },
    {
      "repr": "OVC037",
      "type": "OVC",
      "altitude": 37,
      "modifier": null
    }
  ],
  "flight_rules": "LIFR",
  "other": [],
  "visibility": {
    "repr": "1/2",
    "value": 0.5,
    "spoken": "one half",
    "numerator": 1,
    "denominator": 2,
    "normalized": "1/2"
  },
  "wind_direction": {
    "repr": "000",
    "value": 0,
    "spoken": "zero zero zero"
  },
  "wind_gust": null,
  "wind_speed": {
    "repr": "00",
    "value": 0,
    "spoken": "zero"
  },
  "wx_codes": [
    {
      "repr": "BR",
      "value": "Mist"
    }
  ],
  "raw": "KBVS 170715Z AUTO 00000KT 1/2SM BR BKN001 OVC037 09/09 A3009 RMK A01 VIS 1/4V4 KBVS 170655Z AUTO 00000KT 1/2SM BR BKN043 10/10 A3008 RMK A01 KBVS 170635Z AUTO 00000KT 10SM SCT039 SCT047 11/11 A3007 RMK A01 KBVS 170615Z AUTO 00000KT 10SM SCT042 SCT049 11/11 A3007 RMK A01 KBVS 170555Z AUTO 00000KT FEW025 SCT036 BKN047 11/11 A3006 RMK A01 KBVS 170535Z AUTO 00000KT 10SM FEW025 BKN035 OVC075 11/11 A3006 RMK A01",
  "sanitized": "KBVS 170715Z 00000KT 1/2SM BR BKN001 OVC037 09/09 A3009 RMK A01 VIS 1/4V4 KBVS 170655Z AUTO 00000KT 1/2SM BR BKN043 10/10 A3008 RMK A01 KBVS 170635Z AUTO 00000KT 10SM SCT039 SCT047 11/11 A3007 RMK A01 KBVS 170615Z AUTO 00000KT 10SM SCT042 SCT049 11/11 A3007 RMK A01 KBVS 170555Z AUTO 00000KT FEW025 SCT036 BKN047 11/11 A3006 RMK A01 KBVS 170535Z AUTO 00000KT 10SM FEW025 BKN035 OVC075 11/11 A3006 RMK A01",
  "station": "KBVS",
  "time": {
    "repr": "170715Z",
    "dt": "2023-10-17T07:15:00Z"
  },
  "remarks": "RMK A01 VIS 1/4V4 KBVS 170655Z AUTO 00000KT 1/2SM BR BKN043 10/10 A3008 RMK A01 KBVS 170635Z AUTO 00000KT 10SM SCT039 SCT047 11/11 A3007 RMK A01 KBVS 170615Z AUTO 00000KT 10SM SCT042 SCT049 11/11 A3007 RMK A01 KBVS 170555Z AUTO 00000KT FEW025 SCT036 BKN047 11/11 A3006 RMK A01 KBVS 170535Z AUTO 00000KT 10SM FEW025 BKN035 OVC075 11/11 A3006 RMK A01",
  "dewpoint": {
    "repr": "09",
    "value": 9,
    "spoken": "nine"
  },
  "relative_humidity": 1,
  "remarks_info": {
    "maximum_temperature_6": null,
    "minimum_temperature_6": null,
    "pressure_tendency": null,
    "precip_36_hours": null,
    "precip_24_hours": null,
    "sunshine_minutes": null,
    "codes": [],
    "dewpoint_decimal": null,
    "maximum_temperature_24": null,
    "minimum_temperature_24": null,
    "precip_hourly": null,
    "sea_level_pressure": null,
    "snow_depth": null,
    "temperature_decimal": null
  },
  "runway_visibility": [],
  "temperature": {
    "repr": "09",
    "value": 9,
    "spoken": "nine"
  },
  "wind_variable_direction": [],
  "density_altitude": -711,
  "pressure_altitude": -26,
  "units": {
    "accumulation": "in",
    "altimeter": "inHg",
    "altitude": "ft",
    "temperature": "C",
    "visibility": "sm",
    "wind_speed": "kt"
  }
}
