{
  "meta": {
    "timestamp": "2023-10-21T23:01:33.528086Z",
    "stations_updated": "2023-10-01"
  },
  "altimeter": {
    "repr": "A2988",
    "value": 29.88,
    "spoken": "two nine point eight eight"
  },
  "clouds": [
    {
      "repr": "OVC014",
      "type": "OVC",
      "altitude": 14,
      "modifier": null
    }
  ],
  "flight_rules": "MVFR",
  "other": [],
  "visibility": {
    "repr": "10",
    "value": 10,
    "spoken": "one zero"
  },
  "wind_direction": {
    "repr": "300",
    "value": 300,
    "spoken": "three zero zero"
  },
  "wind_gust": null,
  "wind_speed": {
    "repr": "08",
    "value": 8,
    "spoken": "eight"
  },
  "wx_codes": [],
  "raw": "KBVS 212255Z AUTO 30008KT 10SM OVC014 12/12 A2988 RMK A01 KBVS 212235Z AUTO 30007KT 10SM OVC014 12/12 A2988 RMK A01 KBVS 212215Z AUTO 30010KT 10SM OVC014 12/12 A2988 RMK A01 KBVS 212155Z AUTO 29009KT 10SM OVC014 13/13 A2989 RMK A01 KBVS 212135Z AUTO 30008KT 10SM OVC014 13/13 A2989 RMK A01 KBVS 212115Z AUTO 30009KT 10SM OVC015 13/13 A2989 RMK A01",
  "sanitized": "KBVS 212255Z 30008KT 10SM OVC014 12/12 A2988 RMK A01 KBVS 212235Z AUTO 30007KT 10SM OVC014 12/12 A2988 RMK A01 KBVS 212215Z AUTO 30010KT 10SM OVC014 12/12 A2988 RMK A01 KBVS 212155Z AUTO 29009KT 10SM OVC014 13/13 A2989 RMK A01 KBVS 212135Z AUTO 30008KT 10SM OVC014 13/13 A2989 RMK A01 KBVS 212115Z AUTO 30009KT 10SM OVC015 13/13 A2989 RMK A01",
  "station": "KBVS",
  "time": {
    "repr": "212255Z",
    "dt": "2023-10-21T22:55:00Z"
  },
  "remarks": "RMK A01 KBVS 212235Z AUTO 30007KT 10SM OVC014 12/12 A2988 RMK A01 KBVS 212215Z AUTO 30010KT 10SM OVC014 12/12 A2988 RMK A01 KBVS 212155Z AUTO 29009KT 10SM OVC014 13/13 A2989 RMK A01 KBVS 212135Z AUTO 30008KT 10SM OVC014 13/13 A2989 RMK A01 KBVS 212115Z AUTO 30009KT 10SM OVC015 13/13 A2989 RMK A01",
  "dewpoint": {
    "repr": "12",
    "value": 12,
    "spoken": "one two"
  },
  "relative_humidity": 1,
  "remarks_info": {
    "maximum_temperature_6": null,
    "minimum_temperature_6": null,
    "pressure_tendency": null,
    "precip_36_hours": null,
    "precip_24_hours": null,
    "sunshine_minutes": null,
    "codes": [],
    "dewpoint_decimal": null,
    "maximum_temperature_24": null,
    "minimum_temperature_24": null,
    "precip_hourly": null,
    "sea_level_pressure": null,
    "snow_depth": null,
    "temperature_decimal": null
  },
  "runway_visibility": [],
  "temperature": {
    "repr": "12",
    "value": 12,
    "spoken": "one two"
  },
  "wind_variable_direction": [],
  "density_altitude": -141,
  "pressure_altitude": 184,
  "units": {
    "accumulation": "in",
    "altimeter": "inHg",
    "altitude": "ft",
    "temperature": "C",
    "visibility": "sm",
    "wind_speed": "kt"
  }
}
