{
  "meta": {
    "timestamp": "2023-10-18T12:09:40.807383Z",
    "stations_updated": "2023-10-01"
  },
  "altimeter": {
    "repr": "A3005",
    "value": 30.05,
    "spoken": "three zero point zero five"
  },
  "clouds": [
    {
      "repr": "OVC045",
      "type": "OVC",
      "altitude": 45,
      "modifier": null
    }
  ],
  "flight_rules": "VFR",
  "other": [],
  "visibility": {
    "repr": "10",
    "value": 10,
    "spoken": "one zero"
  },
  "wind_direction": {
    "repr": "000",
    "value": 0,
    "spoken": "zero zero zero"
  },
  "wind_gust": null,
  "wind_speed": {
    "repr": "00",
    "value": 0,
    "spoken": "zero"
  },
  "wx_codes": [],
  "raw": "KBVS 181155Z AUTO 00000KT 10SM OVC045 14/11 A3005 RMK A01 KBVS 181135Z AUTO 00000KT 10SM BKN046 BKN065 OVC090 14/10 A3004 RMK A01 KBVS 181115Z AUTO 10006KT 10SM FEW046 SCT080 OVC090 14/10 A3003 RMK A01 KBVS 181055Z AUTO 10005KT 10SM FEW065 BKN075 OVC085 14/10 A3003 RMK A01 KBVS 181035Z AUTO 00000KT 10SM FEW049 OVC075 13/11 A3005 RMK A01 KBVS 181015Z AUTO 04004KT 10SM FEW050 BKN080 OVC095 13/12 A3005 RMK A01",
  "sanitized": "KBVS 181155Z 00000KT 10SM OVC045 14/11 A3005 RMK A01 KBVS 181135Z AUTO 00000KT 10SM BKN046 BKN065 OVC090 14/10 A3004 RMK A01 KBVS 181115Z AUTO 10006KT 10SM FEW046 SCT080 OVC090 14/10 A3003 RMK A01 KBVS 181055Z AUTO 10005KT 10SM FEW065 BKN075 OVC085 14/10 A3003 RMK A01 KBVS 181035Z AUTO 00000KT 10SM FEW049 OVC075 13/11 A3005 RMK A01 KBVS 181015Z AUTO 04004KT 10SM FEW050 BKN080 OVC095 13/12 A3005 RMK A01",
  "station": "KBVS",
  "time": {
    "repr": "181155Z",
    "dt": "2023-10-18T11:55:00Z"
  },
  "remarks": "RMK A01 KBVS 181135Z AUTO 00000KT 10SM BKN046 BKN065 OVC090 14/10 A3004 RMK A01 KBVS 181115Z AUTO 10006KT 10SM FEW046 SCT080 OVC090 14/10 A3003 RMK A01 KBVS 181055Z AUTO 10005KT 10SM FEW065 BKN075 OVC085 14/10 A3003 RMK A01 KBVS 181035Z AUTO 00000KT 10SM FEW049 OVC075 13/11 A3005 RMK A01 KBVS 181015Z AUTO 04004KT 10SM FEW050 BKN080 OVC095 13/12 A3005 RMK A01",
  "dewpoint": {
    "repr": "11",
    "value": 11,
    "spoken": "one one"
  },
  "relative_humidity": 0.8212183738504668,
  "remarks_info": {
    "maximum_temperature_6": null,
    "minimum_temperature_6": null,
    "pressure_tendency": null,
    "precip_36_hours": null,
    "precip_24_hours": null,
    "sunshine_minutes": null,
    "codes": [],
    "dewpoint_decimal": null,
    "maximum_temperature_24": null,
    "minimum_temperature_24": null,
    "precip_hourly": null,
    "sea_level_pressure": null,
    "snow_depth": null,
    "temperature_decimal": null
  },
  "runway_visibility": [],
  "temperature": {
    "repr": "14",
    "value": 14,
    "spoken": "one four"
  },
  "wind_variable_direction": [],
  "density_altitude": -71,
  "pressure_altitude": 14,
  "units": {
    "accumulation": "in",
    "altimeter": "inHg",
    "altitude": "ft",
    "temperature": "C",
    "visibility": "sm",
    "wind_speed": "kt"
  }
}
