{
  "altimeter": {
    "repr": "A3003",
    "spoken": "three zero point zero three",
    "value": 30.03
  },
  "clouds": [
    {
      "altitude": 16,
      "modifier": null,
      "repr": "OVC016",
      "type": "OVC"
    }
  ],
  "density_altitude": -51,
  "dewpoint": {
    "repr": "14",
    "spoken": "one four",
    "value": 14
  },
  "flight_rules": "MVFR",
  "meta": {
    "stations_updated": "2024-06-12",
    "timestamp": "2024-09-27T09:41:23.817822Z"
  },
  "other": [],
  "pressure_altitude": 34,
  "raw": "KBVS 270915Z AUTO 19007G13KT 10SM OVC016 14/14 A3003 RMK A01",
  "relative_humidity": 1,
  "remarks": "RMK A01",
  "remarks_info": {
    "codes": [],
    "dewpoint_decimal": null,
    "maximum_temperature_24": null,
    "maximum_temperature_6": null,
    "minimum_temperature_24": null,
    "minimum_temperature_6": null,
    "precip_24_hours": null,
    "precip_36_hours": null,
    "precip_hourly": null,
    "pressure_tendency": null,
    "sea_level_pressure": null,
    "snow_depth": null,
    "sunshine_minutes": null,
    "temperature_decimal": null
  },
  "runway_visibility": [],
  "sanitized": "KBVS 270915Z 19007G13KT 10SM OVC016 14/14 A3003 RMK A01",
  "station": "KBVS",
  "temperature": {
    "repr": "14",
    "spoken": "one four",
    "value": 14
  },
  "time": {
    "dt": "2024-09-27T09:15:00Z",
    "repr": "270915Z"
  },
  "units": {
    "accumulation": "in",
    "altimeter": "inHg",
    "altitude": "ft",
    "temperature": "C",
    "visibility": "sm",
    "wind_speed": "kt"
  },
  "visibility": {
    "repr": "10",
    "spoken": "one zero",
    "value": 10
  },
  "wind_direction": {
    "repr": "190",
    "spoken": "one nine zero",
    "value": 190
  },
  "wind_gust": {
    "repr": "13",
    "spoken": "one three",
    "value": 13
  },
  "wind_speed": {
    "repr": "07",
    "spoken": "seven",
    "value": 7
  },
  "wind_variable_direction": [],
  "wx_codes": []
}
