{
  "altimeter": {
    "repr": "A2985",
    "spoken": "two nine point eight five",
    "value": 29.85
  },
  "clouds": [
    {
      "altitude": 50,
      "modifier": null,
      "repr": "BKN050",
      "type": "BKN"
    },
    {
      "altitude": 65,
      "modifier": null,
      "repr": "OVC065",
      "type": "OVC"
    }
  ],
  "density_altitude": -111,
  "dewpoint": {
    "repr": "09",
    "spoken": "nine",
    "value": 9
  },
  "flight_rules": "VFR",
  "meta": {
    "cache-timestamp": "2023-12-28T04:40:05.364000Z",
    "stations_updated": "2023-10-28",
    "timestamp": "2023-12-28T04:40:38.383562Z"
  },
  "other": [],
  "pressure_altitude": 214,
  "raw": "KBVS 280415Z AUTO 07008KT 10SM BKN050 OVC065 12/09 A2985 RMK A01",
  "relative_humidity": 0.8186649539519323,
  "remarks": "RMK A01",
  "remarks_info": {
    "codes": [],
    "dewpoint_decimal": null,
    "maximum_temperature_24": null,
    "maximum_temperature_6": null,
    "minimum_temperature_24": null,
    "minimum_temperature_6": null,
    "precip_24_hours": null,
    "precip_36_hours": null,
    "precip_hourly": null,
    "pressure_tendency": null,
    "sea_level_pressure": null,
    "snow_depth": null,
    "sunshine_minutes": null,
    "temperature_decimal": null
  },
  "runway_visibility": [],
  "sanitized": "KBVS 280415Z 07008KT 10SM BKN050 OVC065 12/09 A2985 RMK A01",
  "station": "KBVS",
  "temperature": {
    "repr": "12",
    "spoken": "one two",
    "value": 12
  },
  "time": {
    "dt": "2023-12-28T04:15:00Z",
    "repr": "280415Z"
  },
  "units": {
    "accumulation": "in",
    "altimeter": "inHg",
    "altitude": "ft",
    "temperature": "C",
    "visibility": "sm",
    "wind_speed": "kt"
  },
  "visibility": {
    "repr": "10",
    "spoken": "one zero",
    "value": 10
  },
  "wind_direction": {
    "repr": "070",
    "spoken": "zero seven zero",
    "value": 70
  },
  "wind_gust": null,
  "wind_speed": {
    "repr": "08",
    "spoken": "eight",
    "value": 8
  },
  "wind_variable_direction": [],
  "wx_codes": []
}
