{
  "altimeter": {
    "repr": "A3002",
    "spoken": "three zero point zero two",
    "value": 30.02
  },
  "clouds": [
    {
      "altitude": 49,
      "modifier": null,
      "repr": "FEW049",
      "type": "FEW"
    },
    {
      "altitude": 60,
      "modifier": null,
      "repr": "BKN060",
      "type": "BKN"
    },
    {
      "altitude": 80,
      "modifier": null,
      "repr": "OVC080",
      "type": "OVC"
    }
  ],
  "density_altitude": -2441,
  "dewpoint": {
    "repr": "M13",
    "spoken": "minus one three",
    "value": -13
  },
  "flight_rules": "VFR",
  "meta": {
    "cache-timestamp": "2024-01-12T07:40:05.300000Z",
    "stations_updated": "2023-10-28",
    "timestamp": "2024-01-12T07:40:34.420503Z"
  },
  "other": [],
  "pressure_altitude": 44,
  "raw": "KBVS 120715Z AUTO 00000KT 10SM FEW049 BKN060 OVC080 M06/M13 A3002 RMK A01",
  "relative_humidity": 0.5768501981457247,
  "remarks": "RMK A01",
  "remarks_info": {
    "codes": [],
    "dewpoint_decimal": null,
    "maximum_temperature_24": null,
    "maximum_temperature_6": null,
    "minimum_temperature_24": null,
    "minimum_temperature_6": null,
    "precip_24_hours": null,
    "precip_36_hours": null,
    "precip_hourly": null,
    "pressure_tendency": null,
    "sea_level_pressure": null,
    "snow_depth": null,
    "sunshine_minutes": null,
    "temperature_decimal": null
  },
  "runway_visibility": [],
  "sanitized": "KBVS 120715Z 00000KT 10SM FEW049 BKN060 OVC080 M06/M13 A3002 RMK A01",
  "station": "KBVS",
  "temperature": {
    "repr": "M06",
    "spoken": "minus six",
    "value": -6
  },
  "time": {
    "dt": "2024-01-12T07:15:00Z",
    "repr": "120715Z"
  },
  "units": {
    "accumulation": "in",
    "altimeter": "inHg",
    "altitude": "ft",
    "temperature": "C",
    "visibility": "sm",
    "wind_speed": "kt"
  },
  "visibility": {
    "repr": "10",
    "spoken": "one zero",
    "value": 10
  },
  "wind_direction": {
    "repr": "000",
    "spoken": "zero zero zero",
    "value": 0
  },
  "wind_gust": null,
  "wind_speed": {
    "repr": "00",
    "spoken": "zero",
    "value": 0
  },
  "wind_variable_direction": [],
  "wx_codes": []
}
