{
  "meta": {
    "timestamp": "2023-10-22T16:27:57.288183Z",
    "stations_updated": "2023-10-01"
  },
  "altimeter": {
    "repr": "A2990",
    "value": 29.9,
    "spoken": "two nine point nine zero"
  },
  "clouds": [
    {
      "repr": "SCT006",
      "type": "SCT",
      "altitude": 6,
      "modifier": null
    },
    {
      "repr": "OVC015",
      "type": "OVC",
      "altitude": 15,
      "modifier": null
    }
  ],
  "flight_rules": "MVFR",
  "other": [],
  "visibility": {
    "repr": "10",
    "value": 10,
    "spoken": "one zero"
  },
  "wind_direction": {
    "repr": "300",
    "value": 300,
    "spoken": "three zero zero"
  },
  "wind_gust": null,
  "wind_speed": {
    "repr": "04",
    "value": 4,
    "spoken": "four"
  },
  "wx_codes": [],
  "raw": "KBVS 221615Z AUTO 30004KT 10SM SCT006 OVC015 11/11 A2990 RMK A01 KBVS 221555Z AUTO 30006KT 10SM OVC006 11/11 A2990 RMK A01 KBVS 221535Z AUTO 31006KT 10SM OVC005 11/11 A2990 RMK A01 KBVS 221515Z AUTO 31006KT 10SM OVC005 11/11 A2990 RMK A01 KBVS 221455Z AUTO 30005KT 10SM OVC006 11/11 A2989 RMK A01 KBVS 221435Z AUTO 31006KT 10SM OVC006 11/11 A2989 RMK A01",
  "sanitized": "KBVS 221615Z 30004KT 10SM SCT006 OVC015 11/11 A2990 RMK A01 KBVS 221555Z AUTO 30006KT 10SM OVC006 11/11 A2990 RMK A01 KBVS 221535Z AUTO 31006KT 10SM OVC005 11/11 A2990 RMK A01 KBVS 221515Z AUTO 31006KT 10SM OVC005 11/11 A2990 RMK A01 KBVS 221455Z AUTO 30005KT 10SM OVC006 11/11 A2989 RMK A01 KBVS 221435Z AUTO 31006KT 10SM OVC006 11/11 A2989 RMK A01",
  "station": "KBVS",
  "time": {
    "repr": "221615Z",
    "dt": "2023-10-22T16:15:00Z"
  },
  "remarks": "RMK A01 KBVS 221555Z AUTO 30006KT 10SM OVC006 11/11 A2990 RMK A01 KBVS 221535Z AUTO 31006KT 10SM OVC005 11/11 A2990 RMK A01 KBVS 221515Z AUTO 31006KT 10SM OVC005 11/11 A2990 RMK A01 KBVS 221455Z AUTO 30005KT 10SM OVC006 11/11 A2989 RMK A01 KBVS 221435Z AUTO 31006KT 10SM OVC006 11/11 A2989 RMK A01",
  "dewpoint": {
    "repr": "11",
    "value": 11,
    "spoken": "one one"
  },
  "relative_humidity": 1,
  "remarks_info": {
    "maximum_temperature_6": null,
    "minimum_temperature_6": null,
    "pressure_tendency": null,
    "precip_36_hours": null,
    "precip_24_hours": null,
    "sunshine_minutes": null,
    "codes": [],
    "dewpoint_decimal": null,
    "maximum_temperature_24": null,
    "minimum_temperature_24": null,
    "precip_hourly": null,
    "sea_level_pressure": null,
    "snow_depth": null,
    "temperature_decimal": null
  },
  "runway_visibility": [],
  "temperature": {
    "repr": "11",
    "value": 11,
    "spoken": "one one"
  },
  "wind_variable_direction": [],
  "density_altitude": -281,
  "pressure_altitude": 164,
  "units": {
    "accumulation": "in",
    "altimeter": "inHg",
    "altitude": "ft",
    "temperature": "C",
    "visibility": "sm",
    "wind_speed": "kt"
  }
}
