{
  "meta": {
    "timestamp": "2023-01-11T17:10:15.648319Z",
    "stations_updated": "2022-12-27",
    "cache-timestamp": "2023-01-11T17:10:06.646000Z"
  },
  "altimeter": {
    "repr": "A2988",
    "value": 29.88,
    "spoken": "two nine point eight eight"
  },
  "clouds": [
    {
      "repr": "SCT034",
      "type": "SCT",
      "altitude": 34,
      "modifier": null
    },
    {
      "repr": "SCT041",
      "type": "SCT",
      "altitude": 41,
      "modifier": null
    },
    {
      "repr": "SCT095",
      "type": "SCT",
      "altitude": 95,
      "modifier": null
    }
  ],
  "flight_rules": "VFR",
  "other": [],
  "visibility": {
    "repr": "10",
    "value": 10,
    "spoken": "one zero"
  },
  "wind_direction": {
    "repr": "110",
    "value": 110,
    "spoken": "one one zero"
  },
  "wind_gust": null,
  "wind_speed": {
    "repr": "11",
    "value": 11,
    "spoken": "one one"
  },
  "wx_codes": [],
  "raw": "KBVS 111655Z AUTO 11011KT 10SM SCT034 SCT041 SCT095 09/05 A2988 RMK A01",
  "sanitized": "KBVS 111655Z 11011KT 10SM SCT034 SCT041 SCT095 09/05 A2988 RMK A01",
  "station": "KBVS",
  "time": {
    "repr": "111655Z",
    "dt": "2023-01-11T16:55:00Z"
  },
  "remarks": "RMK A01",
  "dewpoint": {
    "repr": "05",
    "value": 5,
    "spoken": "five"
  },
  "relative_humidity": 0.7601126880197319,
  "remarks_info": {
    "maximum_temperature_6": null,
    "minimum_temperature_6": null,
    "pressure_tendency": null,
    "precip_36_hours": null,
    "precip_24_hours": null,
    "sunshine_minutes": null,
    "codes": [],
    "dewpoint_decimal": null,
    "maximum_temperature_24": null,
    "minimum_temperature_24": null,
    "precip_hourly": null,
    "sea_level_pressure": null,
    "snow_depth": null,
    "temperature_decimal": null
  },
  "runway_visibility": [],
  "temperature": {
    "repr": "09",
    "value": 9,
    "spoken": "nine"
  },
  "wind_variable_direction": [],
  "density_altitude": -501,
  "pressure_altitude": 184,
  "units": {
    "accumulation": "in",
    "altimeter": "inHg",
    "altitude": "ft",
    "temperature": "C",
    "visibility": "sm",
    "wind_speed": "kt"
  }
}
