{
  "meta": {
    "timestamp": "2022-11-18T13:24:27.159412Z",
    "stations_updated": "2022-09-05"
  },
  "altimeter": {
    "repr": "A3053",
    "value": 30.53,
    "spoken": "three zero point five three"
  },
  "clouds": [],
  "flight_rules": "VFR",
  "other": [],
  "visibility": {
    "repr": "10",
    "value": 10,
    "spoken": "one zero"
  },
  "wind_direction": {
    "repr": "030",
    "value": 30,
    "spoken": "zero three zero"
  },
  "wind_gust": null,
  "wind_speed": {
    "repr": "07",
    "value": 7,
    "spoken": "seven"
  },
  "wx_codes": [],
  "raw": "KBVS 181315Z AUTO 03007KT 10SM CLR 01/M06 A3053 RMK A01",
  "sanitized": "KBVS 181315Z 03007KT 10SM 01/M06 A3053 RMK A01",
  "station": "KBVS",
  "time": {
    "repr": "181315Z",
    "dt": "2022-11-18T13:15:00Z"
  },
  "remarks": "RMK A01",
  "dewpoint": {
    "repr": "M06",
    "value": -6,
    "spoken": "minus six"
  },
  "relative_humidity": 0.5953118228780826,
  "remarks_info": {
    "maximum_temperature_6": null,
    "minimum_temperature_6": null,
    "pressure_tendency": null,
    "precip_36_hours": null,
    "precip_24_hours": null,
    "sunshine_minutes": null,
    "codes": [],
    "dewpoint_decimal": null,
    "maximum_temperature_24": null,
    "minimum_temperature_24": null,
    "precip_hourly": null,
    "sea_level_pressure": null,
    "snow_depth": null,
    "temperature_decimal": null
  },
  "runway_visibility": [],
  "temperature": {
    "repr": "01",
    "value": 1,
    "spoken": "one"
  },
  "wind_variable_direction": [],
  "density_altitude": -2111,
  "pressure_altitude": -466,
  "units": {
    "accumulation": "in",
    "altimeter": "inHg",
    "altitude": "ft",
    "temperature": "C",
    "visibility": "sm",
    "wind_speed": "kt"
  }
}
