{
  "meta": {
    "timestamp": "2023-05-17T19:40:37.939405Z",
    "stations_updated": "2023-03-11",
    "cache-timestamp": "2023-05-17T19:40:06.945000Z"
  },
  "altimeter": {
    "repr": "A2999",
    "value": 29.99,
    "spoken": "two nine point nine nine"
  },
  "clouds": [],
  "flight_rules": "VFR",
  "other": [],
  "visibility": {
    "repr": "10",
    "value": 10,
    "spoken": "one zero"
  },
  "wind_direction": {
    "repr": "VRB",
    "value": null,
    "spoken": "variable"
  },
  "wind_gust": null,
  "wind_speed": {
    "repr": "03",
    "value": 3,
    "spoken": "three"
  },
  "wx_codes": [],
  "raw": "KBVS 171915Z AUTO VRB03KT 10SM CLR 21/17 A2999 RMK A01",
  "sanitized": "KBVS 171915Z VRB03KT 10SM 21/17 A2999 RMK A01",
  "station": "KBVS",
  "time": {
    "repr": "171915Z",
    "dt": "2023-05-17T19:15:00Z"
  },
  "remarks": "RMK A01",
  "dewpoint": {
    "repr": "17",
    "value": 17,
    "spoken": "one seven"
  },
  "relative_humidity": 0.7789701483888556,
  "remarks_info": {
    "maximum_temperature_6": null,
    "minimum_temperature_6": null,
    "pressure_tendency": null,
    "precip_36_hours": null,
    "precip_24_hours": null,
    "sunshine_minutes": null,
    "codes": [],
    "dewpoint_decimal": null,
    "maximum_temperature_24": null,
    "minimum_temperature_24": null,
    "precip_hourly": null,
    "sea_level_pressure": null,
    "snow_depth": null,
    "temperature_decimal": null
  },
  "runway_visibility": [],
  "temperature": {
    "repr": "21",
    "value": 21,
    "spoken": "two one"
  },
  "wind_variable_direction": [],
  "density_altitude": 829,
  "pressure_altitude": 74,
  "units": {
    "accumulation": "in",
    "altimeter": "inHg",
    "altitude": "ft",
    "temperature": "C",
    "visibility": "sm",
    "wind_speed": "kt"
  }
}
