{
  "meta": {
    "timestamp": "2023-02-20T21:02:04.489790Z",
    "stations_updated": "2023-01-30"
  },
  "altimeter": {
    "repr": "A3004",
    "value": 30.04,
    "spoken": "three zero point zero four"
  },
  "clouds": [
    {
      "repr": "BKN008",
      "type": "BKN",
      "altitude": 8,
      "modifier": null
    },
    {
      "repr": "BKN013",
      "type": "BKN",
      "altitude": 13,
      "modifier": null
    }
  ],
  "flight_rules": "IFR",
  "other": [],
  "visibility": {
    "repr": "10",
    "value": 10,
    "spoken": "one zero"
  },
  "wind_direction": {
    "repr": "150",
    "value": 150,
    "spoken": "one five zero"
  },
  "wind_gust": null,
  "wind_speed": {
    "repr": "06",
    "value": 6,
    "spoken": "six"
  },
  "wx_codes": [],
  "raw": "KBVS 202055Z AUTO 15006KT 10SM BKN008 BKN013 08/08 A3004 RMK A01 P0005",
  "sanitized": "KBVS 202055Z 15006KT 10SM BKN008 BKN013 08/08 A3004 RMK A01 P0005",
  "station": "KBVS",
  "time": {
    "repr": "202055Z",
    "dt": "2023-02-20T20:55:00Z"
  },
  "remarks": "RMK A01 P0005",
  "dewpoint": {
    "repr": "08",
    "value": 8,
    "spoken": "eight"
  },
  "relative_humidity": 1,
  "remarks_info": {
    "maximum_temperature_6": null,
    "minimum_temperature_6": null,
    "pressure_tendency": null,
    "precip_36_hours": null,
    "precip_24_hours": null,
    "sunshine_minutes": null,
    "codes": [],
    "dewpoint_decimal": null,
    "maximum_temperature_24": null,
    "minimum_temperature_24": null,
    "precip_hourly": {
      "repr": "P0005",
      "value": 0.05,
      "spoken": "zero point zero five"
    },
    "sea_level_pressure": null,
    "snow_depth": null,
    "temperature_decimal": null
  },
  "runway_visibility": [],
  "temperature": {
    "repr": "08",
    "value": 8,
    "spoken": "eight"
  },
  "wind_variable_direction": [],
  "density_altitude": -781,
  "pressure_altitude": 24,
  "units": {
    "accumulation": "in",
    "altimeter": "inHg",
    "altitude": "ft",
    "temperature": "C",
    "visibility": "sm",
    "wind_speed": "kt"
  }
}
