{
  "meta": {
    "timestamp": "2022-11-05T15:44:26.027547Z",
    "stations_updated": "2022-09-05"
  },
  "altimeter": {
    "repr": "A2979",
    "value": 29.79,
    "spoken": "two nine point seven nine"
  },
  "clouds": [
    {
      "repr": "SCT080",
      "type": "SCT",
      "altitude": 80,
      "modifier": null
    },
    {
      "repr": "BKN090",
      "type": "BKN",
      "altitude": 90,
      "modifier": null
    },
    {
      "repr": "OVC120",
      "type": "OVC",
      "altitude": 120,
      "modifier": null
    }
  ],
  "flight_rules": "VFR",
  "other": [],
  "visibility": {
    "repr": "10",
    "value": 10,
    "spoken": "one zero"
  },
  "wind_direction": {
    "repr": "220",
    "value": 220,
    "spoken": "two two zero"
  },
  "wind_gust": {
    "repr": "15",
    "value": 15,
    "spoken": "one five"
  },
  "wind_speed": {
    "repr": "07",
    "value": 7,
    "spoken": "seven"
  },
  "wx_codes": [],
  "raw": "KBVS 051535Z AUTO 22007G15KT 190V250 10SM SCT080 BKN090 OVC120 07/04 A2979 RMK A01",
  "sanitized": "KBVS 051535Z 22007G15KT 190V250 10SM SCT080 BKN090 OVC120 07/04 A2979 RMK A01",
  "station": "KBVS",
  "time": {
    "repr": "051535Z",
    "dt": "2022-11-05T15:35:00Z"
  },
  "remarks": "RMK A01",
  "dewpoint": {
    "repr": "04",
    "value": 4,
    "spoken": "four"
  },
  "relative_humidity": 0.8120472933179927,
  "remarks_info": {
    "maximum_temperature_6": null,
    "minimum_temperature_6": null,
    "pressure_tendency": null,
    "precip_36_hours": null,
    "precip_24_hours": null,
    "sunshine_minutes": null,
    "codes": [],
    "dewpoint_decimal": null,
    "maximum_temperature_24": null,
    "minimum_temperature_24": null,
    "precip_hourly": null,
    "sea_level_pressure": null,
    "snow_depth": null,
    "temperature_decimal": null
  },
  "runway_visibility": [],
  "temperature": {
    "repr": "07",
    "value": 7,
    "spoken": "seven"
  },
  "wind_variable_direction": [
    {
      "repr": "190",
      "value": 190,
      "spoken": "one nine zero"
    },
    {
      "repr": "250",
      "value": 250,
      "spoken": "two five zero"
    }
  ],
  "density_altitude": -651,
  "pressure_altitude": 274,
  "units": {
    "accumulation": "in",
    "altimeter": "inHg",
    "altitude": "ft",
    "temperature": "C",
    "visibility": "sm",
    "wind_speed": "kt"
  }
}
