{
  "altimeter": {
    "repr": "A2970",
    "spoken": "two nine point seven zero",
    "value": 29.7
  },
  "clouds": [
    {
      "altitude": 60,
      "modifier": null,
      "repr": "FEW060",
      "type": "FEW"
    }
  ],
  "density_altitude": -201,
  "dewpoint": {
    "repr": "02",
    "spoken": "two",
    "value": 2
  },
  "flight_rules": "VFR",
  "meta": {
    "cache-timestamp": "2024-03-09T16:40:05.304000Z",
    "stations_updated": "2024-01-01",
    "timestamp": "2024-03-09T16:40:33.846421Z"
  },
  "other": [],
  "pressure_altitude": 364,
  "raw": "KBVS 091615Z AUTO 14008G14KT 10SM FEW060 10/02 A2970 RMK A01",
  "relative_humidity": 0.575169614493561,
  "remarks": "RMK A01",
  "remarks_info": {
    "codes": [],
    "dewpoint_decimal": null,
    "maximum_temperature_24": null,
    "maximum_temperature_6": null,
    "minimum_temperature_24": null,
    "minimum_temperature_6": null,
    "precip_24_hours": null,
    "precip_36_hours": null,
    "precip_hourly": null,
    "pressure_tendency": null,
    "sea_level_pressure": null,
    "snow_depth": null,
    "sunshine_minutes": null,
    "temperature_decimal": null
  },
  "runway_visibility": [],
  "sanitized": "KBVS 091615Z 14008G14KT 10SM FEW060 10/02 A2970 RMK A01",
  "station": "KBVS",
  "temperature": {
    "repr": "10",
    "spoken": "one zero",
    "value": 10
  },
  "time": {
    "dt": "2024-03-09T16:15:00Z",
    "repr": "091615Z"
  },
  "units": {
    "accumulation": "in",
    "altimeter": "inHg",
    "altitude": "ft",
    "temperature": "C",
    "visibility": "sm",
    "wind_speed": "kt"
  },
  "visibility": {
    "repr": "10",
    "spoken": "one zero",
    "value": 10
  },
  "wind_direction": {
    "repr": "140",
    "spoken": "one four zero",
    "value": 140
  },
  "wind_gust": {
    "repr": "14",
    "spoken": "one four",
    "value": 14
  },
  "wind_speed": {
    "repr": "08",
    "spoken": "eight",
    "value": 8
  },
  "wind_variable_direction": [],
  "wx_codes": []
}
