{
  "meta": {
    "timestamp": "2023-10-23T06:29:29.405018Z",
    "stations_updated": "2023-10-01"
  },
  "altimeter": {
    "repr": "A2998",
    "value": 29.98,
    "spoken": "two nine point nine eight"
  },
  "clouds": [
    {
      "repr": "OVC015",
      "type": "OVC",
      "altitude": 15,
      "modifier": null
    }
  ],
  "flight_rules": "MVFR",
  "other": [],
  "visibility": {
    "repr": "3",
    "value": 3,
    "spoken": "three"
  },
  "wind_direction": {
    "repr": "000",
    "value": 0,
    "spoken": "zero zero zero"
  },
  "wind_gust": null,
  "wind_speed": {
    "repr": "00",
    "value": 0,
    "spoken": "zero"
  },
  "wx_codes": [
    {
      "repr": "BR",
      "value": "Mist"
    }
  ],
  "raw": "KBVS 230615Z AUTO 00000KT 3SM BR OVC015 07/07 A2998 RMK A01 KBVS 230555Z AUTO 00000KT 2SM BR BKN017 BKN036 BKN046 07/07 A2998 RMK A01 KBVS 230535Z AUTO 00000KT 1/2SM FG BKN019 OVC047 06/06 A2998 RMK A01 KBVS 230515Z AUTO 00000KT 1 1/4SM BR OVC049 07/07 A2997 RMK A01 VIS 3/4V3 KBVS 230455Z AUTO 00000KT 1 1/4SM BR OVC050 07/07 A2998 RMK A01 KBVS 230435Z AUTO 00000KT 10SM OVC049 07/07 A2997 RMK A01",
  "sanitized": "KBVS 230615Z 00000KT 3SM BR OVC015 07/07 A2998 RMK A01 KBVS 230555Z AUTO 00000KT 2SM BR BKN017 BKN036 BKN046 07/07 A2998 RMK A01 KBVS 230535Z AUTO 00000KT 1/2SM FG BKN019 OVC047 06/06 A2998 RMK A01 KBVS 230515Z AUTO 00000KT 1 1/4SM BR OVC049 07/07 A2997 RMK A01 VIS 3/4V3 KBVS 230455Z AUTO 00000KT 1 1/4SM BR OVC050 07/07 A2998 RMK A01 KBVS 230435Z AUTO 00000KT 10SM OVC049 07/07 A2997 RMK A01",
  "station": "KBVS",
  "time": {
    "repr": "230615Z",
    "dt": "2023-10-23T06:15:00Z"
  },
  "remarks": "RMK A01 KBVS 230555Z AUTO 00000KT 2SM BR BKN017 BKN036 BKN046 07/07 A2998 RMK A01 KBVS 230535Z AUTO 00000KT 1/2SM FG BKN019 OVC047 06/06 A2998 RMK A01 KBVS 230515Z AUTO 00000KT 1 1/4SM BR OVC049 07/07 A2997 RMK A01 VIS 3/4V3 KBVS 230455Z AUTO 00000KT 1 1/4SM BR OVC050 07/07 A2998 RMK A01 KBVS 230435Z AUTO 00000KT 10SM OVC049 07/07 A2997 RMK A01",
  "dewpoint": {
    "repr": "07",
    "value": 7,
    "spoken": "seven"
  },
  "relative_humidity": 1,
  "remarks_info": {
    "maximum_temperature_6": null,
    "minimum_temperature_6": null,
    "pressure_tendency": null,
    "precip_36_hours": null,
    "precip_24_hours": null,
    "sunshine_minutes": null,
    "codes": [],
    "dewpoint_decimal": null,
    "maximum_temperature_24": null,
    "minimum_temperature_24": null,
    "precip_hourly": null,
    "sea_level_pressure": null,
    "snow_depth": null,
    "temperature_decimal": null
  },
  "runway_visibility": [],
  "temperature": {
    "repr": "07",
    "value": 7,
    "spoken": "seven"
  },
  "wind_variable_direction": [],
  "density_altitude": -841,
  "pressure_altitude": 84,
  "units": {
    "accumulation": "in",
    "altimeter": "inHg",
    "altitude": "ft",
    "temperature": "C",
    "visibility": "sm",
    "wind_speed": "kt"
  }
}
