{
  "altimeter": {
    "repr": "A3037",
    "spoken": "three zero point three seven",
    "value": 30.37
  },
  "clouds": [
    {
      "altitude": 55,
      "modifier": null,
      "repr": "OVC055",
      "type": "OVC"
    }
  ],
  "density_altitude": -871,
  "dewpoint": {
    "repr": "08",
    "spoken": "eight",
    "value": 8
  },
  "flight_rules": "VFR",
  "meta": {
    "cache-timestamp": "2024-05-30T06:42:02.882000Z",
    "stations_updated": "2024-05-13",
    "timestamp": "2024-05-30T06:42:17.718991Z"
  },
  "other": [],
  "pressure_altitude": -306,
  "raw": "KBVS 300615Z AUTO 00000KT 10SM OVC055 10/08 A3037 RMK A01",
  "relative_humidity": 0.8737387809028685,
  "remarks": "RMK A01",
  "remarks_info": {
    "codes": [],
    "dewpoint_decimal": null,
    "maximum_temperature_24": null,
    "maximum_temperature_6": null,
    "minimum_temperature_24": null,
    "minimum_temperature_6": null,
    "precip_24_hours": null,
    "precip_36_hours": null,
    "precip_hourly": null,
    "pressure_tendency": null,
    "sea_level_pressure": null,
    "snow_depth": null,
    "sunshine_minutes": null,
    "temperature_decimal": null
  },
  "runway_visibility": [],
  "sanitized": "KBVS 300615Z 00000KT 10SM OVC055 10/08 A3037 RMK A01",
  "station": "KBVS",
  "temperature": {
    "repr": "10",
    "spoken": "one zero",
    "value": 10
  },
  "time": {
    "dt": "2024-05-30T06:15:00Z",
    "repr": "300615Z"
  },
  "units": {
    "accumulation": "in",
    "altimeter": "inHg",
    "altitude": "ft",
    "temperature": "C",
    "visibility": "sm",
    "wind_speed": "kt"
  },
  "visibility": {
    "repr": "10",
    "spoken": "one zero",
    "value": 10
  },
  "wind_direction": {
    "repr": "000",
    "spoken": "zero zero zero",
    "value": 0
  },
  "wind_gust": null,
  "wind_speed": {
    "repr": "00",
    "spoken": "zero",
    "value": 0
  },
  "wind_variable_direction": [],
  "wx_codes": []
}
