{
  "altimeter": {
    "repr": "A3029",
    "spoken": "three zero point two nine",
    "value": 30.29
  },
  "clouds": [
    {
      "altitude": 2,
      "modifier": null,
      "repr": "OVC002",
      "type": "OVC"
    }
  ],
  "density_altitude": -2111,
  "dewpoint": {
    "repr": "M00",
    "spoken": "zero",
    "value": 0
  },
  "flight_rules": "LIFR",
  "meta": {
    "stations_updated": "2024-12-02",
    "timestamp": "2024-12-05T12:55:25.171871Z"
  },
  "other": [
    "M14KT"
  ],
  "pressure_altitude": -226,
  "raw": "KBVS 051235Z AUTO 00000KT M1/4SM FZFG OVC002 M01/M00 A3029 RMK A01",
  "relative_humidity": 1.0755863765031954,
  "remarks": "RMK A01",
  "remarks_info": {
    "codes": [],
    "dewpoint_decimal": null,
    "maximum_temperature_24": null,
    "maximum_temperature_6": null,
    "minimum_temperature_24": null,
    "minimum_temperature_6": null,
    "precip_24_hours": null,
    "precip_36_hours": null,
    "precip_hourly": null,
    "pressure_tendency": null,
    "sea_level_pressure": null,
    "snow_depth": null,
    "sunshine_minutes": null,
    "temperature_decimal": null
  },
  "runway_visibility": [],
  "sanitized": "KBVS 051235Z 00000KT M14KT FZFG OVC002 M01/M00 A3029 RMK A01",
  "station": "KBVS",
  "temperature": {
    "repr": "M01",
    "spoken": "minus one",
    "value": -1
  },
  "time": {
    "dt": "2024-12-05T12:35:00Z",
    "repr": "051235Z"
  },
  "units": {
    "accumulation": "in",
    "altimeter": "inHg",
    "altitude": "ft",
    "temperature": "C",
    "visibility": "sm",
    "wind_speed": "kt"
  },
  "visibility": null,
  "wind_direction": {
    "repr": "000",
    "spoken": "zero zero zero",
    "value": 0
  },
  "wind_gust": null,
  "wind_speed": {
    "repr": "00",
    "spoken": "zero",
    "value": 0
  },
  "wind_variable_direction": [],
  "wx_codes": [
    {
      "repr": "FZFG",
      "value": "Freezing Fog"
    }
  ]
}
