{
  "meta": {
    "timestamp": "2023-01-16T21:23:38.711347Z",
    "stations_updated": "2022-12-27"
  },
  "altimeter": {
    "repr": "A2972",
    "value": 29.72,
    "spoken": "two nine point seven two"
  },
  "clouds": [
    {
      "repr": "BKN033",
      "type": "BKN",
      "altitude": 33,
      "modifier": null
    }
  ],
  "flight_rules": "VFR",
  "other": [],
  "visibility": {
    "repr": "10",
    "value": 10,
    "spoken": "one zero"
  },
  "wind_direction": {
    "repr": "140",
    "value": 140,
    "spoken": "one four zero"
  },
  "wind_gust": null,
  "wind_speed": {
    "repr": "09",
    "value": 9,
    "spoken": "nine"
  },
  "wx_codes": [],
  "raw": "KBVS 162115Z AUTO 14009KT 10SM BKN033 10/05 A2972 RMK A01",
  "sanitized": "KBVS 162115Z 14009KT 10SM BKN033 10/05 A2972 RMK A01",
  "station": "KBVS",
  "time": {
    "repr": "162115Z",
    "dt": "2023-01-16T21:15:00Z"
  },
  "remarks": "RMK A01",
  "dewpoint": {
    "repr": "05",
    "value": 5,
    "spoken": "five"
  },
  "relative_humidity": 0.7106976250052686,
  "remarks_info": {
    "maximum_temperature_6": null,
    "minimum_temperature_6": null,
    "pressure_tendency": null,
    "precip_36_hours": null,
    "precip_24_hours": null,
    "sunshine_minutes": null,
    "codes": [],
    "dewpoint_decimal": null,
    "maximum_temperature_24": null,
    "minimum_temperature_24": null,
    "precip_hourly": null,
    "sea_level_pressure": null,
    "snow_depth": null,
    "temperature_decimal": null
  },
  "runway_visibility": [],
  "temperature": {
    "repr": "10",
    "value": 10,
    "spoken": "one zero"
  },
  "wind_variable_direction": [],
  "density_altitude": -221,
  "pressure_altitude": 344,
  "units": {
    "accumulation": "in",
    "altimeter": "inHg",
    "altitude": "ft",
    "temperature": "C",
    "visibility": "sm",
    "wind_speed": "kt"
  }
}
