{
  "altimeter": {
    "repr": "A2990",
    "spoken": "two nine point nine zero",
    "value": 29.9
  },
  "clouds": [
    {
      "altitude": 4,
      "modifier": null,
      "repr": "FEW004",
      "type": "FEW"
    },
    {
      "altitude": 21,
      "modifier": null,
      "repr": "SCT021",
      "type": "SCT"
    },
    {
      "altitude": 47,
      "modifier": null,
      "repr": "BKN047",
      "type": "BKN"
    }
  ],
  "density_altitude": 79,
  "dewpoint": {
    "repr": "10",
    "spoken": "one zero",
    "value": 10
  },
  "flight_rules": "VFR",
  "meta": {
    "stations_updated": "2024-06-12",
    "timestamp": "2024-10-08T13:42:40.946786Z"
  },
  "other": [],
  "pressure_altitude": 164,
  "raw": "KBVS 081315Z AUTO 00000KT 8SM FEW004 SCT021 BKN047 14/10 A2990 RMK A01",
  "relative_humidity": 0.7682365318993968,
  "remarks": "RMK A01",
  "remarks_info": {
    "codes": [],
    "dewpoint_decimal": null,
    "maximum_temperature_24": null,
    "maximum_temperature_6": null,
    "minimum_temperature_24": null,
    "minimum_temperature_6": null,
    "precip_24_hours": null,
    "precip_36_hours": null,
    "precip_hourly": null,
    "pressure_tendency": null,
    "sea_level_pressure": null,
    "snow_depth": null,
    "sunshine_minutes": null,
    "temperature_decimal": null
  },
  "runway_visibility": [],
  "sanitized": "KBVS 081315Z 00000KT 8SM FEW004 SCT021 BKN047 14/10 A2990 RMK A01",
  "station": "KBVS",
  "temperature": {
    "repr": "14",
    "spoken": "one four",
    "value": 14
  },
  "time": {
    "dt": "2024-10-08T13:15:00Z",
    "repr": "081315Z"
  },
  "units": {
    "accumulation": "in",
    "altimeter": "inHg",
    "altitude": "ft",
    "temperature": "C",
    "visibility": "sm",
    "wind_speed": "kt"
  },
  "visibility": {
    "repr": "8",
    "spoken": "eight",
    "value": 8
  },
  "wind_direction": {
    "repr": "000",
    "spoken": "zero zero zero",
    "value": 0
  },
  "wind_gust": null,
  "wind_speed": {
    "repr": "00",
    "spoken": "zero",
    "value": 0
  },
  "wind_variable_direction": [],
  "wx_codes": []
}
