{
  "meta": {
    "timestamp": "2023-08-15T21:20:33.829508Z",
    "stations_updated": "2023-08-05",
    "cache-timestamp": "2023-08-15T21:20:05.100000Z"
  },
  "altimeter": {
    "repr": "A2999",
    "value": 29.99,
    "spoken": "two nine point nine nine"
  },
  "clouds": [],
  "flight_rules": "VFR",
  "other": [],
  "visibility": {
    "repr": "10",
    "value": 10,
    "spoken": "one zero"
  },
  "wind_direction": {
    "repr": "290",
    "value": 290,
    "spoken": "two nine zero"
  },
  "wind_gust": null,
  "wind_speed": {
    "repr": "11",
    "value": 11,
    "spoken": "one one"
  },
  "wx_codes": [],
  "raw": "KBVS 152055Z AUTO 29011KT 10SM CLR 28/16 A2999 RMK A01",
  "sanitized": "KBVS 152055Z 29011KT 10SM 28/16 A2999 RMK A01",
  "station": "KBVS",
  "time": {
    "repr": "152055Z",
    "dt": "2023-08-15T20:55:00Z"
  },
  "remarks": "RMK A01",
  "dewpoint": {
    "repr": "16",
    "value": 16,
    "spoken": "one six"
  },
  "relative_humidity": 0.48054198666010367,
  "remarks_info": {
    "maximum_temperature_6": null,
    "minimum_temperature_6": null,
    "pressure_tendency": null,
    "precip_36_hours": null,
    "precip_24_hours": null,
    "sunshine_minutes": null,
    "codes": [],
    "dewpoint_decimal": null,
    "maximum_temperature_24": null,
    "minimum_temperature_24": null,
    "precip_hourly": null,
    "sea_level_pressure": null,
    "snow_depth": null,
    "temperature_decimal": null
  },
  "runway_visibility": [],
  "temperature": {
    "repr": "28",
    "value": 28,
    "spoken": "two eight"
  },
  "wind_variable_direction": [],
  "density_altitude": 1669,
  "pressure_altitude": 74,
  "units": {
    "accumulation": "in",
    "altimeter": "inHg",
    "altitude": "ft",
    "temperature": "C",
    "visibility": "sm",
    "wind_speed": "kt"
  }
}
