{
  "meta": {
    "timestamp": "2023-01-06T04:04:50.761475Z",
    "stations_updated": "2022-12-27"
  },
  "altimeter": {
    "repr": "A2965",
    "value": 29.65,
    "spoken": "two nine point six five"
  },
  "clouds": [
    {
      "repr": "SCT120",
      "type": "SCT",
      "altitude": 120,
      "modifier": null
    }
  ],
  "flight_rules": "VFR",
  "other": [],
  "visibility": {
    "repr": "10",
    "value": 10,
    "spoken": "one zero"
  },
  "wind_direction": {
    "repr": "150",
    "value": 150,
    "spoken": "one five zero"
  },
  "wind_gust": {
    "repr": "22",
    "value": 22,
    "spoken": "two two"
  },
  "wind_speed": {
    "repr": "14",
    "value": 14,
    "spoken": "one four"
  },
  "wx_codes": [],
  "raw": "KBVS 060355Z AUTO 15014G22KT 10SM SCT120 12/07 A2965 RMK A01",
  "sanitized": "KBVS 060355Z 15014G22KT 10SM SCT120 12/07 A2965 RMK A01",
  "station": "KBVS",
  "time": {
    "repr": "060355Z",
    "dt": "2023-01-06T03:55:00Z"
  },
  "remarks": "RMK A01",
  "dewpoint": {
    "repr": "07",
    "value": 7,
    "spoken": "seven"
  },
  "relative_humidity": 0.7145304269588291,
  "remarks_info": {
    "maximum_temperature_6": null,
    "minimum_temperature_6": null,
    "pressure_tendency": null,
    "precip_36_hours": null,
    "precip_24_hours": null,
    "sunshine_minutes": null,
    "codes": [],
    "dewpoint_decimal": null,
    "maximum_temperature_24": null,
    "minimum_temperature_24": null,
    "precip_hourly": null,
    "sea_level_pressure": null,
    "snow_depth": null,
    "temperature_decimal": null
  },
  "runway_visibility": [],
  "temperature": {
    "repr": "12",
    "value": 12,
    "spoken": "one two"
  },
  "wind_variable_direction": [],
  "density_altitude": 89,
  "pressure_altitude": 414,
  "units": {
    "accumulation": "in",
    "altimeter": "inHg",
    "altitude": "ft",
    "temperature": "C",
    "visibility": "sm",
    "wind_speed": "kt"
  }
}
