{
  "meta": {
    "timestamp": "2023-01-15T12:07:40.994476Z",
    "stations_updated": "2022-12-27"
  },
  "altimeter": {
    "repr": "A2930",
    "value": 29.3,
    "spoken": "two nine point three zero"
  },
  "clouds": [
    {
      "repr": "FEW046",
      "type": "FEW",
      "altitude": 46,
      "modifier": null
    },
    {
      "repr": "SCT060",
      "type": "SCT",
      "altitude": 60,
      "modifier": null
    },
    {
      "repr": "BKN120",
      "type": "BKN",
      "altitude": 120,
      "modifier": null
    }
  ],
  "flight_rules": "VFR",
  "other": [],
  "visibility": {
    "repr": "10",
    "value": 10,
    "spoken": "one zero"
  },
  "wind_direction": {
    "repr": "040",
    "value": 40,
    "spoken": "zero four zero"
  },
  "wind_gust": {
    "repr": "13",
    "value": 13,
    "spoken": "one three"
  },
  "wind_speed": {
    "repr": "08",
    "value": 8,
    "spoken": "eight"
  },
  "wx_codes": [],
  "raw": "KBVS 151155Z AUTO 04008G13KT 10SM FEW046 SCT060 BKN120 08/06 A2930 RMK A01",
  "sanitized": "KBVS 151155Z 04008G13KT 10SM FEW046 SCT060 BKN120 08/06 A2930 RMK A01",
  "station": "KBVS",
  "time": {
    "repr": "151155Z",
    "dt": "2023-01-15T11:55:00Z"
  },
  "remarks": "RMK A01",
  "dewpoint": {
    "repr": "06",
    "value": 6,
    "spoken": "six"
  },
  "relative_humidity": 0.87185013383306,
  "remarks_info": {
    "maximum_temperature_6": null,
    "minimum_temperature_6": null,
    "pressure_tendency": null,
    "precip_36_hours": null,
    "precip_24_hours": null,
    "sunshine_minutes": null,
    "codes": [],
    "dewpoint_decimal": null,
    "maximum_temperature_24": null,
    "minimum_temperature_24": null,
    "precip_hourly": null,
    "sea_level_pressure": null,
    "snow_depth": null,
    "temperature_decimal": null
  },
  "runway_visibility": [],
  "temperature": {
    "repr": "08",
    "value": 8,
    "spoken": "eight"
  },
  "wind_variable_direction": [],
  "density_altitude": -41,
  "pressure_altitude": 764,
  "units": {
    "accumulation": "in",
    "altimeter": "inHg",
    "altitude": "ft",
    "temperature": "C",
    "visibility": "sm",
    "wind_speed": "kt"
  }
}
