{
  "meta": {
    "timestamp": "2022-12-28T04:04:12.535986Z",
    "stations_updated": "2022-09-05"
  },
  "altimeter": {
    "repr": "A2928",
    "value": 29.28,
    "spoken": "two nine point two eight"
  },
  "clouds": [
    {
      "repr": "OVC018",
      "type": "OVC",
      "altitude": 18,
      "modifier": null
    }
  ],
  "flight_rules": "MVFR",
  "other": [],
  "visibility": {
    "repr": "9",
    "value": 9,
    "spoken": "nine"
  },
  "wind_direction": {
    "repr": "230",
    "value": 230,
    "spoken": "two three zero"
  },
  "wind_gust": {
    "repr": "22",
    "value": 22,
    "spoken": "two two"
  },
  "wind_speed": {
    "repr": "15",
    "value": 15,
    "spoken": "one five"
  },
  "wx_codes": [],
  "raw": "KBVS 280355Z AUTO 23015G22KT 190V260 9SM OVC018 07/07 A2928 RMK A01 P0012",
  "sanitized": "KBVS 280355Z 23015G22KT 190V260 9SM OVC018 07/07 A2928 RMK A01 P0012",
  "station": "KBVS",
  "time": {
    "repr": "280355Z",
    "dt": "2022-12-28T03:55:00Z"
  },
  "remarks": "RMK A01 P0012",
  "dewpoint": {
    "repr": "07",
    "value": 7,
    "spoken": "seven"
  },
  "relative_humidity": 1,
  "remarks_info": {
    "maximum_temperature_6": null,
    "minimum_temperature_6": null,
    "pressure_tendency": null,
    "precip_36_hours": null,
    "precip_24_hours": null,
    "sunshine_minutes": null,
    "codes": [],
    "dewpoint_decimal": null,
    "maximum_temperature_24": null,
    "minimum_temperature_24": null,
    "precip_hourly": {
      "repr": "P0012",
      "value": 0.12,
      "spoken": "zero point one two"
    },
    "sea_level_pressure": null,
    "snow_depth": null,
    "temperature_decimal": null
  },
  "runway_visibility": [],
  "temperature": {
    "repr": "07",
    "value": 7,
    "spoken": "seven"
  },
  "wind_variable_direction": [
    {
      "repr": "190",
      "value": 190,
      "spoken": "one nine zero"
    },
    {
      "repr": "260",
      "value": 260,
      "spoken": "two six zero"
    }
  ],
  "density_altitude": -141,
  "pressure_altitude": 784,
  "units": {
    "accumulation": "in",
    "altimeter": "inHg",
    "altitude": "ft",
    "temperature": "C",
    "visibility": "sm",
    "wind_speed": "kt"
  }
}
