{
  "meta": {
    "timestamp": "2022-08-10T22:31:03.208944Z",
    "stations_updated": "2022-07-17"
  },
  "altimeter": {
    "repr": "A3005",
    "value": 30.05,
    "spoken": "three zero point zero five"
  },
  "clouds": [
    {
      "repr": "OVC023",
      "type": "OVC",
      "altitude": 23,
      "modifier": null
    }
  ],
  "flight_rules": "MVFR",
  "other": [],
  "visibility": {
    "repr": "9",
    "value": 9,
    "spoken": "nine"
  },
  "wind_direction": {
    "repr": "170",
    "value": 170,
    "spoken": "one seven zero"
  },
  "wind_gust": null,
  "wind_speed": {
    "repr": "06",
    "value": 6,
    "spoken": "six"
  },
  "wx_codes": [],
  "raw": "KBVS 102215Z AUTO 17006KT 9SM OVC023 22/16 A3005 RMK A01",
  "sanitized": "KBVS 102215Z 17006KT 9SM OVC023 22/16 A3005 RMK A01",
  "station": "KBVS",
  "time": {
    "repr": "102215Z",
    "dt": "2022-08-10T22:15:00Z"
  },
  "remarks": "RMK A01",
  "dewpoint": {
    "repr": "16",
    "value": 16,
    "spoken": "one six"
  },
  "relative_humidity": 0.6874947937658342,
  "remarks_info": {
    "maximum_temperature_6": null,
    "minimum_temperature_6": null,
    "pressure_tendency": null,
    "precip_36_hours": null,
    "precip_24_hours": null,
    "sunshine_minutes": null,
    "codes": [],
    "dewpoint_decimal": null,
    "maximum_temperature_24": null,
    "minimum_temperature_24": null,
    "precip_hourly": null,
    "sea_level_pressure": null,
    "snow_depth": null,
    "temperature_decimal": null
  },
  "runway_visibility": [],
  "temperature": {
    "repr": "22",
    "value": 22,
    "spoken": "two two"
  },
  "wind_variable_direction": [],
  "density_altitude": 889,
  "pressure_altitude": 14,
  "units": {
    "accumulation": "in",
    "altimeter": "inHg",
    "altitude": "ft",
    "temperature": "C",
    "visibility": "sm",
    "wind_speed": "kt"
  }
}
