{
  "altimeter": {
    "repr": "A3041",
    "spoken": "three zero point four one",
    "value": 30.41
  },
  "clouds": [
    {
      "altitude": 75,
      "modifier": null,
      "repr": "BKN075",
      "type": "BKN"
    },
    {
      "altitude": 90,
      "modifier": null,
      "repr": "OVC090",
      "type": "OVC"
    }
  ],
  "density_altitude": -1271,
  "dewpoint": {
    "repr": "03",
    "spoken": "three",
    "value": 3
  },
  "flight_rules": "VFR",
  "meta": {
    "stations_updated": "2024-10-29",
    "timestamp": "2024-11-06T11:06:00.172483Z"
  },
  "other": [],
  "pressure_altitude": -346,
  "raw": "KBVS 061055Z AUTO 07007KT 10SM BKN075 OVC090 07/03 A3041 RMK A01",
  "relative_humidity": 0.7567504434023825,
  "remarks": "RMK A01",
  "remarks_info": {
    "codes": [],
    "dewpoint_decimal": null,
    "maximum_temperature_24": null,
    "maximum_temperature_6": null,
    "minimum_temperature_24": null,
    "minimum_temperature_6": null,
    "precip_24_hours": null,
    "precip_36_hours": null,
    "precip_hourly": null,
    "pressure_tendency": null,
    "sea_level_pressure": null,
    "snow_depth": null,
    "sunshine_minutes": null,
    "temperature_decimal": null
  },
  "runway_visibility": [],
  "sanitized": "KBVS 061055Z 07007KT 10SM BKN075 OVC090 07/03 A3041 RMK A01",
  "station": "KBVS",
  "temperature": {
    "repr": "07",
    "spoken": "seven",
    "value": 7
  },
  "time": {
    "dt": "2024-11-06T10:55:00Z",
    "repr": "061055Z"
  },
  "units": {
    "accumulation": "in",
    "altimeter": "inHg",
    "altitude": "ft",
    "temperature": "C",
    "visibility": "sm",
    "wind_speed": "kt"
  },
  "visibility": {
    "repr": "10",
    "spoken": "one zero",
    "value": 10
  },
  "wind_direction": {
    "repr": "070",
    "spoken": "zero seven zero",
    "value": 70
  },
  "wind_gust": null,
  "wind_speed": {
    "repr": "07",
    "spoken": "seven",
    "value": 7
  },
  "wind_variable_direction": [],
  "wx_codes": []
}
