{
  "meta": {
    "timestamp": "2022-08-13T20:43:58.679693Z",
    "stations_updated": "2022-07-17"
  },
  "altimeter": {
    "repr": "A3019",
    "value": 30.19,
    "spoken": "three zero point one nine"
  },
  "clouds": [
    {
      "repr": "SCT039",
      "type": "SCT",
      "altitude": 39,
      "modifier": null
    },
    {
      "repr": "BKN044",
      "type": "BKN",
      "altitude": 44,
      "modifier": null
    },
    {
      "repr": "BKN050",
      "type": "BKN",
      "altitude": 50,
      "modifier": null
    }
  ],
  "flight_rules": "VFR",
  "other": [],
  "visibility": {
    "repr": "9",
    "value": 9,
    "spoken": "nine"
  },
  "wind_direction": {
    "repr": "000",
    "value": 0,
    "spoken": "zero zero zero"
  },
  "wind_gust": null,
  "wind_speed": {
    "repr": "00",
    "value": 0,
    "spoken": "zero"
  },
  "wx_codes": [],
  "raw": "KBVS 132035Z AUTO 00000KT 9SM SCT039 BKN044 BKN050 22/13 A3019 RMK A01",
  "sanitized": "KBVS 132035Z 00000KT 9SM SCT039 BKN044 BKN050 22/13 A3019 RMK A01",
  "station": "KBVS",
  "time": {
    "repr": "132035Z",
    "dt": "2022-08-13T20:35:00Z"
  },
  "remarks": "RMK A01",
  "dewpoint": {
    "repr": "13",
    "value": 13,
    "spoken": "one three"
  },
  "relative_humidity": 0.5663034377105058,
  "remarks_info": {
    "maximum_temperature_6": null,
    "minimum_temperature_6": null,
    "pressure_tendency": null,
    "precip_36_hours": null,
    "precip_24_hours": null,
    "sunshine_minutes": null,
    "codes": [],
    "dewpoint_decimal": null,
    "maximum_temperature_24": null,
    "minimum_temperature_24": null,
    "precip_hourly": null,
    "sea_level_pressure": null,
    "snow_depth": null,
    "temperature_decimal": null
  },
  "runway_visibility": [],
  "temperature": {
    "repr": "22",
    "value": 22,
    "spoken": "two two"
  },
  "wind_variable_direction": [],
  "density_altitude": 749,
  "pressure_altitude": -126,
  "units": {
    "accumulation": "in",
    "altimeter": "inHg",
    "altitude": "ft",
    "temperature": "C",
    "visibility": "sm",
    "wind_speed": "kt"
  }
}
