{
  "meta": {
    "timestamp": "2022-11-26T22:40:52.099529Z",
    "stations_updated": "2022-09-05"
  },
  "altimeter": {
    "repr": "A3031",
    "value": 30.31,
    "spoken": "three zero point three one"
  },
  "clouds": [
    {
      "repr": "FEW021",
      "type": "FEW",
      "altitude": 21,
      "modifier": null
    },
    {
      "repr": "OVC044",
      "type": "OVC",
      "altitude": 44,
      "modifier": null
    }
  ],
  "flight_rules": "VFR",
  "other": [],
  "visibility": {
    "repr": "10",
    "value": 10,
    "spoken": "one zero"
  },
  "wind_direction": {
    "repr": "140",
    "value": 140,
    "spoken": "one four zero"
  },
  "wind_gust": {
    "repr": "14",
    "value": 14,
    "spoken": "one four"
  },
  "wind_speed": {
    "repr": "09",
    "value": 9,
    "spoken": "nine"
  },
  "wx_codes": [],
  "raw": "KBVS 262235Z AUTO 14009G14KT 120V180 10SM FEW021 OVC044 07/05 A3031 RMK A01",
  "sanitized": "KBVS 262235Z 14009G14KT 120V180 10SM FEW021 OVC044 07/05 A3031 RMK A01",
  "station": "KBVS",
  "time": {
    "repr": "262235Z",
    "dt": "2022-11-26T22:35:00Z"
  },
  "remarks": "RMK A01",
  "dewpoint": {
    "repr": "05",
    "value": 5,
    "spoken": "five"
  },
  "relative_humidity": 0.8708903011793067,
  "remarks_info": {
    "maximum_temperature_6": null,
    "minimum_temperature_6": null,
    "pressure_tendency": null,
    "precip_36_hours": null,
    "precip_24_hours": null,
    "sunshine_minutes": null,
    "codes": [],
    "dewpoint_decimal": null,
    "maximum_temperature_24": null,
    "minimum_temperature_24": null,
    "precip_hourly": null,
    "sea_level_pressure": null,
    "snow_depth": null,
    "temperature_decimal": null
  },
  "runway_visibility": [],
  "temperature": {
    "repr": "07",
    "value": 7,
    "spoken": "seven"
  },
  "wind_variable_direction": [
    {
      "repr": "120",
      "value": 120,
      "spoken": "one two zero"
    },
    {
      "repr": "180",
      "value": 180,
      "spoken": "one eight zero"
    }
  ],
  "density_altitude": -1171,
  "pressure_altitude": -246,
  "units": {
    "accumulation": "in",
    "altimeter": "inHg",
    "altitude": "ft",
    "temperature": "C",
    "visibility": "sm",
    "wind_speed": "kt"
  }
}
