{
  "meta": {
    "timestamp": "2023-10-23T10:29:25.636904Z",
    "stations_updated": "2023-10-01"
  },
  "altimeter": {
    "repr": "A2998",
    "value": 29.98,
    "spoken": "two nine point nine eight"
  },
  "clouds": [
    {
      "repr": "BKN020",
      "type": "BKN",
      "altitude": 20,
      "modifier": null
    },
    {
      "repr": "BKN026",
      "type": "BKN",
      "altitude": 26,
      "modifier": null
    },
    {
      "repr": "OVC044",
      "type": "OVC",
      "altitude": 44,
      "modifier": null
    }
  ],
  "flight_rules": "MVFR",
  "other": [],
  "visibility": {
    "repr": "10",
    "value": 10,
    "spoken": "one zero"
  },
  "wind_direction": {
    "repr": "000",
    "value": 0,
    "spoken": "zero zero zero"
  },
  "wind_gust": null,
  "wind_speed": {
    "repr": "00",
    "value": 0,
    "spoken": "zero"
  },
  "wx_codes": [],
  "raw": "KBVS 231015Z AUTO 00000KT 10SM BKN020 BKN026 OVC044 09/09 A2998 RMK A01 KBVS 230955Z AUTO 00000KT 10SM BKN018 BKN025 OVC045 09/09 A2998 RMK A01 KBVS 230935Z AUTO 00000KT 10SM BKN017 BKN023 OVC041 10/10 A2998 RMK A01 KBVS 230915Z AUTO 00000KT 10SM SCT018 OVC041 10/10 A2998 RMK A01 KBVS 230855Z AUTO 00000KT 10SM BKN018 OVC036 10/10 A2998 RMK A01 KBVS 230835Z AUTO 00000KT 10SM BKN018 OVC036 10/10 A2997 RMK A01",
  "sanitized": "KBVS 231015Z 00000KT 10SM BKN020 BKN026 OVC044 09/09 A2998 RMK A01 KBVS 230955Z AUTO 00000KT 10SM BKN018 BKN025 OVC045 09/09 A2998 RMK A01 KBVS 230935Z AUTO 00000KT 10SM BKN017 BKN023 OVC041 10/10 A2998 RMK A01 KBVS 230915Z AUTO 00000KT 10SM SCT018 OVC041 10/10 A2998 RMK A01 KBVS 230855Z AUTO 00000KT 10SM BKN018 OVC036 10/10 A2998 RMK A01 KBVS 230835Z AUTO 00000KT 10SM BKN018 OVC036 10/10 A2997 RMK A01",
  "station": "KBVS",
  "time": {
    "repr": "231015Z",
    "dt": "2023-10-23T10:15:00Z"
  },
  "remarks": "RMK A01 KBVS 230955Z AUTO 00000KT 10SM BKN018 BKN025 OVC045 09/09 A2998 RMK A01 KBVS 230935Z AUTO 00000KT 10SM BKN017 BKN023 OVC041 10/10 A2998 RMK A01 KBVS 230915Z AUTO 00000KT 10SM SCT018 OVC041 10/10 A2998 RMK A01 KBVS 230855Z AUTO 00000KT 10SM BKN018 OVC036 10/10 A2998 RMK A01 KBVS 230835Z AUTO 00000KT 10SM BKN018 OVC036 10/10 A2997 RMK A01",
  "dewpoint": {
    "repr": "09",
    "value": 9,
    "spoken": "nine"
  },
  "relative_humidity": 1,
  "remarks_info": {
    "maximum_temperature_6": null,
    "minimum_temperature_6": null,
    "pressure_tendency": null,
    "precip_36_hours": null,
    "precip_24_hours": null,
    "sunshine_minutes": null,
    "codes": [],
    "dewpoint_decimal": null,
    "maximum_temperature_24": null,
    "minimum_temperature_24": null,
    "precip_hourly": null,
    "sea_level_pressure": null,
    "snow_depth": null,
    "temperature_decimal": null
  },
  "runway_visibility": [],
  "temperature": {
    "repr": "09",
    "value": 9,
    "spoken": "nine"
  },
  "wind_variable_direction": [],
  "density_altitude": -601,
  "pressure_altitude": 84,
  "units": {
    "accumulation": "in",
    "altimeter": "inHg",
    "altitude": "ft",
    "temperature": "C",
    "visibility": "sm",
    "wind_speed": "kt"
  }
}
