{
  "meta": {
    "timestamp": "2023-03-04T10:01:59.205474Z",
    "stations_updated": "2023-01-30"
  },
  "altimeter": {
    "repr": "A2964",
    "value": 29.64,
    "spoken": "two nine point six four"
  },
  "clouds": [
    {
      "repr": "OVC028",
      "type": "OVC",
      "altitude": 28,
      "modifier": null
    }
  ],
  "flight_rules": "MVFR",
  "other": [],
  "visibility": {
    "repr": "10",
    "value": 10,
    "spoken": "one zero"
  },
  "wind_direction": {
    "repr": "090",
    "value": 90,
    "spoken": "zero nine zero"
  },
  "wind_gust": {
    "repr": "12",
    "value": 12,
    "spoken": "one two"
  },
  "wind_speed": {
    "repr": "06",
    "value": 6,
    "spoken": "six"
  },
  "wx_codes": [],
  "raw": "KBVS 040955Z AUTO 09006G12KT 10SM OVC028 04/03 A2964 RMK A01",
  "sanitized": "KBVS 040955Z 09006G12KT 10SM OVC028 04/03 A2964 RMK A01",
  "station": "KBVS",
  "time": {
    "repr": "040955Z",
    "dt": "2023-03-04T09:55:00Z"
  },
  "remarks": "RMK A01",
  "dewpoint": {
    "repr": "03",
    "value": 3,
    "spoken": "three"
  },
  "relative_humidity": 0.9319043972307702,
  "remarks_info": {
    "maximum_temperature_6": null,
    "minimum_temperature_6": null,
    "pressure_tendency": null,
    "precip_36_hours": null,
    "precip_24_hours": null,
    "sunshine_minutes": null,
    "codes": [],
    "dewpoint_decimal": null,
    "maximum_temperature_24": null,
    "minimum_temperature_24": null,
    "precip_hourly": null,
    "sea_level_pressure": null,
    "snow_depth": null,
    "temperature_decimal": null
  },
  "runway_visibility": [],
  "temperature": {
    "repr": "04",
    "value": 4,
    "spoken": "four"
  },
  "wind_variable_direction": [],
  "density_altitude": -861,
  "pressure_altitude": 424,
  "units": {
    "accumulation": "in",
    "altimeter": "inHg",
    "altitude": "ft",
    "temperature": "C",
    "visibility": "sm",
    "wind_speed": "kt"
  }
}
