{
  "altimeter": {
    "repr": "A3008",
    "spoken": "three zero point zero eight",
    "value": 30.08
  },
  "clouds": [
    {
      "altitude": 24,
      "modifier": null,
      "repr": "FEW024",
      "type": "FEW"
    },
    {
      "altitude": 32,
      "modifier": null,
      "repr": "SCT032",
      "type": "SCT"
    },
    {
      "altitude": 43,
      "modifier": null,
      "repr": "SCT043",
      "type": "SCT"
    }
  ],
  "density_altitude": -1301,
  "dewpoint": {
    "repr": "01",
    "spoken": "one",
    "value": 1
  },
  "flight_rules": "VFR",
  "meta": {
    "cache-timestamp": "2024-02-27T21:40:26.204000Z",
    "stations_updated": "2024-01-01",
    "timestamp": "2024-02-27T21:40:41.410034Z"
  },
  "other": [],
  "pressure_altitude": -16,
  "raw": "KBVS 272115Z AUTO 10013G19KT 10SM FEW024 SCT032 SCT043 04/01 A3008 RMK A01",
  "relative_humidity": 0.8079090255626445,
  "remarks": "RMK A01",
  "remarks_info": {
    "codes": [],
    "dewpoint_decimal": null,
    "maximum_temperature_24": null,
    "maximum_temperature_6": null,
    "minimum_temperature_24": null,
    "minimum_temperature_6": null,
    "precip_24_hours": null,
    "precip_36_hours": null,
    "precip_hourly": null,
    "pressure_tendency": null,
    "sea_level_pressure": null,
    "snow_depth": null,
    "sunshine_minutes": null,
    "temperature_decimal": null
  },
  "runway_visibility": [],
  "sanitized": "KBVS 272115Z 10013G19KT 10SM FEW024 SCT032 SCT043 04/01 A3008 RMK A01",
  "station": "KBVS",
  "temperature": {
    "repr": "04",
    "spoken": "four",
    "value": 4
  },
  "time": {
    "dt": "2024-02-27T21:15:00Z",
    "repr": "272115Z"
  },
  "units": {
    "accumulation": "in",
    "altimeter": "inHg",
    "altitude": "ft",
    "temperature": "C",
    "visibility": "sm",
    "wind_speed": "kt"
  },
  "visibility": {
    "repr": "10",
    "spoken": "one zero",
    "value": 10
  },
  "wind_direction": {
    "repr": "100",
    "spoken": "one zero zero",
    "value": 100
  },
  "wind_gust": {
    "repr": "19",
    "spoken": "one nine",
    "value": 19
  },
  "wind_speed": {
    "repr": "13",
    "spoken": "one three",
    "value": 13
  },
  "wind_variable_direction": [],
  "wx_codes": []
}
