{
  "altimeter": {
    "repr": "A2972",
    "spoken": "two nine point seven two",
    "value": 29.72
  },
  "clouds": [
    {
      "altitude": 20,
      "modifier": null,
      "repr": "BKN020",
      "type": "BKN"
    },
    {
      "altitude": 26,
      "modifier": null,
      "repr": "OVC026",
      "type": "OVC"
    }
  ],
  "density_altitude": -101,
  "dewpoint": {
    "repr": "11",
    "spoken": "one one",
    "value": 11
  },
  "flight_rules": "MVFR",
  "meta": {
    "stations_updated": "2023-10-28",
    "timestamp": "2023-11-02T10:02:17.917320Z"
  },
  "other": [],
  "pressure_altitude": 344,
  "raw": "KBVS 020955Z AUTO 08006KT 10SM BKN020 OVC026 11/11 A2972 RMK A01 P0005",
  "relative_humidity": 1,
  "remarks": "RMK A01 P0005",
  "remarks_info": {
    "codes": [],
    "dewpoint_decimal": null,
    "maximum_temperature_24": null,
    "maximum_temperature_6": null,
    "minimum_temperature_24": null,
    "minimum_temperature_6": null,
    "precip_24_hours": null,
    "precip_36_hours": null,
    "precip_hourly": {
      "repr": "P0005",
      "spoken": "zero point zero five",
      "value": 0.05
    },
    "pressure_tendency": null,
    "sea_level_pressure": null,
    "snow_depth": null,
    "sunshine_minutes": null,
    "temperature_decimal": null
  },
  "runway_visibility": [],
  "sanitized": "KBVS 020955Z 08006KT 10SM BKN020 OVC026 11/11 A2972 RMK A01 P0005",
  "station": "KBVS",
  "temperature": {
    "repr": "11",
    "spoken": "one one",
    "value": 11
  },
  "time": {
    "dt": "2023-11-02T09:55:00Z",
    "repr": "020955Z"
  },
  "units": {
    "accumulation": "in",
    "altimeter": "inHg",
    "altitude": "ft",
    "temperature": "C",
    "visibility": "sm",
    "wind_speed": "kt"
  },
  "visibility": {
    "repr": "10",
    "spoken": "one zero",
    "value": 10
  },
  "wind_direction": {
    "repr": "080",
    "spoken": "zero eight zero",
    "value": 80
  },
  "wind_gust": null,
  "wind_speed": {
    "repr": "06",
    "spoken": "six",
    "value": 6
  },
  "wind_variable_direction": [],
  "wx_codes": []
}
