{
  "meta": {
    "timestamp": "2022-12-26T07:40:51.333288Z",
    "stations_updated": "2022-09-05"
  },
  "altimeter": {
    "repr": "A2986",
    "value": 29.86,
    "spoken": "two nine point eight six"
  },
  "clouds": [
    {
      "repr": "BKN018",
      "type": "BKN",
      "altitude": 18,
      "modifier": null
    },
    {
      "repr": "BKN075",
      "type": "BKN",
      "altitude": 75,
      "modifier": null
    },
    {
      "repr": "BKN095",
      "type": "BKN",
      "altitude": 95,
      "modifier": null
    }
  ],
  "flight_rules": "MVFR",
  "other": [],
  "visibility": {
    "repr": "10",
    "value": 10,
    "spoken": "one zero"
  },
  "wind_direction": {
    "repr": "150",
    "value": 150,
    "spoken": "one five zero"
  },
  "wind_gust": {
    "repr": "19",
    "value": 19,
    "spoken": "one nine"
  },
  "wind_speed": {
    "repr": "13",
    "value": 13,
    "spoken": "one three"
  },
  "wx_codes": [],
  "raw": "KBVS 260735Z AUTO 15013G19KT 10SM BKN018 BKN075 BKN095 14/12 A2986 RMK A01",
  "sanitized": "KBVS 260735Z 15013G19KT 10SM BKN018 BKN075 BKN095 14/12 A2986 RMK A01",
  "station": "KBVS",
  "time": {
    "repr": "260735Z",
    "dt": "2022-12-26T07:35:00Z"
  },
  "remarks": "RMK A01",
  "dewpoint": {
    "repr": "12",
    "value": 12,
    "spoken": "one two"
  },
  "relative_humidity": 0.8773959760472425,
  "remarks_info": {
    "maximum_temperature_6": null,
    "minimum_temperature_6": null,
    "pressure_tendency": null,
    "precip_36_hours": null,
    "precip_24_hours": null,
    "sunshine_minutes": null,
    "codes": [],
    "dewpoint_decimal": null,
    "maximum_temperature_24": null,
    "minimum_temperature_24": null,
    "precip_hourly": null,
    "sea_level_pressure": null,
    "snow_depth": null,
    "temperature_decimal": null
  },
  "runway_visibility": [],
  "temperature": {
    "repr": "14",
    "value": 14,
    "spoken": "one four"
  },
  "wind_variable_direction": [],
  "density_altitude": 119,
  "pressure_altitude": 204,
  "units": {
    "accumulation": "in",
    "altimeter": "inHg",
    "altitude": "ft",
    "temperature": "C",
    "visibility": "sm",
    "wind_speed": "kt"
  }
}
