{
  "altimeter": {
    "repr": "A2991",
    "spoken": "two nine point nine one",
    "value": 29.91
  },
  "clouds": [
    {
      "altitude": 43,
      "modifier": null,
      "repr": "BKN043",
      "type": "BKN"
    }
  ],
  "density_altitude": -51,
  "dewpoint": {
    "repr": "13",
    "spoken": "one three",
    "value": 13
  },
  "flight_rules": "VFR",
  "meta": {
    "cache-timestamp": "2024-06-04T22:01:40.391000Z",
    "stations_updated": "2024-05-13",
    "timestamp": "2024-06-04T22:01:55.410025Z"
  },
  "other": [],
  "pressure_altitude": 154,
  "raw": "KBVS 042155Z AUTO 00000KT 10SM BKN043 13/13 A2991 RMK A01 P0005",
  "relative_humidity": 1,
  "remarks": "RMK A01 P0005",
  "remarks_info": {
    "codes": [],
    "dewpoint_decimal": null,
    "maximum_temperature_24": null,
    "maximum_temperature_6": null,
    "minimum_temperature_24": null,
    "minimum_temperature_6": null,
    "precip_24_hours": null,
    "precip_36_hours": null,
    "precip_hourly": {
      "repr": "P0005",
      "spoken": "zero point zero five",
      "value": 0.05
    },
    "pressure_tendency": null,
    "sea_level_pressure": null,
    "snow_depth": null,
    "sunshine_minutes": null,
    "temperature_decimal": null
  },
  "runway_visibility": [],
  "sanitized": "KBVS 042155Z 00000KT 10SM BKN043 13/13 A2991 RMK A01 P0005",
  "station": "KBVS",
  "temperature": {
    "repr": "13",
    "spoken": "one three",
    "value": 13
  },
  "time": {
    "dt": "2024-06-04T21:55:00Z",
    "repr": "042155Z"
  },
  "units": {
    "accumulation": "in",
    "altimeter": "inHg",
    "altitude": "ft",
    "temperature": "C",
    "visibility": "sm",
    "wind_speed": "kt"
  },
  "visibility": {
    "repr": "10",
    "spoken": "one zero",
    "value": 10
  },
  "wind_direction": {
    "repr": "000",
    "spoken": "zero zero zero",
    "value": 0
  },
  "wind_gust": null,
  "wind_speed": {
    "repr": "00",
    "spoken": "zero",
    "value": 0
  },
  "wind_variable_direction": [],
  "wx_codes": []
}
