{
  "meta": {
    "timestamp": "2022-12-21T12:08:55.778953Z",
    "stations_updated": "2022-09-05"
  },
  "altimeter": {
    "repr": "A3040",
    "value": 30.4,
    "spoken": "three zero point four zero"
  },
  "clouds": [
    {
      "repr": "BKN050",
      "type": "BKN",
      "altitude": 50,
      "modifier": null
    },
    {
      "repr": "OVC065",
      "type": "OVC",
      "altitude": 65,
      "modifier": null
    }
  ],
  "flight_rules": "VFR",
  "other": [],
  "visibility": {
    "repr": "10",
    "value": 10,
    "spoken": "one zero"
  },
  "wind_direction": {
    "repr": "060",
    "value": 60,
    "spoken": "zero six zero"
  },
  "wind_gust": null,
  "wind_speed": {
    "repr": "07",
    "value": 7,
    "spoken": "seven"
  },
  "wx_codes": [],
  "raw": "KBVS 211155Z AUTO 06007KT 10SM BKN050 OVC065 M08/M11 A3040 RMK A01",
  "sanitized": "KBVS 211155Z 06007KT 10SM BKN050 OVC065 M08/M11 A3040 RMK A01",
  "station": "KBVS",
  "time": {
    "repr": "211155Z",
    "dt": "2022-12-21T11:55:00Z"
  },
  "remarks": "RMK A01",
  "dewpoint": {
    "repr": "M11",
    "value": -11,
    "spoken": "minus one one"
  },
  "relative_humidity": 0.7899819175739444,
  "remarks_info": {
    "maximum_temperature_6": null,
    "minimum_temperature_6": null,
    "pressure_tendency": null,
    "precip_36_hours": null,
    "precip_24_hours": null,
    "sunshine_minutes": null,
    "codes": [],
    "dewpoint_decimal": null,
    "maximum_temperature_24": null,
    "minimum_temperature_24": null,
    "precip_hourly": null,
    "sea_level_pressure": null,
    "snow_depth": null,
    "temperature_decimal": null
  },
  "runway_visibility": [],
  "temperature": {
    "repr": "M08",
    "value": -8,
    "spoken": "minus eight"
  },
  "wind_variable_direction": [],
  "density_altitude": -3061,
  "pressure_altitude": -336,
  "units": {
    "accumulation": "in",
    "altimeter": "inHg",
    "altitude": "ft",
    "temperature": "C",
    "visibility": "sm",
    "wind_speed": "kt"
  }
}
