{
  "meta": {
    "timestamp": "2022-10-29T14:30:54.772454Z",
    "stations_updated": "2022-09-05"
  },
  "altimeter": {
    "repr": "A3027",
    "value": 30.27,
    "spoken": "three zero point two seven"
  },
  "clouds": [
    {
      "repr": "SCT016",
      "type": "SCT",
      "altitude": 16,
      "modifier": null
    },
    {
      "repr": "SCT036",
      "type": "SCT",
      "altitude": 36,
      "modifier": null
    },
    {
      "repr": "SCT090",
      "type": "SCT",
      "altitude": 90,
      "modifier": null
    }
  ],
  "flight_rules": "VFR",
  "other": [],
  "visibility": {
    "repr": "6",
    "value": 6,
    "spoken": "six"
  },
  "wind_direction": {
    "repr": "000",
    "value": 0,
    "spoken": "zero zero zero"
  },
  "wind_gust": null,
  "wind_speed": {
    "repr": "00",
    "value": 0,
    "spoken": "zero"
  },
  "wx_codes": [
    {
      "repr": "BR",
      "value": "Mist"
    }
  ],
  "raw": "KBVS 291415Z AUTO 00000KT 6SM BR SCT016 SCT036 SCT090 06/06 A3027 RMK A01",
  "sanitized": "KBVS 291415Z 00000KT 6SM BR SCT016 SCT036 SCT090 06/06 A3027 RMK A01",
  "station": "KBVS",
  "time": {
    "repr": "291415Z",
    "dt": "2022-10-29T14:15:00Z"
  },
  "remarks": "RMK A01",
  "dewpoint": {
    "repr": "06",
    "value": 6,
    "spoken": "six"
  },
  "relative_humidity": 1,
  "remarks_info": {
    "maximum_temperature_6": null,
    "minimum_temperature_6": null,
    "pressure_tendency": null,
    "precip_36_hours": null,
    "precip_24_hours": null,
    "sunshine_minutes": null,
    "codes": [],
    "dewpoint_decimal": null,
    "maximum_temperature_24": null,
    "minimum_temperature_24": null,
    "precip_hourly": null,
    "sea_level_pressure": null,
    "snow_depth": null,
    "temperature_decimal": null
  },
  "runway_visibility": [],
  "temperature": {
    "repr": "06",
    "value": 6,
    "spoken": "six"
  },
  "wind_variable_direction": [],
  "density_altitude": -1251,
  "pressure_altitude": -206,
  "units": {
    "accumulation": "in",
    "altimeter": "inHg",
    "altitude": "ft",
    "temperature": "C",
    "visibility": "sm",
    "wind_speed": "kt"
  }
}
