{
  "meta": {
    "timestamp": "2022-11-05T07:28:03.730714Z",
    "stations_updated": "2022-09-05"
  },
  "altimeter": {
    "repr": "A2957",
    "value": 29.57,
    "spoken": "two nine point five seven"
  },
  "clouds": [
    {
      "repr": "FEW024",
      "type": "FEW",
      "altitude": 24,
      "modifier": null
    },
    {
      "repr": "SCT031",
      "type": "SCT",
      "altitude": 31,
      "modifier": null
    },
    {
      "repr": "BKN037",
      "type": "BKN",
      "altitude": 37,
      "modifier": null
    }
  ],
  "flight_rules": "VFR",
  "other": [],
  "visibility": {
    "repr": "10",
    "value": 10,
    "spoken": "one zero"
  },
  "wind_direction": {
    "repr": "000",
    "value": 0,
    "spoken": "zero zero zero"
  },
  "wind_gust": null,
  "wind_speed": {
    "repr": "00",
    "value": 0,
    "spoken": "zero"
  },
  "wx_codes": [],
  "raw": "KBVS 050715Z AUTO 00000KT 10SM FEW024 SCT031 BKN037 08/05 A2957 RMK A01",
  "sanitized": "KBVS 050715Z 00000KT 10SM FEW024 SCT031 BKN037 08/05 A2957 RMK A01",
  "station": "KBVS",
  "time": {
    "repr": "050715Z",
    "dt": "2022-11-05T07:15:00Z"
  },
  "remarks": "RMK A01",
  "dewpoint": {
    "repr": "05",
    "value": 5,
    "spoken": "five"
  },
  "relative_humidity": 0.8133982839480661,
  "remarks_info": {
    "maximum_temperature_6": null,
    "minimum_temperature_6": null,
    "pressure_tendency": null,
    "precip_36_hours": null,
    "precip_24_hours": null,
    "sunshine_minutes": null,
    "codes": [],
    "dewpoint_decimal": null,
    "maximum_temperature_24": null,
    "minimum_temperature_24": null,
    "precip_hourly": null,
    "sea_level_pressure": null,
    "snow_depth": null,
    "temperature_decimal": null
  },
  "runway_visibility": [],
  "temperature": {
    "repr": "08",
    "value": 8,
    "spoken": "eight"
  },
  "wind_variable_direction": [],
  "density_altitude": -311,
  "pressure_altitude": 494,
  "units": {
    "accumulation": "in",
    "altimeter": "inHg",
    "altitude": "ft",
    "temperature": "C",
    "visibility": "sm",
    "wind_speed": "kt"
  }
}
