{
  "altimeter": {
    "repr": "A2996",
    "spoken": "two nine point nine six",
    "value": 29.96
  },
  "clouds": [
    {
      "altitude": 16,
      "modifier": null,
      "repr": "BKN016",
      "type": "BKN"
    },
    {
      "altitude": 22,
      "modifier": null,
      "repr": "BKN022",
      "type": "BKN"
    }
  ],
  "density_altitude": -341,
  "dewpoint": {
    "repr": "11",
    "spoken": "one one",
    "value": 11
  },
  "flight_rules": "MVFR",
  "meta": {
    "cache-timestamp": "2024-05-21T23:24:04.865000Z",
    "stations_updated": "2024-05-13",
    "timestamp": "2024-05-21T23:24:44.058696Z"
  },
  "other": [],
  "pressure_altitude": 104,
  "raw": "KBVS 212255Z AUTO 14007KT 10SM BKN016 BKN022 11/11 A2996 RMK A01 P0013",
  "relative_humidity": 1,
  "remarks": "RMK A01 P0013",
  "remarks_info": {
    "codes": [],
    "dewpoint_decimal": null,
    "maximum_temperature_24": null,
    "maximum_temperature_6": null,
    "minimum_temperature_24": null,
    "minimum_temperature_6": null,
    "precip_24_hours": null,
    "precip_36_hours": null,
    "precip_hourly": {
      "repr": "P0013",
      "spoken": "zero point one three",
      "value": 0.13
    },
    "pressure_tendency": null,
    "sea_level_pressure": null,
    "snow_depth": null,
    "sunshine_minutes": null,
    "temperature_decimal": null
  },
  "runway_visibility": [],
  "sanitized": "KBVS 212255Z 14007KT 10SM BKN016 BKN022 11/11 A2996 RMK A01 P0013",
  "station": "KBVS",
  "temperature": {
    "repr": "11",
    "spoken": "one one",
    "value": 11
  },
  "time": {
    "dt": "2024-05-21T22:55:00Z",
    "repr": "212255Z"
  },
  "units": {
    "accumulation": "in",
    "altimeter": "inHg",
    "altitude": "ft",
    "temperature": "C",
    "visibility": "sm",
    "wind_speed": "kt"
  },
  "visibility": {
    "repr": "10",
    "spoken": "one zero",
    "value": 10
  },
  "wind_direction": {
    "repr": "140",
    "spoken": "one four zero",
    "value": 140
  },
  "wind_gust": null,
  "wind_speed": {
    "repr": "07",
    "spoken": "seven",
    "value": 7
  },
  "wind_variable_direction": [],
  "wx_codes": []
}
