{
  "meta": {
    "timestamp": "2023-05-22T00:28:54.712691Z",
    "stations_updated": "2023-03-11",
    "cache-timestamp": "2023-05-22T00:28:06.427000Z"
  },
  "altimeter": {
    "repr": "A3018",
    "value": 30.18,
    "spoken": "three zero point one eight"
  },
  "clouds": [
    {
      "repr": "OVC034",
      "type": "OVC",
      "altitude": 34,
      "modifier": null
    }
  ],
  "flight_rules": "VFR",
  "other": [],
  "visibility": {
    "repr": "10",
    "value": 10,
    "spoken": "one zero"
  },
  "wind_direction": {
    "repr": "220",
    "value": 220,
    "spoken": "two two zero"
  },
  "wind_gust": {
    "repr": "16",
    "value": 16,
    "spoken": "one six"
  },
  "wind_speed": {
    "repr": "08",
    "value": 8,
    "spoken": "eight"
  },
  "wx_codes": [],
  "raw": "KBVS 220015Z AUTO 22008G16KT 180V250 10SM OVC034 14/10 A3018 RMK A01",
  "sanitized": "KBVS 220015Z 22008G16KT 180V250 10SM OVC034 14/10 A3018 RMK A01",
  "station": "KBVS",
  "time": {
    "repr": "220015Z",
    "dt": "2023-05-22T00:15:00Z"
  },
  "remarks": "RMK A01",
  "dewpoint": {
    "repr": "10",
    "value": 10,
    "spoken": "one zero"
  },
  "relative_humidity": 0.7682365318993968,
  "remarks_info": {
    "maximum_temperature_6": null,
    "minimum_temperature_6": null,
    "pressure_tendency": null,
    "precip_36_hours": null,
    "precip_24_hours": null,
    "sunshine_minutes": null,
    "codes": [],
    "dewpoint_decimal": null,
    "maximum_temperature_24": null,
    "minimum_temperature_24": null,
    "precip_hourly": null,
    "sea_level_pressure": null,
    "snow_depth": null,
    "temperature_decimal": null
  },
  "runway_visibility": [],
  "temperature": {
    "repr": "14",
    "value": 14,
    "spoken": "one four"
  },
  "wind_variable_direction": [
    {
      "repr": "180",
      "value": 180,
      "spoken": "one eight zero"
    },
    {
      "repr": "250",
      "value": 250,
      "spoken": "two five zero"
    }
  ],
  "density_altitude": -201,
  "pressure_altitude": -116,
  "units": {
    "accumulation": "in",
    "altimeter": "inHg",
    "altitude": "ft",
    "temperature": "C",
    "visibility": "sm",
    "wind_speed": "kt"
  }
}
