{
  "altimeter": {
    "repr": "A3017",
    "spoken": "three zero point one seven",
    "value": 30.17
  },
  "clouds": [],
  "density_altitude": -311,
  "dewpoint": {
    "repr": "10",
    "spoken": "one zero",
    "value": 10
  },
  "flight_rules": "VFR",
  "meta": {
    "stations_updated": "2024-01-01",
    "timestamp": "2024-04-22T20:24:01.899271Z"
  },
  "other": [],
  "pressure_altitude": -106,
  "raw": "KBVS 222015Z AUTO 30014KT 10SM CLR 13/10 A3017 RMK A01",
  "relative_humidity": 0.8199481803324667,
  "remarks": "RMK A01",
  "remarks_info": {
    "codes": [],
    "dewpoint_decimal": null,
    "maximum_temperature_24": null,
    "maximum_temperature_6": null,
    "minimum_temperature_24": null,
    "minimum_temperature_6": null,
    "precip_24_hours": null,
    "precip_36_hours": null,
    "precip_hourly": null,
    "pressure_tendency": null,
    "sea_level_pressure": null,
    "snow_depth": null,
    "sunshine_minutes": null,
    "temperature_decimal": null
  },
  "runway_visibility": [],
  "sanitized": "KBVS 222015Z 30014KT 10SM 13/10 A3017 RMK A01",
  "station": "KBVS",
  "temperature": {
    "repr": "13",
    "spoken": "one three",
    "value": 13
  },
  "time": {
    "dt": "2024-04-22T20:15:00Z",
    "repr": "222015Z"
  },
  "units": {
    "accumulation": "in",
    "altimeter": "inHg",
    "altitude": "ft",
    "temperature": "C",
    "visibility": "sm",
    "wind_speed": "kt"
  },
  "visibility": {
    "repr": "10",
    "spoken": "one zero",
    "value": 10
  },
  "wind_direction": {
    "repr": "300",
    "spoken": "three zero zero",
    "value": 300
  },
  "wind_gust": null,
  "wind_speed": {
    "repr": "14",
    "spoken": "one four",
    "value": 14
  },
  "wind_variable_direction": [],
  "wx_codes": []
}
