{
  "altimeter": {
    "repr": "A2960",
    "spoken": "two nine point six zero",
    "value": 29.6
  },
  "clouds": [
    {
      "altitude": 13,
      "modifier": null,
      "repr": "SCT013",
      "type": "SCT"
    },
    {
      "altitude": 22,
      "modifier": null,
      "repr": "BKN022",
      "type": "BKN"
    },
    {
      "altitude": 28,
      "modifier": null,
      "repr": "OVC028",
      "type": "OVC"
    }
  ],
  "density_altitude": -461,
  "dewpoint": {
    "repr": "06",
    "spoken": "six",
    "value": 6
  },
  "flight_rules": "IFR",
  "meta": {
    "stations_updated": "2024-10-29",
    "timestamp": "2024-11-17T18:34:28.584026Z"
  },
  "other": [],
  "pressure_altitude": 464,
  "raw": "KBVS 171815Z AUTO 21007KT 2 1/2SM BR SCT013 BKN022 OVC028 07/06 A2960 RMK A01",
  "relative_humidity": 0.9334736015813517,
  "remarks": "RMK A01",
  "remarks_info": {
    "codes": [],
    "dewpoint_decimal": null,
    "maximum_temperature_24": null,
    "maximum_temperature_6": null,
    "minimum_temperature_24": null,
    "minimum_temperature_6": null,
    "precip_24_hours": null,
    "precip_36_hours": null,
    "precip_hourly": null,
    "pressure_tendency": null,
    "sea_level_pressure": null,
    "snow_depth": null,
    "sunshine_minutes": null,
    "temperature_decimal": null
  },
  "runway_visibility": [],
  "sanitized": "KBVS 171815Z 21007KT 2 1/2SM BR SCT013 BKN022 OVC028 07/06 A2960 RMK A01",
  "station": "KBVS",
  "temperature": {
    "repr": "07",
    "spoken": "seven",
    "value": 7
  },
  "time": {
    "dt": "2024-11-17T18:15:00Z",
    "repr": "171815Z"
  },
  "units": {
    "accumulation": "in",
    "altimeter": "inHg",
    "altitude": "ft",
    "temperature": "C",
    "visibility": "sm",
    "wind_speed": "kt"
  },
  "visibility": {
    "denominator": 2,
    "normalized": "2 1/2",
    "numerator": 5,
    "repr": "5/2",
    "spoken": "two and one half",
    "value": 2.5
  },
  "wind_direction": {
    "repr": "210",
    "spoken": "two one zero",
    "value": 210
  },
  "wind_gust": null,
  "wind_speed": {
    "repr": "07",
    "spoken": "seven",
    "value": 7
  },
  "wind_variable_direction": [],
  "wx_codes": [
    {
      "repr": "BR",
      "value": "Mist"
    }
  ]
}
