{
  "altimeter": {
    "repr": "A3021",
    "spoken": "three zero point two one",
    "value": 30.21
  },
  "clouds": [
    {
      "altitude": 17,
      "modifier": null,
      "repr": "OVC017",
      "type": "OVC"
    }
  ],
  "density_altitude": 369,
  "dewpoint": {
    "repr": "19",
    "spoken": "one nine",
    "value": 19
  },
  "flight_rules": "MVFR",
  "meta": {
    "stations_updated": "2024-06-12",
    "timestamp": "2024-09-03T20:28:30.603729Z"
  },
  "other": [],
  "pressure_altitude": -146,
  "raw": "KBVS 032015Z 00000KT 10SM OVC017 19/19 A3021 RMK A01 AWOS NOTAMED OS 1700 TO 2359 HRS 09-03-2024 UTC",
  "relative_humidity": 1,
  "remarks": "RMK A01 AWOS NOTAMED OS 1700 TO 2359 HRS 09-03-2024 UTC",
  "remarks_info": {
    "codes": [],
    "dewpoint_decimal": null,
    "maximum_temperature_24": null,
    "maximum_temperature_6": null,
    "minimum_temperature_24": null,
    "minimum_temperature_6": null,
    "precip_24_hours": null,
    "precip_36_hours": null,
    "precip_hourly": null,
    "pressure_tendency": null,
    "sea_level_pressure": null,
    "snow_depth": null,
    "sunshine_minutes": null,
    "temperature_decimal": null
  },
  "runway_visibility": [],
  "sanitized": "KBVS 032015Z 00000KT 10SM OVC017 19/19 A3021 RMK A01 AWOS NOTAMED OS 1700 TO 2359 HRS 09-03-2024 UTC",
  "station": "KBVS",
  "temperature": {
    "repr": "19",
    "spoken": "one nine",
    "value": 19
  },
  "time": {
    "dt": "2024-09-03T20:15:00Z",
    "repr": "032015Z"
  },
  "units": {
    "accumulation": "in",
    "altimeter": "inHg",
    "altitude": "ft",
    "temperature": "C",
    "visibility": "sm",
    "wind_speed": "kt"
  },
  "visibility": {
    "repr": "10",
    "spoken": "one zero",
    "value": 10
  },
  "wind_direction": {
    "repr": "000",
    "spoken": "zero zero zero",
    "value": 0
  },
  "wind_gust": null,
  "wind_speed": {
    "repr": "00",
    "spoken": "zero",
    "value": 0
  },
  "wind_variable_direction": [],
  "wx_codes": []
}
