{
  "meta": {
    "timestamp": "2023-04-21T15:40:34.794089Z",
    "stations_updated": "2023-03-11",
    "cache-timestamp": "2023-04-21T15:40:04.441000Z"
  },
  "altimeter": {
    "repr": "A3036",
    "value": 30.36,
    "spoken": "three zero point three six"
  },
  "clouds": [
    {
      "repr": "BKN020",
      "type": "BKN",
      "altitude": 20,
      "modifier": null
    },
    {
      "repr": "BKN024",
      "type": "BKN",
      "altitude": 24,
      "modifier": null
    },
    {
      "repr": "OVC055",
      "type": "OVC",
      "altitude": 55,
      "modifier": null
    }
  ],
  "flight_rules": "MVFR",
  "other": [],
  "visibility": {
    "repr": "10",
    "value": 10,
    "spoken": "one zero"
  },
  "wind_direction": {
    "repr": "130",
    "value": 130,
    "spoken": "one three zero"
  },
  "wind_gust": {
    "repr": "10",
    "value": 10,
    "spoken": "one zero"
  },
  "wind_speed": {
    "repr": "05",
    "value": 5,
    "spoken": "five"
  },
  "wx_codes": [],
  "raw": "KBVS 211515Z AUTO 13005G10KT 10SM BKN020 BKN024 OVC055 08/07 A3036 RMK A01",
  "sanitized": "KBVS 211515Z 13005G10KT 10SM BKN020 BKN024 OVC055 08/07 A3036 RMK A01",
  "station": "KBVS",
  "time": {
    "repr": "211515Z",
    "dt": "2023-04-21T15:15:00Z"
  },
  "remarks": "RMK A01",
  "dewpoint": {
    "repr": "07",
    "value": 7,
    "spoken": "seven"
  },
  "relative_humidity": 0.933984777240729,
  "remarks_info": {
    "maximum_temperature_6": null,
    "minimum_temperature_6": null,
    "pressure_tendency": null,
    "precip_36_hours": null,
    "precip_24_hours": null,
    "sunshine_minutes": null,
    "codes": [],
    "dewpoint_decimal": null,
    "maximum_temperature_24": null,
    "minimum_temperature_24": null,
    "precip_hourly": null,
    "sea_level_pressure": null,
    "snow_depth": null,
    "temperature_decimal": null
  },
  "runway_visibility": [],
  "temperature": {
    "repr": "08",
    "value": 8,
    "spoken": "eight"
  },
  "wind_variable_direction": [],
  "density_altitude": -1101,
  "pressure_altitude": -296,
  "units": {
    "accumulation": "in",
    "altimeter": "inHg",
    "altitude": "ft",
    "temperature": "C",
    "visibility": "sm",
    "wind_speed": "kt"
  }
}
