{
  "altimeter": {
    "repr": "A2992",
    "spoken": "two nine point nine two",
    "value": 29.92
  },
  "clouds": [
    {
      "altitude": 41,
      "modifier": null,
      "repr": "BKN041",
      "type": "BKN"
    },
    {
      "altitude": 60,
      "modifier": null,
      "repr": "OVC060",
      "type": "OVC"
    }
  ],
  "density_altitude": -661,
  "dewpoint": {
    "repr": "06",
    "spoken": "six",
    "value": 6
  },
  "flight_rules": "VFR",
  "meta": {
    "stations_updated": "2024-06-12",
    "timestamp": "2024-10-17T07:28:13.970812Z"
  },
  "other": [],
  "pressure_altitude": 144,
  "raw": "KBVS 170715Z AUTO 07003KT 10SM BKN041 OVC060 08/06 A2992 RMK A01",
  "relative_humidity": 0.87185013383306,
  "remarks": "RMK A01",
  "remarks_info": {
    "codes": [],
    "dewpoint_decimal": null,
    "maximum_temperature_24": null,
    "maximum_temperature_6": null,
    "minimum_temperature_24": null,
    "minimum_temperature_6": null,
    "precip_24_hours": null,
    "precip_36_hours": null,
    "precip_hourly": null,
    "pressure_tendency": null,
    "sea_level_pressure": null,
    "snow_depth": null,
    "sunshine_minutes": null,
    "temperature_decimal": null
  },
  "runway_visibility": [],
  "sanitized": "KBVS 170715Z 07003KT 10SM BKN041 OVC060 08/06 A2992 RMK A01",
  "station": "KBVS",
  "temperature": {
    "repr": "08",
    "spoken": "eight",
    "value": 8
  },
  "time": {
    "dt": "2024-10-17T07:15:00Z",
    "repr": "170715Z"
  },
  "units": {
    "accumulation": "in",
    "altimeter": "inHg",
    "altitude": "ft",
    "temperature": "C",
    "visibility": "sm",
    "wind_speed": "kt"
  },
  "visibility": {
    "repr": "10",
    "spoken": "one zero",
    "value": 10
  },
  "wind_direction": {
    "repr": "070",
    "spoken": "zero seven zero",
    "value": 70
  },
  "wind_gust": null,
  "wind_speed": {
    "repr": "03",
    "spoken": "three",
    "value": 3
  },
  "wind_variable_direction": [],
  "wx_codes": []
}
