{
  "meta": {
    "timestamp": "2023-10-21T10:01:16.069133Z",
    "stations_updated": "2023-10-01"
  },
  "altimeter": {
    "repr": "A2994",
    "value": 29.94,
    "spoken": "two nine point nine four"
  },
  "clouds": [
    {
      "repr": "BKN006",
      "type": "BKN",
      "altitude": 6,
      "modifier": null
    },
    {
      "repr": "OVC015",
      "type": "OVC",
      "altitude": 15,
      "modifier": null
    }
  ],
  "flight_rules": "IFR",
  "other": [],
  "visibility": {
    "repr": "10",
    "value": 10,
    "spoken": "one zero"
  },
  "wind_direction": {
    "repr": "310",
    "value": 310,
    "spoken": "three one zero"
  },
  "wind_gust": null,
  "wind_speed": {
    "repr": "05",
    "value": 5,
    "spoken": "five"
  },
  "wx_codes": [],
  "raw": "KBVS 210955Z AUTO 31005KT 10SM BKN006 OVC015 12/12 A2994 RMK A01 KBVS 210935Z AUTO 31005KT 10SM FEW007 OVC015 12/12 A2994 RMK A01 KBVS 210915Z AUTO 31008KT 10SM FEW007 OVC016 12/12 A2995 RMK A01 KBVS 210855Z AUTO 30006KT 10SM OVC015 12/12 A2995 RMK A01 KBVS 210835Z AUTO 31005KT 10SM OVC016 12/12 A2994 RMK A01 KBVS 210815Z AUTO 33004G10KT 10SM OVC018 12/12 A2994 RMK A01",
  "sanitized": "KBVS 210955Z 31005KT 10SM BKN006 OVC015 12/12 A2994 RMK A01 KBVS 210935Z AUTO 31005KT 10SM FEW007 OVC015 12/12 A2994 RMK A01 KBVS 210915Z AUTO 31008KT 10SM FEW007 OVC016 12/12 A2995 RMK A01 KBVS 210855Z AUTO 30006KT 10SM OVC015 12/12 A2995 RMK A01 KBVS 210835Z AUTO 31005KT 10SM OVC016 12/12 A2994 RMK A01 KBVS 210815Z AUTO 33004G10KT 10SM OVC018 12/12 A2994 RMK A01",
  "station": "KBVS",
  "time": {
    "repr": "210955Z",
    "dt": "2023-10-21T09:55:00Z"
  },
  "remarks": "RMK A01 KBVS 210935Z AUTO 31005KT 10SM FEW007 OVC015 12/12 A2994 RMK A01 KBVS 210915Z AUTO 31008KT 10SM FEW007 OVC016 12/12 A2995 RMK A01 KBVS 210855Z AUTO 30006KT 10SM OVC015 12/12 A2995 RMK A01 KBVS 210835Z AUTO 31005KT 10SM OVC016 12/12 A2994 RMK A01 KBVS 210815Z AUTO 33004G10KT 10SM OVC018 12/12 A2994 RMK A01",
  "dewpoint": {
    "repr": "12",
    "value": 12,
    "spoken": "one two"
  },
  "relative_humidity": 1,
  "remarks_info": {
    "maximum_temperature_6": null,
    "minimum_temperature_6": null,
    "pressure_tendency": null,
    "precip_36_hours": null,
    "precip_24_hours": null,
    "sunshine_minutes": null,
    "codes": [],
    "dewpoint_decimal": null,
    "maximum_temperature_24": null,
    "minimum_temperature_24": null,
    "precip_hourly": null,
    "sea_level_pressure": null,
    "snow_depth": null,
    "temperature_decimal": null
  },
  "runway_visibility": [],
  "temperature": {
    "repr": "12",
    "value": 12,
    "spoken": "one two"
  },
  "wind_variable_direction": [],
  "density_altitude": -201,
  "pressure_altitude": 124,
  "units": {
    "accumulation": "in",
    "altimeter": "inHg",
    "altitude": "ft",
    "temperature": "C",
    "visibility": "sm",
    "wind_speed": "kt"
  }
}
