{
  "altimeter": {
    "repr": "A3026",
    "spoken": "three zero point two six",
    "value": 30.26
  },
  "clouds": [],
  "density_altitude": -2201,
  "dewpoint": {
    "repr": "M03",
    "spoken": "minus three",
    "value": -3
  },
  "flight_rules": "VFR",
  "meta": {
    "stations_updated": "2024-12-02",
    "timestamp": "2025-01-28T14:41:59.413506Z"
  },
  "other": [],
  "pressure_altitude": -196,
  "raw": "KBVS 281435Z AUTO 00000KT 10SM CLR M02/M03 A3026 RMK A01",
  "relative_humidity": 0.928597034713062,
  "remarks": "RMK A01",
  "remarks_info": {
    "codes": [],
    "dewpoint_decimal": null,
    "maximum_temperature_24": null,
    "maximum_temperature_6": null,
    "minimum_temperature_24": null,
    "minimum_temperature_6": null,
    "precip_24_hours": null,
    "precip_36_hours": null,
    "precip_hourly": null,
    "pressure_tendency": null,
    "sea_level_pressure": null,
    "snow_depth": null,
    "sunshine_minutes": null,
    "temperature_decimal": null
  },
  "runway_visibility": [],
  "sanitized": "KBVS 281435Z 00000KT 10SM M02/M03 A3026 RMK A01",
  "station": "KBVS",
  "temperature": {
    "repr": "M02",
    "spoken": "minus two",
    "value": -2
  },
  "time": {
    "dt": "2025-01-28T14:35:00Z",
    "repr": "281435Z"
  },
  "units": {
    "accumulation": "in",
    "altimeter": "inHg",
    "altitude": "ft",
    "temperature": "C",
    "visibility": "sm",
    "wind_speed": "kt"
  },
  "visibility": {
    "repr": "10",
    "spoken": "one zero",
    "value": 10
  },
  "wind_direction": {
    "repr": "000",
    "spoken": "zero zero zero",
    "value": 0
  },
  "wind_gust": null,
  "wind_speed": {
    "repr": "00",
    "spoken": "zero",
    "value": 0
  },
  "wind_variable_direction": [],
  "wx_codes": []
}
