{
  "meta": {
    "timestamp": "2023-10-17T17:01:31.884673Z",
    "stations_updated": "2023-10-01"
  },
  "altimeter": {
    "repr": "A3020",
    "value": 30.2,
    "spoken": "three zero point two zero"
  },
  "clouds": [],
  "flight_rules": "VFR",
  "other": [],
  "visibility": {
    "repr": "10",
    "value": 10,
    "spoken": "one zero"
  },
  "wind_direction": {
    "repr": "000",
    "value": 0,
    "spoken": "zero zero zero"
  },
  "wind_gust": null,
  "wind_speed": {
    "repr": "00",
    "value": 0,
    "spoken": "zero"
  },
  "wx_codes": [],
  "raw": "KBVS 171655Z AUTO 00000KT 10SM CLR 12/12 A3020 RMK A01 KBVS 171635Z AUTO 00000KT 10SM SCT120 11/11 A3019 RMK A01 KBVS 171615Z AUTO 07004KT 10SM BKN120 11/11 A3019 RMK A01 KBVS 171555Z AUTO 04003KT 10SM CLR 10/10 A3019 RMK A01 KBVS 171535Z AUTO 06006KT 10SM CLR 10/10 A3018 RMK A01 KBVS 171515Z AUTO 06007KT 10SM CLR 10/10 A3018 RMK A01",
  "sanitized": "KBVS 171655Z 00000KT 10SM 12/12 A3020 RMK A01 KBVS 171635Z AUTO 00000KT 10SM SCT120 11/11 A3019 RMK A01 KBVS 171615Z AUTO 07004KT 10SM BKN120 11/11 A3019 RMK A01 KBVS 171555Z AUTO 04003KT 10SM CLR 10/10 A3019 RMK A01 KBVS 171535Z AUTO 06006KT 10SM CLR 10/10 A3018 RMK A01 KBVS 171515Z AUTO 06007KT 10SM CLR 10/10 A3018 RMK A01",
  "station": "KBVS",
  "time": {
    "repr": "171655Z",
    "dt": "2023-10-17T16:55:00Z"
  },
  "remarks": "RMK A01 KBVS 171635Z AUTO 00000KT 10SM SCT120 11/11 A3019 RMK A01 KBVS 171615Z AUTO 07004KT 10SM BKN120 11/11 A3019 RMK A01 KBVS 171555Z AUTO 04003KT 10SM CLR 10/10 A3019 RMK A01 KBVS 171535Z AUTO 06006KT 10SM CLR 10/10 A3018 RMK A01 KBVS 171515Z AUTO 06007KT 10SM CLR 10/10 A3018 RMK A01",
  "dewpoint": {
    "repr": "12",
    "value": 12,
    "spoken": "one two"
  },
  "relative_humidity": 1,
  "remarks_info": {
    "maximum_temperature_6": null,
    "minimum_temperature_6": null,
    "pressure_tendency": null,
    "precip_36_hours": null,
    "precip_24_hours": null,
    "sunshine_minutes": null,
    "codes": [],
    "dewpoint_decimal": null,
    "maximum_temperature_24": null,
    "minimum_temperature_24": null,
    "precip_hourly": null,
    "sea_level_pressure": null,
    "snow_depth": null,
    "temperature_decimal": null
  },
  "runway_visibility": [],
  "temperature": {
    "repr": "12",
    "value": 12,
    "spoken": "one two"
  },
  "wind_variable_direction": [],
  "density_altitude": -461,
  "pressure_altitude": -136,
  "units": {
    "accumulation": "in",
    "altimeter": "inHg",
    "altitude": "ft",
    "temperature": "C",
    "visibility": "sm",
    "wind_speed": "kt"
  }
}
