{
  "meta": {
    "timestamp": "2022-12-08T17:40:46.517251Z",
    "stations_updated": "2022-09-05"
  },
  "altimeter": {
    "repr": "A2995",
    "value": 29.95,
    "spoken": "two nine point nine five"
  },
  "clouds": [
    {
      "repr": "BKN018",
      "type": "BKN",
      "altitude": 18,
      "modifier": null
    },
    {
      "repr": "OVC023",
      "type": "OVC",
      "altitude": 23,
      "modifier": null
    }
  ],
  "flight_rules": "MVFR",
  "other": [],
  "visibility": {
    "repr": "10",
    "value": 10,
    "spoken": "one zero"
  },
  "wind_direction": {
    "repr": "130",
    "value": 130,
    "spoken": "one three zero"
  },
  "wind_gust": {
    "repr": "12",
    "value": 12,
    "spoken": "one two"
  },
  "wind_speed": {
    "repr": "07",
    "value": 7,
    "spoken": "seven"
  },
  "wx_codes": [],
  "raw": "KBVS 081735Z AUTO 13007G12KT 10SM BKN018 OVC023 06/05 A2995 RMK A01",
  "sanitized": "KBVS 081735Z 13007G12KT 10SM BKN018 OVC023 06/05 A2995 RMK A01",
  "station": "KBVS",
  "time": {
    "repr": "081735Z",
    "dt": "2022-12-08T17:35:00Z"
  },
  "remarks": "RMK A01",
  "dewpoint": {
    "repr": "05",
    "value": 5,
    "spoken": "five"
  },
  "relative_humidity": 0.9329565396428716,
  "remarks_info": {
    "maximum_temperature_6": null,
    "minimum_temperature_6": null,
    "pressure_tendency": null,
    "precip_36_hours": null,
    "precip_24_hours": null,
    "sunshine_minutes": null,
    "codes": [],
    "dewpoint_decimal": null,
    "maximum_temperature_24": null,
    "minimum_temperature_24": null,
    "precip_hourly": null,
    "sea_level_pressure": null,
    "snow_depth": null,
    "temperature_decimal": null
  },
  "runway_visibility": [],
  "temperature": {
    "repr": "06",
    "value": 6,
    "spoken": "six"
  },
  "wind_variable_direction": [],
  "density_altitude": -931,
  "pressure_altitude": 114,
  "units": {
    "accumulation": "in",
    "altimeter": "inHg",
    "altitude": "ft",
    "temperature": "C",
    "visibility": "sm",
    "wind_speed": "kt"
  }
}
