{
  "altimeter": {
    "repr": "A2992",
    "spoken": "two nine point nine two",
    "value": 29.92
  },
  "clouds": [
    {
      "altitude": 37,
      "modifier": null,
      "repr": "BKN037",
      "type": "BKN"
    },
    {
      "altitude": 47,
      "modifier": null,
      "repr": "OVC047",
      "type": "OVC"
    }
  ],
  "density_altitude": -781,
  "dewpoint": {
    "repr": "07",
    "spoken": "seven",
    "value": 7
  },
  "flight_rules": "VFR",
  "meta": {
    "stations_updated": "2024-06-12",
    "timestamp": "2024-10-17T10:07:43.922498Z"
  },
  "other": [],
  "pressure_altitude": 144,
  "raw": "KBVS 170935Z AUTO 00000KT 6SM BR BKN037 OVC047 07/07 A2992 RMK A01",
  "relative_humidity": 1,
  "remarks": "RMK A01",
  "remarks_info": {
    "codes": [],
    "dewpoint_decimal": null,
    "maximum_temperature_24": null,
    "maximum_temperature_6": null,
    "minimum_temperature_24": null,
    "minimum_temperature_6": null,
    "precip_24_hours": null,
    "precip_36_hours": null,
    "precip_hourly": null,
    "pressure_tendency": null,
    "sea_level_pressure": null,
    "snow_depth": null,
    "sunshine_minutes": null,
    "temperature_decimal": null
  },
  "runway_visibility": [],
  "sanitized": "KBVS 170935Z 00000KT 6SM BR BKN037 OVC047 07/07 A2992 RMK A01",
  "station": "KBVS",
  "temperature": {
    "repr": "07",
    "spoken": "seven",
    "value": 7
  },
  "time": {
    "dt": "2024-10-17T09:35:00Z",
    "repr": "170935Z"
  },
  "units": {
    "accumulation": "in",
    "altimeter": "inHg",
    "altitude": "ft",
    "temperature": "C",
    "visibility": "sm",
    "wind_speed": "kt"
  },
  "visibility": {
    "repr": "6",
    "spoken": "six",
    "value": 6
  },
  "wind_direction": {
    "repr": "000",
    "spoken": "zero zero zero",
    "value": 0
  },
  "wind_gust": null,
  "wind_speed": {
    "repr": "00",
    "spoken": "zero",
    "value": 0
  },
  "wind_variable_direction": [],
  "wx_codes": [
    {
      "repr": "BR",
      "value": "Mist"
    }
  ]
}
