{
  "meta": {
    "timestamp": "2022-11-07T15:33:36.322909Z",
    "stations_updated": "2022-09-05"
  },
  "altimeter": {
    "repr": "A2955",
    "value": 29.55,
    "spoken": "two nine point five five"
  },
  "clouds": [
    {
      "repr": "OVC017",
      "type": "OVC",
      "altitude": 17,
      "modifier": null
    }
  ],
  "flight_rules": "MVFR",
  "other": [],
  "visibility": {
    "repr": "10",
    "value": 10,
    "spoken": "one zero"
  },
  "wind_direction": {
    "repr": "000",
    "value": 0,
    "spoken": "zero zero zero"
  },
  "wind_gust": null,
  "wind_speed": {
    "repr": "00",
    "value": 0,
    "spoken": "zero"
  },
  "wx_codes": [],
  "raw": "KBVS 071515Z AUTO 00000KT 10SM OVC017 03/03 A2955 RMK A01",
  "sanitized": "KBVS 071515Z 00000KT 10SM OVC017 03/03 A2955 RMK A01",
  "station": "KBVS",
  "time": {
    "repr": "071515Z",
    "dt": "2022-11-07T15:15:00Z"
  },
  "remarks": "RMK A01",
  "dewpoint": {
    "repr": "03",
    "value": 3,
    "spoken": "three"
  },
  "relative_humidity": 1,
  "remarks_info": {
    "maximum_temperature_6": null,
    "minimum_temperature_6": null,
    "pressure_tendency": null,
    "precip_36_hours": null,
    "precip_24_hours": null,
    "sunshine_minutes": null,
    "codes": [],
    "dewpoint_decimal": null,
    "maximum_temperature_24": null,
    "minimum_temperature_24": null,
    "precip_hourly": null,
    "sea_level_pressure": null,
    "snow_depth": null,
    "temperature_decimal": null
  },
  "runway_visibility": [],
  "temperature": {
    "repr": "03",
    "value": 3,
    "spoken": "three"
  },
  "wind_variable_direction": [],
  "density_altitude": -891,
  "pressure_altitude": 514,
  "units": {
    "accumulation": "in",
    "altimeter": "inHg",
    "altitude": "ft",
    "temperature": "C",
    "visibility": "sm",
    "wind_speed": "kt"
  }
}
