{
  "meta": {
    "timestamp": "2023-10-14T03:02:04.853089Z",
    "stations_updated": "2023-10-01",
    "cache-timestamp": "2023-10-14T03:02:02.432000Z"
  },
  "altimeter": {
    "repr": "A2980",
    "value": 29.8,
    "spoken": "two nine point eight zero"
  },
  "clouds": [
    {
      "repr": "OVC080",
      "type": "OVC",
      "altitude": 80,
      "modifier": null
    }
  ],
  "flight_rules": "VFR",
  "other": [],
  "visibility": {
    "repr": "10",
    "value": 10,
    "spoken": "one zero"
  },
  "wind_direction": {
    "repr": "190",
    "value": 190,
    "spoken": "one nine zero"
  },
  "wind_gust": {
    "repr": "13",
    "value": 13,
    "spoken": "one three"
  },
  "wind_speed": {
    "repr": "07",
    "value": 7,
    "spoken": "seven"
  },
  "wx_codes": [],
  "raw": "KBVS 140235Z AUTO 19007G13KT 10SM OVC080 17/11 A2980 RMK A01",
  "sanitized": "KBVS 140235Z 19007G13KT 10SM OVC080 17/11 A2980 RMK A01",
  "station": "KBVS",
  "time": {
    "repr": "140235Z",
    "dt": "2023-10-14T02:35:00Z"
  },
  "remarks": "RMK A01",
  "dewpoint": {
    "repr": "11",
    "value": 11,
    "spoken": "one one"
  },
  "relative_humidity": 0.6774660830378916,
  "remarks_info": {
    "maximum_temperature_6": null,
    "minimum_temperature_6": null,
    "pressure_tendency": null,
    "precip_36_hours": null,
    "precip_24_hours": null,
    "sunshine_minutes": null,
    "codes": [],
    "dewpoint_decimal": null,
    "maximum_temperature_24": null,
    "minimum_temperature_24": null,
    "precip_hourly": null,
    "sea_level_pressure": null,
    "snow_depth": null,
    "temperature_decimal": null
  },
  "runway_visibility": [],
  "temperature": {
    "repr": "17",
    "value": 17,
    "spoken": "one seven"
  },
  "wind_variable_direction": [],
  "density_altitude": 539,
  "pressure_altitude": 264,
  "units": {
    "accumulation": "in",
    "altimeter": "inHg",
    "altitude": "ft",
    "temperature": "C",
    "visibility": "sm",
    "wind_speed": "kt"
  }
}
