{
  "altimeter": {
    "repr": "A2985",
    "spoken": "two nine point eight five",
    "value": 29.85
  },
  "clouds": [
    {
      "altitude": 35,
      "modifier": null,
      "repr": "BKN035",
      "type": "BKN"
    },
    {
      "altitude": 43,
      "modifier": null,
      "repr": "OVC043",
      "type": "OVC"
    }
  ],
  "density_altitude": -231,
  "dewpoint": {
    "repr": "11",
    "spoken": "one one",
    "value": 11
  },
  "flight_rules": "VFR",
  "meta": {
    "cache-timestamp": "2023-11-11T19:20:05.458000Z",
    "stations_updated": "2023-10-28",
    "timestamp": "2023-11-11T19:20:39.460994Z"
  },
  "other": [],
  "pressure_altitude": 214,
  "raw": "KBVS 111855Z AUTO 17006G12KT 10SM BKN035 OVC043 11/11 A2985 RMK A01",
  "relative_humidity": 1,
  "remarks": "RMK A01",
  "remarks_info": {
    "codes": [],
    "dewpoint_decimal": null,
    "maximum_temperature_24": null,
    "maximum_temperature_6": null,
    "minimum_temperature_24": null,
    "minimum_temperature_6": null,
    "precip_24_hours": null,
    "precip_36_hours": null,
    "precip_hourly": null,
    "pressure_tendency": null,
    "sea_level_pressure": null,
    "snow_depth": null,
    "sunshine_minutes": null,
    "temperature_decimal": null
  },
  "runway_visibility": [],
  "sanitized": "KBVS 111855Z 17006G12KT 10SM BKN035 OVC043 11/11 A2985 RMK A01",
  "station": "KBVS",
  "temperature": {
    "repr": "11",
    "spoken": "one one",
    "value": 11
  },
  "time": {
    "dt": "2023-11-11T18:55:00Z",
    "repr": "111855Z"
  },
  "units": {
    "accumulation": "in",
    "altimeter": "inHg",
    "altitude": "ft",
    "temperature": "C",
    "visibility": "sm",
    "wind_speed": "kt"
  },
  "visibility": {
    "repr": "10",
    "spoken": "one zero",
    "value": 10
  },
  "wind_direction": {
    "repr": "170",
    "spoken": "one seven zero",
    "value": 170
  },
  "wind_gust": {
    "repr": "12",
    "spoken": "one two",
    "value": 12
  },
  "wind_speed": {
    "repr": "06",
    "spoken": "six",
    "value": 6
  },
  "wind_variable_direction": [],
  "wx_codes": []
}
