{
  "meta": {
    "timestamp": "2023-01-07T14:01:27.604612Z",
    "stations_updated": "2022-12-27"
  },
  "altimeter": {
    "repr": "A2991",
    "value": 29.91,
    "spoken": "two nine point nine one"
  },
  "clouds": [
    {
      "repr": "FEW038",
      "type": "FEW",
      "altitude": 38,
      "modifier": null
    },
    {
      "repr": "SCT046",
      "type": "SCT",
      "altitude": 46,
      "modifier": null
    },
    {
      "repr": "BKN060",
      "type": "BKN",
      "altitude": 60,
      "modifier": null
    }
  ],
  "flight_rules": "VFR",
  "other": [],
  "visibility": {
    "repr": "10",
    "value": 10,
    "spoken": "one zero"
  },
  "wind_direction": {
    "repr": "120",
    "value": 120,
    "spoken": "one two zero"
  },
  "wind_gust": null,
  "wind_speed": {
    "repr": "06",
    "value": 6,
    "spoken": "six"
  },
  "wx_codes": [],
  "raw": "KBVS 071355Z AUTO 12006KT 10SM FEW038 SCT046 BKN060 08/06 A2991 RMK A01",
  "sanitized": "KBVS 071355Z 12006KT 10SM FEW038 SCT046 BKN060 08/06 A2991 RMK A01",
  "station": "KBVS",
  "time": {
    "repr": "071355Z",
    "dt": "2023-01-07T13:55:00Z"
  },
  "remarks": "RMK A01",
  "dewpoint": {
    "repr": "06",
    "value": 6,
    "spoken": "six"
  },
  "relative_humidity": 0.87185013383306,
  "remarks_info": {
    "maximum_temperature_6": null,
    "minimum_temperature_6": null,
    "pressure_tendency": null,
    "precip_36_hours": null,
    "precip_24_hours": null,
    "sunshine_minutes": null,
    "codes": [],
    "dewpoint_decimal": null,
    "maximum_temperature_24": null,
    "minimum_temperature_24": null,
    "precip_hourly": null,
    "sea_level_pressure": null,
    "snow_depth": null,
    "temperature_decimal": null
  },
  "runway_visibility": [],
  "temperature": {
    "repr": "08",
    "value": 8,
    "spoken": "eight"
  },
  "wind_variable_direction": [],
  "density_altitude": -651,
  "pressure_altitude": 154,
  "units": {
    "accumulation": "in",
    "altimeter": "inHg",
    "altitude": "ft",
    "temperature": "C",
    "visibility": "sm",
    "wind_speed": "kt"
  }
}
