{
  "altimeter": {
    "repr": "A3008",
    "spoken": "three zero point zero eight",
    "value": 30.08
  },
  "clouds": [
    {
      "altitude": 20,
      "modifier": null,
      "repr": "FEW020",
      "type": "FEW"
    },
    {
      "altitude": 30,
      "modifier": null,
      "repr": "OVC030",
      "type": "OVC"
    }
  ],
  "density_altitude": -1301,
  "dewpoint": {
    "repr": "04",
    "spoken": "four",
    "value": 4
  },
  "flight_rules": "MVFR",
  "meta": {
    "cache-timestamp": "2023-12-09T23:40:03.525000Z",
    "stations_updated": "2023-10-28",
    "timestamp": "2023-12-09T23:40:29.886093Z"
  },
  "other": [],
  "pressure_altitude": -16,
  "raw": "KBVS 092315Z AUTO 12008G13KT 090V160 10SM FEW020 OVC030 04/04 A3008 RMK A01",
  "relative_humidity": 1,
  "remarks": "RMK A01",
  "remarks_info": {
    "codes": [],
    "dewpoint_decimal": null,
    "maximum_temperature_24": null,
    "maximum_temperature_6": null,
    "minimum_temperature_24": null,
    "minimum_temperature_6": null,
    "precip_24_hours": null,
    "precip_36_hours": null,
    "precip_hourly": null,
    "pressure_tendency": null,
    "sea_level_pressure": null,
    "snow_depth": null,
    "sunshine_minutes": null,
    "temperature_decimal": null
  },
  "runway_visibility": [],
  "sanitized": "KBVS 092315Z 12008G13KT 090V160 10SM FEW020 OVC030 04/04 A3008 RMK A01",
  "station": "KBVS",
  "temperature": {
    "repr": "04",
    "spoken": "four",
    "value": 4
  },
  "time": {
    "dt": "2023-12-09T23:15:00Z",
    "repr": "092315Z"
  },
  "units": {
    "accumulation": "in",
    "altimeter": "inHg",
    "altitude": "ft",
    "temperature": "C",
    "visibility": "sm",
    "wind_speed": "kt"
  },
  "visibility": {
    "repr": "10",
    "spoken": "one zero",
    "value": 10
  },
  "wind_direction": {
    "repr": "120",
    "spoken": "one two zero",
    "value": 120
  },
  "wind_gust": {
    "repr": "13",
    "spoken": "one three",
    "value": 13
  },
  "wind_speed": {
    "repr": "08",
    "spoken": "eight",
    "value": 8
  },
  "wind_variable_direction": [
    {
      "repr": "090",
      "spoken": "zero nine zero",
      "value": 90
    },
    {
      "repr": "160",
      "spoken": "one six zero",
      "value": 160
    }
  ],
  "wx_codes": []
}
