{
  "altimeter": {
    "repr": "A2987",
    "spoken": "two nine point eight seven",
    "value": 29.87
  },
  "clouds": [
    {
      "altitude": 16,
      "modifier": null,
      "repr": "FEW016",
      "type": "FEW"
    },
    {
      "altitude": 27,
      "modifier": null,
      "repr": "FEW027",
      "type": "FEW"
    },
    {
      "altitude": 42,
      "modifier": null,
      "repr": "BKN042",
      "type": "BKN"
    }
  ],
  "density_altitude": -11,
  "dewpoint": {
    "repr": "13",
    "spoken": "one three",
    "value": 13
  },
  "flight_rules": "VFR",
  "meta": {
    "cache-timestamp": "2024-05-24T20:40:02.677000Z",
    "stations_updated": "2024-05-13",
    "timestamp": "2024-05-24T20:40:39.780202Z"
  },
  "other": [],
  "pressure_altitude": 194,
  "raw": "KBVS 242015Z AUTO 16008KT 130V190 10SM FEW016 FEW027 BKN042 13/13 A2987 RMK A01",
  "relative_humidity": 1,
  "remarks": "RMK A01",
  "remarks_info": {
    "codes": [],
    "dewpoint_decimal": null,
    "maximum_temperature_24": null,
    "maximum_temperature_6": null,
    "minimum_temperature_24": null,
    "minimum_temperature_6": null,
    "precip_24_hours": null,
    "precip_36_hours": null,
    "precip_hourly": null,
    "pressure_tendency": null,
    "sea_level_pressure": null,
    "snow_depth": null,
    "sunshine_minutes": null,
    "temperature_decimal": null
  },
  "runway_visibility": [],
  "sanitized": "KBVS 242015Z 16008KT 130V190 10SM FEW016 FEW027 BKN042 13/13 A2987 RMK A01",
  "station": "KBVS",
  "temperature": {
    "repr": "13",
    "spoken": "one three",
    "value": 13
  },
  "time": {
    "dt": "2024-05-24T20:15:00Z",
    "repr": "242015Z"
  },
  "units": {
    "accumulation": "in",
    "altimeter": "inHg",
    "altitude": "ft",
    "temperature": "C",
    "visibility": "sm",
    "wind_speed": "kt"
  },
  "visibility": {
    "repr": "10",
    "spoken": "one zero",
    "value": 10
  },
  "wind_direction": {
    "repr": "160",
    "spoken": "one six zero",
    "value": 160
  },
  "wind_gust": null,
  "wind_speed": {
    "repr": "08",
    "spoken": "eight",
    "value": 8
  },
  "wind_variable_direction": [
    {
      "repr": "130",
      "spoken": "one three zero",
      "value": 130
    },
    {
      "repr": "190",
      "spoken": "one nine zero",
      "value": 190
    }
  ],
  "wx_codes": []
}
