{
  "altimeter": {
    "repr": "A3007",
    "spoken": "three zero point zero seven",
    "value": 30.07
  },
  "clouds": [
    {
      "altitude": 24,
      "modifier": null,
      "repr": "FEW024",
      "type": "FEW"
    },
    {
      "altitude": 38,
      "modifier": null,
      "repr": "SCT038",
      "type": "SCT"
    },
    {
      "altitude": 49,
      "modifier": null,
      "repr": "OVC049",
      "type": "OVC"
    }
  ],
  "density_altitude": -331,
  "dewpoint": {
    "repr": "12",
    "spoken": "one two",
    "value": 12
  },
  "flight_rules": "VFR",
  "meta": {
    "cache-timestamp": "2024-06-16T20:02:03.315000Z",
    "stations_updated": "2024-05-13",
    "timestamp": "2024-06-16T20:02:32.670190Z"
  },
  "other": [],
  "pressure_altitude": -6,
  "raw": "KBVS 161935Z AUTO 00000KT 10SM FEW024 SCT038 OVC049 12/12 A3007 RMK A01",
  "relative_humidity": 1,
  "remarks": "RMK A01",
  "remarks_info": {
    "codes": [],
    "dewpoint_decimal": null,
    "maximum_temperature_24": null,
    "maximum_temperature_6": null,
    "minimum_temperature_24": null,
    "minimum_temperature_6": null,
    "precip_24_hours": null,
    "precip_36_hours": null,
    "precip_hourly": null,
    "pressure_tendency": null,
    "sea_level_pressure": null,
    "snow_depth": null,
    "sunshine_minutes": null,
    "temperature_decimal": null
  },
  "runway_visibility": [],
  "sanitized": "KBVS 161935Z 00000KT 10SM FEW024 SCT038 OVC049 12/12 A3007 RMK A01",
  "station": "KBVS",
  "temperature": {
    "repr": "12",
    "spoken": "one two",
    "value": 12
  },
  "time": {
    "dt": "2024-06-16T19:35:00Z",
    "repr": "161935Z"
  },
  "units": {
    "accumulation": "in",
    "altimeter": "inHg",
    "altitude": "ft",
    "temperature": "C",
    "visibility": "sm",
    "wind_speed": "kt"
  },
  "visibility": {
    "repr": "10",
    "spoken": "one zero",
    "value": 10
  },
  "wind_direction": {
    "repr": "000",
    "spoken": "zero zero zero",
    "value": 0
  },
  "wind_gust": null,
  "wind_speed": {
    "repr": "00",
    "spoken": "zero",
    "value": 0
  },
  "wind_variable_direction": [],
  "wx_codes": []
}
