{
  "meta": {
    "timestamp": "2022-12-17T10:01:48.569605Z",
    "stations_updated": "2022-09-05"
  },
  "altimeter": {
    "repr": "A3019",
    "value": 30.19,
    "spoken": "three zero point one nine"
  },
  "clouds": [
    {
      "repr": "SCT006",
      "type": "SCT",
      "altitude": 6,
      "modifier": null
    },
    {
      "repr": "BKN013",
      "type": "BKN",
      "altitude": 13,
      "modifier": null
    },
    {
      "repr": "OVC039",
      "type": "OVC",
      "altitude": 39,
      "modifier": null
    }
  ],
  "flight_rules": "MVFR",
  "other": [],
  "visibility": {
    "repr": "10",
    "value": 10,
    "spoken": "one zero"
  },
  "wind_direction": {
    "repr": "070",
    "value": 70,
    "spoken": "zero seven zero"
  },
  "wind_gust": null,
  "wind_speed": {
    "repr": "03",
    "value": 3,
    "spoken": "three"
  },
  "wx_codes": [],
  "raw": "KBVS 170935Z AUTO 07003KT 10SM SCT006 BKN013 OVC039 M01/M01 A3019 RMK A01",
  "sanitized": "KBVS 170935Z 07003KT 10SM SCT006 BKN013 OVC039 M01/M01 A3019 RMK A01",
  "station": "KBVS",
  "time": {
    "repr": "170935Z",
    "dt": "2022-12-17T09:35:00Z"
  },
  "remarks": "RMK A01",
  "dewpoint": {
    "repr": "M01",
    "value": -1,
    "spoken": "minus one"
  },
  "relative_humidity": 1,
  "remarks_info": {
    "maximum_temperature_6": null,
    "minimum_temperature_6": null,
    "pressure_tendency": null,
    "precip_36_hours": null,
    "precip_24_hours": null,
    "sunshine_minutes": null,
    "codes": [],
    "dewpoint_decimal": null,
    "maximum_temperature_24": null,
    "minimum_temperature_24": null,
    "precip_hourly": null,
    "sea_level_pressure": null,
    "snow_depth": null,
    "temperature_decimal": null
  },
  "runway_visibility": [],
  "temperature": {
    "repr": "M01",
    "value": -1,
    "spoken": "minus one"
  },
  "wind_variable_direction": [],
  "density_altitude": -2011,
  "pressure_altitude": -126,
  "units": {
    "accumulation": "in",
    "altimeter": "inHg",
    "altitude": "ft",
    "temperature": "C",
    "visibility": "sm",
    "wind_speed": "kt"
  }
}
