{
  "altimeter": {
    "repr": "A2958",
    "spoken": "two nine point five eight",
    "value": 29.58
  },
  "clouds": [
    {
      "altitude": 42,
      "modifier": null,
      "repr": "FEW042",
      "type": "FEW"
    },
    {
      "altitude": 50,
      "modifier": null,
      "repr": "BKN050",
      "type": "BKN"
    }
  ],
  "density_altitude": -201,
  "dewpoint": {
    "repr": "08",
    "spoken": "eight",
    "value": 8
  },
  "flight_rules": "VFR",
  "meta": {
    "stations_updated": "2024-10-29",
    "timestamp": "2024-11-11T17:04:23.861210Z"
  },
  "other": [],
  "pressure_altitude": 484,
  "raw": "KBVS 111655Z AUTO 00000KT 9SM FEW042 BKN050 09/08 A2958 RMK A01 P0003",
  "relative_humidity": 0.9344901544791844,
  "remarks": "RMK A01 P0003",
  "remarks_info": {
    "codes": [],
    "dewpoint_decimal": null,
    "maximum_temperature_24": null,
    "maximum_temperature_6": null,
    "minimum_temperature_24": null,
    "minimum_temperature_6": null,
    "precip_24_hours": null,
    "precip_36_hours": null,
    "precip_hourly": {
      "repr": "P0003",
      "spoken": "zero point zero three",
      "value": 0.03
    },
    "pressure_tendency": null,
    "sea_level_pressure": null,
    "snow_depth": null,
    "sunshine_minutes": null,
    "temperature_decimal": null
  },
  "runway_visibility": [],
  "sanitized": "KBVS 111655Z 00000KT 9SM FEW042 BKN050 09/08 A2958 RMK A01 P0003",
  "station": "KBVS",
  "temperature": {
    "repr": "09",
    "spoken": "nine",
    "value": 9
  },
  "time": {
    "dt": "2024-11-11T16:55:00Z",
    "repr": "111655Z"
  },
  "units": {
    "accumulation": "in",
    "altimeter": "inHg",
    "altitude": "ft",
    "temperature": "C",
    "visibility": "sm",
    "wind_speed": "kt"
  },
  "visibility": {
    "repr": "9",
    "spoken": "nine",
    "value": 9
  },
  "wind_direction": {
    "repr": "000",
    "spoken": "zero zero zero",
    "value": 0
  },
  "wind_gust": null,
  "wind_speed": {
    "repr": "00",
    "spoken": "zero",
    "value": 0
  },
  "wind_variable_direction": [],
  "wx_codes": []
}
