{
  "meta": {
    "timestamp": "2023-10-25T02:40:35.748456Z",
    "stations_updated": "2023-10-01",
    "cache-timestamp": "2023-10-25T02:40:05.157000Z"
  },
  "altimeter": {
    "repr": "A2968",
    "value": 29.68,
    "spoken": "two nine point six eight"
  },
  "clouds": [
    {
      "repr": "OVC030",
      "type": "OVC",
      "altitude": 30,
      "modifier": null
    }
  ],
  "flight_rules": "MVFR",
  "other": [],
  "visibility": {
    "repr": "10",
    "value": 10,
    "spoken": "one zero"
  },
  "wind_direction": {
    "repr": "070",
    "value": 70,
    "spoken": "zero seven zero"
  },
  "wind_gust": null,
  "wind_speed": {
    "repr": "07",
    "value": 7,
    "spoken": "seven"
  },
  "wx_codes": [],
  "raw": "KBVS 250215Z AUTO 07007KT 10SM OVC030 06/06 A2968 RMK A01",
  "sanitized": "KBVS 250215Z 07007KT 10SM OVC030 06/06 A2968 RMK A01",
  "station": "KBVS",
  "time": {
    "repr": "250215Z",
    "dt": "2023-10-25T02:15:00Z"
  },
  "remarks": "RMK A01",
  "dewpoint": {
    "repr": "06",
    "value": 6,
    "spoken": "six"
  },
  "relative_humidity": 1,
  "remarks_info": {
    "maximum_temperature_6": null,
    "minimum_temperature_6": null,
    "pressure_tendency": null,
    "precip_36_hours": null,
    "precip_24_hours": null,
    "sunshine_minutes": null,
    "codes": [],
    "dewpoint_decimal": null,
    "maximum_temperature_24": null,
    "minimum_temperature_24": null,
    "precip_hourly": null,
    "sea_level_pressure": null,
    "snow_depth": null,
    "temperature_decimal": null
  },
  "runway_visibility": [],
  "temperature": {
    "repr": "06",
    "value": 6,
    "spoken": "six"
  },
  "wind_variable_direction": [],
  "density_altitude": -661,
  "pressure_altitude": 384,
  "units": {
    "accumulation": "in",
    "altimeter": "inHg",
    "altitude": "ft",
    "temperature": "C",
    "visibility": "sm",
    "wind_speed": "kt"
  }
}
