{
  "meta": {
    "timestamp": "2022-12-26T02:52:17.528701Z",
    "stations_updated": "2022-09-05"
  },
  "altimeter": {
    "repr": "A2994",
    "value": 29.94,
    "spoken": "two nine point nine four"
  },
  "clouds": [
    {
      "repr": "SCT021",
      "type": "SCT",
      "altitude": 21,
      "modifier": null
    },
    {
      "repr": "SCT095",
      "type": "SCT",
      "altitude": 95,
      "modifier": null
    }
  ],
  "flight_rules": "VFR",
  "other": [],
  "visibility": {
    "repr": "10",
    "value": 10,
    "spoken": "one zero"
  },
  "wind_direction": {
    "repr": "130",
    "value": 130,
    "spoken": "one three zero"
  },
  "wind_gust": {
    "repr": "27",
    "value": 27,
    "spoken": "two seven"
  },
  "wind_speed": {
    "repr": "20",
    "value": 20,
    "spoken": "two zero"
  },
  "wx_codes": [],
  "raw": "KBVS 260235Z AUTO 13020G27KT 10SM SCT021 SCT095 15/13 A2994 RMK A01",
  "sanitized": "KBVS 260235Z 13020G27KT 10SM SCT021 SCT095 15/13 A2994 RMK A01",
  "station": "KBVS",
  "time": {
    "repr": "260235Z",
    "dt": "2022-12-26T02:35:00Z"
  },
  "remarks": "RMK A01",
  "dewpoint": {
    "repr": "13",
    "value": 13,
    "spoken": "one three"
  },
  "relative_humidity": 0.8782860547432085,
  "remarks_info": {
    "maximum_temperature_6": null,
    "minimum_temperature_6": null,
    "pressure_tendency": null,
    "precip_36_hours": null,
    "precip_24_hours": null,
    "sunshine_minutes": null,
    "codes": [],
    "dewpoint_decimal": null,
    "maximum_temperature_24": null,
    "minimum_temperature_24": null,
    "precip_hourly": null,
    "sea_level_pressure": null,
    "snow_depth": null,
    "temperature_decimal": null
  },
  "runway_visibility": [],
  "temperature": {
    "repr": "15",
    "value": 15,
    "spoken": "one five"
  },
  "wind_variable_direction": [],
  "density_altitude": 159,
  "pressure_altitude": 124,
  "units": {
    "accumulation": "in",
    "altimeter": "inHg",
    "altitude": "ft",
    "temperature": "C",
    "visibility": "sm",
    "wind_speed": "kt"
  }
}
