{
  "altimeter": {
    "repr": "A2971",
    "spoken": "two nine point seven one",
    "value": 29.71
  },
  "clouds": [
    {
      "altitude": 8,
      "modifier": null,
      "repr": "FEW008",
      "type": "FEW"
    },
    {
      "altitude": 28,
      "modifier": null,
      "repr": "BKN028",
      "type": "BKN"
    },
    {
      "altitude": 60,
      "modifier": null,
      "repr": "OVC060",
      "type": "OVC"
    }
  ],
  "density_altitude": -451,
  "dewpoint": {
    "repr": "08",
    "spoken": "eight",
    "value": 8
  },
  "flight_rules": "MVFR",
  "meta": {
    "cache-timestamp": "2023-12-07T02:17:27.443000Z",
    "stations_updated": "2023-10-28",
    "timestamp": "2023-12-07T02:17:30.626789Z"
  },
  "other": [],
  "pressure_altitude": 354,
  "raw": "KBVS 070155Z AUTO 30008KT 10SM FEW008 BKN028 OVC060 08/08 A2971 RMK A01",
  "relative_humidity": 1,
  "remarks": "RMK A01",
  "remarks_info": {
    "codes": [],
    "dewpoint_decimal": null,
    "maximum_temperature_24": null,
    "maximum_temperature_6": null,
    "minimum_temperature_24": null,
    "minimum_temperature_6": null,
    "precip_24_hours": null,
    "precip_36_hours": null,
    "precip_hourly": null,
    "pressure_tendency": null,
    "sea_level_pressure": null,
    "snow_depth": null,
    "sunshine_minutes": null,
    "temperature_decimal": null
  },
  "runway_visibility": [],
  "sanitized": "KBVS 070155Z 30008KT 10SM FEW008 BKN028 OVC060 08/08 A2971 RMK A01",
  "station": "KBVS",
  "temperature": {
    "repr": "08",
    "spoken": "eight",
    "value": 8
  },
  "time": {
    "dt": "2023-12-07T01:55:00Z",
    "repr": "070155Z"
  },
  "units": {
    "accumulation": "in",
    "altimeter": "inHg",
    "altitude": "ft",
    "temperature": "C",
    "visibility": "sm",
    "wind_speed": "kt"
  },
  "visibility": {
    "repr": "10",
    "spoken": "one zero",
    "value": 10
  },
  "wind_direction": {
    "repr": "300",
    "spoken": "three zero zero",
    "value": 300
  },
  "wind_gust": null,
  "wind_speed": {
    "repr": "08",
    "spoken": "eight",
    "value": 8
  },
  "wind_variable_direction": [],
  "wx_codes": []
}
