{
  "altimeter": {
    "repr": "A2998",
    "spoken": "two nine point nine eight",
    "value": 29.98
  },
  "clouds": [],
  "density_altitude": -2641,
  "dewpoint": {
    "repr": "M17",
    "spoken": "minus one seven",
    "value": -17
  },
  "flight_rules": "VFR",
  "meta": {
    "cache-timestamp": "2024-01-13T19:20:04.849000Z",
    "stations_updated": "2023-10-28",
    "timestamp": "2024-01-13T19:20:27.994045Z"
  },
  "other": [],
  "pressure_altitude": 84,
  "raw": "KBVS 131855Z AUTO 00000G10KT 10SM CLR M08/M17 A2998 RMK A01",
  "relative_humidity": 0.4838548139261432,
  "remarks": "RMK A01",
  "remarks_info": {
    "codes": [],
    "dewpoint_decimal": null,
    "maximum_temperature_24": null,
    "maximum_temperature_6": null,
    "minimum_temperature_24": null,
    "minimum_temperature_6": null,
    "precip_24_hours": null,
    "precip_36_hours": null,
    "precip_hourly": null,
    "pressure_tendency": null,
    "sea_level_pressure": null,
    "snow_depth": null,
    "sunshine_minutes": null,
    "temperature_decimal": null
  },
  "runway_visibility": [],
  "sanitized": "KBVS 131855Z 00000G10KT 10SM M08/M17 A2998 RMK A01",
  "station": "KBVS",
  "temperature": {
    "repr": "M08",
    "spoken": "minus eight",
    "value": -8
  },
  "time": {
    "dt": "2024-01-13T18:55:00Z",
    "repr": "131855Z"
  },
  "units": {
    "accumulation": "in",
    "altimeter": "inHg",
    "altitude": "ft",
    "temperature": "C",
    "visibility": "sm",
    "wind_speed": "kt"
  },
  "visibility": {
    "repr": "10",
    "spoken": "one zero",
    "value": 10
  },
  "wind_direction": {
    "repr": "000",
    "spoken": "zero zero zero",
    "value": 0
  },
  "wind_gust": {
    "repr": "10",
    "spoken": "one zero",
    "value": 10
  },
  "wind_speed": {
    "repr": "00",
    "spoken": "zero",
    "value": 0
  },
  "wind_variable_direction": [],
  "wx_codes": []
}
