{
  "meta": {
    "timestamp": "2022-12-28T05:40:34.276196Z",
    "stations_updated": "2022-09-05",
    "cache-timestamp": "2022-12-28T05:40:07.217000Z"
  },
  "altimeter": {
    "repr": "A2937",
    "value": 29.37,
    "spoken": "two nine point three seven"
  },
  "clouds": [
    {
      "repr": "BKN020",
      "type": "BKN",
      "altitude": 20,
      "modifier": null
    },
    {
      "repr": "BKN025",
      "type": "BKN",
      "altitude": 25,
      "modifier": null
    },
    {
      "repr": "OVC033",
      "type": "OVC",
      "altitude": 33,
      "modifier": null
    }
  ],
  "flight_rules": "MVFR",
  "other": [],
  "visibility": {
    "repr": "10",
    "value": 10,
    "spoken": "one zero"
  },
  "wind_direction": {
    "repr": "230",
    "value": 230,
    "spoken": "two three zero"
  },
  "wind_gust": {
    "repr": "21",
    "value": 21,
    "spoken": "two one"
  },
  "wind_speed": {
    "repr": "13",
    "value": 13,
    "spoken": "one three"
  },
  "wx_codes": [],
  "raw": "KBVS 280515Z AUTO 23013G21KT 200V280 10SM BKN020 BKN025 OVC033 07/07 A2937 RMK A01",
  "sanitized": "KBVS 280515Z 23013G21KT 200V280 10SM BKN020 BKN025 OVC033 07/07 A2937 RMK A01",
  "station": "KBVS",
  "time": {
    "repr": "280515Z",
    "dt": "2022-12-28T05:15:00Z"
  },
  "remarks": "RMK A01",
  "dewpoint": {
    "repr": "07",
    "value": 7,
    "spoken": "seven"
  },
  "relative_humidity": 1,
  "remarks_info": {
    "maximum_temperature_6": null,
    "minimum_temperature_6": null,
    "pressure_tendency": null,
    "precip_36_hours": null,
    "precip_24_hours": null,
    "sunshine_minutes": null,
    "codes": [],
    "dewpoint_decimal": null,
    "maximum_temperature_24": null,
    "minimum_temperature_24": null,
    "precip_hourly": null,
    "sea_level_pressure": null,
    "snow_depth": null,
    "temperature_decimal": null
  },
  "runway_visibility": [],
  "temperature": {
    "repr": "07",
    "value": 7,
    "spoken": "seven"
  },
  "wind_variable_direction": [
    {
      "repr": "200",
      "value": 200,
      "spoken": "two zero zero"
    },
    {
      "repr": "280",
      "value": 280,
      "spoken": "two eight zero"
    }
  ],
  "density_altitude": -231,
  "pressure_altitude": 694,
  "units": {
    "accumulation": "in",
    "altimeter": "inHg",
    "altitude": "ft",
    "temperature": "C",
    "visibility": "sm",
    "wind_speed": "kt"
  }
}
