{
  "altimeter": {
    "repr": "A3014",
    "spoken": "three zero point one four",
    "value": 30.14
  },
  "clouds": [
    {
      "altitude": 22,
      "modifier": null,
      "repr": "FEW022",
      "type": "FEW"
    },
    {
      "altitude": 43,
      "modifier": null,
      "repr": "FEW043",
      "type": "FEW"
    }
  ],
  "density_altitude": -761,
  "dewpoint": {
    "repr": "08",
    "spoken": "eight",
    "value": 8
  },
  "flight_rules": "VFR",
  "meta": {
    "stations_updated": "2024-06-12",
    "timestamp": "2024-09-29T12:47:55.306789Z"
  },
  "other": [],
  "pressure_altitude": -76,
  "raw": "KBVS 291235Z AUTO 00000KT 10SM FEW022 FEW043 09/08 A3014 RMK A01",
  "relative_humidity": 0.9344901544791844,
  "remarks": "RMK A01",
  "remarks_info": {
    "codes": [],
    "dewpoint_decimal": null,
    "maximum_temperature_24": null,
    "maximum_temperature_6": null,
    "minimum_temperature_24": null,
    "minimum_temperature_6": null,
    "precip_24_hours": null,
    "precip_36_hours": null,
    "precip_hourly": null,
    "pressure_tendency": null,
    "sea_level_pressure": null,
    "snow_depth": null,
    "sunshine_minutes": null,
    "temperature_decimal": null
  },
  "runway_visibility": [],
  "sanitized": "KBVS 291235Z 00000KT 10SM FEW022 FEW043 09/08 A3014 RMK A01",
  "station": "KBVS",
  "temperature": {
    "repr": "09",
    "spoken": "nine",
    "value": 9
  },
  "time": {
    "dt": "2024-09-29T12:35:00Z",
    "repr": "291235Z"
  },
  "units": {
    "accumulation": "in",
    "altimeter": "inHg",
    "altitude": "ft",
    "temperature": "C",
    "visibility": "sm",
    "wind_speed": "kt"
  },
  "visibility": {
    "repr": "10",
    "spoken": "one zero",
    "value": 10
  },
  "wind_direction": {
    "repr": "000",
    "spoken": "zero zero zero",
    "value": 0
  },
  "wind_gust": null,
  "wind_speed": {
    "repr": "00",
    "spoken": "zero",
    "value": 0
  },
  "wind_variable_direction": [],
  "wx_codes": []
}
