{
  "meta": {
    "timestamp": "2023-01-25T15:02:17.870931Z",
    "stations_updated": "2023-01-16"
  },
  "altimeter": {
    "repr": "A3071",
    "value": 30.71,
    "spoken": "three zero point seven one"
  },
  "clouds": [
    {
      "repr": "OVC007",
      "type": "OVC",
      "altitude": 7,
      "modifier": null
    }
  ],
  "flight_rules": "IFR",
  "other": [],
  "visibility": {
    "repr": "10",
    "value": 10,
    "spoken": "one zero"
  },
  "wind_direction": {
    "repr": "030",
    "value": 30,
    "spoken": "zero three zero"
  },
  "wind_gust": null,
  "wind_speed": {
    "repr": "03",
    "value": 3,
    "spoken": "three"
  },
  "wx_codes": [],
  "raw": "KBVS 251455Z AUTO 03003KT 10SM OVC007 05/05 A3071 RMK A01",
  "sanitized": "KBVS 251455Z 03003KT 10SM OVC007 05/05 A3071 RMK A01",
  "station": "KBVS",
  "time": {
    "repr": "251455Z",
    "dt": "2023-01-25T14:55:00Z"
  },
  "remarks": "RMK A01",
  "dewpoint": {
    "repr": "05",
    "value": 5,
    "spoken": "five"
  },
  "relative_humidity": 1,
  "remarks_info": {
    "maximum_temperature_6": null,
    "minimum_temperature_6": null,
    "pressure_tendency": null,
    "precip_36_hours": null,
    "precip_24_hours": null,
    "sunshine_minutes": null,
    "codes": [],
    "dewpoint_decimal": null,
    "maximum_temperature_24": null,
    "minimum_temperature_24": null,
    "precip_hourly": null,
    "sea_level_pressure": null,
    "snow_depth": null,
    "temperature_decimal": null
  },
  "runway_visibility": [],
  "temperature": {
    "repr": "05",
    "value": 5,
    "spoken": "five"
  },
  "wind_variable_direction": [],
  "density_altitude": -1811,
  "pressure_altitude": -646,
  "units": {
    "accumulation": "in",
    "altimeter": "inHg",
    "altitude": "ft",
    "temperature": "C",
    "visibility": "sm",
    "wind_speed": "kt"
  }
}
