{
  "meta": {
    "timestamp": "2023-10-24T00:25:27.420050Z",
    "stations_updated": "2023-10-01"
  },
  "altimeter": {
    "repr": "A3001",
    "value": 30.01,
    "spoken": "three zero point zero one"
  },
  "clouds": [
    {
      "repr": "FEW055",
      "type": "FEW",
      "altitude": 55,
      "modifier": null
    }
  ],
  "flight_rules": "VFR",
  "other": [],
  "visibility": {
    "repr": "10",
    "value": 10,
    "spoken": "one zero"
  },
  "wind_direction": {
    "repr": "VRB",
    "value": null,
    "spoken": "variable"
  },
  "wind_gust": {
    "repr": "13",
    "value": 13,
    "spoken": "one three"
  },
  "wind_speed": {
    "repr": "05",
    "value": 5,
    "spoken": "five"
  },
  "wx_codes": [],
  "raw": "KBVS 240015Z AUTO VRB05G13KT 10SM FEW055 11/05 A3001 RMK A01 KBVS 232355Z AUTO VRB04KT 10SM BKN055 11/06 A3001 RMK A01 KBVS 232335Z AUTO 25007KT 210V280 10SM FEW055 11/06 A3001 RMK A01 KBVS 232315Z AUTO VRB04G10KT 10SM CLR 12/07 A3000 RMK A01 KBVS 232255Z AUTO 00000KT 10SM SCT055 SCT065 12/08 A3000 RMK A01 KBVS 232235Z AUTO 00000KT 10SM FEW046 BKN055 BKN065 12/08 A3000 RMK A01",
  "sanitized": "KBVS 240015Z VRB05G13KT 10SM FEW055 11/05 A3001 RMK A01 KBVS 232355Z AUTO VRB04KT 10SM BKN055 11/06 A3001 RMK A01 KBVS 232335Z AUTO 25007KT 210V280 10SM FEW055 11/06 A3001 RMK A01 KBVS 232315Z AUTO VRB04G10KT 10SM CLR 12/07 A3000 RMK A01 KBVS 232255Z AUTO 00000KT 10SM SCT055 SCT065 12/08 A3000 RMK A01 KBVS 232235Z AUTO 00000KT 10SM FEW046 BKN055 BKN065 12/08 A3000 RMK A01",
  "station": "KBVS",
  "time": {
    "repr": "240015Z",
    "dt": "2023-10-24T00:15:00Z"
  },
  "remarks": "RMK A01 KBVS 232355Z AUTO VRB04KT 10SM BKN055 11/06 A3001 RMK A01 KBVS 232335Z AUTO 25007KT 210V280 10SM FEW055 11/06 A3001 RMK A01 KBVS 232315Z AUTO VRB04G10KT 10SM CLR 12/07 A3000 RMK A01 KBVS 232255Z AUTO 00000KT 10SM SCT055 SCT065 12/08 A3000 RMK A01 KBVS 232235Z AUTO 00000KT 10SM FEW046 BKN055 BKN065 12/08 A3000 RMK A01",
  "dewpoint": {
    "repr": "05",
    "value": 5,
    "spoken": "five"
  },
  "relative_humidity": 0.6648461554789835,
  "remarks_info": {
    "maximum_temperature_6": null,
    "minimum_temperature_6": null,
    "pressure_tendency": null,
    "precip_36_hours": null,
    "precip_24_hours": null,
    "sunshine_minutes": null,
    "codes": [],
    "dewpoint_decimal": null,
    "maximum_temperature_24": null,
    "minimum_temperature_24": null,
    "precip_hourly": null,
    "sea_level_pressure": null,
    "snow_depth": null,
    "temperature_decimal": null
  },
  "runway_visibility": [],
  "temperature": {
    "repr": "11",
    "value": 11,
    "spoken": "one one"
  },
  "wind_variable_direction": [],
  "density_altitude": -391,
  "pressure_altitude": 54,
  "units": {
    "accumulation": "in",
    "altimeter": "inHg",
    "altitude": "ft",
    "temperature": "C",
    "visibility": "sm",
    "wind_speed": "kt"
  }
}
