{
  "meta": {
    "timestamp": "2022-11-17T14:28:55.620484Z",
    "stations_updated": "2022-09-05"
  },
  "altimeter": {
    "repr": "A3044",
    "value": 30.44,
    "spoken": "three zero point four four"
  },
  "clouds": [
    {
      "repr": "OVC002",
      "type": "OVC",
      "altitude": 2,
      "modifier": null
    }
  ],
  "flight_rules": "LIFR",
  "other": [],
  "visibility": {
    "repr": "M1/4",
    "value": null,
    "spoken": "less than one quarter"
  },
  "wind_direction": {
    "repr": "000",
    "value": 0,
    "spoken": "zero zero zero"
  },
  "wind_gust": null,
  "wind_speed": {
    "repr": "00",
    "value": 0,
    "spoken": "zero"
  },
  "wx_codes": [
    {
      "repr": "FZFG",
      "value": "Freezing Fog"
    }
  ],
  "raw": "KBVS 171415Z AUTO 00000KT M1/4SM FZFG OVC002 M01/M01 A3044 RMK A01",
  "sanitized": "KBVS 171415Z 00000KT M1/4SM FZFG OVC002 M01/M01 A3044 RMK A01",
  "station": "KBVS",
  "time": {
    "repr": "171415Z",
    "dt": "2022-11-17T14:15:00Z"
  },
  "remarks": "RMK A01",
  "dewpoint": {
    "repr": "M01",
    "value": -1,
    "spoken": "minus one"
  },
  "relative_humidity": 1,
  "remarks_info": {
    "maximum_temperature_6": null,
    "minimum_temperature_6": null,
    "pressure_tendency": null,
    "precip_36_hours": null,
    "precip_24_hours": null,
    "sunshine_minutes": null,
    "codes": [],
    "dewpoint_decimal": null,
    "maximum_temperature_24": null,
    "minimum_temperature_24": null,
    "precip_hourly": null,
    "sea_level_pressure": null,
    "snow_depth": null,
    "temperature_decimal": null
  },
  "runway_visibility": [],
  "temperature": {
    "repr": "M01",
    "value": -1,
    "spoken": "minus one"
  },
  "wind_variable_direction": [],
  "density_altitude": -2261,
  "pressure_altitude": -376,
  "units": {
    "accumulation": "in",
    "altimeter": "inHg",
    "altitude": "ft",
    "temperature": "C",
    "visibility": "sm",
    "wind_speed": "kt"
  }
}
