{
  "altimeter": {
    "repr": "A3021",
    "spoken": "three zero point two one",
    "value": 30.21
  },
  "clouds": [
    {
      "altitude": 34,
      "modifier": null,
      "repr": "BKN034",
      "type": "BKN"
    },
    {
      "altitude": 45,
      "modifier": null,
      "repr": "OVC045",
      "type": "OVC"
    }
  ],
  "density_altitude": -831,
  "dewpoint": {
    "repr": "06",
    "spoken": "six",
    "value": 6
  },
  "flight_rules": "VFR",
  "meta": {
    "stations_updated": "2024-06-12",
    "timestamp": "2024-10-18T18:09:29.446005Z"
  },
  "other": [],
  "pressure_altitude": -146,
  "raw": "KBVS 181755Z AUTO 14008G17KT 7SM BKN034 OVC045 09/06 A3021 RMK A01 P0001",
  "relative_humidity": 0.8147353662483537,
  "remarks": "RMK A01 P0001",
  "remarks_info": {
    "codes": [],
    "dewpoint_decimal": null,
    "maximum_temperature_24": null,
    "maximum_temperature_6": null,
    "minimum_temperature_24": null,
    "minimum_temperature_6": null,
    "precip_24_hours": null,
    "precip_36_hours": null,
    "precip_hourly": {
      "repr": "P0001",
      "spoken": "zero point zero one",
      "value": 0.01
    },
    "pressure_tendency": null,
    "sea_level_pressure": null,
    "snow_depth": null,
    "sunshine_minutes": null,
    "temperature_decimal": null
  },
  "runway_visibility": [],
  "sanitized": "KBVS 181755Z 14008G17KT 7SM BKN034 OVC045 09/06 A3021 RMK A01 P0001",
  "station": "KBVS",
  "temperature": {
    "repr": "09",
    "spoken": "nine",
    "value": 9
  },
  "time": {
    "dt": "2024-10-18T17:55:00Z",
    "repr": "181755Z"
  },
  "units": {
    "accumulation": "in",
    "altimeter": "inHg",
    "altitude": "ft",
    "temperature": "C",
    "visibility": "sm",
    "wind_speed": "kt"
  },
  "visibility": {
    "repr": "7",
    "spoken": "seven",
    "value": 7
  },
  "wind_direction": {
    "repr": "140",
    "spoken": "one four zero",
    "value": 140
  },
  "wind_gust": {
    "repr": "17",
    "spoken": "one seven",
    "value": 17
  },
  "wind_speed": {
    "repr": "08",
    "spoken": "eight",
    "value": 8
  },
  "wind_variable_direction": [],
  "wx_codes": []
}
