{
  "altimeter": {
    "repr": "A3010",
    "spoken": "three zero point one zero",
    "value": 30.1
  },
  "clouds": [
    {
      "altitude": 33,
      "modifier": null,
      "repr": "SCT033",
      "type": "SCT"
    },
    {
      "altitude": 50,
      "modifier": null,
      "repr": "OVC050",
      "type": "OVC"
    }
  ],
  "density_altitude": 719,
  "dewpoint": {
    "repr": "14",
    "spoken": "one four",
    "value": 14
  },
  "flight_rules": "VFR",
  "meta": {
    "stations_updated": "2024-06-12",
    "timestamp": "2024-07-24T19:20:35.800117Z"
  },
  "other": [],
  "pressure_altitude": -36,
  "raw": "KBVS 241855Z AUTO 00000G10KT 10SM SCT033 OVC050 21/14 A3010 RMK A01",
  "relative_humidity": 0.6426133072961847,
  "remarks": "RMK A01",
  "remarks_info": {
    "codes": [],
    "dewpoint_decimal": null,
    "maximum_temperature_24": null,
    "maximum_temperature_6": null,
    "minimum_temperature_24": null,
    "minimum_temperature_6": null,
    "precip_24_hours": null,
    "precip_36_hours": null,
    "precip_hourly": null,
    "pressure_tendency": null,
    "sea_level_pressure": null,
    "snow_depth": null,
    "sunshine_minutes": null,
    "temperature_decimal": null
  },
  "runway_visibility": [],
  "sanitized": "KBVS 241855Z 00000G10KT 10SM SCT033 OVC050 21/14 A3010 RMK A01",
  "station": "KBVS",
  "temperature": {
    "repr": "21",
    "spoken": "two one",
    "value": 21
  },
  "time": {
    "dt": "2024-07-24T18:55:00Z",
    "repr": "241855Z"
  },
  "units": {
    "accumulation": "in",
    "altimeter": "inHg",
    "altitude": "ft",
    "temperature": "C",
    "visibility": "sm",
    "wind_speed": "kt"
  },
  "visibility": {
    "repr": "10",
    "spoken": "one zero",
    "value": 10
  },
  "wind_direction": {
    "repr": "000",
    "spoken": "zero zero zero",
    "value": 0
  },
  "wind_gust": {
    "repr": "10",
    "spoken": "one zero",
    "value": 10
  },
  "wind_speed": {
    "repr": "00",
    "spoken": "zero",
    "value": 0
  },
  "wind_variable_direction": [],
  "wx_codes": []
}
