{
  "meta": {
    "timestamp": "2023-01-02T06:42:38.206553Z",
    "stations_updated": "2022-12-27",
    "cache-timestamp": "2023-01-02T06:42:08.717000Z"
  },
  "altimeter": {
    "repr": "A3001",
    "value": 30.01,
    "spoken": "three zero point zero one"
  },
  "clouds": [],
  "flight_rules": "VFR",
  "other": [],
  "visibility": {
    "repr": "10",
    "value": 10,
    "spoken": "one zero"
  },
  "wind_direction": {
    "repr": "040",
    "value": 40,
    "spoken": "zero four zero"
  },
  "wind_gust": {
    "repr": "11",
    "value": 11,
    "spoken": "one one"
  },
  "wind_speed": {
    "repr": "05",
    "value": 5,
    "spoken": "five"
  },
  "wx_codes": [],
  "raw": "KBVS 020615Z AUTO 04005G11KT 10SM CLR 03/03 A3001 RMK A01",
  "sanitized": "KBVS 020615Z 04005G11KT 10SM 03/03 A3001 RMK A01",
  "station": "KBVS",
  "time": {
    "repr": "020615Z",
    "dt": "2023-01-02T06:15:00Z"
  },
  "remarks": "RMK A01",
  "dewpoint": {
    "repr": "03",
    "value": 3,
    "spoken": "three"
  },
  "relative_humidity": 1,
  "remarks_info": {
    "maximum_temperature_6": null,
    "minimum_temperature_6": null,
    "pressure_tendency": null,
    "precip_36_hours": null,
    "precip_24_hours": null,
    "sunshine_minutes": null,
    "codes": [],
    "dewpoint_decimal": null,
    "maximum_temperature_24": null,
    "minimum_temperature_24": null,
    "precip_hourly": null,
    "sea_level_pressure": null,
    "snow_depth": null,
    "temperature_decimal": null
  },
  "runway_visibility": [],
  "temperature": {
    "repr": "03",
    "value": 3,
    "spoken": "three"
  },
  "wind_variable_direction": [],
  "density_altitude": -1351,
  "pressure_altitude": 54,
  "units": {
    "accumulation": "in",
    "altimeter": "inHg",
    "altitude": "ft",
    "temperature": "C",
    "visibility": "sm",
    "wind_speed": "kt"
  }
}
