{
  "meta": {
    "timestamp": "2022-12-30T16:33:57.449295Z",
    "stations_updated": "2022-12-27"
  },
  "altimeter": {
    "repr": "A2946",
    "value": 29.46,
    "spoken": "two nine point four six"
  },
  "clouds": [
    {
      "repr": "BKN018",
      "type": "BKN",
      "altitude": 18,
      "modifier": null
    },
    {
      "repr": "OVC024",
      "type": "OVC",
      "altitude": 24,
      "modifier": null
    }
  ],
  "flight_rules": "MVFR",
  "other": [],
  "visibility": {
    "repr": "10",
    "value": 10,
    "spoken": "one zero"
  },
  "wind_direction": {
    "repr": "150",
    "value": 150,
    "spoken": "one five zero"
  },
  "wind_gust": null,
  "wind_speed": {
    "repr": "07",
    "value": 7,
    "spoken": "seven"
  },
  "wx_codes": [],
  "raw": "KBVS 301615Z AUTO 15007KT 100V160 10SM BKN018 OVC024 09/08 A2946 RMK A01",
  "sanitized": "KBVS 301615Z 15007KT 100V160 10SM BKN018 OVC024 09/08 A2946 RMK A01",
  "station": "KBVS",
  "time": {
    "repr": "301615Z",
    "dt": "2022-12-30T16:15:00Z"
  },
  "remarks": "RMK A01",
  "dewpoint": {
    "repr": "08",
    "value": 8,
    "spoken": "eight"
  },
  "relative_humidity": 0.9344901544791844,
  "remarks_info": {
    "maximum_temperature_6": null,
    "minimum_temperature_6": null,
    "pressure_tendency": null,
    "precip_36_hours": null,
    "precip_24_hours": null,
    "sunshine_minutes": null,
    "codes": [],
    "dewpoint_decimal": null,
    "maximum_temperature_24": null,
    "minimum_temperature_24": null,
    "precip_hourly": null,
    "sea_level_pressure": null,
    "snow_depth": null,
    "temperature_decimal": null
  },
  "runway_visibility": [],
  "temperature": {
    "repr": "09",
    "value": 9,
    "spoken": "nine"
  },
  "wind_variable_direction": [
    {
      "repr": "100",
      "value": 100,
      "spoken": "one zero zero"
    },
    {
      "repr": "160",
      "value": 160,
      "spoken": "one six zero"
    }
  ],
  "density_altitude": -81,
  "pressure_altitude": 604,
  "units": {
    "accumulation": "in",
    "altimeter": "inHg",
    "altitude": "ft",
    "temperature": "C",
    "visibility": "sm",
    "wind_speed": "kt"
  }
}
