{
  "meta": {
    "timestamp": "2023-01-02T23:02:10.685417Z",
    "stations_updated": "2022-12-27"
  },
  "altimeter": {
    "repr": "A2967",
    "value": 29.67,
    "spoken": "two nine point six seven"
  },
  "clouds": [],
  "flight_rules": "VFR",
  "other": [],
  "visibility": {
    "repr": "10",
    "value": 10,
    "spoken": "one zero"
  },
  "wind_direction": {
    "repr": "090",
    "value": 90,
    "spoken": "zero nine zero"
  },
  "wind_gust": null,
  "wind_speed": {
    "repr": "06",
    "value": 6,
    "spoken": "six"
  },
  "wx_codes": [],
  "raw": "KBVS 022255Z AUTO 09006KT 10SM CLR 08/03 A2967 RMK A01",
  "sanitized": "KBVS 022255Z 09006KT 10SM 08/03 A2967 RMK A01",
  "station": "KBVS",
  "time": {
    "repr": "022255Z",
    "dt": "2023-01-02T22:55:00Z"
  },
  "remarks": "RMK A01",
  "dewpoint": {
    "repr": "03",
    "value": 3,
    "spoken": "three"
  },
  "relative_humidity": 0.7067933943079971,
  "remarks_info": {
    "maximum_temperature_6": null,
    "minimum_temperature_6": null,
    "pressure_tendency": null,
    "precip_36_hours": null,
    "precip_24_hours": null,
    "sunshine_minutes": null,
    "codes": [],
    "dewpoint_decimal": null,
    "maximum_temperature_24": null,
    "minimum_temperature_24": null,
    "precip_hourly": null,
    "sea_level_pressure": null,
    "snow_depth": null,
    "temperature_decimal": null
  },
  "runway_visibility": [],
  "temperature": {
    "repr": "08",
    "value": 8,
    "spoken": "eight"
  },
  "wind_variable_direction": [],
  "density_altitude": -411,
  "pressure_altitude": 394,
  "units": {
    "accumulation": "in",
    "altimeter": "inHg",
    "altitude": "ft",
    "temperature": "C",
    "visibility": "sm",
    "wind_speed": "kt"
  }
}
