{
  "meta": {
    "timestamp": "2023-10-11T09:23:41.748919Z",
    "stations_updated": "2023-10-01"
  },
  "altimeter": {
    "repr": "A2948",
    "value": 29.48,
    "spoken": "two nine point four eight"
  },
  "clouds": [
    {
      "repr": "BKN030",
      "type": "BKN",
      "altitude": 30,
      "modifier": null
    },
    {
      "repr": "OVC035",
      "type": "OVC",
      "altitude": 35,
      "modifier": null
    }
  ],
  "flight_rules": "MVFR",
  "other": [],
  "visibility": {
    "repr": "10",
    "value": 10,
    "spoken": "one zero"
  },
  "wind_direction": {
    "repr": "110",
    "value": 110,
    "spoken": "one one zero"
  },
  "wind_gust": {
    "repr": "18",
    "value": 18,
    "spoken": "one eight"
  },
  "wind_speed": {
    "repr": "08",
    "value": 8,
    "spoken": "eight"
  },
  "wx_codes": [],
  "raw": "KBVS 110915Z AUTO 11008G18KT 10SM BKN030 OVC035 13/11 A2948 RMK A01",
  "sanitized": "KBVS 110915Z 11008G18KT 10SM BKN030 OVC035 13/11 A2948 RMK A01",
  "station": "KBVS",
  "time": {
    "repr": "110915Z",
    "dt": "2023-10-11T09:15:00Z"
  },
  "remarks": "RMK A01",
  "dewpoint": {
    "repr": "11",
    "value": 11,
    "spoken": "one one"
  },
  "relative_humidity": 0.8764963436839737,
  "remarks_info": {
    "maximum_temperature_6": null,
    "minimum_temperature_6": null,
    "pressure_tendency": null,
    "precip_36_hours": null,
    "precip_24_hours": null,
    "sunshine_minutes": null,
    "codes": [],
    "dewpoint_decimal": null,
    "maximum_temperature_24": null,
    "minimum_temperature_24": null,
    "precip_hourly": null,
    "sea_level_pressure": null,
    "snow_depth": null,
    "temperature_decimal": null
  },
  "runway_visibility": [],
  "temperature": {
    "repr": "13",
    "value": 13,
    "spoken": "one three"
  },
  "wind_variable_direction": [],
  "density_altitude": 379,
  "pressure_altitude": 584,
  "units": {
    "accumulation": "in",
    "altimeter": "inHg",
    "altitude": "ft",
    "temperature": "C",
    "visibility": "sm",
    "wind_speed": "kt"
  }
}
