{
  "altimeter": {
    "repr": "A3025",
    "spoken": "three zero point two five",
    "value": 30.25
  },
  "clouds": [
    {
      "altitude": 23,
      "modifier": null,
      "repr": "FEW023",
      "type": "FEW"
    },
    {
      "altitude": 29,
      "modifier": null,
      "repr": "SCT029",
      "type": "SCT"
    },
    {
      "altitude": 36,
      "modifier": null,
      "repr": "BKN036",
      "type": "BKN"
    }
  ],
  "density_altitude": -1111,
  "dewpoint": {
    "repr": "07",
    "spoken": "seven",
    "value": 7
  },
  "flight_rules": "VFR",
  "meta": {
    "stations_updated": "2023-10-28",
    "timestamp": "2024-01-05T19:01:16.976423Z"
  },
  "other": [],
  "pressure_altitude": -186,
  "raw": "KBVS 051855Z AUTO 10008G15KT 10SM FEW023 SCT029 BKN036 07/07 A3025 RMK A01",
  "relative_humidity": 1,
  "remarks": "RMK A01",
  "remarks_info": {
    "codes": [],
    "dewpoint_decimal": null,
    "maximum_temperature_24": null,
    "maximum_temperature_6": null,
    "minimum_temperature_24": null,
    "minimum_temperature_6": null,
    "precip_24_hours": null,
    "precip_36_hours": null,
    "precip_hourly": null,
    "pressure_tendency": null,
    "sea_level_pressure": null,
    "snow_depth": null,
    "sunshine_minutes": null,
    "temperature_decimal": null
  },
  "runway_visibility": [],
  "sanitized": "KBVS 051855Z 10008G15KT 10SM FEW023 SCT029 BKN036 07/07 A3025 RMK A01",
  "station": "KBVS",
  "temperature": {
    "repr": "07",
    "spoken": "seven",
    "value": 7
  },
  "time": {
    "dt": "2024-01-05T18:55:00Z",
    "repr": "051855Z"
  },
  "units": {
    "accumulation": "in",
    "altimeter": "inHg",
    "altitude": "ft",
    "temperature": "C",
    "visibility": "sm",
    "wind_speed": "kt"
  },
  "visibility": {
    "repr": "10",
    "spoken": "one zero",
    "value": 10
  },
  "wind_direction": {
    "repr": "100",
    "spoken": "one zero zero",
    "value": 100
  },
  "wind_gust": {
    "repr": "15",
    "spoken": "one five",
    "value": 15
  },
  "wind_speed": {
    "repr": "08",
    "spoken": "eight",
    "value": 8
  },
  "wind_variable_direction": [],
  "wx_codes": []
}
