{
  "altimeter": {
    "repr": "A2956",
    "spoken": "two nine point five six",
    "value": 29.56
  },
  "clouds": [
    {
      "altitude": 60,
      "modifier": null,
      "repr": "FEW060",
      "type": "FEW"
    },
    {
      "altitude": 70,
      "modifier": null,
      "repr": "SCT070",
      "type": "SCT"
    },
    {
      "altitude": 100,
      "modifier": null,
      "repr": "BKN100",
      "type": "BKN"
    }
  ],
  "density_altitude": 299,
  "dewpoint": {
    "repr": "07",
    "spoken": "seven",
    "value": 7
  },
  "flight_rules": "VFR",
  "meta": {
    "stations_updated": "2024-10-29",
    "timestamp": "2024-11-22T20:09:02.984263Z"
  },
  "other": [],
  "pressure_altitude": 504,
  "raw": "KBVS 221955Z AUTO 14012G18KT 10SM FEW060 SCT070 BKN100 13/07 A2956 RMK A01",
  "relative_humidity": 0.6691258630398929,
  "remarks": "RMK A01",
  "remarks_info": {
    "codes": [],
    "dewpoint_decimal": null,
    "maximum_temperature_24": null,
    "maximum_temperature_6": null,
    "minimum_temperature_24": null,
    "minimum_temperature_6": null,
    "precip_24_hours": null,
    "precip_36_hours": null,
    "precip_hourly": null,
    "pressure_tendency": null,
    "sea_level_pressure": null,
    "snow_depth": null,
    "sunshine_minutes": null,
    "temperature_decimal": null
  },
  "runway_visibility": [],
  "sanitized": "KBVS 221955Z 14012G18KT 10SM FEW060 SCT070 BKN100 13/07 A2956 RMK A01",
  "station": "KBVS",
  "temperature": {
    "repr": "13",
    "spoken": "one three",
    "value": 13
  },
  "time": {
    "dt": "2024-11-22T19:55:00Z",
    "repr": "221955Z"
  },
  "units": {
    "accumulation": "in",
    "altimeter": "inHg",
    "altitude": "ft",
    "temperature": "C",
    "visibility": "sm",
    "wind_speed": "kt"
  },
  "visibility": {
    "repr": "10",
    "spoken": "one zero",
    "value": 10
  },
  "wind_direction": {
    "repr": "140",
    "spoken": "one four zero",
    "value": 140
  },
  "wind_gust": {
    "repr": "18",
    "spoken": "one eight",
    "value": 18
  },
  "wind_speed": {
    "repr": "12",
    "spoken": "one two",
    "value": 12
  },
  "wind_variable_direction": [],
  "wx_codes": []
}
