{
  "meta": {
    "timestamp": "2022-12-22T18:06:24.566551Z",
    "stations_updated": "2022-09-05"
  },
  "altimeter": {
    "repr": "A3048",
    "value": 30.48,
    "spoken": "three zero point four eight"
  },
  "clouds": [],
  "flight_rules": "VFR",
  "other": [],
  "visibility": {
    "repr": "10",
    "value": 10,
    "spoken": "one zero"
  },
  "wind_direction": {
    "repr": "040",
    "value": 40,
    "spoken": "zero four zero"
  },
  "wind_gust": {
    "repr": "13",
    "value": 13,
    "spoken": "one three"
  },
  "wind_speed": {
    "repr": "08",
    "value": 8,
    "spoken": "eight"
  },
  "wx_codes": [],
  "raw": "KBVS 221755Z AUTO 04008G13KT 10SM CLR M10/M17 A3048 RMK A01",
  "sanitized": "KBVS 221755Z 04008G13KT 10SM M10/M17 A3048 RMK A01",
  "station": "KBVS",
  "time": {
    "repr": "221755Z",
    "dt": "2022-12-22T17:55:00Z"
  },
  "remarks": "RMK A01",
  "dewpoint": {
    "repr": "M17",
    "value": -17,
    "spoken": "minus one seven"
  },
  "relative_humidity": 0.5658195977076498,
  "remarks_info": {
    "maximum_temperature_6": null,
    "minimum_temperature_6": null,
    "pressure_tendency": null,
    "precip_36_hours": null,
    "precip_24_hours": null,
    "sunshine_minutes": null,
    "codes": [],
    "dewpoint_decimal": null,
    "maximum_temperature_24": null,
    "minimum_temperature_24": null,
    "precip_hourly": null,
    "sea_level_pressure": null,
    "snow_depth": null,
    "temperature_decimal": null
  },
  "runway_visibility": [],
  "temperature": {
    "repr": "M10",
    "value": -10,
    "spoken": "minus one zero"
  },
  "wind_variable_direction": [],
  "density_altitude": -3381,
  "pressure_altitude": -416,
  "units": {
    "accumulation": "in",
    "altimeter": "inHg",
    "altitude": "ft",
    "temperature": "C",
    "visibility": "sm",
    "wind_speed": "kt"
  }
}
