{
  "meta": {
    "timestamp": "2023-10-23T19:01:26.680621Z",
    "stations_updated": "2023-10-01"
  },
  "altimeter": {
    "repr": "A3001",
    "value": 30.01,
    "spoken": "three zero point zero one"
  },
  "clouds": [
    {
      "repr": "BKN016",
      "type": "BKN",
      "altitude": 16,
      "modifier": null
    },
    {
      "repr": "BKN020",
      "type": "BKN",
      "altitude": 20,
      "modifier": null
    },
    {
      "repr": "OVC060",
      "type": "OVC",
      "altitude": 60,
      "modifier": null
    }
  ],
  "flight_rules": "MVFR",
  "other": [],
  "visibility": {
    "repr": "10",
    "value": 10,
    "spoken": "one zero"
  },
  "wind_direction": {
    "repr": "000",
    "value": 0,
    "spoken": "zero zero zero"
  },
  "wind_gust": null,
  "wind_speed": {
    "repr": "00",
    "value": 0,
    "spoken": "zero"
  },
  "wx_codes": [],
  "raw": "KBVS 231855Z AUTO 00000KT 10SM BKN016 BKN020 OVC060 11/11 A3001 RMK A01 KBVS 231835Z AUTO 00000KT 10SM BKN021 BKN027 BKN060 11/10 A3000 RMK A01 KBVS 231815Z AUTO 00000KT 10SM FEW020 SCT026 BKN060 11/11 A3000 RMK A01 KBVS 231755Z AUTO 00000KT 10SM FEW011 BKN019 OVC026 11/11 A3000 RMK A01 KBVS 231735Z AUTO 00000KT 10SM SCT012 OVC019 11/11 A3000 RMK A01 KBVS 231715Z AUTO 00000KT 10SM FEW011 BKN019 OVC023 11/11 A3000 RMK A01",
  "sanitized": "KBVS 231855Z 00000KT 10SM BKN016 BKN020 OVC060 11/11 A3001 RMK A01 KBVS 231835Z AUTO 00000KT 10SM BKN021 BKN027 BKN060 11/10 A3000 RMK A01 KBVS 231815Z AUTO 00000KT 10SM FEW020 SCT026 BKN060 11/11 A3000 RMK A01 KBVS 231755Z AUTO 00000KT 10SM FEW011 BKN019 OVC026 11/11 A3000 RMK A01 KBVS 231735Z AUTO 00000KT 10SM SCT012 OVC019 11/11 A3000 RMK A01 KBVS 231715Z AUTO 00000KT 10SM FEW011 BKN019 OVC023 11/11 A3000 RMK A01",
  "station": "KBVS",
  "time": {
    "repr": "231855Z",
    "dt": "2023-10-23T18:55:00Z"
  },
  "remarks": "RMK A01 KBVS 231835Z AUTO 00000KT 10SM BKN021 BKN027 BKN060 11/10 A3000 RMK A01 KBVS 231815Z AUTO 00000KT 10SM FEW020 SCT026 BKN060 11/11 A3000 RMK A01 KBVS 231755Z AUTO 00000KT 10SM FEW011 BKN019 OVC026 11/11 A3000 RMK A01 KBVS 231735Z AUTO 00000KT 10SM SCT012 OVC019 11/11 A3000 RMK A01 KBVS 231715Z AUTO 00000KT 10SM FEW011 BKN019 OVC023 11/11 A3000 RMK A01",
  "dewpoint": {
    "repr": "11",
    "value": 11,
    "spoken": "one one"
  },
  "relative_humidity": 1,
  "remarks_info": {
    "maximum_temperature_6": null,
    "minimum_temperature_6": null,
    "pressure_tendency": null,
    "precip_36_hours": null,
    "precip_24_hours": null,
    "sunshine_minutes": null,
    "codes": [],
    "dewpoint_decimal": null,
    "maximum_temperature_24": null,
    "minimum_temperature_24": null,
    "precip_hourly": null,
    "sea_level_pressure": null,
    "snow_depth": null,
    "temperature_decimal": null
  },
  "runway_visibility": [],
  "temperature": {
    "repr": "11",
    "value": 11,
    "spoken": "one one"
  },
  "wind_variable_direction": [],
  "density_altitude": -391,
  "pressure_altitude": 54,
  "units": {
    "accumulation": "in",
    "altimeter": "inHg",
    "altitude": "ft",
    "temperature": "C",
    "visibility": "sm",
    "wind_speed": "kt"
  }
}
