{
  "meta": {
    "timestamp": "2023-05-05T16:41:21.657003Z",
    "stations_updated": "2023-03-11"
  },
  "altimeter": {
    "repr": "A2983",
    "value": 29.83,
    "spoken": "two nine point eight three"
  },
  "clouds": [
    {
      "repr": "FEW013",
      "type": "FEW",
      "altitude": 13,
      "modifier": null
    },
    {
      "repr": "BKN018",
      "type": "BKN",
      "altitude": 18,
      "modifier": null
    },
    {
      "repr": "BKN022",
      "type": "BKN",
      "altitude": 22,
      "modifier": null
    }
  ],
  "flight_rules": "MVFR",
  "other": [],
  "visibility": {
    "repr": "10",
    "value": 10,
    "spoken": "one zero"
  },
  "wind_direction": {
    "repr": "000",
    "value": 0,
    "spoken": "zero zero zero"
  },
  "wind_gust": null,
  "wind_speed": {
    "repr": "00",
    "value": 0,
    "spoken": "zero"
  },
  "wx_codes": [],
  "raw": "KBVS 051635Z AUTO 00000KT 10SM FEW013 BKN018 BKN022 10/10 A2983 RMK A01",
  "sanitized": "KBVS 051635Z 00000KT 10SM FEW013 BKN018 BKN022 10/10 A2983 RMK A01",
  "station": "KBVS",
  "time": {
    "repr": "051635Z",
    "dt": "2023-05-05T16:35:00Z"
  },
  "remarks": "RMK A01",
  "dewpoint": {
    "repr": "10",
    "value": 10,
    "spoken": "one zero"
  },
  "relative_humidity": 1,
  "remarks_info": {
    "maximum_temperature_6": null,
    "minimum_temperature_6": null,
    "pressure_tendency": null,
    "precip_36_hours": null,
    "precip_24_hours": null,
    "sunshine_minutes": null,
    "codes": [],
    "dewpoint_decimal": null,
    "maximum_temperature_24": null,
    "minimum_temperature_24": null,
    "precip_hourly": null,
    "sea_level_pressure": null,
    "snow_depth": null,
    "temperature_decimal": null
  },
  "runway_visibility": [],
  "temperature": {
    "repr": "10",
    "value": 10,
    "spoken": "one zero"
  },
  "wind_variable_direction": [],
  "density_altitude": -331,
  "pressure_altitude": 234,
  "units": {
    "accumulation": "in",
    "altimeter": "inHg",
    "altitude": "ft",
    "temperature": "C",
    "visibility": "sm",
    "wind_speed": "kt"
  }
}
