{
  "meta": {
    "timestamp": "2022-11-30T18:34:10.999066Z",
    "stations_updated": "2022-09-05"
  },
  "altimeter": {
    "repr": "A2953",
    "value": 29.53,
    "spoken": "two nine point five three"
  },
  "clouds": [
    {
      "repr": "BKN095",
      "type": "BKN",
      "altitude": 95,
      "modifier": null
    }
  ],
  "flight_rules": "VFR",
  "other": [],
  "visibility": {
    "repr": "10",
    "value": 10,
    "spoken": "one zero"
  },
  "wind_direction": {
    "repr": "VRB",
    "value": null,
    "spoken": "variable"
  },
  "wind_gust": {
    "repr": "11",
    "value": 11,
    "spoken": "one one"
  },
  "wind_speed": {
    "repr": "05",
    "value": 5,
    "spoken": "five"
  },
  "wx_codes": [],
  "raw": "KBVS 301815Z AUTO VRB05G11KT 10SM BKN095 04/M01 A2953 RMK A01",
  "sanitized": "KBVS 301815Z VRB05G11KT 10SM BKN095 04/M01 A2953 RMK A01",
  "station": "KBVS",
  "time": {
    "repr": "301815Z",
    "dt": "2022-11-30T18:15:00Z"
  },
  "remarks": "RMK A01",
  "dewpoint": {
    "repr": "M01",
    "value": -1,
    "spoken": "minus one"
  },
  "relative_humidity": 0.6987643367890719,
  "remarks_info": {
    "maximum_temperature_6": null,
    "minimum_temperature_6": null,
    "pressure_tendency": null,
    "precip_36_hours": null,
    "precip_24_hours": null,
    "sunshine_minutes": null,
    "codes": [],
    "dewpoint_decimal": null,
    "maximum_temperature_24": null,
    "minimum_temperature_24": null,
    "precip_hourly": null,
    "sea_level_pressure": null,
    "snow_depth": null,
    "temperature_decimal": null
  },
  "runway_visibility": [],
  "temperature": {
    "repr": "04",
    "value": 4,
    "spoken": "four"
  },
  "wind_variable_direction": [],
  "density_altitude": -751,
  "pressure_altitude": 534,
  "units": {
    "accumulation": "in",
    "altimeter": "inHg",
    "altitude": "ft",
    "temperature": "C",
    "visibility": "sm",
    "wind_speed": "kt"
  }
}
