{
  "altimeter": {
    "repr": "A3002",
    "spoken": "three zero point zero two",
    "value": 30.02
  },
  "clouds": [
    {
      "altitude": 37,
      "modifier": null,
      "repr": "SCT037",
      "type": "SCT"
    },
    {
      "altitude": 45,
      "modifier": null,
      "repr": "SCT045",
      "type": "SCT"
    },
    {
      "altitude": 50,
      "modifier": null,
      "repr": "SCT050",
      "type": "SCT"
    }
  ],
  "density_altitude": -521,
  "dewpoint": {
    "repr": "07",
    "spoken": "seven",
    "value": 7
  },
  "flight_rules": "VFR",
  "meta": {
    "stations_updated": "2024-01-01",
    "timestamp": "2024-03-26T20:01:56.108426Z"
  },
  "other": [],
  "pressure_altitude": 44,
  "raw": "KBVS 261955Z AUTO 21008G13KT 10SM SCT037 SCT045 SCT050 10/07 A3002 RMK A01",
  "relative_humidity": 0.8160587206481518,
  "remarks": "RMK A01",
  "remarks_info": {
    "codes": [],
    "dewpoint_decimal": null,
    "maximum_temperature_24": null,
    "maximum_temperature_6": null,
    "minimum_temperature_24": null,
    "minimum_temperature_6": null,
    "precip_24_hours": null,
    "precip_36_hours": null,
    "precip_hourly": null,
    "pressure_tendency": null,
    "sea_level_pressure": null,
    "snow_depth": null,
    "sunshine_minutes": null,
    "temperature_decimal": null
  },
  "runway_visibility": [],
  "sanitized": "KBVS 261955Z 21008G13KT 10SM SCT037 SCT045 SCT050 10/07 A3002 RMK A01",
  "station": "KBVS",
  "temperature": {
    "repr": "10",
    "spoken": "one zero",
    "value": 10
  },
  "time": {
    "dt": "2024-03-26T19:55:00Z",
    "repr": "261955Z"
  },
  "units": {
    "accumulation": "in",
    "altimeter": "inHg",
    "altitude": "ft",
    "temperature": "C",
    "visibility": "sm",
    "wind_speed": "kt"
  },
  "visibility": {
    "repr": "10",
    "spoken": "one zero",
    "value": 10
  },
  "wind_direction": {
    "repr": "210",
    "spoken": "two one zero",
    "value": 210
  },
  "wind_gust": {
    "repr": "13",
    "spoken": "one three",
    "value": 13
  },
  "wind_speed": {
    "repr": "08",
    "spoken": "eight",
    "value": 8
  },
  "wind_variable_direction": [],
  "wx_codes": []
}
