{
  "altimeter": {
    "repr": "A3023",
    "spoken": "three zero point two three",
    "value": 30.23
  },
  "clouds": [
    {
      "altitude": 25,
      "modifier": null,
      "repr": "SCT025",
      "type": "SCT"
    },
    {
      "altitude": 30,
      "modifier": null,
      "repr": "BKN030",
      "type": "BKN"
    },
    {
      "altitude": 36,
      "modifier": null,
      "repr": "BKN036",
      "type": "BKN"
    }
  ],
  "density_altitude": -1331,
  "dewpoint": {
    "repr": "05",
    "spoken": "five",
    "value": 5
  },
  "flight_rules": "MVFR",
  "meta": {
    "stations_updated": "2024-01-01",
    "timestamp": "2024-03-08T15:23:34.185694Z"
  },
  "other": [],
  "pressure_altitude": -166,
  "raw": "KBVS 081515Z AUTO 08008KT 10SM SCT025 BKN030 BKN036 05/05 A3023 RMK A01",
  "relative_humidity": 1,
  "remarks": "RMK A01",
  "remarks_info": {
    "codes": [],
    "dewpoint_decimal": null,
    "maximum_temperature_24": null,
    "maximum_temperature_6": null,
    "minimum_temperature_24": null,
    "minimum_temperature_6": null,
    "precip_24_hours": null,
    "precip_36_hours": null,
    "precip_hourly": null,
    "pressure_tendency": null,
    "sea_level_pressure": null,
    "snow_depth": null,
    "sunshine_minutes": null,
    "temperature_decimal": null
  },
  "runway_visibility": [],
  "sanitized": "KBVS 081515Z 08008KT 10SM SCT025 BKN030 BKN036 05/05 A3023 RMK A01",
  "station": "KBVS",
  "temperature": {
    "repr": "05",
    "spoken": "five",
    "value": 5
  },
  "time": {
    "dt": "2024-03-08T15:15:00Z",
    "repr": "081515Z"
  },
  "units": {
    "accumulation": "in",
    "altimeter": "inHg",
    "altitude": "ft",
    "temperature": "C",
    "visibility": "sm",
    "wind_speed": "kt"
  },
  "visibility": {
    "repr": "10",
    "spoken": "one zero",
    "value": 10
  },
  "wind_direction": {
    "repr": "080",
    "spoken": "zero eight zero",
    "value": 80
  },
  "wind_gust": null,
  "wind_speed": {
    "repr": "08",
    "spoken": "eight",
    "value": 8
  },
  "wind_variable_direction": [],
  "wx_codes": []
}
