{
  "meta": {
    "timestamp": "2023-02-23T22:41:04.154147Z",
    "stations_updated": "2023-01-30",
    "cache-timestamp": "2023-02-23T22:40:05.074000Z"
  },
  "altimeter": {
    "repr": "A2984",
    "value": 29.84,
    "spoken": "two nine point eight four"
  },
  "clouds": [
    {
      "repr": "FEW095",
      "type": "FEW",
      "altitude": 95,
      "modifier": null
    }
  ],
  "flight_rules": "VFR",
  "other": [],
  "visibility": {
    "repr": "10",
    "value": 10,
    "spoken": "one zero"
  },
  "wind_direction": {
    "repr": "VRB",
    "value": null,
    "spoken": "variable"
  },
  "wind_gust": null,
  "wind_speed": {
    "repr": "06",
    "value": 6,
    "spoken": "six"
  },
  "wx_codes": [],
  "raw": "KBVS 232215Z AUTO VRB06KT 310V010 10SM FEW095 02/M10 A2984 RMK A01",
  "sanitized": "KBVS 232215Z VRB06KT 310V010 10SM FEW095 02/M10 A2984 RMK A01",
  "station": "KBVS",
  "time": {
    "repr": "232215Z",
    "dt": "2023-02-23T22:15:00Z"
  },
  "remarks": "RMK A01",
  "dewpoint": {
    "repr": "M10",
    "value": -10,
    "spoken": "minus one zero"
  },
  "relative_humidity": 0.4062866629389935,
  "remarks_info": {
    "maximum_temperature_6": null,
    "minimum_temperature_6": null,
    "pressure_tendency": null,
    "precip_36_hours": null,
    "precip_24_hours": null,
    "sunshine_minutes": null,
    "codes": [],
    "dewpoint_decimal": null,
    "maximum_temperature_24": null,
    "minimum_temperature_24": null,
    "precip_hourly": null,
    "sea_level_pressure": null,
    "snow_depth": null,
    "temperature_decimal": null
  },
  "runway_visibility": [],
  "temperature": {
    "repr": "02",
    "value": 2,
    "spoken": "two"
  },
  "wind_variable_direction": [
    {
      "repr": "310",
      "value": 310,
      "spoken": "three one zero"
    },
    {
      "repr": "010",
      "value": 10,
      "spoken": "zero one zero"
    }
  ],
  "density_altitude": -1301,
  "pressure_altitude": 224,
  "units": {
    "accumulation": "in",
    "altimeter": "inHg",
    "altitude": "ft",
    "temperature": "C",
    "visibility": "sm",
    "wind_speed": "kt"
  }
}
