{
  "meta": {
    "timestamp": "2023-04-16T03:02:19.501617Z",
    "stations_updated": "2023-03-11",
    "cache-timestamp": "2023-04-16T03:01:39.810000Z"
  },
  "altimeter": {
    "repr": "A3005",
    "value": 30.05,
    "spoken": "three zero point zero five"
  },
  "clouds": [
    {
      "repr": "FEW045",
      "type": "FEW",
      "altitude": 45,
      "modifier": null
    },
    {
      "repr": "SCT055",
      "type": "SCT",
      "altitude": 55,
      "modifier": null
    },
    {
      "repr": "BKN065",
      "type": "BKN",
      "altitude": 65,
      "modifier": null
    }
  ],
  "flight_rules": "VFR",
  "other": [],
  "visibility": {
    "repr": "10",
    "value": 10,
    "spoken": "one zero"
  },
  "wind_direction": {
    "repr": "100",
    "value": 100,
    "spoken": "one zero zero"
  },
  "wind_gust": null,
  "wind_speed": {
    "repr": "04",
    "value": 4,
    "spoken": "four"
  },
  "wx_codes": [],
  "raw": "KBVS 160255Z AUTO 10004KT 10SM FEW045 SCT055 BKN065 09/08 A3005 RMK A01",
  "sanitized": "KBVS 160255Z 10004KT 10SM FEW045 SCT055 BKN065 09/08 A3005 RMK A01",
  "station": "KBVS",
  "time": {
    "repr": "160255Z",
    "dt": "2023-04-16T02:55:00Z"
  },
  "remarks": "RMK A01",
  "dewpoint": {
    "repr": "08",
    "value": 8,
    "spoken": "eight"
  },
  "relative_humidity": 0.9344901544791844,
  "remarks_info": {
    "maximum_temperature_6": null,
    "minimum_temperature_6": null,
    "pressure_tendency": null,
    "precip_36_hours": null,
    "precip_24_hours": null,
    "sunshine_minutes": null,
    "codes": [],
    "dewpoint_decimal": null,
    "maximum_temperature_24": null,
    "minimum_temperature_24": null,
    "precip_hourly": null,
    "sea_level_pressure": null,
    "snow_depth": null,
    "temperature_decimal": null
  },
  "runway_visibility": [],
  "temperature": {
    "repr": "09",
    "value": 9,
    "spoken": "nine"
  },
  "wind_variable_direction": [],
  "density_altitude": -671,
  "pressure_altitude": 14,
  "units": {
    "accumulation": "in",
    "altimeter": "inHg",
    "altitude": "ft",
    "temperature": "C",
    "visibility": "sm",
    "wind_speed": "kt"
  }
}
