{
  "meta": {
    "timestamp": "2023-05-13T21:40:33.430995Z",
    "stations_updated": "2023-03-11",
    "cache-timestamp": "2023-05-13T21:40:06.179000Z"
  },
  "altimeter": {
    "repr": "A3022",
    "value": 30.22,
    "spoken": "three zero point two two"
  },
  "clouds": [],
  "flight_rules": "VFR",
  "other": [],
  "visibility": {
    "repr": "10",
    "value": 10,
    "spoken": "one zero"
  },
  "wind_direction": {
    "repr": "290",
    "value": 290,
    "spoken": "two nine zero"
  },
  "wind_gust": null,
  "wind_speed": {
    "repr": "13",
    "value": 13,
    "spoken": "one three"
  },
  "wx_codes": [],
  "raw": "KBVS 132115Z AUTO 29013KT 10SM CLR 23/13 A3022 RMK A01",
  "sanitized": "KBVS 132115Z 29013KT 10SM 23/13 A3022 RMK A01",
  "station": "KBVS",
  "time": {
    "repr": "132115Z",
    "dt": "2023-05-13T21:15:00Z"
  },
  "remarks": "RMK A01",
  "dewpoint": {
    "repr": "13",
    "value": 13,
    "spoken": "one three"
  },
  "relative_humidity": 0.5328927665167151,
  "remarks_info": {
    "maximum_temperature_6": null,
    "minimum_temperature_6": null,
    "pressure_tendency": null,
    "precip_36_hours": null,
    "precip_24_hours": null,
    "sunshine_minutes": null,
    "codes": [],
    "dewpoint_decimal": null,
    "maximum_temperature_24": null,
    "minimum_temperature_24": null,
    "precip_hourly": null,
    "sea_level_pressure": null,
    "snow_depth": null,
    "temperature_decimal": null
  },
  "runway_visibility": [],
  "temperature": {
    "repr": "23",
    "value": 23,
    "spoken": "two three"
  },
  "wind_variable_direction": [],
  "density_altitude": 839,
  "pressure_altitude": -156,
  "units": {
    "accumulation": "in",
    "altimeter": "inHg",
    "altitude": "ft",
    "temperature": "C",
    "visibility": "sm",
    "wind_speed": "kt"
  }
}
