{
  "meta": {
    "timestamp": "2023-04-12T15:40:45.578426Z",
    "stations_updated": "2023-03-11",
    "cache-timestamp": "2023-04-12T15:40:05.819000Z"
  },
  "altimeter": {
    "repr": "A3007",
    "value": 30.07,
    "spoken": "three zero point zero seven"
  },
  "clouds": [],
  "flight_rules": "VFR",
  "other": [],
  "visibility": {
    "repr": "10",
    "value": 10,
    "spoken": "one zero"
  },
  "wind_direction": {
    "repr": "300",
    "value": 300,
    "spoken": "three zero zero"
  },
  "wind_gust": null,
  "wind_speed": {
    "repr": "05",
    "value": 5,
    "spoken": "five"
  },
  "wx_codes": [],
  "raw": "KBVS 121515Z AUTO 30005KT 10SM CLR 04/03 A3007 RMK A01",
  "sanitized": "KBVS 121515Z 30005KT 10SM 04/03 A3007 RMK A01",
  "station": "KBVS",
  "time": {
    "repr": "121515Z",
    "dt": "2023-04-12T15:15:00Z"
  },
  "remarks": "RMK A01",
  "dewpoint": {
    "repr": "03",
    "value": 3,
    "spoken": "three"
  },
  "relative_humidity": 0.9319043972307702,
  "remarks_info": {
    "maximum_temperature_6": null,
    "minimum_temperature_6": null,
    "pressure_tendency": null,
    "precip_36_hours": null,
    "precip_24_hours": null,
    "sunshine_minutes": null,
    "codes": [],
    "dewpoint_decimal": null,
    "maximum_temperature_24": null,
    "minimum_temperature_24": null,
    "precip_hourly": null,
    "sea_level_pressure": null,
    "snow_depth": null,
    "temperature_decimal": null
  },
  "runway_visibility": [],
  "temperature": {
    "repr": "04",
    "value": 4,
    "spoken": "four"
  },
  "wind_variable_direction": [],
  "density_altitude": -1291,
  "pressure_altitude": -6,
  "units": {
    "accumulation": "in",
    "altimeter": "inHg",
    "altitude": "ft",
    "temperature": "C",
    "visibility": "sm",
    "wind_speed": "kt"
  }
}
