{
  "meta": {
    "timestamp": "2023-02-20T16:36:59.017365Z",
    "stations_updated": "2023-01-30",
    "cache-timestamp": "2023-02-20T16:36:05.242000Z"
  },
  "altimeter": {
    "repr": "A3015",
    "value": 30.15,
    "spoken": "three zero point one five"
  },
  "clouds": [
    {
      "repr": "FEW004",
      "type": "FEW",
      "altitude": 4,
      "modifier": null
    },
    {
      "repr": "BKN017",
      "type": "BKN",
      "altitude": 17,
      "modifier": null
    },
    {
      "repr": "OVC022",
      "type": "OVC",
      "altitude": 22,
      "modifier": null
    }
  ],
  "flight_rules": "MVFR",
  "other": [],
  "visibility": {
    "repr": "10",
    "value": 10,
    "spoken": "one zero"
  },
  "wind_direction": {
    "repr": "140",
    "value": 140,
    "spoken": "one four zero"
  },
  "wind_gust": null,
  "wind_speed": {
    "repr": "05",
    "value": 5,
    "spoken": "five"
  },
  "wx_codes": [],
  "raw": "KBVS 201615Z AUTO 14005KT 10SM FEW004 BKN017 OVC022 07/07 A3015 RMK A01",
  "sanitized": "KBVS 201615Z 14005KT 10SM FEW004 BKN017 OVC022 07/07 A3015 RMK A01",
  "station": "KBVS",
  "time": {
    "repr": "201615Z",
    "dt": "2023-02-20T16:15:00Z"
  },
  "remarks": "RMK A01",
  "dewpoint": {
    "repr": "07",
    "value": 7,
    "spoken": "seven"
  },
  "relative_humidity": 1,
  "remarks_info": {
    "maximum_temperature_6": null,
    "minimum_temperature_6": null,
    "pressure_tendency": null,
    "precip_36_hours": null,
    "precip_24_hours": null,
    "sunshine_minutes": null,
    "codes": [],
    "dewpoint_decimal": null,
    "maximum_temperature_24": null,
    "minimum_temperature_24": null,
    "precip_hourly": null,
    "sea_level_pressure": null,
    "snow_depth": null,
    "temperature_decimal": null
  },
  "runway_visibility": [],
  "temperature": {
    "repr": "07",
    "value": 7,
    "spoken": "seven"
  },
  "wind_variable_direction": [],
  "density_altitude": -1011,
  "pressure_altitude": -86,
  "units": {
    "accumulation": "in",
    "altimeter": "inHg",
    "altitude": "ft",
    "temperature": "C",
    "visibility": "sm",
    "wind_speed": "kt"
  }
}
