{
  "meta": {
    "timestamp": "2022-12-28T03:03:18.101719Z",
    "stations_updated": "2022-09-05"
  },
  "altimeter": {
    "repr": "A2924",
    "value": 29.24,
    "spoken": "two nine point two four"
  },
  "clouds": [
    {
      "repr": "BKN014",
      "type": "BKN",
      "altitude": 14,
      "modifier": null
    },
    {
      "repr": "OVC020",
      "type": "OVC",
      "altitude": 20,
      "modifier": null
    }
  ],
  "flight_rules": "MVFR",
  "other": [],
  "visibility": {
    "repr": "10",
    "value": 10,
    "spoken": "one zero"
  },
  "wind_direction": {
    "repr": "200",
    "value": 200,
    "spoken": "two zero zero"
  },
  "wind_gust": {
    "repr": "26",
    "value": 26,
    "spoken": "two six"
  },
  "wind_speed": {
    "repr": "17",
    "value": 17,
    "spoken": "one seven"
  },
  "wx_codes": [],
  "raw": "KBVS 280255Z AUTO 20017G26KT 10SM BKN014 OVC020 08/08 A2924 RMK A01 P0014",
  "sanitized": "KBVS 280255Z 20017G26KT 10SM BKN014 OVC020 08/08 A2924 RMK A01 P0014",
  "station": "KBVS",
  "time": {
    "repr": "280255Z",
    "dt": "2022-12-28T02:55:00Z"
  },
  "remarks": "RMK A01 P0014",
  "dewpoint": {
    "repr": "08",
    "value": 8,
    "spoken": "eight"
  },
  "relative_humidity": 1,
  "remarks_info": {
    "maximum_temperature_6": null,
    "minimum_temperature_6": null,
    "pressure_tendency": null,
    "precip_36_hours": null,
    "precip_24_hours": null,
    "sunshine_minutes": null,
    "codes": [],
    "dewpoint_decimal": null,
    "maximum_temperature_24": null,
    "minimum_temperature_24": null,
    "precip_hourly": {
      "repr": "P0014",
      "value": 0.14,
      "spoken": "zero point one four"
    },
    "sea_level_pressure": null,
    "snow_depth": null,
    "temperature_decimal": null
  },
  "runway_visibility": [],
  "temperature": {
    "repr": "08",
    "value": 8,
    "spoken": "eight"
  },
  "wind_variable_direction": [],
  "density_altitude": 19,
  "pressure_altitude": 824,
  "units": {
    "accumulation": "in",
    "altimeter": "inHg",
    "altitude": "ft",
    "temperature": "C",
    "visibility": "sm",
    "wind_speed": "kt"
  }
}
