{
  "meta": {
    "timestamp": "2023-10-18T11:20:34.625705Z",
    "stations_updated": "2023-10-01",
    "cache-timestamp": "2023-10-18T11:20:02.859000Z"
  },
  "altimeter": {
    "repr": "A3003",
    "value": 30.03,
    "spoken": "three zero point zero three"
  },
  "clouds": [
    {
      "repr": "FEW065",
      "type": "FEW",
      "altitude": 65,
      "modifier": null
    },
    {
      "repr": "BKN075",
      "type": "BKN",
      "altitude": 75,
      "modifier": null
    },
    {
      "repr": "OVC085",
      "type": "OVC",
      "altitude": 85,
      "modifier": null
    }
  ],
  "flight_rules": "VFR",
  "other": [],
  "visibility": {
    "repr": "10",
    "value": 10,
    "spoken": "one zero"
  },
  "wind_direction": {
    "repr": "100",
    "value": 100,
    "spoken": "one zero zero"
  },
  "wind_gust": null,
  "wind_speed": {
    "repr": "05",
    "value": 5,
    "spoken": "five"
  },
  "wx_codes": [],
  "raw": "KBVS 181055Z AUTO 10005KT 10SM FEW065 BKN075 OVC085 14/10 A3003 RMK A01",
  "sanitized": "KBVS 181055Z 10005KT 10SM FEW065 BKN075 OVC085 14/10 A3003 RMK A01",
  "station": "KBVS",
  "time": {
    "repr": "181055Z",
    "dt": "2023-10-18T10:55:00Z"
  },
  "remarks": "RMK A01",
  "dewpoint": {
    "repr": "10",
    "value": 10,
    "spoken": "one zero"
  },
  "relative_humidity": 0.7682365318993968,
  "remarks_info": {
    "maximum_temperature_6": null,
    "minimum_temperature_6": null,
    "pressure_tendency": null,
    "precip_36_hours": null,
    "precip_24_hours": null,
    "sunshine_minutes": null,
    "codes": [],
    "dewpoint_decimal": null,
    "maximum_temperature_24": null,
    "minimum_temperature_24": null,
    "precip_hourly": null,
    "sea_level_pressure": null,
    "snow_depth": null,
    "temperature_decimal": null
  },
  "runway_visibility": [],
  "temperature": {
    "repr": "14",
    "value": 14,
    "spoken": "one four"
  },
  "wind_variable_direction": [],
  "density_altitude": -51,
  "pressure_altitude": 34,
  "units": {
    "accumulation": "in",
    "altimeter": "inHg",
    "altitude": "ft",
    "temperature": "C",
    "visibility": "sm",
    "wind_speed": "kt"
  }
}
