{
  "altimeter": {
    "repr": "A2985",
    "spoken": "two nine point eight five",
    "value": 29.85
  },
  "clouds": [],
  "density_altitude": -2151,
  "dewpoint": {
    "repr": "M14",
    "spoken": "minus one four",
    "value": -14
  },
  "flight_rules": "VFR",
  "meta": {
    "cache-timestamp": "2024-01-13T23:40:04.476000Z",
    "stations_updated": "2023-10-28",
    "timestamp": "2024-01-13T23:40:31.476237Z"
  },
  "other": [],
  "pressure_altitude": 214,
  "raw": "KBVS 132315Z AUTO 23009KT 10SM CLR M05/M14 A2985 RMK A01",
  "relative_humidity": 0.4928904970343724,
  "remarks": "RMK A01",
  "remarks_info": {
    "codes": [],
    "dewpoint_decimal": null,
    "maximum_temperature_24": null,
    "maximum_temperature_6": null,
    "minimum_temperature_24": null,
    "minimum_temperature_6": null,
    "precip_24_hours": null,
    "precip_36_hours": null,
    "precip_hourly": null,
    "pressure_tendency": null,
    "sea_level_pressure": null,
    "snow_depth": null,
    "sunshine_minutes": null,
    "temperature_decimal": null
  },
  "runway_visibility": [],
  "sanitized": "KBVS 132315Z 23009KT 10SM M05/M14 A2985 RMK A01",
  "station": "KBVS",
  "temperature": {
    "repr": "M05",
    "spoken": "minus five",
    "value": -5
  },
  "time": {
    "dt": "2024-01-13T23:15:00Z",
    "repr": "132315Z"
  },
  "units": {
    "accumulation": "in",
    "altimeter": "inHg",
    "altitude": "ft",
    "temperature": "C",
    "visibility": "sm",
    "wind_speed": "kt"
  },
  "visibility": {
    "repr": "10",
    "spoken": "one zero",
    "value": 10
  },
  "wind_direction": {
    "repr": "230",
    "spoken": "two three zero",
    "value": 230
  },
  "wind_gust": null,
  "wind_speed": {
    "repr": "09",
    "spoken": "nine",
    "value": 9
  },
  "wind_variable_direction": [],
  "wx_codes": []
}
