{
  "meta": {
    "timestamp": "2023-01-04T19:02:17.707493Z",
    "stations_updated": "2022-12-27"
  },
  "altimeter": {
    "repr": "A2983",
    "value": 29.83,
    "spoken": "two nine point eight three"
  },
  "clouds": [],
  "flight_rules": "VFR",
  "other": [],
  "visibility": {
    "repr": "10",
    "value": 10,
    "spoken": "one zero"
  },
  "wind_direction": {
    "repr": "060",
    "value": 60,
    "spoken": "zero six zero"
  },
  "wind_gust": {
    "repr": "20",
    "value": 20,
    "spoken": "two zero"
  },
  "wind_speed": {
    "repr": "13",
    "value": 13,
    "spoken": "one three"
  },
  "wx_codes": [],
  "raw": "KBVS 041855Z AUTO 06013G20KT 10SM CLR 06/M01 A2983 RMK A01",
  "sanitized": "KBVS 041855Z 06013G20KT 10SM 06/M01 A2983 RMK A01",
  "station": "KBVS",
  "time": {
    "repr": "041855Z",
    "dt": "2023-01-04T18:55:00Z"
  },
  "remarks": "RMK A01",
  "dewpoint": {
    "repr": "M01",
    "value": -1,
    "spoken": "minus one"
  },
  "relative_humidity": 0.6078690253216088,
  "remarks_info": {
    "maximum_temperature_6": null,
    "minimum_temperature_6": null,
    "pressure_tendency": null,
    "precip_36_hours": null,
    "precip_24_hours": null,
    "sunshine_minutes": null,
    "codes": [],
    "dewpoint_decimal": null,
    "maximum_temperature_24": null,
    "minimum_temperature_24": null,
    "precip_hourly": null,
    "sea_level_pressure": null,
    "snow_depth": null,
    "temperature_decimal": null
  },
  "runway_visibility": [],
  "temperature": {
    "repr": "06",
    "value": 6,
    "spoken": "six"
  },
  "wind_variable_direction": [],
  "density_altitude": -811,
  "pressure_altitude": 234,
  "units": {
    "accumulation": "in",
    "altimeter": "inHg",
    "altitude": "ft",
    "temperature": "C",
    "visibility": "sm",
    "wind_speed": "kt"
  }
}
