{
  "meta": {
    "timestamp": "2023-01-14T21:40:37.319106Z",
    "stations_updated": "2022-12-27",
    "cache-timestamp": "2023-01-14T21:40:08.393000Z"
  },
  "altimeter": {
    "repr": "A2940",
    "value": 29.4,
    "spoken": "two nine point four zero"
  },
  "clouds": [],
  "flight_rules": "VFR",
  "other": [],
  "visibility": {
    "repr": "10",
    "value": 10,
    "spoken": "one zero"
  },
  "wind_direction": {
    "repr": "040",
    "value": 40,
    "spoken": "zero four zero"
  },
  "wind_gust": null,
  "wind_speed": {
    "repr": "09",
    "value": 9,
    "spoken": "nine"
  },
  "wx_codes": [],
  "raw": "KBVS 142115Z AUTO 04009KT 10SM CLR 12/08 A2940 RMK A01",
  "sanitized": "KBVS 142115Z 04009KT 10SM 12/08 A2940 RMK A01",
  "station": "KBVS",
  "time": {
    "repr": "142115Z",
    "dt": "2023-01-14T21:15:00Z"
  },
  "remarks": "RMK A01",
  "dewpoint": {
    "repr": "08",
    "value": 8,
    "spoken": "eight"
  },
  "relative_humidity": 0.7650343392852356,
  "remarks_info": {
    "maximum_temperature_6": null,
    "minimum_temperature_6": null,
    "pressure_tendency": null,
    "precip_36_hours": null,
    "precip_24_hours": null,
    "sunshine_minutes": null,
    "codes": [],
    "dewpoint_decimal": null,
    "maximum_temperature_24": null,
    "minimum_temperature_24": null,
    "precip_hourly": null,
    "sea_level_pressure": null,
    "snow_depth": null,
    "temperature_decimal": null
  },
  "runway_visibility": [],
  "temperature": {
    "repr": "12",
    "value": 12,
    "spoken": "one two"
  },
  "wind_variable_direction": [],
  "density_altitude": 339,
  "pressure_altitude": 664,
  "units": {
    "accumulation": "in",
    "altimeter": "inHg",
    "altitude": "ft",
    "temperature": "C",
    "visibility": "sm",
    "wind_speed": "kt"
  }
}
