{
  "altimeter": {
    "repr": "A3007",
    "spoken": "three zero point zero seven",
    "value": 30.07
  },
  "clouds": [
    {
      "altitude": 32,
      "modifier": null,
      "repr": "FEW032",
      "type": "FEW"
    }
  ],
  "density_altitude": -211,
  "dewpoint": {
    "repr": "06",
    "spoken": "six",
    "value": 6
  },
  "flight_rules": "VFR",
  "meta": {
    "cache-timestamp": "2024-05-18T22:00:36.837000Z",
    "stations_updated": "2024-05-13",
    "timestamp": "2024-05-18T22:01:20.081848Z"
  },
  "other": [],
  "pressure_altitude": -6,
  "raw": "KBVS 182135Z AUTO 21012G20KT 190V250 10SM FEW032 13/06 A3007 RMK A01",
  "relative_humidity": 0.6246113292830792,
  "remarks": "RMK A01",
  "remarks_info": {
    "codes": [],
    "dewpoint_decimal": null,
    "maximum_temperature_24": null,
    "maximum_temperature_6": null,
    "minimum_temperature_24": null,
    "minimum_temperature_6": null,
    "precip_24_hours": null,
    "precip_36_hours": null,
    "precip_hourly": null,
    "pressure_tendency": null,
    "sea_level_pressure": null,
    "snow_depth": null,
    "sunshine_minutes": null,
    "temperature_decimal": null
  },
  "runway_visibility": [],
  "sanitized": "KBVS 182135Z 21012G20KT 190V250 10SM FEW032 13/06 A3007 RMK A01",
  "station": "KBVS",
  "temperature": {
    "repr": "13",
    "spoken": "one three",
    "value": 13
  },
  "time": {
    "dt": "2024-05-18T21:35:00Z",
    "repr": "182135Z"
  },
  "units": {
    "accumulation": "in",
    "altimeter": "inHg",
    "altitude": "ft",
    "temperature": "C",
    "visibility": "sm",
    "wind_speed": "kt"
  },
  "visibility": {
    "repr": "10",
    "spoken": "one zero",
    "value": 10
  },
  "wind_direction": {
    "repr": "210",
    "spoken": "two one zero",
    "value": 210
  },
  "wind_gust": {
    "repr": "20",
    "spoken": "two zero",
    "value": 20
  },
  "wind_speed": {
    "repr": "12",
    "spoken": "one two",
    "value": 12
  },
  "wind_variable_direction": [
    {
      "repr": "190",
      "spoken": "one nine zero",
      "value": 190
    },
    {
      "repr": "250",
      "spoken": "two five zero",
      "value": 250
    }
  ],
  "wx_codes": []
}
