{
  "altimeter": {
    "repr": "A2987",
    "spoken": "two nine point eight seven",
    "value": 29.87
  },
  "clouds": [],
  "density_altitude": -2291,
  "dewpoint": {
    "repr": "M14",
    "spoken": "minus one four",
    "value": -14
  },
  "flight_rules": "VFR",
  "meta": {
    "stations_updated": "2023-10-28",
    "timestamp": "2024-01-13T22:01:17.388294Z"
  },
  "other": [],
  "pressure_altitude": 194,
  "raw": "KBVS 132135Z AUTO 23007KT 10SM CLR M06/M14 A2987 RMK A01",
  "relative_humidity": 0.5317889936839224,
  "remarks": "RMK A01",
  "remarks_info": {
    "codes": [],
    "dewpoint_decimal": null,
    "maximum_temperature_24": null,
    "maximum_temperature_6": null,
    "minimum_temperature_24": null,
    "minimum_temperature_6": null,
    "precip_24_hours": null,
    "precip_36_hours": null,
    "precip_hourly": null,
    "pressure_tendency": null,
    "sea_level_pressure": null,
    "snow_depth": null,
    "sunshine_minutes": null,
    "temperature_decimal": null
  },
  "runway_visibility": [],
  "sanitized": "KBVS 132135Z 23007KT 10SM M06/M14 A2987 RMK A01",
  "station": "KBVS",
  "temperature": {
    "repr": "M06",
    "spoken": "minus six",
    "value": -6
  },
  "time": {
    "dt": "2024-01-13T21:35:00Z",
    "repr": "132135Z"
  },
  "units": {
    "accumulation": "in",
    "altimeter": "inHg",
    "altitude": "ft",
    "temperature": "C",
    "visibility": "sm",
    "wind_speed": "kt"
  },
  "visibility": {
    "repr": "10",
    "spoken": "one zero",
    "value": 10
  },
  "wind_direction": {
    "repr": "230",
    "spoken": "two three zero",
    "value": 230
  },
  "wind_gust": null,
  "wind_speed": {
    "repr": "07",
    "spoken": "seven",
    "value": 7
  },
  "wind_variable_direction": [],
  "wx_codes": []
}
