{
  "altimeter": {
    "repr": "A2994",
    "spoken": "two nine point nine four",
    "value": 29.94
  },
  "clouds": [],
  "density_altitude": 519,
  "dewpoint": {
    "repr": "06",
    "spoken": "six",
    "value": 6
  },
  "flight_rules": "VFR",
  "meta": {
    "stations_updated": "2024-01-01",
    "timestamp": "2024-04-23T22:27:26.097101Z"
  },
  "other": [],
  "pressure_altitude": 124,
  "raw": "KBVS 232215Z AUTO 32007KT 10SM CLR 18/06 A2994 RMK A01",
  "relative_humidity": 0.45322763633169727,
  "remarks": "RMK A01",
  "remarks_info": {
    "codes": [],
    "dewpoint_decimal": null,
    "maximum_temperature_24": null,
    "maximum_temperature_6": null,
    "minimum_temperature_24": null,
    "minimum_temperature_6": null,
    "precip_24_hours": null,
    "precip_36_hours": null,
    "precip_hourly": null,
    "pressure_tendency": null,
    "sea_level_pressure": null,
    "snow_depth": null,
    "sunshine_minutes": null,
    "temperature_decimal": null
  },
  "runway_visibility": [],
  "sanitized": "KBVS 232215Z 32007KT 10SM 18/06 A2994 RMK A01",
  "station": "KBVS",
  "temperature": {
    "repr": "18",
    "spoken": "one eight",
    "value": 18
  },
  "time": {
    "dt": "2024-04-23T22:15:00Z",
    "repr": "232215Z"
  },
  "units": {
    "accumulation": "in",
    "altimeter": "inHg",
    "altitude": "ft",
    "temperature": "C",
    "visibility": "sm",
    "wind_speed": "kt"
  },
  "visibility": {
    "repr": "10",
    "spoken": "one zero",
    "value": 10
  },
  "wind_direction": {
    "repr": "320",
    "spoken": "three two zero",
    "value": 320
  },
  "wind_gust": null,
  "wind_speed": {
    "repr": "07",
    "spoken": "seven",
    "value": 7
  },
  "wind_variable_direction": [],
  "wx_codes": []
}
