{
  "meta": {
    "timestamp": "2023-05-13T23:22:14.047064Z",
    "stations_updated": "2023-03-11",
    "cache-timestamp": "2023-05-13T23:22:05.702000Z"
  },
  "altimeter": {
    "repr": "A3017",
    "value": 30.17,
    "spoken": "three zero point one seven"
  },
  "clouds": [],
  "flight_rules": "VFR",
  "other": [],
  "visibility": {
    "repr": "10",
    "value": 10,
    "spoken": "one zero"
  },
  "wind_direction": {
    "repr": "290",
    "value": 290,
    "spoken": "two nine zero"
  },
  "wind_gust": null,
  "wind_speed": {
    "repr": "14",
    "value": 14,
    "spoken": "one four"
  },
  "wx_codes": [],
  "raw": "KBVS 132315Z AUTO 29014KT 10SM CLR 23/12 A3017 RMK A01",
  "sanitized": "KBVS 132315Z 29014KT 10SM 23/12 A3017 RMK A01",
  "station": "KBVS",
  "time": {
    "repr": "132315Z",
    "dt": "2023-05-13T23:15:00Z"
  },
  "remarks": "RMK A01",
  "dewpoint": {
    "repr": "12",
    "value": 12,
    "spoken": "one two"
  },
  "relative_humidity": 0.49903029857083847,
  "remarks_info": {
    "maximum_temperature_6": null,
    "minimum_temperature_6": null,
    "pressure_tendency": null,
    "precip_36_hours": null,
    "precip_24_hours": null,
    "sunshine_minutes": null,
    "codes": [],
    "dewpoint_decimal": null,
    "maximum_temperature_24": null,
    "minimum_temperature_24": null,
    "precip_hourly": null,
    "sea_level_pressure": null,
    "snow_depth": null,
    "temperature_decimal": null
  },
  "runway_visibility": [],
  "temperature": {
    "repr": "23",
    "value": 23,
    "spoken": "two three"
  },
  "wind_variable_direction": [],
  "density_altitude": 889,
  "pressure_altitude": -106,
  "units": {
    "accumulation": "in",
    "altimeter": "inHg",
    "altitude": "ft",
    "temperature": "C",
    "visibility": "sm",
    "wind_speed": "kt"
  }
}
