{
  "meta": {
    "timestamp": "2022-11-05T09:43:10.126094Z",
    "stations_updated": "2022-09-05"
  },
  "altimeter": {
    "repr": "A2966",
    "value": 29.66,
    "spoken": "two nine point six six"
  },
  "clouds": [],
  "flight_rules": "VFR",
  "other": [],
  "visibility": {
    "repr": "10",
    "value": 10,
    "spoken": "one zero"
  },
  "wind_direction": {
    "repr": "VRB",
    "value": null,
    "spoken": "variable"
  },
  "wind_gust": null,
  "wind_speed": {
    "repr": "06",
    "value": 6,
    "spoken": "six"
  },
  "wx_codes": [],
  "raw": "KBVS 050935Z AUTO VRB06KT 230V300 10SM CLR 08/04 A2966 RMK A01",
  "sanitized": "KBVS 050935Z VRB06KT 230V300 10SM 08/04 A2966 RMK A01",
  "station": "KBVS",
  "time": {
    "repr": "050935Z",
    "dt": "2022-11-05T09:35:00Z"
  },
  "remarks": "RMK A01",
  "dewpoint": {
    "repr": "04",
    "value": 4,
    "spoken": "four"
  },
  "relative_humidity": 0.7584398103585424,
  "remarks_info": {
    "maximum_temperature_6": null,
    "minimum_temperature_6": null,
    "pressure_tendency": null,
    "precip_36_hours": null,
    "precip_24_hours": null,
    "sunshine_minutes": null,
    "codes": [],
    "dewpoint_decimal": null,
    "maximum_temperature_24": null,
    "minimum_temperature_24": null,
    "precip_hourly": null,
    "sea_level_pressure": null,
    "snow_depth": null,
    "temperature_decimal": null
  },
  "runway_visibility": [],
  "temperature": {
    "repr": "08",
    "value": 8,
    "spoken": "eight"
  },
  "wind_variable_direction": [
    {
      "repr": "230",
      "value": 230,
      "spoken": "two three zero"
    },
    {
      "repr": "300",
      "value": 300,
      "spoken": "three zero zero"
    }
  ],
  "density_altitude": -401,
  "pressure_altitude": 404,
  "units": {
    "accumulation": "in",
    "altimeter": "inHg",
    "altitude": "ft",
    "temperature": "C",
    "visibility": "sm",
    "wind_speed": "kt"
  }
}
