{
  "altimeter": {
    "repr": "A3011",
    "spoken": "three zero point one one",
    "value": 30.11
  },
  "clouds": [
    {
      "altitude": 20,
      "modifier": null,
      "repr": "OVC020",
      "type": "OVC"
    }
  ],
  "density_altitude": -371,
  "dewpoint": {
    "repr": "11",
    "spoken": "one one",
    "value": 11
  },
  "flight_rules": "MVFR",
  "meta": {
    "stations_updated": "2024-06-12",
    "timestamp": "2024-10-19T08:08:30.971702Z"
  },
  "other": [],
  "pressure_altitude": -46,
  "raw": "KBVS 190755Z AUTO 14009G15KT 4SM BR OVC020 12/11 A3011 RMK A01 P0008",
  "relative_humidity": 0.9359723503065726,
  "remarks": "RMK A01 P0008",
  "remarks_info": {
    "codes": [],
    "dewpoint_decimal": null,
    "maximum_temperature_24": null,
    "maximum_temperature_6": null,
    "minimum_temperature_24": null,
    "minimum_temperature_6": null,
    "precip_24_hours": null,
    "precip_36_hours": null,
    "precip_hourly": {
      "repr": "P0008",
      "spoken": "zero point zero eight",
      "value": 0.08
    },
    "pressure_tendency": null,
    "sea_level_pressure": null,
    "snow_depth": null,
    "sunshine_minutes": null,
    "temperature_decimal": null
  },
  "runway_visibility": [],
  "sanitized": "KBVS 190755Z 14009G15KT 4SM BR OVC020 12/11 A3011 RMK A01 P0008",
  "station": "KBVS",
  "temperature": {
    "repr": "12",
    "spoken": "one two",
    "value": 12
  },
  "time": {
    "dt": "2024-10-19T07:55:00Z",
    "repr": "190755Z"
  },
  "units": {
    "accumulation": "in",
    "altimeter": "inHg",
    "altitude": "ft",
    "temperature": "C",
    "visibility": "sm",
    "wind_speed": "kt"
  },
  "visibility": {
    "repr": "4",
    "spoken": "four",
    "value": 4
  },
  "wind_direction": {
    "repr": "140",
    "spoken": "one four zero",
    "value": 140
  },
  "wind_gust": {
    "repr": "15",
    "spoken": "one five",
    "value": 15
  },
  "wind_speed": {
    "repr": "09",
    "spoken": "nine",
    "value": 9
  },
  "wind_variable_direction": [],
  "wx_codes": [
    {
      "repr": "BR",
      "value": "Mist"
    }
  ]
}
