{
  "altimeter": {
    "repr": "A3031",
    "spoken": "three zero point three one",
    "value": 30.31
  },
  "clouds": [
    {
      "altitude": 38,
      "modifier": null,
      "repr": "OVC038",
      "type": "OVC"
    }
  ],
  "density_altitude": -1411,
  "dewpoint": {
    "repr": "03",
    "spoken": "three",
    "value": 3
  },
  "flight_rules": "VFR",
  "meta": {
    "stations_updated": "2024-10-29",
    "timestamp": "2024-11-28T20:08:24.778612Z"
  },
  "other": [],
  "pressure_altitude": -246,
  "raw": "KBVS 281955Z AUTO 00000KT 10SM OVC038 05/03 A3031 RMK A01",
  "relative_humidity": 0.8689388805658268,
  "remarks": "RMK A01",
  "remarks_info": {
    "codes": [],
    "dewpoint_decimal": null,
    "maximum_temperature_24": null,
    "maximum_temperature_6": null,
    "minimum_temperature_24": null,
    "minimum_temperature_6": null,
    "precip_24_hours": null,
    "precip_36_hours": null,
    "precip_hourly": null,
    "pressure_tendency": null,
    "sea_level_pressure": null,
    "snow_depth": null,
    "sunshine_minutes": null,
    "temperature_decimal": null
  },
  "runway_visibility": [],
  "sanitized": "KBVS 281955Z 00000KT 10SM OVC038 05/03 A3031 RMK A01",
  "station": "KBVS",
  "temperature": {
    "repr": "05",
    "spoken": "five",
    "value": 5
  },
  "time": {
    "dt": "2024-11-28T19:55:00Z",
    "repr": "281955Z"
  },
  "units": {
    "accumulation": "in",
    "altimeter": "inHg",
    "altitude": "ft",
    "temperature": "C",
    "visibility": "sm",
    "wind_speed": "kt"
  },
  "visibility": {
    "repr": "10",
    "spoken": "one zero",
    "value": 10
  },
  "wind_direction": {
    "repr": "000",
    "spoken": "zero zero zero",
    "value": 0
  },
  "wind_gust": null,
  "wind_speed": {
    "repr": "00",
    "spoken": "zero",
    "value": 0
  },
  "wind_variable_direction": [],
  "wx_codes": []
}
