{
  "meta": {
    "timestamp": "2022-12-30T12:08:17.488072Z",
    "stations_updated": "2022-12-27",
    "cache-timestamp": "2022-12-30T12:08:07.992000Z"
  },
  "altimeter": {
    "repr": "A2938",
    "value": 29.38,
    "spoken": "two nine point three eight"
  },
  "clouds": [
    {
      "repr": "OVC020",
      "type": "OVC",
      "altitude": 20,
      "modifier": null
    }
  ],
  "flight_rules": "MVFR",
  "other": [],
  "visibility": {
    "repr": "10",
    "value": 10,
    "spoken": "one zero"
  },
  "wind_direction": {
    "repr": "120",
    "value": 120,
    "spoken": "one two zero"
  },
  "wind_gust": {
    "repr": "11",
    "value": 11,
    "spoken": "one one"
  },
  "wind_speed": {
    "repr": "06",
    "value": 6,
    "spoken": "six"
  },
  "wx_codes": [],
  "raw": "KBVS 301155Z AUTO 12006G11KT 10SM OVC020 07/06 A2938 RMK A01",
  "sanitized": "KBVS 301155Z 12006G11KT 10SM OVC020 07/06 A2938 RMK A01",
  "station": "KBVS",
  "time": {
    "repr": "301155Z",
    "dt": "2022-12-30T11:55:00Z"
  },
  "remarks": "RMK A01",
  "dewpoint": {
    "repr": "06",
    "value": 6,
    "spoken": "six"
  },
  "relative_humidity": 0.9334736015813517,
  "remarks_info": {
    "maximum_temperature_6": null,
    "minimum_temperature_6": null,
    "pressure_tendency": null,
    "precip_36_hours": null,
    "precip_24_hours": null,
    "sunshine_minutes": null,
    "codes": [],
    "dewpoint_decimal": null,
    "maximum_temperature_24": null,
    "minimum_temperature_24": null,
    "precip_hourly": null,
    "sea_level_pressure": null,
    "snow_depth": null,
    "temperature_decimal": null
  },
  "runway_visibility": [],
  "temperature": {
    "repr": "07",
    "value": 7,
    "spoken": "seven"
  },
  "wind_variable_direction": [],
  "density_altitude": -241,
  "pressure_altitude": 684,
  "units": {
    "accumulation": "in",
    "altimeter": "inHg",
    "altitude": "ft",
    "temperature": "C",
    "visibility": "sm",
    "wind_speed": "kt"
  }
}
