{
  "altimeter": {
    "repr": "A2974",
    "spoken": "two nine point seven four",
    "value": 29.74
  },
  "clouds": [
    {
      "altitude": 36,
      "modifier": null,
      "repr": "BKN036",
      "type": "BKN"
    },
    {
      "altitude": 41,
      "modifier": null,
      "repr": "OVC041",
      "type": "OVC"
    }
  ],
  "density_altitude": -601,
  "dewpoint": {
    "repr": "06",
    "spoken": "six",
    "value": 6
  },
  "flight_rules": "VFR",
  "meta": {
    "stations_updated": "2024-10-29",
    "timestamp": "2024-11-01T07:28:16.495364Z"
  },
  "other": [],
  "pressure_altitude": 324,
  "raw": "KBVS 010715Z AUTO 10012KT 8SM BKN036 OVC041 07/06 A2974 RMK A01",
  "relative_humidity": 0.9334736015813517,
  "remarks": "RMK A01",
  "remarks_info": {
    "codes": [],
    "dewpoint_decimal": null,
    "maximum_temperature_24": null,
    "maximum_temperature_6": null,
    "minimum_temperature_24": null,
    "minimum_temperature_6": null,
    "precip_24_hours": null,
    "precip_36_hours": null,
    "precip_hourly": null,
    "pressure_tendency": null,
    "sea_level_pressure": null,
    "snow_depth": null,
    "sunshine_minutes": null,
    "temperature_decimal": null
  },
  "runway_visibility": [],
  "sanitized": "KBVS 010715Z 10012KT 8SM BKN036 OVC041 07/06 A2974 RMK A01",
  "station": "KBVS",
  "temperature": {
    "repr": "07",
    "spoken": "seven",
    "value": 7
  },
  "time": {
    "dt": "2024-11-01T07:15:00Z",
    "repr": "010715Z"
  },
  "units": {
    "accumulation": "in",
    "altimeter": "inHg",
    "altitude": "ft",
    "temperature": "C",
    "visibility": "sm",
    "wind_speed": "kt"
  },
  "visibility": {
    "repr": "8",
    "spoken": "eight",
    "value": 8
  },
  "wind_direction": {
    "repr": "100",
    "spoken": "one zero zero",
    "value": 100
  },
  "wind_gust": null,
  "wind_speed": {
    "repr": "12",
    "spoken": "one two",
    "value": 12
  },
  "wind_variable_direction": [],
  "wx_codes": []
}
