{
  "meta": {
    "timestamp": "2023-03-29T19:40:36.939823Z",
    "stations_updated": "2023-03-11",
    "cache-timestamp": "2023-03-29T19:40:06.039000Z"
  },
  "altimeter": {
    "repr": "A2983",
    "value": 29.83,
    "spoken": "two nine point eight three"
  },
  "clouds": [],
  "flight_rules": "VFR",
  "other": [],
  "visibility": {
    "repr": "10",
    "value": 10,
    "spoken": "one zero"
  },
  "wind_direction": {
    "repr": "280",
    "value": 280,
    "spoken": "two eight zero"
  },
  "wind_gust": null,
  "wind_speed": {
    "repr": "06",
    "value": 6,
    "spoken": "six"
  },
  "wx_codes": [],
  "raw": "KBVS 291915Z AUTO 28006KT 10SM CLR 12/M00 A2983 RMK A01",
  "sanitized": "KBVS 291915Z 28006KT 10SM 12/M00 A2983 RMK A01",
  "station": "KBVS",
  "time": {
    "repr": "291915Z",
    "dt": "2023-03-29T19:15:00Z"
  },
  "remarks": "RMK A01",
  "dewpoint": {
    "repr": "M00",
    "value": 0,
    "spoken": "zero"
  },
  "relative_humidity": 0.4360919546796719,
  "remarks_info": {
    "maximum_temperature_6": null,
    "minimum_temperature_6": null,
    "pressure_tendency": null,
    "precip_36_hours": null,
    "precip_24_hours": null,
    "sunshine_minutes": null,
    "codes": [],
    "dewpoint_decimal": null,
    "maximum_temperature_24": null,
    "minimum_temperature_24": null,
    "precip_hourly": null,
    "sea_level_pressure": null,
    "snow_depth": null,
    "temperature_decimal": null
  },
  "runway_visibility": [],
  "temperature": {
    "repr": "12",
    "value": 12,
    "spoken": "one two"
  },
  "wind_variable_direction": [],
  "density_altitude": -91,
  "pressure_altitude": 234,
  "units": {
    "accumulation": "in",
    "altimeter": "inHg",
    "altitude": "ft",
    "temperature": "C",
    "visibility": "sm",
    "wind_speed": "kt"
  }
}
