{
  "meta": {
    "timestamp": "2023-03-04T21:23:09.510878Z",
    "stations_updated": "2023-01-30"
  },
  "altimeter": {
    "repr": "A2947",
    "value": 29.47,
    "spoken": "two nine point four seven"
  },
  "clouds": [
    {
      "repr": "FEW044",
      "type": "FEW",
      "altitude": 44,
      "modifier": null
    },
    {
      "repr": "FEW050",
      "type": "FEW",
      "altitude": 50,
      "modifier": null
    },
    {
      "repr": "FEW060",
      "type": "FEW",
      "altitude": 60,
      "modifier": null
    }
  ],
  "flight_rules": "VFR",
  "other": [],
  "visibility": {
    "repr": "10",
    "value": 10,
    "spoken": "one zero"
  },
  "wind_direction": {
    "repr": "120",
    "value": 120,
    "spoken": "one two zero"
  },
  "wind_gust": null,
  "wind_speed": {
    "repr": "03",
    "value": 3,
    "spoken": "three"
  },
  "wx_codes": [],
  "raw": "KBVS 042115Z AUTO 12003KT 10SM FEW044 FEW050 FEW060 05/03 A2947 RMK A01",
  "sanitized": "KBVS 042115Z 12003KT 10SM FEW044 FEW050 FEW060 05/03 A2947 RMK A01",
  "station": "KBVS",
  "time": {
    "repr": "042115Z",
    "dt": "2023-03-04T21:15:00Z"
  },
  "remarks": "RMK A01",
  "dewpoint": {
    "repr": "03",
    "value": 3,
    "spoken": "three"
  },
  "relative_humidity": 0.8689388805658268,
  "remarks_info": {
    "maximum_temperature_6": null,
    "minimum_temperature_6": null,
    "pressure_tendency": null,
    "precip_36_hours": null,
    "precip_24_hours": null,
    "sunshine_minutes": null,
    "codes": [],
    "dewpoint_decimal": null,
    "maximum_temperature_24": null,
    "minimum_temperature_24": null,
    "precip_hourly": null,
    "sea_level_pressure": null,
    "snow_depth": null,
    "temperature_decimal": null
  },
  "runway_visibility": [],
  "temperature": {
    "repr": "05",
    "value": 5,
    "spoken": "five"
  },
  "wind_variable_direction": [],
  "density_altitude": -571,
  "pressure_altitude": 594,
  "units": {
    "accumulation": "in",
    "altimeter": "inHg",
    "altitude": "ft",
    "temperature": "C",
    "visibility": "sm",
    "wind_speed": "kt"
  }
}
