{
  "meta": {
    "timestamp": "2023-04-20T21:21:25.307043Z",
    "stations_updated": "2023-03-11"
  },
  "altimeter": {
    "repr": "A3021",
    "value": 30.21,
    "spoken": "three zero point two one"
  },
  "clouds": [
    {
      "repr": "FEW029",
      "type": "FEW",
      "altitude": 29,
      "modifier": null
    },
    {
      "repr": "SCT046",
      "type": "SCT",
      "altitude": 46,
      "modifier": null
    },
    {
      "repr": "SCT050",
      "type": "SCT",
      "altitude": 50,
      "modifier": null
    }
  ],
  "flight_rules": "VFR",
  "other": [],
  "visibility": {
    "repr": "10",
    "value": 10,
    "spoken": "one zero"
  },
  "wind_direction": {
    "repr": "140",
    "value": 140,
    "spoken": "one four zero"
  },
  "wind_gust": {
    "repr": "20",
    "value": 20,
    "spoken": "two zero"
  },
  "wind_speed": {
    "repr": "11",
    "value": 11,
    "spoken": "one one"
  },
  "wx_codes": [],
  "raw": "KBVS 202115Z AUTO 14011G20KT 10SM FEW029 SCT046 SCT050 09/00 A3021 RMK A01",
  "sanitized": "KBVS 202115Z 14011G20KT 10SM FEW029 SCT046 SCT050 09/00 A3021 RMK A01",
  "station": "KBVS",
  "time": {
    "repr": "202115Z",
    "dt": "2023-04-20T21:15:00Z"
  },
  "remarks": "RMK A01",
  "dewpoint": {
    "repr": "00",
    "value": 0,
    "spoken": "zero"
  },
  "relative_humidity": 0.5326867268160558,
  "remarks_info": {
    "maximum_temperature_6": null,
    "minimum_temperature_6": null,
    "pressure_tendency": null,
    "precip_36_hours": null,
    "precip_24_hours": null,
    "sunshine_minutes": null,
    "codes": [],
    "dewpoint_decimal": null,
    "maximum_temperature_24": null,
    "minimum_temperature_24": null,
    "precip_hourly": null,
    "sea_level_pressure": null,
    "snow_depth": null,
    "temperature_decimal": null
  },
  "runway_visibility": [],
  "temperature": {
    "repr": "09",
    "value": 9,
    "spoken": "nine"
  },
  "wind_variable_direction": [],
  "density_altitude": -831,
  "pressure_altitude": -146,
  "units": {
    "accumulation": "in",
    "altimeter": "inHg",
    "altitude": "ft",
    "temperature": "C",
    "visibility": "sm",
    "wind_speed": "kt"
  }
}
