{
  "meta": {
    "timestamp": "2022-12-29T19:01:29.964428Z",
    "stations_updated": "2022-12-27"
  },
  "altimeter": {
    "repr": "A2963",
    "value": 29.63,
    "spoken": "two nine point six three"
  },
  "clouds": [
    {
      "repr": "FEW037",
      "type": "FEW",
      "altitude": 37,
      "modifier": null
    },
    {
      "repr": "BKN044",
      "type": "BKN",
      "altitude": 44,
      "modifier": null
    },
    {
      "repr": "SCT050",
      "type": "SCT",
      "altitude": 50,
      "modifier": null
    }
  ],
  "flight_rules": "VFR",
  "other": [],
  "visibility": {
    "repr": "10",
    "value": 10,
    "spoken": "one zero"
  },
  "wind_direction": {
    "repr": "000",
    "value": 0,
    "spoken": "zero zero zero"
  },
  "wind_gust": null,
  "wind_speed": {
    "repr": "00",
    "value": 0,
    "spoken": "zero"
  },
  "wx_codes": [],
  "raw": "KBVS 291855Z AUTO 00000KT 10SM FEW037 BKN044 SCT050 06/04 A2963 RMK A01",
  "sanitized": "KBVS 291855Z 00000KT 10SM FEW037 BKN044 SCT050 06/04 A2963 RMK A01",
  "station": "KBVS",
  "time": {
    "repr": "291855Z",
    "dt": "2022-12-29T18:55:00Z"
  },
  "remarks": "RMK A01",
  "dewpoint": {
    "repr": "04",
    "value": 4,
    "spoken": "four"
  },
  "relative_humidity": 0.8699199333996626,
  "remarks_info": {
    "maximum_temperature_6": null,
    "minimum_temperature_6": null,
    "pressure_tendency": null,
    "precip_36_hours": null,
    "precip_24_hours": null,
    "sunshine_minutes": null,
    "codes": [],
    "dewpoint_decimal": null,
    "maximum_temperature_24": null,
    "minimum_temperature_24": null,
    "precip_hourly": null,
    "sea_level_pressure": null,
    "snow_depth": null,
    "temperature_decimal": null
  },
  "runway_visibility": [],
  "temperature": {
    "repr": "06",
    "value": 6,
    "spoken": "six"
  },
  "wind_variable_direction": [],
  "density_altitude": -611,
  "pressure_altitude": 434,
  "units": {
    "accumulation": "in",
    "altimeter": "inHg",
    "altitude": "ft",
    "temperature": "C",
    "visibility": "sm",
    "wind_speed": "kt"
  }
}
