{
  "altimeter": {
    "repr": "A3027",
    "spoken": "three zero point two seven",
    "value": 30.27
  },
  "clouds": [
    {
      "altitude": 41,
      "modifier": null,
      "repr": "OVC041",
      "type": "OVC"
    }
  ],
  "density_altitude": -1491,
  "dewpoint": {
    "repr": "02",
    "spoken": "two",
    "value": 2
  },
  "flight_rules": "VFR",
  "meta": {
    "stations_updated": "2024-10-29",
    "timestamp": "2024-11-30T13:14:36.616565Z"
  },
  "other": [],
  "pressure_altitude": -206,
  "raw": "KBVS 301255Z AUTO 00000KT 10SM OVC041 04/02 A3027 RMK A01",
  "relative_humidity": 0.8679469901757325,
  "remarks": "RMK A01",
  "remarks_info": {
    "codes": [],
    "dewpoint_decimal": null,
    "maximum_temperature_24": null,
    "maximum_temperature_6": null,
    "minimum_temperature_24": null,
    "minimum_temperature_6": null,
    "precip_24_hours": null,
    "precip_36_hours": null,
    "precip_hourly": null,
    "pressure_tendency": null,
    "sea_level_pressure": null,
    "snow_depth": null,
    "sunshine_minutes": null,
    "temperature_decimal": null
  },
  "runway_visibility": [],
  "sanitized": "KBVS 301255Z 00000KT 10SM OVC041 04/02 A3027 RMK A01",
  "station": "KBVS",
  "temperature": {
    "repr": "04",
    "spoken": "four",
    "value": 4
  },
  "time": {
    "dt": "2024-11-30T12:55:00Z",
    "repr": "301255Z"
  },
  "units": {
    "accumulation": "in",
    "altimeter": "inHg",
    "altitude": "ft",
    "temperature": "C",
    "visibility": "sm",
    "wind_speed": "kt"
  },
  "visibility": {
    "repr": "10",
    "spoken": "one zero",
    "value": 10
  },
  "wind_direction": {
    "repr": "000",
    "spoken": "zero zero zero",
    "value": 0
  },
  "wind_gust": null,
  "wind_speed": {
    "repr": "00",
    "spoken": "zero",
    "value": 0
  },
  "wind_variable_direction": [],
  "wx_codes": []
}
