{
  "meta": {
    "timestamp": "2023-05-15T13:40:39.740799Z",
    "stations_updated": "2023-03-11",
    "cache-timestamp": "2023-05-15T13:40:04.694000Z"
  },
  "altimeter": {
    "repr": "A2997",
    "value": 29.97,
    "spoken": "two nine point nine seven"
  },
  "clouds": [],
  "flight_rules": "VFR",
  "other": [],
  "visibility": {
    "repr": "10",
    "value": 10,
    "spoken": "one zero"
  },
  "wind_direction": {
    "repr": "010",
    "value": 10,
    "spoken": "zero one zero"
  },
  "wind_gust": null,
  "wind_speed": {
    "repr": "09",
    "value": 9,
    "spoken": "nine"
  },
  "wx_codes": [],
  "raw": "KBVS 151315Z AUTO 01009KT 10SM CLR 19/09 A2997 RMK A01",
  "sanitized": "KBVS 151315Z 01009KT 10SM 19/09 A2997 RMK A01",
  "station": "KBVS",
  "time": {
    "repr": "151315Z",
    "dt": "2023-05-15T13:15:00Z"
  },
  "remarks": "RMK A01",
  "dewpoint": {
    "repr": "09",
    "value": 9,
    "spoken": "nine"
  },
  "relative_humidity": 0.5224898890696842,
  "remarks_info": {
    "maximum_temperature_6": null,
    "minimum_temperature_6": null,
    "pressure_tendency": null,
    "precip_36_hours": null,
    "precip_24_hours": null,
    "sunshine_minutes": null,
    "codes": [],
    "dewpoint_decimal": null,
    "maximum_temperature_24": null,
    "minimum_temperature_24": null,
    "precip_hourly": null,
    "sea_level_pressure": null,
    "snow_depth": null,
    "temperature_decimal": null
  },
  "runway_visibility": [],
  "temperature": {
    "repr": "19",
    "value": 19,
    "spoken": "one nine"
  },
  "wind_variable_direction": [],
  "density_altitude": 609,
  "pressure_altitude": 94,
  "units": {
    "accumulation": "in",
    "altimeter": "inHg",
    "altitude": "ft",
    "temperature": "C",
    "visibility": "sm",
    "wind_speed": "kt"
  }
}
