{
  "altimeter": {
    "repr": "A3004",
    "spoken": "three zero point zero four",
    "value": 30.04
  },
  "clouds": [],
  "density_altitude": -2941,
  "dewpoint": {
    "repr": "M16",
    "spoken": "minus one six",
    "value": -16
  },
  "flight_rules": "VFR",
  "meta": {
    "cache-timestamp": "2024-01-13T18:04:04.994000Z",
    "stations_updated": "2023-10-28",
    "timestamp": "2024-01-13T18:04:27.040001Z"
  },
  "other": [],
  "pressure_altitude": 24,
  "raw": "KBVS 131735Z AUTO 00000KT 10SM CLR M10/M16 A3004 RMK A01",
  "relative_humidity": 0.6150940520458272,
  "remarks": "RMK A01",
  "remarks_info": {
    "codes": [],
    "dewpoint_decimal": null,
    "maximum_temperature_24": null,
    "maximum_temperature_6": null,
    "minimum_temperature_24": null,
    "minimum_temperature_6": null,
    "precip_24_hours": null,
    "precip_36_hours": null,
    "precip_hourly": null,
    "pressure_tendency": null,
    "sea_level_pressure": null,
    "snow_depth": null,
    "sunshine_minutes": null,
    "temperature_decimal": null
  },
  "runway_visibility": [],
  "sanitized": "KBVS 131735Z 00000KT 10SM M10/M16 A3004 RMK A01",
  "station": "KBVS",
  "temperature": {
    "repr": "M10",
    "spoken": "minus one zero",
    "value": -10
  },
  "time": {
    "dt": "2024-01-13T17:35:00Z",
    "repr": "131735Z"
  },
  "units": {
    "accumulation": "in",
    "altimeter": "inHg",
    "altitude": "ft",
    "temperature": "C",
    "visibility": "sm",
    "wind_speed": "kt"
  },
  "visibility": {
    "repr": "10",
    "spoken": "one zero",
    "value": 10
  },
  "wind_direction": {
    "repr": "000",
    "spoken": "zero zero zero",
    "value": 0
  },
  "wind_gust": null,
  "wind_speed": {
    "repr": "00",
    "spoken": "zero",
    "value": 0
  },
  "wind_variable_direction": [],
  "wx_codes": []
}
