{
  "altimeter": {
    "repr": "A3009",
    "spoken": "three zero point zero nine",
    "value": 30.09
  },
  "clouds": [
    {
      "altitude": 18,
      "modifier": null,
      "repr": "FEW018",
      "type": "FEW"
    },
    {
      "altitude": 33,
      "modifier": null,
      "repr": "BKN033",
      "type": "BKN"
    },
    {
      "altitude": 43,
      "modifier": null,
      "repr": "OVC043",
      "type": "OVC"
    }
  ],
  "density_altitude": -1431,
  "dewpoint": {
    "repr": "02",
    "spoken": "two",
    "value": 2
  },
  "flight_rules": "VFR",
  "meta": {
    "stations_updated": "2024-10-29",
    "timestamp": "2024-11-16T12:49:09.498707Z"
  },
  "other": [],
  "pressure_altitude": -26,
  "raw": "KBVS 161235Z AUTO 09004KT 10SM FEW018 BKN033 OVC043 03/02 A3009 RMK A01",
  "relative_humidity": 0.9313691326652258,
  "remarks": "RMK A01",
  "remarks_info": {
    "codes": [],
    "dewpoint_decimal": null,
    "maximum_temperature_24": null,
    "maximum_temperature_6": null,
    "minimum_temperature_24": null,
    "minimum_temperature_6": null,
    "precip_24_hours": null,
    "precip_36_hours": null,
    "precip_hourly": null,
    "pressure_tendency": null,
    "sea_level_pressure": null,
    "snow_depth": null,
    "sunshine_minutes": null,
    "temperature_decimal": null
  },
  "runway_visibility": [],
  "sanitized": "KBVS 161235Z 09004KT 10SM FEW018 BKN033 OVC043 03/02 A3009 RMK A01",
  "station": "KBVS",
  "temperature": {
    "repr": "03",
    "spoken": "three",
    "value": 3
  },
  "time": {
    "dt": "2024-11-16T12:35:00Z",
    "repr": "161235Z"
  },
  "units": {
    "accumulation": "in",
    "altimeter": "inHg",
    "altitude": "ft",
    "temperature": "C",
    "visibility": "sm",
    "wind_speed": "kt"
  },
  "visibility": {
    "repr": "10",
    "spoken": "one zero",
    "value": 10
  },
  "wind_direction": {
    "repr": "090",
    "spoken": "zero nine zero",
    "value": 90
  },
  "wind_gust": null,
  "wind_speed": {
    "repr": "04",
    "spoken": "four",
    "value": 4
  },
  "wind_variable_direction": [],
  "wx_codes": []
}
