{
  "meta": {
    "timestamp": "2023-03-25T17:23:50.599076Z",
    "stations_updated": "2023-03-11"
  },
  "altimeter": {
    "repr": "A3028",
    "value": 30.28,
    "spoken": "three zero point two eight"
  },
  "clouds": [
    {
      "repr": "FEW014",
      "type": "FEW",
      "altitude": 14,
      "modifier": null
    },
    {
      "repr": "SCT019",
      "type": "SCT",
      "altitude": 19,
      "modifier": null
    },
    {
      "repr": "BKN034",
      "type": "BKN",
      "altitude": 34,
      "modifier": null
    }
  ],
  "flight_rules": "VFR",
  "other": [],
  "visibility": {
    "repr": "10",
    "value": 10,
    "spoken": "one zero"
  },
  "wind_direction": {
    "repr": "130",
    "value": 130,
    "spoken": "one three zero"
  },
  "wind_gust": {
    "repr": "15",
    "value": 15,
    "spoken": "one five"
  },
  "wind_speed": {
    "repr": "08",
    "value": 8,
    "spoken": "eight"
  },
  "wx_codes": [],
  "raw": "KBVS 251715Z AUTO 13008G15KT 10SM FEW014 SCT019 BKN034 05/04 A3028 RMK A01",
  "sanitized": "KBVS 251715Z 13008G15KT 10SM FEW014 SCT019 BKN034 05/04 A3028 RMK A01",
  "station": "KBVS",
  "time": {
    "repr": "251715Z",
    "dt": "2023-03-25T17:15:00Z"
  },
  "remarks": "RMK A01",
  "dewpoint": {
    "repr": "04",
    "value": 4,
    "spoken": "four"
  },
  "relative_humidity": 0.9324335019213874,
  "remarks_info": {
    "maximum_temperature_6": null,
    "minimum_temperature_6": null,
    "pressure_tendency": null,
    "precip_36_hours": null,
    "precip_24_hours": null,
    "sunshine_minutes": null,
    "codes": [],
    "dewpoint_decimal": null,
    "maximum_temperature_24": null,
    "minimum_temperature_24": null,
    "precip_hourly": null,
    "sea_level_pressure": null,
    "snow_depth": null,
    "temperature_decimal": null
  },
  "runway_visibility": [],
  "temperature": {
    "repr": "05",
    "value": 5,
    "spoken": "five"
  },
  "wind_variable_direction": [],
  "density_altitude": -1381,
  "pressure_altitude": -216,
  "units": {
    "accumulation": "in",
    "altimeter": "inHg",
    "altitude": "ft",
    "temperature": "C",
    "visibility": "sm",
    "wind_speed": "kt"
  }
}
