{
  "meta": {
    "timestamp": "2022-12-21T19:40:45.452955Z",
    "stations_updated": "2022-09-05"
  },
  "altimeter": {
    "repr": "A3054",
    "value": 30.54,
    "spoken": "three zero point five four"
  },
  "clouds": [],
  "flight_rules": "VFR",
  "other": [],
  "visibility": {
    "repr": "10",
    "value": 10,
    "spoken": "one zero"
  },
  "wind_direction": {
    "repr": "330",
    "value": 330,
    "spoken": "three three zero"
  },
  "wind_gust": null,
  "wind_speed": {
    "repr": "03",
    "value": 3,
    "spoken": "three"
  },
  "wx_codes": [],
  "raw": "KBVS 211935Z AUTO 33003KT 10SM CLR M08/M11 A3054 RMK A01",
  "sanitized": "KBVS 211935Z 33003KT 10SM M08/M11 A3054 RMK A01",
  "station": "KBVS",
  "time": {
    "repr": "211935Z",
    "dt": "2022-12-21T19:35:00Z"
  },
  "remarks": "RMK A01",
  "dewpoint": {
    "repr": "M11",
    "value": -11,
    "spoken": "minus one one"
  },
  "relative_humidity": 0.7899819175739444,
  "remarks_info": {
    "maximum_temperature_6": null,
    "minimum_temperature_6": null,
    "pressure_tendency": null,
    "precip_36_hours": null,
    "precip_24_hours": null,
    "sunshine_minutes": null,
    "codes": [],
    "dewpoint_decimal": null,
    "maximum_temperature_24": null,
    "minimum_temperature_24": null,
    "precip_hourly": null,
    "sea_level_pressure": null,
    "snow_depth": null,
    "temperature_decimal": null
  },
  "runway_visibility": [],
  "temperature": {
    "repr": "M08",
    "value": -8,
    "spoken": "minus eight"
  },
  "wind_variable_direction": [],
  "density_altitude": -3201,
  "pressure_altitude": -476,
  "units": {
    "accumulation": "in",
    "altimeter": "inHg",
    "altitude": "ft",
    "temperature": "C",
    "visibility": "sm",
    "wind_speed": "kt"
  }
}
