{
  "altimeter": {
    "repr": "A2963",
    "spoken": "two nine point six three",
    "value": 29.63
  },
  "clouds": [
    {
      "altitude": 34,
      "modifier": null,
      "repr": "BKN034",
      "type": "BKN"
    }
  ],
  "density_altitude": -131,
  "dewpoint": {
    "repr": "05",
    "spoken": "five",
    "value": 5
  },
  "flight_rules": "VFR",
  "meta": {
    "stations_updated": "2024-10-29",
    "timestamp": "2024-11-23T06:46:13.326360Z"
  },
  "other": [],
  "pressure_altitude": 434,
  "raw": "KBVS 230555Z AUTO 15015G22KT 10SM BKN034 10/05 A2963 RMK A01",
  "relative_humidity": 0.7106976250052686,
  "remarks": "RMK A01",
  "remarks_info": {
    "codes": [],
    "dewpoint_decimal": null,
    "maximum_temperature_24": null,
    "maximum_temperature_6": null,
    "minimum_temperature_24": null,
    "minimum_temperature_6": null,
    "precip_24_hours": null,
    "precip_36_hours": null,
    "precip_hourly": null,
    "pressure_tendency": null,
    "sea_level_pressure": null,
    "snow_depth": null,
    "sunshine_minutes": null,
    "temperature_decimal": null
  },
  "runway_visibility": [],
  "sanitized": "KBVS 230555Z 15015G22KT 10SM BKN034 10/05 A2963 RMK A01",
  "station": "KBVS",
  "temperature": {
    "repr": "10",
    "spoken": "one zero",
    "value": 10
  },
  "time": {
    "dt": "2024-11-23T05:55:00Z",
    "repr": "230555Z"
  },
  "units": {
    "accumulation": "in",
    "altimeter": "inHg",
    "altitude": "ft",
    "temperature": "C",
    "visibility": "sm",
    "wind_speed": "kt"
  },
  "visibility": {
    "repr": "10",
    "spoken": "one zero",
    "value": 10
  },
  "wind_direction": {
    "repr": "150",
    "spoken": "one five zero",
    "value": 150
  },
  "wind_gust": {
    "repr": "22",
    "spoken": "two two",
    "value": 22
  },
  "wind_speed": {
    "repr": "15",
    "spoken": "one five",
    "value": 15
  },
  "wind_variable_direction": [],
  "wx_codes": []
}
