{
  "altimeter": {
    "repr": "A2994",
    "spoken": "two nine point nine four",
    "value": 29.94
  },
  "clouds": [],
  "density_altitude": 1359,
  "dewpoint": {
    "repr": "22",
    "spoken": "two two",
    "value": 22
  },
  "flight_rules": "VFR",
  "meta": {
    "stations_updated": "2024-06-12",
    "timestamp": "2024-08-04T20:41:14.935162Z"
  },
  "other": [],
  "pressure_altitude": 124,
  "raw": "KBVS 042015Z AUTO 00000G12KT 10SM CLR 25/22 A2994 RMK A01",
  "relative_humidity": 0.8343764448933864,
  "remarks": "RMK A01",
  "remarks_info": {
    "codes": [],
    "dewpoint_decimal": null,
    "maximum_temperature_24": null,
    "maximum_temperature_6": null,
    "minimum_temperature_24": null,
    "minimum_temperature_6": null,
    "precip_24_hours": null,
    "precip_36_hours": null,
    "precip_hourly": null,
    "pressure_tendency": null,
    "sea_level_pressure": null,
    "snow_depth": null,
    "sunshine_minutes": null,
    "temperature_decimal": null
  },
  "runway_visibility": [],
  "sanitized": "KBVS 042015Z 00000G12KT 10SM 25/22 A2994 RMK A01",
  "station": "KBVS",
  "temperature": {
    "repr": "25",
    "spoken": "two five",
    "value": 25
  },
  "time": {
    "dt": "2024-08-04T20:15:00Z",
    "repr": "042015Z"
  },
  "units": {
    "accumulation": "in",
    "altimeter": "inHg",
    "altitude": "ft",
    "temperature": "C",
    "visibility": "sm",
    "wind_speed": "kt"
  },
  "visibility": {
    "repr": "10",
    "spoken": "one zero",
    "value": 10
  },
  "wind_direction": {
    "repr": "000",
    "spoken": "zero zero zero",
    "value": 0
  },
  "wind_gust": {
    "repr": "12",
    "spoken": "one two",
    "value": 12
  },
  "wind_speed": {
    "repr": "00",
    "spoken": "zero",
    "value": 0
  },
  "wind_variable_direction": [],
  "wx_codes": []
}
