{
  "altimeter": {
    "repr": "A3007",
    "spoken": "three zero point zero seven",
    "value": 30.07
  },
  "clouds": [
    {
      "altitude": 44,
      "modifier": null,
      "repr": "FEW044",
      "type": "FEW"
    },
    {
      "altitude": 55,
      "modifier": null,
      "repr": "FEW055",
      "type": "FEW"
    },
    {
      "altitude": 60,
      "modifier": null,
      "repr": "SCT060",
      "type": "SCT"
    }
  ],
  "density_altitude": -451,
  "dewpoint": {
    "repr": "01",
    "spoken": "one",
    "value": 1
  },
  "flight_rules": "VFR",
  "meta": {
    "cache-timestamp": "2024-04-29T22:02:02.752000Z",
    "stations_updated": "2024-01-01",
    "timestamp": "2024-04-29T22:02:07.365052Z"
  },
  "other": [],
  "pressure_altitude": -6,
  "raw": "KBVS 292135Z AUTO 00000G10KT 10SM FEW044 FEW055 SCT060 11/01 A3007 RMK A01",
  "relative_humidity": 0.5008428645132096,
  "remarks": "RMK A01",
  "remarks_info": {
    "codes": [],
    "dewpoint_decimal": null,
    "maximum_temperature_24": null,
    "maximum_temperature_6": null,
    "minimum_temperature_24": null,
    "minimum_temperature_6": null,
    "precip_24_hours": null,
    "precip_36_hours": null,
    "precip_hourly": null,
    "pressure_tendency": null,
    "sea_level_pressure": null,
    "snow_depth": null,
    "sunshine_minutes": null,
    "temperature_decimal": null
  },
  "runway_visibility": [],
  "sanitized": "KBVS 292135Z 00000G10KT 10SM FEW044 FEW055 SCT060 11/01 A3007 RMK A01",
  "station": "KBVS",
  "temperature": {
    "repr": "11",
    "spoken": "one one",
    "value": 11
  },
  "time": {
    "dt": "2024-04-29T21:35:00Z",
    "repr": "292135Z"
  },
  "units": {
    "accumulation": "in",
    "altimeter": "inHg",
    "altitude": "ft",
    "temperature": "C",
    "visibility": "sm",
    "wind_speed": "kt"
  },
  "visibility": {
    "repr": "10",
    "spoken": "one zero",
    "value": 10
  },
  "wind_direction": {
    "repr": "000",
    "spoken": "zero zero zero",
    "value": 0
  },
  "wind_gust": {
    "repr": "10",
    "spoken": "one zero",
    "value": 10
  },
  "wind_speed": {
    "repr": "00",
    "spoken": "zero",
    "value": 0
  },
  "wind_variable_direction": [],
  "wx_codes": []
}
