{
  "altimeter": {
    "repr": "A3015",
    "spoken": "three zero point one five",
    "value": 30.15
  },
  "clouds": [
    {
      "altitude": 60,
      "modifier": null,
      "repr": "OVC060",
      "type": "OVC"
    }
  ],
  "density_altitude": 669,
  "dewpoint": {
    "repr": "17",
    "spoken": "one seven",
    "value": 17
  },
  "flight_rules": "VFR",
  "meta": {
    "stations_updated": "2024-06-12",
    "timestamp": "2024-09-23T20:30:18.824339Z"
  },
  "other": [],
  "pressure_altitude": -86,
  "raw": "KBVS 232015Z AUTO 18004KT 10SM OVC060 21/17 A3015 RMK A01",
  "relative_humidity": 0.7789701483888556,
  "remarks": "RMK A01",
  "remarks_info": {
    "codes": [],
    "dewpoint_decimal": null,
    "maximum_temperature_24": null,
    "maximum_temperature_6": null,
    "minimum_temperature_24": null,
    "minimum_temperature_6": null,
    "precip_24_hours": null,
    "precip_36_hours": null,
    "precip_hourly": null,
    "pressure_tendency": null,
    "sea_level_pressure": null,
    "snow_depth": null,
    "sunshine_minutes": null,
    "temperature_decimal": null
  },
  "runway_visibility": [],
  "sanitized": "KBVS 232015Z 18004KT 10SM OVC060 21/17 A3015 RMK A01",
  "station": "KBVS",
  "temperature": {
    "repr": "21",
    "spoken": "two one",
    "value": 21
  },
  "time": {
    "dt": "2024-09-23T20:15:00Z",
    "repr": "232015Z"
  },
  "units": {
    "accumulation": "in",
    "altimeter": "inHg",
    "altitude": "ft",
    "temperature": "C",
    "visibility": "sm",
    "wind_speed": "kt"
  },
  "visibility": {
    "repr": "10",
    "spoken": "one zero",
    "value": 10
  },
  "wind_direction": {
    "repr": "180",
    "spoken": "one eight zero",
    "value": 180
  },
  "wind_gust": null,
  "wind_speed": {
    "repr": "04",
    "spoken": "four",
    "value": 4
  },
  "wind_variable_direction": [],
  "wx_codes": []
}
