{
  "meta": {
    "timestamp": "2023-10-21T20:21:50.173430Z",
    "stations_updated": "2023-10-01"
  },
  "altimeter": {
    "repr": "A2990",
    "value": 29.9,
    "spoken": "two nine point nine zero"
  },
  "clouds": [
    {
      "repr": "OVC007",
      "type": "OVC",
      "altitude": 7,
      "modifier": null
    }
  ],
  "flight_rules": "IFR",
  "other": [],
  "visibility": {
    "repr": "10",
    "value": 10,
    "spoken": "one zero"
  },
  "wind_direction": {
    "repr": "000",
    "value": 0,
    "spoken": "zero zero zero"
  },
  "wind_gust": null,
  "wind_speed": {
    "repr": "00",
    "value": 0,
    "spoken": "zero"
  },
  "wx_codes": [],
  "raw": "KBVS 212015Z AUTO 00000KT 10SM OVC007 13/13 A2990 RMK A01 KBVS 211955Z AUTO 32007KT 10SM BKN007 OVC014 13/13 A2991 RMK A01 KBVS 211935Z AUTO 31008KT 10SM SCT007 OVC015 12/12 A2991 RMK A01 KBVS 211915Z AUTO 30007KT 10SM SCT007 OVC015 13/13 A2992 RMK A01 KBVS 211855Z AUTO 31008KT 10SM OVC016 13/13 A2991 RMK A01 KBVS 211835Z AUTO 32008KT 10SM SCT005 OVC016 13/13 A2991 RMK A01",
  "sanitized": "KBVS 212015Z 00000KT 10SM OVC007 13/13 A2990 RMK A01 KBVS 211955Z AUTO 32007KT 10SM BKN007 OVC014 13/13 A2991 RMK A01 KBVS 211935Z AUTO 31008KT 10SM SCT007 OVC015 12/12 A2991 RMK A01 KBVS 211915Z AUTO 30007KT 10SM SCT007 OVC015 13/13 A2992 RMK A01 KBVS 211855Z AUTO 31008KT 10SM OVC016 13/13 A2991 RMK A01 KBVS 211835Z AUTO 32008KT 10SM SCT005 OVC016 13/13 A2991 RMK A01",
  "station": "KBVS",
  "time": {
    "repr": "212015Z",
    "dt": "2023-10-21T20:15:00Z"
  },
  "remarks": "RMK A01 KBVS 211955Z AUTO 32007KT 10SM BKN007 OVC014 13/13 A2991 RMK A01 KBVS 211935Z AUTO 31008KT 10SM SCT007 OVC015 12/12 A2991 RMK A01 KBVS 211915Z AUTO 30007KT 10SM SCT007 OVC015 13/13 A2992 RMK A01 KBVS 211855Z AUTO 31008KT 10SM OVC016 13/13 A2991 RMK A01 KBVS 211835Z AUTO 32008KT 10SM SCT005 OVC016 13/13 A2991 RMK A01",
  "dewpoint": {
    "repr": "13",
    "value": 13,
    "spoken": "one three"
  },
  "relative_humidity": 1,
  "remarks_info": {
    "maximum_temperature_6": null,
    "minimum_temperature_6": null,
    "pressure_tendency": null,
    "precip_36_hours": null,
    "precip_24_hours": null,
    "sunshine_minutes": null,
    "codes": [],
    "dewpoint_decimal": null,
    "maximum_temperature_24": null,
    "minimum_temperature_24": null,
    "precip_hourly": null,
    "sea_level_pressure": null,
    "snow_depth": null,
    "temperature_decimal": null
  },
  "runway_visibility": [],
  "temperature": {
    "repr": "13",
    "value": 13,
    "spoken": "one three"
  },
  "wind_variable_direction": [],
  "density_altitude": -41,
  "pressure_altitude": 164,
  "units": {
    "accumulation": "in",
    "altimeter": "inHg",
    "altitude": "ft",
    "temperature": "C",
    "visibility": "sm",
    "wind_speed": "kt"
  }
}
