{
  "altimeter": {
    "repr": "A3005",
    "spoken": "three zero point zero five",
    "value": 30.05
  },
  "clouds": [
    {
      "altitude": 21,
      "modifier": null,
      "repr": "BKN021",
      "type": "BKN"
    },
    {
      "altitude": 28,
      "modifier": null,
      "repr": "BKN028",
      "type": "BKN"
    },
    {
      "altitude": 36,
      "modifier": null,
      "repr": "BKN036",
      "type": "BKN"
    }
  ],
  "density_altitude": -551,
  "dewpoint": {
    "repr": "10",
    "spoken": "one zero",
    "value": 10
  },
  "flight_rules": "MVFR",
  "meta": {
    "cache-timestamp": "2024-05-21T17:40:12.400000Z",
    "stations_updated": "2024-05-13",
    "timestamp": "2024-05-21T17:41:01.964454Z"
  },
  "other": [],
  "pressure_altitude": 14,
  "raw": "KBVS 211715Z AUTO 13004G13KT 10SM BKN021 BKN028 BKN036 10/10 A3005 RMK A01",
  "relative_humidity": 1,
  "remarks": "RMK A01",
  "remarks_info": {
    "codes": [],
    "dewpoint_decimal": null,
    "maximum_temperature_24": null,
    "maximum_temperature_6": null,
    "minimum_temperature_24": null,
    "minimum_temperature_6": null,
    "precip_24_hours": null,
    "precip_36_hours": null,
    "precip_hourly": null,
    "pressure_tendency": null,
    "sea_level_pressure": null,
    "snow_depth": null,
    "sunshine_minutes": null,
    "temperature_decimal": null
  },
  "runway_visibility": [],
  "sanitized": "KBVS 211715Z 13004G13KT 10SM BKN021 BKN028 BKN036 10/10 A3005 RMK A01",
  "station": "KBVS",
  "temperature": {
    "repr": "10",
    "spoken": "one zero",
    "value": 10
  },
  "time": {
    "dt": "2024-05-21T17:15:00Z",
    "repr": "211715Z"
  },
  "units": {
    "accumulation": "in",
    "altimeter": "inHg",
    "altitude": "ft",
    "temperature": "C",
    "visibility": "sm",
    "wind_speed": "kt"
  },
  "visibility": {
    "repr": "10",
    "spoken": "one zero",
    "value": 10
  },
  "wind_direction": {
    "repr": "130",
    "spoken": "one three zero",
    "value": 130
  },
  "wind_gust": {
    "repr": "13",
    "spoken": "one three",
    "value": 13
  },
  "wind_speed": {
    "repr": "04",
    "spoken": "four",
    "value": 4
  },
  "wind_variable_direction": [],
  "wx_codes": []
}
