{
  "altimeter": {
    "repr": "A3010",
    "spoken": "three zero point one zero",
    "value": 30.1
  },
  "clouds": [
    {
      "altitude": 70,
      "modifier": null,
      "repr": "BKN070",
      "type": "BKN"
    },
    {
      "altitude": 80,
      "modifier": null,
      "repr": "OVC080",
      "type": "OVC"
    }
  ],
  "density_altitude": -2881,
  "dewpoint": {
    "repr": "M17",
    "spoken": "minus one seven",
    "value": -17
  },
  "flight_rules": "VFR",
  "meta": {
    "cache-timestamp": "2024-01-12T10:40:04.017000Z",
    "stations_updated": "2023-10-28",
    "timestamp": "2024-01-12T10:40:31.382554Z"
  },
  "other": [],
  "pressure_altitude": -36,
  "raw": "KBVS 121015Z AUTO 03007KT 10SM BKN070 OVC080 M09/M17 A3010 RMK A01",
  "relative_humidity": 0.5230601278786375,
  "remarks": "RMK A01",
  "remarks_info": {
    "codes": [],
    "dewpoint_decimal": null,
    "maximum_temperature_24": null,
    "maximum_temperature_6": null,
    "minimum_temperature_24": null,
    "minimum_temperature_6": null,
    "precip_24_hours": null,
    "precip_36_hours": null,
    "precip_hourly": null,
    "pressure_tendency": null,
    "sea_level_pressure": null,
    "snow_depth": null,
    "sunshine_minutes": null,
    "temperature_decimal": null
  },
  "runway_visibility": [],
  "sanitized": "KBVS 121015Z 03007KT 10SM BKN070 OVC080 M09/M17 A3010 RMK A01",
  "station": "KBVS",
  "temperature": {
    "repr": "M09",
    "spoken": "minus nine",
    "value": -9
  },
  "time": {
    "dt": "2024-01-12T10:15:00Z",
    "repr": "121015Z"
  },
  "units": {
    "accumulation": "in",
    "altimeter": "inHg",
    "altitude": "ft",
    "temperature": "C",
    "visibility": "sm",
    "wind_speed": "kt"
  },
  "visibility": {
    "repr": "10",
    "spoken": "one zero",
    "value": 10
  },
  "wind_direction": {
    "repr": "030",
    "spoken": "zero three zero",
    "value": 30
  },
  "wind_gust": null,
  "wind_speed": {
    "repr": "07",
    "spoken": "seven",
    "value": 7
  },
  "wind_variable_direction": [],
  "wx_codes": []
}
