{
  "altimeter": {
    "repr": "A2993",
    "spoken": "two nine point nine three",
    "value": 29.93
  },
  "clouds": [],
  "density_altitude": 1729,
  "dewpoint": {
    "repr": "17",
    "spoken": "one seven",
    "value": 17
  },
  "flight_rules": "VFR",
  "meta": {
    "stations_updated": "2024-06-12",
    "timestamp": "2024-07-17T00:30:55.011598Z"
  },
  "other": [],
  "pressure_altitude": 134,
  "raw": "KBVS 170015Z AUTO 00000KT 9SM CLR 28/17 A2993 RMK A01",
  "relative_humidity": 0.5121222857316439,
  "remarks": "RMK A01",
  "remarks_info": {
    "codes": [],
    "dewpoint_decimal": null,
    "maximum_temperature_24": null,
    "maximum_temperature_6": null,
    "minimum_temperature_24": null,
    "minimum_temperature_6": null,
    "precip_24_hours": null,
    "precip_36_hours": null,
    "precip_hourly": null,
    "pressure_tendency": null,
    "sea_level_pressure": null,
    "snow_depth": null,
    "sunshine_minutes": null,
    "temperature_decimal": null
  },
  "runway_visibility": [],
  "sanitized": "KBVS 170015Z 00000KT 9SM 28/17 A2993 RMK A01",
  "station": "KBVS",
  "temperature": {
    "repr": "28",
    "spoken": "two eight",
    "value": 28
  },
  "time": {
    "dt": "2024-07-17T00:15:00Z",
    "repr": "170015Z"
  },
  "units": {
    "accumulation": "in",
    "altimeter": "inHg",
    "altitude": "ft",
    "temperature": "C",
    "visibility": "sm",
    "wind_speed": "kt"
  },
  "visibility": {
    "repr": "9",
    "spoken": "nine",
    "value": 9
  },
  "wind_direction": {
    "repr": "000",
    "spoken": "zero zero zero",
    "value": 0
  },
  "wind_gust": null,
  "wind_speed": {
    "repr": "00",
    "spoken": "zero",
    "value": 0
  },
  "wind_variable_direction": [],
  "wx_codes": []
}
