{
  "altimeter": {
    "repr": "A2985",
    "spoken": "two nine point eight five",
    "value": 29.85
  },
  "clouds": [],
  "density_altitude": -2151,
  "dewpoint": {
    "repr": "M16",
    "spoken": "minus one six",
    "value": -16
  },
  "flight_rules": "VFR",
  "meta": {
    "stations_updated": "2023-10-28",
    "timestamp": "2024-01-13T23:01:56.159664Z"
  },
  "other": [],
  "pressure_altitude": 214,
  "raw": "KBVS 132235Z AUTO 22005KT 10SM CLR M05/M16 A2985 RMK A01",
  "relative_humidity": 0.4179953281673609,
  "remarks": "RMK A01",
  "remarks_info": {
    "codes": [],
    "dewpoint_decimal": null,
    "maximum_temperature_24": null,
    "maximum_temperature_6": null,
    "minimum_temperature_24": null,
    "minimum_temperature_6": null,
    "precip_24_hours": null,
    "precip_36_hours": null,
    "precip_hourly": null,
    "pressure_tendency": null,
    "sea_level_pressure": null,
    "snow_depth": null,
    "sunshine_minutes": null,
    "temperature_decimal": null
  },
  "runway_visibility": [],
  "sanitized": "KBVS 132235Z 22005KT 10SM M05/M16 A2985 RMK A01",
  "station": "KBVS",
  "temperature": {
    "repr": "M05",
    "spoken": "minus five",
    "value": -5
  },
  "time": {
    "dt": "2024-01-13T22:35:00Z",
    "repr": "132235Z"
  },
  "units": {
    "accumulation": "in",
    "altimeter": "inHg",
    "altitude": "ft",
    "temperature": "C",
    "visibility": "sm",
    "wind_speed": "kt"
  },
  "visibility": {
    "repr": "10",
    "spoken": "one zero",
    "value": 10
  },
  "wind_direction": {
    "repr": "220",
    "spoken": "two two zero",
    "value": 220
  },
  "wind_gust": null,
  "wind_speed": {
    "repr": "05",
    "spoken": "five",
    "value": 5
  },
  "wind_variable_direction": [],
  "wx_codes": []
}
