{
  "altimeter": {
    "repr": "A2944",
    "spoken": "two nine point four four",
    "value": 29.44
  },
  "clouds": [
    {
      "altitude": 20,
      "modifier": null,
      "repr": "BKN020",
      "type": "BKN"
    },
    {
      "altitude": 26,
      "modifier": null,
      "repr": "BKN026",
      "type": "BKN"
    },
    {
      "altitude": 33,
      "modifier": null,
      "repr": "OVC033",
      "type": "OVC"
    }
  ],
  "density_altitude": -541,
  "dewpoint": {
    "repr": "04",
    "spoken": "four",
    "value": 4
  },
  "flight_rules": "MVFR",
  "meta": {
    "cache-timestamp": "2024-03-02T20:40:18.590000Z",
    "stations_updated": "2024-01-01",
    "timestamp": "2024-03-02T20:40:29.147429Z"
  },
  "other": [],
  "pressure_altitude": 624,
  "raw": "KBVS 022015Z AUTO 16007KT 10SM BKN020 BKN026 OVC033 05/04 A2944 RMK A01",
  "relative_humidity": 0.9324335019213874,
  "remarks": "RMK A01",
  "remarks_info": {
    "codes": [],
    "dewpoint_decimal": null,
    "maximum_temperature_24": null,
    "maximum_temperature_6": null,
    "minimum_temperature_24": null,
    "minimum_temperature_6": null,
    "precip_24_hours": null,
    "precip_36_hours": null,
    "precip_hourly": null,
    "pressure_tendency": null,
    "sea_level_pressure": null,
    "snow_depth": null,
    "sunshine_minutes": null,
    "temperature_decimal": null
  },
  "runway_visibility": [],
  "sanitized": "KBVS 022015Z 16007KT 10SM BKN020 BKN026 OVC033 05/04 A2944 RMK A01",
  "station": "KBVS",
  "temperature": {
    "repr": "05",
    "spoken": "five",
    "value": 5
  },
  "time": {
    "dt": "2024-03-02T20:15:00Z",
    "repr": "022015Z"
  },
  "units": {
    "accumulation": "in",
    "altimeter": "inHg",
    "altitude": "ft",
    "temperature": "C",
    "visibility": "sm",
    "wind_speed": "kt"
  },
  "visibility": {
    "repr": "10",
    "spoken": "one zero",
    "value": 10
  },
  "wind_direction": {
    "repr": "160",
    "spoken": "one six zero",
    "value": 160
  },
  "wind_gust": null,
  "wind_speed": {
    "repr": "07",
    "spoken": "seven",
    "value": 7
  },
  "wind_variable_direction": [],
  "wx_codes": []
}
