{
  "altimeter": {
    "repr": "A2980",
    "spoken": "two nine point eight zero",
    "value": 29.8
  },
  "clouds": [
    {
      "altitude": 39,
      "modifier": null,
      "repr": "SCT039",
      "type": "SCT"
    },
    {
      "altitude": 45,
      "modifier": null,
      "repr": "SCT045",
      "type": "SCT"
    }
  ],
  "density_altitude": 299,
  "dewpoint": {
    "repr": "10",
    "spoken": "one zero",
    "value": 10
  },
  "flight_rules": "VFR",
  "meta": {
    "cache-timestamp": "2023-11-05T20:40:05.770000Z",
    "stations_updated": "2023-10-28",
    "timestamp": "2023-11-05T20:40:28.139503Z"
  },
  "other": [],
  "pressure_altitude": 264,
  "raw": "KBVS 052015Z AUTO 11010KT 10SM SCT039 SCT045 15/10 A2980 RMK A01",
  "relative_humidity": 0.7201490523980751,
  "remarks": "RMK A01",
  "remarks_info": {
    "codes": [],
    "dewpoint_decimal": null,
    "maximum_temperature_24": null,
    "maximum_temperature_6": null,
    "minimum_temperature_24": null,
    "minimum_temperature_6": null,
    "precip_24_hours": null,
    "precip_36_hours": null,
    "precip_hourly": null,
    "pressure_tendency": null,
    "sea_level_pressure": null,
    "snow_depth": null,
    "sunshine_minutes": null,
    "temperature_decimal": null
  },
  "runway_visibility": [],
  "sanitized": "KBVS 052015Z 11010KT 10SM SCT039 SCT045 15/10 A2980 RMK A01",
  "station": "KBVS",
  "temperature": {
    "repr": "15",
    "spoken": "one five",
    "value": 15
  },
  "time": {
    "dt": "2023-11-05T20:15:00Z",
    "repr": "052015Z"
  },
  "units": {
    "accumulation": "in",
    "altimeter": "inHg",
    "altitude": "ft",
    "temperature": "C",
    "visibility": "sm",
    "wind_speed": "kt"
  },
  "visibility": {
    "repr": "10",
    "spoken": "one zero",
    "value": 10
  },
  "wind_direction": {
    "repr": "110",
    "spoken": "one one zero",
    "value": 110
  },
  "wind_gust": null,
  "wind_speed": {
    "repr": "10",
    "spoken": "one zero",
    "value": 10
  },
  "wind_variable_direction": [],
  "wx_codes": []
}
