{
  "meta": {
    "timestamp": "2023-06-19T22:01:23.277119Z",
    "stations_updated": "2023-06-06"
  },
  "altimeter": {
    "repr": "A2992",
    "value": 29.92,
    "spoken": "two nine point nine two"
  },
  "clouds": [
    {
      "repr": "FEW031",
      "type": "FEW",
      "altitude": 31,
      "modifier": null
    },
    {
      "repr": "BKN040",
      "type": "BKN",
      "altitude": 40,
      "modifier": null
    },
    {
      "repr": "BKN055",
      "type": "BKN",
      "altitude": 55,
      "modifier": null
    }
  ],
  "flight_rules": "VFR",
  "other": [],
  "visibility": {
    "repr": "10",
    "value": 10,
    "spoken": "one zero"
  },
  "wind_direction": {
    "repr": "160",
    "value": 160,
    "spoken": "one six zero"
  },
  "wind_gust": {
    "repr": "12",
    "value": 12,
    "spoken": "one two"
  },
  "wind_speed": {
    "repr": "06",
    "value": 6,
    "spoken": "six"
  },
  "wx_codes": [],
  "raw": "KBVS 192155Z AUTO 16006G12KT 10SM FEW031 BKN040 BKN055 14/09 A2992 RMK A01",
  "sanitized": "KBVS 192155Z 16006G12KT 10SM FEW031 BKN040 BKN055 14/09 A2992 RMK A01",
  "station": "KBVS",
  "time": {
    "repr": "192155Z",
    "dt": "2023-06-19T21:55:00Z"
  },
  "remarks": "RMK A01",
  "dewpoint": {
    "repr": "09",
    "value": 9,
    "spoken": "nine"
  },
  "relative_humidity": 0.7182933363283265,
  "remarks_info": {
    "maximum_temperature_6": null,
    "minimum_temperature_6": null,
    "pressure_tendency": null,
    "precip_36_hours": null,
    "precip_24_hours": null,
    "sunshine_minutes": null,
    "codes": [],
    "dewpoint_decimal": null,
    "maximum_temperature_24": null,
    "minimum_temperature_24": null,
    "precip_hourly": null,
    "sea_level_pressure": null,
    "snow_depth": null,
    "temperature_decimal": null
  },
  "runway_visibility": [],
  "temperature": {
    "repr": "14",
    "value": 14,
    "spoken": "one four"
  },
  "wind_variable_direction": [],
  "density_altitude": 59,
  "pressure_altitude": 144,
  "units": {
    "accumulation": "in",
    "altimeter": "inHg",
    "altitude": "ft",
    "temperature": "C",
    "visibility": "sm",
    "wind_speed": "kt"
  }
}
