{
  "meta": {
    "timestamp": "2023-02-08T10:06:29.159752Z",
    "stations_updated": "2023-01-30",
    "cache-timestamp": "2023-02-08T10:06:04.300000Z"
  },
  "altimeter": {
    "repr": "A3033",
    "value": 30.33,
    "spoken": "three zero point three three"
  },
  "clouds": [
    {
      "repr": "FEW015",
      "type": "FEW",
      "altitude": 15,
      "modifier": null
    },
    {
      "repr": "BKN024",
      "type": "BKN",
      "altitude": 24,
      "modifier": null
    },
    {
      "repr": "OVC035",
      "type": "OVC",
      "altitude": 35,
      "modifier": null
    }
  ],
  "flight_rules": "MVFR",
  "other": [],
  "visibility": {
    "repr": "9",
    "value": 9,
    "spoken": "nine"
  },
  "wind_direction": {
    "repr": "VRB",
    "value": null,
    "spoken": "variable"
  },
  "wind_gust": null,
  "wind_speed": {
    "repr": "03",
    "value": 3,
    "spoken": "three"
  },
  "wx_codes": [],
  "raw": "KBVS 080935Z AUTO VRB03KT 9SM FEW015 BKN024 OVC035 06/05 A3033 RMK A01",
  "sanitized": "KBVS 080935Z VRB03KT 9SM FEW015 BKN024 OVC035 06/05 A3033 RMK A01",
  "station": "KBVS",
  "time": {
    "repr": "080935Z",
    "dt": "2023-02-08T09:35:00Z"
  },
  "remarks": "RMK A01",
  "dewpoint": {
    "repr": "05",
    "value": 5,
    "spoken": "five"
  },
  "relative_humidity": 0.9329565396428716,
  "remarks_info": {
    "maximum_temperature_6": null,
    "minimum_temperature_6": null,
    "pressure_tendency": null,
    "precip_36_hours": null,
    "precip_24_hours": null,
    "sunshine_minutes": null,
    "codes": [],
    "dewpoint_decimal": null,
    "maximum_temperature_24": null,
    "minimum_temperature_24": null,
    "precip_hourly": null,
    "sea_level_pressure": null,
    "snow_depth": null,
    "temperature_decimal": null
  },
  "runway_visibility": [],
  "temperature": {
    "repr": "06",
    "value": 6,
    "spoken": "six"
  },
  "wind_variable_direction": [],
  "density_altitude": -1311,
  "pressure_altitude": -266,
  "units": {
    "accumulation": "in",
    "altimeter": "inHg",
    "altitude": "ft",
    "temperature": "C",
    "visibility": "sm",
    "wind_speed": "kt"
  }
}
