{
  "meta": {
    "timestamp": "2023-05-19T21:40:33.606459Z",
    "stations_updated": "2023-03-11",
    "cache-timestamp": "2023-05-19T21:40:06.357000Z"
  },
  "altimeter": {
    "repr": "A3011",
    "value": 30.11,
    "spoken": "three zero point one one"
  },
  "clouds": [],
  "flight_rules": "VFR",
  "other": [],
  "visibility": {
    "repr": "10",
    "value": 10,
    "spoken": "one zero"
  },
  "wind_direction": {
    "repr": "VRB",
    "value": null,
    "spoken": "variable"
  },
  "wind_gust": null,
  "wind_speed": {
    "repr": "04",
    "value": 4,
    "spoken": "four"
  },
  "wx_codes": [],
  "raw": "KBVS 192115Z AUTO VRB04KT 10SM CLR 20/15 A3011 RMK A01",
  "sanitized": "KBVS 192115Z VRB04KT 10SM 20/15 A3011 RMK A01",
  "station": "KBVS",
  "time": {
    "repr": "192115Z",
    "dt": "2023-05-19T21:15:00Z"
  },
  "remarks": "RMK A01",
  "dewpoint": {
    "repr": "15",
    "value": 15,
    "spoken": "one five"
  },
  "relative_humidity": 0.7291775824653782,
  "remarks_info": {
    "maximum_temperature_6": null,
    "minimum_temperature_6": null,
    "pressure_tendency": null,
    "precip_36_hours": null,
    "precip_24_hours": null,
    "sunshine_minutes": null,
    "codes": [],
    "dewpoint_decimal": null,
    "maximum_temperature_24": null,
    "minimum_temperature_24": null,
    "precip_hourly": null,
    "sea_level_pressure": null,
    "snow_depth": null,
    "temperature_decimal": null
  },
  "runway_visibility": [],
  "temperature": {
    "repr": "20",
    "value": 20,
    "spoken": "two zero"
  },
  "wind_variable_direction": [],
  "density_altitude": 589,
  "pressure_altitude": -46,
  "units": {
    "accumulation": "in",
    "altimeter": "inHg",
    "altitude": "ft",
    "temperature": "C",
    "visibility": "sm",
    "wind_speed": "kt"
  }
}
