{
  "meta": {
    "timestamp": "2023-10-19T22:01:19.066522Z",
    "stations_updated": "2023-10-01"
  },
  "altimeter": {
    "repr": "A3006",
    "value": 30.06,
    "spoken": "three zero point zero six"
  },
  "clouds": [
    {
      "repr": "OVC038",
      "type": "OVC",
      "altitude": 38,
      "modifier": null
    }
  ],
  "flight_rules": "VFR",
  "other": [],
  "visibility": {
    "repr": "10",
    "value": 10,
    "spoken": "one zero"
  },
  "wind_direction": {
    "repr": "190",
    "value": 190,
    "spoken": "one nine zero"
  },
  "wind_gust": {
    "repr": "11",
    "value": 11,
    "spoken": "one one"
  },
  "wind_speed": {
    "repr": "06",
    "value": 6,
    "spoken": "six"
  },
  "wx_codes": [],
  "raw": "KBVS 192155Z AUTO 19006G11KT 10SM OVC038 18/17 A3006 RMK A01 KBVS 192135Z AUTO 20007KT 10SM OVC040 18/17 A3007 RMK A01 KBVS 192115Z AUTO 20011KT 10SM BKN042 OVC075 19/17 A3007 RMK A01 KBVS 192055Z AUTO 20011G16KT 10SM OVC075 18/17 A3007 RMK A01 KBVS 192035Z AUTO 20009G16KT 10SM OVC075 18/17 A3008 RMK A01 KBVS 192015Z AUTO 21011KT 10SM OVC075 18/17 A3007 RMK A01",
  "sanitized": "KBVS 192155Z 19006G11KT 10SM OVC038 18/17 A3006 RMK A01 KBVS 192135Z AUTO 20007KT 10SM OVC040 18/17 A3007 RMK A01 KBVS 192115Z AUTO 20011KT 10SM BKN042 OVC075 19/17 A3007 RMK A01 KBVS 192055Z AUTO 20011G16KT 10SM OVC075 18/17 A3007 RMK A01 KBVS 192035Z AUTO 20009G16KT 10SM OVC075 18/17 A3008 RMK A01 KBVS 192015Z AUTO 21011KT 10SM OVC075 18/17 A3007 RMK A01",
  "station": "KBVS",
  "time": {
    "repr": "192155Z",
    "dt": "2023-10-19T21:55:00Z"
  },
  "remarks": "RMK A01 KBVS 192135Z AUTO 20007KT 10SM OVC040 18/17 A3007 RMK A01 KBVS 192115Z AUTO 20011KT 10SM BKN042 OVC075 19/17 A3007 RMK A01 KBVS 192055Z AUTO 20011G16KT 10SM OVC075 18/17 A3007 RMK A01 KBVS 192035Z AUTO 20009G16KT 10SM OVC075 18/17 A3008 RMK A01 KBVS 192015Z AUTO 21011KT 10SM OVC075 18/17 A3007 RMK A01",
  "dewpoint": {
    "repr": "17",
    "value": 17,
    "spoken": "one seven"
  },
  "relative_humidity": 0.9387913470062077,
  "remarks_info": {
    "maximum_temperature_6": null,
    "minimum_temperature_6": null,
    "pressure_tendency": null,
    "precip_36_hours": null,
    "precip_24_hours": null,
    "sunshine_minutes": null,
    "codes": [],
    "dewpoint_decimal": null,
    "maximum_temperature_24": null,
    "minimum_temperature_24": null,
    "precip_hourly": null,
    "sea_level_pressure": null,
    "snow_depth": null,
    "temperature_decimal": null
  },
  "runway_visibility": [],
  "temperature": {
    "repr": "18",
    "value": 18,
    "spoken": "one eight"
  },
  "wind_variable_direction": [],
  "density_altitude": 399,
  "pressure_altitude": 4,
  "units": {
    "accumulation": "in",
    "altimeter": "inHg",
    "altitude": "ft",
    "temperature": "C",
    "visibility": "sm",
    "wind_speed": "kt"
  }
}
