{
  "altimeter": {
    "repr": "A3024",
    "spoken": "three zero point two four",
    "value": 30.24
  },
  "clouds": [],
  "density_altitude": 819,
  "dewpoint": {
    "repr": "19",
    "spoken": "one nine",
    "value": 19
  },
  "flight_rules": "VFR",
  "meta": {
    "stations_updated": "2024-06-12",
    "timestamp": "2024-07-04T22:40:33.025420Z"
  },
  "other": [],
  "pressure_altitude": -176,
  "raw": "KBVS 042215Z AUTO 29006KT 9SM CLR 23/19 A3024 RMK A01",
  "relative_humidity": 0.7819072195397603,
  "remarks": "RMK A01",
  "remarks_info": {
    "codes": [],
    "dewpoint_decimal": null,
    "maximum_temperature_24": null,
    "maximum_temperature_6": null,
    "minimum_temperature_24": null,
    "minimum_temperature_6": null,
    "precip_24_hours": null,
    "precip_36_hours": null,
    "precip_hourly": null,
    "pressure_tendency": null,
    "sea_level_pressure": null,
    "snow_depth": null,
    "sunshine_minutes": null,
    "temperature_decimal": null
  },
  "runway_visibility": [],
  "sanitized": "KBVS 042215Z 29006KT 9SM 23/19 A3024 RMK A01",
  "station": "KBVS",
  "temperature": {
    "repr": "23",
    "spoken": "two three",
    "value": 23
  },
  "time": {
    "dt": "2024-07-04T22:15:00Z",
    "repr": "042215Z"
  },
  "units": {
    "accumulation": "in",
    "altimeter": "inHg",
    "altitude": "ft",
    "temperature": "C",
    "visibility": "sm",
    "wind_speed": "kt"
  },
  "visibility": {
    "repr": "9",
    "spoken": "nine",
    "value": 9
  },
  "wind_direction": {
    "repr": "290",
    "spoken": "two nine zero",
    "value": 290
  },
  "wind_gust": null,
  "wind_speed": {
    "repr": "06",
    "spoken": "six",
    "value": 6
  },
  "wind_variable_direction": [],
  "wx_codes": []
}
