{
  "altimeter": {
    "repr": "A3020",
    "spoken": "three zero point two zero",
    "value": 30.2
  },
  "clouds": [
    {
      "altitude": 31,
      "modifier": null,
      "repr": "SCT031",
      "type": "SCT"
    },
    {
      "altitude": 39,
      "modifier": null,
      "repr": "BKN039",
      "type": "BKN"
    }
  ],
  "density_altitude": -461,
  "dewpoint": {
    "repr": "08",
    "spoken": "eight",
    "value": 8
  },
  "flight_rules": "VFR",
  "meta": {
    "stations_updated": "2024-01-01",
    "timestamp": "2024-04-07T22:01:20.386586Z"
  },
  "other": [],
  "pressure_altitude": -136,
  "raw": "KBVS 072155Z AUTO 20009KT 10SM SCT031 BKN039 12/08 A3020 RMK A01",
  "relative_humidity": 0.7650343392852356,
  "remarks": "RMK A01",
  "remarks_info": {
    "codes": [],
    "dewpoint_decimal": null,
    "maximum_temperature_24": null,
    "maximum_temperature_6": null,
    "minimum_temperature_24": null,
    "minimum_temperature_6": null,
    "precip_24_hours": null,
    "precip_36_hours": null,
    "precip_hourly": null,
    "pressure_tendency": null,
    "sea_level_pressure": null,
    "snow_depth": null,
    "sunshine_minutes": null,
    "temperature_decimal": null
  },
  "runway_visibility": [],
  "sanitized": "KBVS 072155Z 20009KT 10SM SCT031 BKN039 12/08 A3020 RMK A01",
  "station": "KBVS",
  "temperature": {
    "repr": "12",
    "spoken": "one two",
    "value": 12
  },
  "time": {
    "dt": "2024-04-07T21:55:00Z",
    "repr": "072155Z"
  },
  "units": {
    "accumulation": "in",
    "altimeter": "inHg",
    "altitude": "ft",
    "temperature": "C",
    "visibility": "sm",
    "wind_speed": "kt"
  },
  "visibility": {
    "repr": "10",
    "spoken": "one zero",
    "value": 10
  },
  "wind_direction": {
    "repr": "200",
    "spoken": "two zero zero",
    "value": 200
  },
  "wind_gust": null,
  "wind_speed": {
    "repr": "09",
    "spoken": "nine",
    "value": 9
  },
  "wind_variable_direction": [],
  "wx_codes": []
}
