{
  "altimeter": {
    "repr": "A2988",
    "spoken": "two nine point eight eight",
    "value": 29.88
  },
  "clouds": [
    {
      "altitude": 27,
      "modifier": null,
      "repr": "OVC027",
      "type": "OVC"
    }
  ],
  "density_altitude": -621,
  "dewpoint": {
    "repr": "05",
    "spoken": "five",
    "value": 5
  },
  "flight_rules": "MVFR",
  "meta": {
    "stations_updated": "2024-10-29",
    "timestamp": "2024-10-31T09:07:40.170068Z"
  },
  "other": [],
  "pressure_altitude": 184,
  "raw": "KBVS 310855Z AUTO 14005KT 10SM OVC027 08/05 A2988 RMK A01",
  "relative_humidity": 0.8133982839480661,
  "remarks": "RMK A01",
  "remarks_info": {
    "codes": [],
    "dewpoint_decimal": null,
    "maximum_temperature_24": null,
    "maximum_temperature_6": null,
    "minimum_temperature_24": null,
    "minimum_temperature_6": null,
    "precip_24_hours": null,
    "precip_36_hours": null,
    "precip_hourly": null,
    "pressure_tendency": null,
    "sea_level_pressure": null,
    "snow_depth": null,
    "sunshine_minutes": null,
    "temperature_decimal": null
  },
  "runway_visibility": [],
  "sanitized": "KBVS 310855Z 14005KT 10SM OVC027 08/05 A2988 RMK A01",
  "station": "KBVS",
  "temperature": {
    "repr": "08",
    "spoken": "eight",
    "value": 8
  },
  "time": {
    "dt": "2024-10-31T08:55:00Z",
    "repr": "310855Z"
  },
  "units": {
    "accumulation": "in",
    "altimeter": "inHg",
    "altitude": "ft",
    "temperature": "C",
    "visibility": "sm",
    "wind_speed": "kt"
  },
  "visibility": {
    "repr": "10",
    "spoken": "one zero",
    "value": 10
  },
  "wind_direction": {
    "repr": "140",
    "spoken": "one four zero",
    "value": 140
  },
  "wind_gust": null,
  "wind_speed": {
    "repr": "05",
    "spoken": "five",
    "value": 5
  },
  "wind_variable_direction": [],
  "wx_codes": []
}
