{
  "altimeter": {
    "repr": "A3033",
    "spoken": "three zero point three three",
    "value": 30.33
  },
  "clouds": [
    {
      "altitude": 35,
      "modifier": null,
      "repr": "FEW035",
      "type": "FEW"
    }
  ],
  "density_altitude": -231,
  "dewpoint": {
    "repr": "07",
    "spoken": "seven",
    "value": 7
  },
  "flight_rules": "VFR",
  "meta": {
    "cache-timestamp": "2024-10-02T22:31:21.019000Z",
    "stations_updated": "2024-06-12",
    "timestamp": "2024-10-02T22:32:00.431278Z"
  },
  "other": [],
  "pressure_altitude": -266,
  "raw": "KBVS 022215Z AUTO 29008G13KT 10SM FEW035 15/07 A3033 RMK A01",
  "relative_humidity": 0.587683914375952,
  "remarks": "RMK A01",
  "remarks_info": {
    "codes": [],
    "dewpoint_decimal": null,
    "maximum_temperature_24": null,
    "maximum_temperature_6": null,
    "minimum_temperature_24": null,
    "minimum_temperature_6": null,
    "precip_24_hours": null,
    "precip_36_hours": null,
    "precip_hourly": null,
    "pressure_tendency": null,
    "sea_level_pressure": null,
    "snow_depth": null,
    "sunshine_minutes": null,
    "temperature_decimal": null
  },
  "runway_visibility": [],
  "sanitized": "KBVS 022215Z 29008G13KT 10SM FEW035 15/07 A3033 RMK A01",
  "station": "KBVS",
  "temperature": {
    "repr": "15",
    "spoken": "one five",
    "value": 15
  },
  "time": {
    "dt": "2024-10-02T22:15:00Z",
    "repr": "022215Z"
  },
  "units": {
    "accumulation": "in",
    "altimeter": "inHg",
    "altitude": "ft",
    "temperature": "C",
    "visibility": "sm",
    "wind_speed": "kt"
  },
  "visibility": {
    "repr": "10",
    "spoken": "one zero",
    "value": 10
  },
  "wind_direction": {
    "repr": "290",
    "spoken": "two nine zero",
    "value": 290
  },
  "wind_gust": {
    "repr": "13",
    "spoken": "one three",
    "value": 13
  },
  "wind_speed": {
    "repr": "08",
    "spoken": "eight",
    "value": 8
  },
  "wind_variable_direction": [],
  "wx_codes": []
}
