{
  "altimeter": {
    "repr": "A2967",
    "spoken": "two nine point six seven",
    "value": 29.67
  },
  "clouds": [
    {
      "altitude": 22,
      "modifier": null,
      "repr": "FEW022",
      "type": "FEW"
    },
    {
      "altitude": 39,
      "modifier": null,
      "repr": "SCT039",
      "type": "SCT"
    },
    {
      "altitude": 47,
      "modifier": null,
      "repr": "BKN047",
      "type": "BKN"
    }
  ],
  "density_altitude": -411,
  "dewpoint": {
    "repr": "04",
    "spoken": "four",
    "value": 4
  },
  "flight_rules": "VFR",
  "meta": {
    "cache-timestamp": "2024-03-10T07:40:03.805000Z",
    "stations_updated": "2024-01-01",
    "timestamp": "2024-03-10T07:40:37.408835Z"
  },
  "other": [],
  "pressure_altitude": 394,
  "raw": "KBVS 100715Z AUTO 11012G19KT 10SM FEW022 SCT039 BKN047 08/04 A2967 RMK A01",
  "relative_humidity": 0.7584398103585424,
  "remarks": "RMK A01",
  "remarks_info": {
    "codes": [],
    "dewpoint_decimal": null,
    "maximum_temperature_24": null,
    "maximum_temperature_6": null,
    "minimum_temperature_24": null,
    "minimum_temperature_6": null,
    "precip_24_hours": null,
    "precip_36_hours": null,
    "precip_hourly": null,
    "pressure_tendency": null,
    "sea_level_pressure": null,
    "snow_depth": null,
    "sunshine_minutes": null,
    "temperature_decimal": null
  },
  "runway_visibility": [],
  "sanitized": "KBVS 100715Z 11012G19KT 10SM FEW022 SCT039 BKN047 08/04 A2967 RMK A01",
  "station": "KBVS",
  "temperature": {
    "repr": "08",
    "spoken": "eight",
    "value": 8
  },
  "time": {
    "dt": "2024-03-10T07:15:00Z",
    "repr": "100715Z"
  },
  "units": {
    "accumulation": "in",
    "altimeter": "inHg",
    "altitude": "ft",
    "temperature": "C",
    "visibility": "sm",
    "wind_speed": "kt"
  },
  "visibility": {
    "repr": "10",
    "spoken": "one zero",
    "value": 10
  },
  "wind_direction": {
    "repr": "110",
    "spoken": "one one zero",
    "value": 110
  },
  "wind_gust": {
    "repr": "19",
    "spoken": "one nine",
    "value": 19
  },
  "wind_speed": {
    "repr": "12",
    "spoken": "one two",
    "value": 12
  },
  "wind_variable_direction": [],
  "wx_codes": []
}
