{
  "altimeter": {
    "repr": "A3000",
    "spoken": "three zero point zero zero",
    "value": 30
  },
  "clouds": [],
  "density_altitude": 459,
  "dewpoint": {
    "repr": "15",
    "spoken": "one five",
    "value": 15
  },
  "flight_rules": "VFR",
  "meta": {
    "cache-timestamp": "2024-06-09T18:28:03.213000Z",
    "stations_updated": "2024-05-13",
    "timestamp": "2024-06-09T18:29:02.513845Z"
  },
  "other": [],
  "pressure_altitude": 64,
  "raw": "KBVS 091815Z AUTO 17006KT 10SM CLR 18/15 A3000 RMK A01",
  "relative_humidity": 0.8261721280680707,
  "remarks": "RMK A01",
  "remarks_info": {
    "codes": [],
    "dewpoint_decimal": null,
    "maximum_temperature_24": null,
    "maximum_temperature_6": null,
    "minimum_temperature_24": null,
    "minimum_temperature_6": null,
    "precip_24_hours": null,
    "precip_36_hours": null,
    "precip_hourly": null,
    "pressure_tendency": null,
    "sea_level_pressure": null,
    "snow_depth": null,
    "sunshine_minutes": null,
    "temperature_decimal": null
  },
  "runway_visibility": [],
  "sanitized": "KBVS 091815Z 17006KT 10SM 18/15 A3000 RMK A01",
  "station": "KBVS",
  "temperature": {
    "repr": "18",
    "spoken": "one eight",
    "value": 18
  },
  "time": {
    "dt": "2024-06-09T18:15:00Z",
    "repr": "091815Z"
  },
  "units": {
    "accumulation": "in",
    "altimeter": "inHg",
    "altitude": "ft",
    "temperature": "C",
    "visibility": "sm",
    "wind_speed": "kt"
  },
  "visibility": {
    "repr": "10",
    "spoken": "one zero",
    "value": 10
  },
  "wind_direction": {
    "repr": "170",
    "spoken": "one seven zero",
    "value": 170
  },
  "wind_gust": null,
  "wind_speed": {
    "repr": "06",
    "spoken": "six",
    "value": 6
  },
  "wind_variable_direction": [],
  "wx_codes": []
}
