{
  "altimeter": {
    "repr": "A3062",
    "spoken": "three zero point six two",
    "value": 30.62
  },
  "clouds": [],
  "density_altitude": -2441,
  "dewpoint": {
    "repr": "M07",
    "spoken": "minus seven",
    "value": -7
  },
  "flight_rules": "VFR",
  "meta": {
    "stations_updated": "2024-12-02",
    "timestamp": "2025-01-20T14:06:59.098224Z"
  },
  "other": [],
  "pressure_altitude": -556,
  "raw": "KBVS 201355Z AUTO 03008KT 10SM CLR M01/M07 A3062 RMK A01",
  "relative_humidity": 0.6375413541596342,
  "remarks": "RMK A01",
  "remarks_info": {
    "codes": [],
    "dewpoint_decimal": null,
    "maximum_temperature_24": null,
    "maximum_temperature_6": null,
    "minimum_temperature_24": null,
    "minimum_temperature_6": null,
    "precip_24_hours": null,
    "precip_36_hours": null,
    "precip_hourly": null,
    "pressure_tendency": null,
    "sea_level_pressure": null,
    "snow_depth": null,
    "sunshine_minutes": null,
    "temperature_decimal": null
  },
  "runway_visibility": [],
  "sanitized": "KBVS 201355Z 03008KT 10SM M01/M07 A3062 RMK A01",
  "station": "KBVS",
  "temperature": {
    "repr": "M01",
    "spoken": "minus one",
    "value": -1
  },
  "time": {
    "dt": "2025-01-20T13:55:00Z",
    "repr": "201355Z"
  },
  "units": {
    "accumulation": "in",
    "altimeter": "inHg",
    "altitude": "ft",
    "temperature": "C",
    "visibility": "sm",
    "wind_speed": "kt"
  },
  "visibility": {
    "repr": "10",
    "spoken": "one zero",
    "value": 10
  },
  "wind_direction": {
    "repr": "030",
    "spoken": "zero three zero",
    "value": 30
  },
  "wind_gust": null,
  "wind_speed": {
    "repr": "08",
    "spoken": "eight",
    "value": 8
  },
  "wind_variable_direction": [],
  "wx_codes": []
}
