{
  "meta": {
    "timestamp": "2023-08-10T21:40:35.138694Z",
    "stations_updated": "2023-08-05",
    "cache-timestamp": "2023-08-10T21:40:04.722000Z"
  },
  "altimeter": {
    "repr": "A3003",
    "value": 30.03,
    "spoken": "three zero point zero three"
  },
  "clouds": [
    {
      "repr": "FEW043",
      "type": "FEW",
      "altitude": 43,
      "modifier": null
    },
    {
      "repr": "OVC055",
      "type": "OVC",
      "altitude": 55,
      "modifier": null
    }
  ],
  "flight_rules": "VFR",
  "other": [],
  "visibility": {
    "repr": "10",
    "value": 10,
    "spoken": "one zero"
  },
  "wind_direction": {
    "repr": "230",
    "value": 230,
    "spoken": "two three zero"
  },
  "wind_gust": {
    "repr": "16",
    "value": 16,
    "spoken": "one six"
  },
  "wind_speed": {
    "repr": "08",
    "value": 8,
    "spoken": "eight"
  },
  "wx_codes": [],
  "raw": "KBVS 102115Z AUTO 23008G16KT 190V280 10SM FEW043 OVC055 24/12 A3003 RMK A01",
  "sanitized": "KBVS 102115Z 23008G16KT 190V280 10SM FEW043 OVC055 24/12 A3003 RMK A01",
  "station": "KBVS",
  "time": {
    "repr": "102115Z",
    "dt": "2023-08-10T21:15:00Z"
  },
  "remarks": "RMK A01",
  "dewpoint": {
    "repr": "12",
    "value": 12,
    "spoken": "one two"
  },
  "relative_humidity": 0.4698021446450333,
  "remarks_info": {
    "maximum_temperature_6": null,
    "minimum_temperature_6": null,
    "pressure_tendency": null,
    "precip_36_hours": null,
    "precip_24_hours": null,
    "sunshine_minutes": null,
    "codes": [],
    "dewpoint_decimal": null,
    "maximum_temperature_24": null,
    "minimum_temperature_24": null,
    "precip_hourly": null,
    "sea_level_pressure": null,
    "snow_depth": null,
    "temperature_decimal": null
  },
  "runway_visibility": [],
  "temperature": {
    "repr": "24",
    "value": 24,
    "spoken": "two four"
  },
  "wind_variable_direction": [
    {
      "repr": "190",
      "value": 190,
      "spoken": "one nine zero"
    },
    {
      "repr": "280",
      "value": 280,
      "spoken": "two eight zero"
    }
  ],
  "density_altitude": 1149,
  "pressure_altitude": 34,
  "units": {
    "accumulation": "in",
    "altimeter": "inHg",
    "altitude": "ft",
    "temperature": "C",
    "visibility": "sm",
    "wind_speed": "kt"
  }
}
