{
  "altimeter": {
    "repr": "A3044",
    "spoken": "three zero point four four",
    "value": 30.44
  },
  "clouds": [
    {
      "altitude": 27,
      "modifier": null,
      "repr": "BKN027",
      "type": "BKN"
    }
  ],
  "density_altitude": -581,
  "dewpoint": {
    "repr": "10",
    "spoken": "one zero",
    "value": 10
  },
  "flight_rules": "MVFR",
  "meta": {
    "cache-timestamp": "2024-05-08T18:40:10.750000Z",
    "stations_updated": "2024-01-01",
    "timestamp": "2024-05-08T18:40:27.765976Z"
  },
  "other": [],
  "pressure_altitude": -376,
  "raw": "KBVS 081815Z AUTO 00000KT 10SM BKN027 13/10 A3044 RMK A01",
  "relative_humidity": 0.8199481803324667,
  "remarks": "RMK A01",
  "remarks_info": {
    "codes": [],
    "dewpoint_decimal": null,
    "maximum_temperature_24": null,
    "maximum_temperature_6": null,
    "minimum_temperature_24": null,
    "minimum_temperature_6": null,
    "precip_24_hours": null,
    "precip_36_hours": null,
    "precip_hourly": null,
    "pressure_tendency": null,
    "sea_level_pressure": null,
    "snow_depth": null,
    "sunshine_minutes": null,
    "temperature_decimal": null
  },
  "runway_visibility": [],
  "sanitized": "KBVS 081815Z 00000KT 10SM BKN027 13/10 A3044 RMK A01",
  "station": "KBVS",
  "temperature": {
    "repr": "13",
    "spoken": "one three",
    "value": 13
  },
  "time": {
    "dt": "2024-05-08T18:15:00Z",
    "repr": "081815Z"
  },
  "units": {
    "accumulation": "in",
    "altimeter": "inHg",
    "altitude": "ft",
    "temperature": "C",
    "visibility": "sm",
    "wind_speed": "kt"
  },
  "visibility": {
    "repr": "10",
    "spoken": "one zero",
    "value": 10
  },
  "wind_direction": {
    "repr": "000",
    "spoken": "zero zero zero",
    "value": 0
  },
  "wind_gust": null,
  "wind_speed": {
    "repr": "00",
    "spoken": "zero",
    "value": 0
  },
  "wind_variable_direction": [],
  "wx_codes": []
}
