{
  "meta": {
    "timestamp": "2023-10-18T05:25:51.926606Z",
    "stations_updated": "2023-10-01"
  },
  "altimeter": {
    "repr": "A3009",
    "value": 30.09,
    "spoken": "three zero point zero nine"
  },
  "clouds": [
    {
      "repr": "FEW042",
      "type": "FEW",
      "altitude": 42,
      "modifier": null
    },
    {
      "repr": "SCT055",
      "type": "SCT",
      "altitude": 55,
      "modifier": null
    },
    {
      "repr": "BKN070",
      "type": "BKN",
      "altitude": 70,
      "modifier": null
    }
  ],
  "flight_rules": "VFR",
  "other": [],
  "visibility": {
    "repr": "10",
    "value": 10,
    "spoken": "one zero"
  },
  "wind_direction": {
    "repr": "070",
    "value": 70,
    "spoken": "zero seven zero"
  },
  "wind_gust": null,
  "wind_speed": {
    "repr": "07",
    "value": 7,
    "spoken": "seven"
  },
  "wx_codes": [],
  "raw": "KBVS 180515Z AUTO 07007KT 10SM FEW042 SCT055 BKN070 12/12 A3009 RMK A01 KBVS 180455Z AUTO 07006KT 10SM FEW013 SCT050 BKN070 12/12 A3010 RMK A01 KBVS 180435Z AUTO 00000G11KT 10SM FEW036 SCT060 BKN075 12/12 A3010 RMK A01 KBVS 180415Z AUTO 08008KT 10SM FEW050 BKN060 OVC070 12/12 A3012 RMK A01 KBVS 180355Z AUTO 07006KT 10SM BKN065 OVC075 12/12 A3013 RMK A01 KBVS 180335Z AUTO 09008KT 10SM SCT047 BKN060 OVC095 12/12 A3012 RMK A01",
  "sanitized": "KBVS 180515Z 07007KT 10SM FEW042 SCT055 BKN070 12/12 A3009 RMK A01 KBVS 180455Z AUTO 07006KT 10SM FEW013 SCT050 BKN070 12/12 A3010 RMK A01 KBVS 180435Z AUTO 00000G11KT 10SM FEW036 SCT060 BKN075 12/12 A3010 RMK A01 KBVS 180415Z AUTO 08008KT 10SM FEW050 BKN060 OVC070 12/12 A3012 RMK A01 KBVS 180355Z AUTO 07006KT 10SM BKN065 OVC075 12/12 A3013 RMK A01 KBVS 180335Z AUTO 09008KT 10SM SCT047 BKN060 OVC095 12/12 A3012 RMK A01",
  "station": "KBVS",
  "time": {
    "repr": "180515Z",
    "dt": "2023-10-18T05:15:00Z"
  },
  "remarks": "RMK A01 KBVS 180455Z AUTO 07006KT 10SM FEW013 SCT050 BKN070 12/12 A3010 RMK A01 KBVS 180435Z AUTO 00000G11KT 10SM FEW036 SCT060 BKN075 12/12 A3010 RMK A01 KBVS 180415Z AUTO 08008KT 10SM FEW050 BKN060 OVC070 12/12 A3012 RMK A01 KBVS 180355Z AUTO 07006KT 10SM BKN065 OVC075 12/12 A3013 RMK A01 KBVS 180335Z AUTO 09008KT 10SM SCT047 BKN060 OVC095 12/12 A3012 RMK A01",
  "dewpoint": {
    "repr": "12",
    "value": 12,
    "spoken": "one two"
  },
  "relative_humidity": 1,
  "remarks_info": {
    "maximum_temperature_6": null,
    "minimum_temperature_6": null,
    "pressure_tendency": null,
    "precip_36_hours": null,
    "precip_24_hours": null,
    "sunshine_minutes": null,
    "codes": [],
    "dewpoint_decimal": null,
    "maximum_temperature_24": null,
    "minimum_temperature_24": null,
    "precip_hourly": null,
    "sea_level_pressure": null,
    "snow_depth": null,
    "temperature_decimal": null
  },
  "runway_visibility": [],
  "temperature": {
    "repr": "12",
    "value": 12,
    "spoken": "one two"
  },
  "wind_variable_direction": [],
  "density_altitude": -351,
  "pressure_altitude": -26,
  "units": {
    "accumulation": "in",
    "altimeter": "inHg",
    "altitude": "ft",
    "temperature": "C",
    "visibility": "sm",
    "wind_speed": "kt"
  }
}
