{
  "meta": {
    "timestamp": "2023-02-28T03:12:20.559939Z",
    "stations_updated": "2023-01-30",
    "cache-timestamp": "2023-02-28T03:12:05.953000Z"
  },
  "altimeter": {
    "repr": "A2940",
    "value": 29.4,
    "spoken": "two nine point four zero"
  },
  "clouds": [
    {
      "repr": "SCT042",
      "type": "SCT",
      "altitude": 42,
      "modifier": null
    },
    {
      "repr": "BKN049",
      "type": "BKN",
      "altitude": 49,
      "modifier": null
    },
    {
      "repr": "OVC060",
      "type": "OVC",
      "altitude": 60,
      "modifier": null
    }
  ],
  "flight_rules": "VFR",
  "other": [],
  "visibility": {
    "repr": "10",
    "value": 10,
    "spoken": "one zero"
  },
  "wind_direction": {
    "repr": "060",
    "value": 60,
    "spoken": "zero six zero"
  },
  "wind_gust": null,
  "wind_speed": {
    "repr": "08",
    "value": 8,
    "spoken": "eight"
  },
  "wx_codes": [],
  "raw": "KBVS 280255Z AUTO 06008KT 10SM SCT042 BKN049 OVC060 03/01 A2940 RMK A01",
  "sanitized": "KBVS 280255Z 06008KT 10SM SCT042 BKN049 OVC060 03/01 A2940 RMK A01",
  "station": "KBVS",
  "time": {
    "repr": "280255Z",
    "dt": "2023-02-28T02:55:00Z"
  },
  "remarks": "RMK A01",
  "dewpoint": {
    "repr": "01",
    "value": 1,
    "spoken": "one"
  },
  "relative_humidity": 0.866944107103059,
  "remarks_info": {
    "maximum_temperature_6": null,
    "minimum_temperature_6": null,
    "pressure_tendency": null,
    "precip_36_hours": null,
    "precip_24_hours": null,
    "sunshine_minutes": null,
    "codes": [],
    "dewpoint_decimal": null,
    "maximum_temperature_24": null,
    "minimum_temperature_24": null,
    "precip_hourly": null,
    "sea_level_pressure": null,
    "snow_depth": null,
    "temperature_decimal": null
  },
  "runway_visibility": [],
  "temperature": {
    "repr": "03",
    "value": 3,
    "spoken": "three"
  },
  "wind_variable_direction": [],
  "density_altitude": -741,
  "pressure_altitude": 664,
  "units": {
    "accumulation": "in",
    "altimeter": "inHg",
    "altitude": "ft",
    "temperature": "C",
    "visibility": "sm",
    "wind_speed": "kt"
  }
}
