{
  "altimeter": {
    "repr": "A2976",
    "spoken": "two nine point seven six",
    "value": 29.76
  },
  "clouds": [
    {
      "altitude": 25,
      "modifier": null,
      "repr": "OVC025",
      "type": "OVC"
    }
  ],
  "density_altitude": -261,
  "dewpoint": {
    "repr": "07",
    "spoken": "seven",
    "value": 7
  },
  "flight_rules": "MVFR",
  "meta": {
    "stations_updated": "2024-12-02",
    "timestamp": "2024-12-24T14:29:36.687093Z"
  },
  "other": [],
  "pressure_altitude": 304,
  "raw": "KBVS 241415Z AUTO 15008G16KT 10SM OVC025 10/07 A2976 RMK A01",
  "relative_humidity": 0.8160587206481518,
  "remarks": "RMK A01",
  "remarks_info": {
    "codes": [],
    "dewpoint_decimal": null,
    "maximum_temperature_24": null,
    "maximum_temperature_6": null,
    "minimum_temperature_24": null,
    "minimum_temperature_6": null,
    "precip_24_hours": null,
    "precip_36_hours": null,
    "precip_hourly": null,
    "pressure_tendency": null,
    "sea_level_pressure": null,
    "snow_depth": null,
    "sunshine_minutes": null,
    "temperature_decimal": null
  },
  "runway_visibility": [],
  "sanitized": "KBVS 241415Z 15008G16KT 10SM OVC025 10/07 A2976 RMK A01",
  "station": "KBVS",
  "temperature": {
    "repr": "10",
    "spoken": "one zero",
    "value": 10
  },
  "time": {
    "dt": "2024-12-24T14:15:00Z",
    "repr": "241415Z"
  },
  "units": {
    "accumulation": "in",
    "altimeter": "inHg",
    "altitude": "ft",
    "temperature": "C",
    "visibility": "sm",
    "wind_speed": "kt"
  },
  "visibility": {
    "repr": "10",
    "spoken": "one zero",
    "value": 10
  },
  "wind_direction": {
    "repr": "150",
    "spoken": "one five zero",
    "value": 150
  },
  "wind_gust": {
    "repr": "16",
    "spoken": "one six",
    "value": 16
  },
  "wind_speed": {
    "repr": "08",
    "spoken": "eight",
    "value": 8
  },
  "wind_variable_direction": [],
  "wx_codes": []
}
