{
  "altimeter": {
    "repr": "A3012",
    "spoken": "three zero point one two",
    "value": 30.12
  },
  "clouds": [
    {
      "altitude": 13,
      "modifier": null,
      "repr": "SCT013",
      "type": "SCT"
    },
    {
      "altitude": 18,
      "modifier": null,
      "repr": "BKN018",
      "type": "BKN"
    },
    {
      "altitude": 70,
      "modifier": null,
      "repr": "OVC070",
      "type": "OVC"
    }
  ],
  "density_altitude": 219,
  "dewpoint": {
    "repr": "17",
    "spoken": "one seven",
    "value": 17
  },
  "flight_rules": "MVFR",
  "meta": {
    "cache-timestamp": "2024-06-30T17:00:52.455000Z",
    "stations_updated": "2024-06-12",
    "timestamp": "2024-06-30T17:01:36.456250Z"
  },
  "other": [],
  "pressure_altitude": -56,
  "raw": "KBVS 301655Z AUTO 00000KT 10SM SCT013 BKN018 OVC070 17/17 A3012 RMK A01",
  "relative_humidity": 1,
  "remarks": "RMK A01",
  "remarks_info": {
    "codes": [],
    "dewpoint_decimal": null,
    "maximum_temperature_24": null,
    "maximum_temperature_6": null,
    "minimum_temperature_24": null,
    "minimum_temperature_6": null,
    "precip_24_hours": null,
    "precip_36_hours": null,
    "precip_hourly": null,
    "pressure_tendency": null,
    "sea_level_pressure": null,
    "snow_depth": null,
    "sunshine_minutes": null,
    "temperature_decimal": null
  },
  "runway_visibility": [],
  "sanitized": "KBVS 301655Z 00000KT 10SM SCT013 BKN018 OVC070 17/17 A3012 RMK A01",
  "station": "KBVS",
  "temperature": {
    "repr": "17",
    "spoken": "one seven",
    "value": 17
  },
  "time": {
    "dt": "2024-06-30T16:55:00Z",
    "repr": "301655Z"
  },
  "units": {
    "accumulation": "in",
    "altimeter": "inHg",
    "altitude": "ft",
    "temperature": "C",
    "visibility": "sm",
    "wind_speed": "kt"
  },
  "visibility": {
    "repr": "10",
    "spoken": "one zero",
    "value": 10
  },
  "wind_direction": {
    "repr": "000",
    "spoken": "zero zero zero",
    "value": 0
  },
  "wind_gust": null,
  "wind_speed": {
    "repr": "00",
    "spoken": "zero",
    "value": 0
  },
  "wind_variable_direction": [],
  "wx_codes": []
}
