{
  "altimeter": {
    "repr": "A3005",
    "spoken": "three zero point zero five",
    "value": 30.05
  },
  "clouds": [
    {
      "altitude": 36,
      "modifier": null,
      "repr": "FEW036",
      "type": "FEW"
    },
    {
      "altitude": 65,
      "modifier": null,
      "repr": "BKN065",
      "type": "BKN"
    },
    {
      "altitude": 75,
      "modifier": null,
      "repr": "OVC075",
      "type": "OVC"
    }
  ],
  "density_altitude": -311,
  "dewpoint": {
    "repr": "04",
    "spoken": "four",
    "value": 4
  },
  "flight_rules": "VFR",
  "meta": {
    "stations_updated": "2024-06-12",
    "timestamp": "2024-10-19T00:35:10.291426Z"
  },
  "other": [],
  "pressure_altitude": 14,
  "raw": "KBVS 190015Z AUTO 14018G30KT 100V170 10SM FEW036 BKN065 OVC075 12/04 A3005 RMK A01",
  "relative_humidity": 0.5802324992052669,
  "remarks": "RMK A01",
  "remarks_info": {
    "codes": [],
    "dewpoint_decimal": null,
    "maximum_temperature_24": null,
    "maximum_temperature_6": null,
    "minimum_temperature_24": null,
    "minimum_temperature_6": null,
    "precip_24_hours": null,
    "precip_36_hours": null,
    "precip_hourly": null,
    "pressure_tendency": null,
    "sea_level_pressure": null,
    "snow_depth": null,
    "sunshine_minutes": null,
    "temperature_decimal": null
  },
  "runway_visibility": [],
  "sanitized": "KBVS 190015Z 14018G30KT 100V170 10SM FEW036 BKN065 OVC075 12/04 A3005 RMK A01",
  "station": "KBVS",
  "temperature": {
    "repr": "12",
    "spoken": "one two",
    "value": 12
  },
  "time": {
    "dt": "2024-10-19T00:15:00Z",
    "repr": "190015Z"
  },
  "units": {
    "accumulation": "in",
    "altimeter": "inHg",
    "altitude": "ft",
    "temperature": "C",
    "visibility": "sm",
    "wind_speed": "kt"
  },
  "visibility": {
    "repr": "10",
    "spoken": "one zero",
    "value": 10
  },
  "wind_direction": {
    "repr": "140",
    "spoken": "one four zero",
    "value": 140
  },
  "wind_gust": {
    "repr": "30",
    "spoken": "three zero",
    "value": 30
  },
  "wind_speed": {
    "repr": "18",
    "spoken": "one eight",
    "value": 18
  },
  "wind_variable_direction": [
    {
      "repr": "100",
      "spoken": "one zero zero",
      "value": 100
    },
    {
      "repr": "170",
      "spoken": "one seven zero",
      "value": 170
    }
  ],
  "wx_codes": []
}
