{
  "altimeter": {
    "repr": "A3005",
    "spoken": "three zero point zero five",
    "value": 30.05
  },
  "clouds": [
    {
      "altitude": 26,
      "modifier": null,
      "repr": "SCT026",
      "type": "SCT"
    },
    {
      "altitude": 42,
      "modifier": null,
      "repr": "OVC042",
      "type": "OVC"
    }
  ],
  "density_altitude": -311,
  "dewpoint": {
    "repr": "09",
    "spoken": "nine",
    "value": 9
  },
  "flight_rules": "VFR",
  "meta": {
    "stations_updated": "2024-06-12",
    "timestamp": "2024-10-21T23:41:29.977525Z"
  },
  "other": [],
  "pressure_altitude": 14,
  "raw": "KBVS 212315Z AUTO 02005KT 10SM SCT026 OVC042 12/09 A3005 RMK A01",
  "relative_humidity": 0.8186649539519323,
  "remarks": "RMK A01",
  "remarks_info": {
    "codes": [],
    "dewpoint_decimal": null,
    "maximum_temperature_24": null,
    "maximum_temperature_6": null,
    "minimum_temperature_24": null,
    "minimum_temperature_6": null,
    "precip_24_hours": null,
    "precip_36_hours": null,
    "precip_hourly": null,
    "pressure_tendency": null,
    "sea_level_pressure": null,
    "snow_depth": null,
    "sunshine_minutes": null,
    "temperature_decimal": null
  },
  "runway_visibility": [],
  "sanitized": "KBVS 212315Z 02005KT 10SM SCT026 OVC042 12/09 A3005 RMK A01",
  "station": "KBVS",
  "temperature": {
    "repr": "12",
    "spoken": "one two",
    "value": 12
  },
  "time": {
    "dt": "2024-10-21T23:15:00Z",
    "repr": "212315Z"
  },
  "units": {
    "accumulation": "in",
    "altimeter": "inHg",
    "altitude": "ft",
    "temperature": "C",
    "visibility": "sm",
    "wind_speed": "kt"
  },
  "visibility": {
    "repr": "10",
    "spoken": "one zero",
    "value": 10
  },
  "wind_direction": {
    "repr": "020",
    "spoken": "zero two zero",
    "value": 20
  },
  "wind_gust": null,
  "wind_speed": {
    "repr": "05",
    "spoken": "five",
    "value": 5
  },
  "wind_variable_direction": [],
  "wx_codes": []
}
