{
  "altimeter": {
    "repr": "A3030",
    "spoken": "three zero point three zero",
    "value": 30.3
  },
  "clouds": [
    {
      "altitude": 3,
      "modifier": null,
      "repr": "BKN003",
      "type": "BKN"
    },
    {
      "altitude": 9,
      "modifier": null,
      "repr": "OVC009",
      "type": "OVC"
    }
  ],
  "density_altitude": -1161,
  "dewpoint": {
    "repr": "07",
    "spoken": "seven",
    "value": 7
  },
  "flight_rules": "LIFR",
  "meta": {
    "stations_updated": "2024-12-02",
    "timestamp": "2025-01-06T02:09:15.936617Z"
  },
  "other": [],
  "pressure_altitude": -236,
  "raw": "KBVS 060155Z AUTO 34003KT 3SM BR BKN003 OVC009 07/07 A3030 RMK A01",
  "relative_humidity": 1,
  "remarks": "RMK A01",
  "remarks_info": {
    "codes": [],
    "dewpoint_decimal": null,
    "maximum_temperature_24": null,
    "maximum_temperature_6": null,
    "minimum_temperature_24": null,
    "minimum_temperature_6": null,
    "precip_24_hours": null,
    "precip_36_hours": null,
    "precip_hourly": null,
    "pressure_tendency": null,
    "sea_level_pressure": null,
    "snow_depth": null,
    "sunshine_minutes": null,
    "temperature_decimal": null
  },
  "runway_visibility": [],
  "sanitized": "KBVS 060155Z 34003KT 3SM BR BKN003 OVC009 07/07 A3030 RMK A01",
  "station": "KBVS",
  "temperature": {
    "repr": "07",
    "spoken": "seven",
    "value": 7
  },
  "time": {
    "dt": "2025-01-06T01:55:00Z",
    "repr": "060155Z"
  },
  "units": {
    "accumulation": "in",
    "altimeter": "inHg",
    "altitude": "ft",
    "temperature": "C",
    "visibility": "sm",
    "wind_speed": "kt"
  },
  "visibility": {
    "repr": "3",
    "spoken": "three",
    "value": 3
  },
  "wind_direction": {
    "repr": "340",
    "spoken": "three four zero",
    "value": 340
  },
  "wind_gust": null,
  "wind_speed": {
    "repr": "03",
    "spoken": "three",
    "value": 3
  },
  "wind_variable_direction": [],
  "wx_codes": [
    {
      "repr": "BR",
      "value": "Mist"
    }
  ]
}
