{
  "altimeter": {
    "repr": "A3057",
    "spoken": "three zero point five seven",
    "value": 30.57
  },
  "clouds": [],
  "density_altitude": -1911,
  "dewpoint": {
    "repr": "M06",
    "spoken": "minus six",
    "value": -6
  },
  "flight_rules": "VFR",
  "meta": {
    "stations_updated": "2024-12-02",
    "timestamp": "2025-01-20T19:40:34.790715Z"
  },
  "other": [],
  "pressure_altitude": -506,
  "raw": "KBVS 201935Z AUTO 07004KT 10SM CLR 03/M06 A3057 RMK A01",
  "relative_humidity": 0.5161020767329337,
  "remarks": "RMK A01",
  "remarks_info": {
    "codes": [],
    "dewpoint_decimal": null,
    "maximum_temperature_24": null,
    "maximum_temperature_6": null,
    "minimum_temperature_24": null,
    "minimum_temperature_6": null,
    "precip_24_hours": null,
    "precip_36_hours": null,
    "precip_hourly": null,
    "pressure_tendency": null,
    "sea_level_pressure": null,
    "snow_depth": null,
    "sunshine_minutes": null,
    "temperature_decimal": null
  },
  "runway_visibility": [],
  "sanitized": "KBVS 201935Z 07004KT 10SM 03/M06 A3057 RMK A01",
  "station": "KBVS",
  "temperature": {
    "repr": "03",
    "spoken": "three",
    "value": 3
  },
  "time": {
    "dt": "2025-01-20T19:35:00Z",
    "repr": "201935Z"
  },
  "units": {
    "accumulation": "in",
    "altimeter": "inHg",
    "altitude": "ft",
    "temperature": "C",
    "visibility": "sm",
    "wind_speed": "kt"
  },
  "visibility": {
    "repr": "10",
    "spoken": "one zero",
    "value": 10
  },
  "wind_direction": {
    "repr": "070",
    "spoken": "zero seven zero",
    "value": 70
  },
  "wind_gust": null,
  "wind_speed": {
    "repr": "04",
    "spoken": "four",
    "value": 4
  },
  "wind_variable_direction": [],
  "wx_codes": []
}
