{
  "meta": {
    "timestamp": "2023-04-05T12:52:45.935606Z",
    "stations_updated": "2023-03-11",
    "cache-timestamp": "2023-04-05T12:52:05.899000Z"
  },
  "altimeter": {
    "repr": "A3020",
    "value": 30.2,
    "spoken": "three zero point two zero"
  },
  "clouds": [
    {
      "repr": "FEW020",
      "type": "FEW",
      "altitude": 20,
      "modifier": null
    },
    {
      "repr": "FEW028",
      "type": "FEW",
      "altitude": 28,
      "modifier": null
    },
    {
      "repr": "FEW033",
      "type": "FEW",
      "altitude": 33,
      "modifier": null
    }
  ],
  "flight_rules": "VFR",
  "other": [],
  "visibility": {
    "repr": "10",
    "value": 10,
    "spoken": "one zero"
  },
  "wind_direction": {
    "repr": "000",
    "value": 0,
    "spoken": "zero zero zero"
  },
  "wind_gust": null,
  "wind_speed": {
    "repr": "00",
    "value": 0,
    "spoken": "zero"
  },
  "wx_codes": [],
  "raw": "KBVS 051235Z AUTO 00000KT 10SM FEW020 FEW028 FEW033 01/01 A3020 RMK A01",
  "sanitized": "KBVS 051235Z 00000KT 10SM FEW020 FEW028 FEW033 01/01 A3020 RMK A01",
  "station": "KBVS",
  "time": {
    "repr": "051235Z",
    "dt": "2023-04-05T12:35:00Z"
  },
  "remarks": "RMK A01",
  "dewpoint": {
    "repr": "01",
    "value": 1,
    "spoken": "one"
  },
  "relative_humidity": 1,
  "remarks_info": {
    "maximum_temperature_6": null,
    "minimum_temperature_6": null,
    "pressure_tendency": null,
    "precip_36_hours": null,
    "precip_24_hours": null,
    "sunshine_minutes": null,
    "codes": [],
    "dewpoint_decimal": null,
    "maximum_temperature_24": null,
    "minimum_temperature_24": null,
    "precip_hourly": null,
    "sea_level_pressure": null,
    "snow_depth": null,
    "temperature_decimal": null
  },
  "runway_visibility": [],
  "temperature": {
    "repr": "01",
    "value": 1,
    "spoken": "one"
  },
  "wind_variable_direction": [],
  "density_altitude": -1781,
  "pressure_altitude": -136,
  "units": {
    "accumulation": "in",
    "altimeter": "inHg",
    "altitude": "ft",
    "temperature": "C",
    "visibility": "sm",
    "wind_speed": "kt"
  }
}
