{
  "altimeter": {
    "repr": "A2989",
    "spoken": "two nine point eight nine",
    "value": 29.89
  },
  "clouds": [
    {
      "altitude": 85,
      "modifier": null,
      "repr": "SCT085",
      "type": "SCT"
    },
    {
      "altitude": 100,
      "modifier": null,
      "repr": "SCT100",
      "type": "SCT"
    }
  ],
  "density_altitude": 809,
  "dewpoint": {
    "repr": "11",
    "spoken": "one one",
    "value": 11
  },
  "flight_rules": "VFR",
  "meta": {
    "cache-timestamp": "2024-06-23T01:46:39.149000Z",
    "stations_updated": "2024-05-13",
    "timestamp": "2024-06-23T01:47:38.111840Z"
  },
  "other": [],
  "pressure_altitude": 174,
  "raw": "KBVS 230115Z AUTO 00000KT 10SM SCT085 SCT100 20/11 A2989 RMK A01",
  "relative_humidity": 0.5613314874983519,
  "remarks": "RMK A01",
  "remarks_info": {
    "codes": [],
    "dewpoint_decimal": null,
    "maximum_temperature_24": null,
    "maximum_temperature_6": null,
    "minimum_temperature_24": null,
    "minimum_temperature_6": null,
    "precip_24_hours": null,
    "precip_36_hours": null,
    "precip_hourly": null,
    "pressure_tendency": null,
    "sea_level_pressure": null,
    "snow_depth": null,
    "sunshine_minutes": null,
    "temperature_decimal": null
  },
  "runway_visibility": [],
  "sanitized": "KBVS 230115Z 00000KT 10SM SCT085 SCT100 20/11 A2989 RMK A01",
  "station": "KBVS",
  "temperature": {
    "repr": "20",
    "spoken": "two zero",
    "value": 20
  },
  "time": {
    "dt": "2024-06-23T01:15:00Z",
    "repr": "230115Z"
  },
  "units": {
    "accumulation": "in",
    "altimeter": "inHg",
    "altitude": "ft",
    "temperature": "C",
    "visibility": "sm",
    "wind_speed": "kt"
  },
  "visibility": {
    "repr": "10",
    "spoken": "one zero",
    "value": 10
  },
  "wind_direction": {
    "repr": "000",
    "spoken": "zero zero zero",
    "value": 0
  },
  "wind_gust": null,
  "wind_speed": {
    "repr": "00",
    "spoken": "zero",
    "value": 0
  },
  "wind_variable_direction": [],
  "wx_codes": []
}
