{
  "meta": {
    "timestamp": "2023-07-06T22:29:21.289196Z",
    "stations_updated": "2023-06-06"
  },
  "altimeter": {
    "repr": "A2986",
    "value": 29.86,
    "spoken": "two nine point eight six"
  },
  "clouds": [],
  "flight_rules": "VFR",
  "other": [],
  "visibility": {
    "repr": "10",
    "value": 10,
    "spoken": "one zero"
  },
  "wind_direction": {
    "repr": "310",
    "value": 310,
    "spoken": "three one zero"
  },
  "wind_gust": {
    "repr": "11",
    "value": 11,
    "spoken": "one one"
  },
  "wind_speed": {
    "repr": "06",
    "value": 6,
    "spoken": "six"
  },
  "wx_codes": [],
  "raw": "KBVS 062215Z AUTO 31006G11KT 10SM CLR 28/13 A2986 RMK A01",
  "sanitized": "KBVS 062215Z 31006G11KT 10SM 28/13 A2986 RMK A01",
  "station": "KBVS",
  "time": {
    "repr": "062215Z",
    "dt": "2023-07-06T22:15:00Z"
  },
  "remarks": "RMK A01",
  "dewpoint": {
    "repr": "13",
    "value": 13,
    "spoken": "one three"
  },
  "relative_humidity": 0.39583220335271824,
  "remarks_info": {
    "maximum_temperature_6": null,
    "minimum_temperature_6": null,
    "pressure_tendency": null,
    "precip_36_hours": null,
    "precip_24_hours": null,
    "sunshine_minutes": null,
    "codes": [],
    "dewpoint_decimal": null,
    "maximum_temperature_24": null,
    "minimum_temperature_24": null,
    "precip_hourly": null,
    "sea_level_pressure": null,
    "snow_depth": null,
    "temperature_decimal": null
  },
  "runway_visibility": [],
  "temperature": {
    "repr": "28",
    "value": 28,
    "spoken": "two eight"
  },
  "wind_variable_direction": [],
  "density_altitude": 1799,
  "pressure_altitude": 204,
  "units": {
    "accumulation": "in",
    "altimeter": "inHg",
    "altitude": "ft",
    "temperature": "C",
    "visibility": "sm",
    "wind_speed": "kt"
  }
}
