{
  "meta": {
    "timestamp": "2023-08-01T23:21:58.549979Z",
    "stations_updated": "2023-06-06"
  },
  "altimeter": {
    "repr": "A3006",
    "value": 30.06,
    "spoken": "three zero point zero six"
  },
  "clouds": [],
  "flight_rules": "VFR",
  "other": [],
  "visibility": {
    "repr": "10",
    "value": 10,
    "spoken": "one zero"
  },
  "wind_direction": {
    "repr": "300",
    "value": 300,
    "spoken": "three zero zero"
  },
  "wind_gust": {
    "repr": "10",
    "value": 10,
    "spoken": "one zero"
  },
  "wind_speed": {
    "repr": "05",
    "value": 5,
    "spoken": "five"
  },
  "wx_codes": [],
  "raw": "KBVS 012315Z AUTO 30005G10KT 10SM CLR 25/13 A3006 RMK A01",
  "sanitized": "KBVS 012315Z 30005G10KT 10SM 25/13 A3006 RMK A01",
  "station": "KBVS",
  "time": {
    "repr": "012315Z",
    "dt": "2023-08-01T23:15:00Z"
  },
  "remarks": "RMK A01",
  "dewpoint": {
    "repr": "13",
    "value": 13,
    "spoken": "one three"
  },
  "relative_humidity": 0.47251024908779515,
  "remarks_info": {
    "maximum_temperature_6": null,
    "minimum_temperature_6": null,
    "pressure_tendency": null,
    "precip_36_hours": null,
    "precip_24_hours": null,
    "sunshine_minutes": null,
    "codes": [],
    "dewpoint_decimal": null,
    "maximum_temperature_24": null,
    "minimum_temperature_24": null,
    "precip_hourly": null,
    "sea_level_pressure": null,
    "snow_depth": null,
    "temperature_decimal": null
  },
  "runway_visibility": [],
  "temperature": {
    "repr": "25",
    "value": 25,
    "spoken": "two five"
  },
  "wind_variable_direction": [],
  "density_altitude": 1239,
  "pressure_altitude": 4,
  "units": {
    "accumulation": "in",
    "altimeter": "inHg",
    "altitude": "ft",
    "temperature": "C",
    "visibility": "sm",
    "wind_speed": "kt"
  }
}
