{
  "meta": {
    "timestamp": "2023-06-25T20:40:50.804263Z",
    "stations_updated": "2023-06-06",
    "cache-timestamp": "2023-06-25T20:40:03.190000Z"
  },
  "altimeter": {
    "repr": "A3009",
    "value": 30.09,
    "spoken": "three zero point zero nine"
  },
  "clouds": [],
  "flight_rules": "MVFR",
  "other": [],
  "visibility": {
    "repr": "5",
    "value": 5,
    "spoken": "five"
  },
  "wind_direction": {
    "repr": "VRB",
    "value": null,
    "spoken": "variable"
  },
  "wind_gust": null,
  "wind_speed": {
    "repr": "05",
    "value": 5,
    "spoken": "five"
  },
  "wx_codes": [
    {
      "repr": "HZ",
      "value": "Haze"
    }
  ],
  "raw": "KBVS 252015Z AUTO VRB05KT 5SM HZ CLR 20/15 A3009 RMK A01",
  "sanitized": "KBVS 252015Z VRB05KT 5SM HZ 20/15 A3009 RMK A01",
  "station": "KBVS",
  "time": {
    "repr": "252015Z",
    "dt": "2023-06-25T20:15:00Z"
  },
  "remarks": "RMK A01",
  "dewpoint": {
    "repr": "15",
    "value": 15,
    "spoken": "one five"
  },
  "relative_humidity": 0.7291775824653782,
  "remarks_info": {
    "maximum_temperature_6": null,
    "minimum_temperature_6": null,
    "pressure_tendency": null,
    "precip_36_hours": null,
    "precip_24_hours": null,
    "sunshine_minutes": null,
    "codes": [],
    "dewpoint_decimal": null,
    "maximum_temperature_24": null,
    "minimum_temperature_24": null,
    "precip_hourly": null,
    "sea_level_pressure": null,
    "snow_depth": null,
    "temperature_decimal": null
  },
  "runway_visibility": [],
  "temperature": {
    "repr": "20",
    "value": 20,
    "spoken": "two zero"
  },
  "wind_variable_direction": [],
  "density_altitude": 609,
  "pressure_altitude": -26,
  "units": {
    "accumulation": "in",
    "altimeter": "inHg",
    "altitude": "ft",
    "temperature": "C",
    "visibility": "sm",
    "wind_speed": "kt"
  }
}
