{
  "altimeter": {
    "repr": "A3028",
    "spoken": "three zero point two eight",
    "value": 30.28
  },
  "clouds": [
    {
      "altitude": 2,
      "modifier": null,
      "repr": "OVC002",
      "type": "OVC"
    }
  ],
  "density_altitude": -1621,
  "dewpoint": {
    "repr": "03",
    "spoken": "three",
    "value": 3
  },
  "flight_rules": "LIFR",
  "meta": {
    "stations_updated": "2024-10-29",
    "timestamp": "2024-12-01T15:28:57.843873Z"
  },
  "other": [
    "M14KT"
  ],
  "pressure_altitude": -216,
  "raw": "KBVS 011515Z AUTO 00000KT M1/4SM FG OVC002 03/03 A3028 RMK A01",
  "relative_humidity": 1,
  "remarks": "RMK A01",
  "remarks_info": {
    "codes": [],
    "dewpoint_decimal": null,
    "maximum_temperature_24": null,
    "maximum_temperature_6": null,
    "minimum_temperature_24": null,
    "minimum_temperature_6": null,
    "precip_24_hours": null,
    "precip_36_hours": null,
    "precip_hourly": null,
    "pressure_tendency": null,
    "sea_level_pressure": null,
    "snow_depth": null,
    "sunshine_minutes": null,
    "temperature_decimal": null
  },
  "runway_visibility": [],
  "sanitized": "KBVS 011515Z 00000KT M14KT FG OVC002 03/03 A3028 RMK A01",
  "station": "KBVS",
  "temperature": {
    "repr": "03",
    "spoken": "three",
    "value": 3
  },
  "time": {
    "dt": "2024-12-01T15:15:00Z",
    "repr": "011515Z"
  },
  "units": {
    "accumulation": "in",
    "altimeter": "inHg",
    "altitude": "ft",
    "temperature": "C",
    "visibility": "sm",
    "wind_speed": "kt"
  },
  "visibility": null,
  "wind_direction": {
    "repr": "000",
    "spoken": "zero zero zero",
    "value": 0
  },
  "wind_gust": null,
  "wind_speed": {
    "repr": "00",
    "spoken": "zero",
    "value": 0
  },
  "wind_variable_direction": [],
  "wx_codes": [
    {
      "repr": "FG",
      "value": "Fog"
    }
  ]
}
