{
  "altimeter": {
    "repr": "A2949",
    "spoken": "two nine point four nine",
    "value": 29.49
  },
  "clouds": [
    {
      "altitude": 21,
      "modifier": null,
      "repr": "FEW021",
      "type": "FEW"
    },
    {
      "altitude": 27,
      "modifier": null,
      "repr": "FEW027",
      "type": "FEW"
    }
  ],
  "density_altitude": 129,
  "dewpoint": {
    "repr": "09",
    "spoken": "nine",
    "value": 9
  },
  "flight_rules": "VFR",
  "meta": {
    "stations_updated": "2024-10-29",
    "timestamp": "2024-11-13T17:41:57.501546Z"
  },
  "other": [],
  "pressure_altitude": 574,
  "raw": "KBVS 131715Z AUTO 14012G18KT 10SM FEW021 FEW027 11/09 A2949 RMK A01",
  "relative_humidity": 0.8746678827465182,
  "remarks": "RMK A01",
  "remarks_info": {
    "codes": [],
    "dewpoint_decimal": null,
    "maximum_temperature_24": null,
    "maximum_temperature_6": null,
    "minimum_temperature_24": null,
    "minimum_temperature_6": null,
    "precip_24_hours": null,
    "precip_36_hours": null,
    "precip_hourly": null,
    "pressure_tendency": null,
    "sea_level_pressure": null,
    "snow_depth": null,
    "sunshine_minutes": null,
    "temperature_decimal": null
  },
  "runway_visibility": [],
  "sanitized": "KBVS 131715Z 14012G18KT 10SM FEW021 FEW027 11/09 A2949 RMK A01",
  "station": "KBVS",
  "temperature": {
    "repr": "11",
    "spoken": "one one",
    "value": 11
  },
  "time": {
    "dt": "2024-11-13T17:15:00Z",
    "repr": "131715Z"
  },
  "units": {
    "accumulation": "in",
    "altimeter": "inHg",
    "altitude": "ft",
    "temperature": "C",
    "visibility": "sm",
    "wind_speed": "kt"
  },
  "visibility": {
    "repr": "10",
    "spoken": "one zero",
    "value": 10
  },
  "wind_direction": {
    "repr": "140",
    "spoken": "one four zero",
    "value": 140
  },
  "wind_gust": {
    "repr": "18",
    "spoken": "one eight",
    "value": 18
  },
  "wind_speed": {
    "repr": "12",
    "spoken": "one two",
    "value": 12
  },
  "wind_variable_direction": [],
  "wx_codes": []
}
