{
  "altimeter": {
    "repr": "A3025",
    "spoken": "three zero point two five",
    "value": 30.25
  },
  "clouds": [],
  "density_altitude": -3391,
  "dewpoint": {
    "repr": "M20",
    "spoken": "minus two zero",
    "value": -20
  },
  "flight_rules": "VFR",
  "meta": {
    "stations_updated": "2023-10-28",
    "timestamp": "2024-01-12T16:06:26.539720Z"
  },
  "other": [],
  "pressure_altitude": -186,
  "raw": "KBVS 121555Z AUTO 32007KT 260V010 10SM CLR M12/M20 A3025 RMK A01",
  "relative_humidity": 0.5141354489658664,
  "remarks": "RMK A01",
  "remarks_info": {
    "codes": [],
    "dewpoint_decimal": null,
    "maximum_temperature_24": null,
    "maximum_temperature_6": null,
    "minimum_temperature_24": null,
    "minimum_temperature_6": null,
    "precip_24_hours": null,
    "precip_36_hours": null,
    "precip_hourly": null,
    "pressure_tendency": null,
    "sea_level_pressure": null,
    "snow_depth": null,
    "sunshine_minutes": null,
    "temperature_decimal": null
  },
  "runway_visibility": [],
  "sanitized": "KBVS 121555Z 32007KT 260V010 10SM M12/M20 A3025 RMK A01",
  "station": "KBVS",
  "temperature": {
    "repr": "M12",
    "spoken": "minus one two",
    "value": -12
  },
  "time": {
    "dt": "2024-01-12T15:55:00Z",
    "repr": "121555Z"
  },
  "units": {
    "accumulation": "in",
    "altimeter": "inHg",
    "altitude": "ft",
    "temperature": "C",
    "visibility": "sm",
    "wind_speed": "kt"
  },
  "visibility": {
    "repr": "10",
    "spoken": "one zero",
    "value": 10
  },
  "wind_direction": {
    "repr": "320",
    "spoken": "three two zero",
    "value": 320
  },
  "wind_gust": null,
  "wind_speed": {
    "repr": "07",
    "spoken": "seven",
    "value": 7
  },
  "wind_variable_direction": [
    {
      "repr": "260",
      "spoken": "two six zero",
      "value": 260
    },
    {
      "repr": "010",
      "spoken": "zero one zero",
      "value": 10
    }
  ],
  "wx_codes": []
}
