{
  "meta": {
    "timestamp": "2022-12-27T15:26:09.459534Z",
    "stations_updated": "2022-09-05"
  },
  "altimeter": {
    "repr": "A2887",
    "value": 28.87,
    "spoken": "two eight point eight seven"
  },
  "clouds": [
    {
      "repr": "FEW024",
      "type": "FEW",
      "altitude": 24,
      "modifier": null
    },
    {
      "repr": "BKN029",
      "type": "BKN",
      "altitude": 29,
      "modifier": null
    },
    {
      "repr": "OVC036",
      "type": "OVC",
      "altitude": 36,
      "modifier": null
    }
  ],
  "flight_rules": "MVFR",
  "other": [],
  "visibility": {
    "repr": "10",
    "value": 10,
    "spoken": "one zero"
  },
  "wind_direction": {
    "repr": "190",
    "value": 190,
    "spoken": "one nine zero"
  },
  "wind_gust": null,
  "wind_speed": {
    "repr": "08",
    "value": 8,
    "spoken": "eight"
  },
  "wx_codes": [],
  "raw": "KBVS 271515Z AUTO 19008KT 10SM FEW024 BKN029 OVC036 10/10 A2887 RMK A01",
  "sanitized": "KBVS 271515Z 19008KT 10SM FEW024 BKN029 OVC036 10/10 A2887 RMK A01",
  "station": "KBVS",
  "time": {
    "repr": "271515Z",
    "dt": "2022-12-27T15:15:00Z"
  },
  "remarks": "RMK A01",
  "dewpoint": {
    "repr": "10",
    "value": 10,
    "spoken": "one zero"
  },
  "relative_humidity": 1,
  "remarks_info": {
    "maximum_temperature_6": null,
    "minimum_temperature_6": null,
    "pressure_tendency": null,
    "precip_36_hours": null,
    "precip_24_hours": null,
    "sunshine_minutes": null,
    "codes": [],
    "dewpoint_decimal": null,
    "maximum_temperature_24": null,
    "minimum_temperature_24": null,
    "precip_hourly": null,
    "sea_level_pressure": null,
    "snow_depth": null,
    "temperature_decimal": null
  },
  "runway_visibility": [],
  "temperature": {
    "repr": "10",
    "value": 10,
    "spoken": "one zero"
  },
  "wind_variable_direction": [],
  "density_altitude": 629,
  "pressure_altitude": 1194,
  "units": {
    "accumulation": "in",
    "altimeter": "inHg",
    "altitude": "ft",
    "temperature": "C",
    "visibility": "sm",
    "wind_speed": "kt"
  }
}
