{
  "altimeter": {
    "repr": "A3055",
    "spoken": "three zero point five five",
    "value": 30.55
  },
  "clouds": [],
  "density_altitude": -2251,
  "dewpoint": {
    "repr": "M01",
    "spoken": "minus one",
    "value": -1
  },
  "flight_rules": "VFR",
  "meta": {
    "stations_updated": "2024-12-02",
    "timestamp": "2025-01-18T13:09:24.239153Z"
  },
  "other": [],
  "pressure_altitude": -486,
  "raw": "KBVS 181255Z AUTO 04009KT 10SM CLR M00/M01 A3055 RMK A01",
  "relative_humidity": 0.9297254240529413,
  "remarks": "RMK A01",
  "remarks_info": {
    "codes": [],
    "dewpoint_decimal": null,
    "maximum_temperature_24": null,
    "maximum_temperature_6": null,
    "minimum_temperature_24": null,
    "minimum_temperature_6": null,
    "precip_24_hours": null,
    "precip_36_hours": null,
    "precip_hourly": null,
    "pressure_tendency": null,
    "sea_level_pressure": null,
    "snow_depth": null,
    "sunshine_minutes": null,
    "temperature_decimal": null
  },
  "runway_visibility": [],
  "sanitized": "KBVS 181255Z 04009KT 10SM M00/M01 A3055 RMK A01",
  "station": "KBVS",
  "temperature": {
    "repr": "M00",
    "spoken": "zero",
    "value": 0
  },
  "time": {
    "dt": "2025-01-18T12:55:00Z",
    "repr": "181255Z"
  },
  "units": {
    "accumulation": "in",
    "altimeter": "inHg",
    "altitude": "ft",
    "temperature": "C",
    "visibility": "sm",
    "wind_speed": "kt"
  },
  "visibility": {
    "repr": "10",
    "spoken": "one zero",
    "value": 10
  },
  "wind_direction": {
    "repr": "040",
    "spoken": "zero four zero",
    "value": 40
  },
  "wind_gust": null,
  "wind_speed": {
    "repr": "09",
    "spoken": "nine",
    "value": 9
  },
  "wind_variable_direction": [],
  "wx_codes": []
}
