{
  "altimeter": {
    "repr": "A2970",
    "spoken": "two nine point seven zero",
    "value": 29.7
  },
  "clouds": [],
  "density_altitude": -681,
  "dewpoint": {
    "repr": "01",
    "spoken": "one",
    "value": 1
  },
  "flight_rules": "VFR",
  "meta": {
    "cache-timestamp": "2024-02-26T03:24:03.925000Z",
    "stations_updated": "2024-01-01",
    "timestamp": "2024-02-26T03:24:06.321592Z"
  },
  "other": [],
  "pressure_altitude": 364,
  "raw": "KBVS 260255Z AUTO 25009G17KT 220V280 10SM CLR 06/01 A2970 RMK A01",
  "relative_humidity": 0.702816165710442,
  "remarks": "RMK A01",
  "remarks_info": {
    "codes": [],
    "dewpoint_decimal": null,
    "maximum_temperature_24": null,
    "maximum_temperature_6": null,
    "minimum_temperature_24": null,
    "minimum_temperature_6": null,
    "precip_24_hours": null,
    "precip_36_hours": null,
    "precip_hourly": null,
    "pressure_tendency": null,
    "sea_level_pressure": null,
    "snow_depth": null,
    "sunshine_minutes": null,
    "temperature_decimal": null
  },
  "runway_visibility": [],
  "sanitized": "KBVS 260255Z 25009G17KT 220V280 10SM 06/01 A2970 RMK A01",
  "station": "KBVS",
  "temperature": {
    "repr": "06",
    "spoken": "six",
    "value": 6
  },
  "time": {
    "dt": "2024-02-26T02:55:00Z",
    "repr": "260255Z"
  },
  "units": {
    "accumulation": "in",
    "altimeter": "inHg",
    "altitude": "ft",
    "temperature": "C",
    "visibility": "sm",
    "wind_speed": "kt"
  },
  "visibility": {
    "repr": "10",
    "spoken": "one zero",
    "value": 10
  },
  "wind_direction": {
    "repr": "250",
    "spoken": "two five zero",
    "value": 250
  },
  "wind_gust": {
    "repr": "17",
    "spoken": "one seven",
    "value": 17
  },
  "wind_speed": {
    "repr": "09",
    "spoken": "nine",
    "value": 9
  },
  "wind_variable_direction": [
    {
      "repr": "220",
      "spoken": "two two zero",
      "value": 220
    },
    {
      "repr": "280",
      "spoken": "two eight zero",
      "value": 280
    }
  ],
  "wx_codes": []
}
