{
  "meta": {
    "timestamp": "2023-01-18T13:30:50.949208Z",
    "stations_updated": "2023-01-16"
  },
  "altimeter": {
    "repr": "A2974",
    "value": 29.74,
    "spoken": "two nine point seven four"
  },
  "clouds": [
    {
      "repr": "BKN038",
      "type": "BKN",
      "altitude": 38,
      "modifier": null
    },
    {
      "repr": "OVC055",
      "type": "OVC",
      "altitude": 55,
      "modifier": null
    }
  ],
  "flight_rules": "VFR",
  "other": [],
  "visibility": {
    "repr": "10",
    "value": 10,
    "spoken": "one zero"
  },
  "wind_direction": {
    "repr": "140",
    "value": 140,
    "spoken": "one four zero"
  },
  "wind_gust": {
    "repr": "25",
    "value": 25,
    "spoken": "two five"
  },
  "wind_speed": {
    "repr": "16",
    "value": 16,
    "spoken": "one six"
  },
  "wx_codes": [],
  "raw": "KBVS 181315Z AUTO 14016G25KT 10SM BKN038 OVC055 09/04 A2974 RMK A01",
  "sanitized": "KBVS 181315Z 14016G25KT 10SM BKN038 OVC055 09/04 A2974 RMK A01",
  "station": "KBVS",
  "time": {
    "repr": "181315Z",
    "dt": "2023-01-18T13:15:00Z"
  },
  "remarks": "RMK A01",
  "dewpoint": {
    "repr": "04",
    "value": 4,
    "spoken": "four"
  },
  "relative_humidity": 0.7087545355451176,
  "remarks_info": {
    "maximum_temperature_6": null,
    "minimum_temperature_6": null,
    "pressure_tendency": null,
    "precip_36_hours": null,
    "precip_24_hours": null,
    "sunshine_minutes": null,
    "codes": [],
    "dewpoint_decimal": null,
    "maximum_temperature_24": null,
    "minimum_temperature_24": null,
    "precip_hourly": null,
    "sea_level_pressure": null,
    "snow_depth": null,
    "temperature_decimal": null
  },
  "runway_visibility": [],
  "temperature": {
    "repr": "09",
    "value": 9,
    "spoken": "nine"
  },
  "wind_variable_direction": [],
  "density_altitude": -361,
  "pressure_altitude": 324,
  "units": {
    "accumulation": "in",
    "altimeter": "inHg",
    "altitude": "ft",
    "temperature": "C",
    "visibility": "sm",
    "wind_speed": "kt"
  }
}
