{
  "meta": {
    "timestamp": "2023-05-19T22:40:36.277509Z",
    "stations_updated": "2023-03-11",
    "cache-timestamp": "2023-05-19T22:40:05.945000Z"
  },
  "altimeter": {
    "repr": "A3010",
    "value": 30.1,
    "spoken": "three zero point one zero"
  },
  "clouds": [],
  "flight_rules": "VFR",
  "other": [],
  "visibility": {
    "repr": "10",
    "value": 10,
    "spoken": "one zero"
  },
  "wind_direction": {
    "repr": "VRB",
    "value": null,
    "spoken": "variable"
  },
  "wind_gust": null,
  "wind_speed": {
    "repr": "05",
    "value": 5,
    "spoken": "five"
  },
  "wx_codes": [],
  "raw": "KBVS 192215Z AUTO VRB05KT 10SM CLR 21/15 A3010 RMK A01",
  "sanitized": "KBVS 192215Z VRB05KT 10SM 21/15 A3010 RMK A01",
  "station": "KBVS",
  "time": {
    "repr": "192215Z",
    "dt": "2023-05-19T22:15:00Z"
  },
  "remarks": "RMK A01",
  "dewpoint": {
    "repr": "15",
    "value": 15,
    "spoken": "one five"
  },
  "relative_humidity": 0.6855233883953408,
  "remarks_info": {
    "maximum_temperature_6": null,
    "minimum_temperature_6": null,
    "pressure_tendency": null,
    "precip_36_hours": null,
    "precip_24_hours": null,
    "sunshine_minutes": null,
    "codes": [],
    "dewpoint_decimal": null,
    "maximum_temperature_24": null,
    "minimum_temperature_24": null,
    "precip_hourly": null,
    "sea_level_pressure": null,
    "snow_depth": null,
    "temperature_decimal": null
  },
  "runway_visibility": [],
  "temperature": {
    "repr": "21",
    "value": 21,
    "spoken": "two one"
  },
  "wind_variable_direction": [],
  "density_altitude": 719,
  "pressure_altitude": -36,
  "units": {
    "accumulation": "in",
    "altimeter": "inHg",
    "altitude": "ft",
    "temperature": "C",
    "visibility": "sm",
    "wind_speed": "kt"
  }
}
