{
  "meta": {
    "timestamp": "2023-10-07T11:40:35.919427Z",
    "stations_updated": "2023-10-01",
    "cache-timestamp": "2023-10-07T11:40:05.998000Z"
  },
  "altimeter": {
    "repr": "A2998",
    "value": 29.98,
    "spoken": "two nine point nine eight"
  },
  "clouds": [],
  "flight_rules": "IFR",
  "other": [],
  "visibility": {
    "repr": "1",
    "value": 1,
    "spoken": "one"
  },
  "wind_direction": {
    "repr": "310",
    "value": 310,
    "spoken": "three one zero"
  },
  "wind_gust": null,
  "wind_speed": {
    "repr": "04",
    "value": 4,
    "spoken": "four"
  },
  "wx_codes": [
    {
      "repr": "BR",
      "value": "Mist"
    }
  ],
  "raw": "KBVS 071115Z AUTO 31004KT 1SM BR CLR 08/08 A2998 RMK A01",
  "sanitized": "KBVS 071115Z 31004KT 1SM BR 08/08 A2998 RMK A01",
  "station": "KBVS",
  "time": {
    "repr": "071115Z",
    "dt": "2023-10-07T11:15:00Z"
  },
  "remarks": "RMK A01",
  "dewpoint": {
    "repr": "08",
    "value": 8,
    "spoken": "eight"
  },
  "relative_humidity": 1,
  "remarks_info": {
    "maximum_temperature_6": null,
    "minimum_temperature_6": null,
    "pressure_tendency": null,
    "precip_36_hours": null,
    "precip_24_hours": null,
    "sunshine_minutes": null,
    "codes": [],
    "dewpoint_decimal": null,
    "maximum_temperature_24": null,
    "minimum_temperature_24": null,
    "precip_hourly": null,
    "sea_level_pressure": null,
    "snow_depth": null,
    "temperature_decimal": null
  },
  "runway_visibility": [],
  "temperature": {
    "repr": "08",
    "value": 8,
    "spoken": "eight"
  },
  "wind_variable_direction": [],
  "density_altitude": -721,
  "pressure_altitude": 84,
  "units": {
    "accumulation": "in",
    "altimeter": "inHg",
    "altitude": "ft",
    "temperature": "C",
    "visibility": "sm",
    "wind_speed": "kt"
  }
}
