{
  "altimeter": {
    "repr": "A3006",
    "spoken": "three zero point zero six",
    "value": 30.06
  },
  "clouds": [
    {
      "altitude": 36,
      "modifier": null,
      "repr": "FEW036",
      "type": "FEW"
    }
  ],
  "density_altitude": -1041,
  "dewpoint": {
    "repr": "M00",
    "spoken": "zero",
    "value": 0
  },
  "flight_rules": "VFR",
  "meta": {
    "stations_updated": "2024-01-01",
    "timestamp": "2024-03-05T22:01:40.659416Z"
  },
  "other": [],
  "pressure_altitude": 4,
  "raw": "KBVS 052135Z AUTO 29007KT 260V320 10SM FEW036 06/M00 A3006 RMK A01",
  "relative_humidity": 0.6538156423341984,
  "remarks": "RMK A01",
  "remarks_info": {
    "codes": [],
    "dewpoint_decimal": null,
    "maximum_temperature_24": null,
    "maximum_temperature_6": null,
    "minimum_temperature_24": null,
    "minimum_temperature_6": null,
    "precip_24_hours": null,
    "precip_36_hours": null,
    "precip_hourly": null,
    "pressure_tendency": null,
    "sea_level_pressure": null,
    "snow_depth": null,
    "sunshine_minutes": null,
    "temperature_decimal": null
  },
  "runway_visibility": [],
  "sanitized": "KBVS 052135Z 29007KT 260V320 10SM FEW036 06/M00 A3006 RMK A01",
  "station": "KBVS",
  "temperature": {
    "repr": "06",
    "spoken": "six",
    "value": 6
  },
  "time": {
    "dt": "2024-03-05T21:35:00Z",
    "repr": "052135Z"
  },
  "units": {
    "accumulation": "in",
    "altimeter": "inHg",
    "altitude": "ft",
    "temperature": "C",
    "visibility": "sm",
    "wind_speed": "kt"
  },
  "visibility": {
    "repr": "10",
    "spoken": "one zero",
    "value": 10
  },
  "wind_direction": {
    "repr": "290",
    "spoken": "two nine zero",
    "value": 290
  },
  "wind_gust": null,
  "wind_speed": {
    "repr": "07",
    "spoken": "seven",
    "value": 7
  },
  "wind_variable_direction": [
    {
      "repr": "260",
      "spoken": "two six zero",
      "value": 260
    },
    {
      "repr": "320",
      "spoken": "three two zero",
      "value": 320
    }
  ],
  "wx_codes": []
}
