{
  "altimeter": {
    "repr": "A3036",
    "spoken": "three zero point three six",
    "value": 30.36
  },
  "clouds": [
    {
      "altitude": 24,
      "modifier": null,
      "repr": "FEW024",
      "type": "FEW"
    },
    {
      "altitude": 29,
      "modifier": null,
      "repr": "FEW029",
      "type": "FEW"
    },
    {
      "altitude": 50,
      "modifier": null,
      "repr": "FEW050",
      "type": "FEW"
    }
  ],
  "density_altitude": -501,
  "dewpoint": {
    "repr": "07",
    "spoken": "seven",
    "value": 7
  },
  "flight_rules": "VFR",
  "meta": {
    "stations_updated": "2024-06-12",
    "timestamp": "2024-10-22T18:46:06.650982Z"
  },
  "other": [],
  "pressure_altitude": -296,
  "raw": "KBVS 221835Z AUTO 15007KT 120V180 10SM FEW024 FEW029 FEW050 13/07 A3036 RMK A01",
  "relative_humidity": 0.6691258630398929,
  "remarks": "RMK A01",
  "remarks_info": {
    "codes": [],
    "dewpoint_decimal": null,
    "maximum_temperature_24": null,
    "maximum_temperature_6": null,
    "minimum_temperature_24": null,
    "minimum_temperature_6": null,
    "precip_24_hours": null,
    "precip_36_hours": null,
    "precip_hourly": null,
    "pressure_tendency": null,
    "sea_level_pressure": null,
    "snow_depth": null,
    "sunshine_minutes": null,
    "temperature_decimal": null
  },
  "runway_visibility": [],
  "sanitized": "KBVS 221835Z 15007KT 120V180 10SM FEW024 FEW029 FEW050 13/07 A3036 RMK A01",
  "station": "KBVS",
  "temperature": {
    "repr": "13",
    "spoken": "one three",
    "value": 13
  },
  "time": {
    "dt": "2024-10-22T18:35:00Z",
    "repr": "221835Z"
  },
  "units": {
    "accumulation": "in",
    "altimeter": "inHg",
    "altitude": "ft",
    "temperature": "C",
    "visibility": "sm",
    "wind_speed": "kt"
  },
  "visibility": {
    "repr": "10",
    "spoken": "one zero",
    "value": 10
  },
  "wind_direction": {
    "repr": "150",
    "spoken": "one five zero",
    "value": 150
  },
  "wind_gust": null,
  "wind_speed": {
    "repr": "07",
    "spoken": "seven",
    "value": 7
  },
  "wind_variable_direction": [
    {
      "repr": "120",
      "spoken": "one two zero",
      "value": 120
    },
    {
      "repr": "180",
      "spoken": "one eight zero",
      "value": 180
    }
  ],
  "wx_codes": []
}
