{
  "meta": {
    "timestamp": "2022-12-28T08:41:22.494484Z",
    "stations_updated": "2022-09-05"
  },
  "altimeter": {
    "repr": "A2953",
    "value": 29.53,
    "spoken": "two nine point five three"
  },
  "clouds": [
    {
      "repr": "BKN028",
      "type": "BKN",
      "altitude": 28,
      "modifier": null
    },
    {
      "repr": "BKN050",
      "type": "BKN",
      "altitude": 50,
      "modifier": null
    },
    {
      "repr": "OVC055",
      "type": "OVC",
      "altitude": 55,
      "modifier": null
    }
  ],
  "flight_rules": "MVFR",
  "other": [],
  "visibility": {
    "repr": "10",
    "value": 10,
    "spoken": "one zero"
  },
  "wind_direction": {
    "repr": "210",
    "value": 210,
    "spoken": "two one zero"
  },
  "wind_gust": {
    "repr": "20",
    "value": 20,
    "spoken": "two zero"
  },
  "wind_speed": {
    "repr": "13",
    "value": 13,
    "spoken": "one three"
  },
  "wx_codes": [],
  "raw": "KBVS 280835Z AUTO 21013G20KT 10SM BKN028 BKN050 OVC055 08/05 A2953 RMK A01",
  "sanitized": "KBVS 280835Z 21013G20KT 10SM BKN028 BKN050 OVC055 08/05 A2953 RMK A01",
  "station": "KBVS",
  "time": {
    "repr": "280835Z",
    "dt": "2022-12-28T08:35:00Z"
  },
  "remarks": "RMK A01",
  "dewpoint": {
    "repr": "05",
    "value": 5,
    "spoken": "five"
  },
  "relative_humidity": 0.8133982839480661,
  "remarks_info": {
    "maximum_temperature_6": null,
    "minimum_temperature_6": null,
    "pressure_tendency": null,
    "precip_36_hours": null,
    "precip_24_hours": null,
    "sunshine_minutes": null,
    "codes": [],
    "dewpoint_decimal": null,
    "maximum_temperature_24": null,
    "minimum_temperature_24": null,
    "precip_hourly": null,
    "sea_level_pressure": null,
    "snow_depth": null,
    "temperature_decimal": null
  },
  "runway_visibility": [],
  "temperature": {
    "repr": "08",
    "value": 8,
    "spoken": "eight"
  },
  "wind_variable_direction": [],
  "density_altitude": -271,
  "pressure_altitude": 534,
  "units": {
    "accumulation": "in",
    "altimeter": "inHg",
    "altitude": "ft",
    "temperature": "C",
    "visibility": "sm",
    "wind_speed": "kt"
  }
}
