{
  "altimeter": {
    "repr": "A3036",
    "spoken": "three zero point three six",
    "value": 30.36
  },
  "clouds": [
    {
      "altitude": 55,
      "modifier": null,
      "repr": "FEW055",
      "type": "FEW"
    },
    {
      "altitude": 65,
      "modifier": null,
      "repr": "SCT065",
      "type": "SCT"
    }
  ],
  "density_altitude": -1341,
  "dewpoint": {
    "repr": "05",
    "spoken": "five",
    "value": 5
  },
  "flight_rules": "VFR",
  "meta": {
    "stations_updated": "2024-06-12",
    "timestamp": "2024-10-24T07:40:27.329797Z"
  },
  "other": [],
  "pressure_altitude": -296,
  "raw": "KBVS 240715Z AUTO 00000KT 10SM FEW055 SCT065 06/05 A3036 RMK A01",
  "relative_humidity": 0.9329565396428716,
  "remarks": "RMK A01",
  "remarks_info": {
    "codes": [],
    "dewpoint_decimal": null,
    "maximum_temperature_24": null,
    "maximum_temperature_6": null,
    "minimum_temperature_24": null,
    "minimum_temperature_6": null,
    "precip_24_hours": null,
    "precip_36_hours": null,
    "precip_hourly": null,
    "pressure_tendency": null,
    "sea_level_pressure": null,
    "snow_depth": null,
    "sunshine_minutes": null,
    "temperature_decimal": null
  },
  "runway_visibility": [],
  "sanitized": "KBVS 240715Z 00000KT 10SM FEW055 SCT065 06/05 A3036 RMK A01",
  "station": "KBVS",
  "temperature": {
    "repr": "06",
    "spoken": "six",
    "value": 6
  },
  "time": {
    "dt": "2024-10-24T07:15:00Z",
    "repr": "240715Z"
  },
  "units": {
    "accumulation": "in",
    "altimeter": "inHg",
    "altitude": "ft",
    "temperature": "C",
    "visibility": "sm",
    "wind_speed": "kt"
  },
  "visibility": {
    "repr": "10",
    "spoken": "one zero",
    "value": 10
  },
  "wind_direction": {
    "repr": "000",
    "spoken": "zero zero zero",
    "value": 0
  },
  "wind_gust": null,
  "wind_speed": {
    "repr": "00",
    "spoken": "zero",
    "value": 0
  },
  "wind_variable_direction": [],
  "wx_codes": []
}
