{
  "meta": {
    "timestamp": "2023-01-02T19:40:42.712928Z",
    "stations_updated": "2022-12-27",
    "cache-timestamp": "2023-01-02T19:40:05.535000Z"
  },
  "altimeter": {
    "repr": "A2973",
    "value": 29.73,
    "spoken": "two nine point seven three"
  },
  "clouds": [],
  "flight_rules": "VFR",
  "other": [],
  "visibility": {
    "repr": "10",
    "value": 10,
    "spoken": "one zero"
  },
  "wind_direction": {
    "repr": "050",
    "value": 50,
    "spoken": "zero five zero"
  },
  "wind_gust": null,
  "wind_speed": {
    "repr": "07",
    "value": 7,
    "spoken": "seven"
  },
  "wx_codes": [],
  "raw": "KBVS 021915Z AUTO 05007KT 10SM CLR 06/01 A2973 RMK A01",
  "sanitized": "KBVS 021915Z 05007KT 10SM 06/01 A2973 RMK A01",
  "station": "KBVS",
  "time": {
    "repr": "021915Z",
    "dt": "2023-01-02T19:15:00Z"
  },
  "remarks": "RMK A01",
  "dewpoint": {
    "repr": "01",
    "value": 1,
    "spoken": "one"
  },
  "relative_humidity": 0.702816165710442,
  "remarks_info": {
    "maximum_temperature_6": null,
    "minimum_temperature_6": null,
    "pressure_tendency": null,
    "precip_36_hours": null,
    "precip_24_hours": null,
    "sunshine_minutes": null,
    "codes": [],
    "dewpoint_decimal": null,
    "maximum_temperature_24": null,
    "minimum_temperature_24": null,
    "precip_hourly": null,
    "sea_level_pressure": null,
    "snow_depth": null,
    "temperature_decimal": null
  },
  "runway_visibility": [],
  "temperature": {
    "repr": "06",
    "value": 6,
    "spoken": "six"
  },
  "wind_variable_direction": [],
  "density_altitude": -711,
  "pressure_altitude": 334,
  "units": {
    "accumulation": "in",
    "altimeter": "inHg",
    "altitude": "ft",
    "temperature": "C",
    "visibility": "sm",
    "wind_speed": "kt"
  }
}
