{
  "meta": {
    "timestamp": "2022-11-08T19:44:23.930323Z",
    "stations_updated": "2022-09-05"
  },
  "altimeter": {
    "repr": "A2998",
    "value": 29.98,
    "spoken": "two nine point nine eight"
  },
  "clouds": [],
  "flight_rules": "VFR",
  "other": [],
  "visibility": {
    "repr": "10",
    "value": 10,
    "spoken": "one zero"
  },
  "wind_direction": {
    "repr": "010",
    "value": 10,
    "spoken": "zero one zero"
  },
  "wind_gust": null,
  "wind_speed": {
    "repr": "04",
    "value": 4,
    "spoken": "four"
  },
  "wx_codes": [],
  "raw": "KBVS 081935Z AUTO 01004KT 10SM CLR 05/M02 A2998 RMK A01",
  "sanitized": "KBVS 081935Z 01004KT 10SM 05/M02 A2998 RMK A01",
  "station": "KBVS",
  "time": {
    "repr": "081935Z",
    "dt": "2022-11-08T19:35:00Z"
  },
  "remarks": "RMK A01",
  "dewpoint": {
    "repr": "M02",
    "value": -2,
    "spoken": "minus two"
  },
  "relative_humidity": 0.6053983529949765,
  "remarks_info": {
    "maximum_temperature_6": null,
    "minimum_temperature_6": null,
    "pressure_tendency": null,
    "precip_36_hours": null,
    "precip_24_hours": null,
    "sunshine_minutes": null,
    "codes": [],
    "dewpoint_decimal": null,
    "maximum_temperature_24": null,
    "minimum_temperature_24": null,
    "precip_hourly": null,
    "sea_level_pressure": null,
    "snow_depth": null,
    "temperature_decimal": null
  },
  "runway_visibility": [],
  "temperature": {
    "repr": "05",
    "value": 5,
    "spoken": "five"
  },
  "wind_variable_direction": [],
  "density_altitude": -1081,
  "pressure_altitude": 84,
  "units": {
    "accumulation": "in",
    "altimeter": "inHg",
    "altitude": "ft",
    "temperature": "C",
    "visibility": "sm",
    "wind_speed": "kt"
  }
}
