{
  "altimeter": {
    "repr": "A2989",
    "spoken": "two nine point eight nine",
    "value": 29.89
  },
  "clouds": [
    {
      "altitude": 31,
      "modifier": null,
      "repr": "BKN031",
      "type": "BKN"
    },
    {
      "altitude": 38,
      "modifier": null,
      "repr": "OVC038",
      "type": "OVC"
    }
  ],
  "density_altitude": -391,
  "dewpoint": {
    "repr": "04",
    "spoken": "four",
    "value": 4
  },
  "flight_rules": "VFR",
  "meta": {
    "stations_updated": "2024-10-29",
    "timestamp": "2024-11-24T20:07:30.539020Z"
  },
  "other": [],
  "pressure_altitude": 174,
  "raw": "KBVS 241955Z AUTO 12011G17KT 10SM BKN031 OVC038 10/04 A2989 RMK A01",
  "relative_humidity": 0.6626782752908755,
  "remarks": "RMK A01",
  "remarks_info": {
    "codes": [],
    "dewpoint_decimal": null,
    "maximum_temperature_24": null,
    "maximum_temperature_6": null,
    "minimum_temperature_24": null,
    "minimum_temperature_6": null,
    "precip_24_hours": null,
    "precip_36_hours": null,
    "precip_hourly": null,
    "pressure_tendency": null,
    "sea_level_pressure": null,
    "snow_depth": null,
    "sunshine_minutes": null,
    "temperature_decimal": null
  },
  "runway_visibility": [],
  "sanitized": "KBVS 241955Z 12011G17KT 10SM BKN031 OVC038 10/04 A2989 RMK A01",
  "station": "KBVS",
  "temperature": {
    "repr": "10",
    "spoken": "one zero",
    "value": 10
  },
  "time": {
    "dt": "2024-11-24T19:55:00Z",
    "repr": "241955Z"
  },
  "units": {
    "accumulation": "in",
    "altimeter": "inHg",
    "altitude": "ft",
    "temperature": "C",
    "visibility": "sm",
    "wind_speed": "kt"
  },
  "visibility": {
    "repr": "10",
    "spoken": "one zero",
    "value": 10
  },
  "wind_direction": {
    "repr": "120",
    "spoken": "one two zero",
    "value": 120
  },
  "wind_gust": {
    "repr": "17",
    "spoken": "one seven",
    "value": 17
  },
  "wind_speed": {
    "repr": "11",
    "spoken": "one one",
    "value": 11
  },
  "wind_variable_direction": [],
  "wx_codes": []
}
