{
  "meta": {
    "timestamp": "2023-03-08T09:27:23.999224Z",
    "stations_updated": "2023-01-30"
  },
  "altimeter": {
    "repr": "A2996",
    "value": 29.96,
    "spoken": "two nine point nine six"
  },
  "clouds": [
    {
      "repr": "FEW065",
      "type": "FEW",
      "altitude": 65,
      "modifier": null
    },
    {
      "repr": "FEW075",
      "type": "FEW",
      "altitude": 75,
      "modifier": null
    },
    {
      "repr": "OVC095",
      "type": "OVC",
      "altitude": 95,
      "modifier": null
    }
  ],
  "flight_rules": "VFR",
  "other": [],
  "visibility": {
    "repr": "10",
    "value": 10,
    "spoken": "one zero"
  },
  "wind_direction": {
    "repr": "050",
    "value": 50,
    "spoken": "zero five zero"
  },
  "wind_gust": null,
  "wind_speed": {
    "repr": "05",
    "value": 5,
    "spoken": "five"
  },
  "wx_codes": [],
  "raw": "KBVS 080915Z AUTO 05005KT 10SM FEW065 FEW075 OVC095 04/M00 A2996 RMK A01",
  "sanitized": "KBVS 080915Z 05005KT 10SM FEW065 FEW075 OVC095 04/M00 A2996 RMK A01",
  "station": "KBVS",
  "time": {
    "repr": "080915Z",
    "dt": "2023-03-08T09:15:00Z"
  },
  "remarks": "RMK A01",
  "dewpoint": {
    "repr": "M00",
    "value": 0,
    "spoken": "zero"
  },
  "relative_humidity": 0.7515814010366164,
  "remarks_info": {
    "maximum_temperature_6": null,
    "minimum_temperature_6": null,
    "pressure_tendency": null,
    "precip_36_hours": null,
    "precip_24_hours": null,
    "sunshine_minutes": null,
    "codes": [],
    "dewpoint_decimal": null,
    "maximum_temperature_24": null,
    "minimum_temperature_24": null,
    "precip_hourly": null,
    "sea_level_pressure": null,
    "snow_depth": null,
    "temperature_decimal": null
  },
  "runway_visibility": [],
  "temperature": {
    "repr": "04",
    "value": 4,
    "spoken": "four"
  },
  "wind_variable_direction": [],
  "density_altitude": -1181,
  "pressure_altitude": 104,
  "units": {
    "accumulation": "in",
    "altimeter": "inHg",
    "altitude": "ft",
    "temperature": "C",
    "visibility": "sm",
    "wind_speed": "kt"
  }
}
