{
  "altimeter": {
    "repr": "A3024",
    "spoken": "three zero point two four",
    "value": 30.24
  },
  "clouds": [],
  "density_altitude": -1821,
  "dewpoint": {
    "repr": "01",
    "spoken": "one",
    "value": 1
  },
  "flight_rules": "MVFR",
  "meta": {
    "cache-timestamp": "2023-10-31T11:17:20.164000Z",
    "stations_updated": "2023-10-28",
    "timestamp": "2023-10-31T11:20:33.904564Z",
    "warning": "Unable to fetch report. This cached data might be out of date. To return an error instead, set ?onfail=error"
  },
  "other": [],
  "pressure_altitude": -176,
  "raw": "KBVS 311055Z AUTO 00000KT 3SM BR CLR 01/01 A3024 RMK A01",
  "relative_humidity": 1,
  "remarks": "RMK A01",
  "remarks_info": {
    "codes": [],
    "dewpoint_decimal": null,
    "maximum_temperature_24": null,
    "maximum_temperature_6": null,
    "minimum_temperature_24": null,
    "minimum_temperature_6": null,
    "precip_24_hours": null,
    "precip_36_hours": null,
    "precip_hourly": null,
    "pressure_tendency": null,
    "sea_level_pressure": null,
    "snow_depth": null,
    "sunshine_minutes": null,
    "temperature_decimal": null
  },
  "runway_visibility": [],
  "sanitized": "KBVS 311055Z 00000KT 3SM BR 01/01 A3024 RMK A01",
  "station": "KBVS",
  "temperature": {
    "repr": "01",
    "spoken": "one",
    "value": 1
  },
  "time": {
    "dt": "2023-10-31T10:55:00Z",
    "repr": "311055Z"
  },
  "units": {
    "accumulation": "in",
    "altimeter": "inHg",
    "altitude": "ft",
    "temperature": "C",
    "visibility": "sm",
    "wind_speed": "kt"
  },
  "visibility": {
    "repr": "3",
    "spoken": "three",
    "value": 3
  },
  "wind_direction": {
    "repr": "000",
    "spoken": "zero zero zero",
    "value": 0
  },
  "wind_gust": null,
  "wind_speed": {
    "repr": "00",
    "spoken": "zero",
    "value": 0
  },
  "wind_variable_direction": [],
  "wx_codes": [
    {
      "repr": "BR",
      "value": "Mist"
    }
  ]
}
