{
  "meta": {
    "timestamp": "2023-08-30T15:40:43.042772Z",
    "stations_updated": "2023-08-05",
    "cache-timestamp": "2023-08-30T15:40:04.617000Z"
  },
  "altimeter": {
    "repr": "A3013",
    "value": 30.13,
    "spoken": "three zero point one three"
  },
  "clouds": [
    {
      "repr": "FEW007",
      "type": "FEW",
      "altitude": 7,
      "modifier": null
    },
    {
      "repr": "SCT042",
      "type": "SCT",
      "altitude": 42,
      "modifier": null
    },
    {
      "repr": "BKN049",
      "type": "BKN",
      "altitude": 49,
      "modifier": null
    }
  ],
  "flight_rules": "VFR",
  "other": [],
  "visibility": {
    "repr": "10",
    "value": 10,
    "spoken": "one zero"
  },
  "wind_direction": {
    "repr": "000",
    "value": 0,
    "spoken": "zero zero zero"
  },
  "wind_gust": null,
  "wind_speed": {
    "repr": "00",
    "value": 0,
    "spoken": "zero"
  },
  "wx_codes": [],
  "raw": "KBVS 301515Z AUTO 00000KT 10SM FEW007 SCT042 BKN049 15/15 A3013 RMK A01",
  "sanitized": "KBVS 301515Z 00000KT 10SM FEW007 SCT042 BKN049 15/15 A3013 RMK A01",
  "station": "KBVS",
  "time": {
    "repr": "301515Z",
    "dt": "2023-08-30T15:15:00Z"
  },
  "remarks": "RMK A01",
  "dewpoint": {
    "repr": "15",
    "value": 15,
    "spoken": "one five"
  },
  "relative_humidity": 1,
  "remarks_info": {
    "maximum_temperature_6": null,
    "minimum_temperature_6": null,
    "pressure_tendency": null,
    "precip_36_hours": null,
    "precip_24_hours": null,
    "sunshine_minutes": null,
    "codes": [],
    "dewpoint_decimal": null,
    "maximum_temperature_24": null,
    "minimum_temperature_24": null,
    "precip_hourly": null,
    "sea_level_pressure": null,
    "snow_depth": null,
    "temperature_decimal": null
  },
  "runway_visibility": [],
  "temperature": {
    "repr": "15",
    "value": 15,
    "spoken": "one five"
  },
  "wind_variable_direction": [],
  "density_altitude": -31,
  "pressure_altitude": -66,
  "units": {
    "accumulation": "in",
    "altimeter": "inHg",
    "altitude": "ft",
    "temperature": "C",
    "visibility": "sm",
    "wind_speed": "kt"
  }
}
