{
  "altimeter": {
    "repr": "A2974",
    "spoken": "two nine point seven four",
    "value": 29.74
  },
  "clouds": [
    {
      "altitude": 21,
      "modifier": null,
      "repr": "SCT021",
      "type": "SCT"
    },
    {
      "altitude": 25,
      "modifier": null,
      "repr": "BKN025",
      "type": "BKN"
    },
    {
      "altitude": 75,
      "modifier": null,
      "repr": "OVC075",
      "type": "OVC"
    }
  ],
  "density_altitude": 119,
  "dewpoint": {
    "repr": "11",
    "spoken": "one one",
    "value": 11
  },
  "flight_rules": "MVFR",
  "meta": {
    "stations_updated": "2024-12-02",
    "timestamp": "2024-12-18T07:27:19.480117Z"
  },
  "other": [],
  "pressure_altitude": 324,
  "raw": "KBVS 180715Z AUTO 16019G29KT 10SM SCT021 BKN025 OVC075 13/11 A2974 RMK A01",
  "relative_humidity": 0.8764963436839737,
  "remarks": "RMK A01",
  "remarks_info": {
    "codes": [],
    "dewpoint_decimal": null,
    "maximum_temperature_24": null,
    "maximum_temperature_6": null,
    "minimum_temperature_24": null,
    "minimum_temperature_6": null,
    "precip_24_hours": null,
    "precip_36_hours": null,
    "precip_hourly": null,
    "pressure_tendency": null,
    "sea_level_pressure": null,
    "snow_depth": null,
    "sunshine_minutes": null,
    "temperature_decimal": null
  },
  "runway_visibility": [],
  "sanitized": "KBVS 180715Z 16019G29KT 10SM SCT021 BKN025 OVC075 13/11 A2974 RMK A01",
  "station": "KBVS",
  "temperature": {
    "repr": "13",
    "spoken": "one three",
    "value": 13
  },
  "time": {
    "dt": "2024-12-18T07:15:00Z",
    "repr": "180715Z"
  },
  "units": {
    "accumulation": "in",
    "altimeter": "inHg",
    "altitude": "ft",
    "temperature": "C",
    "visibility": "sm",
    "wind_speed": "kt"
  },
  "visibility": {
    "repr": "10",
    "spoken": "one zero",
    "value": 10
  },
  "wind_direction": {
    "repr": "160",
    "spoken": "one six zero",
    "value": 160
  },
  "wind_gust": {
    "repr": "29",
    "spoken": "two nine",
    "value": 29
  },
  "wind_speed": {
    "repr": "19",
    "spoken": "one nine",
    "value": 19
  },
  "wind_variable_direction": [],
  "wx_codes": []
}
