{
  "altimeter": {
    "repr": "A3043",
    "spoken": "three zero point four three",
    "value": 30.43
  },
  "clouds": [
    {
      "altitude": 9,
      "modifier": null,
      "repr": "BKN009",
      "type": "BKN"
    },
    {
      "altitude": 26,
      "modifier": null,
      "repr": "BKN026",
      "type": "BKN"
    }
  ],
  "density_altitude": -1771,
  "dewpoint": {
    "repr": "03",
    "spoken": "three",
    "value": 3
  },
  "flight_rules": "IFR",
  "meta": {
    "stations_updated": "2024-12-02",
    "timestamp": "2025-01-06T13:41:55.180205Z"
  },
  "other": [],
  "pressure_altitude": -366,
  "raw": "KBVS 061335Z AUTO 31004KT 10SM BKN009 BKN026 03/03 A3043 RMK A01",
  "relative_humidity": 1,
  "remarks": "RMK A01",
  "remarks_info": {
    "codes": [],
    "dewpoint_decimal": null,
    "maximum_temperature_24": null,
    "maximum_temperature_6": null,
    "minimum_temperature_24": null,
    "minimum_temperature_6": null,
    "precip_24_hours": null,
    "precip_36_hours": null,
    "precip_hourly": null,
    "pressure_tendency": null,
    "sea_level_pressure": null,
    "snow_depth": null,
    "sunshine_minutes": null,
    "temperature_decimal": null
  },
  "runway_visibility": [],
  "sanitized": "KBVS 061335Z 31004KT 10SM BKN009 BKN026 03/03 A3043 RMK A01",
  "station": "KBVS",
  "temperature": {
    "repr": "03",
    "spoken": "three",
    "value": 3
  },
  "time": {
    "dt": "2025-01-06T13:35:00Z",
    "repr": "061335Z"
  },
  "units": {
    "accumulation": "in",
    "altimeter": "inHg",
    "altitude": "ft",
    "temperature": "C",
    "visibility": "sm",
    "wind_speed": "kt"
  },
  "visibility": {
    "repr": "10",
    "spoken": "one zero",
    "value": 10
  },
  "wind_direction": {
    "repr": "310",
    "spoken": "three one zero",
    "value": 310
  },
  "wind_gust": null,
  "wind_speed": {
    "repr": "04",
    "spoken": "four",
    "value": 4
  },
  "wind_variable_direction": [],
  "wx_codes": []
}
