{
  "meta": {
    "timestamp": "2023-02-27T21:40:37.432120Z",
    "stations_updated": "2023-01-30",
    "cache-timestamp": "2023-02-27T21:40:05.989000Z"
  },
  "altimeter": {
    "repr": "A2948",
    "value": 29.48,
    "spoken": "two nine point four eight"
  },
  "clouds": [
    {
      "repr": "FEW026",
      "type": "FEW",
      "altitude": 26,
      "modifier": null
    },
    {
      "repr": "FEW032",
      "type": "FEW",
      "altitude": 32,
      "modifier": null
    },
    {
      "repr": "FEW041",
      "type": "FEW",
      "altitude": 41,
      "modifier": null
    }
  ],
  "flight_rules": "VFR",
  "other": [],
  "visibility": {
    "repr": "10",
    "value": 10,
    "spoken": "one zero"
  },
  "wind_direction": {
    "repr": "070",
    "value": 70,
    "spoken": "zero seven zero"
  },
  "wind_gust": {
    "repr": "18",
    "value": 18,
    "spoken": "one eight"
  },
  "wind_speed": {
    "repr": "13",
    "value": 13,
    "spoken": "one three"
  },
  "wx_codes": [],
  "raw": "KBVS 272115Z AUTO 07013G18KT 10SM FEW026 FEW032 FEW041 03/01 A2948 RMK A01",
  "sanitized": "KBVS 272115Z 07013G18KT 10SM FEW026 FEW032 FEW041 03/01 A2948 RMK A01",
  "station": "KBVS",
  "time": {
    "repr": "272115Z",
    "dt": "2023-02-27T21:15:00Z"
  },
  "remarks": "RMK A01",
  "dewpoint": {
    "repr": "01",
    "value": 1,
    "spoken": "one"
  },
  "relative_humidity": 0.866944107103059,
  "remarks_info": {
    "maximum_temperature_6": null,
    "minimum_temperature_6": null,
    "pressure_tendency": null,
    "precip_36_hours": null,
    "precip_24_hours": null,
    "sunshine_minutes": null,
    "codes": [],
    "dewpoint_decimal": null,
    "maximum_temperature_24": null,
    "minimum_temperature_24": null,
    "precip_hourly": null,
    "sea_level_pressure": null,
    "snow_depth": null,
    "temperature_decimal": null
  },
  "runway_visibility": [],
  "temperature": {
    "repr": "03",
    "value": 3,
    "spoken": "three"
  },
  "wind_variable_direction": [],
  "density_altitude": -821,
  "pressure_altitude": 584,
  "units": {
    "accumulation": "in",
    "altimeter": "inHg",
    "altitude": "ft",
    "temperature": "C",
    "visibility": "sm",
    "wind_speed": "kt"
  }
}
