{
  "meta": {
    "timestamp": "2023-06-07T02:15:37.150670Z",
    "stations_updated": "2023-06-06",
    "cache-timestamp": "2023-06-07T02:14:38.221000Z"
  },
  "altimeter": {
    "repr": "A2979",
    "value": 29.79,
    "spoken": "two nine point seven nine"
  },
  "clouds": [],
  "flight_rules": "VFR",
  "other": [],
  "visibility": {
    "repr": "10",
    "value": 10,
    "spoken": "one zero"
  },
  "wind_direction": {
    "repr": "290",
    "value": 290,
    "spoken": "two nine zero"
  },
  "wind_gust": null,
  "wind_speed": {
    "repr": "12",
    "value": 12,
    "spoken": "one two"
  },
  "wx_codes": [],
  "raw": "KBVS 070155Z AUTO 29012KT 10SM CLR 22/08 A2979 RMK A01",
  "sanitized": "KBVS 070155Z 29012KT 10SM 22/08 A2979 RMK A01",
  "station": "KBVS",
  "time": {
    "repr": "070155Z",
    "dt": "2023-06-07T01:55:00Z"
  },
  "remarks": "RMK A01",
  "dewpoint": {
    "repr": "08",
    "value": 8,
    "spoken": "eight"
  },
  "relative_humidity": 0.40571140529717,
  "remarks_info": {
    "maximum_temperature_6": null,
    "minimum_temperature_6": null,
    "pressure_tendency": null,
    "precip_36_hours": null,
    "precip_24_hours": null,
    "sunshine_minutes": null,
    "codes": [],
    "dewpoint_decimal": null,
    "maximum_temperature_24": null,
    "minimum_temperature_24": null,
    "precip_hourly": null,
    "sea_level_pressure": null,
    "snow_depth": null,
    "temperature_decimal": null
  },
  "runway_visibility": [],
  "temperature": {
    "repr": "22",
    "value": 22,
    "spoken": "two two"
  },
  "wind_variable_direction": [],
  "density_altitude": 1149,
  "pressure_altitude": 274,
  "units": {
    "accumulation": "in",
    "altimeter": "inHg",
    "altitude": "ft",
    "temperature": "C",
    "visibility": "sm",
    "wind_speed": "kt"
  }
}
