{
  "meta": {
    "timestamp": "2023-02-21T10:02:37.839072Z",
    "stations_updated": "2023-01-30",
    "cache-timestamp": "2023-02-21T10:02:05.953000Z"
  },
  "altimeter": {
    "repr": "A2963",
    "value": 29.63,
    "spoken": "two nine point six three"
  },
  "clouds": [
    {
      "repr": "SCT022",
      "type": "SCT",
      "altitude": 22,
      "modifier": null
    },
    {
      "repr": "BKN080",
      "type": "BKN",
      "altitude": 80,
      "modifier": null
    },
    {
      "repr": "OVC095",
      "type": "OVC",
      "altitude": 95,
      "modifier": null
    }
  ],
  "flight_rules": "VFR",
  "other": [],
  "visibility": {
    "repr": "10",
    "value": 10,
    "spoken": "one zero"
  },
  "wind_direction": {
    "repr": "240",
    "value": 240,
    "spoken": "two four zero"
  },
  "wind_gust": {
    "repr": "22",
    "value": 22,
    "spoken": "two two"
  },
  "wind_speed": {
    "repr": "12",
    "value": 12,
    "spoken": "one two"
  },
  "wx_codes": [],
  "raw": "KBVS 210935Z AUTO 24012G22KT 200V270 10SM SCT022 BKN080 OVC095 06/04 A2963 RMK A01",
  "sanitized": "KBVS 210935Z 24012G22KT 200V270 10SM SCT022 BKN080 OVC095 06/04 A2963 RMK A01",
  "station": "KBVS",
  "time": {
    "repr": "210935Z",
    "dt": "2023-02-21T09:35:00Z"
  },
  "remarks": "RMK A01",
  "dewpoint": {
    "repr": "04",
    "value": 4,
    "spoken": "four"
  },
  "relative_humidity": 0.8699199333996626,
  "remarks_info": {
    "maximum_temperature_6": null,
    "minimum_temperature_6": null,
    "pressure_tendency": null,
    "precip_36_hours": null,
    "precip_24_hours": null,
    "sunshine_minutes": null,
    "codes": [],
    "dewpoint_decimal": null,
    "maximum_temperature_24": null,
    "minimum_temperature_24": null,
    "precip_hourly": null,
    "sea_level_pressure": null,
    "snow_depth": null,
    "temperature_decimal": null
  },
  "runway_visibility": [],
  "temperature": {
    "repr": "06",
    "value": 6,
    "spoken": "six"
  },
  "wind_variable_direction": [
    {
      "repr": "200",
      "value": 200,
      "spoken": "two zero zero"
    },
    {
      "repr": "270",
      "value": 270,
      "spoken": "two seven zero"
    }
  ],
  "density_altitude": -611,
  "pressure_altitude": 434,
  "units": {
    "accumulation": "in",
    "altimeter": "inHg",
    "altitude": "ft",
    "temperature": "C",
    "visibility": "sm",
    "wind_speed": "kt"
  }
}
