{
  "altimeter": {
    "repr": "A3001",
    "spoken": "three zero point zero one",
    "value": 30.01
  },
  "clouds": [],
  "density_altitude": 809,
  "dewpoint": {
    "repr": "17",
    "spoken": "one seven",
    "value": 17
  },
  "flight_rules": "VFR",
  "meta": {
    "stations_updated": "2024-05-13",
    "timestamp": "2024-06-19T21:01:41.210920Z"
  },
  "other": [],
  "pressure_altitude": 54,
  "raw": "KBVS 192055Z AUTO 29005G11KT 10SM CLR 21/17 A3001 RMK A01",
  "relative_humidity": 0.7789701483888556,
  "remarks": "RMK A01",
  "remarks_info": {
    "codes": [],
    "dewpoint_decimal": null,
    "maximum_temperature_24": null,
    "maximum_temperature_6": null,
    "minimum_temperature_24": null,
    "minimum_temperature_6": null,
    "precip_24_hours": null,
    "precip_36_hours": null,
    "precip_hourly": null,
    "pressure_tendency": null,
    "sea_level_pressure": null,
    "snow_depth": null,
    "sunshine_minutes": null,
    "temperature_decimal": null
  },
  "runway_visibility": [],
  "sanitized": "KBVS 192055Z 29005G11KT 10SM 21/17 A3001 RMK A01",
  "station": "KBVS",
  "temperature": {
    "repr": "21",
    "spoken": "two one",
    "value": 21
  },
  "time": {
    "dt": "2024-06-19T20:55:00Z",
    "repr": "192055Z"
  },
  "units": {
    "accumulation": "in",
    "altimeter": "inHg",
    "altitude": "ft",
    "temperature": "C",
    "visibility": "sm",
    "wind_speed": "kt"
  },
  "visibility": {
    "repr": "10",
    "spoken": "one zero",
    "value": 10
  },
  "wind_direction": {
    "repr": "290",
    "spoken": "two nine zero",
    "value": 290
  },
  "wind_gust": {
    "repr": "11",
    "spoken": "one one",
    "value": 11
  },
  "wind_speed": {
    "repr": "05",
    "spoken": "five",
    "value": 5
  },
  "wind_variable_direction": [],
  "wx_codes": []
}
