{
  "meta": {
    "timestamp": "2023-10-11T06:29:48.669935Z",
    "stations_updated": "2023-10-01"
  },
  "altimeter": {
    "repr": "A2946",
    "value": 29.46,
    "spoken": "two nine point four six"
  },
  "clouds": [
    {
      "repr": "BKN018",
      "type": "BKN",
      "altitude": 18,
      "modifier": null
    },
    {
      "repr": "OVC031",
      "type": "OVC",
      "altitude": 31,
      "modifier": null
    }
  ],
  "flight_rules": "MVFR",
  "other": [],
  "visibility": {
    "repr": "10",
    "value": 10,
    "spoken": "one zero"
  },
  "wind_direction": {
    "repr": "120",
    "value": 120,
    "spoken": "one two zero"
  },
  "wind_gust": {
    "repr": "19",
    "value": 19,
    "spoken": "one nine"
  },
  "wind_speed": {
    "repr": "11",
    "value": 11,
    "spoken": "one one"
  },
  "wx_codes": [],
  "raw": "KBVS 110615Z AUTO 12011G19KT 100V160 10SM BKN018 OVC031 13/13 A2946 RMK A01",
  "sanitized": "KBVS 110615Z 12011G19KT 100V160 10SM BKN018 OVC031 13/13 A2946 RMK A01",
  "station": "KBVS",
  "time": {
    "repr": "110615Z",
    "dt": "2023-10-11T06:15:00Z"
  },
  "remarks": "RMK A01",
  "dewpoint": {
    "repr": "13",
    "value": 13,
    "spoken": "one three"
  },
  "relative_humidity": 1,
  "remarks_info": {
    "maximum_temperature_6": null,
    "minimum_temperature_6": null,
    "pressure_tendency": null,
    "precip_36_hours": null,
    "precip_24_hours": null,
    "sunshine_minutes": null,
    "codes": [],
    "dewpoint_decimal": null,
    "maximum_temperature_24": null,
    "minimum_temperature_24": null,
    "precip_hourly": null,
    "sea_level_pressure": null,
    "snow_depth": null,
    "temperature_decimal": null
  },
  "runway_visibility": [],
  "temperature": {
    "repr": "13",
    "value": 13,
    "spoken": "one three"
  },
  "wind_variable_direction": [
    {
      "repr": "100",
      "value": 100,
      "spoken": "one zero zero"
    },
    {
      "repr": "160",
      "value": 160,
      "spoken": "one six zero"
    }
  ],
  "density_altitude": 399,
  "pressure_altitude": 604,
  "units": {
    "accumulation": "in",
    "altimeter": "inHg",
    "altitude": "ft",
    "temperature": "C",
    "visibility": "sm",
    "wind_speed": "kt"
  }
}
