{
  "meta": {
    "timestamp": "2022-10-27T19:27:38.673603Z",
    "stations_updated": "2022-09-05"
  },
  "altimeter": {
    "repr": "A2993",
    "value": 29.93,
    "spoken": "two nine point nine three"
  },
  "clouds": [
    {
      "repr": "OVC028",
      "type": "OVC",
      "altitude": 28,
      "modifier": null
    }
  ],
  "flight_rules": "MVFR",
  "other": [],
  "visibility": {
    "repr": "10",
    "value": 10,
    "spoken": "one zero"
  },
  "wind_direction": {
    "repr": "150",
    "value": 150,
    "spoken": "one five zero"
  },
  "wind_gust": {
    "repr": "27",
    "value": 27,
    "spoken": "two seven"
  },
  "wind_speed": {
    "repr": "15",
    "value": 15,
    "spoken": "one five"
  },
  "wx_codes": [],
  "raw": "KBVS 271915Z AUTO 15015G27KT 10SM OVC028 13/08 A2993 RMK A01",
  "sanitized": "KBVS 271915Z 15015G27KT 10SM OVC028 13/08 A2993 RMK A01",
  "station": "KBVS",
  "time": {
    "repr": "271915Z",
    "dt": "2022-10-27T19:15:00Z"
  },
  "remarks": "RMK A01",
  "dewpoint": {
    "repr": "08",
    "value": 8,
    "spoken": "eight"
  },
  "relative_humidity": 0.7164205234872149,
  "remarks_info": {
    "maximum_temperature_6": null,
    "minimum_temperature_6": null,
    "pressure_tendency": null,
    "precip_36_hours": null,
    "precip_24_hours": null,
    "sunshine_minutes": null,
    "codes": [],
    "dewpoint_decimal": null,
    "maximum_temperature_24": null,
    "minimum_temperature_24": null,
    "precip_hourly": null,
    "sea_level_pressure": null,
    "snow_depth": null,
    "temperature_decimal": null
  },
  "runway_visibility": [],
  "temperature": {
    "repr": "13",
    "value": 13,
    "spoken": "one three"
  },
  "wind_variable_direction": [],
  "density_altitude": -71,
  "pressure_altitude": 134,
  "units": {
    "accumulation": "in",
    "altimeter": "inHg",
    "altitude": "ft",
    "temperature": "C",
    "visibility": "sm",
    "wind_speed": "kt"
  }
}
