{
  "meta": {
    "timestamp": "2023-04-27T21:01:19.633965Z",
    "stations_updated": "2023-03-11"
  },
  "altimeter": {
    "repr": "A3023",
    "value": 30.23,
    "spoken": "three zero point two three"
  },
  "clouds": [],
  "flight_rules": "VFR",
  "other": [],
  "visibility": {
    "repr": "10",
    "value": 10,
    "spoken": "one zero"
  },
  "wind_direction": {
    "repr": "280",
    "value": 280,
    "spoken": "two eight zero"
  },
  "wind_gust": {
    "repr": "14",
    "value": 14,
    "spoken": "one four"
  },
  "wind_speed": {
    "repr": "09",
    "value": 9,
    "spoken": "nine"
  },
  "wx_codes": [],
  "raw": "KBVS 272055Z AUTO 28009G14KT 240V300 10SM CLR 16/11 A3023 RMK A01",
  "sanitized": "KBVS 272055Z 28009G14KT 240V300 10SM 16/11 A3023 RMK A01",
  "station": "KBVS",
  "time": {
    "repr": "272055Z",
    "dt": "2023-04-27T20:55:00Z"
  },
  "remarks": "RMK A01",
  "dewpoint": {
    "repr": "11",
    "value": 11,
    "spoken": "one one"
  },
  "relative_humidity": 0.7219878565916649,
  "remarks_info": {
    "maximum_temperature_6": null,
    "minimum_temperature_6": null,
    "pressure_tendency": null,
    "precip_36_hours": null,
    "precip_24_hours": null,
    "sunshine_minutes": null,
    "codes": [],
    "dewpoint_decimal": null,
    "maximum_temperature_24": null,
    "minimum_temperature_24": null,
    "precip_hourly": null,
    "sea_level_pressure": null,
    "snow_depth": null,
    "temperature_decimal": null
  },
  "runway_visibility": [],
  "temperature": {
    "repr": "16",
    "value": 16,
    "spoken": "one six"
  },
  "wind_variable_direction": [
    {
      "repr": "240",
      "value": 240,
      "spoken": "two four zero"
    },
    {
      "repr": "300",
      "value": 300,
      "spoken": "three zero zero"
    }
  ],
  "density_altitude": -11,
  "pressure_altitude": -166,
  "units": {
    "accumulation": "in",
    "altimeter": "inHg",
    "altitude": "ft",
    "temperature": "C",
    "visibility": "sm",
    "wind_speed": "kt"
  }
}
