{
  "altimeter": {
    "repr": "A3002",
    "spoken": "three zero point zero two",
    "value": 30.02
  },
  "clouds": [],
  "density_altitude": 919,
  "dewpoint": {
    "repr": "19",
    "spoken": "one nine",
    "value": 19
  },
  "flight_rules": "VFR",
  "meta": {
    "cache-timestamp": "2024-06-20T19:40:05.106000Z",
    "stations_updated": "2024-05-13",
    "timestamp": "2024-06-20T19:40:30.248208Z"
  },
  "other": [],
  "pressure_altitude": 44,
  "raw": "KBVS 201915Z AUTO 29003G11KT 10SM CLR 22/19 A3002 RMK A01",
  "relative_humidity": 0.8309303000871946,
  "remarks": "RMK A01",
  "remarks_info": {
    "codes": [],
    "dewpoint_decimal": null,
    "maximum_temperature_24": null,
    "maximum_temperature_6": null,
    "minimum_temperature_24": null,
    "minimum_temperature_6": null,
    "precip_24_hours": null,
    "precip_36_hours": null,
    "precip_hourly": null,
    "pressure_tendency": null,
    "sea_level_pressure": null,
    "snow_depth": null,
    "sunshine_minutes": null,
    "temperature_decimal": null
  },
  "runway_visibility": [],
  "sanitized": "KBVS 201915Z 29003G11KT 10SM 22/19 A3002 RMK A01",
  "station": "KBVS",
  "temperature": {
    "repr": "22",
    "spoken": "two two",
    "value": 22
  },
  "time": {
    "dt": "2024-06-20T19:15:00Z",
    "repr": "201915Z"
  },
  "units": {
    "accumulation": "in",
    "altimeter": "inHg",
    "altitude": "ft",
    "temperature": "C",
    "visibility": "sm",
    "wind_speed": "kt"
  },
  "visibility": {
    "repr": "10",
    "spoken": "one zero",
    "value": 10
  },
  "wind_direction": {
    "repr": "290",
    "spoken": "two nine zero",
    "value": 290
  },
  "wind_gust": {
    "repr": "11",
    "spoken": "one one",
    "value": 11
  },
  "wind_speed": {
    "repr": "03",
    "spoken": "three",
    "value": 3
  },
  "wind_variable_direction": [],
  "wx_codes": []
}
