{
  "meta": {
    "timestamp": "2023-06-13T00:31:04.443419Z",
    "stations_updated": "2023-06-06"
  },
  "altimeter": {
    "repr": "A2993",
    "value": 29.93,
    "spoken": "two nine point nine three"
  },
  "clouds": [],
  "flight_rules": "VFR",
  "other": [],
  "visibility": {
    "repr": "10",
    "value": 10,
    "spoken": "one zero"
  },
  "wind_direction": {
    "repr": "300",
    "value": 300,
    "spoken": "three zero zero"
  },
  "wind_gust": null,
  "wind_speed": {
    "repr": "09",
    "value": 9,
    "spoken": "nine"
  },
  "wx_codes": [],
  "raw": "KBVS 130015Z AUTO 30009KT 10SM CLR 25/15 A2993 RMK A01",
  "sanitized": "KBVS 130015Z 30009KT 10SM 25/15 A2993 RMK A01",
  "station": "KBVS",
  "time": {
    "repr": "130015Z",
    "dt": "2023-06-13T00:15:00Z"
  },
  "remarks": "RMK A01",
  "dewpoint": {
    "repr": "15",
    "value": 15,
    "spoken": "one five"
  },
  "relative_humidity": 0.537991291716395,
  "remarks_info": {
    "maximum_temperature_6": null,
    "minimum_temperature_6": null,
    "pressure_tendency": null,
    "precip_36_hours": null,
    "precip_24_hours": null,
    "sunshine_minutes": null,
    "codes": [],
    "dewpoint_decimal": null,
    "maximum_temperature_24": null,
    "minimum_temperature_24": null,
    "precip_hourly": null,
    "sea_level_pressure": null,
    "snow_depth": null,
    "temperature_decimal": null
  },
  "runway_visibility": [],
  "temperature": {
    "repr": "25",
    "value": 25,
    "spoken": "two five"
  },
  "wind_variable_direction": [],
  "density_altitude": 1369,
  "pressure_altitude": 134,
  "units": {
    "accumulation": "in",
    "altimeter": "inHg",
    "altitude": "ft",
    "temperature": "C",
    "visibility": "sm",
    "wind_speed": "kt"
  }
}
