{
  "altimeter": {
    "repr": "A2985",
    "spoken": "two nine point eight five",
    "value": 29.85
  },
  "clouds": [
    {
      "altitude": 100,
      "modifier": null,
      "repr": "FEW100",
      "type": "FEW"
    },
    {
      "altitude": 150,
      "modifier": null,
      "repr": "SCT150",
      "type": "SCT"
    },
    {
      "altitude": 220,
      "modifier": null,
      "repr": "BKN220",
      "type": "BKN"
    }
  ],
  "density_altitude": -1600,
  "dewpoint": {
    "repr": "M07",
    "spoken": "minus seven",
    "value": -7
  },
  "flight_rules": "VFR",
  "meta": {
    "cache-timestamp": "2024-01-17T00:28:06.097000Z",
    "stations_updated": "2023-10-28",
    "timestamp": "2024-01-17T00:28:09.679985Z"
  },
  "other": [],
  "pressure_altitude": 117,
  "raw": "KNUW 162353Z 10005KT 10SM FEW100 SCT150 BKN220 01/M07 A2985 RMK AO2 SLP111 T00061067 10028 21017 56037 $",
  "relative_humidity": 0.5807780745865051,
  "remarks": "RMK AO2 SLP111 T00061067 10028 21017 56037 $",
  "remarks_info": {
    "codes": [
      {
        "repr": "$",
        "value": "ASOS requires maintenance"
      },
      {
        "repr": "AO2",
        "value": "Automated with precipitation sensor"
      }
    ],
    "dewpoint_decimal": {
      "repr": "1067",
      "spoken": "minus six point seven",
      "value": -6.7
    },
    "maximum_temperature_24": null,
    "maximum_temperature_6": {
      "repr": "10028",
      "spoken": "two point eight",
      "value": 2.8
    },
    "minimum_temperature_24": null,
    "minimum_temperature_6": {
      "repr": "21017",
      "spoken": "minus one point seven",
      "value": -1.7
    },
    "precip_24_hours": null,
    "precip_36_hours": null,
    "precip_hourly": null,
    "pressure_tendency": {
      "change": 3.7,
      "repr": "56037",
      "tendency": "Decreasing, then steady"
    },
    "sea_level_pressure": {
      "repr": "SLP111",
      "spoken": "one zero one one point one",
      "value": 1011.1
    },
    "snow_depth": null,
    "sunshine_minutes": null,
    "temperature_decimal": {
      "repr": "0006",
      "spoken": "zero point six",
      "value": 0.6
    }
  },
  "runway_visibility": [],
  "sanitized": "KNUW 162353Z 10005KT 10SM FEW100 SCT150 BKN220 01/M07 A2985 RMK AO2 SLP111 T00061067 10028 21017 56037 $",
  "station": "KNUW",
  "temperature": {
    "repr": "01",
    "spoken": "one",
    "value": 1
  },
  "time": {
    "dt": "2024-01-16T23:53:00Z",
    "repr": "162353Z"
  },
  "units": {
    "accumulation": "in",
    "altimeter": "inHg",
    "altitude": "ft",
    "temperature": "C",
    "visibility": "sm",
    "wind_speed": "kt"
  },
  "visibility": {
    "repr": "10",
    "spoken": "one zero",
    "value": 10
  },
  "wind_direction": {
    "repr": "100",
    "spoken": "one zero zero",
    "value": 100
  },
  "wind_gust": null,
  "wind_speed": {
    "repr": "05",
    "spoken": "five",
    "value": 5
  },
  "wind_variable_direction": [],
  "wx_codes": []
}
