{
  "altimeter": {
    "repr": "A3021",
    "spoken": "three zero point two one",
    "value": 30.21
  },
  "clouds": [
    {
      "altitude": 20,
      "modifier": null,
      "repr": "FEW020",
      "type": "FEW"
    },
    {
      "altitude": 65,
      "modifier": null,
      "repr": "BKN065",
      "type": "BKN"
    },
    {
      "altitude": 230,
      "modifier": null,
      "repr": "BKN230",
      "type": "BKN"
    }
  ],
  "density_altitude": -904,
  "dewpoint": {
    "repr": "08",
    "spoken": "eight",
    "value": 8
  },
  "flight_rules": "VFR",
  "meta": {
    "stations_updated": "2024-06-12",
    "timestamp": "2024-10-05T09:41:21.280775Z"
  },
  "other": [],
  "pressure_altitude": -243,
  "raw": "KNUW 050853Z 11007KT 10SM FEW020 BKN065 BKN230 09/08 A3021 RMK AO2 SLP235 T00940083 51022 $",
  "relative_humidity": 0.9283717155883899,
  "remarks": "RMK AO2 SLP235 T00940083 51022 $",
  "remarks_info": {
    "codes": [
      {
        "repr": "$",
        "value": "ASOS requires maintenance"
      },
      {
        "repr": "AO2",
        "value": "Automated with precipitation sensor"
      }
    ],
    "dewpoint_decimal": {
      "repr": "0083",
      "spoken": "eight point three",
      "value": 8.3
    },
    "maximum_temperature_24": null,
    "maximum_temperature_6": null,
    "minimum_temperature_24": null,
    "minimum_temperature_6": null,
    "precip_24_hours": null,
    "precip_36_hours": null,
    "precip_hourly": null,
    "pressure_tendency": {
      "change": 2.2,
      "repr": "51022",
      "tendency": "Increasing, then steady"
    },
    "sea_level_pressure": {
      "repr": "SLP235",
      "spoken": "one zero two three point five",
      "value": 1023.5
    },
    "snow_depth": null,
    "sunshine_minutes": null,
    "temperature_decimal": {
      "repr": "0094",
      "spoken": "nine point four",
      "value": 9.4
    }
  },
  "runway_visibility": [],
  "sanitized": "KNUW 050853Z 11007KT 10SM FEW020 BKN065 BKN230 09/08 A3021 RMK AO2 SLP235 T00940083 51022 $",
  "station": "KNUW",
  "temperature": {
    "repr": "09",
    "spoken": "nine",
    "value": 9
  },
  "time": {
    "dt": "2024-10-05T08:53:00Z",
    "repr": "050853Z"
  },
  "units": {
    "accumulation": "in",
    "altimeter": "inHg",
    "altitude": "ft",
    "temperature": "C",
    "visibility": "sm",
    "wind_speed": "kt"
  },
  "visibility": {
    "repr": "10",
    "spoken": "one zero",
    "value": 10
  },
  "wind_direction": {
    "repr": "110",
    "spoken": "one one zero",
    "value": 110
  },
  "wind_gust": null,
  "wind_speed": {
    "repr": "07",
    "spoken": "seven",
    "value": 7
  },
  "wind_variable_direction": [],
  "wx_codes": []
}
