{
  "altimeter": {
    "repr": "A3032",
    "spoken": "three zero point three two",
    "value": 30.32
  },
  "clouds": [
    {
      "altitude": 25,
      "modifier": null,
      "repr": "FEW025",
      "type": "FEW"
    },
    {
      "altitude": 55,
      "modifier": null,
      "repr": "SCT055",
      "type": "SCT"
    },
    {
      "altitude": 100,
      "modifier": null,
      "repr": "BKN100",
      "type": "BKN"
    },
    {
      "altitude": 200,
      "modifier": null,
      "repr": "BKN200",
      "type": "BKN"
    }
  ],
  "density_altitude": -1410,
  "dewpoint": {
    "repr": "04",
    "spoken": "four",
    "value": 4
  },
  "flight_rules": "VFR",
  "meta": {
    "stations_updated": "2024-12-02",
    "timestamp": "2024-12-05T22:44:34.285052Z"
  },
  "other": [],
  "pressure_altitude": -353,
  "raw": "KNUW 052153Z 09004KT 10SM FEW025 SCT055 BKN100 BKN200 06/04 A3032 RMK AO2 SLP272 T00610039",
  "relative_humidity": 0.8578808713986099,
  "remarks": "RMK AO2 SLP272 T00610039",
  "remarks_info": {
    "codes": [
      {
        "repr": "AO2",
        "value": "Automated with precipitation sensor"
      }
    ],
    "dewpoint_decimal": {
      "repr": "0039",
      "spoken": "three point nine",
      "value": 3.9
    },
    "maximum_temperature_24": null,
    "maximum_temperature_6": null,
    "minimum_temperature_24": null,
    "minimum_temperature_6": null,
    "precip_24_hours": null,
    "precip_36_hours": null,
    "precip_hourly": null,
    "pressure_tendency": null,
    "sea_level_pressure": {
      "repr": "SLP272",
      "spoken": "one zero two seven point two",
      "value": 1027.2
    },
    "snow_depth": null,
    "sunshine_minutes": null,
    "temperature_decimal": {
      "repr": "0061",
      "spoken": "six point one",
      "value": 6.1
    }
  },
  "runway_visibility": [],
  "sanitized": "KNUW 052153Z 09004KT 10SM FEW025 SCT055 BKN100 BKN200 06/04 A3032 RMK AO2 SLP272 T00610039",
  "station": "KNUW",
  "temperature": {
    "repr": "06",
    "spoken": "six",
    "value": 6
  },
  "time": {
    "dt": "2024-12-05T21:53:00Z",
    "repr": "052153Z"
  },
  "units": {
    "accumulation": "in",
    "altimeter": "inHg",
    "altitude": "ft",
    "temperature": "C",
    "visibility": "sm",
    "wind_speed": "kt"
  },
  "visibility": {
    "repr": "10",
    "spoken": "one zero",
    "value": 10
  },
  "wind_direction": {
    "repr": "090",
    "spoken": "zero nine zero",
    "value": 90
  },
  "wind_gust": null,
  "wind_speed": {
    "repr": "04",
    "spoken": "four",
    "value": 4
  },
  "wind_variable_direction": [],
  "wx_codes": []
}
