{
  "meta": {
    "timestamp": "2022-12-18T19:20:36.819650Z",
    "stations_updated": "2022-09-05"
  },
  "altimeter": {
    "repr": "A2995",
    "value": 29.95,
    "spoken": "two nine point nine five"
  },
  "clouds": [
    {
      "repr": "SCT006",
      "type": "SCT",
      "altitude": 6,
      "modifier": null
    },
    {
      "repr": "BKN016",
      "type": "BKN",
      "altitude": 16,
      "modifier": null
    },
    {
      "repr": "OVC024",
      "type": "OVC",
      "altitude": 24,
      "modifier": null
    }
  ],
  "flight_rules": "IFR",
  "other": [],
  "visibility": {
    "repr": "2",
    "value": 2,
    "spoken": "two"
  },
  "wind_direction": {
    "repr": "310",
    "value": 310,
    "spoken": "three one zero"
  },
  "wind_gust": null,
  "wind_speed": {
    "repr": "13",
    "value": 13,
    "spoken": "one three"
  },
  "wx_codes": [
    {
      "repr": "-SN",
      "value": "Light Snow"
    },
    {
      "repr": "BR",
      "value": "Mist"
    }
  ],
  "raw": "KNUW 181907Z 31013KT 2SM -SN BR SCT006 BKN016 OVC024 02/00 A2995 RMK AO2 VIS N 1/2 P0000 T00170000 VISNO $",
  "sanitized": "KNUW 181907Z 31013KT 2SM -SN BR SCT006 BKN016 OVC024 02/00 A2995 RMK AO2 VIS N 1/2 P0000 T00170000 VISNO $",
  "station": "KNUW",
  "time": {
    "repr": "181907Z",
    "dt": "2022-12-18T19:07:00Z"
  },
  "remarks": "RMK AO2 VIS N 1/2 P0000 T00170000 VISNO $",
  "dewpoint": {
    "repr": "00",
    "value": 0,
    "spoken": "zero"
  },
  "relative_humidity": 0.8846986887746675,
  "remarks_info": {
    "maximum_temperature_6": null,
    "minimum_temperature_6": null,
    "pressure_tendency": null,
    "precip_36_hours": null,
    "precip_24_hours": null,
    "sunshine_minutes": null,
    "codes": [
      {
        "repr": "$",
        "value": "ASOS requires maintenance"
      },
      {
        "repr": "AO2",
        "value": "Automated with precipitation sensor"
      },
      {
        "repr": "P0000",
        "value": "Trace amount of rain in the last hour"
      }
    ],
    "dewpoint_decimal": {
      "repr": "0000",
      "value": 0,
      "spoken": "zero"
    },
    "maximum_temperature_24": null,
    "minimum_temperature_24": null,
    "precip_hourly": null,
    "sea_level_pressure": null,
    "snow_depth": null,
    "temperature_decimal": {
      "repr": "0017",
      "value": 1.7,
      "spoken": "one point seven"
    }
  },
  "runway_visibility": [],
  "temperature": {
    "repr": "02",
    "value": 2,
    "spoken": "two"
  },
  "wind_variable_direction": [],
  "density_altitude": -1568,
  "pressure_altitude": 17,
  "units": {
    "accumulation": "in",
    "altimeter": "inHg",
    "altitude": "ft",
    "temperature": "C",
    "visibility": "sm",
    "wind_speed": "kt"
  }
}
