{
  "meta": {
    "timestamp": "2023-01-14T18:40:52.923991Z",
    "stations_updated": "2022-12-27",
    "cache-timestamp": "2023-01-14T18:40:08.294000Z"
  },
  "altimeter": {
    "repr": "A2954",
    "value": 29.54,
    "spoken": "two nine point five four"
  },
  "clouds": [
    {
      "repr": "FEW030",
      "type": "FEW",
      "altitude": 30,
      "modifier": null
    },
    {
      "repr": "SCT140",
      "type": "SCT",
      "altitude": 140,
      "modifier": null
    },
    {
      "repr": "BKN220",
      "type": "BKN",
      "altitude": 220,
      "modifier": null
    }
  ],
  "flight_rules": "VFR",
  "other": [],
  "visibility": {
    "repr": "10",
    "value": 10,
    "spoken": "one zero"
  },
  "wind_direction": {
    "repr": "090",
    "value": 90,
    "spoken": "zero nine zero"
  },
  "wind_gust": null,
  "wind_speed": {
    "repr": "08",
    "value": 8,
    "spoken": "eight"
  },
  "wx_codes": [],
  "raw": "KNUW 141753Z 09008KT 10SM FEW030 SCT140 BKN220 11/07 A2954 RMK AO2 SLP003 T01060067 10106 20078 58019 VISNO $",
  "sanitized": "KNUW 141753Z 09008KT 10SM FEW030 SCT140 BKN220 11/07 A2954 RMK AO2 SLP003 T01060067 10106 20078 58019 VISNO $",
  "station": "KNUW",
  "time": {
    "repr": "141753Z",
    "dt": "2023-01-14T17:53:00Z"
  },
  "remarks": "RMK AO2 SLP003 T01060067 10106 20078 58019 VISNO $",
  "dewpoint": {
    "repr": "07",
    "value": 7,
    "spoken": "seven"
  },
  "relative_humidity": 0.7680182474943936,
  "remarks_info": {
    "maximum_temperature_6": {
      "repr": "10106",
      "value": 10.6,
      "spoken": "one zero point six"
    },
    "minimum_temperature_6": {
      "repr": "20078",
      "value": 7.8,
      "spoken": "seven point eight"
    },
    "pressure_tendency": {
      "repr": "58019",
      "tendency": "Steady or increasing, then decreasing",
      "change": 1.9
    },
    "precip_36_hours": null,
    "precip_24_hours": null,
    "sunshine_minutes": null,
    "codes": [
      {
        "repr": "$",
        "value": "ASOS requires maintenance"
      },
      {
        "repr": "AO2",
        "value": "Automated with precipitation sensor"
      }
    ],
    "dewpoint_decimal": {
      "repr": "0067",
      "value": 6.7,
      "spoken": "six point seven"
    },
    "maximum_temperature_24": null,
    "minimum_temperature_24": null,
    "precip_hourly": null,
    "sea_level_pressure": {
      "repr": "SLP003",
      "value": 1000.3,
      "spoken": "one zero zero zero point three"
    },
    "snow_depth": null,
    "temperature_decimal": {
      "repr": "0106",
      "value": 10.6,
      "spoken": "one zero point six"
    }
  },
  "runway_visibility": [],
  "temperature": {
    "repr": "11",
    "value": 11,
    "spoken": "one one"
  },
  "wind_variable_direction": [],
  "density_altitude": -90,
  "pressure_altitude": 427,
  "units": {
    "accumulation": "in",
    "altimeter": "inHg",
    "altitude": "ft",
    "temperature": "C",
    "visibility": "sm",
    "wind_speed": "kt"
  }
}
