{
  "meta": {
    "timestamp": "2022-11-14T08:40:40.181161Z",
    "stations_updated": "2022-09-05"
  },
  "altimeter": {
    "repr": "A3046",
    "value": 30.46,
    "spoken": "three zero point four six"
  },
  "clouds": [
    {
      "repr": "SCT012",
      "type": "SCT",
      "altitude": 12,
      "modifier": null
    },
    {
      "repr": "OVC020",
      "type": "OVC",
      "altitude": 20,
      "modifier": null
    }
  ],
  "flight_rules": "MVFR",
  "other": [],
  "visibility": {
    "repr": "10",
    "value": 10,
    "spoken": "one zero"
  },
  "wind_direction": {
    "repr": "070",
    "value": 70,
    "spoken": "zero seven zero"
  },
  "wind_gust": null,
  "wind_speed": {
    "repr": "03",
    "value": 3,
    "spoken": "three"
  },
  "wx_codes": [],
  "raw": "KNUW 140830Z 07003KT 10SM SCT012 OVC020 05/03 A3046 RMK AO2 T00500033 VISNO $",
  "sanitized": "KNUW 140830Z 07003KT 10SM SCT012 OVC020 05/03 A3046 RMK AO2 T00500033 VISNO $",
  "station": "KNUW",
  "time": {
    "repr": "140830Z",
    "dt": "2022-11-14T08:30:00Z"
  },
  "remarks": "RMK AO2 T00500033 VISNO $",
  "dewpoint": {
    "repr": "03",
    "value": 3,
    "spoken": "three"
  },
  "relative_humidity": 0.8875725932131937,
  "remarks_info": {
    "maximum_temperature_6": null,
    "minimum_temperature_6": null,
    "pressure_tendency": null,
    "precip_36_hours": null,
    "precip_24_hours": null,
    "sunshine_minutes": null,
    "codes": [
      {
        "repr": "$",
        "value": "ASOS requires maintenance"
      },
      {
        "repr": "AO2",
        "value": "Automated with precipitation sensor"
      }
    ],
    "dewpoint_decimal": {
      "repr": "0033",
      "value": 3.3,
      "spoken": "three point three"
    },
    "maximum_temperature_24": null,
    "minimum_temperature_24": null,
    "precip_hourly": null,
    "sea_level_pressure": null,
    "snow_depth": null,
    "temperature_decimal": {
      "repr": "0050",
      "value": 5,
      "spoken": "five point zero"
    }
  },
  "runway_visibility": [],
  "temperature": {
    "repr": "05",
    "value": 5,
    "spoken": "five"
  },
  "wind_variable_direction": [],
  "density_altitude": -1682,
  "pressure_altitude": -493,
  "units": {
    "accumulation": "in",
    "altimeter": "inHg",
    "altitude": "ft",
    "temperature": "C",
    "visibility": "sm",
    "wind_speed": "kt"
  }
}
