{
  "altimeter": {
    "repr": "A2999",
    "spoken": "two nine point nine nine",
    "value": 29.99
  },
  "clouds": [
    {
      "altitude": 55,
      "modifier": null,
      "repr": "FEW055",
      "type": "FEW"
    },
    {
      "altitude": 80,
      "modifier": null,
      "repr": "BKN080",
      "type": "BKN"
    },
    {
      "altitude": 130,
      "modifier": null,
      "repr": "OVC130",
      "type": "OVC"
    }
  ],
  "density_altitude": -408,
  "dewpoint": {
    "repr": "04",
    "spoken": "four",
    "value": 4
  },
  "flight_rules": "VFR",
  "meta": {
    "stations_updated": "2023-10-28",
    "timestamp": "2024-01-27T00:25:45.692133Z"
  },
  "other": [],
  "pressure_altitude": -23,
  "raw": "KNUW 262353Z 12016KT 10SM FEW055 BKN080 OVC130 12/04 A2999 RMK AO2 SLP159 T01170044 10128 20106 56020 $",
  "relative_humidity": 0.6086698131195959,
  "remarks": "RMK AO2 SLP159 T01170044 10128 20106 56020 $",
  "remarks_info": {
    "codes": [
      {
        "repr": "$",
        "value": "ASOS requires maintenance"
      },
      {
        "repr": "AO2",
        "value": "Automated with precipitation sensor"
      }
    ],
    "dewpoint_decimal": {
      "repr": "0044",
      "spoken": "four point four",
      "value": 4.4
    },
    "maximum_temperature_24": null,
    "maximum_temperature_6": {
      "repr": "10128",
      "spoken": "one two point eight",
      "value": 12.8
    },
    "minimum_temperature_24": null,
    "minimum_temperature_6": {
      "repr": "20106",
      "spoken": "one zero point six",
      "value": 10.6
    },
    "precip_24_hours": null,
    "precip_36_hours": null,
    "precip_hourly": null,
    "pressure_tendency": {
      "change": 2,
      "repr": "56020",
      "tendency": "Decreasing, then steady"
    },
    "sea_level_pressure": {
      "repr": "SLP159",
      "spoken": "one zero one five point nine",
      "value": 1015.9
    },
    "snow_depth": null,
    "sunshine_minutes": null,
    "temperature_decimal": {
      "repr": "0117",
      "spoken": "one one point seven",
      "value": 11.7
    }
  },
  "runway_visibility": [],
  "sanitized": "KNUW 262353Z 12016KT 10SM FEW055 BKN080 OVC130 12/04 A2999 RMK AO2 SLP159 T01170044 10128 20106 56020 $",
  "station": "KNUW",
  "temperature": {
    "repr": "12",
    "spoken": "one two",
    "value": 12
  },
  "time": {
    "dt": "2024-01-26T23:53:00Z",
    "repr": "262353Z"
  },
  "units": {
    "accumulation": "in",
    "altimeter": "inHg",
    "altitude": "ft",
    "temperature": "C",
    "visibility": "sm",
    "wind_speed": "kt"
  },
  "visibility": {
    "repr": "10",
    "spoken": "one zero",
    "value": 10
  },
  "wind_direction": {
    "repr": "120",
    "spoken": "one two zero",
    "value": 120
  },
  "wind_gust": null,
  "wind_speed": {
    "repr": "16",
    "spoken": "one six",
    "value": 16
  },
  "wind_variable_direction": [],
  "wx_codes": []
}
