{
  "meta": {
    "timestamp": "2022-12-31T08:28:56.115467Z",
    "stations_updated": "2022-12-27",
    "cache-timestamp": "2022-12-31T08:28:07.839000Z"
  },
  "altimeter": {
    "repr": "A2962",
    "value": 29.62,
    "spoken": "two nine point six two"
  },
  "clouds": [
    {
      "repr": "BKN075",
      "type": "BKN",
      "altitude": 75,
      "modifier": null
    },
    {
      "repr": "OVC090",
      "type": "OVC",
      "altitude": 90,
      "modifier": null
    }
  ],
  "flight_rules": "VFR",
  "other": [],
  "visibility": {
    "repr": "10",
    "value": 10,
    "spoken": "one zero"
  },
  "wind_direction": {
    "repr": "170",
    "value": 170,
    "spoken": "one seven zero"
  },
  "wind_gust": null,
  "wind_speed": {
    "repr": "09",
    "value": 9,
    "spoken": "nine"
  },
  "wx_codes": [],
  "raw": "KNUW 310753Z AUTO 17009KT 10SM BKN075 OVC090 08/05 A2962 RMK AO2 SLP029 T00780050 401110061 VISNO $",
  "sanitized": "KNUW 310753Z 17009KT 10SM BKN075 OVC090 08/05 A2962 RMK AO2 SLP029 T00780050 401110061 VISNO $",
  "station": "KNUW",
  "time": {
    "repr": "310753Z",
    "dt": "2022-12-31T07:53:00Z"
  },
  "remarks": "RMK AO2 SLP029 T00780050 401110061 VISNO $",
  "dewpoint": {
    "repr": "05",
    "value": 5,
    "spoken": "five"
  },
  "relative_humidity": 0.824548883443889,
  "remarks_info": {
    "maximum_temperature_6": null,
    "minimum_temperature_6": null,
    "pressure_tendency": null,
    "precip_36_hours": null,
    "precip_24_hours": null,
    "sunshine_minutes": null,
    "codes": [
      {
        "repr": "$",
        "value": "ASOS requires maintenance"
      },
      {
        "repr": "AO2",
        "value": "Automated with precipitation sensor"
      }
    ],
    "dewpoint_decimal": {
      "repr": "0050",
      "value": 5,
      "spoken": "five point zero"
    },
    "maximum_temperature_24": {
      "repr": "0111",
      "value": 11.1,
      "spoken": "one one point one"
    },
    "minimum_temperature_24": {
      "repr": "0061",
      "value": 6.1,
      "spoken": "six point one"
    },
    "precip_hourly": null,
    "sea_level_pressure": {
      "repr": "SLP029",
      "value": 1002.9,
      "spoken": "one zero zero two point nine"
    },
    "snow_depth": null,
    "temperature_decimal": {
      "repr": "0078",
      "value": 7.8,
      "spoken": "seven point eight"
    }
  },
  "runway_visibility": [],
  "temperature": {
    "repr": "08",
    "value": 8,
    "spoken": "eight"
  },
  "wind_variable_direction": [],
  "density_altitude": -506,
  "pressure_altitude": 347,
  "units": {
    "accumulation": "in",
    "altimeter": "inHg",
    "altitude": "ft",
    "temperature": "C",
    "visibility": "sm",
    "wind_speed": "kt"
  }
}
