{
  "meta": {
    "timestamp": "2023-06-26T00:35:44.431905Z",
    "stations_updated": "2023-06-06"
  },
  "altimeter": {
    "repr": "A3007",
    "value": 30.07,
    "spoken": "three zero point zero seven"
  },
  "clouds": [
    {
      "repr": "FEW050",
      "type": "FEW",
      "altitude": 50,
      "modifier": null
    },
    {
      "repr": "SCT220",
      "type": "SCT",
      "altitude": 220,
      "modifier": null
    }
  ],
  "flight_rules": "VFR",
  "other": [],
  "visibility": {
    "repr": "10",
    "value": 10,
    "spoken": "one zero"
  },
  "wind_direction": {
    "repr": "270",
    "value": 270,
    "spoken": "two seven zero"
  },
  "wind_gust": null,
  "wind_speed": {
    "repr": "06",
    "value": 6,
    "spoken": "six"
  },
  "wx_codes": [],
  "raw": "KNUW 252353Z 27006KT 10SM FEW050 SCT220 14/11 A3007 RMK AO2 SLP187 T01440106 10150 20122 56012 VISNO $",
  "sanitized": "KNUW 252353Z 27006KT 10SM FEW050 SCT220 14/11 A3007 RMK AO2 SLP187 T01440106 10150 20122 56012 VISNO $",
  "station": "KNUW",
  "time": {
    "repr": "252353Z",
    "dt": "2023-06-25T23:53:00Z"
  },
  "remarks": "RMK AO2 SLP187 T01440106 10150 20122 56012 VISNO $",
  "dewpoint": {
    "repr": "11",
    "value": 11,
    "spoken": "one one"
  },
  "relative_humidity": 0.7791936137063171,
  "remarks_info": {
    "maximum_temperature_6": {
      "repr": "10150",
      "value": 15,
      "spoken": "one five point zero"
    },
    "minimum_temperature_6": {
      "repr": "20122",
      "value": 12.2,
      "spoken": "one two point two"
    },
    "pressure_tendency": {
      "repr": "56012",
      "tendency": "Decreasing, then steady",
      "change": 1.2
    },
    "precip_36_hours": null,
    "precip_24_hours": null,
    "sunshine_minutes": null,
    "codes": [
      {
        "repr": "$",
        "value": "ASOS requires maintenance"
      },
      {
        "repr": "AO2",
        "value": "Automated with precipitation sensor"
      }
    ],
    "dewpoint_decimal": {
      "repr": "0106",
      "value": 10.6,
      "spoken": "one zero point six"
    },
    "maximum_temperature_24": null,
    "minimum_temperature_24": null,
    "precip_hourly": null,
    "sea_level_pressure": {
      "repr": "SLP187",
      "value": 1018.7,
      "spoken": "one zero one eight point seven"
    },
    "snow_depth": null,
    "temperature_decimal": {
      "repr": "0144",
      "value": 14.4,
      "spoken": "one four point four"
    }
  },
  "runway_visibility": [],
  "temperature": {
    "repr": "14",
    "value": 14,
    "spoken": "one four"
  },
  "wind_variable_direction": [],
  "density_altitude": -164,
  "pressure_altitude": -103,
  "units": {
    "accumulation": "in",
    "altimeter": "inHg",
    "altitude": "ft",
    "temperature": "C",
    "visibility": "sm",
    "wind_speed": "kt"
  }
}
