{
  "meta": {
    "timestamp": "2023-04-15T19:00:50.719552Z",
    "stations_updated": "2023-03-11",
    "cache-timestamp": "2023-04-15T19:00:05.852000Z"
  },
  "altimeter": {
    "repr": "A3008",
    "value": 30.08,
    "spoken": "three zero point zero eight"
  },
  "clouds": [
    {
      "repr": "BKN060",
      "type": "BKN",
      "altitude": 60,
      "modifier": null
    }
  ],
  "flight_rules": "VFR",
  "other": [],
  "visibility": {
    "repr": "10",
    "value": 10,
    "spoken": "one zero"
  },
  "wind_direction": {
    "repr": "130",
    "value": 130,
    "spoken": "one three zero"
  },
  "wind_gust": null,
  "wind_speed": {
    "repr": "10",
    "value": 10,
    "spoken": "one zero"
  },
  "wx_codes": [
    {
      "repr": "-RA",
      "value": "Light Rain"
    }
  ],
  "raw": "KNUW 151753Z 13010KT 10SM -RA BKN060 11/05 A3008 RMK RAB28 SLP188 P0000 60000 T01060050 10106 20072 51007",
  "sanitized": "KNUW 151753Z 13010KT 10SM -RA BKN060 11/05 A3008 RMK RAB28 SLP188 P0000 60000 T01060050 10106 20072 51007",
  "station": "KNUW",
  "time": {
    "repr": "151753Z",
    "dt": "2023-04-15T17:53:00Z"
  },
  "remarks": "RMK RAB28 SLP188 P0000 60000 T01060050 10106 20072 51007",
  "dewpoint": {
    "repr": "05",
    "value": 5,
    "spoken": "five"
  },
  "relative_humidity": 0.6827776337945851,
  "remarks_info": {
    "maximum_temperature_6": {
      "repr": "10106",
      "value": 10.6,
      "spoken": "one zero point six"
    },
    "minimum_temperature_6": {
      "repr": "20072",
      "value": 7.2,
      "spoken": "seven point two"
    },
    "pressure_tendency": {
      "repr": "51007",
      "tendency": "Increasing, then steady",
      "change": 0.7
    },
    "precip_36_hours": {
      "repr": "60000",
      "value": 0,
      "spoken": "zero"
    },
    "precip_24_hours": null,
    "sunshine_minutes": null,
    "codes": [
      {
        "repr": "P0000",
        "value": "Trace amount of rain in the last hour"
      },
      {
        "repr": "RAB28",
        "value": "Rain began at :28"
      }
    ],
    "dewpoint_decimal": {
      "repr": "0050",
      "value": 5,
      "spoken": "five point zero"
    },
    "maximum_temperature_24": null,
    "minimum_temperature_24": null,
    "precip_hourly": null,
    "sea_level_pressure": {
      "repr": "SLP188",
      "value": 1018.8,
      "spoken": "one zero one eight point eight"
    },
    "snow_depth": null,
    "temperature_decimal": {
      "repr": "0106",
      "value": 10.6,
      "spoken": "one zero point six"
    }
  },
  "runway_visibility": [],
  "temperature": {
    "repr": "11",
    "value": 11,
    "spoken": "one one"
  },
  "wind_variable_direction": [],
  "density_altitude": -630,
  "pressure_altitude": -113,
  "units": {
    "accumulation": "in",
    "altimeter": "inHg",
    "altitude": "ft",
    "temperature": "C",
    "visibility": "sm",
    "wind_speed": "kt"
  }
}
