{
  "altimeter": {
    "repr": "A2961",
    "spoken": "two nine point six one",
    "value": 29.61
  },
  "clouds": [
    {
      "altitude": 26,
      "modifier": null,
      "repr": "SCT026",
      "type": "SCT"
    },
    {
      "altitude": 50,
      "modifier": null,
      "repr": "BKN050",
      "type": "BKN"
    },
    {
      "altitude": 100,
      "modifier": null,
      "repr": "OVC100",
      "type": "OVC"
    }
  ],
  "density_altitude": -628,
  "dewpoint": {
    "repr": "02",
    "spoken": "two",
    "value": 2
  },
  "flight_rules": "VFR",
  "meta": {
    "cache-timestamp": "2024-01-10T03:06:04.927000Z",
    "stations_updated": "2023-10-28",
    "timestamp": "2024-01-10T03:06:26.364831Z"
  },
  "other": [],
  "pressure_altitude": 357,
  "raw": "KNUW 100253Z 26028G41KT 10SM SCT026 BKN050 OVC100 07/02 A2961 RMK AO2 PK WND 24050/0212 SLP032 T00670022 51011 $",
  "relative_humidity": 0.7298179789638187,
  "remarks": "RMK AO2 PK WND 24050/0212 SLP032 T00670022 51011 $",
  "remarks_info": {
    "codes": [
      {
        "repr": "$",
        "value": "ASOS requires maintenance"
      },
      {
        "repr": "AO2",
        "value": "Automated with precipitation sensor"
      }
    ],
    "dewpoint_decimal": {
      "repr": "0022",
      "spoken": "two point two",
      "value": 2.2
    },
    "maximum_temperature_24": null,
    "maximum_temperature_6": null,
    "minimum_temperature_24": null,
    "minimum_temperature_6": null,
    "precip_24_hours": null,
    "precip_36_hours": null,
    "precip_hourly": null,
    "pressure_tendency": {
      "change": 1.1,
      "repr": "51011",
      "tendency": "Increasing, then steady"
    },
    "sea_level_pressure": {
      "repr": "SLP032",
      "spoken": "one zero zero three point two",
      "value": 1003.2
    },
    "snow_depth": null,
    "sunshine_minutes": null,
    "temperature_decimal": {
      "repr": "0067",
      "spoken": "six point seven",
      "value": 6.7
    }
  },
  "runway_visibility": [],
  "sanitized": "KNUW 100253Z 26028G41KT 10SM SCT026 BKN050 OVC100 07/02 A2961 RMK AO2 PK WND 24050/0212 SLP032 T00670022 51011 $",
  "station": "KNUW",
  "temperature": {
    "repr": "07",
    "spoken": "seven",
    "value": 7
  },
  "time": {
    "dt": "2024-01-10T02:53:00Z",
    "repr": "100253Z"
  },
  "units": {
    "accumulation": "in",
    "altimeter": "inHg",
    "altitude": "ft",
    "temperature": "C",
    "visibility": "sm",
    "wind_speed": "kt"
  },
  "visibility": {
    "repr": "10",
    "spoken": "one zero",
    "value": 10
  },
  "wind_direction": {
    "repr": "260",
    "spoken": "two six zero",
    "value": 260
  },
  "wind_gust": {
    "repr": "41",
    "spoken": "four one",
    "value": 41
  },
  "wind_speed": {
    "repr": "28",
    "spoken": "two eight",
    "value": 28
  },
  "wind_variable_direction": [],
  "wx_codes": []
}
