{
  "meta": {
    "timestamp": "2023-10-11T03:23:13.353544Z",
    "stations_updated": "2023-10-01"
  },
  "altimeter": {
    "repr": "A2943",
    "value": 29.43,
    "spoken": "two nine point four three"
  },
  "clouds": [
    {
      "repr": "SCT030",
      "type": "SCT",
      "altitude": 30,
      "modifier": null
    },
    {
      "repr": "BKN060",
      "type": "BKN",
      "altitude": 60,
      "modifier": null
    },
    {
      "repr": "OVC100",
      "type": "OVC",
      "altitude": 100,
      "modifier": null
    }
  ],
  "flight_rules": "MVFR",
  "other": [],
  "visibility": {
    "repr": "5",
    "value": 5,
    "spoken": "five"
  },
  "wind_direction": {
    "repr": "130",
    "value": 130,
    "spoken": "one three zero"
  },
  "wind_gust": null,
  "wind_speed": {
    "repr": "16",
    "value": 16,
    "spoken": "one six"
  },
  "wx_codes": [
    {
      "repr": "-RA",
      "value": "Light Rain"
    }
  ],
  "raw": "KNUW 110253Z 13016KT 5SM -RA SCT030 BKN060 OVC100 13/12 A2943 RMK AO2 PK WND 13028/0202 SLP971 P0013 60020 T01280117 53012",
  "sanitized": "KNUW 110253Z 13016KT 5SM -RA SCT030 BKN060 OVC100 13/12 A2943 RMK AO2 PK WND 13028/0202 SLP971 P0013 60020 T01280117 53012",
  "station": "KNUW",
  "time": {
    "repr": "110253Z",
    "dt": "2023-10-11T02:53:00Z"
  },
  "remarks": "RMK AO2 PK WND 13028/0202 SLP971 P0013 60020 T01280117 53012",
  "dewpoint": {
    "repr": "12",
    "value": 12,
    "spoken": "one two"
  },
  "relative_humidity": 0.9301959082873248,
  "remarks_info": {
    "maximum_temperature_6": null,
    "minimum_temperature_6": null,
    "pressure_tendency": {
      "repr": "53012",
      "tendency": "Decreasing or steady, then increasing",
      "change": 1.2
    },
    "precip_36_hours": {
      "repr": "60020",
      "value": 0.2,
      "spoken": "zero point two"
    },
    "precip_24_hours": null,
    "sunshine_minutes": null,
    "codes": [
      {
        "repr": "AO2",
        "value": "Automated with precipitation sensor"
      }
    ],
    "dewpoint_decimal": {
      "repr": "0117",
      "value": 11.7,
      "spoken": "one one point seven"
    },
    "maximum_temperature_24": null,
    "minimum_temperature_24": null,
    "precip_hourly": {
      "repr": "P0013",
      "value": 0.13,
      "spoken": "zero point one three"
    },
    "sea_level_pressure": {
      "repr": "SLP971",
      "value": 997.1,
      "spoken": "nine nine seven point one"
    },
    "snow_depth": null,
    "temperature_decimal": {
      "repr": "0128",
      "value": 12.8,
      "spoken": "one two point eight"
    }
  },
  "runway_visibility": [],
  "temperature": {
    "repr": "13",
    "value": 13,
    "spoken": "one three"
  },
  "wind_variable_direction": [],
  "density_altitude": 284,
  "pressure_altitude": 537,
  "units": {
    "accumulation": "in",
    "altimeter": "inHg",
    "altitude": "ft",
    "temperature": "C",
    "visibility": "sm",
    "wind_speed": "kt"
  }
}
