{
  "meta": {
    "timestamp": "2022-11-28T05:02:19.880856Z",
    "stations_updated": "2022-09-05"
  },
  "altimeter": {
    "repr": "A2989",
    "value": 29.89,
    "spoken": "two nine point eight nine"
  },
  "clouds": [
    {
      "repr": "FEW021",
      "type": "FEW",
      "altitude": 21,
      "modifier": null
    },
    {
      "repr": "OVC026",
      "type": "OVC",
      "altitude": 26,
      "modifier": null
    }
  ],
  "flight_rules": "MVFR",
  "other": [],
  "visibility": {
    "repr": "8",
    "value": 8,
    "spoken": "eight"
  },
  "wind_direction": {
    "repr": "000",
    "value": 0,
    "spoken": "zero zero zero"
  },
  "wind_gust": null,
  "wind_speed": {
    "repr": "00",
    "value": 0,
    "spoken": "zero"
  },
  "wx_codes": [
    {
      "repr": "-RA",
      "value": "Light Rain"
    }
  ],
  "raw": "KNUW 280453Z 00000KT 8SM -RA FEW021 OVC026 04/02 A2989 RMK AO2 SLP122 P0004 T00390022 VISNO $",
  "sanitized": "KNUW 280453Z 00000KT 8SM -RA FEW021 OVC026 04/02 A2989 RMK AO2 SLP122 P0004 T00390022 VISNO $",
  "station": "KNUW",
  "time": {
    "repr": "280453Z",
    "dt": "2022-11-28T04:53:00Z"
  },
  "remarks": "RMK AO2 SLP122 P0004 T00390022 VISNO $",
  "dewpoint": {
    "repr": "02",
    "value": 2,
    "spoken": "two"
  },
  "relative_humidity": 0.886626408872418,
  "remarks_info": {
    "maximum_temperature_6": null,
    "minimum_temperature_6": null,
    "pressure_tendency": null,
    "precip_36_hours": null,
    "precip_24_hours": null,
    "sunshine_minutes": null,
    "codes": [
      {
        "repr": "$",
        "value": "ASOS requires maintenance"
      },
      {
        "repr": "AO2",
        "value": "Automated with precipitation sensor"
      }
    ],
    "dewpoint_decimal": {
      "repr": "0022",
      "value": 2.2,
      "spoken": "two point two"
    },
    "maximum_temperature_24": null,
    "minimum_temperature_24": null,
    "precip_hourly": {
      "repr": "P0004",
      "value": 0.04,
      "spoken": "zero point zero four"
    },
    "sea_level_pressure": {
      "repr": "SLP122",
      "value": 1012.2,
      "spoken": "one zero one two point two"
    },
    "snow_depth": null,
    "temperature_decimal": {
      "repr": "0039",
      "value": 3.9,
      "spoken": "three point nine"
    }
  },
  "runway_visibility": [],
  "temperature": {
    "repr": "04",
    "value": 4,
    "spoken": "four"
  },
  "wind_variable_direction": [],
  "density_altitude": -1244,
  "pressure_altitude": 77,
  "units": {
    "accumulation": "in",
    "altimeter": "inHg",
    "altitude": "ft",
    "temperature": "C",
    "visibility": "sm",
    "wind_speed": "kt"
  }
}
