{
  "altimeter": {
    "repr": "A3013",
    "spoken": "three zero point one three",
    "value": 30.13
  },
  "clouds": [
    {
      "altitude": 10,
      "modifier": null,
      "repr": "SCT010",
      "type": "SCT"
    },
    {
      "altitude": 16,
      "modifier": null,
      "repr": "OVC016",
      "type": "OVC"
    }
  ],
  "density_altitude": -752,
  "dewpoint": {
    "repr": "07",
    "spoken": "seven",
    "value": 7
  },
  "flight_rules": "MVFR",
  "meta": {
    "cache-timestamp": "2024-01-26T07:20:04.321000Z",
    "stations_updated": "2023-10-28",
    "timestamp": "2024-01-26T07:20:29.856780Z"
  },
  "other": [],
  "pressure_altitude": -163,
  "raw": "KNUW 260653Z 14016KT 9SM MIFG SCT010 OVC016 10/07 A3013 RMK AO2 SLP206 T01000072 $",
  "relative_humidity": 0.8273178222792216,
  "remarks": "RMK AO2 SLP206 T01000072 $",
  "remarks_info": {
    "codes": [
      {
        "repr": "$",
        "value": "ASOS requires maintenance"
      },
      {
        "repr": "AO2",
        "value": "Automated with precipitation sensor"
      }
    ],
    "dewpoint_decimal": {
      "repr": "0072",
      "spoken": "seven point two",
      "value": 7.2
    },
    "maximum_temperature_24": null,
    "maximum_temperature_6": null,
    "minimum_temperature_24": null,
    "minimum_temperature_6": null,
    "precip_24_hours": null,
    "precip_36_hours": null,
    "precip_hourly": null,
    "pressure_tendency": null,
    "sea_level_pressure": {
      "repr": "SLP206",
      "spoken": "one zero two zero point six",
      "value": 1020.6
    },
    "snow_depth": null,
    "sunshine_minutes": null,
    "temperature_decimal": {
      "repr": "0100",
      "spoken": "one zero point zero",
      "value": 10
    }
  },
  "runway_visibility": [],
  "sanitized": "KNUW 260653Z 14016KT 9SM MIFG SCT010 OVC016 10/07 A3013 RMK AO2 SLP206 T01000072 $",
  "station": "KNUW",
  "temperature": {
    "repr": "10",
    "spoken": "one zero",
    "value": 10
  },
  "time": {
    "dt": "2024-01-26T06:53:00Z",
    "repr": "260653Z"
  },
  "units": {
    "accumulation": "in",
    "altimeter": "inHg",
    "altitude": "ft",
    "temperature": "C",
    "visibility": "sm",
    "wind_speed": "kt"
  },
  "visibility": {
    "repr": "9",
    "spoken": "nine",
    "value": 9
  },
  "wind_direction": {
    "repr": "140",
    "spoken": "one four zero",
    "value": 140
  },
  "wind_gust": null,
  "wind_speed": {
    "repr": "16",
    "spoken": "one six",
    "value": 16
  },
  "wind_variable_direction": [],
  "wx_codes": [
    {
      "repr": "MIFG",
      "value": "Shallow Fog"
    }
  ]
}
