{
  "altimeter": {
    "repr": "A3046",
    "spoken": "three zero point four six",
    "value": 30.46
  },
  "clouds": [
    {
      "altitude": 160,
      "modifier": null,
      "repr": "SCT160",
      "type": "SCT"
    },
    {
      "altitude": 220,
      "modifier": null,
      "repr": "BKN220",
      "type": "BKN"
    }
  ],
  "density_altitude": -746,
  "dewpoint": {
    "repr": "08",
    "spoken": "eight",
    "value": 8
  },
  "flight_rules": "VFR",
  "meta": {
    "stations_updated": "2024-06-12",
    "timestamp": "2024-09-30T18:46:42.274765Z"
  },
  "other": [],
  "pressure_altitude": -493,
  "raw": "KNUW 301753Z 31005KT 10SM SCT160 BKN220 13/08 A3046 RMK AO2 SLP319 T01280078 10133 20044 50002 $",
  "relative_humidity": 0.7160438928935235,
  "remarks": "RMK AO2 SLP319 T01280078 10133 20044 50002 $",
  "remarks_info": {
    "codes": [
      {
        "repr": "$",
        "value": "ASOS requires maintenance"
      },
      {
        "repr": "AO2",
        "value": "Automated with precipitation sensor"
      }
    ],
    "dewpoint_decimal": {
      "repr": "0078",
      "spoken": "seven point eight",
      "value": 7.8
    },
    "maximum_temperature_24": null,
    "maximum_temperature_6": {
      "repr": "10133",
      "spoken": "one three point three",
      "value": 13.3
    },
    "minimum_temperature_24": null,
    "minimum_temperature_6": {
      "repr": "20044",
      "spoken": "four point four",
      "value": 4.4
    },
    "precip_24_hours": null,
    "precip_36_hours": null,
    "precip_hourly": null,
    "pressure_tendency": {
      "change": 0.2,
      "repr": "50002",
      "tendency": "Increasing, then decreasing"
    },
    "sea_level_pressure": {
      "repr": "SLP319",
      "spoken": "one zero three one point nine",
      "value": 1031.9
    },
    "snow_depth": null,
    "sunshine_minutes": null,
    "temperature_decimal": {
      "repr": "0128",
      "spoken": "one two point eight",
      "value": 12.8
    }
  },
  "runway_visibility": [],
  "sanitized": "KNUW 301753Z 31005KT 10SM SCT160 BKN220 13/08 A3046 RMK AO2 SLP319 T01280078 10133 20044 50002 $",
  "station": "KNUW",
  "temperature": {
    "repr": "13",
    "spoken": "one three",
    "value": 13
  },
  "time": {
    "dt": "2024-09-30T17:53:00Z",
    "repr": "301753Z"
  },
  "units": {
    "accumulation": "in",
    "altimeter": "inHg",
    "altitude": "ft",
    "temperature": "C",
    "visibility": "sm",
    "wind_speed": "kt"
  },
  "visibility": {
    "repr": "10",
    "spoken": "one zero",
    "value": 10
  },
  "wind_direction": {
    "repr": "310",
    "spoken": "three one zero",
    "value": 310
  },
  "wind_gust": null,
  "wind_speed": {
    "repr": "05",
    "spoken": "five",
    "value": 5
  },
  "wind_variable_direction": [],
  "wx_codes": []
}
