{
  "altimeter": {
    "repr": "A3015",
    "spoken": "three zero point one five",
    "value": 30.15
  },
  "clouds": [
    {
      "altitude": 6,
      "modifier": null,
      "repr": "FEW006",
      "type": "FEW"
    },
    {
      "altitude": 12,
      "modifier": null,
      "repr": "SCT012",
      "type": "SCT"
    },
    {
      "altitude": 34,
      "modifier": null,
      "repr": "BKN034",
      "type": "BKN"
    },
    {
      "altitude": 230,
      "modifier": null,
      "repr": "BKN230",
      "type": "BKN"
    }
  ],
  "density_altitude": -772,
  "dewpoint": {
    "repr": "08",
    "spoken": "eight",
    "value": 8
  },
  "flight_rules": "VFR",
  "meta": {
    "stations_updated": "2024-10-29",
    "timestamp": "2024-11-03T17:40:35.020654Z"
  },
  "other": [],
  "pressure_altitude": -183,
  "raw": "KNUW 031653Z 34005KT 10SM FEW006 SCT012 BKN034 BKN230 10/08 A3015 RMK AO2 SLP215 T01000078 $",
  "relative_humidity": 0.861922973004222,
  "remarks": "RMK AO2 SLP215 T01000078 $",
  "remarks_info": {
    "codes": [
      {
        "repr": "$",
        "value": "ASOS requires maintenance"
      },
      {
        "repr": "AO2",
        "value": "Automated with precipitation sensor"
      }
    ],
    "dewpoint_decimal": {
      "repr": "0078",
      "spoken": "seven point eight",
      "value": 7.8
    },
    "maximum_temperature_24": null,
    "maximum_temperature_6": null,
    "minimum_temperature_24": null,
    "minimum_temperature_6": null,
    "precip_24_hours": null,
    "precip_36_hours": null,
    "precip_hourly": null,
    "pressure_tendency": null,
    "sea_level_pressure": {
      "repr": "SLP215",
      "spoken": "one zero two one point five",
      "value": 1021.5
    },
    "snow_depth": null,
    "sunshine_minutes": null,
    "temperature_decimal": {
      "repr": "0100",
      "spoken": "one zero point zero",
      "value": 10
    }
  },
  "runway_visibility": [],
  "sanitized": "KNUW 031653Z 34005KT 10SM FEW006 SCT012 BKN034 BKN230 10/08 A3015 RMK AO2 SLP215 T01000078 $",
  "station": "KNUW",
  "temperature": {
    "repr": "10",
    "spoken": "one zero",
    "value": 10
  },
  "time": {
    "dt": "2024-11-03T16:53:00Z",
    "repr": "031653Z"
  },
  "units": {
    "accumulation": "in",
    "altimeter": "inHg",
    "altitude": "ft",
    "temperature": "C",
    "visibility": "sm",
    "wind_speed": "kt"
  },
  "visibility": {
    "repr": "10",
    "spoken": "one zero",
    "value": 10
  },
  "wind_direction": {
    "repr": "340",
    "spoken": "three four zero",
    "value": 340
  },
  "wind_gust": null,
  "wind_speed": {
    "repr": "05",
    "spoken": "five",
    "value": 5
  },
  "wind_variable_direction": [],
  "wx_codes": []
}
