{
  "meta": {
    "timestamp": "2023-03-01T13:42:42.244549Z",
    "stations_updated": "2023-01-30",
    "cache-timestamp": "2023-03-01T13:42:06.079000Z"
  },
  "altimeter": {
    "repr": "A2998",
    "value": 29.98,
    "spoken": "two nine point nine eight"
  },
  "clouds": [
    {
      "repr": "BKN027",
      "type": "BKN",
      "altitude": 27,
      "modifier": null
    },
    {
      "repr": "BKN030",
      "type": "BKN",
      "altitude": 30,
      "modifier": null
    },
    {
      "repr": "BKN220",
      "type": "BKN",
      "altitude": 220,
      "modifier": null
    }
  ],
  "flight_rules": "MVFR",
  "other": [],
  "visibility": {
    "repr": "10",
    "value": 10,
    "spoken": "one zero"
  },
  "wind_direction": {
    "repr": "140",
    "value": 140,
    "spoken": "one four zero"
  },
  "wind_gust": null,
  "wind_speed": {
    "repr": "06",
    "value": 6,
    "spoken": "six"
  },
  "wx_codes": [],
  "raw": "KNUW 011253Z 14006KT 10SM BKN027 BKN030 BKN220 01/00 A2998 RMK SLP156 T00060000",
  "sanitized": "KNUW 011253Z 14006KT 10SM BKN027 BKN030 BKN220 01/00 A2998 RMK SLP156 T00060000",
  "station": "KNUW",
  "time": {
    "repr": "011253Z",
    "dt": "2023-03-01T12:53:00Z"
  },
  "remarks": "RMK SLP156 T00060000",
  "dewpoint": {
    "repr": "00",
    "value": 0,
    "spoken": "zero"
  },
  "relative_humidity": 0.9574966857850682,
  "remarks_info": {
    "maximum_temperature_6": null,
    "minimum_temperature_6": null,
    "pressure_tendency": null,
    "precip_36_hours": null,
    "precip_24_hours": null,
    "sunshine_minutes": null,
    "codes": [],
    "dewpoint_decimal": {
      "repr": "0000",
      "value": 0,
      "spoken": "zero"
    },
    "maximum_temperature_24": null,
    "minimum_temperature_24": null,
    "precip_hourly": null,
    "sea_level_pressure": {
      "repr": "SLP156",
      "value": 1015.6,
      "spoken": "one zero one five point six"
    },
    "snow_depth": null,
    "temperature_decimal": {
      "repr": "0006",
      "value": 0.6,
      "spoken": "zero point six"
    }
  },
  "runway_visibility": [],
  "temperature": {
    "repr": "01",
    "value": 1,
    "spoken": "one"
  },
  "wind_variable_direction": [],
  "density_altitude": -1730,
  "pressure_altitude": -13,
  "units": {
    "accumulation": "in",
    "altimeter": "inHg",
    "altitude": "ft",
    "temperature": "C",
    "visibility": "sm",
    "wind_speed": "kt"
  }
}
