{
  "meta": {
    "timestamp": "2023-02-19T00:29:44.968265Z",
    "stations_updated": "2023-01-30"
  },
  "altimeter": {
    "repr": "A3018",
    "value": 30.18,
    "spoken": "three zero point one eight"
  },
  "clouds": [
    {
      "repr": "FEW010",
      "type": "FEW",
      "altitude": 10,
      "modifier": null
    },
    {
      "repr": "SCT048",
      "type": "SCT",
      "altitude": 48,
      "modifier": null
    },
    {
      "repr": "BKN065",
      "type": "BKN",
      "altitude": 65,
      "modifier": null
    },
    {
      "repr": "BKN150",
      "type": "BKN",
      "altitude": 150,
      "modifier": null
    }
  ],
  "flight_rules": "VFR",
  "other": [],
  "visibility": {
    "repr": "10",
    "value": 10,
    "spoken": "one zero"
  },
  "wind_direction": {
    "repr": "320",
    "value": 320,
    "spoken": "three two zero"
  },
  "wind_gust": null,
  "wind_speed": {
    "repr": "05",
    "value": 5,
    "spoken": "five"
  },
  "wx_codes": [],
  "raw": "KNUW 182353Z 32005KT 10SM FEW010 SCT048 BKN065 BKN150 07/05 A3018 RMK SLP218 60003 T00720050 10078 20067 51014",
  "sanitized": "KNUW 182353Z 32005KT 10SM FEW010 SCT048 BKN065 BKN150 07/05 A3018 RMK SLP218 60003 T00720050 10078 20067 51014",
  "station": "KNUW",
  "time": {
    "repr": "182353Z",
    "dt": "2023-02-18T23:53:00Z"
  },
  "remarks": "RMK SLP218 60003 T00720050 10078 20067 51014",
  "dewpoint": {
    "repr": "05",
    "value": 5,
    "spoken": "five"
  },
  "relative_humidity": 0.8590382146577359,
  "remarks_info": {
    "maximum_temperature_6": {
      "repr": "10078",
      "value": 7.8,
      "spoken": "seven point eight"
    },
    "minimum_temperature_6": {
      "repr": "20067",
      "value": 6.7,
      "spoken": "six point seven"
    },
    "pressure_tendency": {
      "repr": "51014",
      "tendency": "Increasing, then steady",
      "change": 1.4
    },
    "precip_36_hours": {
      "repr": "60003",
      "value": 0.03,
      "spoken": "zero point zero three"
    },
    "precip_24_hours": null,
    "sunshine_minutes": null,
    "codes": [],
    "dewpoint_decimal": {
      "repr": "0050",
      "value": 5,
      "spoken": "five point zero"
    },
    "maximum_temperature_24": null,
    "minimum_temperature_24": null,
    "precip_hourly": null,
    "sea_level_pressure": {
      "repr": "SLP218",
      "value": 1021.8,
      "spoken": "one zero two one point eight"
    },
    "snow_depth": null,
    "temperature_decimal": {
      "repr": "0072",
      "value": 7.2,
      "spoken": "seven point two"
    }
  },
  "runway_visibility": [],
  "temperature": {
    "repr": "07",
    "value": 7,
    "spoken": "seven"
  },
  "wind_variable_direction": [],
  "density_altitude": -1138,
  "pressure_altitude": -213,
  "units": {
    "accumulation": "in",
    "altimeter": "inHg",
    "altitude": "ft",
    "temperature": "C",
    "visibility": "sm",
    "wind_speed": "kt"
  }
}
