{
  "altimeter": {
    "repr": "A3005",
    "spoken": "three zero point zero five",
    "value": 30.05
  },
  "clouds": [
    {
      "altitude": 40,
      "modifier": null,
      "repr": "SCT040",
      "type": "SCT"
    },
    {
      "altitude": 65,
      "modifier": null,
      "repr": "SCT065",
      "type": "SCT"
    },
    {
      "altitude": 120,
      "modifier": null,
      "repr": "BKN120",
      "type": "BKN"
    },
    {
      "altitude": 200,
      "modifier": null,
      "repr": "BKN200",
      "type": "BKN"
    }
  ],
  "density_altitude": -408,
  "dewpoint": {
    "repr": "05",
    "spoken": "five",
    "value": 5
  },
  "flight_rules": "VFR",
  "meta": {
    "cache-timestamp": "2024-01-26T21:22:02.771000Z",
    "stations_updated": "2023-10-28",
    "timestamp": "2024-01-26T21:22:29.287959Z"
  },
  "other": [],
  "pressure_altitude": -83,
  "raw": "KNUW 262053Z 13012G20KT 10SM SCT040 SCT065 BKN120 BKN200 12/05 A3005 RMK AO2 SLP179 T01220050 58014 $",
  "relative_humidity": 0.6141348708764632,
  "remarks": "RMK AO2 SLP179 T01220050 58014 $",
  "remarks_info": {
    "codes": [
      {
        "repr": "$",
        "value": "ASOS requires maintenance"
      },
      {
        "repr": "AO2",
        "value": "Automated with precipitation sensor"
      }
    ],
    "dewpoint_decimal": {
      "repr": "0050",
      "spoken": "five point zero",
      "value": 5
    },
    "maximum_temperature_24": null,
    "maximum_temperature_6": null,
    "minimum_temperature_24": null,
    "minimum_temperature_6": null,
    "precip_24_hours": null,
    "precip_36_hours": null,
    "precip_hourly": null,
    "pressure_tendency": {
      "change": 1.4,
      "repr": "58014",
      "tendency": "Steady or increasing, then decreasing"
    },
    "sea_level_pressure": {
      "repr": "SLP179",
      "spoken": "one zero one seven point nine",
      "value": 1017.9
    },
    "snow_depth": null,
    "sunshine_minutes": null,
    "temperature_decimal": {
      "repr": "0122",
      "spoken": "one two point two",
      "value": 12.2
    }
  },
  "runway_visibility": [],
  "sanitized": "KNUW 262053Z 13012G20KT 10SM SCT040 SCT065 BKN120 BKN200 12/05 A3005 RMK AO2 SLP179 T01220050 58014 $",
  "station": "KNUW",
  "temperature": {
    "repr": "12",
    "spoken": "one two",
    "value": 12
  },
  "time": {
    "dt": "2024-01-26T20:53:00Z",
    "repr": "262053Z"
  },
  "units": {
    "accumulation": "in",
    "altimeter": "inHg",
    "altitude": "ft",
    "temperature": "C",
    "visibility": "sm",
    "wind_speed": "kt"
  },
  "visibility": {
    "repr": "10",
    "spoken": "one zero",
    "value": 10
  },
  "wind_direction": {
    "repr": "130",
    "spoken": "one three zero",
    "value": 130
  },
  "wind_gust": {
    "repr": "20",
    "spoken": "two zero",
    "value": 20
  },
  "wind_speed": {
    "repr": "12",
    "spoken": "one two",
    "value": 12
  },
  "wind_variable_direction": [],
  "wx_codes": []
}
