{
  "meta": {
    "timestamp": "2023-07-25T04:04:38.931285Z",
    "stations_updated": "2023-06-06",
    "cache-timestamp": "2023-07-25T04:04:03.030000Z"
  },
  "altimeter": {
    "repr": "A3004",
    "value": 30.04,
    "spoken": "three zero point zero four"
  },
  "clouds": [
    {
      "repr": "SCT008",
      "type": "SCT",
      "altitude": 8,
      "modifier": null
    },
    {
      "repr": "BKN028",
      "type": "BKN",
      "altitude": 28,
      "modifier": null
    },
    {
      "repr": "BKN075",
      "type": "BKN",
      "altitude": 75,
      "modifier": null
    },
    {
      "repr": "BKN200",
      "type": "BKN",
      "altitude": 200,
      "modifier": null
    }
  ],
  "flight_rules": "MVFR",
  "other": [],
  "visibility": {
    "repr": "10",
    "value": 10,
    "spoken": "one zero"
  },
  "wind_direction": {
    "repr": "000",
    "value": 0,
    "spoken": "zero zero zero"
  },
  "wind_gust": null,
  "wind_speed": {
    "repr": "00",
    "value": 0,
    "spoken": "zero"
  },
  "wx_codes": [],
  "raw": "KNUW 250353Z 00000KT 10SM SCT008 BKN028 BKN075 BKN200 14/14 A3004 RMK AO2 RAE13 SLP175 P0018 T01390139 VISNO $",
  "sanitized": "KNUW 250353Z 00000KT 10SM SCT008 BKN028 BKN075 BKN200 14/14 A3004 RMK AO2 RAE13 SLP175 P0018 T01390139 VISNO $",
  "station": "KNUW",
  "time": {
    "repr": "250353Z",
    "dt": "2023-07-25T03:53:00Z"
  },
  "remarks": "RMK AO2 RAE13 SLP175 P0018 T01390139 VISNO $",
  "dewpoint": {
    "repr": "14",
    "value": 14,
    "spoken": "one four"
  },
  "relative_humidity": 1,
  "remarks_info": {
    "maximum_temperature_6": null,
    "minimum_temperature_6": null,
    "pressure_tendency": null,
    "precip_36_hours": null,
    "precip_24_hours": null,
    "sunshine_minutes": null,
    "codes": [
      {
        "repr": "$",
        "value": "ASOS requires maintenance"
      },
      {
        "repr": "AO2",
        "value": "Automated with precipitation sensor"
      },
      {
        "repr": "RAE13",
        "value": "Rain ended at :13"
      }
    ],
    "dewpoint_decimal": {
      "repr": "0139",
      "value": 13.9,
      "spoken": "one three point nine"
    },
    "maximum_temperature_24": null,
    "minimum_temperature_24": null,
    "precip_hourly": {
      "repr": "P0018",
      "value": 0.18,
      "spoken": "zero point one eight"
    },
    "sea_level_pressure": {
      "repr": "SLP175",
      "value": 1017.5,
      "spoken": "one zero one seven point five"
    },
    "snow_depth": null,
    "temperature_decimal": {
      "repr": "0139",
      "value": 13.9,
      "spoken": "one three point nine"
    }
  },
  "runway_visibility": [],
  "temperature": {
    "repr": "14",
    "value": 14,
    "spoken": "one four"
  },
  "wind_variable_direction": [],
  "density_altitude": -194,
  "pressure_altitude": -73,
  "units": {
    "accumulation": "in",
    "altimeter": "inHg",
    "altitude": "ft",
    "temperature": "C",
    "visibility": "sm",
    "wind_speed": "kt"
  }
}
