{
  "meta": {
    "timestamp": "2023-10-13T10:40:33.388277Z",
    "stations_updated": "2023-10-01",
    "cache-timestamp": "2023-10-13T10:40:04.767000Z"
  },
  "altimeter": {
    "repr": "A2986",
    "value": 29.86,
    "spoken": "two nine point eight six"
  },
  "clouds": [
    {
      "repr": "FEW010",
      "type": "FEW",
      "altitude": 10,
      "modifier": null
    },
    {
      "repr": "FEW150",
      "type": "FEW",
      "altitude": 150,
      "modifier": null
    },
    {
      "repr": "SCT220",
      "type": "SCT",
      "altitude": 220,
      "modifier": null
    }
  ],
  "flight_rules": "VFR",
  "other": [],
  "visibility": {
    "repr": "6",
    "value": 6,
    "spoken": "six"
  },
  "wind_direction": {
    "repr": "100",
    "value": 100,
    "spoken": "one zero zero"
  },
  "wind_gust": null,
  "wind_speed": {
    "repr": "04",
    "value": 4,
    "spoken": "four"
  },
  "wx_codes": [
    {
      "repr": "BR",
      "value": "Mist"
    }
  ],
  "raw": "KNUW 130953Z 10004KT 6SM BR FEW010 FEW150 SCT220 09/09 A2986 RMK AO2 SLP116 T00890089 $",
  "sanitized": "KNUW 130953Z 10004KT 6SM BR FEW010 FEW150 SCT220 09/09 A2986 RMK AO2 SLP116 T00890089 $",
  "station": "KNUW",
  "time": {
    "repr": "130953Z",
    "dt": "2023-10-13T09:53:00Z"
  },
  "remarks": "RMK AO2 SLP116 T00890089 $",
  "dewpoint": {
    "repr": "09",
    "value": 9,
    "spoken": "nine"
  },
  "relative_humidity": 1,
  "remarks_info": {
    "maximum_temperature_6": null,
    "minimum_temperature_6": null,
    "pressure_tendency": null,
    "precip_36_hours": null,
    "precip_24_hours": null,
    "sunshine_minutes": null,
    "codes": [
      {
        "repr": "$",
        "value": "ASOS requires maintenance"
      },
      {
        "repr": "AO2",
        "value": "Automated with precipitation sensor"
      }
    ],
    "dewpoint_decimal": {
      "repr": "0089",
      "value": 8.9,
      "spoken": "eight point nine"
    },
    "maximum_temperature_24": null,
    "minimum_temperature_24": null,
    "precip_hourly": null,
    "sea_level_pressure": {
      "repr": "SLP116",
      "value": 1011.6,
      "spoken": "one zero one one point six"
    },
    "snow_depth": null,
    "temperature_decimal": {
      "repr": "0089",
      "value": 8.9,
      "spoken": "eight point nine"
    }
  },
  "runway_visibility": [],
  "temperature": {
    "repr": "09",
    "value": 9,
    "spoken": "nine"
  },
  "wind_variable_direction": [],
  "density_altitude": -614,
  "pressure_altitude": 107,
  "units": {
    "accumulation": "in",
    "altimeter": "inHg",
    "altitude": "ft",
    "temperature": "C",
    "visibility": "sm",
    "wind_speed": "kt"
  }
}
