{
  "altimeter": {
    "repr": "A3014",
    "spoken": "three zero point one four",
    "value": 30.14
  },
  "clouds": [
    {
      "altitude": 40,
      "modifier": null,
      "repr": "FEW040",
      "type": "FEW"
    },
    {
      "altitude": 70,
      "modifier": null,
      "repr": "BKN070",
      "type": "BKN"
    },
    {
      "altitude": 150,
      "modifier": null,
      "repr": "BKN150",
      "type": "BKN"
    }
  ],
  "density_altitude": -90,
  "dewpoint": {
    "repr": "08",
    "spoken": "eight",
    "value": 8
  },
  "flight_rules": "VFR",
  "meta": {
    "stations_updated": "2024-06-12",
    "timestamp": "2024-10-10T02:04:36.224459Z"
  },
  "other": [],
  "pressure_altitude": -173,
  "raw": "KNUW 100053Z 17004KT 10SM FEW040 BKN070 BKN150 16/08 A3014 RMK AO2 SLP211 T01560083 $",
  "relative_humidity": 0.6178977345097963,
  "remarks": "RMK AO2 SLP211 T01560083 $",
  "remarks_info": {
    "codes": [
      {
        "repr": "$",
        "value": "ASOS requires maintenance"
      },
      {
        "repr": "AO2",
        "value": "Automated with precipitation sensor"
      }
    ],
    "dewpoint_decimal": {
      "repr": "0083",
      "spoken": "eight point three",
      "value": 8.3
    },
    "maximum_temperature_24": null,
    "maximum_temperature_6": null,
    "minimum_temperature_24": null,
    "minimum_temperature_6": null,
    "precip_24_hours": null,
    "precip_36_hours": null,
    "precip_hourly": null,
    "pressure_tendency": null,
    "sea_level_pressure": {
      "repr": "SLP211",
      "spoken": "one zero two one point one",
      "value": 1021.1
    },
    "snow_depth": null,
    "sunshine_minutes": null,
    "temperature_decimal": {
      "repr": "0156",
      "spoken": "one five point six",
      "value": 15.6
    }
  },
  "runway_visibility": [],
  "sanitized": "KNUW 100053Z 17004KT 10SM FEW040 BKN070 BKN150 16/08 A3014 RMK AO2 SLP211 T01560083 $",
  "station": "KNUW",
  "temperature": {
    "repr": "16",
    "spoken": "one six",
    "value": 16
  },
  "time": {
    "dt": "2024-10-10T00:53:00Z",
    "repr": "100053Z"
  },
  "units": {
    "accumulation": "in",
    "altimeter": "inHg",
    "altitude": "ft",
    "temperature": "C",
    "visibility": "sm",
    "wind_speed": "kt"
  },
  "visibility": {
    "repr": "10",
    "spoken": "one zero",
    "value": 10
  },
  "wind_direction": {
    "repr": "170",
    "spoken": "one seven zero",
    "value": 170
  },
  "wind_gust": null,
  "wind_speed": {
    "repr": "04",
    "spoken": "four",
    "value": 4
  },
  "wind_variable_direction": [],
  "wx_codes": []
}
