{
  "altimeter": {
    "repr": "A3026",
    "spoken": "three zero point two six",
    "value": 30.26
  },
  "clouds": [
    {
      "altitude": 8,
      "modifier": null,
      "repr": "SCT008",
      "type": "SCT"
    },
    {
      "altitude": 21,
      "modifier": null,
      "repr": "BKN021",
      "type": "BKN"
    },
    {
      "altitude": 200,
      "modifier": null,
      "repr": "BKN200",
      "type": "BKN"
    }
  ],
  "density_altitude": -1554,
  "dewpoint": {
    "repr": "04",
    "spoken": "four",
    "value": 4
  },
  "flight_rules": "MVFR",
  "meta": {
    "cache-timestamp": "2023-12-12T17:40:03.138000Z",
    "stations_updated": "2023-10-28",
    "timestamp": "2023-12-12T17:40:35.005233Z"
  },
  "other": [],
  "pressure_altitude": -293,
  "raw": "KNUW 121707Z 00000KT 10SM SCT008 BKN021 BKN200 04/04 A3026 RMK AO2 T00440039 $",
  "relative_humidity": 0.9655305329530535,
  "remarks": "RMK AO2 T00440039 $",
  "remarks_info": {
    "codes": [
      {
        "repr": "$",
        "value": "ASOS requires maintenance"
      },
      {
        "repr": "AO2",
        "value": "Automated with precipitation sensor"
      }
    ],
    "dewpoint_decimal": {
      "repr": "0039",
      "spoken": "three point nine",
      "value": 3.9
    },
    "maximum_temperature_24": null,
    "maximum_temperature_6": null,
    "minimum_temperature_24": null,
    "minimum_temperature_6": null,
    "precip_24_hours": null,
    "precip_36_hours": null,
    "precip_hourly": null,
    "pressure_tendency": null,
    "sea_level_pressure": null,
    "snow_depth": null,
    "sunshine_minutes": null,
    "temperature_decimal": {
      "repr": "0044",
      "spoken": "four point four",
      "value": 4.4
    }
  },
  "runway_visibility": [],
  "sanitized": "KNUW 121707Z 00000KT 10SM SCT008 BKN021 BKN200 04/04 A3026 RMK AO2 T00440039 $",
  "station": "KNUW",
  "temperature": {
    "repr": "04",
    "spoken": "four",
    "value": 4
  },
  "time": {
    "dt": "2023-12-12T17:07:00Z",
    "repr": "121707Z"
  },
  "units": {
    "accumulation": "in",
    "altimeter": "inHg",
    "altitude": "ft",
    "temperature": "C",
    "visibility": "sm",
    "wind_speed": "kt"
  },
  "visibility": {
    "repr": "10",
    "spoken": "one zero",
    "value": 10
  },
  "wind_direction": {
    "repr": "000",
    "spoken": "zero zero zero",
    "value": 0
  },
  "wind_gust": null,
  "wind_speed": {
    "repr": "00",
    "spoken": "zero",
    "value": 0
  },
  "wind_variable_direction": [],
  "wx_codes": []
}
