{
  "meta": {
    "timestamp": "2022-08-26T22:44:41.147755Z",
    "stations_updated": "2022-07-17"
  },
  "altimeter": {
    "repr": "A3003",
    "value": 30.03,
    "spoken": "three zero point zero three"
  },
  "clouds": [
    {
      "repr": "SCT025",
      "type": "SCT",
      "altitude": 25,
      "modifier": null
    },
    {
      "repr": "BKN035",
      "type": "BKN",
      "altitude": 35,
      "modifier": null
    },
    {
      "repr": "BKN250",
      "type": "BKN",
      "altitude": 250,
      "modifier": null
    }
  ],
  "flight_rules": "VFR",
  "other": [],
  "visibility": {
    "repr": "10",
    "value": 10,
    "spoken": "one zero"
  },
  "wind_direction": {
    "repr": "180",
    "value": 180,
    "spoken": "one eight zero"
  },
  "wind_gust": null,
  "wind_speed": {
    "repr": "10",
    "value": 10,
    "spoken": "one zero"
  },
  "wx_codes": [],
  "raw": "KNUW 262153Z 18010KT 10SM SCT025 BKN035 BKN250 21/14 A3003 RMK SLP167 T02060139",
  "sanitized": "KNUW 262153Z 18010KT 10SM SCT025 BKN035 BKN250 21/14 A3003 RMK SLP167 T02060139",
  "station": "KNUW",
  "time": {
    "repr": "262153Z",
    "dt": "2022-08-26T21:53:00Z"
  },
  "remarks": "RMK SLP167 T02060139",
  "dewpoint": {
    "repr": "14",
    "value": 14,
    "spoken": "one four"
  },
  "relative_humidity": 0.654380742342391,
  "remarks_info": {
    "maximum_temperature_6": null,
    "minimum_temperature_6": null,
    "pressure_tendency": null,
    "precip_36_hours": null,
    "precip_24_hours": null,
    "sunshine_minutes": null,
    "codes": [],
    "dewpoint_decimal": {
      "repr": "0139",
      "value": 13.9,
      "spoken": "one three point nine"
    },
    "maximum_temperature_24": null,
    "minimum_temperature_24": null,
    "precip_hourly": null,
    "sea_level_pressure": {
      "repr": "SLP167",
      "value": 1016.7,
      "spoken": "one zero one six point seven"
    },
    "snow_depth": null,
    "temperature_decimal": {
      "repr": "0206",
      "value": 20.6,
      "spoken": "two zero point six"
    }
  },
  "runway_visibility": [],
  "temperature": {
    "repr": "21",
    "value": 21,
    "spoken": "two one"
  },
  "wind_variable_direction": [],
  "density_altitude": 620,
  "pressure_altitude": -63,
  "units": {
    "accumulation": "in",
    "altimeter": "inHg",
    "altitude": "ft",
    "temperature": "C",
    "visibility": "sm",
    "wind_speed": "kt"
  }
}
