{
  "altimeter": {
    "repr": "A2994",
    "spoken": "two nine point nine four",
    "value": 29.94
  },
  "clouds": [],
  "density_altitude": -562,
  "dewpoint": {
    "repr": "05",
    "spoken": "five",
    "value": 5
  },
  "flight_rules": "VFR",
  "meta": {
    "stations_updated": "2024-12-02",
    "timestamp": "2024-12-25T00:35:42.924921Z"
  },
  "other": [],
  "pressure_altitude": 27,
  "raw": "KNUW 242353Z AUTO 00000KT 10SM CLR 10/05 A2994 RMK AO2 SLP144 T01000050 10117 20089 53016 $",
  "relative_humidity": 0.7106976250052686,
  "remarks": "RMK AO2 SLP144 T01000050 10117 20089 53016 $",
  "remarks_info": {
    "codes": [
      {
        "repr": "$",
        "value": "ASOS requires maintenance"
      },
      {
        "repr": "AO2",
        "value": "Automated with precipitation sensor"
      }
    ],
    "dewpoint_decimal": {
      "repr": "0050",
      "spoken": "five point zero",
      "value": 5
    },
    "maximum_temperature_24": null,
    "maximum_temperature_6": {
      "repr": "10117",
      "spoken": "one one point seven",
      "value": 11.7
    },
    "minimum_temperature_24": null,
    "minimum_temperature_6": {
      "repr": "20089",
      "spoken": "eight point nine",
      "value": 8.9
    },
    "precip_24_hours": null,
    "precip_36_hours": null,
    "precip_hourly": null,
    "pressure_tendency": {
      "change": 1.6,
      "repr": "53016",
      "tendency": "Decreasing or steady, then increasing"
    },
    "sea_level_pressure": {
      "repr": "SLP144",
      "spoken": "one zero one four point four",
      "value": 1014.4
    },
    "snow_depth": null,
    "sunshine_minutes": null,
    "temperature_decimal": {
      "repr": "0100",
      "spoken": "one zero point zero",
      "value": 10
    }
  },
  "runway_visibility": [],
  "sanitized": "KNUW 242353Z 00000KT 10SM 10/05 A2994 RMK AO2 SLP144 T01000050 10117 20089 53016 $",
  "station": "KNUW",
  "temperature": {
    "repr": "10",
    "spoken": "one zero",
    "value": 10
  },
  "time": {
    "dt": "2024-12-24T23:53:00Z",
    "repr": "242353Z"
  },
  "units": {
    "accumulation": "in",
    "altimeter": "inHg",
    "altitude": "ft",
    "temperature": "C",
    "visibility": "sm",
    "wind_speed": "kt"
  },
  "visibility": {
    "repr": "10",
    "spoken": "one zero",
    "value": 10
  },
  "wind_direction": {
    "repr": "000",
    "spoken": "zero zero zero",
    "value": 0
  },
  "wind_gust": null,
  "wind_speed": {
    "repr": "00",
    "spoken": "zero",
    "value": 0
  },
  "wind_variable_direction": [],
  "wx_codes": []
}
