{
  "meta": {
    "timestamp": "2023-06-25T05:40:43.310143Z",
    "stations_updated": "2023-06-06",
    "cache-timestamp": "2023-06-25T05:40:03.699000Z"
  },
  "altimeter": {
    "repr": "A3011",
    "value": 30.11,
    "spoken": "three zero point one one"
  },
  "clouds": [
    {
      "repr": "FEW040",
      "type": "FEW",
      "altitude": 40,
      "modifier": null
    },
    {
      "repr": "FEW100",
      "type": "FEW",
      "altitude": 100,
      "modifier": null
    },
    {
      "repr": "SCT180",
      "type": "SCT",
      "altitude": 180,
      "modifier": null
    }
  ],
  "flight_rules": "VFR",
  "other": [],
  "visibility": {
    "repr": "10",
    "value": 10,
    "spoken": "one zero"
  },
  "wind_direction": {
    "repr": "230",
    "value": 230,
    "spoken": "two three zero"
  },
  "wind_gust": null,
  "wind_speed": {
    "repr": "07",
    "value": 7,
    "spoken": "seven"
  },
  "wx_codes": [],
  "raw": "KNUW 250453Z 23007KT 10SM FEW040 FEW100 SCT180 11/09 A3011 RMK AO2 SLP200 T01110094 VISNO $",
  "sanitized": "KNUW 250453Z 23007KT 10SM FEW040 FEW100 SCT180 11/09 A3011 RMK AO2 SLP200 T01110094 VISNO $",
  "station": "KNUW",
  "time": {
    "repr": "250453Z",
    "dt": "2023-06-25T04:53:00Z"
  },
  "remarks": "RMK AO2 SLP200 T01110094 VISNO $",
  "dewpoint": {
    "repr": "09",
    "value": 9,
    "spoken": "nine"
  },
  "relative_humidity": 0.8926151927981825,
  "remarks_info": {
    "maximum_temperature_6": null,
    "minimum_temperature_6": null,
    "pressure_tendency": null,
    "precip_36_hours": null,
    "precip_24_hours": null,
    "sunshine_minutes": null,
    "codes": [
      {
        "repr": "$",
        "value": "ASOS requires maintenance"
      },
      {
        "repr": "AO2",
        "value": "Automated with precipitation sensor"
      }
    ],
    "dewpoint_decimal": {
      "repr": "0094",
      "value": 9.4,
      "spoken": "nine point four"
    },
    "maximum_temperature_24": null,
    "minimum_temperature_24": null,
    "precip_hourly": null,
    "sea_level_pressure": {
      "repr": "SLP200",
      "value": 1020,
      "spoken": "one zero two zero point zero"
    },
    "snow_depth": null,
    "temperature_decimal": {
      "repr": "0111",
      "value": 11.1,
      "spoken": "one one point one"
    }
  },
  "runway_visibility": [],
  "temperature": {
    "repr": "11",
    "value": 11,
    "spoken": "one one"
  },
  "wind_variable_direction": [],
  "density_altitude": -600,
  "pressure_altitude": -143,
  "units": {
    "accumulation": "in",
    "altimeter": "inHg",
    "altitude": "ft",
    "temperature": "C",
    "visibility": "sm",
    "wind_speed": "kt"
  }
}
