{
  "meta": {
    "timestamp": "2023-02-28T16:52:06.223839Z",
    "stations_updated": "2023-01-30"
  },
  "altimeter": {
    "repr": "A2945",
    "value": 29.45,
    "spoken": "two nine point four five"
  },
  "clouds": [
    {
      "repr": "BKN010",
      "type": "BKN",
      "altitude": 10,
      "modifier": null
    },
    {
      "repr": "OVC013",
      "type": "OVC",
      "altitude": 13,
      "modifier": null
    }
  ],
  "flight_rules": "MVFR",
  "other": [],
  "visibility": {
    "repr": "6",
    "value": 6,
    "spoken": "six"
  },
  "wind_direction": {
    "repr": "290",
    "value": 290,
    "spoken": "two nine zero"
  },
  "wind_gust": null,
  "wind_speed": {
    "repr": "20",
    "value": 20,
    "spoken": "two zero"
  },
  "wx_codes": [
    {
      "repr": "BR",
      "value": "Mist"
    }
  ],
  "raw": "KNUW 281553Z 29020KT 6SM BR BKN010 OVC013 02/01 A2945 RMK PK WND 26027/1511 SLP977 T00210011",
  "sanitized": "KNUW 281553Z 29020KT 6SM BR BKN010 OVC013 02/01 A2945 RMK PK WND 26027/1511 SLP977 T00210011",
  "station": "KNUW",
  "time": {
    "repr": "281553Z",
    "dt": "2023-02-28T15:53:00Z"
  },
  "remarks": "RMK PK WND 26027/1511 SLP977 T00210011",
  "dewpoint": {
    "repr": "01",
    "value": 1,
    "spoken": "one"
  },
  "relative_humidity": 0.9308820496604566,
  "remarks_info": {
    "maximum_temperature_6": null,
    "minimum_temperature_6": null,
    "pressure_tendency": null,
    "precip_36_hours": null,
    "precip_24_hours": null,
    "sunshine_minutes": null,
    "codes": [],
    "dewpoint_decimal": {
      "repr": "0011",
      "value": 1.1,
      "spoken": "one point one"
    },
    "maximum_temperature_24": null,
    "minimum_temperature_24": null,
    "precip_hourly": null,
    "sea_level_pressure": {
      "repr": "SLP977",
      "value": 997.7,
      "spoken": "nine nine seven point seven"
    },
    "snow_depth": null,
    "temperature_decimal": {
      "repr": "0021",
      "value": 2.1,
      "spoken": "two point one"
    }
  },
  "runway_visibility": [],
  "temperature": {
    "repr": "02",
    "value": 2,
    "spoken": "two"
  },
  "wind_variable_direction": [],
  "density_altitude": -1020,
  "pressure_altitude": 517,
  "units": {
    "accumulation": "in",
    "altimeter": "inHg",
    "altitude": "ft",
    "temperature": "C",
    "visibility": "sm",
    "wind_speed": "kt"
  }
}
