{
  "altimeter": {
    "repr": "A3021",
    "spoken": "three zero point two one",
    "value": 30.21
  },
  "clouds": [
    {
      "altitude": 65,
      "modifier": null,
      "repr": "FEW065",
      "type": "FEW"
    },
    {
      "altitude": 230,
      "modifier": null,
      "repr": "BKN230",
      "type": "BKN"
    }
  ],
  "density_altitude": -1036,
  "dewpoint": {
    "repr": "06",
    "spoken": "six",
    "value": 6
  },
  "flight_rules": "VFR",
  "meta": {
    "stations_updated": "2024-06-12",
    "timestamp": "2024-10-18T09:08:10.900614Z"
  },
  "other": [],
  "pressure_altitude": -243,
  "raw": "KNUW 180853Z 08007KT 10SM FEW065 BKN230 08/06 A3021 RMK AO2 SLP235 T00830061 53000 $",
  "relative_humidity": 0.8601818874011486,
  "remarks": "RMK AO2 SLP235 T00830061 53000 $",
  "remarks_info": {
    "codes": [
      {
        "repr": "$",
        "value": "ASOS requires maintenance"
      },
      {
        "repr": "AO2",
        "value": "Automated with precipitation sensor"
      }
    ],
    "dewpoint_decimal": {
      "repr": "0061",
      "spoken": "six point one",
      "value": 6.1
    },
    "maximum_temperature_24": null,
    "maximum_temperature_6": null,
    "minimum_temperature_24": null,
    "minimum_temperature_6": null,
    "precip_24_hours": null,
    "precip_36_hours": null,
    "precip_hourly": null,
    "pressure_tendency": {
      "change": 0,
      "repr": "53000",
      "tendency": "Decreasing or steady, then increasing"
    },
    "sea_level_pressure": {
      "repr": "SLP235",
      "spoken": "one zero two three point five",
      "value": 1023.5
    },
    "snow_depth": null,
    "sunshine_minutes": null,
    "temperature_decimal": {
      "repr": "0083",
      "spoken": "eight point three",
      "value": 8.3
    }
  },
  "runway_visibility": [],
  "sanitized": "KNUW 180853Z 08007KT 10SM FEW065 BKN230 08/06 A3021 RMK AO2 SLP235 T00830061 53000 $",
  "station": "KNUW",
  "temperature": {
    "repr": "08",
    "spoken": "eight",
    "value": 8
  },
  "time": {
    "dt": "2024-10-18T08:53:00Z",
    "repr": "180853Z"
  },
  "units": {
    "accumulation": "in",
    "altimeter": "inHg",
    "altitude": "ft",
    "temperature": "C",
    "visibility": "sm",
    "wind_speed": "kt"
  },
  "visibility": {
    "repr": "10",
    "spoken": "one zero",
    "value": 10
  },
  "wind_direction": {
    "repr": "080",
    "spoken": "zero eight zero",
    "value": 80
  },
  "wind_gust": null,
  "wind_speed": {
    "repr": "07",
    "spoken": "seven",
    "value": 7
  },
  "wind_variable_direction": [],
  "wx_codes": []
}
