{
  "meta": {
    "timestamp": "2022-10-18T21:36:08.194268Z",
    "stations_updated": "2022-09-05"
  },
  "altimeter": {
    "repr": "A3027",
    "value": 30.27,
    "spoken": "three zero point two seven"
  },
  "clouds": [
    {
      "repr": "FEW250",
      "type": "FEW",
      "altitude": 250,
      "modifier": null
    }
  ],
  "flight_rules": "VFR",
  "other": [],
  "visibility": {
    "repr": "6",
    "value": 6,
    "spoken": "six"
  },
  "wind_direction": {
    "repr": "270",
    "value": 270,
    "spoken": "two seven zero"
  },
  "wind_gust": null,
  "wind_speed": {
    "repr": "05",
    "value": 5,
    "spoken": "five"
  },
  "wx_codes": [
    {
      "repr": "HZ",
      "value": "Haze"
    },
    {
      "repr": "FU",
      "value": "Smoke"
    }
  ],
  "raw": "KNUW 182053Z 27005KT 6SM HZ FU FEW250 14/10 A3027 RMK SLP249 T01440100 58005",
  "sanitized": "KNUW 182053Z 27005KT 6SM HZ FU FEW250 14/10 A3027 RMK SLP249 T01440100 58005",
  "station": "KNUW",
  "time": {
    "repr": "182053Z",
    "dt": "2022-10-18T20:53:00Z"
  },
  "remarks": "RMK SLP249 T01440100 58005",
  "dewpoint": {
    "repr": "10",
    "value": 10,
    "spoken": "one zero"
  },
  "relative_humidity": 0.7485827349293692,
  "remarks_info": {
    "maximum_temperature_6": null,
    "minimum_temperature_6": null,
    "pressure_tendency": {
      "repr": "58005",
      "tendency": "Steady or increasing, then decreasing",
      "change": 0.5
    },
    "precip_36_hours": null,
    "precip_24_hours": null,
    "sunshine_minutes": null,
    "codes": [],
    "dewpoint_decimal": {
      "repr": "0100",
      "value": 10,
      "spoken": "one zero point zero"
    },
    "maximum_temperature_24": null,
    "minimum_temperature_24": null,
    "precip_hourly": null,
    "sea_level_pressure": {
      "repr": "SLP249",
      "value": 1024.9,
      "spoken": "one zero two four point nine"
    },
    "snow_depth": null,
    "temperature_decimal": {
      "repr": "0144",
      "value": 14.4,
      "spoken": "one four point four"
    }
  },
  "runway_visibility": [],
  "temperature": {
    "repr": "14",
    "value": 14,
    "spoken": "one four"
  },
  "wind_variable_direction": [],
  "density_altitude": -364,
  "pressure_altitude": -303,
  "units": {
    "accumulation": "in",
    "altimeter": "inHg",
    "altitude": "ft",
    "temperature": "C",
    "visibility": "sm",
    "wind_speed": "kt"
  }
}
