{
  "meta": {
    "timestamp": "2023-01-29T00:32:31.541870Z",
    "stations_updated": "2023-01-16"
  },
  "altimeter": {
    "repr": "A3019",
    "value": 30.19,
    "spoken": "three zero point one nine"
  },
  "clouds": [
    {
      "repr": "FEW030",
      "type": "FEW",
      "altitude": 30,
      "modifier": null
    },
    {
      "repr": "SCT150",
      "type": "SCT",
      "altitude": 150,
      "modifier": null
    },
    {
      "repr": "SCT220",
      "type": "SCT",
      "altitude": 220,
      "modifier": null
    }
  ],
  "flight_rules": "VFR",
  "other": [],
  "visibility": {
    "repr": "10",
    "value": 10,
    "spoken": "one zero"
  },
  "wind_direction": {
    "repr": "010",
    "value": 10,
    "spoken": "zero one zero"
  },
  "wind_gust": {
    "repr": "20",
    "value": 20,
    "spoken": "two zero"
  },
  "wind_speed": {
    "repr": "15",
    "value": 15,
    "spoken": "one five"
  },
  "wx_codes": [],
  "raw": "KNUW 282353Z 01015G20KT 10SM FEW030 SCT150 SCT220 08/M06 A3019 RMK SLP221 T00781056 10100 20061 53004",
  "sanitized": "KNUW 282353Z 01015G20KT 10SM FEW030 SCT150 SCT220 08/M06 A3019 RMK SLP221 T00781056 10100 20061 53004",
  "station": "KNUW",
  "time": {
    "repr": "282353Z",
    "dt": "2023-01-28T23:53:00Z"
  },
  "remarks": "RMK SLP221 T00781056 10100 20061 53004",
  "dewpoint": {
    "repr": "M06",
    "value": -6,
    "spoken": "minus six"
  },
  "relative_humidity": 0.38121509105102885,
  "remarks_info": {
    "maximum_temperature_6": {
      "repr": "10100",
      "value": 10,
      "spoken": "one zero point zero"
    },
    "minimum_temperature_6": {
      "repr": "20061",
      "value": 6.1,
      "spoken": "six point one"
    },
    "pressure_tendency": {
      "repr": "53004",
      "tendency": "Decreasing or steady, then increasing",
      "change": 0.4
    },
    "precip_36_hours": null,
    "precip_24_hours": null,
    "sunshine_minutes": null,
    "codes": [],
    "dewpoint_decimal": {
      "repr": "1056",
      "value": -5.6,
      "spoken": "minus five point six"
    },
    "maximum_temperature_24": null,
    "minimum_temperature_24": null,
    "precip_hourly": null,
    "sea_level_pressure": {
      "repr": "SLP221",
      "value": 1022.1,
      "spoken": "one zero two two point one"
    },
    "snow_depth": null,
    "temperature_decimal": {
      "repr": "0078",
      "value": 7.8,
      "spoken": "seven point eight"
    }
  },
  "runway_visibility": [],
  "temperature": {
    "repr": "08",
    "value": 8,
    "spoken": "eight"
  },
  "wind_variable_direction": [],
  "density_altitude": -1076,
  "pressure_altitude": -223,
  "units": {
    "accumulation": "in",
    "altimeter": "inHg",
    "altitude": "ft",
    "temperature": "C",
    "visibility": "sm",
    "wind_speed": "kt"
  }
}
