{
  "meta": {
    "timestamp": "2023-02-03T20:02:54.921954Z",
    "stations_updated": "2023-01-30"
  },
  "altimeter": {
    "repr": "A2986",
    "value": 29.86,
    "spoken": "two nine point eight six"
  },
  "clouds": [
    {
      "repr": "FEW030",
      "type": "FEW",
      "altitude": 30,
      "modifier": null
    },
    {
      "repr": "SCT120",
      "type": "SCT",
      "altitude": 120,
      "modifier": null
    },
    {
      "repr": "OVC150",
      "type": "OVC",
      "altitude": 150,
      "modifier": null
    }
  ],
  "flight_rules": "VFR",
  "other": [],
  "visibility": {
    "repr": "10",
    "value": 10,
    "spoken": "one zero"
  },
  "wind_direction": {
    "repr": "170",
    "value": 170,
    "spoken": "one seven zero"
  },
  "wind_gust": null,
  "wind_speed": {
    "repr": "11",
    "value": 11,
    "spoken": "one one"
  },
  "wx_codes": [],
  "raw": "KNUW 031853Z 17011KT 10SM FEW030 SCT120 OVC150 08/02 A2986 RMK SLP109 T00780017",
  "sanitized": "KNUW 031853Z 17011KT 10SM FEW030 SCT120 OVC150 08/02 A2986 RMK SLP109 T00780017",
  "station": "KNUW",
  "time": {
    "repr": "031853Z",
    "dt": "2023-02-03T18:53:00Z"
  },
  "remarks": "RMK SLP109 T00780017",
  "dewpoint": {
    "repr": "02",
    "value": 2,
    "spoken": "two"
  },
  "relative_humidity": 0.6531529877193706,
  "remarks_info": {
    "maximum_temperature_6": null,
    "minimum_temperature_6": null,
    "pressure_tendency": null,
    "precip_36_hours": null,
    "precip_24_hours": null,
    "sunshine_minutes": null,
    "codes": [],
    "dewpoint_decimal": {
      "repr": "0017",
      "value": 1.7,
      "spoken": "one point seven"
    },
    "maximum_temperature_24": null,
    "minimum_temperature_24": null,
    "precip_hourly": null,
    "sea_level_pressure": {
      "repr": "SLP109",
      "value": 1010.9,
      "spoken": "one zero one zero point nine"
    },
    "snow_depth": null,
    "temperature_decimal": {
      "repr": "0078",
      "value": 7.8,
      "spoken": "seven point eight"
    }
  },
  "runway_visibility": [],
  "temperature": {
    "repr": "08",
    "value": 8,
    "spoken": "eight"
  },
  "wind_variable_direction": [],
  "density_altitude": -746,
  "pressure_altitude": 107,
  "units": {
    "accumulation": "in",
    "altimeter": "inHg",
    "altitude": "ft",
    "temperature": "C",
    "visibility": "sm",
    "wind_speed": "kt"
  }
}
