{
  "altimeter": {
    "repr": "A2976",
    "spoken": "two nine point seven six",
    "value": 29.76
  },
  "clouds": [
    {
      "altitude": 14,
      "modifier": null,
      "repr": "FEW014",
      "type": "FEW"
    },
    {
      "altitude": 21,
      "modifier": null,
      "repr": "BKN021",
      "type": "BKN"
    },
    {
      "altitude": 32,
      "modifier": null,
      "repr": "OVC032",
      "type": "OVC"
    }
  ],
  "density_altitude": -586,
  "dewpoint": {
    "repr": "07",
    "spoken": "seven",
    "value": 7
  },
  "flight_rules": "MVFR",
  "meta": {
    "stations_updated": "2024-12-02",
    "timestamp": "2024-12-29T09:25:53.968981Z"
  },
  "other": [],
  "pressure_altitude": 207,
  "raw": "KNUW 290853Z AUTO 09007KT 10SM FEW014 BKN021 OVC032 08/07 A2976 RMK AO2 SLP081 T00830067 56019 $",
  "relative_humidity": 0.8964857337002037,
  "remarks": "RMK AO2 SLP081 T00830067 56019 $",
  "remarks_info": {
    "codes": [
      {
        "repr": "$",
        "value": "ASOS requires maintenance"
      },
      {
        "repr": "AO2",
        "value": "Automated with precipitation sensor"
      }
    ],
    "dewpoint_decimal": {
      "repr": "0067",
      "spoken": "six point seven",
      "value": 6.7
    },
    "maximum_temperature_24": null,
    "maximum_temperature_6": null,
    "minimum_temperature_24": null,
    "minimum_temperature_6": null,
    "precip_24_hours": null,
    "precip_36_hours": null,
    "precip_hourly": null,
    "pressure_tendency": {
      "change": 1.9,
      "repr": "56019",
      "tendency": "Decreasing, then steady"
    },
    "sea_level_pressure": {
      "repr": "SLP081",
      "spoken": "one zero zero eight point one",
      "value": 1008.1
    },
    "snow_depth": null,
    "sunshine_minutes": null,
    "temperature_decimal": {
      "repr": "0083",
      "spoken": "eight point three",
      "value": 8.3
    }
  },
  "runway_visibility": [],
  "sanitized": "KNUW 290853Z 09007KT 10SM FEW014 BKN021 OVC032 08/07 A2976 RMK AO2 SLP081 T00830067 56019 $",
  "station": "KNUW",
  "temperature": {
    "repr": "08",
    "spoken": "eight",
    "value": 8
  },
  "time": {
    "dt": "2024-12-29T08:53:00Z",
    "repr": "290853Z"
  },
  "units": {
    "accumulation": "in",
    "altimeter": "inHg",
    "altitude": "ft",
    "temperature": "C",
    "visibility": "sm",
    "wind_speed": "kt"
  },
  "visibility": {
    "repr": "10",
    "spoken": "one zero",
    "value": 10
  },
  "wind_direction": {
    "repr": "090",
    "spoken": "zero nine zero",
    "value": 90
  },
  "wind_gust": null,
  "wind_speed": {
    "repr": "07",
    "spoken": "seven",
    "value": 7
  },
  "wind_variable_direction": [],
  "wx_codes": []
}
