{
  "meta": {
    "timestamp": "2022-11-03T13:01:46.245273Z",
    "stations_updated": "2022-09-05"
  },
  "altimeter": {
    "repr": "A3024",
    "value": 30.24,
    "spoken": "three zero point two four"
  },
  "clouds": [
    {
      "repr": "BKN007",
      "type": "BKN",
      "altitude": 7,
      "modifier": null
    },
    {
      "repr": "BKN048",
      "type": "BKN",
      "altitude": 48,
      "modifier": null
    },
    {
      "repr": "OVC150",
      "type": "OVC",
      "altitude": 150,
      "modifier": null
    }
  ],
  "flight_rules": "IFR",
  "other": [],
  "visibility": {
    "repr": "8",
    "value": 8,
    "spoken": "eight"
  },
  "wind_direction": {
    "repr": "110",
    "value": 110,
    "spoken": "one one zero"
  },
  "wind_gust": null,
  "wind_speed": {
    "repr": "05",
    "value": 5,
    "spoken": "five"
  },
  "wx_codes": [],
  "raw": "KNUW 031253Z 11005KT 8SM BKN007 BKN048 OVC150 04/04 A3024 RMK AO2 SLP239 T00440039 VISNO $",
  "sanitized": "KNUW 031253Z 11005KT 8SM BKN007 BKN048 OVC150 04/04 A3024 RMK AO2 SLP239 T00440039 VISNO $",
  "station": "KNUW",
  "time": {
    "repr": "031253Z",
    "dt": "2022-11-03T12:53:00Z"
  },
  "remarks": "RMK AO2 SLP239 T00440039 VISNO $",
  "dewpoint": {
    "repr": "04",
    "value": 4,
    "spoken": "four"
  },
  "relative_humidity": 0.9655305329530535,
  "remarks_info": {
    "maximum_temperature_6": null,
    "minimum_temperature_6": null,
    "pressure_tendency": null,
    "precip_36_hours": null,
    "precip_24_hours": null,
    "sunshine_minutes": null,
    "codes": [
      {
        "repr": "$",
        "value": "ASOS requires maintenance"
      },
      {
        "repr": "AO2",
        "value": "Automated with precipitation sensor"
      }
    ],
    "dewpoint_decimal": {
      "repr": "0039",
      "value": 3.9,
      "spoken": "three point nine"
    },
    "maximum_temperature_24": null,
    "minimum_temperature_24": null,
    "precip_hourly": null,
    "sea_level_pressure": {
      "repr": "SLP239",
      "value": 1023.9,
      "spoken": "one zero two three point nine"
    },
    "snow_depth": null,
    "temperature_decimal": {
      "repr": "0044",
      "value": 4.4,
      "spoken": "four point four"
    }
  },
  "runway_visibility": [],
  "temperature": {
    "repr": "04",
    "value": 4,
    "spoken": "four"
  },
  "wind_variable_direction": [],
  "density_altitude": -1534,
  "pressure_altitude": -273,
  "units": {
    "accumulation": "in",
    "altimeter": "inHg",
    "altitude": "ft",
    "temperature": "C",
    "visibility": "sm",
    "wind_speed": "kt"
  }
}
