{
  "meta": {
    "timestamp": "2022-12-31T12:42:14.963621Z",
    "stations_updated": "2022-12-27",
    "cache-timestamp": "2022-12-31T12:42:07.387000Z"
  },
  "altimeter": {
    "repr": "A2972",
    "value": 29.72,
    "spoken": "two nine point seven two"
  },
  "clouds": [
    {
      "repr": "SCT021",
      "type": "SCT",
      "altitude": 21,
      "modifier": null
    },
    {
      "repr": "SCT100",
      "type": "SCT",
      "altitude": 100,
      "modifier": null
    }
  ],
  "flight_rules": "VFR",
  "other": [],
  "visibility": {
    "repr": "10",
    "value": 10,
    "spoken": "one zero"
  },
  "wind_direction": {
    "repr": "130",
    "value": 130,
    "spoken": "one three zero"
  },
  "wind_gust": null,
  "wind_speed": {
    "repr": "05",
    "value": 5,
    "spoken": "five"
  },
  "wx_codes": [],
  "raw": "KNUW 311153Z AUTO 13005KT 10SM SCT021 SCT100 06/04 A2972 RMK AO2 SLP062 70001 T00610044 10083 20061 51025 VISNO $",
  "sanitized": "KNUW 311153Z 13005KT 10SM SCT021 SCT100 06/04 A2972 RMK AO2 SLP062 70001 T00610044 10083 20061 51025 VISNO $",
  "station": "KNUW",
  "time": {
    "repr": "311153Z",
    "dt": "2022-12-31T11:53:00Z"
  },
  "remarks": "RMK AO2 SLP062 70001 T00610044 10083 20061 51025 VISNO $",
  "dewpoint": {
    "repr": "04",
    "value": 4,
    "spoken": "four"
  },
  "relative_humidity": 0.8885072425154702,
  "remarks_info": {
    "maximum_temperature_6": {
      "repr": "10083",
      "value": 8.3,
      "spoken": "eight point three"
    },
    "minimum_temperature_6": {
      "repr": "20061",
      "value": 6.1,
      "spoken": "six point one"
    },
    "pressure_tendency": {
      "repr": "51025",
      "tendency": "Increasing, then steady",
      "change": 2.5
    },
    "precip_36_hours": null,
    "precip_24_hours": {
      "repr": "70001",
      "value": 0.01,
      "spoken": "zero point zero one"
    },
    "sunshine_minutes": null,
    "codes": [
      {
        "repr": "$",
        "value": "ASOS requires maintenance"
      },
      {
        "repr": "AO2",
        "value": "Automated with precipitation sensor"
      }
    ],
    "dewpoint_decimal": {
      "repr": "0044",
      "value": 4.4,
      "spoken": "four point four"
    },
    "maximum_temperature_24": null,
    "minimum_temperature_24": null,
    "precip_hourly": null,
    "sea_level_pressure": {
      "repr": "SLP062",
      "value": 1006.2,
      "spoken": "one zero zero six point two"
    },
    "snow_depth": null,
    "temperature_decimal": {
      "repr": "0061",
      "value": 6.1,
      "spoken": "six point one"
    }
  },
  "runway_visibility": [],
  "temperature": {
    "repr": "06",
    "value": 6,
    "spoken": "six"
  },
  "wind_variable_direction": [],
  "density_altitude": -810,
  "pressure_altitude": 247,
  "units": {
    "accumulation": "in",
    "altimeter": "inHg",
    "altitude": "ft",
    "temperature": "C",
    "visibility": "sm",
    "wind_speed": "kt"
  }
}
