{
  "meta": {
    "timestamp": "2023-07-21T21:40:35.659731Z",
    "stations_updated": "2023-06-06",
    "cache-timestamp": "2023-07-21T21:40:03.450000Z"
  },
  "altimeter": {
    "repr": "A3013",
    "value": 30.13,
    "spoken": "three zero point one three"
  },
  "clouds": [
    {
      "repr": "FEW045",
      "type": "FEW",
      "altitude": 45,
      "modifier": null
    },
    {
      "repr": "FEW200",
      "type": "FEW",
      "altitude": 200,
      "modifier": null
    }
  ],
  "flight_rules": "VFR",
  "other": [],
  "visibility": {
    "repr": "10",
    "value": 10,
    "spoken": "one zero"
  },
  "wind_direction": {
    "repr": "290",
    "value": 290,
    "spoken": "two nine zero"
  },
  "wind_gust": null,
  "wind_speed": {
    "repr": "07",
    "value": 7,
    "spoken": "seven"
  },
  "wx_codes": [],
  "raw": "KNUW 212053Z 29007KT 10SM FEW045 FEW200 18/13 A3013 RMK AO2 SLP206 T01780133 58008 VISNO $",
  "sanitized": "KNUW 212053Z 29007KT 10SM FEW045 FEW200 18/13 A3013 RMK AO2 SLP206 T01780133 58008 VISNO $",
  "station": "KNUW",
  "time": {
    "repr": "212053Z",
    "dt": "2023-07-21T20:53:00Z"
  },
  "remarks": "RMK AO2 SLP206 T01780133 58008 VISNO $",
  "dewpoint": {
    "repr": "13",
    "value": 13,
    "spoken": "one three"
  },
  "relative_humidity": 0.7493530603030909,
  "remarks_info": {
    "maximum_temperature_6": null,
    "minimum_temperature_6": null,
    "pressure_tendency": {
      "repr": "58008",
      "tendency": "Steady or increasing, then decreasing",
      "change": 0.8
    },
    "precip_36_hours": null,
    "precip_24_hours": null,
    "sunshine_minutes": null,
    "codes": [
      {
        "repr": "$",
        "value": "ASOS requires maintenance"
      },
      {
        "repr": "AO2",
        "value": "Automated with precipitation sensor"
      }
    ],
    "dewpoint_decimal": {
      "repr": "0133",
      "value": 13.3,
      "spoken": "one three point three"
    },
    "maximum_temperature_24": null,
    "minimum_temperature_24": null,
    "precip_hourly": null,
    "sea_level_pressure": {
      "repr": "SLP206",
      "value": 1020.6,
      "spoken": "one zero two zero point six"
    },
    "snow_depth": null,
    "temperature_decimal": {
      "repr": "0178",
      "value": 17.8,
      "spoken": "one seven point eight"
    }
  },
  "runway_visibility": [],
  "temperature": {
    "repr": "18",
    "value": 18,
    "spoken": "one eight"
  },
  "wind_variable_direction": [],
  "density_altitude": 184,
  "pressure_altitude": -163,
  "units": {
    "accumulation": "in",
    "altimeter": "inHg",
    "altitude": "ft",
    "temperature": "C",
    "visibility": "sm",
    "wind_speed": "kt"
  }
}
