{
  "altimeter": {
    "repr": "A2977",
    "spoken": "two nine point seven seven",
    "value": 29.77
  },
  "clouds": [
    {
      "altitude": 15,
      "modifier": null,
      "repr": "BKN015",
      "type": "BKN"
    },
    {
      "altitude": 38,
      "modifier": null,
      "repr": "BKN038",
      "type": "BKN"
    },
    {
      "altitude": 70,
      "modifier": null,
      "repr": "OVC070",
      "type": "OVC"
    }
  ],
  "density_altitude": -1388,
  "dewpoint": {
    "repr": "01",
    "spoken": "one",
    "value": 1
  },
  "flight_rules": "MVFR",
  "meta": {
    "cache-timestamp": "2024-03-04T10:20:03.851000Z",
    "stations_updated": "2024-01-01",
    "timestamp": "2024-03-04T10:20:39.644378Z"
  },
  "other": [],
  "pressure_altitude": 197,
  "raw": "KNUW 040953Z 13004KT 10SM -RASN BKN015 BKN038 OVC070 02/01 A2977 RMK AO2 UPB41E43RAB43SNB46 SLP085 P0001 T00170011 $",
  "relative_humidity": 0.9578695064206159,
  "remarks": "RMK AO2 UPB41E43RAB43SNB46 SLP085 P0001 T00170011 $",
  "remarks_info": {
    "codes": [
      {
        "repr": "$",
        "value": "ASOS requires maintenance"
      },
      {
        "repr": "AO2",
        "value": "Automated with precipitation sensor"
      }
    ],
    "dewpoint_decimal": {
      "repr": "0011",
      "spoken": "one point one",
      "value": 1.1
    },
    "maximum_temperature_24": null,
    "maximum_temperature_6": null,
    "minimum_temperature_24": null,
    "minimum_temperature_6": null,
    "precip_24_hours": null,
    "precip_36_hours": null,
    "precip_hourly": {
      "repr": "P0001",
      "spoken": "zero point zero one",
      "value": 0.01
    },
    "pressure_tendency": null,
    "sea_level_pressure": {
      "repr": "SLP085",
      "spoken": "one zero zero eight point five",
      "value": 1008.5
    },
    "snow_depth": null,
    "sunshine_minutes": null,
    "temperature_decimal": {
      "repr": "0017",
      "spoken": "one point seven",
      "value": 1.7
    }
  },
  "runway_visibility": [],
  "sanitized": "KNUW 040953Z 13004KT 10SM -RASN BKN015 BKN038 OVC070 02/01 A2977 RMK AO2 UPB41E43RAB43SNB46 SLP085 P0001 T00170011 $",
  "station": "KNUW",
  "temperature": {
    "repr": "02",
    "spoken": "two",
    "value": 2
  },
  "time": {
    "dt": "2024-03-04T09:53:00Z",
    "repr": "040953Z"
  },
  "units": {
    "accumulation": "in",
    "altimeter": "inHg",
    "altitude": "ft",
    "temperature": "C",
    "visibility": "sm",
    "wind_speed": "kt"
  },
  "visibility": {
    "repr": "10",
    "spoken": "one zero",
    "value": 10
  },
  "wind_direction": {
    "repr": "130",
    "spoken": "one three zero",
    "value": 130
  },
  "wind_gust": null,
  "wind_speed": {
    "repr": "04",
    "spoken": "four",
    "value": 4
  },
  "wind_variable_direction": [],
  "wx_codes": [
    {
      "repr": "-RASN",
      "value": "Light Rain Snow"
    }
  ]
}
