{
  "meta": {
    "timestamp": "2023-02-12T22:02:07.710996Z",
    "stations_updated": "2023-01-30"
  },
  "altimeter": {
    "repr": "A3022",
    "value": 30.22,
    "spoken": "three zero point two two"
  },
  "clouds": [
    {
      "repr": "BKN055",
      "type": "BKN",
      "altitude": 55,
      "modifier": null
    },
    {
      "repr": "BKN065",
      "type": "BKN",
      "altitude": 65,
      "modifier": null
    }
  ],
  "flight_rules": "VFR",
  "other": [],
  "visibility": {
    "repr": "10",
    "value": 10,
    "spoken": "one zero"
  },
  "wind_direction": {
    "repr": "100",
    "value": 100,
    "spoken": "one zero zero"
  },
  "wind_gust": null,
  "wind_speed": {
    "repr": "04",
    "value": 4,
    "spoken": "four"
  },
  "wx_codes": [],
  "raw": "KNUW 122053Z 10004KT 10SM BKN055 BKN065 08/03 A3022 RMK RAE1956 SLP233 P0000 60000 T00780028 58015",
  "sanitized": "KNUW 122053Z 10004KT 10SM BKN055 BKN065 08/03 A3022 RMK RAE1956 SLP233 P0000 60000 T00780028 58015",
  "station": "KNUW",
  "time": {
    "repr": "122053Z",
    "dt": "2023-02-12T20:53:00Z"
  },
  "remarks": "RMK RAE1956 SLP233 P0000 60000 T00780028 58015",
  "dewpoint": {
    "repr": "03",
    "value": 3,
    "spoken": "three"
  },
  "relative_humidity": 0.7063989825322067,
  "remarks_info": {
    "maximum_temperature_6": null,
    "minimum_temperature_6": null,
    "pressure_tendency": {
      "repr": "58015",
      "tendency": "Steady or increasing, then decreasing",
      "change": 1.5
    },
    "precip_36_hours": {
      "repr": "60000",
      "value": 0,
      "spoken": "zero"
    },
    "precip_24_hours": null,
    "sunshine_minutes": null,
    "codes": [
      {
        "repr": "P0000",
        "value": "Trace amount of rain in the last hour"
      }
    ],
    "dewpoint_decimal": {
      "repr": "0028",
      "value": 2.8,
      "spoken": "two point eight"
    },
    "maximum_temperature_24": null,
    "minimum_temperature_24": null,
    "precip_hourly": null,
    "sea_level_pressure": {
      "repr": "SLP233",
      "value": 1023.3,
      "spoken": "one zero two three point three"
    },
    "snow_depth": null,
    "temperature_decimal": {
      "repr": "0078",
      "value": 7.8,
      "spoken": "seven point eight"
    }
  },
  "runway_visibility": [],
  "temperature": {
    "repr": "08",
    "value": 8,
    "spoken": "eight"
  },
  "wind_variable_direction": [],
  "density_altitude": -1106,
  "pressure_altitude": -253,
  "units": {
    "accumulation": "in",
    "altimeter": "inHg",
    "altitude": "ft",
    "temperature": "C",
    "visibility": "sm",
    "wind_speed": "kt"
  }
}
