{
  "altimeter": {
    "repr": "A3017",
    "spoken": "three zero point one seven",
    "value": 30.17
  },
  "clouds": [
    {
      "altitude": 30,
      "modifier": null,
      "repr": "BKN030",
      "type": "BKN"
    },
    {
      "altitude": 55,
      "modifier": null,
      "repr": "BKN055",
      "type": "BKN"
    },
    {
      "altitude": 70,
      "modifier": null,
      "repr": "BKN070",
      "type": "BKN"
    }
  ],
  "density_altitude": -264,
  "dewpoint": {
    "repr": "11",
    "spoken": "one one",
    "value": 11
  },
  "flight_rules": "MVFR",
  "meta": {
    "stations_updated": "2024-06-12",
    "timestamp": "2024-09-27T17:05:03.061457Z"
  },
  "other": [],
  "pressure_altitude": -203,
  "raw": "KNUW 271553Z 22007KT 10SM BKN030 BKN055 BKN070 14/11 A3017 RMK SLP220 T01440111",
  "relative_humidity": 0.8055404722783964,
  "remarks": "RMK SLP220 T01440111",
  "remarks_info": {
    "codes": [],
    "dewpoint_decimal": {
      "repr": "0111",
      "spoken": "one one point one",
      "value": 11.1
    },
    "maximum_temperature_24": null,
    "maximum_temperature_6": null,
    "minimum_temperature_24": null,
    "minimum_temperature_6": null,
    "precip_24_hours": null,
    "precip_36_hours": null,
    "precip_hourly": null,
    "pressure_tendency": null,
    "sea_level_pressure": {
      "repr": "SLP220",
      "spoken": "one zero two two point zero",
      "value": 1022
    },
    "snow_depth": null,
    "sunshine_minutes": null,
    "temperature_decimal": {
      "repr": "0144",
      "spoken": "one four point four",
      "value": 14.4
    }
  },
  "runway_visibility": [],
  "sanitized": "KNUW 271553Z 22007KT 10SM BKN030 BKN055 BKN070 14/11 A3017 RMK SLP220 T01440111",
  "station": "KNUW",
  "temperature": {
    "repr": "14",
    "spoken": "one four",
    "value": 14
  },
  "time": {
    "dt": "2024-09-27T15:53:00Z",
    "repr": "271553Z"
  },
  "units": {
    "accumulation": "in",
    "altimeter": "inHg",
    "altitude": "ft",
    "temperature": "C",
    "visibility": "sm",
    "wind_speed": "kt"
  },
  "visibility": {
    "repr": "10",
    "spoken": "one zero",
    "value": 10
  },
  "wind_direction": {
    "repr": "220",
    "spoken": "two two zero",
    "value": 220
  },
  "wind_gust": null,
  "wind_speed": {
    "repr": "07",
    "spoken": "seven",
    "value": 7
  },
  "wind_variable_direction": [],
  "wx_codes": []
}
