{
  "altimeter": {
    "repr": "A3027",
    "spoken": "three zero point two seven",
    "value": 30.27
  },
  "clouds": [
    {
      "altitude": 30,
      "modifier": null,
      "repr": "FEW030",
      "type": "FEW"
    },
    {
      "altitude": 60,
      "modifier": null,
      "repr": "SCT060",
      "type": "SCT"
    },
    {
      "altitude": 100,
      "modifier": null,
      "repr": "SCT100",
      "type": "SCT"
    }
  ],
  "density_altitude": -892,
  "dewpoint": {
    "repr": "02",
    "spoken": "two",
    "value": 2
  },
  "flight_rules": "VFR",
  "meta": {
    "cache-timestamp": "2023-11-19T20:40:03.718000Z",
    "stations_updated": "2023-10-28",
    "timestamp": "2023-11-19T20:40:37.419267Z"
  },
  "other": [],
  "pressure_altitude": -303,
  "raw": "KNUW 191953Z 25026G40KT 10SM FEW030 SCT060 SCT100 10/02 A3027 RMK PK WND 24040/1948 SLP253 T01000022",
  "relative_humidity": 0.5834339196563868,
  "remarks": "RMK PK WND 24040/1948 SLP253 T01000022",
  "remarks_info": {
    "codes": [],
    "dewpoint_decimal": {
      "repr": "0022",
      "spoken": "two point two",
      "value": 2.2
    },
    "maximum_temperature_24": null,
    "maximum_temperature_6": null,
    "minimum_temperature_24": null,
    "minimum_temperature_6": null,
    "precip_24_hours": null,
    "precip_36_hours": null,
    "precip_hourly": null,
    "pressure_tendency": null,
    "sea_level_pressure": {
      "repr": "SLP253",
      "spoken": "one zero two five point three",
      "value": 1025.3
    },
    "snow_depth": null,
    "sunshine_minutes": null,
    "temperature_decimal": {
      "repr": "0100",
      "spoken": "one zero point zero",
      "value": 10
    }
  },
  "runway_visibility": [],
  "sanitized": "KNUW 191953Z 25026G40KT 10SM FEW030 SCT060 SCT100 10/02 A3027 RMK PK WND 24040/1948 SLP253 T01000022",
  "station": "KNUW",
  "temperature": {
    "repr": "10",
    "spoken": "one zero",
    "value": 10
  },
  "time": {
    "dt": "2023-11-19T19:53:00Z",
    "repr": "191953Z"
  },
  "units": {
    "accumulation": "in",
    "altimeter": "inHg",
    "altitude": "ft",
    "temperature": "C",
    "visibility": "sm",
    "wind_speed": "kt"
  },
  "visibility": {
    "repr": "10",
    "spoken": "one zero",
    "value": 10
  },
  "wind_direction": {
    "repr": "250",
    "spoken": "two five zero",
    "value": 250
  },
  "wind_gust": {
    "repr": "40",
    "spoken": "four zero",
    "value": 40
  },
  "wind_speed": {
    "repr": "26",
    "spoken": "two six",
    "value": 26
  },
  "wind_variable_direction": [],
  "wx_codes": []
}
