{
  "meta": {
    "timestamp": "2023-05-13T05:01:29.790688Z",
    "stations_updated": "2023-03-11"
  },
  "altimeter": {
    "repr": "A3021",
    "value": 30.21,
    "spoken": "three zero point two one"
  },
  "clouds": [
    {
      "repr": "FEW050",
      "type": "FEW",
      "altitude": 50,
      "modifier": null
    },
    {
      "repr": "FEW220",
      "type": "FEW",
      "altitude": 220,
      "modifier": null
    }
  ],
  "flight_rules": "VFR",
  "other": [],
  "visibility": {
    "repr": "10",
    "value": 10,
    "spoken": "one zero"
  },
  "wind_direction": {
    "repr": "000",
    "value": 0,
    "spoken": "zero zero zero"
  },
  "wind_gust": null,
  "wind_speed": {
    "repr": "00",
    "value": 0,
    "spoken": "zero"
  },
  "wx_codes": [],
  "raw": "KNUW 130453Z 00000KT 10SM FEW050 FEW220 13/08 A3021 RMK AO2 SLP234 T01330078 VISNO",
  "sanitized": "KNUW 130453Z 00000KT 10SM FEW050 FEW220 13/08 A3021 RMK AO2 SLP234 T01330078 VISNO",
  "station": "KNUW",
  "time": {
    "repr": "130453Z",
    "dt": "2023-05-13T04:53:00Z"
  },
  "remarks": "RMK AO2 SLP234 T01330078 VISNO",
  "dewpoint": {
    "repr": "08",
    "value": 8,
    "spoken": "eight"
  },
  "relative_humidity": 0.6930176439885082,
  "remarks_info": {
    "maximum_temperature_6": null,
    "minimum_temperature_6": null,
    "pressure_tendency": null,
    "precip_36_hours": null,
    "precip_24_hours": null,
    "sunshine_minutes": null,
    "codes": [
      {
        "repr": "AO2",
        "value": "Automated with precipitation sensor"
      }
    ],
    "dewpoint_decimal": {
      "repr": "0078",
      "value": 7.8,
      "spoken": "seven point eight"
    },
    "maximum_temperature_24": null,
    "minimum_temperature_24": null,
    "precip_hourly": null,
    "sea_level_pressure": {
      "repr": "SLP234",
      "value": 1023.4,
      "spoken": "one zero two three point four"
    },
    "snow_depth": null,
    "temperature_decimal": {
      "repr": "0133",
      "value": 13.3,
      "spoken": "one three point three"
    }
  },
  "runway_visibility": [],
  "temperature": {
    "repr": "13",
    "value": 13,
    "spoken": "one three"
  },
  "wind_variable_direction": [],
  "density_altitude": -436,
  "pressure_altitude": -243,
  "units": {
    "accumulation": "in",
    "altimeter": "inHg",
    "altitude": "ft",
    "temperature": "C",
    "visibility": "sm",
    "wind_speed": "kt"
  }
}
