{
  "meta": {
    "timestamp": "2023-10-10T21:01:32.790160Z",
    "stations_updated": "2023-10-01"
  },
  "altimeter": {
    "repr": "A2941",
    "value": 29.41,
    "spoken": "two nine point four one"
  },
  "clouds": [
    {
      "repr": "BKN028",
      "type": "BKN",
      "altitude": 28,
      "modifier": null
    },
    {
      "repr": "BKN080",
      "type": "BKN",
      "altitude": 80,
      "modifier": null
    },
    {
      "repr": "BKN220",
      "type": "BKN",
      "altitude": 220,
      "modifier": null
    }
  ],
  "flight_rules": "MVFR",
  "other": [],
  "visibility": {
    "repr": "10",
    "value": 10,
    "spoken": "one zero"
  },
  "wind_direction": {
    "repr": "130",
    "value": 130,
    "spoken": "one three zero"
  },
  "wind_gust": {
    "repr": "34",
    "value": 34,
    "spoken": "three four"
  },
  "wind_speed": {
    "repr": "22",
    "value": 22,
    "spoken": "two two"
  },
  "wx_codes": [],
  "raw": "KNUW 102053Z 13022G34KT 10SM BKN028 BKN080 BKN220 16/09 A2941 RMK AO2 PK WND 13034/2050 SLP964 T01560094 56014",
  "sanitized": "KNUW 102053Z 13022G34KT 10SM BKN028 BKN080 BKN220 16/09 A2941 RMK AO2 PK WND 13034/2050 SLP964 T01560094 56014",
  "station": "KNUW",
  "time": {
    "repr": "102053Z",
    "dt": "2023-10-10T20:53:00Z"
  },
  "remarks": "RMK AO2 PK WND 13034/2050 SLP964 T01560094 56014",
  "dewpoint": {
    "repr": "09",
    "value": 9,
    "spoken": "nine"
  },
  "relative_humidity": 0.6655714776038613,
  "remarks_info": {
    "maximum_temperature_6": null,
    "minimum_temperature_6": null,
    "pressure_tendency": {
      "repr": "56014",
      "tendency": "Decreasing, then steady",
      "change": 1.4
    },
    "precip_36_hours": null,
    "precip_24_hours": null,
    "sunshine_minutes": null,
    "codes": [
      {
        "repr": "AO2",
        "value": "Automated with precipitation sensor"
      }
    ],
    "dewpoint_decimal": {
      "repr": "0094",
      "value": 9.4,
      "spoken": "nine point four"
    },
    "maximum_temperature_24": null,
    "minimum_temperature_24": null,
    "precip_hourly": null,
    "sea_level_pressure": {
      "repr": "SLP964",
      "value": 996.4,
      "spoken": "nine nine six point four"
    },
    "snow_depth": null,
    "temperature_decimal": {
      "repr": "0156",
      "value": 15.6,
      "spoken": "one five point six"
    }
  },
  "runway_visibility": [],
  "temperature": {
    "repr": "16",
    "value": 16,
    "spoken": "one six"
  },
  "wind_variable_direction": [],
  "density_altitude": 640,
  "pressure_altitude": 557,
  "units": {
    "accumulation": "in",
    "altimeter": "inHg",
    "altitude": "ft",
    "temperature": "C",
    "visibility": "sm",
    "wind_speed": "kt"
  }
}
