{
  "altimeter": {
    "repr": "A3013",
    "spoken": "three zero point one three",
    "value": 30.13
  },
  "clouds": [
    {
      "altitude": 4,
      "modifier": null,
      "repr": "SCT004",
      "type": "SCT"
    },
    {
      "altitude": 28,
      "modifier": null,
      "repr": "BKN028",
      "type": "BKN"
    },
    {
      "altitude": 180,
      "modifier": null,
      "repr": "BKN180",
      "type": "BKN"
    }
  ],
  "density_altitude": -1880,
  "dewpoint": {
    "repr": "01",
    "spoken": "one",
    "value": 1
  },
  "flight_rules": "IFR",
  "meta": {
    "stations_updated": "2024-12-02",
    "timestamp": "2025-01-30T09:40:36.631851Z"
  },
  "other": [],
  "pressure_altitude": -163,
  "raw": "KNUW 300853Z 11008KT 2SM BR SCT004 BKN028 BKN180 01/01 A3013 RMK AO2 SLP207 VIS NE-SE 3/4 T00060006 58000 $",
  "relative_humidity": 1.0,
  "remarks": "RMK AO2 SLP207 VIS NE-SE 3/4 T00060006 58000 $",
  "remarks_info": {
    "codes": [
      {
        "repr": "$",
        "value": "ASOS requires maintenance"
      },
      {
        "repr": "AO2",
        "value": "Automated with precipitation sensor"
      }
    ],
    "dewpoint_decimal": {
      "repr": "0006",
      "spoken": "zero point six",
      "value": 0.6
    },
    "maximum_temperature_24": null,
    "maximum_temperature_6": null,
    "minimum_temperature_24": null,
    "minimum_temperature_6": null,
    "precip_24_hours": null,
    "precip_36_hours": null,
    "precip_hourly": null,
    "pressure_tendency": {
      "change": 0.0,
      "repr": "58000",
      "tendency": "Steady or increasing, then decreasing"
    },
    "sea_level_pressure": {
      "repr": "SLP207",
      "spoken": "one zero two zero point seven",
      "value": 1020.7
    },
    "snow_depth": null,
    "sunshine_minutes": null,
    "temperature_decimal": {
      "repr": "0006",
      "spoken": "zero point six",
      "value": 0.6
    }
  },
  "runway_visibility": [],
  "sanitized": "KNUW 300853Z 11008KT 2SM BR SCT004 BKN028 BKN180 01/01 A3013 RMK AO2 SLP207 VIS NE-SE 3/4 T00060006 58000 $",
  "station": "KNUW",
  "temperature": {
    "repr": "01",
    "spoken": "one",
    "value": 1
  },
  "time": {
    "dt": "2025-01-30T08:53:00Z",
    "repr": "300853Z"
  },
  "units": {
    "accumulation": "in",
    "altimeter": "inHg",
    "altitude": "ft",
    "temperature": "C",
    "visibility": "sm",
    "wind_speed": "kt"
  },
  "visibility": {
    "repr": "2",
    "spoken": "two",
    "value": 2
  },
  "wind_direction": {
    "repr": "110",
    "spoken": "one one zero",
    "value": 110
  },
  "wind_gust": null,
  "wind_speed": {
    "repr": "08",
    "spoken": "eight",
    "value": 8
  },
  "wind_variable_direction": [],
  "wx_codes": [
    {
      "repr": "BR",
      "value": "Mist"
    }
  ]
}
