{
  "meta": {
    "timestamp": "2022-11-29T06:07:25.898840Z",
    "stations_updated": "2022-09-05"
  },
  "altimeter": {
    "repr": "A3005",
    "value": 30.05,
    "spoken": "three zero point zero five"
  },
  "clouds": [
    {
      "repr": "FEW015",
      "type": "FEW",
      "altitude": 15,
      "modifier": null
    },
    {
      "repr": "FEW035",
      "type": "FEW",
      "altitude": 35,
      "modifier": null
    },
    {
      "repr": "SCT070",
      "type": "SCT",
      "altitude": 70,
      "modifier": null
    }
  ],
  "flight_rules": "VFR",
  "other": [],
  "visibility": {
    "repr": "10",
    "value": 10,
    "spoken": "one zero"
  },
  "wind_direction": {
    "repr": "360",
    "value": 360,
    "spoken": "three six zero"
  },
  "wind_gust": null,
  "wind_speed": {
    "repr": "07",
    "value": 7,
    "spoken": "seven"
  },
  "wx_codes": [],
  "raw": "KNUW 290553Z 36007KT 10SM FEW015 FEW035 SCT070 M03/M08 A3005 RMK AO2 SLP174 T10281078 10011 21044 52011 VISNO $",
  "sanitized": "KNUW 290553Z 36007KT 10SM FEW015 FEW035 SCT070 M03/M08 A3005 RMK AO2 SLP174 T10281078 10011 21044 52011 VISNO $",
  "station": "KNUW",
  "time": {
    "repr": "290553Z",
    "dt": "2022-11-29T05:53:00Z"
  },
  "remarks": "RMK AO2 SLP174 T10281078 10011 21044 52011 VISNO $",
  "dewpoint": {
    "repr": "M08",
    "value": -8,
    "spoken": "minus eight"
  },
  "relative_humidity": 0.6844078101420125,
  "remarks_info": {
    "maximum_temperature_6": {
      "repr": "10011",
      "value": 1.1,
      "spoken": "one point one"
    },
    "minimum_temperature_6": {
      "repr": "21044",
      "value": -4.4,
      "spoken": "minus four point four"
    },
    "pressure_tendency": {
      "repr": "52011",
      "tendency": "Increasing steadily or unsteadily",
      "change": 1.1
    },
    "precip_36_hours": null,
    "precip_24_hours": null,
    "sunshine_minutes": null,
    "codes": [
      {
        "repr": "$",
        "value": "ASOS requires maintenance"
      },
      {
        "repr": "AO2",
        "value": "Automated with precipitation sensor"
      }
    ],
    "dewpoint_decimal": {
      "repr": "1078",
      "value": -7.8,
      "spoken": "minus seven point eight"
    },
    "maximum_temperature_24": null,
    "minimum_temperature_24": null,
    "precip_hourly": null,
    "sea_level_pressure": {
      "repr": "SLP174",
      "value": 1017.4,
      "spoken": "one zero one seven point four"
    },
    "snow_depth": null,
    "temperature_decimal": {
      "repr": "1028",
      "value": -2.8,
      "spoken": "minus two point eight"
    }
  },
  "runway_visibility": [],
  "temperature": {
    "repr": "M03",
    "value": -3,
    "spoken": "minus three"
  },
  "wind_variable_direction": [],
  "density_altitude": -2208,
  "pressure_altitude": -83,
  "units": {
    "accumulation": "in",
    "altimeter": "inHg",
    "altitude": "ft",
    "temperature": "C",
    "visibility": "sm",
    "wind_speed": "kt"
  }
}
