{
  "altimeter": {
    "repr": "A2971",
    "spoken": "two nine point seven one",
    "value": 29.71
  },
  "clouds": [
    {
      "altitude": 30,
      "modifier": null,
      "repr": "BKN030",
      "type": "BKN"
    },
    {
      "altitude": 37,
      "modifier": null,
      "repr": "BKN037",
      "type": "BKN"
    },
    {
      "altitude": 65,
      "modifier": null,
      "repr": "OVC065",
      "type": "OVC"
    }
  ],
  "density_altitude": -728,
  "dewpoint": {
    "repr": "06",
    "spoken": "six",
    "value": 6
  },
  "flight_rules": "MVFR",
  "meta": {
    "stations_updated": "2024-12-02",
    "timestamp": "2025-01-03T22:06:21.212947Z"
  },
  "other": [],
  "pressure_altitude": 257,
  "raw": "KNUW 032153Z 10010KT 10SM -RA BKN030 BKN037 OVC065 07/06 A2971 RMK AO2 SLP065 P0001 T00670056 $",
  "relative_humidity": 0.9268723723701822,
  "remarks": "RMK AO2 SLP065 P0001 T00670056 $",
  "remarks_info": {
    "codes": [
      {
        "repr": "$",
        "value": "ASOS requires maintenance"
      },
      {
        "repr": "AO2",
        "value": "Automated with precipitation sensor"
      }
    ],
    "dewpoint_decimal": {
      "repr": "0056",
      "spoken": "five point six",
      "value": 5.6
    },
    "maximum_temperature_24": null,
    "maximum_temperature_6": null,
    "minimum_temperature_24": null,
    "minimum_temperature_6": null,
    "precip_24_hours": null,
    "precip_36_hours": null,
    "precip_hourly": {
      "repr": "P0001",
      "spoken": "zero point zero one",
      "value": 0.01
    },
    "pressure_tendency": null,
    "sea_level_pressure": {
      "repr": "SLP065",
      "spoken": "one zero zero six point five",
      "value": 1006.5
    },
    "snow_depth": null,
    "sunshine_minutes": null,
    "temperature_decimal": {
      "repr": "0067",
      "spoken": "six point seven",
      "value": 6.7
    }
  },
  "runway_visibility": [],
  "sanitized": "KNUW 032153Z 10010KT 10SM -RA BKN030 BKN037 OVC065 07/06 A2971 RMK AO2 SLP065 P0001 T00670056 $",
  "station": "KNUW",
  "temperature": {
    "repr": "07",
    "spoken": "seven",
    "value": 7
  },
  "time": {
    "dt": "2025-01-03T21:53:00Z",
    "repr": "032153Z"
  },
  "units": {
    "accumulation": "in",
    "altimeter": "inHg",
    "altitude": "ft",
    "temperature": "C",
    "visibility": "sm",
    "wind_speed": "kt"
  },
  "visibility": {
    "repr": "10",
    "spoken": "one zero",
    "value": 10
  },
  "wind_direction": {
    "repr": "100",
    "spoken": "one zero zero",
    "value": 100
  },
  "wind_gust": null,
  "wind_speed": {
    "repr": "10",
    "spoken": "one zero",
    "value": 10
  },
  "wind_variable_direction": [],
  "wx_codes": [
    {
      "repr": "-RA",
      "value": "Light Rain"
    }
  ]
}
