{
  "altimeter": {
    "repr": "A3038",
    "spoken": "three zero point three eight",
    "value": 30.38
  },
  "clouds": [
    {
      "altitude": 250,
      "modifier": null,
      "repr": "SCT250",
      "type": "SCT"
    }
  ],
  "density_altitude": -2874,
  "dewpoint": {
    "repr": "M10",
    "spoken": "minus one zero",
    "value": -10
  },
  "flight_rules": "VFR",
  "meta": {
    "stations_updated": "2023-10-28",
    "timestamp": "2024-01-15T08:41:13.936966Z"
  },
  "other": [],
  "pressure_altitude": -413,
  "raw": "KNUW 150753Z 00000KT 10SM SCT250 M06/M10 A3038 RMK AO2 SLP292 T10561100 410061106 $",
  "relative_humidity": 0.711197072091848,
  "remarks": "RMK AO2 SLP292 T10561100 410061106 $",
  "remarks_info": {
    "codes": [
      {
        "repr": "$",
        "value": "ASOS requires maintenance"
      },
      {
        "repr": "AO2",
        "value": "Automated with precipitation sensor"
      }
    ],
    "dewpoint_decimal": {
      "repr": "1100",
      "spoken": "minus one zero point zero",
      "value": -10
    },
    "maximum_temperature_24": {
      "repr": "1006",
      "spoken": "minus zero point six",
      "value": -0.6
    },
    "maximum_temperature_6": null,
    "minimum_temperature_24": {
      "repr": "1106",
      "spoken": "minus one zero point six",
      "value": -10.6
    },
    "minimum_temperature_6": null,
    "precip_24_hours": null,
    "precip_36_hours": null,
    "precip_hourly": null,
    "pressure_tendency": null,
    "sea_level_pressure": {
      "repr": "SLP292",
      "spoken": "one zero two nine point two",
      "value": 1029.2
    },
    "snow_depth": null,
    "sunshine_minutes": null,
    "temperature_decimal": {
      "repr": "1056",
      "spoken": "minus five point six",
      "value": -5.6
    }
  },
  "runway_visibility": [],
  "sanitized": "KNUW 150753Z 00000KT 10SM SCT250 M06/M10 A3038 RMK AO2 SLP292 T10561100 410061106 $",
  "station": "KNUW",
  "temperature": {
    "repr": "M06",
    "spoken": "minus six",
    "value": -6
  },
  "time": {
    "dt": "2024-01-15T07:53:00Z",
    "repr": "150753Z"
  },
  "units": {
    "accumulation": "in",
    "altimeter": "inHg",
    "altitude": "ft",
    "temperature": "C",
    "visibility": "sm",
    "wind_speed": "kt"
  },
  "visibility": {
    "repr": "10",
    "spoken": "one zero",
    "value": 10
  },
  "wind_direction": {
    "repr": "000",
    "spoken": "zero zero zero",
    "value": 0
  },
  "wind_gust": null,
  "wind_speed": {
    "repr": "00",
    "spoken": "zero",
    "value": 0
  },
  "wind_variable_direction": [],
  "wx_codes": []
}
