{
  "altimeter": {
    "repr": "A3013",
    "spoken": "three zero point one three",
    "value": 30.13
  },
  "clouds": [
    {
      "altitude": 12,
      "modifier": null,
      "repr": "SCT012",
      "type": "SCT"
    },
    {
      "altitude": 21,
      "modifier": null,
      "repr": "BKN021",
      "type": "BKN"
    },
    {
      "altitude": 40,
      "modifier": null,
      "repr": "BKN040",
      "type": "BKN"
    }
  ],
  "density_altitude": 184,
  "dewpoint": {
    "repr": "16",
    "spoken": "one six",
    "value": 16
  },
  "flight_rules": "MVFR",
  "meta": {
    "stations_updated": "2024-06-12",
    "timestamp": "2024-06-30T19:40:40.420698Z"
  },
  "other": [],
  "pressure_altitude": -163,
  "raw": "KNUW 301853Z VRB04KT 10SM SCT012 BKN021 BKN040 18/16 A3013 RMK AO2 SLP207 T01780156 $",
  "relative_humidity": 0.8695197516615377,
  "remarks": "RMK AO2 SLP207 T01780156 $",
  "remarks_info": {
    "codes": [
      {
        "repr": "$",
        "value": "ASOS requires maintenance"
      },
      {
        "repr": "AO2",
        "value": "Automated with precipitation sensor"
      }
    ],
    "dewpoint_decimal": {
      "repr": "0156",
      "spoken": "one five point six",
      "value": 15.6
    },
    "maximum_temperature_24": null,
    "maximum_temperature_6": null,
    "minimum_temperature_24": null,
    "minimum_temperature_6": null,
    "precip_24_hours": null,
    "precip_36_hours": null,
    "precip_hourly": null,
    "pressure_tendency": null,
    "sea_level_pressure": {
      "repr": "SLP207",
      "spoken": "one zero two zero point seven",
      "value": 1020.7
    },
    "snow_depth": null,
    "sunshine_minutes": null,
    "temperature_decimal": {
      "repr": "0178",
      "spoken": "one seven point eight",
      "value": 17.8
    }
  },
  "runway_visibility": [],
  "sanitized": "KNUW 301853Z VRB04KT 10SM SCT012 BKN021 BKN040 18/16 A3013 RMK AO2 SLP207 T01780156 $",
  "station": "KNUW",
  "temperature": {
    "repr": "18",
    "spoken": "one eight",
    "value": 18
  },
  "time": {
    "dt": "2024-06-30T18:53:00Z",
    "repr": "301853Z"
  },
  "units": {
    "accumulation": "in",
    "altimeter": "inHg",
    "altitude": "ft",
    "temperature": "C",
    "visibility": "sm",
    "wind_speed": "kt"
  },
  "visibility": {
    "repr": "10",
    "spoken": "one zero",
    "value": 10
  },
  "wind_direction": {
    "repr": "VRB",
    "spoken": "variable",
    "value": null
  },
  "wind_gust": null,
  "wind_speed": {
    "repr": "04",
    "spoken": "four",
    "value": 4
  },
  "wind_variable_direction": [],
  "wx_codes": []
}
