{
  "meta": {
    "timestamp": "2023-10-28T05:24:27.946561Z",
    "stations_updated": "2023-10-01",
    "cache-timestamp": "2023-10-28T05:24:02.650000Z"
  },
  "altimeter": {
    "repr": "A3048",
    "value": 30.48,
    "spoken": "three zero point four eight"
  },
  "clouds": [],
  "flight_rules": "VFR",
  "other": [],
  "visibility": {
    "repr": "10",
    "value": 10,
    "spoken": "one zero"
  },
  "wind_direction": {
    "repr": "010",
    "value": 10,
    "spoken": "zero one zero"
  },
  "wind_gust": null,
  "wind_speed": {
    "repr": "07",
    "value": 7,
    "spoken": "seven"
  },
  "wx_codes": [],
  "raw": "KNUW 280453Z 01007KT 10SM CLR 03/M03 A3048 RMK AO2 SLP324 T00281028 $",
  "sanitized": "KNUW 280453Z 01007KT 10SM 03/M03 A3048 RMK AO2 SLP324 T00281028 $",
  "station": "KNUW",
  "time": {
    "repr": "280453Z",
    "dt": "2023-10-28T04:53:00Z"
  },
  "remarks": "RMK AO2 SLP324 T00281028 $",
  "dewpoint": {
    "repr": "M03",
    "value": -3,
    "spoken": "minus three"
  },
  "relative_humidity": 0.6660254093004747,
  "remarks_info": {
    "maximum_temperature_6": null,
    "minimum_temperature_6": null,
    "pressure_tendency": null,
    "precip_36_hours": null,
    "precip_24_hours": null,
    "sunshine_minutes": null,
    "codes": [
      {
        "repr": "$",
        "value": "ASOS requires maintenance"
      },
      {
        "repr": "AO2",
        "value": "Automated with precipitation sensor"
      }
    ],
    "dewpoint_decimal": {
      "repr": "1028",
      "value": -2.8,
      "spoken": "minus two point eight"
    },
    "maximum_temperature_24": null,
    "minimum_temperature_24": null,
    "precip_hourly": null,
    "sea_level_pressure": {
      "repr": "SLP324",
      "value": 1032.4,
      "spoken": "one zero three two point four"
    },
    "snow_depth": null,
    "temperature_decimal": {
      "repr": "0028",
      "value": 2.8,
      "spoken": "two point eight"
    }
  },
  "runway_visibility": [],
  "temperature": {
    "repr": "03",
    "value": 3,
    "spoken": "three"
  },
  "wind_variable_direction": [],
  "density_altitude": -1966,
  "pressure_altitude": -513,
  "units": {
    "accumulation": "in",
    "altimeter": "inHg",
    "altitude": "ft",
    "temperature": "C",
    "visibility": "sm",
    "wind_speed": "kt"
  }
}
