{
  "meta": {
    "timestamp": "2023-03-21T07:40:52.876862Z",
    "stations_updated": "2023-03-11",
    "cache-timestamp": "2023-03-21T07:40:06.018000Z"
  },
  "altimeter": {
    "repr": "A2983",
    "value": 29.83,
    "spoken": "two nine point eight three"
  },
  "clouds": [
    {
      "repr": "FEW010",
      "type": "FEW",
      "altitude": 10,
      "modifier": null
    },
    {
      "repr": "OVC016",
      "type": "OVC",
      "altitude": 16,
      "modifier": null
    }
  ],
  "flight_rules": "MVFR",
  "other": [],
  "visibility": {
    "repr": "10",
    "value": 10,
    "spoken": "one zero"
  },
  "wind_direction": {
    "repr": "270",
    "value": 270,
    "spoken": "two seven zero"
  },
  "wind_gust": null,
  "wind_speed": {
    "repr": "05",
    "value": 5,
    "spoken": "five"
  },
  "wx_codes": [],
  "raw": "KNUW 210653Z 27005KT 10SM FEW010 OVC016 08/07 A2983 RMK AO2 SLP103 T00830067 VISNO $",
  "sanitized": "KNUW 210653Z 27005KT 10SM FEW010 OVC016 08/07 A2983 RMK AO2 SLP103 T00830067 VISNO $",
  "station": "KNUW",
  "time": {
    "repr": "210653Z",
    "dt": "2023-03-21T06:53:00Z"
  },
  "remarks": "RMK AO2 SLP103 T00830067 VISNO $",
  "dewpoint": {
    "repr": "07",
    "value": 7,
    "spoken": "seven"
  },
  "relative_humidity": 0.8964857337002037,
  "remarks_info": {
    "maximum_temperature_6": null,
    "minimum_temperature_6": null,
    "pressure_tendency": null,
    "precip_36_hours": null,
    "precip_24_hours": null,
    "sunshine_minutes": null,
    "codes": [
      {
        "repr": "$",
        "value": "ASOS requires maintenance"
      },
      {
        "repr": "AO2",
        "value": "Automated with precipitation sensor"
      }
    ],
    "dewpoint_decimal": {
      "repr": "0067",
      "value": 6.7,
      "spoken": "six point seven"
    },
    "maximum_temperature_24": null,
    "minimum_temperature_24": null,
    "precip_hourly": null,
    "sea_level_pressure": {
      "repr": "SLP103",
      "value": 1010.3,
      "spoken": "one zero one zero point three"
    },
    "snow_depth": null,
    "temperature_decimal": {
      "repr": "0083",
      "value": 8.3,
      "spoken": "eight point three"
    }
  },
  "runway_visibility": [],
  "temperature": {
    "repr": "08",
    "value": 8,
    "spoken": "eight"
  },
  "wind_variable_direction": [],
  "density_altitude": -656,
  "pressure_altitude": 137,
  "units": {
    "accumulation": "in",
    "altimeter": "inHg",
    "altitude": "ft",
    "temperature": "C",
    "visibility": "sm",
    "wind_speed": "kt"
  }
}
