{
  "meta": {
    "timestamp": "2022-08-12T00:30:31.109405Z",
    "stations_updated": "2022-07-17"
  },
  "altimeter": {
    "repr": "A3007",
    "value": 30.07,
    "spoken": "three zero point zero seven"
  },
  "clouds": [
    {
      "repr": "FEW025",
      "type": "FEW",
      "altitude": 25,
      "modifier": null
    },
    {
      "repr": "FEW065",
      "type": "FEW",
      "altitude": 65,
      "modifier": null
    }
  ],
  "flight_rules": "VFR",
  "other": [],
  "visibility": {
    "repr": "10",
    "value": 10,
    "spoken": "one zero"
  },
  "wind_direction": {
    "repr": "260",
    "value": 260,
    "spoken": "two six zero"
  },
  "wind_gust": null,
  "wind_speed": {
    "repr": "08",
    "value": 8,
    "spoken": "eight"
  },
  "wx_codes": [],
  "raw": "KNUW 112353Z 26008KT 10SM FEW025 FEW065 19/14 A3007 RMK SLP182 T01890139 10222 20183 56017",
  "sanitized": "KNUW 112353Z 26008KT 10SM FEW025 FEW065 19/14 A3007 RMK SLP182 T01890139 10222 20183 56017",
  "station": "KNUW",
  "time": {
    "repr": "112353Z",
    "dt": "2022-08-11T23:53:00Z"
  },
  "remarks": "RMK SLP182 T01890139 10222 20183 56017",
  "dewpoint": {
    "repr": "14",
    "value": 14,
    "spoken": "one four"
  },
  "relative_humidity": 0.7272264325753433,
  "remarks_info": {
    "maximum_temperature_6": {
      "repr": "10222",
      "value": 22.2,
      "spoken": "two two point two"
    },
    "minimum_temperature_6": {
      "repr": "20183",
      "value": 18.3,
      "spoken": "one eight point three"
    },
    "pressure_tendency": {
      "repr": "56017",
      "tendency": "Decreasing, then steady",
      "change": 1.7
    },
    "precip_36_hours": null,
    "precip_24_hours": null,
    "sunshine_minutes": null,
    "codes": [],
    "dewpoint_decimal": {
      "repr": "0139",
      "value": 13.9,
      "spoken": "one three point nine"
    },
    "maximum_temperature_24": null,
    "minimum_temperature_24": null,
    "precip_hourly": null,
    "sea_level_pressure": {
      "repr": "SLP182",
      "value": 1018.2,
      "spoken": "one zero one eight point two"
    },
    "snow_depth": null,
    "temperature_decimal": {
      "repr": "0189",
      "value": 18.9,
      "spoken": "one eight point nine"
    }
  },
  "runway_visibility": [],
  "temperature": {
    "repr": "19",
    "value": 19,
    "spoken": "one nine"
  },
  "wind_variable_direction": [],
  "density_altitude": 376,
  "pressure_altitude": -103,
  "units": {
    "accumulation": "in",
    "altimeter": "inHg",
    "altitude": "ft",
    "temperature": "C",
    "visibility": "sm",
    "wind_speed": "kt"
  }
}
