{
  "meta": {
    "timestamp": "2023-01-12T08:07:21.760898Z",
    "stations_updated": "2022-12-27"
  },
  "altimeter": {
    "repr": "A2986",
    "value": 29.86,
    "spoken": "two nine point eight six"
  },
  "clouds": [
    {
      "repr": "SCT025",
      "type": "SCT",
      "altitude": 25,
      "modifier": null
    },
    {
      "repr": "OVC055",
      "type": "OVC",
      "altitude": 55,
      "modifier": null
    }
  ],
  "flight_rules": "VFR",
  "other": [],
  "visibility": {
    "repr": "10",
    "value": 10,
    "spoken": "one zero"
  },
  "wind_direction": {
    "repr": "150",
    "value": 150,
    "spoken": "one five zero"
  },
  "wind_gust": null,
  "wind_speed": {
    "repr": "12",
    "value": 12,
    "spoken": "one two"
  },
  "wx_codes": [],
  "raw": "KNUW 120753Z 15012KT 10SM SCT025 OVC055 08/04 A2986 RMK AO2 RAE32 SLP110 P0002 T00830044 401390039 VISNO $",
  "sanitized": "KNUW 120753Z 15012KT 10SM SCT025 OVC055 08/04 A2986 RMK AO2 RAE32 SLP110 P0002 T00830044 401390039 VISNO $",
  "station": "KNUW",
  "time": {
    "repr": "120753Z",
    "dt": "2023-01-12T07:53:00Z"
  },
  "remarks": "RMK AO2 RAE32 SLP110 P0002 T00830044 401390039 VISNO $",
  "dewpoint": {
    "repr": "04",
    "value": 4,
    "spoken": "four"
  },
  "relative_humidity": 0.7642778368365473,
  "remarks_info": {
    "maximum_temperature_6": null,
    "minimum_temperature_6": null,
    "pressure_tendency": null,
    "precip_36_hours": null,
    "precip_24_hours": null,
    "sunshine_minutes": null,
    "codes": [
      {
        "repr": "$",
        "value": "ASOS requires maintenance"
      },
      {
        "repr": "AO2",
        "value": "Automated with precipitation sensor"
      },
      {
        "repr": "RAE32",
        "value": "Rain ended at :32"
      }
    ],
    "dewpoint_decimal": {
      "repr": "0044",
      "value": 4.4,
      "spoken": "four point four"
    },
    "maximum_temperature_24": {
      "repr": "0139",
      "value": 13.9,
      "spoken": "one three point nine"
    },
    "minimum_temperature_24": {
      "repr": "0039",
      "value": 3.9,
      "spoken": "three point nine"
    },
    "precip_hourly": {
      "repr": "P0002",
      "value": 0.02,
      "spoken": "zero point zero two"
    },
    "sea_level_pressure": {
      "repr": "SLP110",
      "value": 1011,
      "spoken": "one zero one one point zero"
    },
    "snow_depth": null,
    "temperature_decimal": {
      "repr": "0083",
      "value": 8.3,
      "spoken": "eight point three"
    }
  },
  "runway_visibility": [],
  "temperature": {
    "repr": "08",
    "value": 8,
    "spoken": "eight"
  },
  "wind_variable_direction": [],
  "density_altitude": -686,
  "pressure_altitude": 107,
  "units": {
    "accumulation": "in",
    "altimeter": "inHg",
    "altitude": "ft",
    "temperature": "C",
    "visibility": "sm",
    "wind_speed": "kt"
  }
}
