{
  "meta": {
    "timestamp": "2022-12-23T23:02:06.341992Z",
    "stations_updated": "2022-09-05"
  },
  "altimeter": {
    "repr": "A3005",
    "value": 30.05,
    "spoken": "three zero point zero five"
  },
  "clouds": [
    {
      "repr": "SCT010",
      "type": "SCT",
      "altitude": 10,
      "modifier": null
    },
    {
      "repr": "OVC015",
      "type": "OVC",
      "altitude": 15,
      "modifier": null
    }
  ],
  "flight_rules": "MVFR",
  "other": [],
  "visibility": {
    "repr": "10",
    "value": 10,
    "spoken": "one zero"
  },
  "wind_direction": {
    "repr": "140",
    "value": 140,
    "spoken": "one four zero"
  },
  "wind_gust": null,
  "wind_speed": {
    "repr": "04",
    "value": 4,
    "spoken": "four"
  },
  "wx_codes": [
    {
      "repr": "-RA",
      "value": "Light Rain"
    }
  ],
  "raw": "KNUW 232253Z 14004KT 10SM -RA SCT010 OVC015 02/01 A3005 RMK AO2 SLP176 P0006 T00220006 VISNO $",
  "sanitized": "KNUW 232253Z 14004KT 10SM -RA SCT010 OVC015 02/01 A3005 RMK AO2 SLP176 P0006 T00220006 VISNO $",
  "station": "KNUW",
  "time": {
    "repr": "232253Z",
    "dt": "2022-12-23T22:53:00Z"
  },
  "remarks": "RMK AO2 SLP176 P0006 T00220006 VISNO $",
  "dewpoint": {
    "repr": "01",
    "value": 1,
    "spoken": "one"
  },
  "relative_humidity": 0.8915584154150683,
  "remarks_info": {
    "maximum_temperature_6": null,
    "minimum_temperature_6": null,
    "pressure_tendency": null,
    "precip_36_hours": null,
    "precip_24_hours": null,
    "sunshine_minutes": null,
    "codes": [
      {
        "repr": "$",
        "value": "ASOS requires maintenance"
      },
      {
        "repr": "AO2",
        "value": "Automated with precipitation sensor"
      }
    ],
    "dewpoint_decimal": {
      "repr": "0006",
      "value": 0.6,
      "spoken": "zero point six"
    },
    "maximum_temperature_24": null,
    "minimum_temperature_24": null,
    "precip_hourly": {
      "repr": "P0006",
      "value": 0.06,
      "spoken": "zero point zero six"
    },
    "sea_level_pressure": {
      "repr": "SLP176",
      "value": 1017.6,
      "spoken": "one zero one seven point six"
    },
    "snow_depth": null,
    "temperature_decimal": {
      "repr": "0022",
      "value": 2.2,
      "spoken": "two point two"
    }
  },
  "runway_visibility": [],
  "temperature": {
    "repr": "02",
    "value": 2,
    "spoken": "two"
  },
  "wind_variable_direction": [],
  "density_altitude": -1608,
  "pressure_altitude": -83,
  "units": {
    "accumulation": "in",
    "altimeter": "inHg",
    "altitude": "ft",
    "temperature": "C",
    "visibility": "sm",
    "wind_speed": "kt"
  }
}
