{
  "altimeter": {
    "repr": "A3019",
    "spoken": "three zero point one nine",
    "value": 30.19
  },
  "clouds": [
    {
      "altitude": 6,
      "modifier": null,
      "repr": "BKN006",
      "type": "BKN"
    },
    {
      "altitude": 20,
      "modifier": null,
      "repr": "OVC020",
      "type": "OVC"
    }
  ],
  "density_altitude": -740,
  "dewpoint": {
    "repr": "09",
    "spoken": "nine",
    "value": 9
  },
  "flight_rules": "IFR",
  "meta": {
    "stations_updated": "2024-05-13",
    "timestamp": "2024-05-15T18:29:11.902174Z"
  },
  "other": [],
  "pressure_altitude": -223,
  "raw": "KNUW 151653Z 24010KT 2SM BR BKN006 OVC020 11/09 A3019 RMK SFC VIS 5 SLP227 T01060094",
  "relative_humidity": 0.9227971730278188,
  "remarks": "RMK SFC VIS 5 SLP227 T01060094",
  "remarks_info": {
    "codes": [],
    "dewpoint_decimal": {
      "repr": "0094",
      "spoken": "nine point four",
      "value": 9.4
    },
    "maximum_temperature_24": null,
    "maximum_temperature_6": null,
    "minimum_temperature_24": null,
    "minimum_temperature_6": null,
    "precip_24_hours": null,
    "precip_36_hours": null,
    "precip_hourly": null,
    "pressure_tendency": null,
    "sea_level_pressure": {
      "repr": "SLP227",
      "spoken": "one zero two two point seven",
      "value": 1022.7
    },
    "snow_depth": null,
    "sunshine_minutes": null,
    "temperature_decimal": {
      "repr": "0106",
      "spoken": "one zero point six",
      "value": 10.6
    }
  },
  "runway_visibility": [],
  "sanitized": "KNUW 151653Z 24010KT 2SM BR BKN006 OVC020 11/09 A3019 RMK SFC VIS 5 SLP227 T01060094",
  "station": "KNUW",
  "temperature": {
    "repr": "11",
    "spoken": "one one",
    "value": 11
  },
  "time": {
    "dt": "2024-05-15T16:53:00Z",
    "repr": "151653Z"
  },
  "units": {
    "accumulation": "in",
    "altimeter": "inHg",
    "altitude": "ft",
    "temperature": "C",
    "visibility": "sm",
    "wind_speed": "kt"
  },
  "visibility": {
    "repr": "2",
    "spoken": "two",
    "value": 2
  },
  "wind_direction": {
    "repr": "240",
    "spoken": "two four zero",
    "value": 240
  },
  "wind_gust": null,
  "wind_speed": {
    "repr": "10",
    "spoken": "one zero",
    "value": 10
  },
  "wind_variable_direction": [],
  "wx_codes": [
    {
      "repr": "BR",
      "value": "Mist"
    }
  ]
}
