{
  "meta": {
    "timestamp": "2022-09-20T13:11:04.567551Z",
    "stations_updated": "2022-09-05"
  },
  "altimeter": {
    "repr": "A3001",
    "value": 30.01,
    "spoken": "three zero point zero one"
  },
  "clouds": [
    {
      "repr": "FEW035",
      "type": "FEW",
      "altitude": 35,
      "modifier": null
    }
  ],
  "flight_rules": "VFR",
  "other": [],
  "visibility": {
    "repr": "10",
    "value": 10,
    "spoken": "one zero"
  },
  "wind_direction": {
    "repr": "000",
    "value": 0,
    "spoken": "zero zero zero"
  },
  "wind_gust": null,
  "wind_speed": {
    "repr": "00",
    "value": 0,
    "spoken": "zero"
  },
  "wx_codes": [
    {
      "repr": "MIFG",
      "value": "Shallow Fog"
    }
  ],
  "raw": "KNUW 201253Z 00000KT 10SM MIFG FEW035 07/06 A3001 RMK AO2 SLP163 FU FEW035 T00720061 $",
  "sanitized": "KNUW 201253Z 00000KT 10SM MIFG FEW035 07/06 A3001 RMK AO2 SLP163 FU FEW035 T00720061 $",
  "station": "KNUW",
  "time": {
    "repr": "201253Z",
    "dt": "2022-09-20T12:53:00Z"
  },
  "remarks": "RMK AO2 SLP163 FU FEW035 T00720061 $",
  "dewpoint": {
    "repr": "06",
    "value": 6,
    "spoken": "six"
  },
  "relative_humidity": 0.9271535108565763,
  "remarks_info": {
    "maximum_temperature_6": null,
    "minimum_temperature_6": null,
    "pressure_tendency": null,
    "precip_36_hours": null,
    "precip_24_hours": null,
    "sunshine_minutes": null,
    "codes": [
      {
        "repr": "$",
        "value": "ASOS requires maintenance"
      },
      {
        "repr": "AO2",
        "value": "Automated with precipitation sensor"
      }
    ],
    "dewpoint_decimal": {
      "repr": "0061",
      "value": 6.1,
      "spoken": "six point one"
    },
    "maximum_temperature_24": null,
    "minimum_temperature_24": null,
    "precip_hourly": null,
    "sea_level_pressure": {
      "repr": "SLP163",
      "value": 1016.3,
      "spoken": "one zero one six point three"
    },
    "snow_depth": null,
    "temperature_decimal": {
      "repr": "0072",
      "value": 7.2,
      "spoken": "seven point two"
    }
  },
  "runway_visibility": [],
  "temperature": {
    "repr": "07",
    "value": 7,
    "spoken": "seven"
  },
  "wind_variable_direction": [],
  "density_altitude": -968,
  "pressure_altitude": -43,
  "units": {
    "accumulation": "in",
    "altimeter": "inHg",
    "altitude": "ft",
    "temperature": "C",
    "visibility": "sm",
    "wind_speed": "kt"
  }
}
