{
  "altimeter": {
    "repr": "A2989",
    "spoken": "two nine point eight nine",
    "value": 29.89
  },
  "clouds": [
    {
      "altitude": 90,
      "modifier": null,
      "repr": "FEW090",
      "type": "FEW"
    },
    {
      "altitude": 110,
      "modifier": null,
      "repr": "BKN110",
      "type": "BKN"
    },
    {
      "altitude": 150,
      "modifier": null,
      "repr": "BKN150",
      "type": "BKN"
    }
  ],
  "density_altitude": 688,
  "dewpoint": {
    "repr": "M01",
    "spoken": "minus one",
    "value": -1
  },
  "flight_rules": "VFR",
  "meta": {
    "stations_updated": "2024-01-01",
    "timestamp": "2024-04-20T22:25:54.646911Z"
  },
  "other": [],
  "pressure_altitude": 77,
  "raw": "KNUW 202153Z 17019KT 10SM FEW090 BKN110 BKN150 20/M01 A2989 RMK AO2 PK WND 17033/2111 SLP125 T02001006 $",
  "relative_humidity": 0.25036784508739585,
  "remarks": "RMK AO2 PK WND 17033/2111 SLP125 T02001006 $",
  "remarks_info": {
    "codes": [
      {
        "repr": "$",
        "value": "ASOS requires maintenance"
      },
      {
        "repr": "AO2",
        "value": "Automated with precipitation sensor"
      }
    ],
    "dewpoint_decimal": {
      "repr": "1006",
      "spoken": "minus zero point six",
      "value": -0.6
    },
    "maximum_temperature_24": null,
    "maximum_temperature_6": null,
    "minimum_temperature_24": null,
    "minimum_temperature_6": null,
    "precip_24_hours": null,
    "precip_36_hours": null,
    "precip_hourly": null,
    "pressure_tendency": null,
    "sea_level_pressure": {
      "repr": "SLP125",
      "spoken": "one zero one two point five",
      "value": 1012.5
    },
    "snow_depth": null,
    "sunshine_minutes": null,
    "temperature_decimal": {
      "repr": "0200",
      "spoken": "two zero point zero",
      "value": 20
    }
  },
  "runway_visibility": [],
  "sanitized": "KNUW 202153Z 17019KT 10SM FEW090 BKN110 BKN150 20/M01 A2989 RMK AO2 PK WND 17033/2111 SLP125 T02001006 $",
  "station": "KNUW",
  "temperature": {
    "repr": "20",
    "spoken": "two zero",
    "value": 20
  },
  "time": {
    "dt": "2024-04-20T21:53:00Z",
    "repr": "202153Z"
  },
  "units": {
    "accumulation": "in",
    "altimeter": "inHg",
    "altitude": "ft",
    "temperature": "C",
    "visibility": "sm",
    "wind_speed": "kt"
  },
  "visibility": {
    "repr": "10",
    "spoken": "one zero",
    "value": 10
  },
  "wind_direction": {
    "repr": "170",
    "spoken": "one seven zero",
    "value": 170
  },
  "wind_gust": null,
  "wind_speed": {
    "repr": "19",
    "spoken": "one nine",
    "value": 19
  },
  "wind_variable_direction": [],
  "wx_codes": []
}
