{
  "meta": {
    "timestamp": "2023-05-22T18:40:33.708160Z",
    "stations_updated": "2023-03-11",
    "cache-timestamp": "2023-05-22T18:40:06.112000Z"
  },
  "altimeter": {
    "repr": "A3017",
    "value": 30.17,
    "spoken": "three zero point one seven"
  },
  "clouds": [
    {
      "repr": "BKN020",
      "type": "BKN",
      "altitude": 20,
      "modifier": null
    },
    {
      "repr": "OVC043",
      "type": "OVC",
      "altitude": 43,
      "modifier": null
    }
  ],
  "flight_rules": "MVFR",
  "other": [],
  "visibility": {
    "repr": "10",
    "value": 10,
    "spoken": "one zero"
  },
  "wind_direction": {
    "repr": "240",
    "value": 240,
    "spoken": "two four zero"
  },
  "wind_gust": null,
  "wind_speed": {
    "repr": "05",
    "value": 5,
    "spoken": "five"
  },
  "wx_codes": [],
  "raw": "KNUW 221753Z 24005KT 10SM BKN020 OVC043 12/09 A3017 RMK AO2 SLP220 60005 T01220089 10122 20100 51000 $",
  "sanitized": "KNUW 221753Z 24005KT 10SM BKN020 OVC043 12/09 A3017 RMK AO2 SLP220 60005 T01220089 10122 20100 51000 $",
  "station": "KNUW",
  "time": {
    "repr": "221753Z",
    "dt": "2023-05-22T17:53:00Z"
  },
  "remarks": "RMK AO2 SLP220 60005 T01220089 10122 20100 51000 $",
  "dewpoint": {
    "repr": "09",
    "value": 9,
    "spoken": "nine"
  },
  "relative_humidity": 0.8025160760123711,
  "remarks_info": {
    "maximum_temperature_6": {
      "repr": "10122",
      "value": 12.2,
      "spoken": "one two point two"
    },
    "minimum_temperature_6": {
      "repr": "20100",
      "value": 10,
      "spoken": "one zero point zero"
    },
    "pressure_tendency": {
      "repr": "51000",
      "tendency": "Increasing, then steady",
      "change": 0
    },
    "precip_36_hours": {
      "repr": "60005",
      "value": 0.05,
      "spoken": "zero point zero five"
    },
    "precip_24_hours": null,
    "sunshine_minutes": null,
    "codes": [
      {
        "repr": "$",
        "value": "ASOS requires maintenance"
      },
      {
        "repr": "AO2",
        "value": "Automated with precipitation sensor"
      }
    ],
    "dewpoint_decimal": {
      "repr": "0089",
      "value": 8.9,
      "spoken": "eight point nine"
    },
    "maximum_temperature_24": null,
    "minimum_temperature_24": null,
    "precip_hourly": null,
    "sea_level_pressure": {
      "repr": "SLP220",
      "value": 1022,
      "spoken": "one zero two two point zero"
    },
    "snow_depth": null,
    "temperature_decimal": {
      "repr": "0122",
      "value": 12.2,
      "spoken": "one two point two"
    }
  },
  "runway_visibility": [],
  "temperature": {
    "repr": "12",
    "value": 12,
    "spoken": "one two"
  },
  "wind_variable_direction": [],
  "density_altitude": -528,
  "pressure_altitude": -203,
  "units": {
    "accumulation": "in",
    "altimeter": "inHg",
    "altitude": "ft",
    "temperature": "C",
    "visibility": "sm",
    "wind_speed": "kt"
  }
}
