{
  "meta": {
    "timestamp": "2022-12-10T03:28:13.941364Z",
    "stations_updated": "2022-09-05"
  },
  "altimeter": {
    "repr": "A2949",
    "value": 29.49,
    "spoken": "two nine point four nine"
  },
  "clouds": [
    {
      "repr": "BKN034",
      "type": "BKN",
      "altitude": 34,
      "modifier": null
    },
    {
      "repr": "OVC050",
      "type": "OVC",
      "altitude": 50,
      "modifier": null
    }
  ],
  "flight_rules": "VFR",
  "other": [],
  "visibility": {
    "repr": "10",
    "value": 10,
    "spoken": "one zero"
  },
  "wind_direction": {
    "repr": "130",
    "value": 130,
    "spoken": "one three zero"
  },
  "wind_gust": {
    "repr": "28",
    "value": 28,
    "spoken": "two eight"
  },
  "wind_speed": {
    "repr": "17",
    "value": 17,
    "spoken": "one seven"
  },
  "wx_codes": [
    {
      "repr": "-RA",
      "value": "Light Rain"
    }
  ],
  "raw": "KNUW 100253Z 13017G28KT 10SM -RA BKN034 OVC050 06/01 A2949 RMK AO2 PK WND 13030/0235 SLP986 P0000 60000 T00610011 56052 VISNO $",
  "sanitized": "KNUW 100253Z 13017G28KT 10SM -RA BKN034 OVC050 06/01 A2949 RMK AO2 PK WND 13030/0235 SLP986 P0000 60000 T00610011 56052 VISNO $",
  "station": "KNUW",
  "time": {
    "repr": "100253Z",
    "dt": "2022-12-10T02:53:00Z"
  },
  "remarks": "RMK AO2 PK WND 13030/0235 SLP986 P0000 60000 T00610011 56052 VISNO $",
  "dewpoint": {
    "repr": "01",
    "value": 1,
    "spoken": "one"
  },
  "relative_humidity": 0.7030167854424878,
  "remarks_info": {
    "maximum_temperature_6": null,
    "minimum_temperature_6": null,
    "pressure_tendency": {
      "repr": "56052",
      "tendency": "Decreasing, then steady",
      "change": 5.2
    },
    "precip_36_hours": {
      "repr": "60000",
      "value": 0,
      "spoken": "zero"
    },
    "precip_24_hours": null,
    "sunshine_minutes": null,
    "codes": [
      {
        "repr": "$",
        "value": "ASOS requires maintenance"
      },
      {
        "repr": "AO2",
        "value": "Automated with precipitation sensor"
      },
      {
        "repr": "P0000",
        "value": "Trace amount of rain in the last hour"
      }
    ],
    "dewpoint_decimal": {
      "repr": "0011",
      "value": 1.1,
      "spoken": "one point one"
    },
    "maximum_temperature_24": null,
    "minimum_temperature_24": null,
    "precip_hourly": null,
    "sea_level_pressure": {
      "repr": "SLP986",
      "value": 998.6,
      "spoken": "nine nine eight point six"
    },
    "snow_depth": null,
    "temperature_decimal": {
      "repr": "0061",
      "value": 6.1,
      "spoken": "six point one"
    }
  },
  "runway_visibility": [],
  "temperature": {
    "repr": "06",
    "value": 6,
    "spoken": "six"
  },
  "wind_variable_direction": [],
  "density_altitude": -580,
  "pressure_altitude": 477,
  "units": {
    "accumulation": "in",
    "altimeter": "inHg",
    "altitude": "ft",
    "temperature": "C",
    "visibility": "sm",
    "wind_speed": "kt"
  }
}
