{
  "meta": {
    "timestamp": "2023-10-11T11:40:38.796340Z",
    "stations_updated": "2023-10-01",
    "cache-timestamp": "2023-10-11T11:40:02.812000Z"
  },
  "altimeter": {
    "repr": "A2948",
    "value": 29.48,
    "spoken": "two nine point four eight"
  },
  "clouds": [
    {
      "repr": "FEW025",
      "type": "FEW",
      "altitude": 25,
      "modifier": null
    },
    {
      "repr": "SCT050",
      "type": "SCT",
      "altitude": 50,
      "modifier": null
    },
    {
      "repr": "BKN096",
      "type": "BKN",
      "altitude": 96,
      "modifier": null
    }
  ],
  "flight_rules": "VFR",
  "other": [],
  "visibility": {
    "repr": "10",
    "value": 10,
    "spoken": "one zero"
  },
  "wind_direction": {
    "repr": "140",
    "value": 140,
    "spoken": "one four zero"
  },
  "wind_gust": {
    "repr": "28",
    "value": 28,
    "spoken": "two eight"
  },
  "wind_speed": {
    "repr": "21",
    "value": 21,
    "spoken": "two one"
  },
  "wx_codes": [],
  "raw": "KNUW 111053Z 14021G28KT 10SM FEW025 SCT050 BKN096 13/08 A2948 RMK AO2 PK WND 14042/1014 RAB0958E03 SLP988 P0000 T01280083",
  "sanitized": "KNUW 111053Z 14021G28KT 10SM FEW025 SCT050 BKN096 13/08 A2948 RMK AO2 PK WND 14042/1014 RAB0958E03 SLP988 P0000 T01280083",
  "station": "KNUW",
  "time": {
    "repr": "111053Z",
    "dt": "2023-10-11T10:53:00Z"
  },
  "remarks": "RMK AO2 PK WND 14042/1014 RAB0958E03 SLP988 P0000 T01280083",
  "dewpoint": {
    "repr": "08",
    "value": 8,
    "spoken": "eight"
  },
  "relative_humidity": 0.740806735944831,
  "remarks_info": {
    "maximum_temperature_6": null,
    "minimum_temperature_6": null,
    "pressure_tendency": null,
    "precip_36_hours": null,
    "precip_24_hours": null,
    "sunshine_minutes": null,
    "codes": [
      {
        "repr": "AO2",
        "value": "Automated with precipitation sensor"
      },
      {
        "repr": "P0000",
        "value": "Trace amount of rain in the last hour"
      }
    ],
    "dewpoint_decimal": {
      "repr": "0083",
      "value": 8.3,
      "spoken": "eight point three"
    },
    "maximum_temperature_24": null,
    "minimum_temperature_24": null,
    "precip_hourly": null,
    "sea_level_pressure": {
      "repr": "SLP988",
      "value": 998.8,
      "spoken": "nine nine eight point eight"
    },
    "snow_depth": null,
    "temperature_decimal": {
      "repr": "0128",
      "value": 12.8,
      "spoken": "one two point eight"
    }
  },
  "runway_visibility": [],
  "temperature": {
    "repr": "13",
    "value": 13,
    "spoken": "one three"
  },
  "wind_variable_direction": [],
  "density_altitude": 234,
  "pressure_altitude": 487,
  "units": {
    "accumulation": "in",
    "altimeter": "inHg",
    "altitude": "ft",
    "temperature": "C",
    "visibility": "sm",
    "wind_speed": "kt"
  }
}
