{
  "meta": {
    "timestamp": "2022-12-27T04:42:27.667063Z",
    "stations_updated": "2022-09-05"
  },
  "altimeter": {
    "repr": "A2935",
    "value": 29.35,
    "spoken": "two nine point three five"
  },
  "clouds": [
    {
      "repr": "OVC070",
      "type": "OVC",
      "altitude": 70,
      "modifier": null
    }
  ],
  "flight_rules": "VFR",
  "other": [],
  "visibility": {
    "repr": "7",
    "value": 7,
    "spoken": "seven"
  },
  "wind_direction": {
    "repr": "070",
    "value": 70,
    "spoken": "zero seven zero"
  },
  "wind_gust": null,
  "wind_speed": {
    "repr": "09",
    "value": 9,
    "spoken": "nine"
  },
  "wx_codes": [
    {
      "repr": "RA",
      "value": "Rain"
    }
  ],
  "raw": "KNUW 270353Z AUTO 07009KT 7SM RA OVC070 08/06 A2935 RMK AO2 PRESFR SLP938 P0007 T00780061 VISNO $",
  "sanitized": "KNUW 270353Z 07009KT 7SM RA OVC070 08/06 A2935 RMK AO2 PRESFR SLP938 P0007 T00780061 VISNO $",
  "station": "KNUW",
  "time": {
    "repr": "270353Z",
    "dt": "2022-12-27T03:53:00Z"
  },
  "remarks": "RMK AO2 PRESFR SLP938 P0007 T00780061 VISNO $",
  "dewpoint": {
    "repr": "06",
    "value": 6,
    "spoken": "six"
  },
  "relative_humidity": 0.8899294340036578,
  "remarks_info": {
    "maximum_temperature_6": null,
    "minimum_temperature_6": null,
    "pressure_tendency": null,
    "precip_36_hours": null,
    "precip_24_hours": null,
    "sunshine_minutes": null,
    "codes": [
      {
        "repr": "$",
        "value": "ASOS requires maintenance"
      },
      {
        "repr": "AO2",
        "value": "Automated with precipitation sensor"
      },
      {
        "repr": "PRESFR",
        "value": "Pressure Falling Rapidly"
      }
    ],
    "dewpoint_decimal": {
      "repr": "0061",
      "value": 6.1,
      "spoken": "six point one"
    },
    "maximum_temperature_24": null,
    "minimum_temperature_24": null,
    "precip_hourly": {
      "repr": "P0007",
      "value": 0.07,
      "spoken": "zero point zero seven"
    },
    "sea_level_pressure": {
      "repr": "SLP938",
      "value": 993.8,
      "spoken": "nine nine three point eight"
    },
    "snow_depth": null,
    "temperature_decimal": {
      "repr": "0078",
      "value": 7.8,
      "spoken": "seven point eight"
    }
  },
  "runway_visibility": [],
  "temperature": {
    "repr": "08",
    "value": 8,
    "spoken": "eight"
  },
  "wind_variable_direction": [],
  "density_altitude": -236,
  "pressure_altitude": 617,
  "units": {
    "accumulation": "in",
    "altimeter": "inHg",
    "altitude": "ft",
    "temperature": "C",
    "visibility": "sm",
    "wind_speed": "kt"
  }
}
