{
  "altimeter": {
    "repr": "A3005",
    "spoken": "three zero point zero five",
    "value": 30.05
  },
  "clouds": [
    {
      "altitude": 150,
      "modifier": null,
      "repr": "FEW150",
      "type": "FEW"
    },
    {
      "altitude": 250,
      "modifier": null,
      "repr": "SCT250",
      "type": "SCT"
    }
  ],
  "density_altitude": 192,
  "dewpoint": {
    "repr": "11",
    "spoken": "one one",
    "value": 11
  },
  "flight_rules": "VFR",
  "meta": {
    "cache-timestamp": "2024-05-10T23:40:06.458000Z",
    "stations_updated": "2024-01-01",
    "timestamp": "2024-05-10T23:40:32.475435Z"
  },
  "other": [],
  "pressure_altitude": -83,
  "raw": "KNUW 102253Z 27005KT 10SM FEW150 SCT250 17/11 A3005 RMK AO2 SLP180 T01720106 $",
  "relative_humidity": 0.6513679914344225,
  "remarks": "RMK AO2 SLP180 T01720106 $",
  "remarks_info": {
    "codes": [
      {
        "repr": "$",
        "value": "ASOS requires maintenance"
      },
      {
        "repr": "AO2",
        "value": "Automated with precipitation sensor"
      }
    ],
    "dewpoint_decimal": {
      "repr": "0106",
      "spoken": "one zero point six",
      "value": 10.6
    },
    "maximum_temperature_24": null,
    "maximum_temperature_6": null,
    "minimum_temperature_24": null,
    "minimum_temperature_6": null,
    "precip_24_hours": null,
    "precip_36_hours": null,
    "precip_hourly": null,
    "pressure_tendency": null,
    "sea_level_pressure": {
      "repr": "SLP180",
      "spoken": "one zero one eight point zero",
      "value": 1018
    },
    "snow_depth": null,
    "sunshine_minutes": null,
    "temperature_decimal": {
      "repr": "0172",
      "spoken": "one seven point two",
      "value": 17.2
    }
  },
  "runway_visibility": [],
  "sanitized": "KNUW 102253Z 27005KT 10SM FEW150 SCT250 17/11 A3005 RMK AO2 SLP180 T01720106 $",
  "station": "KNUW",
  "temperature": {
    "repr": "17",
    "spoken": "one seven",
    "value": 17
  },
  "time": {
    "dt": "2024-05-10T22:53:00Z",
    "repr": "102253Z"
  },
  "units": {
    "accumulation": "in",
    "altimeter": "inHg",
    "altitude": "ft",
    "temperature": "C",
    "visibility": "sm",
    "wind_speed": "kt"
  },
  "visibility": {
    "repr": "10",
    "spoken": "one zero",
    "value": 10
  },
  "wind_direction": {
    "repr": "270",
    "spoken": "two seven zero",
    "value": 270
  },
  "wind_gust": null,
  "wind_speed": {
    "repr": "05",
    "spoken": "five",
    "value": 5
  },
  "wind_variable_direction": [],
  "wx_codes": []
}
