{
  "meta": {
    "timestamp": "2022-12-31T03:40:38.792240Z",
    "stations_updated": "2022-12-27",
    "cache-timestamp": "2022-12-31T03:40:06.124000Z"
  },
  "altimeter": {
    "repr": "A2954",
    "value": 29.54,
    "spoken": "two nine point five four"
  },
  "clouds": [
    {
      "repr": "SCT023",
      "type": "SCT",
      "altitude": 23,
      "modifier": null
    },
    {
      "repr": "OVC029",
      "type": "OVC",
      "altitude": 29,
      "modifier": null
    }
  ],
  "flight_rules": "MVFR",
  "other": [],
  "visibility": {
    "repr": "10",
    "value": 10,
    "spoken": "one zero"
  },
  "wind_direction": {
    "repr": "130",
    "value": 130,
    "spoken": "one three zero"
  },
  "wind_gust": null,
  "wind_speed": {
    "repr": "07",
    "value": 7,
    "spoken": "seven"
  },
  "wx_codes": [],
  "raw": "KNUW 310253Z 13007KT 10SM SCT023 OVC029 09/07 A2954 RMK AO2 SLP004 T00890067 53007 VISNO $",
  "sanitized": "KNUW 310253Z 13007KT 10SM SCT023 OVC029 09/07 A2954 RMK AO2 SLP004 T00890067 53007 VISNO $",
  "station": "KNUW",
  "time": {
    "repr": "310253Z",
    "dt": "2022-12-31T02:53:00Z"
  },
  "remarks": "RMK AO2 SLP004 T00890067 53007 VISNO $",
  "dewpoint": {
    "repr": "07",
    "value": 7,
    "spoken": "seven"
  },
  "relative_humidity": 0.8608000212004648,
  "remarks_info": {
    "maximum_temperature_6": null,
    "minimum_temperature_6": null,
    "pressure_tendency": {
      "repr": "53007",
      "tendency": "Decreasing or steady, then increasing",
      "change": 0.7
    },
    "precip_36_hours": null,
    "precip_24_hours": null,
    "sunshine_minutes": null,
    "codes": [
      {
        "repr": "$",
        "value": "ASOS requires maintenance"
      },
      {
        "repr": "AO2",
        "value": "Automated with precipitation sensor"
      }
    ],
    "dewpoint_decimal": {
      "repr": "0067",
      "value": 6.7,
      "spoken": "six point seven"
    },
    "maximum_temperature_24": null,
    "minimum_temperature_24": null,
    "precip_hourly": null,
    "sea_level_pressure": {
      "repr": "SLP004",
      "value": 1000.4,
      "spoken": "one zero zero zero point four"
    },
    "snow_depth": null,
    "temperature_decimal": {
      "repr": "0089",
      "value": 8.9,
      "spoken": "eight point nine"
    }
  },
  "runway_visibility": [],
  "temperature": {
    "repr": "09",
    "value": 9,
    "spoken": "nine"
  },
  "wind_variable_direction": [],
  "density_altitude": -294,
  "pressure_altitude": 427,
  "units": {
    "accumulation": "in",
    "altimeter": "inHg",
    "altitude": "ft",
    "temperature": "C",
    "visibility": "sm",
    "wind_speed": "kt"
  }
}
