{
  "altimeter": {
    "repr": "A3056",
    "spoken": "three zero point five six",
    "value": 30.56
  },
  "clouds": [
    {
      "altitude": 8,
      "modifier": null,
      "repr": "BKN008",
      "type": "BKN"
    },
    {
      "altitude": 13,
      "modifier": null,
      "repr": "OVC013",
      "type": "OVC"
    }
  ],
  "density_altitude": -1710,
  "dewpoint": {
    "repr": "04",
    "spoken": "four",
    "value": 4
  },
  "flight_rules": "IFR",
  "meta": {
    "stations_updated": "2024-12-02",
    "timestamp": "2025-01-07T08:33:05.559789Z"
  },
  "other": [],
  "pressure_altitude": -593,
  "raw": "KNUW 070753Z 00000KT 10SM BKN008 OVC013 06/04 A3056 RMK AO2 SLP353 T00560044 400830017 $",
  "relative_humidity": 0.9197884374087767,
  "remarks": "RMK AO2 SLP353 T00560044 400830017 $",
  "remarks_info": {
    "codes": [
      {
        "repr": "$",
        "value": "ASOS requires maintenance"
      },
      {
        "repr": "AO2",
        "value": "Automated with precipitation sensor"
      }
    ],
    "dewpoint_decimal": {
      "repr": "0044",
      "spoken": "four point four",
      "value": 4.4
    },
    "maximum_temperature_24": {
      "repr": "0083",
      "spoken": "eight point three",
      "value": 8.3
    },
    "maximum_temperature_6": null,
    "minimum_temperature_24": {
      "repr": "0017",
      "spoken": "one point seven",
      "value": 1.7
    },
    "minimum_temperature_6": null,
    "precip_24_hours": null,
    "precip_36_hours": null,
    "precip_hourly": null,
    "pressure_tendency": null,
    "sea_level_pressure": {
      "repr": "SLP353",
      "spoken": "one zero three five point three",
      "value": 1035.3
    },
    "snow_depth": null,
    "sunshine_minutes": null,
    "temperature_decimal": {
      "repr": "0056",
      "spoken": "five point six",
      "value": 5.6
    }
  },
  "runway_visibility": [],
  "sanitized": "KNUW 070753Z 00000KT 10SM BKN008 OVC013 06/04 A3056 RMK AO2 SLP353 T00560044 400830017 $",
  "station": "KNUW",
  "temperature": {
    "repr": "06",
    "spoken": "six",
    "value": 6
  },
  "time": {
    "dt": "2025-01-07T07:53:00Z",
    "repr": "070753Z"
  },
  "units": {
    "accumulation": "in",
    "altimeter": "inHg",
    "altitude": "ft",
    "temperature": "C",
    "visibility": "sm",
    "wind_speed": "kt"
  },
  "visibility": {
    "repr": "10",
    "spoken": "one zero",
    "value": 10
  },
  "wind_direction": {
    "repr": "000",
    "spoken": "zero zero zero",
    "value": 0
  },
  "wind_gust": null,
  "wind_speed": {
    "repr": "00",
    "spoken": "zero",
    "value": 0
  },
  "wind_variable_direction": [],
  "wx_codes": []
}
