{
  "altimeter": {
    "repr": "A2991",
    "spoken": "two nine point nine one",
    "value": 29.91
  },
  "clouds": [
    {
      "altitude": 22,
      "modifier": null,
      "repr": "SCT022",
      "type": "SCT"
    },
    {
      "altitude": 65,
      "modifier": null,
      "repr": "BKN065",
      "type": "BKN"
    },
    {
      "altitude": 100,
      "modifier": null,
      "repr": "OVC100",
      "type": "OVC"
    }
  ],
  "density_altitude": -736,
  "dewpoint": {
    "repr": "05",
    "spoken": "five",
    "value": 5
  },
  "flight_rules": "VFR",
  "meta": {
    "cache-timestamp": "2024-01-25T14:40:07.028000Z",
    "stations_updated": "2023-10-28",
    "timestamp": "2024-01-25T14:40:38.794248Z"
  },
  "other": [],
  "pressure_altitude": 57,
  "raw": "KNUW 251353Z 14020G34KT 10SM -RA SCT022 BKN065 OVC100 08/05 A2991 RMK AO2 PK WND 14034/1345 SLP132 P0000 T00830050 $",
  "relative_humidity": 0.7969868033518251,
  "remarks": "RMK AO2 PK WND 14034/1345 SLP132 P0000 T00830050 $",
  "remarks_info": {
    "codes": [
      {
        "repr": "$",
        "value": "ASOS requires maintenance"
      },
      {
        "repr": "AO2",
        "value": "Automated with precipitation sensor"
      },
      {
        "repr": "P0000",
        "value": "Trace amount of rain in the last hour"
      }
    ],
    "dewpoint_decimal": {
      "repr": "0050",
      "spoken": "five point zero",
      "value": 5
    },
    "maximum_temperature_24": null,
    "maximum_temperature_6": null,
    "minimum_temperature_24": null,
    "minimum_temperature_6": null,
    "precip_24_hours": null,
    "precip_36_hours": null,
    "precip_hourly": null,
    "pressure_tendency": null,
    "sea_level_pressure": {
      "repr": "SLP132",
      "spoken": "one zero one three point two",
      "value": 1013.2
    },
    "snow_depth": null,
    "sunshine_minutes": null,
    "temperature_decimal": {
      "repr": "0083",
      "spoken": "eight point three",
      "value": 8.3
    }
  },
  "runway_visibility": [],
  "sanitized": "KNUW 251353Z 14020G34KT 10SM -RA SCT022 BKN065 OVC100 08/05 A2991 RMK AO2 PK WND 14034/1345 SLP132 P0000 T00830050 $",
  "station": "KNUW",
  "temperature": {
    "repr": "08",
    "spoken": "eight",
    "value": 8
  },
  "time": {
    "dt": "2024-01-25T13:53:00Z",
    "repr": "251353Z"
  },
  "units": {
    "accumulation": "in",
    "altimeter": "inHg",
    "altitude": "ft",
    "temperature": "C",
    "visibility": "sm",
    "wind_speed": "kt"
  },
  "visibility": {
    "repr": "10",
    "spoken": "one zero",
    "value": 10
  },
  "wind_direction": {
    "repr": "140",
    "spoken": "one four zero",
    "value": 140
  },
  "wind_gust": {
    "repr": "34",
    "spoken": "three four",
    "value": 34
  },
  "wind_speed": {
    "repr": "20",
    "spoken": "two zero",
    "value": 20
  },
  "wind_variable_direction": [],
  "wx_codes": [
    {
      "repr": "-RA",
      "value": "Light Rain"
    }
  ]
}
