{
  "altimeter": {
    "repr": "A2953",
    "spoken": "two nine point five three",
    "value": 29.53
  },
  "clouds": [
    {
      "altitude": 65,
      "modifier": null,
      "repr": "SCT065",
      "type": "SCT"
    },
    {
      "altitude": 110,
      "modifier": null,
      "repr": "SCT110",
      "type": "SCT"
    },
    {
      "altitude": 190,
      "modifier": null,
      "repr": "BKN190",
      "type": "BKN"
    }
  ],
  "density_altitude": -80,
  "dewpoint": {
    "repr": "06",
    "spoken": "six",
    "value": 6
  },
  "flight_rules": "VFR",
  "meta": {
    "stations_updated": "2024-01-01",
    "timestamp": "2024-02-02T08:07:13.823718Z"
  },
  "other": [],
  "pressure_altitude": 437,
  "raw": "KNUW 020753Z 14017G24KT 10SM SCT065 SCT110 BKN190 11/06 A2953 RMK AO2 PK WND 13027/0713 SLP003 T01060056 401500100 $",
  "relative_humidity": 0.7118548950787184,
  "remarks": "RMK AO2 PK WND 13027/0713 SLP003 T01060056 401500100 $",
  "remarks_info": {
    "codes": [
      {
        "repr": "$",
        "value": "ASOS requires maintenance"
      },
      {
        "repr": "AO2",
        "value": "Automated with precipitation sensor"
      }
    ],
    "dewpoint_decimal": {
      "repr": "0056",
      "spoken": "five point six",
      "value": 5.6
    },
    "maximum_temperature_24": {
      "repr": "0150",
      "spoken": "one five point zero",
      "value": 15
    },
    "maximum_temperature_6": null,
    "minimum_temperature_24": {
      "repr": "0100",
      "spoken": "one zero point zero",
      "value": 10
    },
    "minimum_temperature_6": null,
    "precip_24_hours": null,
    "precip_36_hours": null,
    "precip_hourly": null,
    "pressure_tendency": null,
    "sea_level_pressure": {
      "repr": "SLP003",
      "spoken": "one zero zero zero point three",
      "value": 1000.3
    },
    "snow_depth": null,
    "sunshine_minutes": null,
    "temperature_decimal": {
      "repr": "0106",
      "spoken": "one zero point six",
      "value": 10.6
    }
  },
  "runway_visibility": [],
  "sanitized": "KNUW 020753Z 14017G24KT 10SM SCT065 SCT110 BKN190 11/06 A2953 RMK AO2 PK WND 13027/0713 SLP003 T01060056 401500100 $",
  "station": "KNUW",
  "temperature": {
    "repr": "11",
    "spoken": "one one",
    "value": 11
  },
  "time": {
    "dt": "2024-02-02T07:53:00Z",
    "repr": "020753Z"
  },
  "units": {
    "accumulation": "in",
    "altimeter": "inHg",
    "altitude": "ft",
    "temperature": "C",
    "visibility": "sm",
    "wind_speed": "kt"
  },
  "visibility": {
    "repr": "10",
    "spoken": "one zero",
    "value": 10
  },
  "wind_direction": {
    "repr": "140",
    "spoken": "one four zero",
    "value": 140
  },
  "wind_gust": {
    "repr": "24",
    "spoken": "two four",
    "value": 24
  },
  "wind_speed": {
    "repr": "17",
    "spoken": "one seven",
    "value": 17
  },
  "wind_variable_direction": [],
  "wx_codes": []
}
