{
  "meta": {
    "timestamp": "2023-03-10T18:42:27.110759Z",
    "stations_updated": "2023-01-30"
  },
  "altimeter": {
    "repr": "A2944",
    "value": 29.44,
    "spoken": "two nine point four four"
  },
  "clouds": [
    {
      "repr": "SCT015",
      "type": "SCT",
      "altitude": 15,
      "modifier": null
    },
    {
      "repr": "BKN025",
      "type": "BKN",
      "altitude": 25,
      "modifier": null
    },
    {
      "repr": "OVC035",
      "type": "OVC",
      "altitude": 35,
      "modifier": null
    }
  ],
  "flight_rules": "MVFR",
  "other": [],
  "visibility": {
    "repr": "10",
    "value": 10,
    "spoken": "one zero"
  },
  "wind_direction": {
    "repr": "020",
    "value": 20,
    "spoken": "zero two zero"
  },
  "wind_gust": null,
  "wind_speed": {
    "repr": "05",
    "value": 5,
    "spoken": "five"
  },
  "wx_codes": [],
  "raw": "KNUW 101753Z 02005KT 10SM SCT015 BKN025 OVC035 05/03 A2944 RMK RAB03E51 SLP973 P0001 60009 T00500033 10061 20039 53020",
  "sanitized": "KNUW 101753Z 02005KT 10SM SCT015 BKN025 OVC035 05/03 A2944 RMK RAB03E51 SLP973 P0001 60009 T00500033 10061 20039 53020",
  "station": "KNUW",
  "time": {
    "repr": "101753Z",
    "dt": "2023-03-10T17:53:00Z"
  },
  "remarks": "RMK RAB03E51 SLP973 P0001 60009 T00500033 10061 20039 53020",
  "dewpoint": {
    "repr": "03",
    "value": 3,
    "spoken": "three"
  },
  "relative_humidity": 0.8875725932131937,
  "remarks_info": {
    "maximum_temperature_6": {
      "repr": "10061",
      "value": 6.1,
      "spoken": "six point one"
    },
    "minimum_temperature_6": {
      "repr": "20039",
      "value": 3.9,
      "spoken": "three point nine"
    },
    "pressure_tendency": {
      "repr": "53020",
      "tendency": "Decreasing or steady, then increasing",
      "change": 2
    },
    "precip_36_hours": {
      "repr": "60009",
      "value": 0.09,
      "spoken": "zero point zero nine"
    },
    "precip_24_hours": null,
    "sunshine_minutes": null,
    "codes": [],
    "dewpoint_decimal": {
      "repr": "0033",
      "value": 3.3,
      "spoken": "three point three"
    },
    "maximum_temperature_24": null,
    "minimum_temperature_24": null,
    "precip_hourly": {
      "repr": "P0001",
      "value": 0.01,
      "spoken": "zero point zero one"
    },
    "sea_level_pressure": {
      "repr": "SLP973",
      "value": 997.3,
      "spoken": "nine nine seven point three"
    },
    "snow_depth": null,
    "temperature_decimal": {
      "repr": "0050",
      "value": 5,
      "spoken": "five point zero"
    }
  },
  "runway_visibility": [],
  "temperature": {
    "repr": "05",
    "value": 5,
    "spoken": "five"
  },
  "wind_variable_direction": [],
  "density_altitude": -662,
  "pressure_altitude": 527,
  "units": {
    "accumulation": "in",
    "altimeter": "inHg",
    "altitude": "ft",
    "temperature": "C",
    "visibility": "sm",
    "wind_speed": "kt"
  }
}
