{
  "altimeter": {
    "repr": "A2984",
    "spoken": "two nine point eight four",
    "value": 29.84
  },
  "clouds": [
    {
      "altitude": 15,
      "modifier": null,
      "repr": "FEW015",
      "type": "FEW"
    },
    {
      "altitude": 25,
      "modifier": null,
      "repr": "SCT025",
      "type": "SCT"
    },
    {
      "altitude": 80,
      "modifier": null,
      "repr": "SCT080",
      "type": "SCT"
    }
  ],
  "density_altitude": -258,
  "dewpoint": {
    "repr": "08",
    "spoken": "eight",
    "value": 8
  },
  "flight_rules": "VFR",
  "meta": {
    "stations_updated": "2024-10-29",
    "timestamp": "2024-11-04T19:01:18.733571Z"
  },
  "other": [],
  "pressure_altitude": 127,
  "raw": "KNUW 041853Z 25022G40KT 10SM -RA FEW015 SCT025 SCT080 12/08 A2984 RMK AO2 PK WND 25042/1843 SLP108 P0000 T01170078 $",
  "relative_humidity": 0.7697775130100308,
  "remarks": "RMK AO2 PK WND 25042/1843 SLP108 P0000 T01170078 $",
  "remarks_info": {
    "codes": [
      {
        "repr": "$",
        "value": "ASOS requires maintenance"
      },
      {
        "repr": "AO2",
        "value": "Automated with precipitation sensor"
      },
      {
        "repr": "P0000",
        "value": "Trace amount of rain in the last hour"
      }
    ],
    "dewpoint_decimal": {
      "repr": "0078",
      "spoken": "seven point eight",
      "value": 7.8
    },
    "maximum_temperature_24": null,
    "maximum_temperature_6": null,
    "minimum_temperature_24": null,
    "minimum_temperature_6": null,
    "precip_24_hours": null,
    "precip_36_hours": null,
    "precip_hourly": null,
    "pressure_tendency": null,
    "sea_level_pressure": {
      "repr": "SLP108",
      "spoken": "one zero one zero point eight",
      "value": 1010.8
    },
    "snow_depth": null,
    "sunshine_minutes": null,
    "temperature_decimal": {
      "repr": "0117",
      "spoken": "one one point seven",
      "value": 11.7
    }
  },
  "runway_visibility": [],
  "sanitized": "KNUW 041853Z 25022G40KT 10SM -RA FEW015 SCT025 SCT080 12/08 A2984 RMK AO2 PK WND 25042/1843 SLP108 P0000 T01170078 $",
  "station": "KNUW",
  "temperature": {
    "repr": "12",
    "spoken": "one two",
    "value": 12
  },
  "time": {
    "dt": "2024-11-04T18:53:00Z",
    "repr": "041853Z"
  },
  "units": {
    "accumulation": "in",
    "altimeter": "inHg",
    "altitude": "ft",
    "temperature": "C",
    "visibility": "sm",
    "wind_speed": "kt"
  },
  "visibility": {
    "repr": "10",
    "spoken": "one zero",
    "value": 10
  },
  "wind_direction": {
    "repr": "250",
    "spoken": "two five zero",
    "value": 250
  },
  "wind_gust": {
    "repr": "40",
    "spoken": "four zero",
    "value": 40
  },
  "wind_speed": {
    "repr": "22",
    "spoken": "two two",
    "value": 22
  },
  "wind_variable_direction": [],
  "wx_codes": [
    {
      "repr": "-RA",
      "value": "Light Rain"
    }
  ]
}
