{
  "meta": {
    "timestamp": "2022-12-21T18:06:22.304476Z",
    "stations_updated": "2022-09-05"
  },
  "altimeter": {
    "repr": "A3056",
    "value": 30.56,
    "spoken": "three zero point five six"
  },
  "clouds": [
    {
      "repr": "FEW030",
      "type": "FEW",
      "altitude": 30,
      "modifier": null
    },
    {
      "repr": "SCT060",
      "type": "SCT",
      "altitude": 60,
      "modifier": null
    }
  ],
  "flight_rules": "VFR",
  "other": [],
  "visibility": {
    "repr": "10",
    "value": 10,
    "spoken": "one zero"
  },
  "wind_direction": {
    "repr": "000",
    "value": 0,
    "spoken": "zero zero zero"
  },
  "wind_gust": null,
  "wind_speed": {
    "repr": "00",
    "value": 0,
    "spoken": "zero"
  },
  "wx_codes": [],
  "raw": "KNUW 211753Z 00000KT 10SM FEW030 SCT060 M08/M09 A3056 RMK AO2 SLP349 4/004 933044 T10781094 11050 21094 53018 VISNO $",
  "sanitized": "KNUW 211753Z 00000KT 10SM FEW030 SCT060 M08/M09 A3056 RMK AO2 SLP349 4/004 933044 T10781094 11050 21094 53018 VISNO $",
  "station": "KNUW",
  "time": {
    "repr": "211753Z",
    "dt": "2022-12-21T17:53:00Z"
  },
  "remarks": "RMK AO2 SLP349 4/004 933044 T10781094 11050 21094 53018 VISNO $",
  "dewpoint": {
    "repr": "M09",
    "value": -9,
    "spoken": "minus nine"
  },
  "relative_humidity": 0.8827038748818901,
  "remarks_info": {
    "maximum_temperature_6": {
      "repr": "11050",
      "value": -5,
      "spoken": "minus five point zero"
    },
    "minimum_temperature_6": {
      "repr": "21094",
      "value": -9.4,
      "spoken": "minus nine point four"
    },
    "pressure_tendency": {
      "repr": "53018",
      "tendency": "Decreasing or steady, then increasing",
      "change": 1.8
    },
    "precip_36_hours": null,
    "precip_24_hours": null,
    "sunshine_minutes": null,
    "codes": [
      {
        "repr": "$",
        "value": "ASOS requires maintenance"
      },
      {
        "repr": "AO2",
        "value": "Automated with precipitation sensor"
      }
    ],
    "dewpoint_decimal": {
      "repr": "1094",
      "value": -9.4,
      "spoken": "minus nine point four"
    },
    "maximum_temperature_24": null,
    "minimum_temperature_24": null,
    "precip_hourly": null,
    "sea_level_pressure": {
      "repr": "SLP349",
      "value": 1034.9,
      "spoken": "one zero three four point nine"
    },
    "snow_depth": {
      "repr": "4/004",
      "value": 4,
      "spoken": "four"
    },
    "temperature_decimal": {
      "repr": "1078",
      "value": -7.8,
      "spoken": "minus seven point eight"
    }
  },
  "runway_visibility": [],
  "temperature": {
    "repr": "M08",
    "value": -8,
    "spoken": "minus eight"
  },
  "wind_variable_direction": [],
  "density_altitude": -3318,
  "pressure_altitude": -593,
  "units": {
    "accumulation": "in",
    "altimeter": "inHg",
    "altitude": "ft",
    "temperature": "C",
    "visibility": "sm",
    "wind_speed": "kt"
  }
}
