{
  "altimeter": {
    "repr": "A3035",
    "spoken": "three zero point three five",
    "value": 30.35
  },
  "clouds": [
    {
      "altitude": 1,
      "modifier": null,
      "repr": "FEW001",
      "type": "FEW"
    }
  ],
  "density_altitude": -2304,
  "dewpoint": {
    "repr": "M02",
    "spoken": "minus two",
    "value": -2
  },
  "flight_rules": "VFR",
  "meta": {
    "cache-timestamp": "2023-11-26T08:26:04.435000Z",
    "stations_updated": "2023-10-28",
    "timestamp": "2023-11-26T08:26:06.836498Z"
  },
  "other": [],
  "pressure_altitude": -383,
  "raw": "KNUW 260753Z 11003KT 6SM BR MIFG FEW001 M01/M02 A3035 RMK AO2 SLP280 T10111017 400781017 $",
  "relative_humidity": 0.9569107752623097,
  "remarks": "RMK AO2 SLP280 T10111017 400781017 $",
  "remarks_info": {
    "codes": [
      {
        "repr": "$",
        "value": "ASOS requires maintenance"
      },
      {
        "repr": "AO2",
        "value": "Automated with precipitation sensor"
      }
    ],
    "dewpoint_decimal": {
      "repr": "1017",
      "spoken": "minus one point seven",
      "value": -1.7
    },
    "maximum_temperature_24": {
      "repr": "0078",
      "spoken": "seven point eight",
      "value": 7.8
    },
    "maximum_temperature_6": null,
    "minimum_temperature_24": {
      "repr": "1017",
      "spoken": "minus one point seven",
      "value": -1.7
    },
    "minimum_temperature_6": null,
    "precip_24_hours": null,
    "precip_36_hours": null,
    "precip_hourly": null,
    "pressure_tendency": null,
    "sea_level_pressure": {
      "repr": "SLP280",
      "spoken": "one zero two eight point zero",
      "value": 1028
    },
    "snow_depth": null,
    "sunshine_minutes": null,
    "temperature_decimal": {
      "repr": "1011",
      "spoken": "minus one point one",
      "value": -1.1
    }
  },
  "runway_visibility": [],
  "sanitized": "KNUW 260753Z 11003KT 6SM BR MIFG FEW001 M01/M02 A3035 RMK AO2 SLP280 T10111017 400781017 $",
  "station": "KNUW",
  "temperature": {
    "repr": "M01",
    "spoken": "minus one",
    "value": -1
  },
  "time": {
    "dt": "2023-11-26T07:53:00Z",
    "repr": "260753Z"
  },
  "units": {
    "accumulation": "in",
    "altimeter": "inHg",
    "altitude": "ft",
    "temperature": "C",
    "visibility": "sm",
    "wind_speed": "kt"
  },
  "visibility": {
    "repr": "6",
    "spoken": "six",
    "value": 6
  },
  "wind_direction": {
    "repr": "110",
    "spoken": "one one zero",
    "value": 110
  },
  "wind_gust": null,
  "wind_speed": {
    "repr": "03",
    "spoken": "three",
    "value": 3
  },
  "wind_variable_direction": [],
  "wx_codes": [
    {
      "repr": "BR",
      "value": "Mist"
    },
    {
      "repr": "MIFG",
      "value": "Shallow Fog"
    }
  ]
}
