{
  "altimeter": {
    "repr": "A3012",
    "spoken": "three zero point one two",
    "value": 30.12
  },
  "clouds": [
    {
      "altitude": 38,
      "modifier": null,
      "repr": "SCT038",
      "type": "SCT"
    },
    {
      "altitude": 50,
      "modifier": null,
      "repr": "SCT050",
      "type": "SCT"
    },
    {
      "altitude": 100,
      "modifier": null,
      "repr": "BKN100",
      "type": "BKN"
    },
    {
      "altitude": 180,
      "modifier": null,
      "repr": "BKN180",
      "type": "BKN"
    }
  ],
  "density_altitude": 590,
  "dewpoint": {
    "repr": "16",
    "spoken": "one six",
    "value": 16
  },
  "flight_rules": "VFR",
  "meta": {
    "stations_updated": "2024-06-12",
    "timestamp": "2024-09-24T00:35:17.534745Z"
  },
  "other": [],
  "pressure_altitude": -153,
  "raw": "KNUW 232353Z 13005KT 10SM SCT038 SCT050 BKN100 BKN180 21/16 A3012 RMK AO2 SLP203 T02110161 10217 20178 56014",
  "relative_humidity": 0.7311093514096665,
  "remarks": "RMK AO2 SLP203 T02110161 10217 20178 56014",
  "remarks_info": {
    "codes": [
      {
        "repr": "AO2",
        "value": "Automated with precipitation sensor"
      }
    ],
    "dewpoint_decimal": {
      "repr": "0161",
      "spoken": "one six point one",
      "value": 16.1
    },
    "maximum_temperature_24": null,
    "maximum_temperature_6": {
      "repr": "10217",
      "spoken": "two one point seven",
      "value": 21.7
    },
    "minimum_temperature_24": null,
    "minimum_temperature_6": {
      "repr": "20178",
      "spoken": "one seven point eight",
      "value": 17.8
    },
    "precip_24_hours": null,
    "precip_36_hours": null,
    "precip_hourly": null,
    "pressure_tendency": {
      "change": 1.4,
      "repr": "56014",
      "tendency": "Decreasing, then steady"
    },
    "sea_level_pressure": {
      "repr": "SLP203",
      "spoken": "one zero two zero point three",
      "value": 1020.3
    },
    "snow_depth": null,
    "sunshine_minutes": null,
    "temperature_decimal": {
      "repr": "0211",
      "spoken": "two one point one",
      "value": 21.1
    }
  },
  "runway_visibility": [],
  "sanitized": "KNUW 232353Z 13005KT 10SM SCT038 SCT050 BKN100 BKN180 21/16 A3012 RMK AO2 SLP203 T02110161 10217 20178 56014",
  "station": "KNUW",
  "temperature": {
    "repr": "21",
    "spoken": "two one",
    "value": 21
  },
  "time": {
    "dt": "2024-09-23T23:53:00Z",
    "repr": "232353Z"
  },
  "units": {
    "accumulation": "in",
    "altimeter": "inHg",
    "altitude": "ft",
    "temperature": "C",
    "visibility": "sm",
    "wind_speed": "kt"
  },
  "visibility": {
    "repr": "10",
    "spoken": "one zero",
    "value": 10
  },
  "wind_direction": {
    "repr": "130",
    "spoken": "one three zero",
    "value": 130
  },
  "wind_gust": null,
  "wind_speed": {
    "repr": "05",
    "spoken": "five",
    "value": 5
  },
  "wind_variable_direction": [],
  "wx_codes": []
}
