{
  "altimeter": {
    "repr": "A3018",
    "spoken": "three zero point one eight",
    "value": 30.18
  },
  "clouds": [
    {
      "altitude": 150,
      "modifier": null,
      "repr": "SCT150",
      "type": "SCT"
    },
    {
      "altitude": 200,
      "modifier": null,
      "repr": "BKN200",
      "type": "BKN"
    }
  ],
  "density_altitude": -1006,
  "dewpoint": {
    "repr": "07",
    "spoken": "seven",
    "value": 7
  },
  "flight_rules": "VFR",
  "meta": {
    "stations_updated": "2024-10-29",
    "timestamp": "2024-11-08T06:35:28.035177Z"
  },
  "other": [],
  "pressure_altitude": -213,
  "raw": "KNUW 080553Z 12005KT 10SM SCT150 BKN200 08/07 A3018 RMK AO2 SLP224 T00830072 10106 20078 53000 $",
  "relative_humidity": 0.9277664133595805,
  "remarks": "RMK AO2 SLP224 T00830072 10106 20078 53000 $",
  "remarks_info": {
    "codes": [
      {
        "repr": "$",
        "value": "ASOS requires maintenance"
      },
      {
        "repr": "AO2",
        "value": "Automated with precipitation sensor"
      }
    ],
    "dewpoint_decimal": {
      "repr": "0072",
      "spoken": "seven point two",
      "value": 7.2
    },
    "maximum_temperature_24": null,
    "maximum_temperature_6": {
      "repr": "10106",
      "spoken": "one zero point six",
      "value": 10.6
    },
    "minimum_temperature_24": null,
    "minimum_temperature_6": {
      "repr": "20078",
      "spoken": "seven point eight",
      "value": 7.8
    },
    "precip_24_hours": null,
    "precip_36_hours": null,
    "precip_hourly": null,
    "pressure_tendency": {
      "change": 0,
      "repr": "53000",
      "tendency": "Decreasing or steady, then increasing"
    },
    "sea_level_pressure": {
      "repr": "SLP224",
      "spoken": "one zero two two point four",
      "value": 1022.4
    },
    "snow_depth": null,
    "sunshine_minutes": null,
    "temperature_decimal": {
      "repr": "0083",
      "spoken": "eight point three",
      "value": 8.3
    }
  },
  "runway_visibility": [],
  "sanitized": "KNUW 080553Z 12005KT 10SM SCT150 BKN200 08/07 A3018 RMK AO2 SLP224 T00830072 10106 20078 53000 $",
  "station": "KNUW",
  "temperature": {
    "repr": "08",
    "spoken": "eight",
    "value": 8
  },
  "time": {
    "dt": "2024-11-08T05:53:00Z",
    "repr": "080553Z"
  },
  "units": {
    "accumulation": "in",
    "altimeter": "inHg",
    "altitude": "ft",
    "temperature": "C",
    "visibility": "sm",
    "wind_speed": "kt"
  },
  "visibility": {
    "repr": "10",
    "spoken": "one zero",
    "value": 10
  },
  "wind_direction": {
    "repr": "120",
    "spoken": "one two zero",
    "value": 120
  },
  "wind_gust": null,
  "wind_speed": {
    "repr": "05",
    "spoken": "five",
    "value": 5
  },
  "wind_variable_direction": [],
  "wx_codes": []
}
