{
  "altimeter": {
    "repr": "A3027",
    "spoken": "three zero point two seven",
    "value": 30.27
  },
  "clouds": [
    {
      "altitude": 4,
      "modifier": null,
      "repr": "BKN004",
      "type": "BKN"
    },
    {
      "altitude": 12,
      "modifier": null,
      "repr": "BKN012",
      "type": "BKN"
    },
    {
      "altitude": 17,
      "modifier": null,
      "repr": "BKN017",
      "type": "BKN"
    }
  ],
  "density_altitude": -1360,
  "dewpoint": {
    "repr": "06",
    "spoken": "six",
    "value": 6
  },
  "flight_rules": "LIFR",
  "meta": {
    "stations_updated": "2024-06-12",
    "timestamp": "2024-10-10T14:42:29.000651Z"
  },
  "other": [],
  "pressure_altitude": -303,
  "raw": "KNUW 101402Z 00000KT 1SM BR BKN004 BKN012 BKN017 06/06 A3027 RMK T00610061",
  "relative_humidity": 1,
  "remarks": "RMK T00610061",
  "remarks_info": {
    "codes": [],
    "dewpoint_decimal": {
      "repr": "0061",
      "spoken": "six point one",
      "value": 6.1
    },
    "maximum_temperature_24": null,
    "maximum_temperature_6": null,
    "minimum_temperature_24": null,
    "minimum_temperature_6": null,
    "precip_24_hours": null,
    "precip_36_hours": null,
    "precip_hourly": null,
    "pressure_tendency": null,
    "sea_level_pressure": null,
    "snow_depth": null,
    "sunshine_minutes": null,
    "temperature_decimal": {
      "repr": "0061",
      "spoken": "six point one",
      "value": 6.1
    }
  },
  "runway_visibility": [],
  "sanitized": "KNUW 101402Z 00000KT 1SM BR BKN004 BKN012 BKN017 06/06 A3027 RMK T00610061",
  "station": "KNUW",
  "temperature": {
    "repr": "06",
    "spoken": "six",
    "value": 6
  },
  "time": {
    "dt": "2024-10-10T14:02:00Z",
    "repr": "101402Z"
  },
  "units": {
    "accumulation": "in",
    "altimeter": "inHg",
    "altitude": "ft",
    "temperature": "C",
    "visibility": "sm",
    "wind_speed": "kt"
  },
  "visibility": {
    "repr": "1",
    "spoken": "one",
    "value": 1
  },
  "wind_direction": {
    "repr": "000",
    "spoken": "zero zero zero",
    "value": 0
  },
  "wind_gust": null,
  "wind_speed": {
    "repr": "00",
    "spoken": "zero",
    "value": 0
  },
  "wind_variable_direction": [],
  "wx_codes": [
    {
      "repr": "BR",
      "value": "Mist"
    }
  ]
}
