{
  "altimeter": {
    "repr": "A2990",
    "spoken": "two nine point nine zero",
    "value": 29.9
  },
  "clouds": [
    {
      "altitude": 10,
      "modifier": null,
      "repr": "FEW010",
      "type": "FEW"
    },
    {
      "altitude": 17,
      "modifier": null,
      "repr": "BKN017",
      "type": "BKN"
    },
    {
      "altitude": 24,
      "modifier": null,
      "repr": "OVC024",
      "type": "OVC"
    }
  ],
  "density_altitude": -1194,
  "dewpoint": {
    "repr": "03",
    "spoken": "three",
    "value": 3
  },
  "flight_rules": "MVFR",
  "meta": {
    "stations_updated": "2024-10-29",
    "timestamp": "2024-11-19T09:30:26.751993Z"
  },
  "other": [],
  "pressure_altitude": 67,
  "raw": "KNUW 190853Z 13013G26KT 10SM FEW010 BKN017 OVC024 04/03 A2990 RMK AO2 PK WND 14029/0816 SLP128 60002 T00440028 56006 $",
  "relative_humidity": 0.893374437578054,
  "remarks": "RMK AO2 PK WND 14029/0816 SLP128 60002 T00440028 56006 $",
  "remarks_info": {
    "codes": [
      {
        "repr": "$",
        "value": "ASOS requires maintenance"
      },
      {
        "repr": "AO2",
        "value": "Automated with precipitation sensor"
      }
    ],
    "dewpoint_decimal": {
      "repr": "0028",
      "spoken": "two point eight",
      "value": 2.8
    },
    "maximum_temperature_24": null,
    "maximum_temperature_6": null,
    "minimum_temperature_24": null,
    "minimum_temperature_6": null,
    "precip_24_hours": null,
    "precip_36_hours": {
      "repr": "60002",
      "spoken": "zero point zero two",
      "value": 0.02
    },
    "precip_hourly": null,
    "pressure_tendency": {
      "change": 0.6,
      "repr": "56006",
      "tendency": "Decreasing, then steady"
    },
    "sea_level_pressure": {
      "repr": "SLP128",
      "spoken": "one zero one two point eight",
      "value": 1012.8
    },
    "snow_depth": null,
    "sunshine_minutes": null,
    "temperature_decimal": {
      "repr": "0044",
      "spoken": "four point four",
      "value": 4.4
    }
  },
  "runway_visibility": [],
  "sanitized": "KNUW 190853Z 13013G26KT 10SM FEW010 BKN017 OVC024 04/03 A2990 RMK AO2 PK WND 14029/0816 SLP128 60002 T00440028 56006 $",
  "station": "KNUW",
  "temperature": {
    "repr": "04",
    "spoken": "four",
    "value": 4
  },
  "time": {
    "dt": "2024-11-19T08:53:00Z",
    "repr": "190853Z"
  },
  "units": {
    "accumulation": "in",
    "altimeter": "inHg",
    "altitude": "ft",
    "temperature": "C",
    "visibility": "sm",
    "wind_speed": "kt"
  },
  "visibility": {
    "repr": "10",
    "spoken": "one zero",
    "value": 10
  },
  "wind_direction": {
    "repr": "130",
    "spoken": "one three zero",
    "value": 130
  },
  "wind_gust": {
    "repr": "26",
    "spoken": "two six",
    "value": 26
  },
  "wind_speed": {
    "repr": "13",
    "spoken": "one three",
    "value": 13
  },
  "wind_variable_direction": [],
  "wx_codes": []
}
