{
  "altimeter": {
    "repr": "A3034",
    "spoken": "three zero point three four",
    "value": 30.34
  },
  "clouds": [
    {
      "altitude": 50,
      "modifier": null,
      "repr": "SCT050",
      "type": "SCT"
    },
    {
      "altitude": 100,
      "modifier": null,
      "repr": "BKN100",
      "type": "BKN"
    },
    {
      "altitude": 210,
      "modifier": null,
      "repr": "BKN210",
      "type": "BKN"
    }
  ],
  "density_altitude": -1166,
  "dewpoint": {
    "repr": "06",
    "spoken": "six",
    "value": 6
  },
  "flight_rules": "VFR",
  "meta": {
    "stations_updated": "2024-12-02",
    "timestamp": "2025-01-10T00:37:17.199263Z"
  },
  "other": [],
  "pressure_altitude": -373,
  "raw": "KNUW 092353Z 32003KT 10SM SCT050 BKN100 BKN210 08/06 A3034 RMK AO2 SLP278 T00830056 10100 20061 56027 $",
  "relative_humidity": 0.8309278587907312,
  "remarks": "RMK AO2 SLP278 T00830056 10100 20061 56027 $",
  "remarks_info": {
    "codes": [
      {
        "repr": "$",
        "value": "ASOS requires maintenance"
      },
      {
        "repr": "AO2",
        "value": "Automated with precipitation sensor"
      }
    ],
    "dewpoint_decimal": {
      "repr": "0056",
      "spoken": "five point six",
      "value": 5.6
    },
    "maximum_temperature_24": null,
    "maximum_temperature_6": {
      "repr": "10100",
      "spoken": "one zero point zero",
      "value": 10
    },
    "minimum_temperature_24": null,
    "minimum_temperature_6": {
      "repr": "20061",
      "spoken": "six point one",
      "value": 6.1
    },
    "precip_24_hours": null,
    "precip_36_hours": null,
    "precip_hourly": null,
    "pressure_tendency": {
      "change": 2.7,
      "repr": "56027",
      "tendency": "Decreasing, then steady"
    },
    "sea_level_pressure": {
      "repr": "SLP278",
      "spoken": "one zero two seven point eight",
      "value": 1027.8
    },
    "snow_depth": null,
    "sunshine_minutes": null,
    "temperature_decimal": {
      "repr": "0083",
      "spoken": "eight point three",
      "value": 8.3
    }
  },
  "runway_visibility": [],
  "sanitized": "KNUW 092353Z 32003KT 10SM SCT050 BKN100 BKN210 08/06 A3034 RMK AO2 SLP278 T00830056 10100 20061 56027 $",
  "station": "KNUW",
  "temperature": {
    "repr": "08",
    "spoken": "eight",
    "value": 8
  },
  "time": {
    "dt": "2025-01-09T23:53:00Z",
    "repr": "092353Z"
  },
  "units": {
    "accumulation": "in",
    "altimeter": "inHg",
    "altitude": "ft",
    "temperature": "C",
    "visibility": "sm",
    "wind_speed": "kt"
  },
  "visibility": {
    "repr": "10",
    "spoken": "one zero",
    "value": 10
  },
  "wind_direction": {
    "repr": "320",
    "spoken": "three two zero",
    "value": 320
  },
  "wind_gust": null,
  "wind_speed": {
    "repr": "03",
    "spoken": "three",
    "value": 3
  },
  "wind_variable_direction": [],
  "wx_codes": []
}
