{
  "meta": {
    "timestamp": "2023-06-29T11:01:23.807943Z",
    "stations_updated": "2023-06-06"
  },
  "altimeter": {
    "repr": "A3005",
    "value": 30.05,
    "spoken": "three zero point zero five"
  },
  "clouds": [
    {
      "repr": "OVC004",
      "type": "OVC",
      "altitude": 4,
      "modifier": null
    }
  ],
  "flight_rules": "LIFR",
  "other": [],
  "visibility": {
    "repr": "6",
    "value": 6,
    "spoken": "six"
  },
  "wind_direction": {
    "repr": "210",
    "value": 210,
    "spoken": "two one zero"
  },
  "wind_gust": null,
  "wind_speed": {
    "repr": "05",
    "value": 5,
    "spoken": "five"
  },
  "wx_codes": [
    {
      "repr": "BR",
      "value": "Mist"
    }
  ],
  "raw": "KNUW 291053Z 21005KT 6SM BR OVC004 11/11 A3005 RMK AO2 SLP181 VIS E-SE 2 T01110106 VISNO $",
  "sanitized": "KNUW 291053Z 21005KT 6SM BR OVC004 11/11 A3005 RMK AO2 SLP181 VIS E-SE 2 T01110106 VISNO $",
  "station": "KNUW",
  "time": {
    "repr": "291053Z",
    "dt": "2023-06-29T10:53:00Z"
  },
  "remarks": "RMK AO2 SLP181 VIS E-SE 2 T01110106 VISNO $",
  "dewpoint": {
    "repr": "11",
    "value": 11,
    "spoken": "one one"
  },
  "relative_humidity": 0.9672929424668637,
  "remarks_info": {
    "maximum_temperature_6": null,
    "minimum_temperature_6": null,
    "pressure_tendency": null,
    "precip_36_hours": null,
    "precip_24_hours": null,
    "sunshine_minutes": null,
    "codes": [
      {
        "repr": "$",
        "value": "ASOS requires maintenance"
      },
      {
        "repr": "AO2",
        "value": "Automated with precipitation sensor"
      }
    ],
    "dewpoint_decimal": {
      "repr": "0106",
      "value": 10.6,
      "spoken": "one zero point six"
    },
    "maximum_temperature_24": null,
    "minimum_temperature_24": null,
    "precip_hourly": null,
    "sea_level_pressure": {
      "repr": "SLP181",
      "value": 1018.1,
      "spoken": "one zero one eight point one"
    },
    "snow_depth": null,
    "temperature_decimal": {
      "repr": "0111",
      "value": 11.1,
      "spoken": "one one point one"
    }
  },
  "runway_visibility": [],
  "temperature": {
    "repr": "11",
    "value": 11,
    "spoken": "one one"
  },
  "wind_variable_direction": [],
  "density_altitude": -540,
  "pressure_altitude": -83,
  "units": {
    "accumulation": "in",
    "altimeter": "inHg",
    "altitude": "ft",
    "temperature": "C",
    "visibility": "sm",
    "wind_speed": "kt"
  }
}
