{
  "meta": {
    "timestamp": "2023-05-26T08:27:15.099600Z",
    "stations_updated": "2023-03-11"
  },
  "altimeter": {
    "repr": "A2991",
    "value": 29.91,
    "spoken": "two nine point nine one"
  },
  "clouds": [
    {
      "repr": "FEW080",
      "type": "FEW",
      "altitude": 80,
      "modifier": null
    },
    {
      "repr": "FEW200",
      "type": "FEW",
      "altitude": 200,
      "modifier": null
    }
  ],
  "flight_rules": "VFR",
  "other": [],
  "visibility": {
    "repr": "10",
    "value": 10,
    "spoken": "one zero"
  },
  "wind_direction": {
    "repr": "160",
    "value": 160,
    "spoken": "one six zero"
  },
  "wind_gust": null,
  "wind_speed": {
    "repr": "03",
    "value": 3,
    "spoken": "three"
  },
  "wx_codes": [],
  "raw": "KNUW 260753Z 16003KT 10SM FEW080 FEW200 11/08 A2991 RMK AO2 SLP131 T01060083 401940067 $",
  "sanitized": "KNUW 260753Z 16003KT 10SM FEW080 FEW200 11/08 A2991 RMK AO2 SLP131 T01060083 401940067 $",
  "station": "KNUW",
  "time": {
    "repr": "260753Z",
    "dt": "2023-05-26T07:53:00Z"
  },
  "remarks": "RMK AO2 SLP131 T01060083 401940067 $",
  "dewpoint": {
    "repr": "08",
    "value": 8,
    "spoken": "eight"
  },
  "relative_humidity": 0.8566987946639525,
  "remarks_info": {
    "maximum_temperature_6": null,
    "minimum_temperature_6": null,
    "pressure_tendency": null,
    "precip_36_hours": null,
    "precip_24_hours": null,
    "sunshine_minutes": null,
    "codes": [
      {
        "repr": "$",
        "value": "ASOS requires maintenance"
      },
      {
        "repr": "AO2",
        "value": "Automated with precipitation sensor"
      }
    ],
    "dewpoint_decimal": {
      "repr": "0083",
      "value": 8.3,
      "spoken": "eight point three"
    },
    "maximum_temperature_24": {
      "repr": "0194",
      "value": 19.4,
      "spoken": "one nine point four"
    },
    "minimum_temperature_24": {
      "repr": "0067",
      "value": 6.7,
      "spoken": "six point seven"
    },
    "precip_hourly": null,
    "sea_level_pressure": {
      "repr": "SLP131",
      "value": 1013.1,
      "spoken": "one zero one three point one"
    },
    "snow_depth": null,
    "temperature_decimal": {
      "repr": "0106",
      "value": 10.6,
      "spoken": "one zero point six"
    }
  },
  "runway_visibility": [],
  "temperature": {
    "repr": "11",
    "value": 11,
    "spoken": "one one"
  },
  "wind_variable_direction": [],
  "density_altitude": -460,
  "pressure_altitude": 57,
  "units": {
    "accumulation": "in",
    "altimeter": "inHg",
    "altitude": "ft",
    "temperature": "C",
    "visibility": "sm",
    "wind_speed": "kt"
  }
}
