{
  "altimeter": {
    "repr": "A3017",
    "spoken": "three zero point one seven",
    "value": 30.17
  },
  "clouds": [
    {
      "altitude": 45,
      "modifier": null,
      "repr": "SCT045",
      "type": "SCT"
    },
    {
      "altitude": 70,
      "modifier": null,
      "repr": "BKN070",
      "type": "BKN"
    },
    {
      "altitude": 100,
      "modifier": null,
      "repr": "OVC100",
      "type": "OVC"
    }
  ],
  "density_altitude": -1056,
  "dewpoint": {
    "repr": "04",
    "spoken": "four",
    "value": 4
  },
  "flight_rules": "VFR",
  "meta": {
    "cache-timestamp": "2024-04-03T09:02:30Z",
    "stations_updated": "2024-01-01",
    "timestamp": "2024-04-03T09:02:38.281493Z"
  },
  "other": [],
  "pressure_altitude": -203,
  "raw": "KNUW 030753Z 29025G39KT 10SM SCT045 BKN070 OVC100 08/04 A3017 RMK AO2 PK WND 30039/0747 SLP221 T00780039 401280072 $",
  "relative_humidity": 0.7634534383263296,
  "remarks": "RMK AO2 PK WND 30039/0747 SLP221 T00780039 401280072 $",
  "remarks_info": {
    "codes": [
      {
        "repr": "$",
        "value": "ASOS requires maintenance"
      },
      {
        "repr": "AO2",
        "value": "Automated with precipitation sensor"
      }
    ],
    "dewpoint_decimal": {
      "repr": "0039",
      "spoken": "three point nine",
      "value": 3.9
    },
    "maximum_temperature_24": {
      "repr": "0128",
      "spoken": "one two point eight",
      "value": 12.8
    },
    "maximum_temperature_6": null,
    "minimum_temperature_24": {
      "repr": "0072",
      "spoken": "seven point two",
      "value": 7.2
    },
    "minimum_temperature_6": null,
    "precip_24_hours": null,
    "precip_36_hours": null,
    "precip_hourly": null,
    "pressure_tendency": null,
    "sea_level_pressure": {
      "repr": "SLP221",
      "spoken": "one zero two two point one",
      "value": 1022.1
    },
    "snow_depth": null,
    "sunshine_minutes": null,
    "temperature_decimal": {
      "repr": "0078",
      "spoken": "seven point eight",
      "value": 7.8
    }
  },
  "runway_visibility": [],
  "sanitized": "KNUW 030753Z 29025G39KT 10SM SCT045 BKN070 OVC100 08/04 A3017 RMK AO2 PK WND 30039/0747 SLP221 T00780039 401280072 $",
  "station": "KNUW",
  "temperature": {
    "repr": "08",
    "spoken": "eight",
    "value": 8
  },
  "time": {
    "dt": "2024-04-03T07:53:00Z",
    "repr": "030753Z"
  },
  "units": {
    "accumulation": "in",
    "altimeter": "inHg",
    "altitude": "ft",
    "temperature": "C",
    "visibility": "sm",
    "wind_speed": "kt"
  },
  "visibility": {
    "repr": "10",
    "spoken": "one zero",
    "value": 10
  },
  "wind_direction": {
    "repr": "290",
    "spoken": "two nine zero",
    "value": 290
  },
  "wind_gust": {
    "repr": "39",
    "spoken": "three nine",
    "value": 39
  },
  "wind_speed": {
    "repr": "25",
    "spoken": "two five",
    "value": 25
  },
  "wind_variable_direction": [],
  "wx_codes": []
}
