{
  "meta": {
    "timestamp": "2022-12-21T12:08:56.316464Z",
    "stations_updated": "2022-09-05"
  },
  "altimeter": {
    "repr": "A3044",
    "value": 30.44,
    "spoken": "three zero point four four"
  },
  "clouds": [
    {
      "repr": "OVC047",
      "type": "OVC",
      "altitude": 47,
      "modifier": null
    }
  ],
  "flight_rules": "VFR",
  "other": [],
  "visibility": {
    "repr": "10",
    "value": 10,
    "spoken": "one zero"
  },
  "wind_direction": {
    "repr": "360",
    "value": 360,
    "spoken": "three six zero"
  },
  "wind_gust": null,
  "wind_speed": {
    "repr": "08",
    "value": 8,
    "spoken": "eight"
  },
  "wx_codes": [],
  "raw": "KNUW 211153Z AUTO 36008KT 10SM OVC047 M05/M10 A3044 RMK AO2 SLP308 60000 T10501100 11033 21050 51024 VISNO $",
  "sanitized": "KNUW 211153Z 36008KT 10SM OVC047 M05/M10 A3044 RMK AO2 SLP308 60000 T10501100 11033 21050 51024 VISNO $",
  "station": "KNUW",
  "time": {
    "repr": "211153Z",
    "dt": "2022-12-21T11:53:00Z"
  },
  "remarks": "RMK AO2 SLP308 60000 T10501100 11033 21050 51024 VISNO $",
  "dewpoint": {
    "repr": "M10",
    "value": -10,
    "spoken": "minus one zero"
  },
  "relative_humidity": 0.6795632745546666,
  "remarks_info": {
    "maximum_temperature_6": {
      "repr": "11033",
      "value": -3.3,
      "spoken": "minus three point three"
    },
    "minimum_temperature_6": {
      "repr": "21050",
      "value": -5,
      "spoken": "minus five point zero"
    },
    "pressure_tendency": {
      "repr": "51024",
      "tendency": "Increasing, then steady",
      "change": 2.4
    },
    "precip_36_hours": {
      "repr": "60000",
      "value": 0,
      "spoken": "zero"
    },
    "precip_24_hours": null,
    "sunshine_minutes": null,
    "codes": [
      {
        "repr": "$",
        "value": "ASOS requires maintenance"
      },
      {
        "repr": "AO2",
        "value": "Automated with precipitation sensor"
      }
    ],
    "dewpoint_decimal": {
      "repr": "1100",
      "value": -10,
      "spoken": "minus one zero point zero"
    },
    "maximum_temperature_24": null,
    "minimum_temperature_24": null,
    "precip_hourly": null,
    "sea_level_pressure": {
      "repr": "SLP308",
      "value": 1030.8,
      "spoken": "one zero three zero point eight"
    },
    "snow_depth": null,
    "temperature_decimal": {
      "repr": "1050",
      "value": -5,
      "spoken": "minus five point zero"
    }
  },
  "runway_visibility": [],
  "temperature": {
    "repr": "M05",
    "value": -5,
    "spoken": "minus five"
  },
  "wind_variable_direction": [],
  "density_altitude": -2862,
  "pressure_altitude": -473,
  "units": {
    "accumulation": "in",
    "altimeter": "inHg",
    "altitude": "ft",
    "temperature": "C",
    "visibility": "sm",
    "wind_speed": "kt"
  }
}
