{
  "meta": {
    "timestamp": "2023-05-05T11:00:42.729720Z",
    "stations_updated": "2023-03-11",
    "cache-timestamp": "2023-05-05T11:00:05.754000Z"
  },
  "altimeter": {
    "repr": "A2978",
    "value": 29.78,
    "spoken": "two nine point seven eight"
  },
  "clouds": [
    {
      "repr": "BKN009",
      "type": "BKN",
      "altitude": 9,
      "modifier": null
    },
    {
      "repr": "BKN015",
      "type": "BKN",
      "altitude": 15,
      "modifier": null
    },
    {
      "repr": "OVC020",
      "type": "OVC",
      "altitude": 20,
      "modifier": null
    }
  ],
  "flight_rules": "IFR",
  "other": [],
  "visibility": {
    "repr": "3",
    "value": 3,
    "spoken": "three"
  },
  "wind_direction": {
    "repr": "140",
    "value": 140,
    "spoken": "one four zero"
  },
  "wind_gust": null,
  "wind_speed": {
    "repr": "08",
    "value": 8,
    "spoken": "eight"
  },
  "wx_codes": [
    {
      "repr": "RA",
      "value": "Rain"
    },
    {
      "repr": "BR",
      "value": "Mist"
    }
  ],
  "raw": "KNUW 051053Z 14008KT 3SM RA BR BKN009 BKN015 OVC020 10/09 A2978 RMK AO2 SFC VIS 5 SLP088 P0013 T01000089 VISNO",
  "sanitized": "KNUW 051053Z 14008KT 3SM RA BR BKN009 BKN015 OVC020 10/09 A2978 RMK AO2 SFC VIS 5 SLP088 P0013 T01000089 VISNO",
  "station": "KNUW",
  "time": {
    "repr": "051053Z",
    "dt": "2023-05-05T10:53:00Z"
  },
  "remarks": "RMK AO2 SFC VIS 5 SLP088 P0013 T01000089 VISNO",
  "dewpoint": {
    "repr": "09",
    "value": 9,
    "spoken": "nine"
  },
  "relative_humidity": 0.9286987212378438,
  "remarks_info": {
    "maximum_temperature_6": null,
    "minimum_temperature_6": null,
    "pressure_tendency": null,
    "precip_36_hours": null,
    "precip_24_hours": null,
    "sunshine_minutes": null,
    "codes": [
      {
        "repr": "AO2",
        "value": "Automated with precipitation sensor"
      }
    ],
    "dewpoint_decimal": {
      "repr": "0089",
      "value": 8.9,
      "spoken": "eight point nine"
    },
    "maximum_temperature_24": null,
    "minimum_temperature_24": null,
    "precip_hourly": {
      "repr": "P0013",
      "value": 0.13,
      "spoken": "zero point one three"
    },
    "sea_level_pressure": {
      "repr": "SLP088",
      "value": 1008.8,
      "spoken": "one zero zero eight point eight"
    },
    "snow_depth": null,
    "temperature_decimal": {
      "repr": "0100",
      "value": 10,
      "spoken": "one zero point zero"
    }
  },
  "runway_visibility": [],
  "temperature": {
    "repr": "10",
    "value": 10,
    "spoken": "one zero"
  },
  "wind_variable_direction": [],
  "density_altitude": -402,
  "pressure_altitude": 187,
  "units": {
    "accumulation": "in",
    "altimeter": "inHg",
    "altitude": "ft",
    "temperature": "C",
    "visibility": "sm",
    "wind_speed": "kt"
  }
}
