{
  "altimeter": {
    "repr": "A3023",
    "spoken": "three zero point two three",
    "value": 30.23
  },
  "clouds": [
    {
      "altitude": 35,
      "modifier": null,
      "repr": "FEW035",
      "type": "FEW"
    },
    {
      "altitude": 50,
      "modifier": null,
      "repr": "SCT050",
      "type": "SCT"
    },
    {
      "altitude": 130,
      "modifier": null,
      "repr": "BKN130",
      "type": "BKN"
    },
    {
      "altitude": 220,
      "modifier": null,
      "repr": "OVC220",
      "type": "OVC"
    }
  ],
  "density_altitude": -480,
  "dewpoint": {
    "repr": "09",
    "spoken": "nine",
    "value": 9
  },
  "flight_rules": "VFR",
  "meta": {
    "stations_updated": "2024-06-12",
    "timestamp": "2024-09-21T17:30:07.907520Z"
  },
  "other": [],
  "pressure_altitude": -263,
  "raw": "KNUW 211653Z 28003KT 7SM FEW035 SCT050 BKN130 OVC220 13/09 A3023 RMK SLP238 T01310091",
  "relative_humidity": 0.7668032300817578,
  "remarks": "RMK SLP238 T01310091",
  "remarks_info": {
    "codes": [],
    "dewpoint_decimal": {
      "repr": "0091",
      "spoken": "nine point one",
      "value": 9.1
    },
    "maximum_temperature_24": null,
    "maximum_temperature_6": null,
    "minimum_temperature_24": null,
    "minimum_temperature_6": null,
    "precip_24_hours": null,
    "precip_36_hours": null,
    "precip_hourly": null,
    "pressure_tendency": null,
    "sea_level_pressure": {
      "repr": "SLP238",
      "spoken": "one zero two three point eight",
      "value": 1023.8
    },
    "snow_depth": null,
    "sunshine_minutes": null,
    "temperature_decimal": {
      "repr": "0131",
      "spoken": "one three point one",
      "value": 13.1
    }
  },
  "runway_visibility": [],
  "sanitized": "KNUW 211653Z 28003KT 7SM FEW035 SCT050 BKN130 OVC220 13/09 A3023 RMK SLP238 T01310091",
  "station": "KNUW",
  "temperature": {
    "repr": "13",
    "spoken": "one three",
    "value": 13
  },
  "time": {
    "dt": "2024-09-21T16:53:00Z",
    "repr": "211653Z"
  },
  "units": {
    "accumulation": "in",
    "altimeter": "inHg",
    "altitude": "ft",
    "temperature": "C",
    "visibility": "sm",
    "wind_speed": "kt"
  },
  "visibility": {
    "repr": "7",
    "spoken": "seven",
    "value": 7
  },
  "wind_direction": {
    "repr": "280",
    "spoken": "two eight zero",
    "value": 280
  },
  "wind_gust": null,
  "wind_speed": {
    "repr": "03",
    "spoken": "three",
    "value": 3
  },
  "wind_variable_direction": [],
  "wx_codes": []
}
