{
  "meta": {
    "timestamp": "2022-12-22T07:02:04.674535Z",
    "stations_updated": "2022-09-05"
  },
  "altimeter": {
    "repr": "A3066",
    "value": 30.66,
    "spoken": "three zero point six six"
  },
  "clouds": [
    {
      "repr": "FEW025",
      "type": "FEW",
      "altitude": 25,
      "modifier": null
    },
    {
      "repr": "SCT042",
      "type": "SCT",
      "altitude": 42,
      "modifier": null
    },
    {
      "repr": "BKN210",
      "type": "BKN",
      "altitude": 210,
      "modifier": null
    }
  ],
  "flight_rules": "VFR",
  "other": [],
  "visibility": {
    "repr": "10",
    "value": 10,
    "spoken": "one zero"
  },
  "wind_direction": {
    "repr": "000",
    "value": 0,
    "spoken": "zero zero zero"
  },
  "wind_gust": null,
  "wind_speed": {
    "repr": "00",
    "value": 0,
    "spoken": "zero"
  },
  "wx_codes": [],
  "raw": "KNUW 220653Z 00000KT 10SM FEW025 SCT042 BKN210 M09/M14 A3066 RMK AO2 SLP380 T10941139 VISNO $",
  "sanitized": "KNUW 220653Z 00000KT 10SM FEW025 SCT042 BKN210 M09/M14 A3066 RMK AO2 SLP380 T10941139 VISNO $",
  "station": "KNUW",
  "time": {
    "repr": "220653Z",
    "dt": "2022-12-22T06:53:00Z"
  },
  "remarks": "RMK AO2 SLP380 T10941139 VISNO $",
  "dewpoint": {
    "repr": "M14",
    "value": -14,
    "spoken": "minus one four"
  },
  "relative_humidity": 0.6975188566280434,
  "remarks_info": {
    "maximum_temperature_6": null,
    "minimum_temperature_6": null,
    "pressure_tendency": null,
    "precip_36_hours": null,
    "precip_24_hours": null,
    "sunshine_minutes": null,
    "codes": [
      {
        "repr": "$",
        "value": "ASOS requires maintenance"
      },
      {
        "repr": "AO2",
        "value": "Automated with precipitation sensor"
      }
    ],
    "dewpoint_decimal": {
      "repr": "1139",
      "value": -13.9,
      "spoken": "minus one three point nine"
    },
    "maximum_temperature_24": null,
    "minimum_temperature_24": null,
    "precip_hourly": null,
    "sea_level_pressure": {
      "repr": "SLP380",
      "value": 1038,
      "spoken": "one zero three eight point zero"
    },
    "snow_depth": null,
    "temperature_decimal": {
      "repr": "1094",
      "value": -9.4,
      "spoken": "minus nine point four"
    }
  },
  "runway_visibility": [],
  "temperature": {
    "repr": "M09",
    "value": -9,
    "spoken": "minus nine"
  },
  "wind_variable_direction": [],
  "density_altitude": -3610,
  "pressure_altitude": -693,
  "units": {
    "accumulation": "in",
    "altimeter": "inHg",
    "altitude": "ft",
    "temperature": "C",
    "visibility": "sm",
    "wind_speed": "kt"
  }
}
