{
  "altimeter": {
    "repr": "A3012",
    "spoken": "three zero point one two",
    "value": 30.12
  },
  "clouds": [
    {
      "altitude": 34,
      "modifier": null,
      "repr": "FEW034",
      "type": "FEW"
    },
    {
      "altitude": 70,
      "modifier": null,
      "repr": "SCT070",
      "type": "SCT"
    },
    {
      "altitude": 120,
      "modifier": null,
      "repr": "SCT120",
      "type": "SCT"
    },
    {
      "altitude": 220,
      "modifier": null,
      "repr": "BKN220",
      "type": "BKN"
    }
  ],
  "density_altitude": 62,
  "dewpoint": {
    "repr": "09",
    "spoken": "nine",
    "value": 9
  },
  "flight_rules": "VFR",
  "meta": {
    "stations_updated": "2024-06-12",
    "timestamp": "2024-10-09T22:42:10.957908Z"
  },
  "other": [],
  "pressure_altitude": -153,
  "raw": "KNUW 092053Z 15007KT 10SM FEW034 SCT070 SCT120 BKN220 17/09 A3012 RMK SLP204 T01670089 51005",
  "relative_humidity": 0.5998865073911597,
  "remarks": "RMK SLP204 T01670089 51005",
  "remarks_info": {
    "codes": [],
    "dewpoint_decimal": {
      "repr": "0089",
      "spoken": "eight point nine",
      "value": 8.9
    },
    "maximum_temperature_24": null,
    "maximum_temperature_6": null,
    "minimum_temperature_24": null,
    "minimum_temperature_6": null,
    "precip_24_hours": null,
    "precip_36_hours": null,
    "precip_hourly": null,
    "pressure_tendency": {
      "change": 0.5,
      "repr": "51005",
      "tendency": "Increasing, then steady"
    },
    "sea_level_pressure": {
      "repr": "SLP204",
      "spoken": "one zero two zero point four",
      "value": 1020.4
    },
    "snow_depth": null,
    "sunshine_minutes": null,
    "temperature_decimal": {
      "repr": "0167",
      "spoken": "one six point seven",
      "value": 16.7
    }
  },
  "runway_visibility": [],
  "sanitized": "KNUW 092053Z 15007KT 10SM FEW034 SCT070 SCT120 BKN220 17/09 A3012 RMK SLP204 T01670089 51005",
  "station": "KNUW",
  "temperature": {
    "repr": "17",
    "spoken": "one seven",
    "value": 17
  },
  "time": {
    "dt": "2024-10-09T20:53:00Z",
    "repr": "092053Z"
  },
  "units": {
    "accumulation": "in",
    "altimeter": "inHg",
    "altitude": "ft",
    "temperature": "C",
    "visibility": "sm",
    "wind_speed": "kt"
  },
  "visibility": {
    "repr": "10",
    "spoken": "one zero",
    "value": 10
  },
  "wind_direction": {
    "repr": "150",
    "spoken": "one five zero",
    "value": 150
  },
  "wind_gust": null,
  "wind_speed": {
    "repr": "07",
    "spoken": "seven",
    "value": 7
  },
  "wind_variable_direction": [],
  "wx_codes": []
}
