{
  "altimeter": {
    "repr": "A3042",
    "spoken": "three zero point four two",
    "value": 30.42
  },
  "clouds": [
    {
      "altitude": 15,
      "modifier": null,
      "repr": "BKN015",
      "type": "BKN"
    }
  ],
  "density_altitude": -1714,
  "dewpoint": {
    "repr": "04",
    "spoken": "four",
    "value": 4
  },
  "flight_rules": "MVFR",
  "meta": {
    "cache-timestamp": "2023-11-25T19:00:02.839000Z",
    "stations_updated": "2023-10-28",
    "timestamp": "2023-11-25T19:01:02.571863Z"
  },
  "other": [],
  "pressure_altitude": -453,
  "raw": "KNUW 251753Z 00000KT 10SM BKN015 04/04 A3042 RMK AO2 SLP305 T00440044 10044 20000 53008 $",
  "relative_humidity": 1,
  "remarks": "RMK AO2 SLP305 T00440044 10044 20000 53008 $",
  "remarks_info": {
    "codes": [
      {
        "repr": "$",
        "value": "ASOS requires maintenance"
      },
      {
        "repr": "AO2",
        "value": "Automated with precipitation sensor"
      }
    ],
    "dewpoint_decimal": {
      "repr": "0044",
      "spoken": "four point four",
      "value": 4.4
    },
    "maximum_temperature_24": null,
    "maximum_temperature_6": {
      "repr": "10044",
      "spoken": "four point four",
      "value": 4.4
    },
    "minimum_temperature_24": null,
    "minimum_temperature_6": {
      "repr": "20000",
      "spoken": "zero",
      "value": 0
    },
    "precip_24_hours": null,
    "precip_36_hours": null,
    "precip_hourly": null,
    "pressure_tendency": {
      "change": 0.8,
      "repr": "53008",
      "tendency": "Decreasing or steady, then increasing"
    },
    "sea_level_pressure": {
      "repr": "SLP305",
      "spoken": "one zero three zero point five",
      "value": 1030.5
    },
    "snow_depth": null,
    "sunshine_minutes": null,
    "temperature_decimal": {
      "repr": "0044",
      "spoken": "four point four",
      "value": 4.4
    }
  },
  "runway_visibility": [],
  "sanitized": "KNUW 251753Z 00000KT 10SM BKN015 04/04 A3042 RMK AO2 SLP305 T00440044 10044 20000 53008 $",
  "station": "KNUW",
  "temperature": {
    "repr": "04",
    "spoken": "four",
    "value": 4
  },
  "time": {
    "dt": "2023-11-25T17:53:00Z",
    "repr": "251753Z"
  },
  "units": {
    "accumulation": "in",
    "altimeter": "inHg",
    "altitude": "ft",
    "temperature": "C",
    "visibility": "sm",
    "wind_speed": "kt"
  },
  "visibility": {
    "repr": "10",
    "spoken": "one zero",
    "value": 10
  },
  "wind_direction": {
    "repr": "000",
    "spoken": "zero zero zero",
    "value": 0
  },
  "wind_gust": null,
  "wind_speed": {
    "repr": "00",
    "spoken": "zero",
    "value": 0
  },
  "wind_variable_direction": [],
  "wx_codes": []
}
