{
  "altimeter": {
    "repr": "A3005",
    "spoken": "three zero point zero five",
    "value": 30.05
  },
  "clouds": [
    {
      "altitude": 21,
      "modifier": null,
      "repr": "SCT021",
      "type": "SCT"
    },
    {
      "altitude": 30,
      "modifier": null,
      "repr": "BKN030",
      "type": "BKN"
    },
    {
      "altitude": 75,
      "modifier": null,
      "repr": "OVC075",
      "type": "OVC"
    }
  ],
  "density_altitude": -1008,
  "dewpoint": {
    "repr": "05",
    "spoken": "five",
    "value": 5
  },
  "flight_rules": "MVFR",
  "meta": {
    "cache-timestamp": "2024-01-04T15:26:05.280000Z",
    "stations_updated": "2023-10-28",
    "timestamp": "2024-01-04T15:26:25.609799Z"
  },
  "other": [],
  "pressure_altitude": -83,
  "raw": "KNUW 041453Z 13021G32KT 10SM SCT021 BKN030 OVC075 07/05 A3005 RMK AO2 PK WND 13035/1427 SLP179 60005 T00720050 55004 $",
  "relative_humidity": 0.8590382146577359,
  "remarks": "RMK AO2 PK WND 13035/1427 SLP179 60005 T00720050 55004 $",
  "remarks_info": {
    "codes": [
      {
        "repr": "$",
        "value": "ASOS requires maintenance"
      },
      {
        "repr": "AO2",
        "value": "Automated with precipitation sensor"
      }
    ],
    "dewpoint_decimal": {
      "repr": "0050",
      "spoken": "five point zero",
      "value": 5
    },
    "maximum_temperature_24": null,
    "maximum_temperature_6": null,
    "minimum_temperature_24": null,
    "minimum_temperature_6": null,
    "precip_24_hours": null,
    "precip_36_hours": {
      "repr": "60005",
      "spoken": "zero point zero five",
      "value": 0.05
    },
    "precip_hourly": null,
    "pressure_tendency": {
      "change": 0.4,
      "repr": "55004",
      "tendency": "Decreasing, then increasing"
    },
    "sea_level_pressure": {
      "repr": "SLP179",
      "spoken": "one zero one seven point nine",
      "value": 1017.9
    },
    "snow_depth": null,
    "sunshine_minutes": null,
    "temperature_decimal": {
      "repr": "0072",
      "spoken": "seven point two",
      "value": 7.2
    }
  },
  "runway_visibility": [],
  "sanitized": "KNUW 041453Z 13021G32KT 10SM SCT021 BKN030 OVC075 07/05 A3005 RMK AO2 PK WND 13035/1427 SLP179 60005 T00720050 55004 $",
  "station": "KNUW",
  "temperature": {
    "repr": "07",
    "spoken": "seven",
    "value": 7
  },
  "time": {
    "dt": "2024-01-04T14:53:00Z",
    "repr": "041453Z"
  },
  "units": {
    "accumulation": "in",
    "altimeter": "inHg",
    "altitude": "ft",
    "temperature": "C",
    "visibility": "sm",
    "wind_speed": "kt"
  },
  "visibility": {
    "repr": "10",
    "spoken": "one zero",
    "value": 10
  },
  "wind_direction": {
    "repr": "130",
    "spoken": "one three zero",
    "value": 130
  },
  "wind_gust": {
    "repr": "32",
    "spoken": "three two",
    "value": 32
  },
  "wind_speed": {
    "repr": "21",
    "spoken": "two one",
    "value": 21
  },
  "wind_variable_direction": [],
  "wx_codes": []
}
