{
  "meta": {
    "timestamp": "2023-07-05T09:27:32.194920Z",
    "stations_updated": "2023-06-06"
  },
  "altimeter": {
    "repr": "A2998",
    "value": 29.98,
    "spoken": "two nine point nine eight"
  },
  "clouds": [
    {
      "repr": "FEW070",
      "type": "FEW",
      "altitude": 70,
      "modifier": null
    }
  ],
  "flight_rules": "VFR",
  "other": [],
  "visibility": {
    "repr": "10",
    "value": 10,
    "spoken": "one zero"
  },
  "wind_direction": {
    "repr": "140",
    "value": 140,
    "spoken": "one four zero"
  },
  "wind_gust": null,
  "wind_speed": {
    "repr": "03",
    "value": 3,
    "spoken": "three"
  },
  "wx_codes": [],
  "raw": "KNUW 050853Z 14003KT 10SM FEW070 12/06 A2998 RMK AO2 SLP156 T01170061 58004 VISNO $",
  "sanitized": "KNUW 050853Z 14003KT 10SM FEW070 12/06 A2998 RMK AO2 SLP156 T01170061 58004 VISNO $",
  "station": "KNUW",
  "time": {
    "repr": "050853Z",
    "dt": "2023-07-05T08:53:00Z"
  },
  "remarks": "RMK AO2 SLP156 T01170061 58004 VISNO $",
  "dewpoint": {
    "repr": "06",
    "value": 6,
    "spoken": "six"
  },
  "relative_humidity": 0.68504766646176,
  "remarks_info": {
    "maximum_temperature_6": null,
    "minimum_temperature_6": null,
    "pressure_tendency": {
      "repr": "58004",
      "tendency": "Steady or increasing, then decreasing",
      "change": 0.4
    },
    "precip_36_hours": null,
    "precip_24_hours": null,
    "sunshine_minutes": null,
    "codes": [
      {
        "repr": "$",
        "value": "ASOS requires maintenance"
      },
      {
        "repr": "AO2",
        "value": "Automated with precipitation sensor"
      }
    ],
    "dewpoint_decimal": {
      "repr": "0061",
      "value": 6.1,
      "spoken": "six point one"
    },
    "maximum_temperature_24": null,
    "minimum_temperature_24": null,
    "precip_hourly": null,
    "sea_level_pressure": {
      "repr": "SLP156",
      "value": 1015.6,
      "spoken": "one zero one five point six"
    },
    "snow_depth": null,
    "temperature_decimal": {
      "repr": "0117",
      "value": 11.7,
      "spoken": "one one point seven"
    }
  },
  "runway_visibility": [],
  "temperature": {
    "repr": "12",
    "value": 12,
    "spoken": "one two"
  },
  "wind_variable_direction": [],
  "density_altitude": -398,
  "pressure_altitude": -13,
  "units": {
    "accumulation": "in",
    "altimeter": "inHg",
    "altitude": "ft",
    "temperature": "C",
    "visibility": "sm",
    "wind_speed": "kt"
  }
}
