{
  "altimeter": {
    "repr": "A3052",
    "spoken": "three zero point five two",
    "value": 30.52
  },
  "clouds": [
    {
      "altitude": 30,
      "modifier": null,
      "repr": "FEW030",
      "type": "FEW"
    },
    {
      "altitude": 190,
      "modifier": null,
      "repr": "SCT190",
      "type": "SCT"
    }
  ],
  "density_altitude": -1478,
  "dewpoint": {
    "repr": "04",
    "spoken": "four",
    "value": 4
  },
  "flight_rules": "VFR",
  "meta": {
    "stations_updated": "2023-10-28",
    "timestamp": "2023-11-20T06:41:18.420840Z"
  },
  "other": [],
  "pressure_altitude": -553,
  "raw": "KNUW 200553Z VRB03KT 10SM FEW030 SCT190 07/04 A3052 RMK AO2 SLP337 T00720039 10094 20072 53019 $",
  "relative_humidity": 0.79538726181392,
  "remarks": "RMK AO2 SLP337 T00720039 10094 20072 53019 $",
  "remarks_info": {
    "codes": [
      {
        "repr": "$",
        "value": "ASOS requires maintenance"
      },
      {
        "repr": "AO2",
        "value": "Automated with precipitation sensor"
      }
    ],
    "dewpoint_decimal": {
      "repr": "0039",
      "spoken": "three point nine",
      "value": 3.9
    },
    "maximum_temperature_24": null,
    "maximum_temperature_6": {
      "repr": "10094",
      "spoken": "nine point four",
      "value": 9.4
    },
    "minimum_temperature_24": null,
    "minimum_temperature_6": {
      "repr": "20072",
      "spoken": "seven point two",
      "value": 7.2
    },
    "precip_24_hours": null,
    "precip_36_hours": null,
    "precip_hourly": null,
    "pressure_tendency": {
      "change": 1.9,
      "repr": "53019",
      "tendency": "Decreasing or steady, then increasing"
    },
    "sea_level_pressure": {
      "repr": "SLP337",
      "spoken": "one zero three three point seven",
      "value": 1033.7
    },
    "snow_depth": null,
    "sunshine_minutes": null,
    "temperature_decimal": {
      "repr": "0072",
      "spoken": "seven point two",
      "value": 7.2
    }
  },
  "runway_visibility": [],
  "sanitized": "KNUW 200553Z VRB03KT 10SM FEW030 SCT190 07/04 A3052 RMK AO2 SLP337 T00720039 10094 20072 53019 $",
  "station": "KNUW",
  "temperature": {
    "repr": "07",
    "spoken": "seven",
    "value": 7
  },
  "time": {
    "dt": "2023-11-20T05:53:00Z",
    "repr": "200553Z"
  },
  "units": {
    "accumulation": "in",
    "altimeter": "inHg",
    "altitude": "ft",
    "temperature": "C",
    "visibility": "sm",
    "wind_speed": "kt"
  },
  "visibility": {
    "repr": "10",
    "spoken": "one zero",
    "value": 10
  },
  "wind_direction": {
    "repr": "VRB",
    "spoken": "variable",
    "value": null
  },
  "wind_gust": null,
  "wind_speed": {
    "repr": "03",
    "spoken": "three",
    "value": 3
  },
  "wind_variable_direction": [],
  "wx_codes": []
}
