{
  "meta": {
    "timestamp": "2023-03-23T05:40:52.214800Z",
    "stations_updated": "2023-03-11",
    "cache-timestamp": "2023-03-23T05:40:05.969000Z"
  },
  "altimeter": {
    "repr": "A2984",
    "value": 29.84,
    "spoken": "two nine point eight four"
  },
  "clouds": [
    {
      "repr": "BKN075",
      "type": "BKN",
      "altitude": 75,
      "modifier": null
    },
    {
      "repr": "BKN110",
      "type": "BKN",
      "altitude": 110,
      "modifier": null
    },
    {
      "repr": "BKN250",
      "type": "BKN",
      "altitude": 250,
      "modifier": null
    }
  ],
  "flight_rules": "VFR",
  "other": [],
  "visibility": {
    "repr": "10",
    "value": 10,
    "spoken": "one zero"
  },
  "wind_direction": {
    "repr": "250",
    "value": 250,
    "spoken": "two five zero"
  },
  "wind_gust": null,
  "wind_speed": {
    "repr": "10",
    "value": 10,
    "spoken": "one zero"
  },
  "wx_codes": [],
  "raw": "KNUW 230453Z 25010KT 10SM BKN075 BKN110 BKN250 09/06 A2984 RMK AO2 SLP107 T00890061 VISNO $",
  "sanitized": "KNUW 230453Z 25010KT 10SM BKN075 BKN110 BKN250 09/06 A2984 RMK AO2 SLP107 T00890061 VISNO $",
  "station": "KNUW",
  "time": {
    "repr": "230453Z",
    "dt": "2023-03-23T04:53:00Z"
  },
  "remarks": "RMK AO2 SLP107 T00890061 VISNO $",
  "dewpoint": {
    "repr": "06",
    "value": 6,
    "spoken": "six"
  },
  "relative_humidity": 0.8259412939623852,
  "remarks_info": {
    "maximum_temperature_6": null,
    "minimum_temperature_6": null,
    "pressure_tendency": null,
    "precip_36_hours": null,
    "precip_24_hours": null,
    "sunshine_minutes": null,
    "codes": [
      {
        "repr": "$",
        "value": "ASOS requires maintenance"
      },
      {
        "repr": "AO2",
        "value": "Automated with precipitation sensor"
      }
    ],
    "dewpoint_decimal": {
      "repr": "0061",
      "value": 6.1,
      "spoken": "six point one"
    },
    "maximum_temperature_24": null,
    "minimum_temperature_24": null,
    "precip_hourly": null,
    "sea_level_pressure": {
      "repr": "SLP107",
      "value": 1010.7,
      "spoken": "one zero one zero point seven"
    },
    "snow_depth": null,
    "temperature_decimal": {
      "repr": "0089",
      "value": 8.9,
      "spoken": "eight point nine"
    }
  },
  "runway_visibility": [],
  "temperature": {
    "repr": "09",
    "value": 9,
    "spoken": "nine"
  },
  "wind_variable_direction": [],
  "density_altitude": -594,
  "pressure_altitude": 127,
  "units": {
    "accumulation": "in",
    "altimeter": "inHg",
    "altitude": "ft",
    "temperature": "C",
    "visibility": "sm",
    "wind_speed": "kt"
  }
}
