{
  "altimeter": {
    "repr": "A2998",
    "spoken": "two nine point nine eight",
    "value": 29.98
  },
  "clouds": [
    {
      "altitude": 100,
      "modifier": null,
      "repr": "BKN100",
      "type": "BKN"
    },
    {
      "altitude": 140,
      "modifier": null,
      "repr": "OVC140",
      "type": "OVC"
    }
  ],
  "density_altitude": -266,
  "dewpoint": {
    "repr": "06",
    "spoken": "six",
    "value": 6
  },
  "flight_rules": "VFR",
  "meta": {
    "stations_updated": "2024-12-02",
    "timestamp": "2024-12-07T04:34:09.056572Z"
  },
  "other": [],
  "pressure_altitude": -13,
  "raw": "KNUW 070353Z 13027G38KT 10SM BKN100 OVC140 13/06 A2998 RMK AO2 PK WND 14038/0353 SLP155 T01280056 $",
  "relative_humidity": 0.6155569548763891,
  "remarks": "RMK AO2 PK WND 14038/0353 SLP155 T01280056 $",
  "remarks_info": {
    "codes": [
      {
        "repr": "$",
        "value": "ASOS requires maintenance"
      },
      {
        "repr": "AO2",
        "value": "Automated with precipitation sensor"
      }
    ],
    "dewpoint_decimal": {
      "repr": "0056",
      "spoken": "five point six",
      "value": 5.6
    },
    "maximum_temperature_24": null,
    "maximum_temperature_6": null,
    "minimum_temperature_24": null,
    "minimum_temperature_6": null,
    "precip_24_hours": null,
    "precip_36_hours": null,
    "precip_hourly": null,
    "pressure_tendency": null,
    "sea_level_pressure": {
      "repr": "SLP155",
      "spoken": "one zero one five point five",
      "value": 1015.5
    },
    "snow_depth": null,
    "sunshine_minutes": null,
    "temperature_decimal": {
      "repr": "0128",
      "spoken": "one two point eight",
      "value": 12.8
    }
  },
  "runway_visibility": [],
  "sanitized": "KNUW 070353Z 13027G38KT 10SM BKN100 OVC140 13/06 A2998 RMK AO2 PK WND 14038/0353 SLP155 T01280056 $",
  "station": "KNUW",
  "temperature": {
    "repr": "13",
    "spoken": "one three",
    "value": 13
  },
  "time": {
    "dt": "2024-12-07T03:53:00Z",
    "repr": "070353Z"
  },
  "units": {
    "accumulation": "in",
    "altimeter": "inHg",
    "altitude": "ft",
    "temperature": "C",
    "visibility": "sm",
    "wind_speed": "kt"
  },
  "visibility": {
    "repr": "10",
    "spoken": "one zero",
    "value": 10
  },
  "wind_direction": {
    "repr": "130",
    "spoken": "one three zero",
    "value": 130
  },
  "wind_gust": {
    "repr": "38",
    "spoken": "three eight",
    "value": 38
  },
  "wind_speed": {
    "repr": "27",
    "spoken": "two seven",
    "value": 27
  },
  "wind_variable_direction": [],
  "wx_codes": []
}
