{
  "altimeter": {
    "repr": "A2969",
    "spoken": "two nine point six nine",
    "value": 29.69
  },
  "clouds": [
    {
      "altitude": 23,
      "modifier": null,
      "repr": "OVC023",
      "type": "OVC"
    }
  ],
  "density_altitude": -180,
  "dewpoint": {
    "repr": "07",
    "spoken": "seven",
    "value": 7
  },
  "flight_rules": "MVFR",
  "meta": {
    "cache-timestamp": "2024-01-24T21:40:15.630000Z",
    "stations_updated": "2023-10-28",
    "timestamp": "2024-01-24T21:40:44.283874Z"
  },
  "other": [],
  "pressure_altitude": 277,
  "raw": "KNUW 242100Z 12011G22KT 10SM OVC023 11/07 A2969 RMK AO2 T01110072 $",
  "relative_humidity": 0.7688202633766026,
  "remarks": "RMK AO2 T01110072 $",
  "remarks_info": {
    "codes": [
      {
        "repr": "$",
        "value": "ASOS requires maintenance"
      },
      {
        "repr": "AO2",
        "value": "Automated with precipitation sensor"
      }
    ],
    "dewpoint_decimal": {
      "repr": "0072",
      "spoken": "seven point two",
      "value": 7.2
    },
    "maximum_temperature_24": null,
    "maximum_temperature_6": null,
    "minimum_temperature_24": null,
    "minimum_temperature_6": null,
    "precip_24_hours": null,
    "precip_36_hours": null,
    "precip_hourly": null,
    "pressure_tendency": null,
    "sea_level_pressure": null,
    "snow_depth": null,
    "sunshine_minutes": null,
    "temperature_decimal": {
      "repr": "0111",
      "spoken": "one one point one",
      "value": 11.1
    }
  },
  "runway_visibility": [],
  "sanitized": "KNUW 242100Z 12011G22KT 10SM OVC023 11/07 A2969 RMK AO2 T01110072 $",
  "station": "KNUW",
  "temperature": {
    "repr": "11",
    "spoken": "one one",
    "value": 11
  },
  "time": {
    "dt": "2024-01-24T21:00:00Z",
    "repr": "242100Z"
  },
  "units": {
    "accumulation": "in",
    "altimeter": "inHg",
    "altitude": "ft",
    "temperature": "C",
    "visibility": "sm",
    "wind_speed": "kt"
  },
  "visibility": {
    "repr": "10",
    "spoken": "one zero",
    "value": 10
  },
  "wind_direction": {
    "repr": "120",
    "spoken": "one two zero",
    "value": 120
  },
  "wind_gust": {
    "repr": "22",
    "spoken": "two two",
    "value": 22
  },
  "wind_speed": {
    "repr": "11",
    "spoken": "one one",
    "value": 11
  },
  "wind_variable_direction": [],
  "wx_codes": []
}
