{
  "altimeter": {
    "repr": "A3014",
    "spoken": "three zero point one four",
    "value": 30.14
  },
  "clouds": [
    {
      "altitude": 9,
      "modifier": null,
      "repr": "BKN009",
      "type": "BKN"
    },
    {
      "altitude": 21,
      "modifier": null,
      "repr": "OVC021",
      "type": "OVC"
    }
  ],
  "density_altitude": -630,
  "dewpoint": {
    "repr": "10",
    "spoken": "one zero",
    "value": 10
  },
  "flight_rules": "IFR",
  "meta": {
    "stations_updated": "2024-06-12",
    "timestamp": "2024-10-22T06:10:41.580397Z"
  },
  "other": [],
  "pressure_altitude": -173,
  "raw": "KNUW 220553Z 17005KT 4SM BR BKN009 OVC021 11/10 A3014 RMK AO2 SLP211 60020 T01110100 10133 20106 53019 $",
  "relative_humidity": 0.9292925193591732,
  "remarks": "RMK AO2 SLP211 60020 T01110100 10133 20106 53019 $",
  "remarks_info": {
    "codes": [
      {
        "repr": "$",
        "value": "ASOS requires maintenance"
      },
      {
        "repr": "AO2",
        "value": "Automated with precipitation sensor"
      }
    ],
    "dewpoint_decimal": {
      "repr": "0100",
      "spoken": "one zero point zero",
      "value": 10
    },
    "maximum_temperature_24": null,
    "maximum_temperature_6": {
      "repr": "10133",
      "spoken": "one three point three",
      "value": 13.3
    },
    "minimum_temperature_24": null,
    "minimum_temperature_6": {
      "repr": "20106",
      "spoken": "one zero point six",
      "value": 10.6
    },
    "precip_24_hours": null,
    "precip_36_hours": {
      "repr": "60020",
      "spoken": "zero point two",
      "value": 0.2
    },
    "precip_hourly": null,
    "pressure_tendency": {
      "change": 1.9,
      "repr": "53019",
      "tendency": "Decreasing or steady, then increasing"
    },
    "sea_level_pressure": {
      "repr": "SLP211",
      "spoken": "one zero two one point one",
      "value": 1021.1
    },
    "snow_depth": null,
    "sunshine_minutes": null,
    "temperature_decimal": {
      "repr": "0111",
      "spoken": "one one point one",
      "value": 11.1
    }
  },
  "runway_visibility": [],
  "sanitized": "KNUW 220553Z 17005KT 4SM BR BKN009 OVC021 11/10 A3014 RMK AO2 SLP211 60020 T01110100 10133 20106 53019 $",
  "station": "KNUW",
  "temperature": {
    "repr": "11",
    "spoken": "one one",
    "value": 11
  },
  "time": {
    "dt": "2024-10-22T05:53:00Z",
    "repr": "220553Z"
  },
  "units": {
    "accumulation": "in",
    "altimeter": "inHg",
    "altitude": "ft",
    "temperature": "C",
    "visibility": "sm",
    "wind_speed": "kt"
  },
  "visibility": {
    "repr": "4",
    "spoken": "four",
    "value": 4
  },
  "wind_direction": {
    "repr": "170",
    "spoken": "one seven zero",
    "value": 170
  },
  "wind_gust": null,
  "wind_speed": {
    "repr": "05",
    "spoken": "five",
    "value": 5
  },
  "wind_variable_direction": [],
  "wx_codes": [
    {
      "repr": "BR",
      "value": "Mist"
    }
  ]
}
