{
  "meta": {
    "timestamp": "2023-05-28T07:20:42.644236Z",
    "stations_updated": "2023-03-11",
    "cache-timestamp": "2023-05-28T07:20:07.081000Z"
  },
  "altimeter": {
    "repr": "A3003",
    "value": 30.03,
    "spoken": "three zero point zero three"
  },
  "clouds": [
    {
      "repr": "FEW050",
      "type": "FEW",
      "altitude": 50,
      "modifier": null
    }
  ],
  "flight_rules": "VFR",
  "other": [],
  "visibility": {
    "repr": "10",
    "value": 10,
    "spoken": "one zero"
  },
  "wind_direction": {
    "repr": "230",
    "value": 230,
    "spoken": "two three zero"
  },
  "wind_gust": {
    "repr": "21",
    "value": 21,
    "spoken": "two one"
  },
  "wind_speed": {
    "repr": "10",
    "value": 10,
    "spoken": "one zero"
  },
  "wx_codes": [],
  "raw": "KNUW 280653Z 23010G21KT 10SM FEW050 11/09 A3003 RMK AO2 SLP172 T01110089 $",
  "sanitized": "KNUW 280653Z 23010G21KT 10SM FEW050 11/09 A3003 RMK AO2 SLP172 T01110089 $",
  "station": "KNUW",
  "time": {
    "repr": "280653Z",
    "dt": "2023-05-28T06:53:00Z"
  },
  "remarks": "RMK AO2 SLP172 T01110089 $",
  "dewpoint": {
    "repr": "09",
    "value": 9,
    "spoken": "nine"
  },
  "relative_humidity": 0.8630327743847583,
  "remarks_info": {
    "maximum_temperature_6": null,
    "minimum_temperature_6": null,
    "pressure_tendency": null,
    "precip_36_hours": null,
    "precip_24_hours": null,
    "sunshine_minutes": null,
    "codes": [
      {
        "repr": "$",
        "value": "ASOS requires maintenance"
      },
      {
        "repr": "AO2",
        "value": "Automated with precipitation sensor"
      }
    ],
    "dewpoint_decimal": {
      "repr": "0089",
      "value": 8.9,
      "spoken": "eight point nine"
    },
    "maximum_temperature_24": null,
    "minimum_temperature_24": null,
    "precip_hourly": null,
    "sea_level_pressure": {
      "repr": "SLP172",
      "value": 1017.2,
      "spoken": "one zero one seven point two"
    },
    "snow_depth": null,
    "temperature_decimal": {
      "repr": "0111",
      "value": 11.1,
      "spoken": "one one point one"
    }
  },
  "runway_visibility": [],
  "temperature": {
    "repr": "11",
    "value": 11,
    "spoken": "one one"
  },
  "wind_variable_direction": [],
  "density_altitude": -520,
  "pressure_altitude": -63,
  "units": {
    "accumulation": "in",
    "altimeter": "inHg",
    "altitude": "ft",
    "temperature": "C",
    "visibility": "sm",
    "wind_speed": "kt"
  }
}
