{
  "altimeter": {
    "repr": "A2975",
    "spoken": "two nine point seven five",
    "value": 29.75
  },
  "clouds": [
    {
      "altitude": 25,
      "modifier": null,
      "repr": "FEW025",
      "type": "FEW"
    },
    {
      "altitude": 130,
      "modifier": null,
      "repr": "SCT130",
      "type": "SCT"
    }
  ],
  "density_altitude": -636,
  "dewpoint": {
    "repr": "02",
    "spoken": "two",
    "value": 2
  },
  "flight_rules": "VFR",
  "meta": {
    "cache-timestamp": "2024-01-06T19:20:05.926000Z",
    "stations_updated": "2023-10-28",
    "timestamp": "2024-01-06T19:20:47.284816Z"
  },
  "other": [],
  "pressure_altitude": 217,
  "raw": "KNUW 061853Z 28017KT 10SM FEW025 SCT130 08/02 A2975 RMK AO2 PK WND 27029/1757 SLP077 T00780017 $",
  "relative_humidity": 0.6531529877193706,
  "remarks": "RMK AO2 PK WND 27029/1757 SLP077 T00780017 $",
  "remarks_info": {
    "codes": [
      {
        "repr": "$",
        "value": "ASOS requires maintenance"
      },
      {
        "repr": "AO2",
        "value": "Automated with precipitation sensor"
      }
    ],
    "dewpoint_decimal": {
      "repr": "0017",
      "spoken": "one point seven",
      "value": 1.7
    },
    "maximum_temperature_24": null,
    "maximum_temperature_6": null,
    "minimum_temperature_24": null,
    "minimum_temperature_6": null,
    "precip_24_hours": null,
    "precip_36_hours": null,
    "precip_hourly": null,
    "pressure_tendency": null,
    "sea_level_pressure": {
      "repr": "SLP077",
      "spoken": "one zero zero seven point seven",
      "value": 1007.7
    },
    "snow_depth": null,
    "sunshine_minutes": null,
    "temperature_decimal": {
      "repr": "0078",
      "spoken": "seven point eight",
      "value": 7.8
    }
  },
  "runway_visibility": [],
  "sanitized": "KNUW 061853Z 28017KT 10SM FEW025 SCT130 08/02 A2975 RMK AO2 PK WND 27029/1757 SLP077 T00780017 $",
  "station": "KNUW",
  "temperature": {
    "repr": "08",
    "spoken": "eight",
    "value": 8
  },
  "time": {
    "dt": "2024-01-06T18:53:00Z",
    "repr": "061853Z"
  },
  "units": {
    "accumulation": "in",
    "altimeter": "inHg",
    "altitude": "ft",
    "temperature": "C",
    "visibility": "sm",
    "wind_speed": "kt"
  },
  "visibility": {
    "repr": "10",
    "spoken": "one zero",
    "value": 10
  },
  "wind_direction": {
    "repr": "280",
    "spoken": "two eight zero",
    "value": 280
  },
  "wind_gust": null,
  "wind_speed": {
    "repr": "17",
    "spoken": "one seven",
    "value": 17
  },
  "wind_variable_direction": [],
  "wx_codes": []
}
