{
  "altimeter": {
    "repr": "A2944",
    "spoken": "two nine point four four",
    "value": 29.44
  },
  "clouds": [
    {
      "altitude": 32,
      "modifier": null,
      "repr": "BKN032",
      "type": "BKN"
    },
    {
      "altitude": 90,
      "modifier": null,
      "repr": "BKN090",
      "type": "BKN"
    }
  ],
  "density_altitude": -62,
  "dewpoint": {
    "repr": "05",
    "spoken": "five",
    "value": 5
  },
  "flight_rules": "VFR",
  "meta": {
    "stations_updated": "2024-12-02",
    "timestamp": "2024-12-14T17:28:40.227356Z"
  },
  "other": [],
  "pressure_altitude": 527,
  "raw": "KNUW 141653Z 15033G56KT 10SM BKN032 BKN090 10/05 A2944 RMK PK WND 15062/1616 SLP973 T01000050",
  "relative_humidity": 0.7106976250052686,
  "remarks": "RMK PK WND 15062/1616 SLP973 T01000050",
  "remarks_info": {
    "codes": [],
    "dewpoint_decimal": {
      "repr": "0050",
      "spoken": "five point zero",
      "value": 5
    },
    "maximum_temperature_24": null,
    "maximum_temperature_6": null,
    "minimum_temperature_24": null,
    "minimum_temperature_6": null,
    "precip_24_hours": null,
    "precip_36_hours": null,
    "precip_hourly": null,
    "pressure_tendency": null,
    "sea_level_pressure": {
      "repr": "SLP973",
      "spoken": "nine nine seven point three",
      "value": 997.3
    },
    "snow_depth": null,
    "sunshine_minutes": null,
    "temperature_decimal": {
      "repr": "0100",
      "spoken": "one zero point zero",
      "value": 10
    }
  },
  "runway_visibility": [],
  "sanitized": "KNUW 141653Z 15033G56KT 10SM BKN032 BKN090 10/05 A2944 RMK PK WND 15062/1616 SLP973 T01000050",
  "station": "KNUW",
  "temperature": {
    "repr": "10",
    "spoken": "one zero",
    "value": 10
  },
  "time": {
    "dt": "2024-12-14T16:53:00Z",
    "repr": "141653Z"
  },
  "units": {
    "accumulation": "in",
    "altimeter": "inHg",
    "altitude": "ft",
    "temperature": "C",
    "visibility": "sm",
    "wind_speed": "kt"
  },
  "visibility": {
    "repr": "10",
    "spoken": "one zero",
    "value": 10
  },
  "wind_direction": {
    "repr": "150",
    "spoken": "one five zero",
    "value": 150
  },
  "wind_gust": {
    "repr": "56",
    "spoken": "five six",
    "value": 56
  },
  "wind_speed": {
    "repr": "33",
    "spoken": "three three",
    "value": 33
  },
  "wind_variable_direction": [],
  "wx_codes": []
}
