{
  "meta": {
    "timestamp": "2023-01-01T17:40:31.683541Z",
    "stations_updated": "2022-12-27",
    "cache-timestamp": "2023-01-01T17:40:07.324000Z"
  },
  "altimeter": {
    "repr": "A3020",
    "value": 30.2,
    "spoken": "three zero point two zero"
  },
  "clouds": [
    {
      "repr": "OVC010",
      "type": "OVC",
      "altitude": 10,
      "modifier": null
    }
  ],
  "flight_rules": "MVFR",
  "other": [],
  "visibility": {
    "repr": "10",
    "value": 10,
    "spoken": "one zero"
  },
  "wind_direction": {
    "repr": "240",
    "value": 240,
    "spoken": "two four zero"
  },
  "wind_gust": null,
  "wind_speed": {
    "repr": "03",
    "value": 3,
    "spoken": "three"
  },
  "wx_codes": [],
  "raw": "KNUW 011653Z AUTO 24003KT 10SM OVC010 07/04 A3020 RMK AO2 SLP226 T00670044 VISNO $",
  "sanitized": "KNUW 011653Z 24003KT 10SM OVC010 07/04 A3020 RMK AO2 SLP226 T00670044 VISNO $",
  "station": "KNUW",
  "time": {
    "repr": "011653Z",
    "dt": "2023-01-01T16:53:00Z"
  },
  "remarks": "RMK AO2 SLP226 T00670044 VISNO $",
  "dewpoint": {
    "repr": "04",
    "value": 4,
    "spoken": "four"
  },
  "relative_humidity": 0.8525264910597357,
  "remarks_info": {
    "maximum_temperature_6": null,
    "minimum_temperature_6": null,
    "pressure_tendency": null,
    "precip_36_hours": null,
    "precip_24_hours": null,
    "sunshine_minutes": null,
    "codes": [
      {
        "repr": "$",
        "value": "ASOS requires maintenance"
      },
      {
        "repr": "AO2",
        "value": "Automated with precipitation sensor"
      }
    ],
    "dewpoint_decimal": {
      "repr": "0044",
      "value": 4.4,
      "spoken": "four point four"
    },
    "maximum_temperature_24": null,
    "minimum_temperature_24": null,
    "precip_hourly": null,
    "sea_level_pressure": {
      "repr": "SLP226",
      "value": 1022.6,
      "spoken": "one zero two two point six"
    },
    "snow_depth": null,
    "temperature_decimal": {
      "repr": "0067",
      "value": 6.7,
      "spoken": "six point seven"
    }
  },
  "runway_visibility": [],
  "temperature": {
    "repr": "07",
    "value": 7,
    "spoken": "seven"
  },
  "wind_variable_direction": [],
  "density_altitude": -1218,
  "pressure_altitude": -233,
  "units": {
    "accumulation": "in",
    "altimeter": "inHg",
    "altitude": "ft",
    "temperature": "C",
    "visibility": "sm",
    "wind_speed": "kt"
  }
}
