{
  "meta": {
    "timestamp": "2023-01-05T23:02:52.039147Z",
    "stations_updated": "2022-12-27"
  },
  "altimeter": {
    "repr": "A2945",
    "value": 29.45,
    "spoken": "two nine point four five"
  },
  "clouds": [
    {
      "repr": "FEW025",
      "type": "FEW",
      "altitude": 25,
      "modifier": null
    },
    {
      "repr": "BKN055",
      "type": "BKN",
      "altitude": 55,
      "modifier": null
    },
    {
      "repr": "BKN120",
      "type": "BKN",
      "altitude": 120,
      "modifier": null
    }
  ],
  "flight_rules": "VFR",
  "other": [],
  "visibility": {
    "repr": "10",
    "value": 10,
    "spoken": "one zero"
  },
  "wind_direction": {
    "repr": "120",
    "value": 120,
    "spoken": "one two zero"
  },
  "wind_gust": {
    "repr": "29",
    "value": 29,
    "spoken": "two nine"
  },
  "wind_speed": {
    "repr": "19",
    "value": 19,
    "spoken": "one nine"
  },
  "wx_codes": [],
  "raw": "KNUW 052153Z 12019G29KT 10SM FEW025 BKN055 BKN120 14/02 A2945 RMK PK WND 12035/2058 SLP974 T01390022",
  "sanitized": "KNUW 052153Z 12019G29KT 10SM FEW025 BKN055 BKN120 14/02 A2945 RMK PK WND 12035/2058 SLP974 T01390022",
  "station": "KNUW",
  "time": {
    "repr": "052153Z",
    "dt": "2023-01-05T21:53:00Z"
  },
  "remarks": "RMK PK WND 12035/2058 SLP974 T01390022",
  "dewpoint": {
    "repr": "02",
    "value": 2,
    "spoken": "two"
  },
  "relative_humidity": 0.4511343361415917,
  "remarks_info": {
    "maximum_temperature_6": null,
    "minimum_temperature_6": null,
    "pressure_tendency": null,
    "precip_36_hours": null,
    "precip_24_hours": null,
    "sunshine_minutes": null,
    "codes": [],
    "dewpoint_decimal": {
      "repr": "0022",
      "value": 2.2,
      "spoken": "two point two"
    },
    "maximum_temperature_24": null,
    "minimum_temperature_24": null,
    "precip_hourly": null,
    "sea_level_pressure": {
      "repr": "SLP974",
      "value": 997.4,
      "spoken": "nine nine seven point four"
    },
    "snow_depth": null,
    "temperature_decimal": {
      "repr": "0139",
      "value": 13.9,
      "spoken": "one three point nine"
    }
  },
  "runway_visibility": [],
  "temperature": {
    "repr": "14",
    "value": 14,
    "spoken": "one four"
  },
  "wind_variable_direction": [],
  "density_altitude": 396,
  "pressure_altitude": 517,
  "units": {
    "accumulation": "in",
    "altimeter": "inHg",
    "altitude": "ft",
    "temperature": "C",
    "visibility": "sm",
    "wind_speed": "kt"
  }
}
