{
  "meta": {
    "timestamp": "2022-08-24T23:46:00.095767Z",
    "stations_updated": "2022-07-17"
  },
  "altimeter": {
    "repr": "A2992",
    "value": 29.92,
    "spoken": "two nine point nine two"
  },
  "clouds": [
    {
      "repr": "FEW035",
      "type": "FEW",
      "altitude": 35,
      "modifier": null
    },
    {
      "repr": "SCT250",
      "type": "SCT",
      "altitude": 250,
      "modifier": null
    }
  ],
  "flight_rules": "VFR",
  "other": [],
  "visibility": {
    "repr": "10",
    "value": 10,
    "spoken": "one zero"
  },
  "wind_direction": {
    "repr": "300",
    "value": 300,
    "spoken": "three zero zero"
  },
  "wind_gust": null,
  "wind_speed": {
    "repr": "05",
    "value": 5,
    "spoken": "five"
  },
  "wx_codes": [],
  "raw": "KNUW 242253Z 30005KT 10SM FEW035 SCT250 22/16 A2992 RMK SLP132 CB DSNT E T02170156",
  "sanitized": "KNUW 242253Z 30005KT 10SM FEW035 SCT250 22/16 A2992 RMK SLP132 CB DSNT E T02170156",
  "station": "KNUW",
  "time": {
    "repr": "242253Z",
    "dt": "2022-08-24T22:53:00Z"
  },
  "remarks": "RMK SLP132 CB DSNT E T02170156",
  "dewpoint": {
    "repr": "16",
    "value": 16,
    "spoken": "one six"
  },
  "relative_humidity": 0.6825184321284333,
  "remarks_info": {
    "maximum_temperature_6": null,
    "minimum_temperature_6": null,
    "pressure_tendency": null,
    "precip_36_hours": null,
    "precip_24_hours": null,
    "sunshine_minutes": null,
    "codes": [],
    "dewpoint_decimal": {
      "repr": "0156",
      "value": 15.6,
      "spoken": "one five point six"
    },
    "maximum_temperature_24": null,
    "minimum_temperature_24": null,
    "precip_hourly": null,
    "sea_level_pressure": {
      "repr": "SLP132",
      "value": 1013.2,
      "spoken": "one zero one three point two"
    },
    "snow_depth": null,
    "temperature_decimal": {
      "repr": "0217",
      "value": 21.7,
      "spoken": "two one point seven"
    }
  },
  "runway_visibility": [],
  "temperature": {
    "repr": "22",
    "value": 22,
    "spoken": "two two"
  },
  "wind_variable_direction": [],
  "density_altitude": 862,
  "pressure_altitude": 47,
  "units": {
    "accumulation": "in",
    "altimeter": "inHg",
    "altitude": "ft",
    "temperature": "C",
    "visibility": "sm",
    "wind_speed": "kt"
  }
}
