{
  "meta": {
    "timestamp": "2023-10-28T19:02:59.418483Z",
    "stations_updated": "2023-10-01",
    "cache-timestamp": "2023-10-28T19:02:30.292000Z"
  },
  "altimeter": {
    "repr": "A3058",
    "value": 30.58,
    "spoken": "three zero point five eight"
  },
  "clouds": [],
  "flight_rules": "VFR",
  "other": [],
  "visibility": {
    "repr": "10",
    "value": 10,
    "spoken": "one zero"
  },
  "wind_direction": {
    "repr": "110",
    "value": 110,
    "spoken": "one one zero"
  },
  "wind_gust": null,
  "wind_speed": {
    "repr": "04",
    "value": 4,
    "spoken": "four"
  },
  "wx_codes": [],
  "raw": "KNUW 281753Z 11004KT 10SM CLR 07/M01 A3058 RMK AO2 SLP357 T00721011 10072 21033 51012 $",
  "sanitized": "KNUW 281753Z 11004KT 10SM 07/M01 A3058 RMK AO2 SLP357 T00721011 10072 21033 51012 $",
  "station": "KNUW",
  "time": {
    "repr": "281753Z",
    "dt": "2023-10-28T17:53:00Z"
  },
  "remarks": "RMK AO2 SLP357 T00721011 10072 21033 51012 $",
  "dewpoint": {
    "repr": "M01",
    "value": -1,
    "spoken": "minus one"
  },
  "relative_humidity": 0.555625533036357,
  "remarks_info": {
    "maximum_temperature_6": {
      "repr": "10072",
      "value": 7.2,
      "spoken": "seven point two"
    },
    "minimum_temperature_6": {
      "repr": "21033",
      "value": -3.3,
      "spoken": "minus three point three"
    },
    "pressure_tendency": {
      "repr": "51012",
      "tendency": "Increasing, then steady",
      "change": 1.2
    },
    "precip_36_hours": null,
    "precip_24_hours": null,
    "sunshine_minutes": null,
    "codes": [
      {
        "repr": "$",
        "value": "ASOS requires maintenance"
      },
      {
        "repr": "AO2",
        "value": "Automated with precipitation sensor"
      }
    ],
    "dewpoint_decimal": {
      "repr": "1011",
      "value": -1.1,
      "spoken": "minus one point one"
    },
    "maximum_temperature_24": null,
    "minimum_temperature_24": null,
    "precip_hourly": null,
    "sea_level_pressure": {
      "repr": "SLP357",
      "value": 1035.7,
      "spoken": "one zero three five point seven"
    },
    "snow_depth": null,
    "temperature_decimal": {
      "repr": "0072",
      "value": 7.2,
      "spoken": "seven point two"
    }
  },
  "runway_visibility": [],
  "temperature": {
    "repr": "07",
    "value": 7,
    "spoken": "seven"
  },
  "wind_variable_direction": [],
  "density_altitude": -1538,
  "pressure_altitude": -613,
  "units": {
    "accumulation": "in",
    "altimeter": "inHg",
    "altitude": "ft",
    "temperature": "C",
    "visibility": "sm",
    "wind_speed": "kt"
  }
}
