{
  "altimeter": {
    "repr": "A2968",
    "spoken": "two nine point six eight",
    "value": 29.68
  },
  "clouds": [
    {
      "altitude": 55,
      "modifier": null,
      "repr": "OVC055",
      "type": "OVC"
    }
  ],
  "density_altitude": -698,
  "dewpoint": {
    "repr": "M01",
    "spoken": "minus one",
    "value": -1
  },
  "flight_rules": "VFR",
  "meta": {
    "cache-timestamp": "2024-02-06T01:32:02.618000Z",
    "stations_updated": "2024-01-01",
    "timestamp": "2024-02-06T01:32:43.072873Z"
  },
  "other": [],
  "pressure_altitude": 287,
  "raw": "KNUW 060053Z 33008KT 10SM -RA OVC055 07/M01 A2968 RMK AO2 SLP055 P0001 T00671006",
  "relative_humidity": 0.5964111208503375,
  "remarks": "RMK AO2 SLP055 P0001 T00671006",
  "remarks_info": {
    "codes": [
      {
        "repr": "AO2",
        "value": "Automated with precipitation sensor"
      }
    ],
    "dewpoint_decimal": {
      "repr": "1006",
      "spoken": "minus zero point six",
      "value": -0.6
    },
    "maximum_temperature_24": null,
    "maximum_temperature_6": null,
    "minimum_temperature_24": null,
    "minimum_temperature_6": null,
    "precip_24_hours": null,
    "precip_36_hours": null,
    "precip_hourly": {
      "repr": "P0001",
      "spoken": "zero point zero one",
      "value": 0.01
    },
    "pressure_tendency": null,
    "sea_level_pressure": {
      "repr": "SLP055",
      "spoken": "one zero zero five point five",
      "value": 1005.5
    },
    "snow_depth": null,
    "sunshine_minutes": null,
    "temperature_decimal": {
      "repr": "0067",
      "spoken": "six point seven",
      "value": 6.7
    }
  },
  "runway_visibility": [],
  "sanitized": "KNUW 060053Z 33008KT 10SM -RA OVC055 07/M01 A2968 RMK AO2 SLP055 P0001 T00671006",
  "station": "KNUW",
  "temperature": {
    "repr": "07",
    "spoken": "seven",
    "value": 7
  },
  "time": {
    "dt": "2024-02-06T00:53:00Z",
    "repr": "060053Z"
  },
  "units": {
    "accumulation": "in",
    "altimeter": "inHg",
    "altitude": "ft",
    "temperature": "C",
    "visibility": "sm",
    "wind_speed": "kt"
  },
  "visibility": {
    "repr": "10",
    "spoken": "one zero",
    "value": 10
  },
  "wind_direction": {
    "repr": "330",
    "spoken": "three three zero",
    "value": 330
  },
  "wind_gust": null,
  "wind_speed": {
    "repr": "08",
    "spoken": "eight",
    "value": 8
  },
  "wind_variable_direction": [],
  "wx_codes": [
    {
      "repr": "-RA",
      "value": "Light Rain"
    }
  ]
}
