{
  "altimeter": {
    "repr": "A2987",
    "spoken": "two nine point eight seven",
    "value": 29.87
  },
  "clouds": [
    {
      "altitude": 25,
      "modifier": null,
      "repr": "FEW025",
      "type": "FEW"
    },
    {
      "altitude": 43,
      "modifier": null,
      "repr": "BKN043",
      "type": "BKN"
    },
    {
      "altitude": 65,
      "modifier": null,
      "repr": "BKN065",
      "type": "BKN"
    }
  ],
  "density_altitude": 36,
  "dewpoint": {
    "repr": "11",
    "spoken": "one one",
    "value": 11
  },
  "flight_rules": "VFR",
  "meta": {
    "stations_updated": "2024-06-12",
    "timestamp": "2024-10-04T20:28:41.738440Z"
  },
  "other": [],
  "pressure_altitude": 97,
  "raw": "KNUW 041953Z 15014G27KT 10SM FEW025 BKN043 BKN065 14/11 A2987 RMK AO2 PK WND 15030/1908 SLP120 T01440106 $",
  "relative_humidity": 0.7791936137063171,
  "remarks": "RMK AO2 PK WND 15030/1908 SLP120 T01440106 $",
  "remarks_info": {
    "codes": [
      {
        "repr": "$",
        "value": "ASOS requires maintenance"
      },
      {
        "repr": "AO2",
        "value": "Automated with precipitation sensor"
      }
    ],
    "dewpoint_decimal": {
      "repr": "0106",
      "spoken": "one zero point six",
      "value": 10.6
    },
    "maximum_temperature_24": null,
    "maximum_temperature_6": null,
    "minimum_temperature_24": null,
    "minimum_temperature_6": null,
    "precip_24_hours": null,
    "precip_36_hours": null,
    "precip_hourly": null,
    "pressure_tendency": null,
    "sea_level_pressure": {
      "repr": "SLP120",
      "spoken": "one zero one two point zero",
      "value": 1012
    },
    "snow_depth": null,
    "sunshine_minutes": null,
    "temperature_decimal": {
      "repr": "0144",
      "spoken": "one four point four",
      "value": 14.4
    }
  },
  "runway_visibility": [],
  "sanitized": "KNUW 041953Z 15014G27KT 10SM FEW025 BKN043 BKN065 14/11 A2987 RMK AO2 PK WND 15030/1908 SLP120 T01440106 $",
  "station": "KNUW",
  "temperature": {
    "repr": "14",
    "spoken": "one four",
    "value": 14
  },
  "time": {
    "dt": "2024-10-04T19:53:00Z",
    "repr": "041953Z"
  },
  "units": {
    "accumulation": "in",
    "altimeter": "inHg",
    "altitude": "ft",
    "temperature": "C",
    "visibility": "sm",
    "wind_speed": "kt"
  },
  "visibility": {
    "repr": "10",
    "spoken": "one zero",
    "value": 10
  },
  "wind_direction": {
    "repr": "150",
    "spoken": "one five zero",
    "value": 150
  },
  "wind_gust": {
    "repr": "27",
    "spoken": "two seven",
    "value": 27
  },
  "wind_speed": {
    "repr": "14",
    "spoken": "one four",
    "value": 14
  },
  "wind_variable_direction": [],
  "wx_codes": []
}
