{
  "altimeter": {
    "repr": "A3009",
    "spoken": "three zero point zero nine",
    "value": 30.09
  },
  "clouds": [
    {
      "altitude": 5,
      "modifier": null,
      "repr": "FEW005",
      "type": "FEW"
    },
    {
      "altitude": 25,
      "modifier": null,
      "repr": "SCT025",
      "type": "SCT"
    },
    {
      "altitude": 55,
      "modifier": null,
      "repr": "BKN055",
      "type": "BKN"
    }
  ],
  "density_altitude": 224,
  "dewpoint": {
    "repr": "14",
    "spoken": "one four",
    "value": 14
  },
  "flight_rules": "VFR",
  "meta": {
    "stations_updated": "2024-06-12",
    "timestamp": "2024-08-25T00:35:03.167993Z"
  },
  "other": [],
  "pressure_altitude": -123,
  "raw": "KNUW 242353Z 15011KT 10SM FEW005 SCT025 BKN055 18/14 A3009 RMK AO2 SLP192 60000 T01780139 10183 20144 51017",
  "relative_humidity": 0.7791985084150694,
  "remarks": "RMK AO2 SLP192 60000 T01780139 10183 20144 51017",
  "remarks_info": {
    "codes": [
      {
        "repr": "AO2",
        "value": "Automated with precipitation sensor"
      }
    ],
    "dewpoint_decimal": {
      "repr": "0139",
      "spoken": "one three point nine",
      "value": 13.9
    },
    "maximum_temperature_24": null,
    "maximum_temperature_6": {
      "repr": "10183",
      "spoken": "one eight point three",
      "value": 18.3
    },
    "minimum_temperature_24": null,
    "minimum_temperature_6": {
      "repr": "20144",
      "spoken": "one four point four",
      "value": 14.4
    },
    "precip_24_hours": null,
    "precip_36_hours": {
      "repr": "60000",
      "spoken": "zero",
      "value": 0
    },
    "precip_hourly": null,
    "pressure_tendency": {
      "change": 1.7,
      "repr": "51017",
      "tendency": "Increasing, then steady"
    },
    "sea_level_pressure": {
      "repr": "SLP192",
      "spoken": "one zero one nine point two",
      "value": 1019.2
    },
    "snow_depth": null,
    "sunshine_minutes": null,
    "temperature_decimal": {
      "repr": "0178",
      "spoken": "one seven point eight",
      "value": 17.8
    }
  },
  "runway_visibility": [],
  "sanitized": "KNUW 242353Z 15011KT 10SM FEW005 SCT025 BKN055 18/14 A3009 RMK AO2 SLP192 60000 T01780139 10183 20144 51017",
  "station": "KNUW",
  "temperature": {
    "repr": "18",
    "spoken": "one eight",
    "value": 18
  },
  "time": {
    "dt": "2024-08-24T23:53:00Z",
    "repr": "242353Z"
  },
  "units": {
    "accumulation": "in",
    "altimeter": "inHg",
    "altitude": "ft",
    "temperature": "C",
    "visibility": "sm",
    "wind_speed": "kt"
  },
  "visibility": {
    "repr": "10",
    "spoken": "one zero",
    "value": 10
  },
  "wind_direction": {
    "repr": "150",
    "spoken": "one five zero",
    "value": 150
  },
  "wind_gust": null,
  "wind_speed": {
    "repr": "11",
    "spoken": "one one",
    "value": 11
  },
  "wind_variable_direction": [],
  "wx_codes": []
}
