{
  "altimeter": {
    "repr": "A3014",
    "spoken": "three zero point one four",
    "value": 30.14
  },
  "clouds": [
    {
      "altitude": 19,
      "modifier": null,
      "repr": "SCT019",
      "type": "SCT"
    },
    {
      "altitude": 60,
      "modifier": null,
      "repr": "BKN060",
      "type": "BKN"
    },
    {
      "altitude": 180,
      "modifier": null,
      "repr": "BKN180",
      "type": "BKN"
    }
  ],
  "density_altitude": 570,
  "dewpoint": {
    "repr": "16",
    "spoken": "one six",
    "value": 16
  },
  "flight_rules": "VFR",
  "meta": {
    "stations_updated": "2024-06-12",
    "timestamp": "2024-09-23T22:31:44.404823Z"
  },
  "other": [],
  "pressure_altitude": -173,
  "raw": "KNUW 232153Z COR 15009KT 10SM SCT019 BKN060 BKN180 21/16 A3014 RMK AO2 SLP210 T02110161",
  "relative_humidity": 0.7311093514096665,
  "remarks": "RMK AO2 SLP210 T02110161",
  "remarks_info": {
    "codes": [
      {
        "repr": "AO2",
        "value": "Automated with precipitation sensor"
      }
    ],
    "dewpoint_decimal": {
      "repr": "0161",
      "spoken": "one six point one",
      "value": 16.1
    },
    "maximum_temperature_24": null,
    "maximum_temperature_6": null,
    "minimum_temperature_24": null,
    "minimum_temperature_6": null,
    "precip_24_hours": null,
    "precip_36_hours": null,
    "precip_hourly": null,
    "pressure_tendency": null,
    "sea_level_pressure": {
      "repr": "SLP210",
      "spoken": "one zero two one point zero",
      "value": 1021
    },
    "snow_depth": null,
    "sunshine_minutes": null,
    "temperature_decimal": {
      "repr": "0211",
      "spoken": "two one point one",
      "value": 21.1
    }
  },
  "runway_visibility": [],
  "sanitized": "KNUW 232153Z 15009KT 10SM SCT019 BKN060 BKN180 21/16 A3014 RMK AO2 SLP210 T02110161",
  "station": "KNUW",
  "temperature": {
    "repr": "21",
    "spoken": "two one",
    "value": 21
  },
  "time": {
    "dt": "2024-09-23T21:53:00Z",
    "repr": "232153Z"
  },
  "units": {
    "accumulation": "in",
    "altimeter": "inHg",
    "altitude": "ft",
    "temperature": "C",
    "visibility": "sm",
    "wind_speed": "kt"
  },
  "visibility": {
    "repr": "10",
    "spoken": "one zero",
    "value": 10
  },
  "wind_direction": {
    "repr": "150",
    "spoken": "one five zero",
    "value": 150
  },
  "wind_gust": null,
  "wind_speed": {
    "repr": "09",
    "spoken": "nine",
    "value": 9
  },
  "wind_variable_direction": [],
  "wx_codes": []
}
