{
  "altimeter": {
    "repr": "A2996",
    "spoken": "two nine point nine six",
    "value": 29.96
  },
  "clouds": [
    {
      "altitude": 21,
      "modifier": null,
      "repr": "SCT021",
      "type": "SCT"
    },
    {
      "altitude": 30,
      "modifier": null,
      "repr": "BKN030",
      "type": "BKN"
    },
    {
      "altitude": 40,
      "modifier": null,
      "repr": "OVC040",
      "type": "OVC"
    }
  ],
  "density_altitude": -978,
  "dewpoint": {
    "repr": "06",
    "spoken": "six",
    "value": 6
  },
  "flight_rules": "MVFR",
  "meta": {
    "stations_updated": "2024-10-29",
    "timestamp": "2024-11-25T18:48:52.886809Z"
  },
  "other": [],
  "pressure_altitude": 7,
  "raw": "KNUW 251753Z 07007KT 10SM SCT021 BKN030 OVC040 07/06 A2996 RMK AO2 SLP149 60010 T00670056 10067 20061 51013",
  "relative_humidity": 0.9268723723701822,
  "remarks": "RMK AO2 SLP149 60010 T00670056 10067 20061 51013",
  "remarks_info": {
    "codes": [
      {
        "repr": "AO2",
        "value": "Automated with precipitation sensor"
      }
    ],
    "dewpoint_decimal": {
      "repr": "0056",
      "spoken": "five point six",
      "value": 5.6
    },
    "maximum_temperature_24": null,
    "maximum_temperature_6": {
      "repr": "10067",
      "spoken": "six point seven",
      "value": 6.7
    },
    "minimum_temperature_24": null,
    "minimum_temperature_6": {
      "repr": "20061",
      "spoken": "six point one",
      "value": 6.1
    },
    "precip_24_hours": null,
    "precip_36_hours": {
      "repr": "60010",
      "spoken": "zero point one",
      "value": 0.1
    },
    "precip_hourly": null,
    "pressure_tendency": {
      "change": 1.3,
      "repr": "51013",
      "tendency": "Increasing, then steady"
    },
    "sea_level_pressure": {
      "repr": "SLP149",
      "spoken": "one zero one four point nine",
      "value": 1014.9
    },
    "snow_depth": null,
    "sunshine_minutes": null,
    "temperature_decimal": {
      "repr": "0067",
      "spoken": "six point seven",
      "value": 6.7
    }
  },
  "runway_visibility": [],
  "sanitized": "KNUW 251753Z 07007KT 10SM SCT021 BKN030 OVC040 07/06 A2996 RMK AO2 SLP149 60010 T00670056 10067 20061 51013",
  "station": "KNUW",
  "temperature": {
    "repr": "07",
    "spoken": "seven",
    "value": 7
  },
  "time": {
    "dt": "2024-11-25T17:53:00Z",
    "repr": "251753Z"
  },
  "units": {
    "accumulation": "in",
    "altimeter": "inHg",
    "altitude": "ft",
    "temperature": "C",
    "visibility": "sm",
    "wind_speed": "kt"
  },
  "visibility": {
    "repr": "10",
    "spoken": "one zero",
    "value": 10
  },
  "wind_direction": {
    "repr": "070",
    "spoken": "zero seven zero",
    "value": 70
  },
  "wind_gust": null,
  "wind_speed": {
    "repr": "07",
    "spoken": "seven",
    "value": 7
  },
  "wind_variable_direction": [],
  "wx_codes": []
}
