{
  "altimeter": {
    "repr": "A2966",
    "spoken": "two nine point six six",
    "value": 29.66
  },
  "clouds": [
    {
      "altitude": 11,
      "modifier": null,
      "repr": "BKN011",
      "type": "BKN"
    },
    {
      "altitude": 17,
      "modifier": null,
      "repr": "OVC017",
      "type": "OVC"
    }
  ],
  "density_altitude": -546,
  "dewpoint": {
    "repr": "07",
    "spoken": "seven",
    "value": 7
  },
  "flight_rules": "MVFR",
  "meta": {
    "stations_updated": "2024-12-02",
    "timestamp": "2024-12-28T00:35:20.296593Z"
  },
  "other": [],
  "pressure_altitude": 307,
  "raw": "KNUW 272353Z 12007KT 5SM BR BKN011 OVC017 08/07 A2966 RMK AO2 SLP047 T00780072 10083 20067 53000 $",
  "relative_humidity": 0.9598512259113078,
  "remarks": "RMK AO2 SLP047 T00780072 10083 20067 53000 $",
  "remarks_info": {
    "codes": [
      {
        "repr": "$",
        "value": "ASOS requires maintenance"
      },
      {
        "repr": "AO2",
        "value": "Automated with precipitation sensor"
      }
    ],
    "dewpoint_decimal": {
      "repr": "0072",
      "spoken": "seven point two",
      "value": 7.2
    },
    "maximum_temperature_24": null,
    "maximum_temperature_6": {
      "repr": "10083",
      "spoken": "eight point three",
      "value": 8.3
    },
    "minimum_temperature_24": null,
    "minimum_temperature_6": {
      "repr": "20067",
      "spoken": "six point seven",
      "value": 6.7
    },
    "precip_24_hours": null,
    "precip_36_hours": null,
    "precip_hourly": null,
    "pressure_tendency": {
      "change": 0,
      "repr": "53000",
      "tendency": "Decreasing or steady, then increasing"
    },
    "sea_level_pressure": {
      "repr": "SLP047",
      "spoken": "one zero zero four point seven",
      "value": 1004.7
    },
    "snow_depth": null,
    "sunshine_minutes": null,
    "temperature_decimal": {
      "repr": "0078",
      "spoken": "seven point eight",
      "value": 7.8
    }
  },
  "runway_visibility": [],
  "sanitized": "KNUW 272353Z 12007KT 5SM BR BKN011 OVC017 08/07 A2966 RMK AO2 SLP047 T00780072 10083 20067 53000 $",
  "station": "KNUW",
  "temperature": {
    "repr": "08",
    "spoken": "eight",
    "value": 8
  },
  "time": {
    "dt": "2024-12-27T23:53:00Z",
    "repr": "272353Z"
  },
  "units": {
    "accumulation": "in",
    "altimeter": "inHg",
    "altitude": "ft",
    "temperature": "C",
    "visibility": "sm",
    "wind_speed": "kt"
  },
  "visibility": {
    "repr": "5",
    "spoken": "five",
    "value": 5
  },
  "wind_direction": {
    "repr": "120",
    "spoken": "one two zero",
    "value": 120
  },
  "wind_gust": null,
  "wind_speed": {
    "repr": "07",
    "spoken": "seven",
    "value": 7
  },
  "wind_variable_direction": [],
  "wx_codes": [
    {
      "repr": "BR",
      "value": "Mist"
    }
  ]
}
