{
  "meta": {
    "timestamp": "2023-02-28T21:25:03.159525Z",
    "stations_updated": "2023-01-30"
  },
  "altimeter": {
    "repr": "A2958",
    "value": 29.58,
    "spoken": "two nine point five eight"
  },
  "clouds": [
    {
      "repr": "SCT010",
      "type": "SCT",
      "altitude": 10,
      "modifier": null
    },
    {
      "repr": "BKN030",
      "type": "BKN",
      "altitude": 30,
      "modifier": null
    },
    {
      "repr": "OVC045",
      "type": "OVC",
      "altitude": 45,
      "modifier": null
    }
  ],
  "flight_rules": "MVFR",
  "other": [],
  "visibility": {
    "repr": "9",
    "value": 9,
    "spoken": "nine"
  },
  "wind_direction": {
    "repr": "330",
    "value": 330,
    "spoken": "three three zero"
  },
  "wind_gust": null,
  "wind_speed": {
    "repr": "05",
    "value": 5,
    "spoken": "five"
  },
  "wx_codes": [
    {
      "repr": "-SN",
      "value": "Light Snow"
    }
  ],
  "raw": "KNUW 281953Z 33005KT 9SM -SN SCT010 BKN030 OVC045 04/01 A2958 RMK SNB44 SLP021 P0001 T00390006",
  "sanitized": "KNUW 281953Z 33005KT 9SM -SN SCT010 BKN030 OVC045 04/01 A2958 RMK SNB44 SLP021 P0001 T00390006",
  "station": "KNUW",
  "time": {
    "repr": "281953Z",
    "dt": "2023-02-28T19:53:00Z"
  },
  "remarks": "RMK SNB44 SLP021 P0001 T00390006",
  "dewpoint": {
    "repr": "01",
    "value": 1,
    "spoken": "one"
  },
  "relative_humidity": 0.7904792361594455,
  "remarks_info": {
    "maximum_temperature_6": null,
    "minimum_temperature_6": null,
    "pressure_tendency": null,
    "precip_36_hours": null,
    "precip_24_hours": null,
    "sunshine_minutes": null,
    "codes": [
      {
        "repr": "SNB44",
        "value": "Snow began at :44"
      }
    ],
    "dewpoint_decimal": {
      "repr": "0006",
      "value": 0.6,
      "spoken": "zero point six"
    },
    "maximum_temperature_24": null,
    "minimum_temperature_24": null,
    "precip_hourly": {
      "repr": "P0001",
      "value": 0.01,
      "spoken": "zero point zero one"
    },
    "sea_level_pressure": {
      "repr": "SLP021",
      "value": 1002.1,
      "spoken": "one zero zero two point one"
    },
    "snow_depth": null,
    "temperature_decimal": {
      "repr": "0039",
      "value": 3.9,
      "spoken": "three point nine"
    }
  },
  "runway_visibility": [],
  "temperature": {
    "repr": "04",
    "value": 4,
    "spoken": "four"
  },
  "wind_variable_direction": [],
  "density_altitude": -934,
  "pressure_altitude": 387,
  "units": {
    "accumulation": "in",
    "altimeter": "inHg",
    "altitude": "ft",
    "temperature": "C",
    "visibility": "sm",
    "wind_speed": "kt"
  }
}
