{
  "altimeter": {
    "repr": "A3008",
    "spoken": "three zero point zero eight",
    "value": 30.08
  },
  "clouds": [
    {
      "altitude": 19,
      "modifier": null,
      "repr": "BKN019",
      "type": "BKN"
    },
    {
      "altitude": 26,
      "modifier": null,
      "repr": "BKN026",
      "type": "BKN"
    },
    {
      "altitude": 33,
      "modifier": null,
      "repr": "OVC033",
      "type": "OVC"
    }
  ],
  "density_altitude": -570,
  "dewpoint": {
    "repr": "09",
    "spoken": "nine",
    "value": 9
  },
  "flight_rules": "MVFR",
  "meta": {
    "stations_updated": "2024-06-12",
    "timestamp": "2024-10-22T02:06:23.884451Z"
  },
  "other": [],
  "pressure_altitude": -113,
  "raw": "KNUW 220153Z 31003KT 5SM -RA BR BKN019 BKN026 OVC033 11/09 A3008 RMK AO2 RAB32 SLP189 P0002 T01110094 $",
  "relative_humidity": 0.8926151927981825,
  "remarks": "RMK AO2 RAB32 SLP189 P0002 T01110094 $",
  "remarks_info": {
    "codes": [
      {
        "repr": "$",
        "value": "ASOS requires maintenance"
      },
      {
        "repr": "AO2",
        "value": "Automated with precipitation sensor"
      },
      {
        "repr": "RAB32",
        "value": "Rain began at :32"
      }
    ],
    "dewpoint_decimal": {
      "repr": "0094",
      "spoken": "nine point four",
      "value": 9.4
    },
    "maximum_temperature_24": null,
    "maximum_temperature_6": null,
    "minimum_temperature_24": null,
    "minimum_temperature_6": null,
    "precip_24_hours": null,
    "precip_36_hours": null,
    "precip_hourly": {
      "repr": "P0002",
      "spoken": "zero point zero two",
      "value": 0.02
    },
    "pressure_tendency": null,
    "sea_level_pressure": {
      "repr": "SLP189",
      "spoken": "one zero one eight point nine",
      "value": 1018.9
    },
    "snow_depth": null,
    "sunshine_minutes": null,
    "temperature_decimal": {
      "repr": "0111",
      "spoken": "one one point one",
      "value": 11.1
    }
  },
  "runway_visibility": [],
  "sanitized": "KNUW 220153Z 31003KT 5SM -RA BR BKN019 BKN026 OVC033 11/09 A3008 RMK AO2 RAB32 SLP189 P0002 T01110094 $",
  "station": "KNUW",
  "temperature": {
    "repr": "11",
    "spoken": "one one",
    "value": 11
  },
  "time": {
    "dt": "2024-10-22T01:53:00Z",
    "repr": "220153Z"
  },
  "units": {
    "accumulation": "in",
    "altimeter": "inHg",
    "altitude": "ft",
    "temperature": "C",
    "visibility": "sm",
    "wind_speed": "kt"
  },
  "visibility": {
    "repr": "5",
    "spoken": "five",
    "value": 5
  },
  "wind_direction": {
    "repr": "310",
    "spoken": "three one zero",
    "value": 310
  },
  "wind_gust": null,
  "wind_speed": {
    "repr": "03",
    "spoken": "three",
    "value": 3
  },
  "wind_variable_direction": [],
  "wx_codes": [
    {
      "repr": "-RA",
      "value": "Light Rain"
    },
    {
      "repr": "BR",
      "value": "Mist"
    }
  ]
}
