{
  "altimeter": {
    "repr": "A2950",
    "spoken": "two nine point five zero",
    "value": 29.5
  },
  "clouds": [
    {
      "altitude": 32,
      "modifier": null,
      "repr": "OVC032",
      "type": "OVC"
    }
  ],
  "density_altitude": -458,
  "dewpoint": {
    "repr": "03",
    "spoken": "three",
    "value": 3
  },
  "flight_rules": "VFR",
  "meta": {
    "stations_updated": "2024-10-29",
    "timestamp": "2024-11-20T05:43:11.736662Z"
  },
  "other": [],
  "pressure_altitude": 467,
  "raw": "KNUW 200453Z 13025G39KT 6SM RA OVC032 07/03 A2950 RMK AO2 PK WND 14049/0442 SLP994 P0006 T00720033 CHINO $",
  "relative_humidity": 0.7624587758529988,
  "remarks": "RMK AO2 PK WND 14049/0442 SLP994 P0006 T00720033 CHINO $",
  "remarks_info": {
    "codes": [
      {
        "repr": "$",
        "value": "ASOS requires maintenance"
      },
      {
        "repr": "AO2",
        "value": "Automated with precipitation sensor"
      }
    ],
    "dewpoint_decimal": {
      "repr": "0033",
      "spoken": "three point three",
      "value": 3.3
    },
    "maximum_temperature_24": null,
    "maximum_temperature_6": null,
    "minimum_temperature_24": null,
    "minimum_temperature_6": null,
    "precip_24_hours": null,
    "precip_36_hours": null,
    "precip_hourly": {
      "repr": "P0006",
      "spoken": "zero point zero six",
      "value": 0.06
    },
    "pressure_tendency": null,
    "sea_level_pressure": {
      "repr": "SLP994",
      "spoken": "nine nine nine point four",
      "value": 999.4
    },
    "snow_depth": null,
    "sunshine_minutes": null,
    "temperature_decimal": {
      "repr": "0072",
      "spoken": "seven point two",
      "value": 7.2
    }
  },
  "runway_visibility": [],
  "sanitized": "KNUW 200453Z 13025G39KT 6SM RA OVC032 07/03 A2950 RMK AO2 PK WND 14049/0442 SLP994 P0006 T00720033 CHINO $",
  "station": "KNUW",
  "temperature": {
    "repr": "07",
    "spoken": "seven",
    "value": 7
  },
  "time": {
    "dt": "2024-11-20T04:53:00Z",
    "repr": "200453Z"
  },
  "units": {
    "accumulation": "in",
    "altimeter": "inHg",
    "altitude": "ft",
    "temperature": "C",
    "visibility": "sm",
    "wind_speed": "kt"
  },
  "visibility": {
    "repr": "6",
    "spoken": "six",
    "value": 6
  },
  "wind_direction": {
    "repr": "130",
    "spoken": "one three zero",
    "value": 130
  },
  "wind_gust": {
    "repr": "39",
    "spoken": "three nine",
    "value": 39
  },
  "wind_speed": {
    "repr": "25",
    "spoken": "two five",
    "value": 25
  },
  "wind_variable_direction": [],
  "wx_codes": [
    {
      "repr": "RA",
      "value": "Rain"
    }
  ]
}
