{
  "meta": {
    "timestamp": "2022-12-24T05:01:27.297758Z",
    "stations_updated": "2022-09-05"
  },
  "altimeter": {
    "repr": "A3010",
    "value": 30.1,
    "spoken": "three zero point one zero"
  },
  "clouds": [
    {
      "repr": "BKN008",
      "type": "BKN",
      "altitude": 8,
      "modifier": null
    },
    {
      "repr": "OVC015",
      "type": "OVC",
      "altitude": 15,
      "modifier": null
    }
  ],
  "flight_rules": "IFR",
  "other": [],
  "visibility": {
    "repr": "10",
    "value": 10,
    "spoken": "one zero"
  },
  "wind_direction": {
    "repr": "100",
    "value": 100,
    "spoken": "one zero zero"
  },
  "wind_gust": null,
  "wind_speed": {
    "repr": "11",
    "value": 11,
    "spoken": "one one"
  },
  "wx_codes": [
    {
      "repr": "-RA",
      "value": "Light Rain"
    }
  ],
  "raw": "KNUW 240453Z 10011KT 10SM -RA BKN008 OVC015 04/03 A3010 RMK AO2 SLP193 P0000 T00440033 VISNO $",
  "sanitized": "KNUW 240453Z 10011KT 10SM -RA BKN008 OVC015 04/03 A3010 RMK AO2 SLP193 P0000 T00440033 VISNO $",
  "station": "KNUW",
  "time": {
    "repr": "240453Z",
    "dt": "2022-12-24T04:53:00Z"
  },
  "remarks": "RMK AO2 SLP193 P0000 T00440033 VISNO $",
  "dewpoint": {
    "repr": "03",
    "value": 3,
    "spoken": "three"
  },
  "relative_humidity": 0.9255582325082627,
  "remarks_info": {
    "maximum_temperature_6": null,
    "minimum_temperature_6": null,
    "pressure_tendency": null,
    "precip_36_hours": null,
    "precip_24_hours": null,
    "sunshine_minutes": null,
    "codes": [
      {
        "repr": "$",
        "value": "ASOS requires maintenance"
      },
      {
        "repr": "AO2",
        "value": "Automated with precipitation sensor"
      },
      {
        "repr": "P0000",
        "value": "Trace amount of rain in the last hour"
      }
    ],
    "dewpoint_decimal": {
      "repr": "0033",
      "value": 3.3,
      "spoken": "three point three"
    },
    "maximum_temperature_24": null,
    "minimum_temperature_24": null,
    "precip_hourly": null,
    "sea_level_pressure": {
      "repr": "SLP193",
      "value": 1019.3,
      "spoken": "one zero one nine point three"
    },
    "snow_depth": null,
    "temperature_decimal": {
      "repr": "0044",
      "value": 4.4,
      "spoken": "four point four"
    }
  },
  "runway_visibility": [],
  "temperature": {
    "repr": "04",
    "value": 4,
    "spoken": "four"
  },
  "wind_variable_direction": [],
  "density_altitude": -1394,
  "pressure_altitude": -133,
  "units": {
    "accumulation": "in",
    "altimeter": "inHg",
    "altitude": "ft",
    "temperature": "C",
    "visibility": "sm",
    "wind_speed": "kt"
  }
}
