{
  "altimeter": {
    "repr": "A3003",
    "spoken": "three zero point zero three",
    "value": 30.03
  },
  "clouds": [
    {
      "altitude": 40,
      "modifier": null,
      "repr": "FEW040",
      "type": "FEW"
    },
    {
      "altitude": 150,
      "modifier": null,
      "repr": "SCT150",
      "type": "SCT"
    },
    {
      "altitude": 250,
      "modifier": null,
      "repr": "SCT250",
      "type": "SCT"
    }
  ],
  "density_altitude": -2980,
  "dewpoint": {
    "repr": "M12",
    "spoken": "minus one two",
    "value": -12
  },
  "flight_rules": "VFR",
  "meta": {
    "cache-timestamp": "2024-01-14T10:40:05.450000Z",
    "stations_updated": "2023-10-28",
    "timestamp": "2024-01-14T10:40:44.628589Z"
  },
  "other": [],
  "pressure_altitude": -63,
  "raw": "KNUW 140953Z 13006KT 10SM FEW040 SCT150 SCT250 M09/M12 A3003 RMK AO2 SLP173 T10941122 $",
  "relative_humidity": 0.8005205496667123,
  "remarks": "RMK AO2 SLP173 T10941122 $",
  "remarks_info": {
    "codes": [
      {
        "repr": "$",
        "value": "ASOS requires maintenance"
      },
      {
        "repr": "AO2",
        "value": "Automated with precipitation sensor"
      }
    ],
    "dewpoint_decimal": {
      "repr": "1122",
      "spoken": "minus one two point two",
      "value": -12.2
    },
    "maximum_temperature_24": null,
    "maximum_temperature_6": null,
    "minimum_temperature_24": null,
    "minimum_temperature_6": null,
    "precip_24_hours": null,
    "precip_36_hours": null,
    "precip_hourly": null,
    "pressure_tendency": null,
    "sea_level_pressure": {
      "repr": "SLP173",
      "spoken": "one zero one seven point three",
      "value": 1017.3
    },
    "snow_depth": null,
    "sunshine_minutes": null,
    "temperature_decimal": {
      "repr": "1094",
      "spoken": "minus nine point four",
      "value": -9.4
    }
  },
  "runway_visibility": [],
  "sanitized": "KNUW 140953Z 13006KT 10SM FEW040 SCT150 SCT250 M09/M12 A3003 RMK AO2 SLP173 T10941122 $",
  "station": "KNUW",
  "temperature": {
    "repr": "M09",
    "spoken": "minus nine",
    "value": -9
  },
  "time": {
    "dt": "2024-01-14T09:53:00Z",
    "repr": "140953Z"
  },
  "units": {
    "accumulation": "in",
    "altimeter": "inHg",
    "altitude": "ft",
    "temperature": "C",
    "visibility": "sm",
    "wind_speed": "kt"
  },
  "visibility": {
    "repr": "10",
    "spoken": "one zero",
    "value": 10
  },
  "wind_direction": {
    "repr": "130",
    "spoken": "one three zero",
    "value": 130
  },
  "wind_gust": null,
  "wind_speed": {
    "repr": "06",
    "spoken": "six",
    "value": 6
  },
  "wind_variable_direction": [],
  "wx_codes": []
}
