{
  "altimeter": {
    "repr": "A2944",
    "spoken": "two nine point four four",
    "value": 29.44
  },
  "clouds": [
    {
      "altitude": 20,
      "modifier": null,
      "repr": "FEW020",
      "type": "FEW"
    },
    {
      "altitude": 44,
      "modifier": null,
      "repr": "SCT044",
      "type": "SCT"
    },
    {
      "altitude": 50,
      "modifier": null,
      "repr": "OVC050",
      "type": "OVC"
    }
  ],
  "density_altitude": -398,
  "dewpoint": {
    "repr": "03",
    "spoken": "three",
    "value": 3
  },
  "flight_rules": "VFR",
  "meta": {
    "stations_updated": "2024-10-29",
    "timestamp": "2024-11-20T07:28:51.789179Z"
  },
  "other": [],
  "pressure_altitude": 527,
  "raw": "KNUW 200653Z 11018G30KT 10SM -RA FEW020 SCT044 OVC050 07/03 A2944 RMK AO2 PK WND 11030/0632 SLP975 P0002 T00720033 $",
  "relative_humidity": 0.7624587758529988,
  "remarks": "RMK AO2 PK WND 11030/0632 SLP975 P0002 T00720033 $",
  "remarks_info": {
    "codes": [
      {
        "repr": "$",
        "value": "ASOS requires maintenance"
      },
      {
        "repr": "AO2",
        "value": "Automated with precipitation sensor"
      }
    ],
    "dewpoint_decimal": {
      "repr": "0033",
      "spoken": "three point three",
      "value": 3.3
    },
    "maximum_temperature_24": null,
    "maximum_temperature_6": null,
    "minimum_temperature_24": null,
    "minimum_temperature_6": null,
    "precip_24_hours": null,
    "precip_36_hours": null,
    "precip_hourly": {
      "repr": "P0002",
      "spoken": "zero point zero two",
      "value": 0.02
    },
    "pressure_tendency": null,
    "sea_level_pressure": {
      "repr": "SLP975",
      "spoken": "nine nine seven point five",
      "value": 997.5
    },
    "snow_depth": null,
    "sunshine_minutes": null,
    "temperature_decimal": {
      "repr": "0072",
      "spoken": "seven point two",
      "value": 7.2
    }
  },
  "runway_visibility": [],
  "sanitized": "KNUW 200653Z 11018G30KT 10SM -RA FEW020 SCT044 OVC050 07/03 A2944 RMK AO2 PK WND 11030/0632 SLP975 P0002 T00720033 $",
  "station": "KNUW",
  "temperature": {
    "repr": "07",
    "spoken": "seven",
    "value": 7
  },
  "time": {
    "dt": "2024-11-20T06:53:00Z",
    "repr": "200653Z"
  },
  "units": {
    "accumulation": "in",
    "altimeter": "inHg",
    "altitude": "ft",
    "temperature": "C",
    "visibility": "sm",
    "wind_speed": "kt"
  },
  "visibility": {
    "repr": "10",
    "spoken": "one zero",
    "value": 10
  },
  "wind_direction": {
    "repr": "110",
    "spoken": "one one zero",
    "value": 110
  },
  "wind_gust": {
    "repr": "30",
    "spoken": "three zero",
    "value": 30
  },
  "wind_speed": {
    "repr": "18",
    "spoken": "one eight",
    "value": 18
  },
  "wind_variable_direction": [],
  "wx_codes": [
    {
      "repr": "-RA",
      "value": "Light Rain"
    }
  ]
}
