{
  "altimeter": {
    "repr": "A3029",
    "spoken": "three zero point two nine",
    "value": 30.29
  },
  "clouds": [
    {
      "altitude": 75,
      "modifier": null,
      "repr": "BKN075",
      "type": "BKN"
    },
    {
      "altitude": 150,
      "modifier": null,
      "repr": "BKN150",
      "type": "BKN"
    }
  ],
  "density_altitude": -1176,
  "dewpoint": {
    "repr": "04",
    "spoken": "four",
    "value": 4
  },
  "flight_rules": "VFR",
  "meta": {
    "stations_updated": "2024-10-29",
    "timestamp": "2024-11-30T20:07:34.002338Z"
  },
  "other": [],
  "pressure_altitude": -323,
  "raw": "KNUW 301953Z 12009KT 10SM BKN075 BKN150 08/04 A3029 RMK AO2 SLP259 T00780039 $",
  "relative_humidity": 0.7634534383263296,
  "remarks": "RMK AO2 SLP259 T00780039 $",
  "remarks_info": {
    "codes": [
      {
        "repr": "$",
        "value": "ASOS requires maintenance"
      },
      {
        "repr": "AO2",
        "value": "Automated with precipitation sensor"
      }
    ],
    "dewpoint_decimal": {
      "repr": "0039",
      "spoken": "three point nine",
      "value": 3.9
    },
    "maximum_temperature_24": null,
    "maximum_temperature_6": null,
    "minimum_temperature_24": null,
    "minimum_temperature_6": null,
    "precip_24_hours": null,
    "precip_36_hours": null,
    "precip_hourly": null,
    "pressure_tendency": null,
    "sea_level_pressure": {
      "repr": "SLP259",
      "spoken": "one zero two five point nine",
      "value": 1025.9
    },
    "snow_depth": null,
    "sunshine_minutes": null,
    "temperature_decimal": {
      "repr": "0078",
      "spoken": "seven point eight",
      "value": 7.8
    }
  },
  "runway_visibility": [],
  "sanitized": "KNUW 301953Z 12009KT 10SM BKN075 BKN150 08/04 A3029 RMK AO2 SLP259 T00780039 $",
  "station": "KNUW",
  "temperature": {
    "repr": "08",
    "spoken": "eight",
    "value": 8
  },
  "time": {
    "dt": "2024-11-30T19:53:00Z",
    "repr": "301953Z"
  },
  "units": {
    "accumulation": "in",
    "altimeter": "inHg",
    "altitude": "ft",
    "temperature": "C",
    "visibility": "sm",
    "wind_speed": "kt"
  },
  "visibility": {
    "repr": "10",
    "spoken": "one zero",
    "value": 10
  },
  "wind_direction": {
    "repr": "120",
    "spoken": "one two zero",
    "value": 120
  },
  "wind_gust": null,
  "wind_speed": {
    "repr": "09",
    "spoken": "nine",
    "value": 9
  },
  "wind_variable_direction": [],
  "wx_codes": []
}
