{
  "meta": {
    "timestamp": "2022-12-15T16:06:32.364000Z",
    "stations_updated": "2022-09-05"
  },
  "altimeter": {
    "repr": "A3057",
    "value": 30.57,
    "spoken": "three zero point five seven"
  },
  "clouds": [
    {
      "repr": "FEW010",
      "type": "FEW",
      "altitude": 10,
      "modifier": null
    },
    {
      "repr": "FEW180",
      "type": "FEW",
      "altitude": 180,
      "modifier": null
    }
  ],
  "flight_rules": "VFR",
  "other": [],
  "visibility": {
    "repr": "10",
    "value": 10,
    "spoken": "one zero"
  },
  "wind_direction": {
    "repr": "110",
    "value": 110,
    "spoken": "one one zero"
  },
  "wind_gust": null,
  "wind_speed": {
    "repr": "04",
    "value": 4,
    "spoken": "four"
  },
  "wx_codes": [],
  "raw": "KNUW 151553Z 11004KT 10SM FEW010 FEW180 M02/M03 A3057 RMK AO2 SLP350 T10171028 VISNO $",
  "sanitized": "KNUW 151553Z 11004KT 10SM FEW010 FEW180 M02/M03 A3057 RMK AO2 SLP350 T10171028 VISNO $",
  "station": "KNUW",
  "time": {
    "repr": "151553Z",
    "dt": "2022-12-15T15:53:00Z"
  },
  "remarks": "RMK AO2 SLP350 T10171028 VISNO $",
  "dewpoint": {
    "repr": "M03",
    "value": -3,
    "spoken": "minus three"
  },
  "relative_humidity": 0.9218989053690371,
  "remarks_info": {
    "maximum_temperature_6": null,
    "minimum_temperature_6": null,
    "pressure_tendency": null,
    "precip_36_hours": null,
    "precip_24_hours": null,
    "sunshine_minutes": null,
    "codes": [
      {
        "repr": "$",
        "value": "ASOS requires maintenance"
      },
      {
        "repr": "AO2",
        "value": "Automated with precipitation sensor"
      }
    ],
    "dewpoint_decimal": {
      "repr": "1028",
      "value": -2.8,
      "spoken": "minus two point eight"
    },
    "maximum_temperature_24": null,
    "minimum_temperature_24": null,
    "precip_hourly": null,
    "sea_level_pressure": {
      "repr": "SLP350",
      "value": 1035,
      "spoken": "one zero three five point zero"
    },
    "snow_depth": null,
    "temperature_decimal": {
      "repr": "1017",
      "value": -1.7,
      "spoken": "minus one point seven"
    }
  },
  "runway_visibility": [],
  "temperature": {
    "repr": "M02",
    "value": -2,
    "spoken": "minus two"
  },
  "wind_variable_direction": [],
  "density_altitude": -2596,
  "pressure_altitude": -603,
  "units": {
    "accumulation": "in",
    "altimeter": "inHg",
    "altitude": "ft",
    "temperature": "C",
    "visibility": "sm",
    "wind_speed": "kt"
  }
}
