{
  "meta": {
    "timestamp": "2022-12-25T02:45:36.301565Z",
    "stations_updated": "2022-09-05"
  },
  "altimeter": {
    "repr": "A3011",
    "value": 30.11,
    "spoken": "three zero point one one"
  },
  "clouds": [
    {
      "repr": "OVC026",
      "type": "OVC",
      "altitude": 26,
      "modifier": null
    }
  ],
  "flight_rules": "MVFR",
  "other": [],
  "visibility": {
    "repr": "10",
    "value": 10,
    "spoken": "one zero"
  },
  "wind_direction": {
    "repr": "140",
    "value": 140,
    "spoken": "one four zero"
  },
  "wind_gust": null,
  "wind_speed": {
    "repr": "07",
    "value": 7,
    "spoken": "seven"
  },
  "wx_codes": [],
  "raw": "KNUW 250153Z AUTO 14007KT 10SM OVC026 10/09 A3011 RMK AO2 SLP195 T01000089 VISNO $",
  "sanitized": "KNUW 250153Z 14007KT 10SM OVC026 10/09 A3011 RMK AO2 SLP195 T01000089 VISNO $",
  "station": "KNUW",
  "time": {
    "repr": "250153Z",
    "dt": "2022-12-25T01:53:00Z"
  },
  "remarks": "RMK AO2 SLP195 T01000089 VISNO $",
  "dewpoint": {
    "repr": "09",
    "value": 9,
    "spoken": "nine"
  },
  "relative_humidity": 0.9286987212378438,
  "remarks_info": {
    "maximum_temperature_6": null,
    "minimum_temperature_6": null,
    "pressure_tendency": null,
    "precip_36_hours": null,
    "precip_24_hours": null,
    "sunshine_minutes": null,
    "codes": [
      {
        "repr": "$",
        "value": "ASOS requires maintenance"
      },
      {
        "repr": "AO2",
        "value": "Automated with precipitation sensor"
      }
    ],
    "dewpoint_decimal": {
      "repr": "0089",
      "value": 8.9,
      "spoken": "eight point nine"
    },
    "maximum_temperature_24": null,
    "minimum_temperature_24": null,
    "precip_hourly": null,
    "sea_level_pressure": {
      "repr": "SLP195",
      "value": 1019.5,
      "spoken": "one zero one nine point five"
    },
    "snow_depth": null,
    "temperature_decimal": {
      "repr": "0100",
      "value": 10,
      "spoken": "one zero point zero"
    }
  },
  "runway_visibility": [],
  "temperature": {
    "repr": "10",
    "value": 10,
    "spoken": "one zero"
  },
  "wind_variable_direction": [],
  "density_altitude": -732,
  "pressure_altitude": -143,
  "units": {
    "accumulation": "in",
    "altimeter": "inHg",
    "altitude": "ft",
    "temperature": "C",
    "visibility": "sm",
    "wind_speed": "kt"
  }
}
