{
  "meta": {
    "timestamp": "2023-07-27T00:29:05.844255Z",
    "stations_updated": "2023-06-06"
  },
  "altimeter": {
    "repr": "A3012",
    "value": 30.12,
    "spoken": "three zero point one two"
  },
  "clouds": [
    {
      "repr": "FEW040",
      "type": "FEW",
      "altitude": 40,
      "modifier": null
    },
    {
      "repr": "SCT070",
      "type": "SCT",
      "altitude": 70,
      "modifier": null
    },
    {
      "repr": "BKN250",
      "type": "BKN",
      "altitude": 250,
      "modifier": null
    }
  ],
  "flight_rules": "VFR",
  "other": [],
  "visibility": {
    "repr": "10",
    "value": 10,
    "spoken": "one zero"
  },
  "wind_direction": {
    "repr": "270",
    "value": 270,
    "spoken": "two seven zero"
  },
  "wind_gust": null,
  "wind_speed": {
    "repr": "06",
    "value": 6,
    "spoken": "six"
  },
  "wx_codes": [],
  "raw": "KNUW 262353Z 27006KT 10SM FEW040 SCT070 BKN250 16/12 A3012 RMK AO2 SLP204 T01610117 10194 20150 58017 VISNO $",
  "sanitized": "KNUW 262353Z 27006KT 10SM FEW040 SCT070 BKN250 16/12 A3012 RMK AO2 SLP204 T01610117 10194 20150 58017 VISNO $",
  "station": "KNUW",
  "time": {
    "repr": "262353Z",
    "dt": "2023-07-26T23:53:00Z"
  },
  "remarks": "RMK AO2 SLP204 T01610117 10194 20150 58017 VISNO $",
  "dewpoint": {
    "repr": "12",
    "value": 12,
    "spoken": "one two"
  },
  "relative_humidity": 0.7514422502965397,
  "remarks_info": {
    "maximum_temperature_6": {
      "repr": "10194",
      "value": 19.4,
      "spoken": "one nine point four"
    },
    "minimum_temperature_6": {
      "repr": "20150",
      "value": 15,
      "spoken": "one five point zero"
    },
    "pressure_tendency": {
      "repr": "58017",
      "tendency": "Steady or increasing, then decreasing",
      "change": 1.7
    },
    "precip_36_hours": null,
    "precip_24_hours": null,
    "sunshine_minutes": null,
    "codes": [
      {
        "repr": "$",
        "value": "ASOS requires maintenance"
      },
      {
        "repr": "AO2",
        "value": "Automated with precipitation sensor"
      }
    ],
    "dewpoint_decimal": {
      "repr": "0117",
      "value": 11.7,
      "spoken": "one one point seven"
    },
    "maximum_temperature_24": null,
    "minimum_temperature_24": null,
    "precip_hourly": null,
    "sea_level_pressure": {
      "repr": "SLP204",
      "value": 1020.4,
      "spoken": "one zero two zero point four"
    },
    "snow_depth": null,
    "temperature_decimal": {
      "repr": "0161",
      "value": 16.1,
      "spoken": "one six point one"
    }
  },
  "runway_visibility": [],
  "temperature": {
    "repr": "16",
    "value": 16,
    "spoken": "one six"
  },
  "wind_variable_direction": [],
  "density_altitude": -10,
  "pressure_altitude": -153,
  "units": {
    "accumulation": "in",
    "altimeter": "inHg",
    "altitude": "ft",
    "temperature": "C",
    "visibility": "sm",
    "wind_speed": "kt"
  }
}
