{
  "altimeter": {
    "repr": "A3012",
    "spoken": "three zero point one two",
    "value": 30.12
  },
  "clouds": [
    {
      "altitude": 5,
      "modifier": null,
      "repr": "FEW005",
      "type": "FEW"
    }
  ],
  "density_altitude": -1138,
  "dewpoint": {
    "repr": "06",
    "spoken": "six",
    "value": 6
  },
  "flight_rules": "VFR",
  "meta": {
    "stations_updated": "2024-06-12",
    "timestamp": "2024-10-07T10:07:57.539808Z"
  },
  "other": [],
  "pressure_altitude": -153,
  "raw": "KNUW 070953Z 13003KT 7SM FEW005 07/06 A3012 RMK AO2 SLP203 T00670061 $",
  "relative_humidity": 0.9595042676817481,
  "remarks": "RMK AO2 SLP203 T00670061 $",
  "remarks_info": {
    "codes": [
      {
        "repr": "$",
        "value": "ASOS requires maintenance"
      },
      {
        "repr": "AO2",
        "value": "Automated with precipitation sensor"
      }
    ],
    "dewpoint_decimal": {
      "repr": "0061",
      "spoken": "six point one",
      "value": 6.1
    },
    "maximum_temperature_24": null,
    "maximum_temperature_6": null,
    "minimum_temperature_24": null,
    "minimum_temperature_6": null,
    "precip_24_hours": null,
    "precip_36_hours": null,
    "precip_hourly": null,
    "pressure_tendency": null,
    "sea_level_pressure": {
      "repr": "SLP203",
      "spoken": "one zero two zero point three",
      "value": 1020.3
    },
    "snow_depth": null,
    "sunshine_minutes": null,
    "temperature_decimal": {
      "repr": "0067",
      "spoken": "six point seven",
      "value": 6.7
    }
  },
  "runway_visibility": [],
  "sanitized": "KNUW 070953Z 13003KT 7SM FEW005 07/06 A3012 RMK AO2 SLP203 T00670061 $",
  "station": "KNUW",
  "temperature": {
    "repr": "07",
    "spoken": "seven",
    "value": 7
  },
  "time": {
    "dt": "2024-10-07T09:53:00Z",
    "repr": "070953Z"
  },
  "units": {
    "accumulation": "in",
    "altimeter": "inHg",
    "altitude": "ft",
    "temperature": "C",
    "visibility": "sm",
    "wind_speed": "kt"
  },
  "visibility": {
    "repr": "7",
    "spoken": "seven",
    "value": 7
  },
  "wind_direction": {
    "repr": "130",
    "spoken": "one three zero",
    "value": 130
  },
  "wind_gust": null,
  "wind_speed": {
    "repr": "03",
    "spoken": "three",
    "value": 3
  },
  "wind_variable_direction": [],
  "wx_codes": []
}
