{
  "meta": {
    "timestamp": "2023-01-02T18:05:28.923753Z",
    "stations_updated": "2022-12-27"
  },
  "altimeter": {
    "repr": "A2978",
    "value": 29.78,
    "spoken": "two nine point seven eight"
  },
  "clouds": [],
  "flight_rules": "VFR",
  "other": [],
  "visibility": {
    "repr": "10",
    "value": 10,
    "spoken": "one zero"
  },
  "wind_direction": {
    "repr": "110",
    "value": 110,
    "spoken": "one one zero"
  },
  "wind_gust": null,
  "wind_speed": {
    "repr": "07",
    "value": 7,
    "spoken": "seven"
  },
  "wx_codes": [],
  "raw": "KNUW 021753Z AUTO 11007KT 10SM CLR 04/02 A2978 RMK AO2 SLP084 T00440022 10044 20006 56013 VISNO $",
  "sanitized": "KNUW 021753Z 11007KT 10SM 04/02 A2978 RMK AO2 SLP084 T00440022 10044 20006 56013 VISNO $",
  "station": "KNUW",
  "time": {
    "repr": "021753Z",
    "dt": "2023-01-02T17:53:00Z"
  },
  "remarks": "RMK AO2 SLP084 T00440022 10044 20006 56013 VISNO $",
  "dewpoint": {
    "repr": "02",
    "value": 2,
    "spoken": "two"
  },
  "relative_humidity": 0.8560648690888376,
  "remarks_info": {
    "maximum_temperature_6": {
      "repr": "10044",
      "value": 4.4,
      "spoken": "four point four"
    },
    "minimum_temperature_6": {
      "repr": "20006",
      "value": 0.6,
      "spoken": "zero point six"
    },
    "pressure_tendency": {
      "repr": "56013",
      "tendency": "Decreasing, then steady",
      "change": 1.3
    },
    "precip_36_hours": null,
    "precip_24_hours": null,
    "sunshine_minutes": null,
    "codes": [
      {
        "repr": "$",
        "value": "ASOS requires maintenance"
      },
      {
        "repr": "AO2",
        "value": "Automated with precipitation sensor"
      }
    ],
    "dewpoint_decimal": {
      "repr": "0022",
      "value": 2.2,
      "spoken": "two point two"
    },
    "maximum_temperature_24": null,
    "minimum_temperature_24": null,
    "precip_hourly": null,
    "sea_level_pressure": {
      "repr": "SLP084",
      "value": 1008.4,
      "spoken": "one zero zero eight point four"
    },
    "snow_depth": null,
    "temperature_decimal": {
      "repr": "0044",
      "value": 4.4,
      "spoken": "four point four"
    }
  },
  "runway_visibility": [],
  "temperature": {
    "repr": "04",
    "value": 4,
    "spoken": "four"
  },
  "wind_variable_direction": [],
  "density_altitude": -1074,
  "pressure_altitude": 187,
  "units": {
    "accumulation": "in",
    "altimeter": "inHg",
    "altitude": "ft",
    "temperature": "C",
    "visibility": "sm",
    "wind_speed": "kt"
  }
}
