{
  "meta": {
    "timestamp": "2023-01-25T11:09:45.395331Z",
    "stations_updated": "2023-01-16"
  },
  "altimeter": {
    "repr": "A3071",
    "value": 30.71,
    "spoken": "three zero point seven one"
  },
  "clouds": [
    {
      "repr": "OVC006",
      "type": "OVC",
      "altitude": 6,
      "modifier": null
    }
  ],
  "flight_rules": "IFR",
  "other": [],
  "visibility": {
    "repr": "3",
    "value": 3,
    "spoken": "three"
  },
  "wind_direction": {
    "repr": "060",
    "value": 60,
    "spoken": "zero six zero"
  },
  "wind_gust": null,
  "wind_speed": {
    "repr": "03",
    "value": 3,
    "spoken": "three"
  },
  "wx_codes": [
    {
      "repr": "BR",
      "value": "Mist"
    }
  ],
  "raw": "KNUW 251053Z 06003KT 3SM BR OVC006 07/05 A3071 RMK AO2 SLP399 T00670050 VISNO $",
  "sanitized": "KNUW 251053Z 06003KT 3SM BR OVC006 07/05 A3071 RMK AO2 SLP399 T00670050 VISNO $",
  "station": "KNUW",
  "time": {
    "repr": "251053Z",
    "dt": "2023-01-25T10:53:00Z"
  },
  "remarks": "RMK AO2 SLP399 T00670050 VISNO $",
  "dewpoint": {
    "repr": "05",
    "value": 5,
    "spoken": "five"
  },
  "relative_humidity": 0.8890122546203816,
  "remarks_info": {
    "maximum_temperature_6": null,
    "minimum_temperature_6": null,
    "pressure_tendency": null,
    "precip_36_hours": null,
    "precip_24_hours": null,
    "sunshine_minutes": null,
    "codes": [
      {
        "repr": "$",
        "value": "ASOS requires maintenance"
      },
      {
        "repr": "AO2",
        "value": "Automated with precipitation sensor"
      }
    ],
    "dewpoint_decimal": {
      "repr": "0050",
      "value": 5,
      "spoken": "five point zero"
    },
    "maximum_temperature_24": null,
    "minimum_temperature_24": null,
    "precip_hourly": null,
    "sea_level_pressure": {
      "repr": "SLP399",
      "value": 1039.9,
      "spoken": "one zero three nine point nine"
    },
    "snow_depth": null,
    "temperature_decimal": {
      "repr": "0067",
      "value": 6.7,
      "spoken": "six point seven"
    }
  },
  "runway_visibility": [],
  "temperature": {
    "repr": "07",
    "value": 7,
    "spoken": "seven"
  },
  "wind_variable_direction": [],
  "density_altitude": -1728,
  "pressure_altitude": -743,
  "units": {
    "accumulation": "in",
    "altimeter": "inHg",
    "altitude": "ft",
    "temperature": "C",
    "visibility": "sm",
    "wind_speed": "kt"
  }
}
