{
  "meta": {
    "timestamp": "2022-09-30T08:01:58.852487Z",
    "stations_updated": "2022-09-05"
  },
  "altimeter": {
    "repr": "A3025",
    "value": 30.25,
    "spoken": "three zero point two five"
  },
  "clouds": [
    {
      "repr": "FEW002",
      "type": "FEW",
      "altitude": 2,
      "modifier": null
    },
    {
      "repr": "BKN004",
      "type": "BKN",
      "altitude": 4,
      "modifier": null
    },
    {
      "repr": "OVC010",
      "type": "OVC",
      "altitude": 10,
      "modifier": null
    }
  ],
  "flight_rules": "LIFR",
  "other": [],
  "visibility": {
    "repr": "3/2",
    "value": 1.5,
    "spoken": "one and one half",
    "numerator": 3,
    "denominator": 2,
    "normalized": "1 1/2"
  },
  "wind_direction": {
    "repr": "230",
    "value": 230,
    "spoken": "two three zero"
  },
  "wind_gust": null,
  "wind_speed": {
    "repr": "07",
    "value": 7,
    "spoken": "seven"
  },
  "wx_codes": [
    {
      "repr": "BR",
      "value": "Mist"
    }
  ],
  "raw": "KNUW 300753Z 23007KT 1 1/2SM BR FEW002 BKN004 OVC010 12/12 A3025 RMK AO2 SFC VIS 5 SLP243 T01220117 401890100",
  "sanitized": "KNUW 300753Z 23007KT 1 1/2SM BR FEW002 BKN004 OVC010 12/12 A3025 RMK AO2 SFC VIS 5 SLP243 T01220117 401890100",
  "station": "KNUW",
  "time": {
    "repr": "300753Z",
    "dt": "2022-09-30T07:53:00Z"
  },
  "remarks": "RMK AO2 SFC VIS 5 SLP243 T01220117 401890100",
  "dewpoint": {
    "repr": "12",
    "value": 12,
    "spoken": "one two"
  },
  "relative_humidity": 0.9675694096890608,
  "remarks_info": {
    "maximum_temperature_6": null,
    "minimum_temperature_6": null,
    "pressure_tendency": null,
    "precip_36_hours": null,
    "precip_24_hours": null,
    "sunshine_minutes": null,
    "codes": [
      {
        "repr": "AO2",
        "value": "Automated with precipitation sensor"
      }
    ],
    "dewpoint_decimal": {
      "repr": "0117",
      "value": 11.7,
      "spoken": "one one point seven"
    },
    "maximum_temperature_24": {
      "repr": "0189",
      "value": 18.9,
      "spoken": "one eight point nine"
    },
    "minimum_temperature_24": {
      "repr": "0100",
      "value": 10,
      "spoken": "one zero point zero"
    },
    "precip_hourly": null,
    "sea_level_pressure": {
      "repr": "SLP243",
      "value": 1024.3,
      "spoken": "one zero two four point three"
    },
    "snow_depth": null,
    "temperature_decimal": {
      "repr": "0122",
      "value": 12.2,
      "spoken": "one two point two"
    }
  },
  "runway_visibility": [],
  "temperature": {
    "repr": "12",
    "value": 12,
    "spoken": "one two"
  },
  "wind_variable_direction": [],
  "density_altitude": -608,
  "pressure_altitude": -283,
  "units": {
    "accumulation": "in",
    "altimeter": "inHg",
    "altitude": "ft",
    "temperature": "C",
    "visibility": "sm",
    "wind_speed": "kt"
  }
}
