{
  "altimeter": {
    "repr": "A2956",
    "spoken": "two nine point five six",
    "value": 29.56
  },
  "clouds": [
    {
      "altitude": 20,
      "modifier": null,
      "repr": "BKN020",
      "type": "BKN"
    },
    {
      "altitude": 100,
      "modifier": null,
      "repr": "BKN100",
      "type": "BKN"
    },
    {
      "altitude": 200,
      "modifier": null,
      "repr": "BKN200",
      "type": "BKN"
    }
  ],
  "density_altitude": -50,
  "dewpoint": {
    "repr": "08",
    "spoken": "eight",
    "value": 8
  },
  "flight_rules": "MVFR",
  "meta": {
    "stations_updated": "2024-10-29",
    "timestamp": "2024-11-14T03:44:38.158906Z"
  },
  "other": [],
  "pressure_altitude": 407,
  "raw": "KNUW 140253Z 15016G33KT 10SM BKN020 BKN100 BKN200 11/08 A2956 RMK AO2 PK WND 15036/0200 SLP013 60001 T01110083 53019 $",
  "relative_humidity": 0.8286786978983101,
  "remarks": "RMK AO2 PK WND 15036/0200 SLP013 60001 T01110083 53019 $",
  "remarks_info": {
    "codes": [
      {
        "repr": "$",
        "value": "ASOS requires maintenance"
      },
      {
        "repr": "AO2",
        "value": "Automated with precipitation sensor"
      }
    ],
    "dewpoint_decimal": {
      "repr": "0083",
      "spoken": "eight point three",
      "value": 8.3
    },
    "maximum_temperature_24": null,
    "maximum_temperature_6": null,
    "minimum_temperature_24": null,
    "minimum_temperature_6": null,
    "precip_24_hours": null,
    "precip_36_hours": {
      "repr": "60001",
      "spoken": "zero point zero one",
      "value": 0.01
    },
    "precip_hourly": null,
    "pressure_tendency": {
      "change": 1.9,
      "repr": "53019",
      "tendency": "Decreasing or steady, then increasing"
    },
    "sea_level_pressure": {
      "repr": "SLP013",
      "spoken": "one zero zero one point three",
      "value": 1001.3
    },
    "snow_depth": null,
    "sunshine_minutes": null,
    "temperature_decimal": {
      "repr": "0111",
      "spoken": "one one point one",
      "value": 11.1
    }
  },
  "runway_visibility": [],
  "sanitized": "KNUW 140253Z 15016G33KT 10SM BKN020 BKN100 BKN200 11/08 A2956 RMK AO2 PK WND 15036/0200 SLP013 60001 T01110083 53019 $",
  "station": "KNUW",
  "temperature": {
    "repr": "11",
    "spoken": "one one",
    "value": 11
  },
  "time": {
    "dt": "2024-11-14T02:53:00Z",
    "repr": "140253Z"
  },
  "units": {
    "accumulation": "in",
    "altimeter": "inHg",
    "altitude": "ft",
    "temperature": "C",
    "visibility": "sm",
    "wind_speed": "kt"
  },
  "visibility": {
    "repr": "10",
    "spoken": "one zero",
    "value": 10
  },
  "wind_direction": {
    "repr": "150",
    "spoken": "one five zero",
    "value": 150
  },
  "wind_gust": {
    "repr": "33",
    "spoken": "three three",
    "value": 33
  },
  "wind_speed": {
    "repr": "16",
    "spoken": "one six",
    "value": 16
  },
  "wind_variable_direction": [],
  "wx_codes": []
}
