{
  "altimeter": {
    "repr": "A2981",
    "spoken": "two nine point eight one",
    "value": 29.81
  },
  "clouds": [
    {
      "altitude": 16,
      "modifier": null,
      "repr": "BKN016",
      "type": "BKN"
    },
    {
      "altitude": 25,
      "modifier": null,
      "repr": "OVC025",
      "type": "OVC"
    }
  ],
  "density_altitude": 36,
  "dewpoint": {
    "repr": "11",
    "spoken": "one one",
    "value": 11
  },
  "flight_rules": "MVFR",
  "meta": {
    "cache-timestamp": "2024-06-04T18:08:02.768000Z",
    "stations_updated": "2024-05-13",
    "timestamp": "2024-06-04T18:08:13.952395Z"
  },
  "other": [],
  "pressure_altitude": 157,
  "raw": "KNUW 041753Z 17013KT 10SM BKN016 OVC025 14/11 A2981 RMK AO2 PK WND 14028/1700 SLP099 T01390111 10139 20111 53014 $",
  "relative_humidity": 0.8320736463097704,
  "remarks": "RMK AO2 PK WND 14028/1700 SLP099 T01390111 10139 20111 53014 $",
  "remarks_info": {
    "codes": [
      {
        "repr": "$",
        "value": "ASOS requires maintenance"
      },
      {
        "repr": "AO2",
        "value": "Automated with precipitation sensor"
      }
    ],
    "dewpoint_decimal": {
      "repr": "0111",
      "spoken": "one one point one",
      "value": 11.1
    },
    "maximum_temperature_24": null,
    "maximum_temperature_6": {
      "repr": "10139",
      "spoken": "one three point nine",
      "value": 13.9
    },
    "minimum_temperature_24": null,
    "minimum_temperature_6": {
      "repr": "20111",
      "spoken": "one one point one",
      "value": 11.1
    },
    "precip_24_hours": null,
    "precip_36_hours": null,
    "precip_hourly": null,
    "pressure_tendency": {
      "change": 1.4,
      "repr": "53014",
      "tendency": "Decreasing or steady, then increasing"
    },
    "sea_level_pressure": {
      "repr": "SLP099",
      "spoken": "one zero zero nine point nine",
      "value": 1009.9
    },
    "snow_depth": null,
    "sunshine_minutes": null,
    "temperature_decimal": {
      "repr": "0139",
      "spoken": "one three point nine",
      "value": 13.9
    }
  },
  "runway_visibility": [],
  "sanitized": "KNUW 041753Z 17013KT 10SM BKN016 OVC025 14/11 A2981 RMK AO2 PK WND 14028/1700 SLP099 T01390111 10139 20111 53014 $",
  "station": "KNUW",
  "temperature": {
    "repr": "14",
    "spoken": "one four",
    "value": 14
  },
  "time": {
    "dt": "2024-06-04T17:53:00Z",
    "repr": "041753Z"
  },
  "units": {
    "accumulation": "in",
    "altimeter": "inHg",
    "altitude": "ft",
    "temperature": "C",
    "visibility": "sm",
    "wind_speed": "kt"
  },
  "visibility": {
    "repr": "10",
    "spoken": "one zero",
    "value": 10
  },
  "wind_direction": {
    "repr": "170",
    "spoken": "one seven zero",
    "value": 170
  },
  "wind_gust": null,
  "wind_speed": {
    "repr": "13",
    "spoken": "one three",
    "value": 13
  },
  "wind_variable_direction": [],
  "wx_codes": []
}
