{
  "meta": {
    "timestamp": "2023-05-11T19:40:58.748528Z",
    "stations_updated": "2023-03-11",
    "cache-timestamp": "2023-05-11T19:40:06.136000Z"
  },
  "altimeter": {
    "repr": "A3018",
    "value": 30.18,
    "spoken": "three zero point one eight"
  },
  "clouds": [
    {
      "repr": "FEW025",
      "type": "FEW",
      "altitude": 25,
      "modifier": null
    },
    {
      "repr": "SCT220",
      "type": "SCT",
      "altitude": 220,
      "modifier": null
    }
  ],
  "flight_rules": "VFR",
  "other": [],
  "visibility": {
    "repr": "10",
    "value": 10,
    "spoken": "one zero"
  },
  "wind_direction": {
    "repr": "280",
    "value": 280,
    "spoken": "two eight zero"
  },
  "wind_gust": null,
  "wind_speed": {
    "repr": "05",
    "value": 5,
    "spoken": "five"
  },
  "wx_codes": [],
  "raw": "KNUW 111853Z 28005KT 10SM FEW025 SCT220 13/09 A3018 RMK AO2 SLP223 T01280089 VISNO",
  "sanitized": "KNUW 111853Z 28005KT 10SM FEW025 SCT220 13/09 A3018 RMK AO2 SLP223 T01280089 VISNO",
  "station": "KNUW",
  "time": {
    "repr": "111853Z",
    "dt": "2023-05-11T18:53:00Z"
  },
  "remarks": "RMK AO2 SLP223 T01280089 VISNO",
  "dewpoint": {
    "repr": "09",
    "value": 9,
    "spoken": "nine"
  },
  "relative_humidity": 0.7715179528891911,
  "remarks_info": {
    "maximum_temperature_6": null,
    "minimum_temperature_6": null,
    "pressure_tendency": null,
    "precip_36_hours": null,
    "precip_24_hours": null,
    "sunshine_minutes": null,
    "codes": [
      {
        "repr": "AO2",
        "value": "Automated with precipitation sensor"
      }
    ],
    "dewpoint_decimal": {
      "repr": "0089",
      "value": 8.9,
      "spoken": "eight point nine"
    },
    "maximum_temperature_24": null,
    "minimum_temperature_24": null,
    "precip_hourly": null,
    "sea_level_pressure": {
      "repr": "SLP223",
      "value": 1022.3,
      "spoken": "one zero two two point three"
    },
    "snow_depth": null,
    "temperature_decimal": {
      "repr": "0128",
      "value": 12.8,
      "spoken": "one two point eight"
    }
  },
  "runway_visibility": [],
  "temperature": {
    "repr": "13",
    "value": 13,
    "spoken": "one three"
  },
  "wind_variable_direction": [],
  "density_altitude": -466,
  "pressure_altitude": -213,
  "units": {
    "accumulation": "in",
    "altimeter": "inHg",
    "altitude": "ft",
    "temperature": "C",
    "visibility": "sm",
    "wind_speed": "kt"
  }
}
