{
  "altimeter": {
    "repr": "A2974",
    "spoken": "two nine point seven four",
    "value": 29.74
  },
  "clouds": [
    {
      "altitude": 50,
      "modifier": null,
      "repr": "FEW050",
      "type": "FEW"
    },
    {
      "altitude": 110,
      "modifier": null,
      "repr": "BKN110",
      "type": "BKN"
    },
    {
      "altitude": 140,
      "modifier": null,
      "repr": "BKN140",
      "type": "BKN"
    },
    {
      "altitude": 220,
      "modifier": null,
      "repr": "OVC220",
      "type": "OVC"
    }
  ],
  "density_altitude": -158,
  "dewpoint": {
    "repr": "06",
    "spoken": "six",
    "value": 6
  },
  "flight_rules": "VFR",
  "meta": {
    "cache-timestamp": "2023-12-30T03:02:03.584000Z",
    "stations_updated": "2023-10-28",
    "timestamp": "2023-12-30T03:02:41.499475Z"
  },
  "other": [],
  "pressure_altitude": 227,
  "raw": "KNUW 300153Z 08003KT 10SM FEW050 BKN110 BKN140 OVC220 12/06 A2974 RMK AO2 SLP073 T01170061 $",
  "relative_humidity": 0.68504766646176,
  "remarks": "RMK AO2 SLP073 T01170061 $",
  "remarks_info": {
    "codes": [
      {
        "repr": "$",
        "value": "ASOS requires maintenance"
      },
      {
        "repr": "AO2",
        "value": "Automated with precipitation sensor"
      }
    ],
    "dewpoint_decimal": {
      "repr": "0061",
      "spoken": "six point one",
      "value": 6.1
    },
    "maximum_temperature_24": null,
    "maximum_temperature_6": null,
    "minimum_temperature_24": null,
    "minimum_temperature_6": null,
    "precip_24_hours": null,
    "precip_36_hours": null,
    "precip_hourly": null,
    "pressure_tendency": null,
    "sea_level_pressure": {
      "repr": "SLP073",
      "spoken": "one zero zero seven point three",
      "value": 1007.3
    },
    "snow_depth": null,
    "sunshine_minutes": null,
    "temperature_decimal": {
      "repr": "0117",
      "spoken": "one one point seven",
      "value": 11.7
    }
  },
  "runway_visibility": [],
  "sanitized": "KNUW 300153Z 08003KT 10SM FEW050 BKN110 BKN140 OVC220 12/06 A2974 RMK AO2 SLP073 T01170061 $",
  "station": "KNUW",
  "temperature": {
    "repr": "12",
    "spoken": "one two",
    "value": 12
  },
  "time": {
    "dt": "2023-12-30T01:53:00Z",
    "repr": "300153Z"
  },
  "units": {
    "accumulation": "in",
    "altimeter": "inHg",
    "altitude": "ft",
    "temperature": "C",
    "visibility": "sm",
    "wind_speed": "kt"
  },
  "visibility": {
    "repr": "10",
    "spoken": "one zero",
    "value": 10
  },
  "wind_direction": {
    "repr": "080",
    "spoken": "zero eight zero",
    "value": 80
  },
  "wind_gust": null,
  "wind_speed": {
    "repr": "03",
    "spoken": "three",
    "value": 3
  },
  "wind_variable_direction": [],
  "wx_codes": []
}
