{
  "meta": {
    "timestamp": "2022-12-14T08:43:57.606782Z",
    "stations_updated": "2022-09-05"
  },
  "altimeter": {
    "repr": "A3035",
    "value": 30.35,
    "spoken": "three zero point three five"
  },
  "clouds": [
    {
      "repr": "FEW015",
      "type": "FEW",
      "altitude": 15,
      "modifier": null
    },
    {
      "repr": "OVC027",
      "type": "OVC",
      "altitude": 27,
      "modifier": null
    }
  ],
  "flight_rules": "MVFR",
  "other": [],
  "visibility": {
    "repr": "10",
    "value": 10,
    "spoken": "one zero"
  },
  "wind_direction": {
    "repr": "080",
    "value": 80,
    "spoken": "zero eight zero"
  },
  "wind_gust": null,
  "wind_speed": {
    "repr": "04",
    "value": 4,
    "spoken": "four"
  },
  "wx_codes": [],
  "raw": "KNUW 140753Z 08004KT 10SM FEW015 OVC027 04/02 A3035 RMK AO2 SLP278 T00440017 400501022 VISNO $",
  "sanitized": "KNUW 140753Z 08004KT 10SM FEW015 OVC027 04/02 A3035 RMK AO2 SLP278 T00440017 400501022 VISNO $",
  "station": "KNUW",
  "time": {
    "repr": "140753Z",
    "dt": "2022-12-14T07:53:00Z"
  },
  "remarks": "RMK AO2 SLP278 T00440017 400501022 VISNO $",
  "dewpoint": {
    "repr": "02",
    "value": 2,
    "spoken": "two"
  },
  "relative_humidity": 0.8260348577577609,
  "remarks_info": {
    "maximum_temperature_6": null,
    "minimum_temperature_6": null,
    "pressure_tendency": null,
    "precip_36_hours": null,
    "precip_24_hours": null,
    "sunshine_minutes": null,
    "codes": [
      {
        "repr": "$",
        "value": "ASOS requires maintenance"
      },
      {
        "repr": "AO2",
        "value": "Automated with precipitation sensor"
      }
    ],
    "dewpoint_decimal": {
      "repr": "0017",
      "value": 1.7,
      "spoken": "one point seven"
    },
    "maximum_temperature_24": {
      "repr": "0050",
      "value": 5,
      "spoken": "five point zero"
    },
    "minimum_temperature_24": {
      "repr": "1022",
      "value": -2.2,
      "spoken": "minus two point two"
    },
    "precip_hourly": null,
    "sea_level_pressure": {
      "repr": "SLP278",
      "value": 1027.8,
      "spoken": "one zero two seven point eight"
    },
    "snow_depth": null,
    "temperature_decimal": {
      "repr": "0044",
      "value": 4.4,
      "spoken": "four point four"
    }
  },
  "runway_visibility": [],
  "temperature": {
    "repr": "04",
    "value": 4,
    "spoken": "four"
  },
  "wind_variable_direction": [],
  "density_altitude": -1644,
  "pressure_altitude": -383,
  "units": {
    "accumulation": "in",
    "altimeter": "inHg",
    "altitude": "ft",
    "temperature": "C",
    "visibility": "sm",
    "wind_speed": "kt"
  }
}
