{
  "meta": {
    "timestamp": "2023-01-09T17:43:01.813939Z",
    "stations_updated": "2022-12-27",
    "cache-timestamp": "2023-01-09T17:42:07.143000Z"
  },
  "altimeter": {
    "repr": "A2943",
    "value": 29.43,
    "spoken": "two nine point four three"
  },
  "clouds": [
    {
      "repr": "FEW060",
      "type": "FEW",
      "altitude": 60,
      "modifier": null
    },
    {
      "repr": "SCT120",
      "type": "SCT",
      "altitude": 120,
      "modifier": null
    },
    {
      "repr": "BKN220",
      "type": "BKN",
      "altitude": 220,
      "modifier": null
    }
  ],
  "flight_rules": "VFR",
  "other": [],
  "visibility": {
    "repr": "10",
    "value": 10,
    "spoken": "one zero"
  },
  "wind_direction": {
    "repr": "100",
    "value": 100,
    "spoken": "one zero zero"
  },
  "wind_gust": null,
  "wind_speed": {
    "repr": "06",
    "value": 6,
    "spoken": "six"
  },
  "wx_codes": [],
  "raw": "KNUW 091653Z COR 10006KT 10SM FEW060 SCT120 BKN220 07/02 A2943 RMK SLP964 T00670017",
  "sanitized": "KNUW 091653Z 10006KT 10SM FEW060 SCT120 BKN220 07/02 A2943 RMK SLP964 T00670017",
  "station": "KNUW",
  "time": {
    "repr": "091653Z",
    "dt": "2023-01-09T16:53:00Z"
  },
  "remarks": "RMK SLP964 T00670017",
  "dewpoint": {
    "repr": "02",
    "value": 2,
    "spoken": "two"
  },
  "relative_humidity": 0.7042165987772517,
  "remarks_info": {
    "maximum_temperature_6": null,
    "minimum_temperature_6": null,
    "pressure_tendency": null,
    "precip_36_hours": null,
    "precip_24_hours": null,
    "sunshine_minutes": null,
    "codes": [],
    "dewpoint_decimal": {
      "repr": "0017",
      "value": 1.7,
      "spoken": "one point seven"
    },
    "maximum_temperature_24": null,
    "minimum_temperature_24": null,
    "precip_hourly": null,
    "sea_level_pressure": {
      "repr": "SLP964",
      "value": 996.4,
      "spoken": "nine nine six point four"
    },
    "snow_depth": null,
    "temperature_decimal": {
      "repr": "0067",
      "value": 6.7,
      "spoken": "six point seven"
    }
  },
  "runway_visibility": [],
  "temperature": {
    "repr": "07",
    "value": 7,
    "spoken": "seven"
  },
  "wind_variable_direction": [],
  "density_altitude": -448,
  "pressure_altitude": 537,
  "units": {
    "accumulation": "in",
    "altimeter": "inHg",
    "altitude": "ft",
    "temperature": "C",
    "visibility": "sm",
    "wind_speed": "kt"
  }
}
