{
  "meta": {
    "timestamp": "2023-03-19T10:02:15.467004Z",
    "stations_updated": "2023-03-11"
  },
  "altimeter": {
    "repr": "A2990",
    "value": 29.9,
    "spoken": "two nine point nine zero"
  },
  "clouds": [
    {
      "repr": "FEW180",
      "type": "FEW",
      "altitude": 180,
      "modifier": null
    },
    {
      "repr": "SCT250",
      "type": "SCT",
      "altitude": 250,
      "modifier": null
    }
  ],
  "flight_rules": "VFR",
  "other": [],
  "visibility": {
    "repr": "10",
    "value": 10,
    "spoken": "one zero"
  },
  "wind_direction": {
    "repr": "000",
    "value": 0,
    "spoken": "zero zero zero"
  },
  "wind_gust": null,
  "wind_speed": {
    "repr": "00",
    "value": 0,
    "spoken": "zero"
  },
  "wx_codes": [],
  "raw": "KNUW 190953Z 00000KT 10SM FEW180 SCT250 06/03 A2990 RMK AO2 SLP127 T00560033 VISNO $",
  "sanitized": "KNUW 190953Z 00000KT 10SM FEW180 SCT250 06/03 A2990 RMK AO2 SLP127 T00560033 VISNO $",
  "station": "KNUW",
  "time": {
    "repr": "190953Z",
    "dt": "2023-03-19T09:53:00Z"
  },
  "remarks": "RMK AO2 SLP127 T00560033 VISNO $",
  "dewpoint": {
    "repr": "03",
    "value": 3,
    "spoken": "three"
  },
  "relative_humidity": 0.8513177604096042,
  "remarks_info": {
    "maximum_temperature_6": null,
    "minimum_temperature_6": null,
    "pressure_tendency": null,
    "precip_36_hours": null,
    "precip_24_hours": null,
    "sunshine_minutes": null,
    "codes": [
      {
        "repr": "$",
        "value": "ASOS requires maintenance"
      },
      {
        "repr": "AO2",
        "value": "Automated with precipitation sensor"
      }
    ],
    "dewpoint_decimal": {
      "repr": "0033",
      "value": 3.3,
      "spoken": "three point three"
    },
    "maximum_temperature_24": null,
    "minimum_temperature_24": null,
    "precip_hourly": null,
    "sea_level_pressure": {
      "repr": "SLP127",
      "value": 1012.7,
      "spoken": "one zero one two point seven"
    },
    "snow_depth": null,
    "temperature_decimal": {
      "repr": "0056",
      "value": 5.6,
      "spoken": "five point six"
    }
  },
  "runway_visibility": [],
  "temperature": {
    "repr": "06",
    "value": 6,
    "spoken": "six"
  },
  "wind_variable_direction": [],
  "density_altitude": -1050,
  "pressure_altitude": 67,
  "units": {
    "accumulation": "in",
    "altimeter": "inHg",
    "altitude": "ft",
    "temperature": "C",
    "visibility": "sm",
    "wind_speed": "kt"
  }
}
