{
  "meta": {
    "timestamp": "2023-01-26T06:42:38.443355Z",
    "stations_updated": "2023-01-16",
    "cache-timestamp": "2023-01-26T06:42:08.292000Z"
  },
  "altimeter": {
    "repr": "A3074",
    "value": 30.74,
    "spoken": "three zero point seven four"
  },
  "clouds": [
    {
      "repr": "BKN008",
      "type": "BKN",
      "altitude": 8,
      "modifier": null
    },
    {
      "repr": "OVC033",
      "type": "OVC",
      "altitude": 33,
      "modifier": null
    }
  ],
  "flight_rules": "IFR",
  "other": [],
  "visibility": {
    "repr": "10",
    "value": 10,
    "spoken": "one zero"
  },
  "wind_direction": {
    "repr": "000",
    "value": 0,
    "spoken": "zero zero zero"
  },
  "wind_gust": null,
  "wind_speed": {
    "repr": "00",
    "value": 0,
    "spoken": "zero"
  },
  "wx_codes": [],
  "raw": "KNUW 260616Z 00000KT 10SM BKN008 OVC033 06/04 A3074 RMK SLP408 T00610044",
  "sanitized": "KNUW 260616Z 00000KT 10SM BKN008 OVC033 06/04 A3074 RMK SLP408 T00610044",
  "station": "KNUW",
  "time": {
    "repr": "260616Z",
    "dt": "2023-01-26T06:16:00Z"
  },
  "remarks": "RMK SLP408 T00610044",
  "dewpoint": {
    "repr": "04",
    "value": 4,
    "spoken": "four"
  },
  "relative_humidity": 0.8885072425154702,
  "remarks_info": {
    "maximum_temperature_6": null,
    "minimum_temperature_6": null,
    "pressure_tendency": null,
    "precip_36_hours": null,
    "precip_24_hours": null,
    "sunshine_minutes": null,
    "codes": [],
    "dewpoint_decimal": {
      "repr": "0044",
      "value": 4.4,
      "spoken": "four point four"
    },
    "maximum_temperature_24": null,
    "minimum_temperature_24": null,
    "precip_hourly": null,
    "sea_level_pressure": {
      "repr": "SLP408",
      "value": 1040.8,
      "spoken": "one zero four zero point eight"
    },
    "snow_depth": null,
    "temperature_decimal": {
      "repr": "0061",
      "value": 6.1,
      "spoken": "six point one"
    }
  },
  "runway_visibility": [],
  "temperature": {
    "repr": "06",
    "value": 6,
    "spoken": "six"
  },
  "wind_variable_direction": [],
  "density_altitude": -1830,
  "pressure_altitude": -773,
  "units": {
    "accumulation": "in",
    "altimeter": "inHg",
    "altitude": "ft",
    "temperature": "C",
    "visibility": "sm",
    "wind_speed": "kt"
  }
}
