{
  "altimeter": {
    "repr": "A2975",
    "spoken": "two nine point seven five",
    "value": 29.75
  },
  "clouds": [
    {
      "altitude": 9,
      "modifier": null,
      "repr": "BKN009",
      "type": "BKN"
    },
    {
      "altitude": 18,
      "modifier": null,
      "repr": "BKN018",
      "type": "BKN"
    },
    {
      "altitude": 27,
      "modifier": null,
      "repr": "OVC027",
      "type": "OVC"
    }
  ],
  "density_altitude": -444,
  "dewpoint": {
    "repr": "09",
    "spoken": "nine",
    "value": 9
  },
  "flight_rules": "IFR",
  "meta": {
    "stations_updated": "2024-12-02",
    "timestamp": "2024-12-18T13:35:07.791634Z"
  },
  "other": [],
  "pressure_altitude": 217,
  "raw": "KNUW 181309Z 26035G51KT 4SM RA BR BKN009 BKN018 OVC027 09/09 A2975 RMK AO2 PK WND 26053/1254 PRESRR P0009 T00940089 $",
  "relative_humidity": 0.9668587106156139,
  "remarks": "RMK AO2 PK WND 26053/1254 PRESRR P0009 T00940089 $",
  "remarks_info": {
    "codes": [
      {
        "repr": "$",
        "value": "ASOS requires maintenance"
      },
      {
        "repr": "AO2",
        "value": "Automated with precipitation sensor"
      },
      {
        "repr": "PRESRR",
        "value": "Pressure Rising Rapidly"
      }
    ],
    "dewpoint_decimal": {
      "repr": "0089",
      "spoken": "eight point nine",
      "value": 8.9
    },
    "maximum_temperature_24": null,
    "maximum_temperature_6": null,
    "minimum_temperature_24": null,
    "minimum_temperature_6": null,
    "precip_24_hours": null,
    "precip_36_hours": null,
    "precip_hourly": {
      "repr": "P0009",
      "spoken": "zero point zero nine",
      "value": 0.09
    },
    "pressure_tendency": null,
    "sea_level_pressure": null,
    "snow_depth": null,
    "sunshine_minutes": null,
    "temperature_decimal": {
      "repr": "0094",
      "spoken": "nine point four",
      "value": 9.4
    }
  },
  "runway_visibility": [],
  "sanitized": "KNUW 181309Z 26035G51KT 4SM RA BR BKN009 BKN018 OVC027 09/09 A2975 RMK AO2 PK WND 26053/1254 PRESRR P0009 T00940089 $",
  "station": "KNUW",
  "temperature": {
    "repr": "09",
    "spoken": "nine",
    "value": 9
  },
  "time": {
    "dt": "2024-12-18T13:09:00Z",
    "repr": "181309Z"
  },
  "units": {
    "accumulation": "in",
    "altimeter": "inHg",
    "altitude": "ft",
    "temperature": "C",
    "visibility": "sm",
    "wind_speed": "kt"
  },
  "visibility": {
    "repr": "4",
    "spoken": "four",
    "value": 4
  },
  "wind_direction": {
    "repr": "260",
    "spoken": "two six zero",
    "value": 260
  },
  "wind_gust": {
    "repr": "51",
    "spoken": "five one",
    "value": 51
  },
  "wind_speed": {
    "repr": "35",
    "spoken": "three five",
    "value": 35
  },
  "wind_variable_direction": [],
  "wx_codes": [
    {
      "repr": "RA",
      "value": "Rain"
    },
    {
      "repr": "BR",
      "value": "Mist"
    }
  ]
}
