{
  "altimeter": {
    "repr": "A3003",
    "spoken": "three zero point zero three",
    "value": 30.03
  },
  "clouds": [
    {
      "altitude": 3,
      "modifier": null,
      "repr": "SCT003",
      "type": "SCT"
    },
    {
      "altitude": 26,
      "modifier": null,
      "repr": "BKN026",
      "type": "BKN"
    },
    {
      "altitude": 33,
      "modifier": null,
      "repr": "BKN033",
      "type": "BKN"
    }
  ],
  "density_altitude": -1924,
  "dewpoint": {
    "repr": "M02",
    "spoken": "minus two",
    "value": -2
  },
  "flight_rules": "MVFR",
  "meta": {
    "cache-timestamp": "2024-01-07T16:28:03.203000Z",
    "stations_updated": "2023-10-28",
    "timestamp": "2024-01-07T16:29:02.183125Z"
  },
  "other": [],
  "pressure_altitude": -63,
  "raw": "KNUW 071553Z 12004KT 7SM BCFG SCT003 BKN026 BKN033 M01/M02 A3003 RMK AO2 SLP174 VIS NE 3/4 T10061017 $",
  "relative_humidity": 0.9225781625278401,
  "remarks": "RMK AO2 SLP174 VIS NE 3/4 T10061017 $",
  "remarks_info": {
    "codes": [
      {
        "repr": "$",
        "value": "ASOS requires maintenance"
      },
      {
        "repr": "AO2",
        "value": "Automated with precipitation sensor"
      }
    ],
    "dewpoint_decimal": {
      "repr": "1017",
      "spoken": "minus one point seven",
      "value": -1.7
    },
    "maximum_temperature_24": null,
    "maximum_temperature_6": null,
    "minimum_temperature_24": null,
    "minimum_temperature_6": null,
    "precip_24_hours": null,
    "precip_36_hours": null,
    "precip_hourly": null,
    "pressure_tendency": null,
    "sea_level_pressure": {
      "repr": "SLP174",
      "spoken": "one zero one seven point four",
      "value": 1017.4
    },
    "snow_depth": null,
    "sunshine_minutes": null,
    "temperature_decimal": {
      "repr": "1006",
      "spoken": "minus zero point six",
      "value": -0.6
    }
  },
  "runway_visibility": [],
  "sanitized": "KNUW 071553Z 12004KT 7SM BCFG SCT003 BKN026 BKN033 M01/M02 A3003 RMK AO2 SLP174 VIS NE 3/4 T10061017 $",
  "station": "KNUW",
  "temperature": {
    "repr": "M01",
    "spoken": "minus one",
    "value": -1
  },
  "time": {
    "dt": "2024-01-07T15:53:00Z",
    "repr": "071553Z"
  },
  "units": {
    "accumulation": "in",
    "altimeter": "inHg",
    "altitude": "ft",
    "temperature": "C",
    "visibility": "sm",
    "wind_speed": "kt"
  },
  "visibility": {
    "repr": "7",
    "spoken": "seven",
    "value": 7
  },
  "wind_direction": {
    "repr": "120",
    "spoken": "one two zero",
    "value": 120
  },
  "wind_gust": null,
  "wind_speed": {
    "repr": "04",
    "spoken": "four",
    "value": 4
  },
  "wind_variable_direction": [],
  "wx_codes": [
    {
      "repr": "BCFG",
      "value": "Patchy Fog"
    }
  ]
}
