{
  "meta": {
    "timestamp": "2023-10-25T08:07:27.591227Z",
    "stations_updated": "2023-10-01"
  },
  "altimeter": {
    "repr": "A2967",
    "value": 29.67,
    "spoken": "two nine point six seven"
  },
  "clouds": [
    {
      "repr": "SCT018",
      "type": "SCT",
      "altitude": 18,
      "modifier": null
    },
    {
      "repr": "BKN025",
      "type": "BKN",
      "altitude": 25,
      "modifier": null
    },
    {
      "repr": "OVC030",
      "type": "OVC",
      "altitude": 30,
      "modifier": null
    }
  ],
  "flight_rules": "MVFR",
  "other": [],
  "visibility": {
    "repr": "7",
    "value": 7,
    "spoken": "seven"
  },
  "wind_direction": {
    "repr": "100",
    "value": 100,
    "spoken": "one zero zero"
  },
  "wind_gust": null,
  "wind_speed": {
    "repr": "05",
    "value": 5,
    "spoken": "five"
  },
  "wx_codes": [
    {
      "repr": "-RA",
      "value": "Light Rain"
    }
  ],
  "raw": "KNUW 250753Z 10005KT 7SM -RA SCT018 BKN025 OVC030 06/06 A2967 RMK AO2 SLP051 P0008 T00610056 401060061 $",
  "sanitized": "KNUW 250753Z 10005KT 7SM -RA SCT018 BKN025 OVC030 06/06 A2967 RMK AO2 SLP051 P0008 T00610056 401060061 $",
  "station": "KNUW",
  "time": {
    "repr": "250753Z",
    "dt": "2023-10-25T07:53:00Z"
  },
  "remarks": "RMK AO2 SLP051 P0008 T00610056 401060061 $",
  "dewpoint": {
    "repr": "06",
    "value": 6,
    "spoken": "six"
  },
  "relative_humidity": 0.9659908804883092,
  "remarks_info": {
    "maximum_temperature_6": null,
    "minimum_temperature_6": null,
    "pressure_tendency": null,
    "precip_36_hours": null,
    "precip_24_hours": null,
    "sunshine_minutes": null,
    "codes": [
      {
        "repr": "$",
        "value": "ASOS requires maintenance"
      },
      {
        "repr": "AO2",
        "value": "Automated with precipitation sensor"
      }
    ],
    "dewpoint_decimal": {
      "repr": "0056",
      "value": 5.6,
      "spoken": "five point six"
    },
    "maximum_temperature_24": {
      "repr": "0106",
      "value": 10.6,
      "spoken": "one zero point six"
    },
    "minimum_temperature_24": {
      "repr": "0061",
      "value": 6.1,
      "spoken": "six point one"
    },
    "precip_hourly": {
      "repr": "P0008",
      "value": 0.08,
      "spoken": "zero point zero eight"
    },
    "sea_level_pressure": {
      "repr": "SLP051",
      "value": 1005.1,
      "spoken": "one zero zero five point one"
    },
    "snow_depth": null,
    "temperature_decimal": {
      "repr": "0061",
      "value": 6.1,
      "spoken": "six point one"
    }
  },
  "runway_visibility": [],
  "temperature": {
    "repr": "06",
    "value": 6,
    "spoken": "six"
  },
  "wind_variable_direction": [],
  "density_altitude": -760,
  "pressure_altitude": 297,
  "units": {
    "accumulation": "in",
    "altimeter": "inHg",
    "altitude": "ft",
    "temperature": "C",
    "visibility": "sm",
    "wind_speed": "kt"
  }
}
