{
  "altimeter": {
    "repr": "A3005",
    "spoken": "three zero point zero five",
    "value": 30.05
  },
  "clouds": [
    {
      "altitude": 200,
      "modifier": null,
      "repr": "BKN200",
      "type": "BKN"
    }
  ],
  "density_altitude": -2076,
  "dewpoint": {
    "repr": "M05",
    "spoken": "minus five",
    "value": -5
  },
  "flight_rules": "VFR",
  "meta": {
    "cache-timestamp": "2024-01-16T18:28:05.479000Z",
    "stations_updated": "2023-10-28",
    "timestamp": "2024-01-16T18:28:41.980910Z"
  },
  "other": [],
  "pressure_altitude": -83,
  "raw": "KNUW 161753Z 14005KT 10SM BKN200 M02/M05 A3005 RMK AO2 SLP180 T10171050 11017 21061 56018",
  "relative_humidity": 0.7817584431821742,
  "remarks": "RMK AO2 SLP180 T10171050 11017 21061 56018",
  "remarks_info": {
    "codes": [
      {
        "repr": "AO2",
        "value": "Automated with precipitation sensor"
      }
    ],
    "dewpoint_decimal": {
      "repr": "1050",
      "spoken": "minus five point zero",
      "value": -5
    },
    "maximum_temperature_24": null,
    "maximum_temperature_6": {
      "repr": "11017",
      "spoken": "minus one point seven",
      "value": -1.7
    },
    "minimum_temperature_24": null,
    "minimum_temperature_6": {
      "repr": "21061",
      "spoken": "minus six point one",
      "value": -6.1
    },
    "precip_24_hours": null,
    "precip_36_hours": null,
    "precip_hourly": null,
    "pressure_tendency": {
      "change": 1.8,
      "repr": "56018",
      "tendency": "Decreasing, then steady"
    },
    "sea_level_pressure": {
      "repr": "SLP180",
      "spoken": "one zero one eight point zero",
      "value": 1018
    },
    "snow_depth": null,
    "sunshine_minutes": null,
    "temperature_decimal": {
      "repr": "1017",
      "spoken": "minus one point seven",
      "value": -1.7
    }
  },
  "runway_visibility": [],
  "sanitized": "KNUW 161753Z 14005KT 10SM BKN200 M02/M05 A3005 RMK AO2 SLP180 T10171050 11017 21061 56018",
  "station": "KNUW",
  "temperature": {
    "repr": "M02",
    "spoken": "minus two",
    "value": -2
  },
  "time": {
    "dt": "2024-01-16T17:53:00Z",
    "repr": "161753Z"
  },
  "units": {
    "accumulation": "in",
    "altimeter": "inHg",
    "altitude": "ft",
    "temperature": "C",
    "visibility": "sm",
    "wind_speed": "kt"
  },
  "visibility": {
    "repr": "10",
    "spoken": "one zero",
    "value": 10
  },
  "wind_direction": {
    "repr": "140",
    "spoken": "one four zero",
    "value": 140
  },
  "wind_gust": null,
  "wind_speed": {
    "repr": "05",
    "spoken": "five",
    "value": 5
  },
  "wind_variable_direction": [],
  "wx_codes": []
}
