{
  "meta": {
    "timestamp": "2022-09-22T08:44:31.220479Z",
    "stations_updated": "2022-09-05"
  },
  "altimeter": {
    "repr": "A2997",
    "value": 29.97,
    "spoken": "two nine point nine seven"
  },
  "clouds": [
    {
      "repr": "FEW060",
      "type": "FEW",
      "altitude": 60,
      "modifier": null
    },
    {
      "repr": "SCT160",
      "type": "SCT",
      "altitude": 160,
      "modifier": null
    },
    {
      "repr": "SCT250",
      "type": "SCT",
      "altitude": 250,
      "modifier": null
    }
  ],
  "flight_rules": "VFR",
  "other": [],
  "visibility": {
    "repr": "10",
    "value": 10,
    "spoken": "one zero"
  },
  "wind_direction": {
    "repr": "230",
    "value": 230,
    "spoken": "two three zero"
  },
  "wind_gust": null,
  "wind_speed": {
    "repr": "08",
    "value": 8,
    "spoken": "eight"
  },
  "wx_codes": [],
  "raw": "KNUW 220753Z 23008KT 10SM FEW060 SCT160 SCT250 14/08 A2997 RMK AO2 SLP147 T01440083 401940050 $",
  "sanitized": "KNUW 220753Z 23008KT 10SM FEW060 SCT160 SCT250 14/08 A2997 RMK AO2 SLP147 T01440083 401940050 $",
  "station": "KNUW",
  "time": {
    "repr": "220753Z",
    "dt": "2022-09-22T07:53:00Z"
  },
  "remarks": "RMK AO2 SLP147 T01440083 401940050 $",
  "dewpoint": {
    "repr": "08",
    "value": 8,
    "spoken": "eight"
  },
  "relative_humidity": 0.6675342296720513,
  "remarks_info": {
    "maximum_temperature_6": null,
    "minimum_temperature_6": null,
    "pressure_tendency": null,
    "precip_36_hours": null,
    "precip_24_hours": null,
    "sunshine_minutes": null,
    "codes": [
      {
        "repr": "$",
        "value": "ASOS requires maintenance"
      },
      {
        "repr": "AO2",
        "value": "Automated with precipitation sensor"
      }
    ],
    "dewpoint_decimal": {
      "repr": "0083",
      "value": 8.3,
      "spoken": "eight point three"
    },
    "maximum_temperature_24": {
      "repr": "0194",
      "value": 19.4,
      "spoken": "one nine point four"
    },
    "minimum_temperature_24": {
      "repr": "0050",
      "value": 5,
      "spoken": "five point zero"
    },
    "precip_hourly": null,
    "sea_level_pressure": {
      "repr": "SLP147",
      "value": 1014.7,
      "spoken": "one zero one four point seven"
    },
    "snow_depth": null,
    "temperature_decimal": {
      "repr": "0144",
      "value": 14.4,
      "spoken": "one four point four"
    }
  },
  "runway_visibility": [],
  "temperature": {
    "repr": "14",
    "value": 14,
    "spoken": "one four"
  },
  "wind_variable_direction": [],
  "density_altitude": -64,
  "pressure_altitude": -3,
  "units": {
    "accumulation": "in",
    "altimeter": "inHg",
    "altitude": "ft",
    "temperature": "C",
    "visibility": "sm",
    "wind_speed": "kt"
  }
}
