{
  "altimeter": {
    "repr": "A3019",
    "spoken": "three zero point one nine",
    "value": 30.19
  },
  "clouds": [
    {
      "altitude": 45,
      "modifier": null,
      "repr": "FEW045",
      "type": "FEW"
    },
    {
      "altitude": 60,
      "modifier": null,
      "repr": "SCT060",
      "type": "SCT"
    }
  ],
  "density_altitude": -476,
  "dewpoint": {
    "repr": "11",
    "spoken": "one one",
    "value": 11
  },
  "flight_rules": "VFR",
  "meta": {
    "stations_updated": "2024-06-12",
    "timestamp": "2024-07-23T08:42:52.070367Z"
  },
  "other": [],
  "pressure_altitude": -223,
  "raw": "KNUW 230753Z 25013KT 10SM FEW045 SCT060 13/11 A3019 RMK SLP227 T01280106 401890128",
  "relative_humidity": 0.8647225145629146,
  "remarks": "RMK SLP227 T01280106 401890128",
  "remarks_info": {
    "codes": [],
    "dewpoint_decimal": {
      "repr": "0106",
      "spoken": "one zero point six",
      "value": 10.6
    },
    "maximum_temperature_24": {
      "repr": "0189",
      "spoken": "one eight point nine",
      "value": 18.9
    },
    "maximum_temperature_6": null,
    "minimum_temperature_24": {
      "repr": "0128",
      "spoken": "one two point eight",
      "value": 12.8
    },
    "minimum_temperature_6": null,
    "precip_24_hours": null,
    "precip_36_hours": null,
    "precip_hourly": null,
    "pressure_tendency": null,
    "sea_level_pressure": {
      "repr": "SLP227",
      "spoken": "one zero two two point seven",
      "value": 1022.7
    },
    "snow_depth": null,
    "sunshine_minutes": null,
    "temperature_decimal": {
      "repr": "0128",
      "spoken": "one two point eight",
      "value": 12.8
    }
  },
  "runway_visibility": [],
  "sanitized": "KNUW 230753Z 25013KT 10SM FEW045 SCT060 13/11 A3019 RMK SLP227 T01280106 401890128",
  "station": "KNUW",
  "temperature": {
    "repr": "13",
    "spoken": "one three",
    "value": 13
  },
  "time": {
    "dt": "2024-07-23T07:53:00Z",
    "repr": "230753Z"
  },
  "units": {
    "accumulation": "in",
    "altimeter": "inHg",
    "altitude": "ft",
    "temperature": "C",
    "visibility": "sm",
    "wind_speed": "kt"
  },
  "visibility": {
    "repr": "10",
    "spoken": "one zero",
    "value": 10
  },
  "wind_direction": {
    "repr": "250",
    "spoken": "two five zero",
    "value": 250
  },
  "wind_gust": null,
  "wind_speed": {
    "repr": "13",
    "spoken": "one three",
    "value": 13
  },
  "wind_variable_direction": [],
  "wx_codes": []
}
