{
  "altimeter": {
    "repr": "A3006",
    "spoken": "three zero point zero six",
    "value": 30.06
  },
  "clouds": [
    {
      "altitude": 35,
      "modifier": null,
      "repr": "SCT035",
      "type": "SCT"
    },
    {
      "altitude": 65,
      "modifier": null,
      "repr": "SCT065",
      "type": "SCT"
    },
    {
      "altitude": 120,
      "modifier": null,
      "repr": "BKN120",
      "type": "BKN"
    },
    {
      "altitude": 200,
      "modifier": null,
      "repr": "BKN200",
      "type": "BKN"
    }
  ],
  "density_altitude": -478,
  "dewpoint": {
    "repr": "08",
    "spoken": "eight",
    "value": 8
  },
  "flight_rules": "VFR",
  "meta": {
    "stations_updated": "2024-05-13",
    "timestamp": "2024-06-16T22:03:43.623494Z"
  },
  "other": [],
  "pressure_altitude": -93,
  "raw": "KNUW 162053Z 27006KT 10SM SCT035 SCT065 BKN120 BKN200 12/08 A3006 RMK SLP181 T01170083 58009",
  "relative_humidity": 0.7963986181242221,
  "remarks": "RMK SLP181 T01170083 58009",
  "remarks_info": {
    "codes": [],
    "dewpoint_decimal": {
      "repr": "0083",
      "spoken": "eight point three",
      "value": 8.3
    },
    "maximum_temperature_24": null,
    "maximum_temperature_6": null,
    "minimum_temperature_24": null,
    "minimum_temperature_6": null,
    "precip_24_hours": null,
    "precip_36_hours": null,
    "precip_hourly": null,
    "pressure_tendency": {
      "change": 0.9,
      "repr": "58009",
      "tendency": "Steady or increasing, then decreasing"
    },
    "sea_level_pressure": {
      "repr": "SLP181",
      "spoken": "one zero one eight point one",
      "value": 1018.1
    },
    "snow_depth": null,
    "sunshine_minutes": null,
    "temperature_decimal": {
      "repr": "0117",
      "spoken": "one one point seven",
      "value": 11.7
    }
  },
  "runway_visibility": [],
  "sanitized": "KNUW 162053Z 27006KT 10SM SCT035 SCT065 BKN120 BKN200 12/08 A3006 RMK SLP181 T01170083 58009",
  "station": "KNUW",
  "temperature": {
    "repr": "12",
    "spoken": "one two",
    "value": 12
  },
  "time": {
    "dt": "2024-06-16T20:53:00Z",
    "repr": "162053Z"
  },
  "units": {
    "accumulation": "in",
    "altimeter": "inHg",
    "altitude": "ft",
    "temperature": "C",
    "visibility": "sm",
    "wind_speed": "kt"
  },
  "visibility": {
    "repr": "10",
    "spoken": "one zero",
    "value": 10
  },
  "wind_direction": {
    "repr": "270",
    "spoken": "two seven zero",
    "value": 270
  },
  "wind_gust": null,
  "wind_speed": {
    "repr": "06",
    "spoken": "six",
    "value": 6
  },
  "wind_variable_direction": [],
  "wx_codes": []
}
