{
  "meta": {
    "timestamp": "2022-09-10T12:10:07.544341Z",
    "stations_updated": "2022-07-17"
  },
  "altimeter": {
    "repr": "A2993",
    "value": 29.93,
    "spoken": "two nine point nine three"
  },
  "clouds": [
    {
      "repr": "FEW040",
      "type": "FEW",
      "altitude": 40,
      "modifier": null
    }
  ],
  "flight_rules": "VFR",
  "other": [],
  "visibility": {
    "repr": "10",
    "value": 10,
    "spoken": "one zero"
  },
  "wind_direction": {
    "repr": "000",
    "value": 0,
    "spoken": "zero zero zero"
  },
  "wind_gust": null,
  "wind_speed": {
    "repr": "00",
    "value": 0,
    "spoken": "zero"
  },
  "wx_codes": [],
  "raw": "KNUW 101153Z 00000KT 10SM FEW040 10/06 A2993 RMK AO2 SLP134 FU FEW040 T01000061 10133 20083 55004",
  "sanitized": "KNUW 101153Z 00000KT 10SM FEW040 10/06 A2993 RMK AO2 SLP134 FU FEW040 T01000061 10133 20083 55004",
  "station": "KNUW",
  "time": {
    "repr": "101153Z",
    "dt": "2022-09-10T11:53:00Z"
  },
  "remarks": "RMK AO2 SLP134 FU FEW040 T01000061 10133 20083 55004",
  "dewpoint": {
    "repr": "06",
    "value": 6,
    "spoken": "six"
  },
  "relative_humidity": 0.7670506235203972,
  "remarks_info": {
    "maximum_temperature_6": {
      "repr": "10133",
      "value": 13.3,
      "spoken": "one three point three"
    },
    "minimum_temperature_6": {
      "repr": "20083",
      "value": 8.3,
      "spoken": "eight point three"
    },
    "pressure_tendency": {
      "repr": "55004",
      "tendency": "Decreasing, then increasing",
      "change": 0.4
    },
    "precip_36_hours": null,
    "precip_24_hours": null,
    "sunshine_minutes": null,
    "codes": [
      {
        "repr": "AO2",
        "value": "Automated with precipitation sensor"
      }
    ],
    "dewpoint_decimal": {
      "repr": "0061",
      "value": 6.1,
      "spoken": "six point one"
    },
    "maximum_temperature_24": null,
    "minimum_temperature_24": null,
    "precip_hourly": null,
    "sea_level_pressure": {
      "repr": "SLP134",
      "value": 1013.4,
      "spoken": "one zero one three point four"
    },
    "snow_depth": null,
    "temperature_decimal": {
      "repr": "0100",
      "value": 10,
      "spoken": "one zero point zero"
    }
  },
  "runway_visibility": [],
  "temperature": {
    "repr": "10",
    "value": 10,
    "spoken": "one zero"
  },
  "wind_variable_direction": [],
  "density_altitude": -552,
  "pressure_altitude": 37,
  "units": {
    "accumulation": "in",
    "altimeter": "inHg",
    "altitude": "ft",
    "temperature": "C",
    "visibility": "sm",
    "wind_speed": "kt"
  }
}
