{
  "meta": {
    "timestamp": "2023-04-21T18:40:40.576643Z",
    "stations_updated": "2023-03-11",
    "cache-timestamp": "2023-04-21T18:40:04.439000Z"
  },
  "altimeter": {
    "repr": "A3038",
    "value": 30.38,
    "spoken": "three zero point three eight"
  },
  "clouds": [
    {
      "repr": "SCT016",
      "type": "SCT",
      "altitude": 16,
      "modifier": null
    },
    {
      "repr": "BKN030",
      "type": "BKN",
      "altitude": 30,
      "modifier": null
    },
    {
      "repr": "BKN080",
      "type": "BKN",
      "altitude": 80,
      "modifier": null
    }
  ],
  "flight_rules": "MVFR",
  "other": [],
  "visibility": {
    "repr": "10",
    "value": 10,
    "spoken": "one zero"
  },
  "wind_direction": {
    "repr": "150",
    "value": 150,
    "spoken": "one five zero"
  },
  "wind_gust": null,
  "wind_speed": {
    "repr": "13",
    "value": 13,
    "spoken": "one three"
  },
  "wx_codes": [],
  "raw": "KNUW 211753Z 15013KT 10SM SCT016 BKN030 BKN080 10/06 A3038 RMK AO2 SLP290 T01000061 10100 20061 51011 VISNO $",
  "sanitized": "KNUW 211753Z 15013KT 10SM SCT016 BKN030 BKN080 10/06 A3038 RMK AO2 SLP290 T01000061 10100 20061 51011 VISNO $",
  "station": "KNUW",
  "time": {
    "repr": "211753Z",
    "dt": "2023-04-21T17:53:00Z"
  },
  "remarks": "RMK AO2 SLP290 T01000061 10100 20061 51011 VISNO $",
  "dewpoint": {
    "repr": "06",
    "value": 6,
    "spoken": "six"
  },
  "relative_humidity": 0.7670506235203972,
  "remarks_info": {
    "maximum_temperature_6": {
      "repr": "10100",
      "value": 10,
      "spoken": "one zero point zero"
    },
    "minimum_temperature_6": {
      "repr": "20061",
      "value": 6.1,
      "spoken": "six point one"
    },
    "pressure_tendency": {
      "repr": "51011",
      "tendency": "Increasing, then steady",
      "change": 1.1
    },
    "precip_36_hours": null,
    "precip_24_hours": null,
    "sunshine_minutes": null,
    "codes": [
      {
        "repr": "$",
        "value": "ASOS requires maintenance"
      },
      {
        "repr": "AO2",
        "value": "Automated with precipitation sensor"
      }
    ],
    "dewpoint_decimal": {
      "repr": "0061",
      "value": 6.1,
      "spoken": "six point one"
    },
    "maximum_temperature_24": null,
    "minimum_temperature_24": null,
    "precip_hourly": null,
    "sea_level_pressure": {
      "repr": "SLP290",
      "value": 1029,
      "spoken": "one zero two nine point zero"
    },
    "snow_depth": null,
    "temperature_decimal": {
      "repr": "0100",
      "value": 10,
      "spoken": "one zero point zero"
    }
  },
  "runway_visibility": [],
  "temperature": {
    "repr": "10",
    "value": 10,
    "spoken": "one zero"
  },
  "wind_variable_direction": [],
  "density_altitude": -1002,
  "pressure_altitude": -413,
  "units": {
    "accumulation": "in",
    "altimeter": "inHg",
    "altitude": "ft",
    "temperature": "C",
    "visibility": "sm",
    "wind_speed": "kt"
  }
}
