{
  "altimeter": {
    "repr": "A3033",
    "spoken": "three zero point three three",
    "value": 30.33
  },
  "clouds": [
    {
      "altitude": 180,
      "modifier": null,
      "repr": "SCT180",
      "type": "SCT"
    }
  ],
  "density_altitude": -3424,
  "dewpoint": {
    "repr": "M19",
    "spoken": "minus one nine",
    "value": -19
  },
  "flight_rules": "VFR",
  "meta": {
    "stations_updated": "2023-10-28",
    "timestamp": "2024-01-13T07:01:17.148916Z"
  },
  "other": [],
  "pressure_altitude": -363,
  "raw": "KNUW 130553Z 07007KT 10SM SCT180 M11/M19 A3033 RMK SLP274 T11061194 11083 21111 58005",
  "relative_humidity": 0.48410719181742623,
  "remarks": "RMK SLP274 T11061194 11083 21111 58005",
  "remarks_info": {
    "codes": [],
    "dewpoint_decimal": {
      "repr": "1194",
      "spoken": "minus one nine point four",
      "value": -19.4
    },
    "maximum_temperature_24": null,
    "maximum_temperature_6": {
      "repr": "11083",
      "spoken": "minus eight point three",
      "value": -8.3
    },
    "minimum_temperature_24": null,
    "minimum_temperature_6": {
      "repr": "21111",
      "spoken": "minus one one point one",
      "value": -11.1
    },
    "precip_24_hours": null,
    "precip_36_hours": null,
    "precip_hourly": null,
    "pressure_tendency": {
      "change": 0.5,
      "repr": "58005",
      "tendency": "Steady or increasing, then decreasing"
    },
    "sea_level_pressure": {
      "repr": "SLP274",
      "spoken": "one zero two seven point four",
      "value": 1027.4
    },
    "snow_depth": null,
    "sunshine_minutes": null,
    "temperature_decimal": {
      "repr": "1106",
      "spoken": "minus one zero point six",
      "value": -10.6
    }
  },
  "runway_visibility": [],
  "sanitized": "KNUW 130553Z 07007KT 10SM SCT180 M11/M19 A3033 RMK SLP274 T11061194 11083 21111 58005",
  "station": "KNUW",
  "temperature": {
    "repr": "M11",
    "spoken": "minus one one",
    "value": -11
  },
  "time": {
    "dt": "2024-01-13T05:53:00Z",
    "repr": "130553Z"
  },
  "units": {
    "accumulation": "in",
    "altimeter": "inHg",
    "altitude": "ft",
    "temperature": "C",
    "visibility": "sm",
    "wind_speed": "kt"
  },
  "visibility": {
    "repr": "10",
    "spoken": "one zero",
    "value": 10
  },
  "wind_direction": {
    "repr": "070",
    "spoken": "zero seven zero",
    "value": 70
  },
  "wind_gust": null,
  "wind_speed": {
    "repr": "07",
    "spoken": "seven",
    "value": 7
  },
  "wind_variable_direction": [],
  "wx_codes": []
}
