{
  "altimeter": {
    "repr": "A2965",
    "spoken": "two nine point six five",
    "value": 29.65
  },
  "clouds": [
    {
      "altitude": 13,
      "modifier": null,
      "repr": "SCT013",
      "type": "SCT"
    },
    {
      "altitude": 55,
      "modifier": null,
      "repr": "OVC055",
      "type": "OVC"
    }
  ],
  "density_altitude": -344,
  "dewpoint": {
    "repr": "08",
    "spoken": "eight",
    "value": 8
  },
  "flight_rules": "VFR",
  "meta": {
    "stations_updated": "2024-10-29",
    "timestamp": "2024-11-14T08:33:49.535725Z"
  },
  "other": [],
  "pressure_altitude": 317,
  "raw": "KNUW 140753Z 14014G27KT 10SM SCT013 OVC055 09/08 A2965 RMK AO2 PK WND 15027/0748 RAB10E47 SLP043 P0001 T00940083 401330094 $",
  "relative_humidity": 0.9283717155883899,
  "remarks": "RMK AO2 PK WND 15027/0748 RAB10E47 SLP043 P0001 T00940083 401330094 $",
  "remarks_info": {
    "codes": [
      {
        "repr": "$",
        "value": "ASOS requires maintenance"
      },
      {
        "repr": "AO2",
        "value": "Automated with precipitation sensor"
      }
    ],
    "dewpoint_decimal": {
      "repr": "0083",
      "spoken": "eight point three",
      "value": 8.3
    },
    "maximum_temperature_24": {
      "repr": "0133",
      "spoken": "one three point three",
      "value": 13.3
    },
    "maximum_temperature_6": null,
    "minimum_temperature_24": {
      "repr": "0094",
      "spoken": "nine point four",
      "value": 9.4
    },
    "minimum_temperature_6": null,
    "precip_24_hours": null,
    "precip_36_hours": null,
    "precip_hourly": {
      "repr": "P0001",
      "spoken": "zero point zero one",
      "value": 0.01
    },
    "pressure_tendency": null,
    "sea_level_pressure": {
      "repr": "SLP043",
      "spoken": "one zero zero four point three",
      "value": 1004.3
    },
    "snow_depth": null,
    "sunshine_minutes": null,
    "temperature_decimal": {
      "repr": "0094",
      "spoken": "nine point four",
      "value": 9.4
    }
  },
  "runway_visibility": [],
  "sanitized": "KNUW 140753Z 14014G27KT 10SM SCT013 OVC055 09/08 A2965 RMK AO2 PK WND 15027/0748 RAB10E47 SLP043 P0001 T00940083 401330094 $",
  "station": "KNUW",
  "temperature": {
    "repr": "09",
    "spoken": "nine",
    "value": 9
  },
  "time": {
    "dt": "2024-11-14T07:53:00Z",
    "repr": "140753Z"
  },
  "units": {
    "accumulation": "in",
    "altimeter": "inHg",
    "altitude": "ft",
    "temperature": "C",
    "visibility": "sm",
    "wind_speed": "kt"
  },
  "visibility": {
    "repr": "10",
    "spoken": "one zero",
    "value": 10
  },
  "wind_direction": {
    "repr": "140",
    "spoken": "one four zero",
    "value": 140
  },
  "wind_gust": {
    "repr": "27",
    "spoken": "two seven",
    "value": 27
  },
  "wind_speed": {
    "repr": "14",
    "spoken": "one four",
    "value": 14
  },
  "wind_variable_direction": [],
  "wx_codes": []
}
