{
  "meta": {
    "timestamp": "2022-11-08T13:04:06.490404Z",
    "stations_updated": "2022-09-05"
  },
  "altimeter": {
    "repr": "A2994",
    "value": 29.94,
    "spoken": "two nine point nine four"
  },
  "clouds": [
    {
      "repr": "SCT030",
      "type": "SCT",
      "altitude": 30,
      "modifier": null
    },
    {
      "repr": "BKN044",
      "type": "BKN",
      "altitude": 44,
      "modifier": null
    },
    {
      "repr": "OVC070",
      "type": "OVC",
      "altitude": 70,
      "modifier": null
    }
  ],
  "flight_rules": "VFR",
  "other": [],
  "visibility": {
    "repr": "10",
    "value": 10,
    "spoken": "one zero"
  },
  "wind_direction": {
    "repr": "360",
    "value": 360,
    "spoken": "three six zero"
  },
  "wind_gust": null,
  "wind_speed": {
    "repr": "10",
    "value": 10,
    "spoken": "one zero"
  },
  "wx_codes": [
    {
      "repr": "-SN",
      "value": "Light Snow"
    }
  ],
  "raw": "KNUW 081253Z 36010KT 10SM -SN SCT030 BKN044 OVC070 01/M02 A2994 RMK SNB49 SLP137 P0000 T00111022",
  "sanitized": "KNUW 081253Z 36010KT 10SM -SN SCT030 BKN044 OVC070 01/M02 A2994 RMK SNB49 SLP137 P0000 T00111022",
  "station": "KNUW",
  "time": {
    "repr": "081253Z",
    "dt": "2022-11-08T12:53:00Z"
  },
  "remarks": "RMK SNB49 SLP137 P0000 T00111022",
  "dewpoint": {
    "repr": "M02",
    "value": -2,
    "spoken": "minus two"
  },
  "relative_humidity": 0.7861821315000787,
  "remarks_info": {
    "maximum_temperature_6": null,
    "minimum_temperature_6": null,
    "pressure_tendency": null,
    "precip_36_hours": null,
    "precip_24_hours": null,
    "sunshine_minutes": null,
    "codes": [
      {
        "repr": "P0000",
        "value": "Trace amount of rain in the last hour"
      },
      {
        "repr": "SNB49",
        "value": "Snow began at :49"
      }
    ],
    "dewpoint_decimal": {
      "repr": "1022",
      "value": -2.2,
      "spoken": "minus two point two"
    },
    "maximum_temperature_24": null,
    "minimum_temperature_24": null,
    "precip_hourly": null,
    "sea_level_pressure": {
      "repr": "SLP137",
      "value": 1013.7,
      "spoken": "one zero one three point seven"
    },
    "snow_depth": null,
    "temperature_decimal": {
      "repr": "0011",
      "value": 1.1,
      "spoken": "one point one"
    }
  },
  "runway_visibility": [],
  "temperature": {
    "repr": "01",
    "value": 1,
    "spoken": "one"
  },
  "wind_variable_direction": [],
  "density_altitude": -1630,
  "pressure_altitude": 27,
  "units": {
    "accumulation": "in",
    "altimeter": "inHg",
    "altitude": "ft",
    "temperature": "C",
    "visibility": "sm",
    "wind_speed": "kt"
  }
}
