{
  "meta": {
    "timestamp": "2023-10-06T00:25:13.623290Z",
    "stations_updated": "2023-10-01"
  },
  "altimeter": {
    "repr": "A3033",
    "value": 30.33,
    "spoken": "three zero point three three"
  },
  "clouds": [
    {
      "repr": "SCT250",
      "type": "SCT",
      "altitude": 250,
      "modifier": null
    }
  ],
  "flight_rules": "VFR",
  "other": [],
  "visibility": {
    "repr": "10",
    "value": 10,
    "spoken": "one zero"
  },
  "wind_direction": {
    "repr": "340",
    "value": 340,
    "spoken": "three four zero"
  },
  "wind_gust": null,
  "wind_speed": {
    "repr": "10",
    "value": 10,
    "spoken": "one zero"
  },
  "wx_codes": [],
  "raw": "KNUW 052353Z 34010KT 10SM SCT250 17/12 A3033 RMK AO2 SLP273 T01720117 10183 20144 57014 $",
  "sanitized": "KNUW 052353Z 34010KT 10SM SCT250 17/12 A3033 RMK AO2 SLP273 T01720117 10183 20144 57014 $",
  "station": "KNUW",
  "time": {
    "repr": "052353Z",
    "dt": "2023-10-05T23:53:00Z"
  },
  "remarks": "RMK AO2 SLP273 T01720117 10183 20144 57014 $",
  "dewpoint": {
    "repr": "12",
    "value": 12,
    "spoken": "one two"
  },
  "relative_humidity": 0.7006870183412456,
  "remarks_info": {
    "maximum_temperature_6": {
      "repr": "10183",
      "value": 18.3,
      "spoken": "one eight point three"
    },
    "minimum_temperature_6": {
      "repr": "20144",
      "value": 14.4,
      "spoken": "one four point four"
    },
    "pressure_tendency": {
      "repr": "57014",
      "tendency": "Decreasing steadily or unsteadily",
      "change": 1.4
    },
    "precip_36_hours": null,
    "precip_24_hours": null,
    "sunshine_minutes": null,
    "codes": [
      {
        "repr": "$",
        "value": "ASOS requires maintenance"
      },
      {
        "repr": "AO2",
        "value": "Automated with precipitation sensor"
      }
    ],
    "dewpoint_decimal": {
      "repr": "0117",
      "value": 11.7,
      "spoken": "one one point seven"
    },
    "maximum_temperature_24": null,
    "minimum_temperature_24": null,
    "precip_hourly": null,
    "sea_level_pressure": {
      "repr": "SLP273",
      "value": 1027.3,
      "spoken": "one zero two seven point three"
    },
    "snow_depth": null,
    "temperature_decimal": {
      "repr": "0172",
      "value": 17.2,
      "spoken": "one seven point two"
    }
  },
  "runway_visibility": [],
  "temperature": {
    "repr": "17",
    "value": 17,
    "spoken": "one seven"
  },
  "wind_variable_direction": [],
  "density_altitude": -88,
  "pressure_altitude": -363,
  "units": {
    "accumulation": "in",
    "altimeter": "inHg",
    "altitude": "ft",
    "temperature": "C",
    "visibility": "sm",
    "wind_speed": "kt"
  }
}
