{
  "altimeter": {
    "repr": "A2993",
    "spoken": "two nine point nine three",
    "value": 29.93
  },
  "clouds": [
    {
      "altitude": 2,
      "modifier": null,
      "repr": "FEW002",
      "type": "FEW"
    },
    {
      "altitude": 4,
      "modifier": null,
      "repr": "SCT004",
      "type": "SCT"
    },
    {
      "altitude": 20,
      "modifier": null,
      "repr": "BKN020",
      "type": "BKN"
    },
    {
      "altitude": 130,
      "modifier": null,
      "repr": "BKN130",
      "type": "BKN"
    }
  ],
  "density_altitude": -756,
  "dewpoint": {
    "repr": "08",
    "spoken": "eight",
    "value": 8
  },
  "flight_rules": "MVFR",
  "meta": {
    "cache-timestamp": "2023-12-20T23:40:03.990000Z",
    "stations_updated": "2023-10-28",
    "timestamp": "2023-12-20T23:40:28.609617Z"
  },
  "other": [],
  "pressure_altitude": 37,
  "raw": "KNUW 202253Z 13005KT 5SM BR FEW002 SCT004 BKN020 BKN130 08/08 A2993 RMK AO2 SLP138 VIS SE 1/2 T00830078 $",
  "relative_humidity": 0.9665731399975396,
  "remarks": "RMK AO2 SLP138 VIS SE 1/2 T00830078 $",
  "remarks_info": {
    "codes": [
      {
        "repr": "$",
        "value": "ASOS requires maintenance"
      },
      {
        "repr": "AO2",
        "value": "Automated with precipitation sensor"
      }
    ],
    "dewpoint_decimal": {
      "repr": "0078",
      "spoken": "seven point eight",
      "value": 7.8
    },
    "maximum_temperature_24": null,
    "maximum_temperature_6": null,
    "minimum_temperature_24": null,
    "minimum_temperature_6": null,
    "precip_24_hours": null,
    "precip_36_hours": null,
    "precip_hourly": null,
    "pressure_tendency": null,
    "sea_level_pressure": {
      "repr": "SLP138",
      "spoken": "one zero one three point eight",
      "value": 1013.8
    },
    "snow_depth": null,
    "sunshine_minutes": null,
    "temperature_decimal": {
      "repr": "0083",
      "spoken": "eight point three",
      "value": 8.3
    }
  },
  "runway_visibility": [],
  "sanitized": "KNUW 202253Z 13005KT 5SM BR FEW002 SCT004 BKN020 BKN130 08/08 A2993 RMK AO2 SLP138 VIS SE 1/2 T00830078 $",
  "station": "KNUW",
  "temperature": {
    "repr": "08",
    "spoken": "eight",
    "value": 8
  },
  "time": {
    "dt": "2023-12-20T22:53:00Z",
    "repr": "202253Z"
  },
  "units": {
    "accumulation": "in",
    "altimeter": "inHg",
    "altitude": "ft",
    "temperature": "C",
    "visibility": "sm",
    "wind_speed": "kt"
  },
  "visibility": {
    "repr": "5",
    "spoken": "five",
    "value": 5
  },
  "wind_direction": {
    "repr": "130",
    "spoken": "one three zero",
    "value": 130
  },
  "wind_gust": null,
  "wind_speed": {
    "repr": "05",
    "spoken": "five",
    "value": 5
  },
  "wind_variable_direction": [],
  "wx_codes": [
    {
      "repr": "BR",
      "value": "Mist"
    }
  ]
}
