{
  "meta": {
    "timestamp": "2023-07-02T23:24:41.060379Z",
    "stations_updated": "2023-06-06",
    "cache-timestamp": "2023-07-02T23:24:03.471000Z"
  },
  "altimeter": {
    "repr": "A3011",
    "value": 30.11,
    "spoken": "three zero point one one"
  },
  "clouds": [
    {
      "repr": "FEW033",
      "type": "FEW",
      "altitude": 33,
      "modifier": null
    }
  ],
  "flight_rules": "VFR",
  "other": [],
  "visibility": {
    "repr": "10",
    "value": 10,
    "spoken": "one zero"
  },
  "wind_direction": {
    "repr": "260",
    "value": 260,
    "spoken": "two six zero"
  },
  "wind_gust": null,
  "wind_speed": {
    "repr": "07",
    "value": 7,
    "spoken": "seven"
  },
  "wx_codes": [],
  "raw": "KNUW 022253Z 26007KT 10SM FEW033 19/09 A3011 RMK AO2 SLP200 T01890089 VISNO $",
  "sanitized": "KNUW 022253Z 26007KT 10SM FEW033 19/09 A3011 RMK AO2 SLP200 T01890089 VISNO $",
  "station": "KNUW",
  "time": {
    "repr": "022253Z",
    "dt": "2023-07-02T22:53:00Z"
  },
  "remarks": "RMK AO2 SLP200 T01890089 VISNO $",
  "dewpoint": {
    "repr": "09",
    "value": 9,
    "spoken": "nine"
  },
  "relative_humidity": 0.5222262663469427,
  "remarks_info": {
    "maximum_temperature_6": null,
    "minimum_temperature_6": null,
    "pressure_tendency": null,
    "precip_36_hours": null,
    "precip_24_hours": null,
    "sunshine_minutes": null,
    "codes": [
      {
        "repr": "$",
        "value": "ASOS requires maintenance"
      },
      {
        "repr": "AO2",
        "value": "Automated with precipitation sensor"
      }
    ],
    "dewpoint_decimal": {
      "repr": "0089",
      "value": 8.9,
      "spoken": "eight point nine"
    },
    "maximum_temperature_24": null,
    "minimum_temperature_24": null,
    "precip_hourly": null,
    "sea_level_pressure": {
      "repr": "SLP200",
      "value": 1020,
      "spoken": "one zero two zero point zero"
    },
    "snow_depth": null,
    "temperature_decimal": {
      "repr": "0189",
      "value": 18.9,
      "spoken": "one eight point nine"
    }
  },
  "runway_visibility": [],
  "temperature": {
    "repr": "19",
    "value": 19,
    "spoken": "one nine"
  },
  "wind_variable_direction": [],
  "density_altitude": 336,
  "pressure_altitude": -143,
  "units": {
    "accumulation": "in",
    "altimeter": "inHg",
    "altitude": "ft",
    "temperature": "C",
    "visibility": "sm",
    "wind_speed": "kt"
  }
}
