{
  "meta": {
    "timestamp": "2023-08-01T17:24:30.157925Z",
    "stations_updated": "2023-06-06",
    "cache-timestamp": "2023-08-01T17:24:03.668000Z"
  },
  "altimeter": {
    "repr": "A3014",
    "value": 30.14,
    "spoken": "three zero point one four"
  },
  "clouds": [
    {
      "repr": "SCT004",
      "type": "SCT",
      "altitude": 4,
      "modifier": null
    },
    {
      "repr": "BKN010",
      "type": "BKN",
      "altitude": 10,
      "modifier": null
    },
    {
      "repr": "BKN025",
      "type": "BKN",
      "altitude": 25,
      "modifier": null
    }
  ],
  "flight_rules": "IFR",
  "other": [],
  "visibility": {
    "repr": "1",
    "value": 1,
    "spoken": "one"
  },
  "wind_direction": {
    "repr": "260",
    "value": 260,
    "spoken": "two six zero"
  },
  "wind_gust": null,
  "wind_speed": {
    "repr": "05",
    "value": 5,
    "spoken": "five"
  },
  "wx_codes": [
    {
      "repr": "BR",
      "value": "Mist"
    }
  ],
  "raw": "KNUW 011653Z 26005KT 1SM BR SCT004 BKN010 BKN025 13/12 A3014 RMK AO2 SFC VIS 4 SLP211 VIS NW-N 1/2 T01280122 VISNO",
  "sanitized": "KNUW 011653Z 26005KT 1SM BR SCT004 BKN010 BKN025 13/12 A3014 RMK AO2 SFC VIS 4 SLP211 VIS NW-N 1/2 T01280122 VISNO",
  "station": "KNUW",
  "time": {
    "repr": "011653Z",
    "dt": "2023-08-01T16:53:00Z"
  },
  "remarks": "RMK AO2 SFC VIS 4 SLP211 VIS NW-N 1/2 T01280122 VISNO",
  "dewpoint": {
    "repr": "12",
    "value": 12,
    "spoken": "one two"
  },
  "relative_humidity": 0.9613738290736719,
  "remarks_info": {
    "maximum_temperature_6": null,
    "minimum_temperature_6": null,
    "pressure_tendency": null,
    "precip_36_hours": null,
    "precip_24_hours": null,
    "sunshine_minutes": null,
    "codes": [
      {
        "repr": "AO2",
        "value": "Automated with precipitation sensor"
      }
    ],
    "dewpoint_decimal": {
      "repr": "0122",
      "value": 12.2,
      "spoken": "one two point two"
    },
    "maximum_temperature_24": null,
    "minimum_temperature_24": null,
    "precip_hourly": null,
    "sea_level_pressure": {
      "repr": "SLP211",
      "value": 1021.1,
      "spoken": "one zero two one point one"
    },
    "snow_depth": null,
    "temperature_decimal": {
      "repr": "0128",
      "value": 12.8,
      "spoken": "one two point eight"
    }
  },
  "runway_visibility": [],
  "temperature": {
    "repr": "13",
    "value": 13,
    "spoken": "one three"
  },
  "wind_variable_direction": [],
  "density_altitude": -426,
  "pressure_altitude": -173,
  "units": {
    "accumulation": "in",
    "altimeter": "inHg",
    "altitude": "ft",
    "temperature": "C",
    "visibility": "sm",
    "wind_speed": "kt"
  }
}
