{
  "meta": {
    "timestamp": "2023-03-26T20:24:20.110000Z",
    "stations_updated": "2023-03-11",
    "cache-timestamp": "2023-03-26T20:24:06.236000Z"
  },
  "altimeter": {
    "repr": "A3030",
    "value": 30.3,
    "spoken": "three zero point three zero"
  },
  "clouds": [
    {
      "repr": "SCT033",
      "type": "SCT",
      "altitude": 33,
      "modifier": null
    },
    {
      "repr": "SCT055",
      "type": "SCT",
      "altitude": 55,
      "modifier": null
    },
    {
      "repr": "BKN220",
      "type": "BKN",
      "altitude": 220,
      "modifier": null
    }
  ],
  "flight_rules": "VFR",
  "other": [],
  "visibility": {
    "repr": "10",
    "value": 10,
    "spoken": "one zero"
  },
  "wind_direction": {
    "repr": "160",
    "value": 160,
    "spoken": "one six zero"
  },
  "wind_gust": null,
  "wind_speed": {
    "repr": "11",
    "value": 11,
    "spoken": "one one"
  },
  "wx_codes": [],
  "raw": "KNUW 261953Z 16011KT 10SM SCT033 SCT055 BKN220 09/02 A3030 RMK AO2 SLP265 T00940022 VISNO $",
  "sanitized": "KNUW 261953Z 16011KT 10SM SCT033 SCT055 BKN220 09/02 A3030 RMK AO2 SLP265 T00940022 VISNO $",
  "station": "KNUW",
  "time": {
    "repr": "261953Z",
    "dt": "2023-03-26T19:53:00Z"
  },
  "remarks": "RMK AO2 SLP265 T00940022 VISNO $",
  "dewpoint": {
    "repr": "02",
    "value": 2,
    "spoken": "two"
  },
  "relative_humidity": 0.6074070679633463,
  "remarks_info": {
    "maximum_temperature_6": null,
    "minimum_temperature_6": null,
    "pressure_tendency": null,
    "precip_36_hours": null,
    "precip_24_hours": null,
    "sunshine_minutes": null,
    "codes": [
      {
        "repr": "$",
        "value": "ASOS requires maintenance"
      },
      {
        "repr": "AO2",
        "value": "Automated with precipitation sensor"
      }
    ],
    "dewpoint_decimal": {
      "repr": "0022",
      "value": 2.2,
      "spoken": "two point two"
    },
    "maximum_temperature_24": null,
    "minimum_temperature_24": null,
    "precip_hourly": null,
    "sea_level_pressure": {
      "repr": "SLP265",
      "value": 1026.5,
      "spoken": "one zero two six point five"
    },
    "snow_depth": null,
    "temperature_decimal": {
      "repr": "0094",
      "value": 9.4,
      "spoken": "nine point four"
    }
  },
  "runway_visibility": [],
  "temperature": {
    "repr": "09",
    "value": 9,
    "spoken": "nine"
  },
  "wind_variable_direction": [],
  "density_altitude": -994,
  "pressure_altitude": -333,
  "units": {
    "accumulation": "in",
    "altimeter": "inHg",
    "altitude": "ft",
    "temperature": "C",
    "visibility": "sm",
    "wind_speed": "kt"
  }
}
