{
  "meta": {
    "timestamp": "2022-11-10T13:59:53.060965Z",
    "stations_updated": "2022-09-05"
  },
  "altimeter": {
    "repr": "A3040",
    "value": 30.4,
    "spoken": "three zero point four zero"
  },
  "clouds": [
    {
      "repr": "SCT044",
      "type": "SCT",
      "altitude": 44,
      "modifier": null
    },
    {
      "repr": "OVC055",
      "type": "OVC",
      "altitude": 55,
      "modifier": null
    }
  ],
  "flight_rules": "VFR",
  "other": [],
  "visibility": {
    "repr": "10",
    "value": 10,
    "spoken": "one zero"
  },
  "wind_direction": {
    "repr": "120",
    "value": 120,
    "spoken": "one two zero"
  },
  "wind_gust": null,
  "wind_speed": {
    "repr": "07",
    "value": 7,
    "spoken": "seven"
  },
  "wx_codes": [],
  "raw": "KNUW 101353Z 12007KT 10SM SCT044 OVC055 04/01 A3040 RMK AO2 SLP292 T00390006 VISNO $",
  "sanitized": "KNUW 101353Z 12007KT 10SM SCT044 OVC055 04/01 A3040 RMK AO2 SLP292 T00390006 VISNO $",
  "station": "KNUW",
  "time": {
    "repr": "101353Z",
    "dt": "2022-11-10T13:53:00Z"
  },
  "remarks": "RMK AO2 SLP292 T00390006 VISNO $",
  "dewpoint": {
    "repr": "01",
    "value": 1,
    "spoken": "one"
  },
  "relative_humidity": 0.7904792361594455,
  "remarks_info": {
    "maximum_temperature_6": null,
    "minimum_temperature_6": null,
    "pressure_tendency": null,
    "precip_36_hours": null,
    "precip_24_hours": null,
    "sunshine_minutes": null,
    "codes": [
      {
        "repr": "$",
        "value": "ASOS requires maintenance"
      },
      {
        "repr": "AO2",
        "value": "Automated with precipitation sensor"
      }
    ],
    "dewpoint_decimal": {
      "repr": "0006",
      "value": 0.6,
      "spoken": "zero point six"
    },
    "maximum_temperature_24": null,
    "minimum_temperature_24": null,
    "precip_hourly": null,
    "sea_level_pressure": {
      "repr": "SLP292",
      "value": 1029.2,
      "spoken": "one zero two nine point two"
    },
    "snow_depth": null,
    "temperature_decimal": {
      "repr": "0039",
      "value": 3.9,
      "spoken": "three point nine"
    }
  },
  "runway_visibility": [],
  "temperature": {
    "repr": "04",
    "value": 4,
    "spoken": "four"
  },
  "wind_variable_direction": [],
  "density_altitude": -1754,
  "pressure_altitude": -433,
  "units": {
    "accumulation": "in",
    "altimeter": "inHg",
    "altitude": "ft",
    "temperature": "C",
    "visibility": "sm",
    "wind_speed": "kt"
  }
}
