{
  "altimeter": {
    "repr": "A3020",
    "spoken": "three zero point two zero",
    "value": 30.2
  },
  "clouds": [
    {
      "altitude": 45,
      "modifier": null,
      "repr": "FEW045",
      "type": "FEW"
    },
    {
      "altitude": 70,
      "modifier": null,
      "repr": "SCT070",
      "type": "SCT"
    },
    {
      "altitude": 160,
      "modifier": null,
      "repr": "SCT160",
      "type": "SCT"
    },
    {
      "altitude": 250,
      "modifier": null,
      "repr": "BKN250",
      "type": "BKN"
    }
  ],
  "density_altitude": -750,
  "dewpoint": {
    "repr": "08",
    "spoken": "eight",
    "value": 8
  },
  "flight_rules": "VFR",
  "meta": {
    "cache-timestamp": "2024-05-21T08:40:02.737000Z",
    "stations_updated": "2024-05-13",
    "timestamp": "2024-05-21T08:40:35.456221Z"
  },
  "other": [],
  "pressure_altitude": -233,
  "raw": "KNUW 210753Z 24013G18KT 10SM FEW045 SCT070 SCT160 BKN250 11/08 A3020 RMK SLP226 T01060078 401440089",
  "relative_humidity": 0.828062043990444,
  "remarks": "RMK SLP226 T01060078 401440089",
  "remarks_info": {
    "codes": [],
    "dewpoint_decimal": {
      "repr": "0078",
      "spoken": "seven point eight",
      "value": 7.8
    },
    "maximum_temperature_24": {
      "repr": "0144",
      "spoken": "one four point four",
      "value": 14.4
    },
    "maximum_temperature_6": null,
    "minimum_temperature_24": {
      "repr": "0089",
      "spoken": "eight point nine",
      "value": 8.9
    },
    "minimum_temperature_6": null,
    "precip_24_hours": null,
    "precip_36_hours": null,
    "precip_hourly": null,
    "pressure_tendency": null,
    "sea_level_pressure": {
      "repr": "SLP226",
      "spoken": "one zero two two point six",
      "value": 1022.6
    },
    "snow_depth": null,
    "sunshine_minutes": null,
    "temperature_decimal": {
      "repr": "0106",
      "spoken": "one zero point six",
      "value": 10.6
    }
  },
  "runway_visibility": [],
  "sanitized": "KNUW 210753Z 24013G18KT 10SM FEW045 SCT070 SCT160 BKN250 11/08 A3020 RMK SLP226 T01060078 401440089",
  "station": "KNUW",
  "temperature": {
    "repr": "11",
    "spoken": "one one",
    "value": 11
  },
  "time": {
    "dt": "2024-05-21T07:53:00Z",
    "repr": "210753Z"
  },
  "units": {
    "accumulation": "in",
    "altimeter": "inHg",
    "altitude": "ft",
    "temperature": "C",
    "visibility": "sm",
    "wind_speed": "kt"
  },
  "visibility": {
    "repr": "10",
    "spoken": "one zero",
    "value": 10
  },
  "wind_direction": {
    "repr": "240",
    "spoken": "two four zero",
    "value": 240
  },
  "wind_gust": {
    "repr": "18",
    "spoken": "one eight",
    "value": 18
  },
  "wind_speed": {
    "repr": "13",
    "spoken": "one three",
    "value": 13
  },
  "wind_variable_direction": [],
  "wx_codes": []
}
