{
  "meta": {
    "timestamp": "2022-11-14T08:09:01.561481Z",
    "stations_updated": "2022-09-05"
  },
  "altimeter": {
    "repr": "A3046",
    "value": 30.46,
    "spoken": "three zero point four six"
  },
  "clouds": [
    {
      "repr": "BKN012",
      "type": "BKN",
      "altitude": 12,
      "modifier": null
    },
    {
      "repr": "OVC017",
      "type": "OVC",
      "altitude": 17,
      "modifier": null
    }
  ],
  "flight_rules": "MVFR",
  "other": [],
  "visibility": {
    "repr": "10",
    "value": 10,
    "spoken": "one zero"
  },
  "wind_direction": {
    "repr": "020",
    "value": 20,
    "spoken": "zero two zero"
  },
  "wind_gust": null,
  "wind_speed": {
    "repr": "03",
    "value": 3,
    "spoken": "three"
  },
  "wx_codes": [],
  "raw": "KNUW 140753Z 02003KT 10SM BKN012 OVC017 06/04 A3046 RMK AO2 SLP313 T00560039 400890017 VISNO $",
  "sanitized": "KNUW 140753Z 02003KT 10SM BKN012 OVC017 06/04 A3046 RMK AO2 SLP313 T00560039 400890017 VISNO $",
  "station": "KNUW",
  "time": {
    "repr": "140753Z",
    "dt": "2022-11-14T07:53:00Z"
  },
  "remarks": "RMK AO2 SLP313 T00560039 400890017 VISNO $",
  "dewpoint": {
    "repr": "04",
    "value": 4,
    "spoken": "four"
  },
  "relative_humidity": 0.8880838201753524,
  "remarks_info": {
    "maximum_temperature_6": null,
    "minimum_temperature_6": null,
    "pressure_tendency": null,
    "precip_36_hours": null,
    "precip_24_hours": null,
    "sunshine_minutes": null,
    "codes": [
      {
        "repr": "$",
        "value": "ASOS requires maintenance"
      },
      {
        "repr": "AO2",
        "value": "Automated with precipitation sensor"
      }
    ],
    "dewpoint_decimal": {
      "repr": "0039",
      "value": 3.9,
      "spoken": "three point nine"
    },
    "maximum_temperature_24": {
      "repr": "0089",
      "value": 8.9,
      "spoken": "eight point nine"
    },
    "minimum_temperature_24": {
      "repr": "0017",
      "value": 1.7,
      "spoken": "one point seven"
    },
    "precip_hourly": null,
    "sea_level_pressure": {
      "repr": "SLP313",
      "value": 1031.3,
      "spoken": "one zero three one point three"
    },
    "snow_depth": null,
    "temperature_decimal": {
      "repr": "0056",
      "value": 5.6,
      "spoken": "five point six"
    }
  },
  "runway_visibility": [],
  "temperature": {
    "repr": "06",
    "value": 6,
    "spoken": "six"
  },
  "wind_variable_direction": [],
  "density_altitude": -1610,
  "pressure_altitude": -493,
  "units": {
    "accumulation": "in",
    "altimeter": "inHg",
    "altitude": "ft",
    "temperature": "C",
    "visibility": "sm",
    "wind_speed": "kt"
  }
}
