{
  "meta": {
    "timestamp": "2023-01-15T18:40:57.474439Z",
    "stations_updated": "2022-12-27",
    "cache-timestamp": "2023-01-15T18:40:05.937000Z"
  },
  "altimeter": {
    "repr": "A2935",
    "value": 29.35,
    "spoken": "two nine point three five"
  },
  "clouds": [
    {
      "repr": "SCT040",
      "type": "SCT",
      "altitude": 40,
      "modifier": null
    },
    {
      "repr": "BKN070",
      "type": "BKN",
      "altitude": 70,
      "modifier": null
    },
    {
      "repr": "BKN150",
      "type": "BKN",
      "altitude": 150,
      "modifier": null
    }
  ],
  "flight_rules": "VFR",
  "other": [],
  "visibility": {
    "repr": "10",
    "value": 10,
    "spoken": "one zero"
  },
  "wind_direction": {
    "repr": "110",
    "value": 110,
    "spoken": "one one zero"
  },
  "wind_gust": null,
  "wind_speed": {
    "repr": "07",
    "value": 7,
    "spoken": "seven"
  },
  "wx_codes": [],
  "raw": "KNUW 151753Z 11007KT 10SM SCT040 BKN070 BKN150 08/06 A2935 RMK SLP938 T00830061 10083 20033 53009 VISNO",
  "sanitized": "KNUW 151753Z 11007KT 10SM SCT040 BKN070 BKN150 08/06 A2935 RMK SLP938 T00830061 10083 20033 53009 VISNO",
  "station": "KNUW",
  "time": {
    "repr": "151753Z",
    "dt": "2023-01-15T17:53:00Z"
  },
  "remarks": "RMK SLP938 T00830061 10083 20033 53009 VISNO",
  "dewpoint": {
    "repr": "06",
    "value": 6,
    "spoken": "six"
  },
  "relative_humidity": 0.8601818874011486,
  "remarks_info": {
    "maximum_temperature_6": {
      "repr": "10083",
      "value": 8.3,
      "spoken": "eight point three"
    },
    "minimum_temperature_6": {
      "repr": "20033",
      "value": 3.3,
      "spoken": "three point three"
    },
    "pressure_tendency": {
      "repr": "53009",
      "tendency": "Decreasing or steady, then increasing",
      "change": 0.9
    },
    "precip_36_hours": null,
    "precip_24_hours": null,
    "sunshine_minutes": null,
    "codes": [],
    "dewpoint_decimal": {
      "repr": "0061",
      "value": 6.1,
      "spoken": "six point one"
    },
    "maximum_temperature_24": null,
    "minimum_temperature_24": null,
    "precip_hourly": null,
    "sea_level_pressure": {
      "repr": "SLP938",
      "value": 993.8,
      "spoken": "nine nine three point eight"
    },
    "snow_depth": null,
    "temperature_decimal": {
      "repr": "0083",
      "value": 8.3,
      "spoken": "eight point three"
    }
  },
  "runway_visibility": [],
  "temperature": {
    "repr": "08",
    "value": 8,
    "spoken": "eight"
  },
  "wind_variable_direction": [],
  "density_altitude": -176,
  "pressure_altitude": 617,
  "units": {
    "accumulation": "in",
    "altimeter": "inHg",
    "altitude": "ft",
    "temperature": "C",
    "visibility": "sm",
    "wind_speed": "kt"
  }
}
