{
  "meta": {
    "timestamp": "2023-10-28T17:00:58.487582Z",
    "stations_updated": "2023-10-01",
    "cache-timestamp": "2023-10-28T17:00:05.524000Z"
  },
  "altimeter": {
    "repr": "A3056",
    "value": 30.56,
    "spoken": "three zero point five six"
  },
  "clouds": [],
  "flight_rules": "VFR",
  "other": [],
  "visibility": {
    "repr": "10",
    "value": 10,
    "spoken": "one zero"
  },
  "wind_direction": {
    "repr": "090",
    "value": 90,
    "spoken": "zero nine zero"
  },
  "wind_gust": null,
  "wind_speed": {
    "repr": "05",
    "value": 5,
    "spoken": "five"
  },
  "wx_codes": [],
  "raw": "KNUW 281653Z 09005KT 10SM CLR 04/M01 A3056 RMK AO2 SLP354 T00391006 $",
  "sanitized": "KNUW 281653Z 09005KT 10SM 04/M01 A3056 RMK AO2 SLP354 T00391006 $",
  "station": "KNUW",
  "time": {
    "repr": "281653Z",
    "dt": "2023-10-28T16:53:00Z"
  },
  "remarks": "RMK AO2 SLP354 T00391006 $",
  "dewpoint": {
    "repr": "M01",
    "value": -1,
    "spoken": "minus one"
  },
  "relative_humidity": 0.7245558009435169,
  "remarks_info": {
    "maximum_temperature_6": null,
    "minimum_temperature_6": null,
    "pressure_tendency": null,
    "precip_36_hours": null,
    "precip_24_hours": null,
    "sunshine_minutes": null,
    "codes": [
      {
        "repr": "$",
        "value": "ASOS requires maintenance"
      },
      {
        "repr": "AO2",
        "value": "Automated with precipitation sensor"
      }
    ],
    "dewpoint_decimal": {
      "repr": "1006",
      "value": -0.6,
      "spoken": "minus zero point six"
    },
    "maximum_temperature_24": null,
    "minimum_temperature_24": null,
    "precip_hourly": null,
    "sea_level_pressure": {
      "repr": "SLP354",
      "value": 1035.4,
      "spoken": "one zero three five point four"
    },
    "snow_depth": null,
    "temperature_decimal": {
      "repr": "0039",
      "value": 3.9,
      "spoken": "three point nine"
    }
  },
  "runway_visibility": [],
  "temperature": {
    "repr": "04",
    "value": 4,
    "spoken": "four"
  },
  "wind_variable_direction": [],
  "density_altitude": -1914,
  "pressure_altitude": -593,
  "units": {
    "accumulation": "in",
    "altimeter": "inHg",
    "altitude": "ft",
    "temperature": "C",
    "visibility": "sm",
    "wind_speed": "kt"
  }
}
