{
  "meta": {
    "timestamp": "2022-12-26T08:41:30.895294Z",
    "stations_updated": "2022-09-05"
  },
  "altimeter": {
    "repr": "A2985",
    "value": 29.85,
    "spoken": "two nine point eight five"
  },
  "clouds": [
    {
      "repr": "FEW015",
      "type": "FEW",
      "altitude": 15,
      "modifier": null
    },
    {
      "repr": "BKN110",
      "type": "BKN",
      "altitude": 110,
      "modifier": null
    }
  ],
  "flight_rules": "VFR",
  "other": [],
  "visibility": {
    "repr": "10",
    "value": 10,
    "spoken": "one zero"
  },
  "wind_direction": {
    "repr": "140",
    "value": 140,
    "spoken": "one four zero"
  },
  "wind_gust": {
    "repr": "28",
    "value": 28,
    "spoken": "two eight"
  },
  "wind_speed": {
    "repr": "20",
    "value": 20,
    "spoken": "two zero"
  },
  "wx_codes": [],
  "raw": "KNUW 260753Z AUTO 14020G28KT 10SM FEW015 BKN110 13/11 A2985 RMK AO2 PK WND 15035/0736 RAB39E44 SLP106 P0000 T01280106 401390083 VISNO $",
  "sanitized": "KNUW 260753Z 14020G28KT 10SM FEW015 BKN110 13/11 A2985 RMK AO2 PK WND 15035/0736 RAB39E44 SLP106 P0000 T01280106 401390083 VISNO $",
  "station": "KNUW",
  "time": {
    "repr": "260753Z",
    "dt": "2022-12-26T07:53:00Z"
  },
  "remarks": "RMK AO2 PK WND 15035/0736 RAB39E44 SLP106 P0000 T01280106 401390083 VISNO $",
  "dewpoint": {
    "repr": "11",
    "value": 11,
    "spoken": "one one"
  },
  "relative_humidity": 0.8647225145629146,
  "remarks_info": {
    "maximum_temperature_6": null,
    "minimum_temperature_6": null,
    "pressure_tendency": null,
    "precip_36_hours": null,
    "precip_24_hours": null,
    "sunshine_minutes": null,
    "codes": [
      {
        "repr": "$",
        "value": "ASOS requires maintenance"
      },
      {
        "repr": "AO2",
        "value": "Automated with precipitation sensor"
      },
      {
        "repr": "P0000",
        "value": "Trace amount of rain in the last hour"
      }
    ],
    "dewpoint_decimal": {
      "repr": "0106",
      "value": 10.6,
      "spoken": "one zero point six"
    },
    "maximum_temperature_24": {
      "repr": "0139",
      "value": 13.9,
      "spoken": "one three point nine"
    },
    "minimum_temperature_24": {
      "repr": "0083",
      "value": 8.3,
      "spoken": "eight point three"
    },
    "precip_hourly": null,
    "sea_level_pressure": {
      "repr": "SLP106",
      "value": 1010.6,
      "spoken": "one zero one zero point six"
    },
    "snow_depth": null,
    "temperature_decimal": {
      "repr": "0128",
      "value": 12.8,
      "spoken": "one two point eight"
    }
  },
  "runway_visibility": [],
  "temperature": {
    "repr": "13",
    "value": 13,
    "spoken": "one three"
  },
  "wind_variable_direction": [],
  "density_altitude": -136,
  "pressure_altitude": 117,
  "units": {
    "accumulation": "in",
    "altimeter": "inHg",
    "altitude": "ft",
    "temperature": "C",
    "visibility": "sm",
    "wind_speed": "kt"
  }
}
