{
  "meta": {
    "timestamp": "2023-05-14T00:29:12.687982Z",
    "stations_updated": "2023-03-11"
  },
  "altimeter": {
    "repr": "A3017",
    "value": 30.17,
    "spoken": "three zero point one seven"
  },
  "clouds": [
    {
      "repr": "FEW250",
      "type": "FEW",
      "altitude": 250,
      "modifier": null
    }
  ],
  "flight_rules": "VFR",
  "other": [],
  "visibility": {
    "repr": "10",
    "value": 10,
    "spoken": "one zero"
  },
  "wind_direction": {
    "repr": "250",
    "value": 250,
    "spoken": "two five zero"
  },
  "wind_gust": null,
  "wind_speed": {
    "repr": "08",
    "value": 8,
    "spoken": "eight"
  },
  "wx_codes": [],
  "raw": "KNUW 132353Z 25008KT 10SM FEW250 21/11 A3017 RMK AO2 SLP221 T02060106 10206 20156 58022 VISNO $",
  "sanitized": "KNUW 132353Z 25008KT 10SM FEW250 21/11 A3017 RMK AO2 SLP221 T02060106 10206 20156 58022 VISNO $",
  "station": "KNUW",
  "time": {
    "repr": "132353Z",
    "dt": "2023-05-13T23:53:00Z"
  },
  "remarks": "RMK AO2 SLP221 T02060106 10206 20156 58022 VISNO $",
  "dewpoint": {
    "repr": "11",
    "value": 11,
    "spoken": "one one"
  },
  "relative_humidity": 0.5266842074479146,
  "remarks_info": {
    "maximum_temperature_6": {
      "repr": "10206",
      "value": 20.6,
      "spoken": "two zero point six"
    },
    "minimum_temperature_6": {
      "repr": "20156",
      "value": 15.6,
      "spoken": "one five point six"
    },
    "pressure_tendency": {
      "repr": "58022",
      "tendency": "Steady or increasing, then decreasing",
      "change": 2.2
    },
    "precip_36_hours": null,
    "precip_24_hours": null,
    "sunshine_minutes": null,
    "codes": [
      {
        "repr": "$",
        "value": "ASOS requires maintenance"
      },
      {
        "repr": "AO2",
        "value": "Automated with precipitation sensor"
      }
    ],
    "dewpoint_decimal": {
      "repr": "0106",
      "value": 10.6,
      "spoken": "one zero point six"
    },
    "maximum_temperature_24": null,
    "minimum_temperature_24": null,
    "precip_hourly": null,
    "sea_level_pressure": {
      "repr": "SLP221",
      "value": 1022.1,
      "spoken": "one zero two two point one"
    },
    "snow_depth": null,
    "temperature_decimal": {
      "repr": "0206",
      "value": 20.6,
      "spoken": "two zero point six"
    }
  },
  "runway_visibility": [],
  "temperature": {
    "repr": "21",
    "value": 21,
    "spoken": "two one"
  },
  "wind_variable_direction": [],
  "density_altitude": 480,
  "pressure_altitude": -203,
  "units": {
    "accumulation": "in",
    "altimeter": "inHg",
    "altitude": "ft",
    "temperature": "C",
    "visibility": "sm",
    "wind_speed": "kt"
  }
}
