{
  "meta": {
    "timestamp": "2023-02-25T18:30:31.475155Z",
    "stations_updated": "2023-01-30"
  },
  "altimeter": {
    "repr": "A3003",
    "value": 30.03,
    "spoken": "three zero point zero three"
  },
  "clouds": [
    {
      "repr": "SCT060",
      "type": "SCT",
      "altitude": 60,
      "modifier": null
    },
    {
      "repr": "OVC100",
      "type": "OVC",
      "altitude": 100,
      "modifier": null
    }
  ],
  "flight_rules": "VFR",
  "other": [],
  "visibility": {
    "repr": "10",
    "value": 10,
    "spoken": "one zero"
  },
  "wind_direction": {
    "repr": "110",
    "value": 110,
    "spoken": "one one zero"
  },
  "wind_gust": null,
  "wind_speed": {
    "repr": "05",
    "value": 5,
    "spoken": "five"
  },
  "wx_codes": [],
  "raw": "KNUW 251653Z 11005KT 10SM SCT060 OVC100 00/M05 A3003 RMK SLP174 T00001050",
  "sanitized": "KNUW 251653Z 11005KT 10SM SCT060 OVC100 00/M05 A3003 RMK SLP174 T00001050",
  "station": "KNUW",
  "time": {
    "repr": "251653Z",
    "dt": "2023-02-25T16:53:00Z"
  },
  "remarks": "RMK SLP174 T00001050",
  "dewpoint": {
    "repr": "M05",
    "value": -5,
    "spoken": "minus five"
  },
  "relative_humidity": 0.6904303006919726,
  "remarks_info": {
    "maximum_temperature_6": null,
    "minimum_temperature_6": null,
    "pressure_tendency": null,
    "precip_36_hours": null,
    "precip_24_hours": null,
    "sunshine_minutes": null,
    "codes": [],
    "dewpoint_decimal": {
      "repr": "1050",
      "value": -5,
      "spoken": "minus five point zero"
    },
    "maximum_temperature_24": null,
    "minimum_temperature_24": null,
    "precip_hourly": null,
    "sea_level_pressure": {
      "repr": "SLP174",
      "value": 1017.4,
      "spoken": "one zero one seven point four"
    },
    "snow_depth": null,
    "temperature_decimal": {
      "repr": "0000",
      "value": 0,
      "spoken": "zero"
    }
  },
  "runway_visibility": [],
  "temperature": {
    "repr": "00",
    "value": 0,
    "spoken": "zero"
  },
  "wind_variable_direction": [],
  "density_altitude": -1852,
  "pressure_altitude": -63,
  "units": {
    "accumulation": "in",
    "altimeter": "inHg",
    "altitude": "ft",
    "temperature": "C",
    "visibility": "sm",
    "wind_speed": "kt"
  }
}
