{
  "meta": {
    "timestamp": "2022-09-07T06:35:45.322871Z",
    "stations_updated": "2022-07-17"
  },
  "altimeter": {
    "repr": "A3006",
    "value": 30.06,
    "spoken": "three zero point zero six"
  },
  "clouds": [
    {
      "repr": "FEW250",
      "type": "FEW",
      "altitude": 250,
      "modifier": null
    }
  ],
  "flight_rules": "VFR",
  "other": [],
  "visibility": {
    "repr": "10",
    "value": 10,
    "spoken": "one zero"
  },
  "wind_direction": {
    "repr": "130",
    "value": 130,
    "spoken": "one three zero"
  },
  "wind_gust": null,
  "wind_speed": {
    "repr": "04",
    "value": 4,
    "spoken": "four"
  },
  "wx_codes": [],
  "raw": "KNUW 070553Z 13004KT 10SM FEW250 12/09 A3006 RMK AO2 SLP177 T01170089 10189 20117 51008",
  "sanitized": "KNUW 070553Z 13004KT 10SM FEW250 12/09 A3006 RMK AO2 SLP177 T01170089 10189 20117 51008",
  "station": "KNUW",
  "time": {
    "repr": "070553Z",
    "dt": "2022-09-07T05:53:00Z"
  },
  "remarks": "RMK AO2 SLP177 T01170089 10189 20117 51008",
  "dewpoint": {
    "repr": "09",
    "value": 9,
    "spoken": "nine"
  },
  "relative_humidity": 0.8294144771177383,
  "remarks_info": {
    "maximum_temperature_6": {
      "repr": "10189",
      "value": 18.9,
      "spoken": "one eight point nine"
    },
    "minimum_temperature_6": {
      "repr": "20117",
      "value": 11.7,
      "spoken": "one one point seven"
    },
    "pressure_tendency": {
      "repr": "51008",
      "tendency": "Increasing, then steady",
      "change": 0.8
    },
    "precip_36_hours": null,
    "precip_24_hours": null,
    "sunshine_minutes": null,
    "codes": [
      {
        "repr": "AO2",
        "value": "Automated with precipitation sensor"
      }
    ],
    "dewpoint_decimal": {
      "repr": "0089",
      "value": 8.9,
      "spoken": "eight point nine"
    },
    "maximum_temperature_24": null,
    "minimum_temperature_24": null,
    "precip_hourly": null,
    "sea_level_pressure": {
      "repr": "SLP177",
      "value": 1017.7,
      "spoken": "one zero one seven point seven"
    },
    "snow_depth": null,
    "temperature_decimal": {
      "repr": "0117",
      "value": 11.7,
      "spoken": "one one point seven"
    }
  },
  "runway_visibility": [],
  "temperature": {
    "repr": "12",
    "value": 12,
    "spoken": "one two"
  },
  "wind_variable_direction": [],
  "density_altitude": -478,
  "pressure_altitude": -93,
  "units": {
    "accumulation": "in",
    "altimeter": "inHg",
    "altitude": "ft",
    "temperature": "C",
    "visibility": "sm",
    "wind_speed": "kt"
  }
}
