{
  "altimeter": {
    "repr": "A2957",
    "spoken": "two nine point five seven",
    "value": 29.57
  },
  "clouds": [],
  "density_altitude": -456,
  "dewpoint": {
    "repr": "05",
    "spoken": "five",
    "value": 5
  },
  "flight_rules": "VFR",
  "meta": {
    "stations_updated": "2024-12-02",
    "timestamp": "2024-12-27T08:09:58.296999Z"
  },
  "other": [],
  "pressure_altitude": 397,
  "raw": "KNUW 270753Z AUTO 11013KT 10SM CLR 08/05 A2957 RMK AO2 SLP017 T00780050 401060067 $",
  "relative_humidity": 0.824548883443889,
  "remarks": "RMK AO2 SLP017 T00780050 401060067 $",
  "remarks_info": {
    "codes": [
      {
        "repr": "$",
        "value": "ASOS requires maintenance"
      },
      {
        "repr": "AO2",
        "value": "Automated with precipitation sensor"
      }
    ],
    "dewpoint_decimal": {
      "repr": "0050",
      "spoken": "five point zero",
      "value": 5
    },
    "maximum_temperature_24": {
      "repr": "0106",
      "spoken": "one zero point six",
      "value": 10.6
    },
    "maximum_temperature_6": null,
    "minimum_temperature_24": {
      "repr": "0067",
      "spoken": "six point seven",
      "value": 6.7
    },
    "minimum_temperature_6": null,
    "precip_24_hours": null,
    "precip_36_hours": null,
    "precip_hourly": null,
    "pressure_tendency": null,
    "sea_level_pressure": {
      "repr": "SLP017",
      "spoken": "one zero zero one point seven",
      "value": 1001.7
    },
    "snow_depth": null,
    "sunshine_minutes": null,
    "temperature_decimal": {
      "repr": "0078",
      "spoken": "seven point eight",
      "value": 7.8
    }
  },
  "runway_visibility": [],
  "sanitized": "KNUW 270753Z 11013KT 10SM 08/05 A2957 RMK AO2 SLP017 T00780050 401060067 $",
  "station": "KNUW",
  "temperature": {
    "repr": "08",
    "spoken": "eight",
    "value": 8
  },
  "time": {
    "dt": "2024-12-27T07:53:00Z",
    "repr": "270753Z"
  },
  "units": {
    "accumulation": "in",
    "altimeter": "inHg",
    "altitude": "ft",
    "temperature": "C",
    "visibility": "sm",
    "wind_speed": "kt"
  },
  "visibility": {
    "repr": "10",
    "spoken": "one zero",
    "value": 10
  },
  "wind_direction": {
    "repr": "110",
    "spoken": "one one zero",
    "value": 110
  },
  "wind_gust": null,
  "wind_speed": {
    "repr": "13",
    "spoken": "one three",
    "value": 13
  },
  "wind_variable_direction": [],
  "wx_codes": []
}
