{
  "meta": {
    "timestamp": "2023-09-27T09:23:17.105492Z",
    "stations_updated": "2023-08-05"
  },
  "altimeter": {
    "repr": "A2983",
    "value": 29.83,
    "spoken": "two nine point eight three"
  },
  "clouds": [
    {
      "repr": "SCT050",
      "type": "SCT",
      "altitude": 50,
      "modifier": null
    },
    {
      "repr": "BKN110",
      "type": "BKN",
      "altitude": 110,
      "modifier": null
    },
    {
      "repr": "OVC160",
      "type": "OVC",
      "altitude": 160,
      "modifier": null
    }
  ],
  "flight_rules": "VFR",
  "other": [],
  "visibility": {
    "repr": "10",
    "value": 10,
    "spoken": "one zero"
  },
  "wind_direction": {
    "repr": "080",
    "value": 80,
    "spoken": "zero eight zero"
  },
  "wind_gust": null,
  "wind_speed": {
    "repr": "12",
    "value": 12,
    "spoken": "one two"
  },
  "wx_codes": [],
  "raw": "KNUW 270853Z 08012KT 10SM SCT050 BKN110 OVC160 13/09 A2983 RMK AO2 SLP107 T01330089 58032",
  "sanitized": "KNUW 270853Z 08012KT 10SM SCT050 BKN110 OVC160 13/09 A2983 RMK AO2 SLP107 T01330089 58032",
  "station": "KNUW",
  "time": {
    "repr": "270853Z",
    "dt": "2023-09-27T08:53:00Z"
  },
  "remarks": "RMK AO2 SLP107 T01330089 58032",
  "dewpoint": {
    "repr": "09",
    "value": 9,
    "spoken": "nine"
  },
  "relative_humidity": 0.7467077916766911,
  "remarks_info": {
    "maximum_temperature_6": null,
    "minimum_temperature_6": null,
    "pressure_tendency": {
      "repr": "58032",
      "tendency": "Steady or increasing, then decreasing",
      "change": 3.2
    },
    "precip_36_hours": null,
    "precip_24_hours": null,
    "sunshine_minutes": null,
    "codes": [
      {
        "repr": "AO2",
        "value": "Automated with precipitation sensor"
      }
    ],
    "dewpoint_decimal": {
      "repr": "0089",
      "value": 8.9,
      "spoken": "eight point nine"
    },
    "maximum_temperature_24": null,
    "minimum_temperature_24": null,
    "precip_hourly": null,
    "sea_level_pressure": {
      "repr": "SLP107",
      "value": 1010.7,
      "spoken": "one zero one zero point seven"
    },
    "snow_depth": null,
    "temperature_decimal": {
      "repr": "0133",
      "value": 13.3,
      "spoken": "one three point three"
    }
  },
  "runway_visibility": [],
  "temperature": {
    "repr": "13",
    "value": 13,
    "spoken": "one three"
  },
  "wind_variable_direction": [],
  "density_altitude": -56,
  "pressure_altitude": 137,
  "units": {
    "accumulation": "in",
    "altimeter": "inHg",
    "altitude": "ft",
    "temperature": "C",
    "visibility": "sm",
    "wind_speed": "kt"
  }
}
