{
  "meta": {
    "timestamp": "2023-02-24T11:40:33.708073Z",
    "stations_updated": "2023-01-30",
    "cache-timestamp": "2023-02-24T11:40:05.212000Z"
  },
  "altimeter": {
    "repr": "A3011",
    "value": 30.11,
    "spoken": "three zero point one one"
  },
  "clouds": [
    {
      "repr": "FEW220",
      "type": "FEW",
      "altitude": 220,
      "modifier": null
    }
  ],
  "flight_rules": "VFR",
  "other": [],
  "visibility": {
    "repr": "10",
    "value": 10,
    "spoken": "one zero"
  },
  "wind_direction": {
    "repr": "030",
    "value": 30,
    "spoken": "zero three zero"
  },
  "wind_gust": null,
  "wind_speed": {
    "repr": "05",
    "value": 5,
    "spoken": "five"
  },
  "wx_codes": [],
  "raw": "KNUW 241053Z 03005KT 10SM FEW220 M05/M12 A3011 RMK SLP201 T10501122",
  "sanitized": "KNUW 241053Z 03005KT 10SM FEW220 M05/M12 A3011 RMK SLP201 T10501122",
  "station": "KNUW",
  "time": {
    "repr": "241053Z",
    "dt": "2023-02-24T10:53:00Z"
  },
  "remarks": "RMK SLP201 T10501122",
  "dewpoint": {
    "repr": "M12",
    "value": -12,
    "spoken": "minus one two"
  },
  "relative_humidity": 0.5703128981972674,
  "remarks_info": {
    "maximum_temperature_6": null,
    "minimum_temperature_6": null,
    "pressure_tendency": null,
    "precip_36_hours": null,
    "precip_24_hours": null,
    "sunshine_minutes": null,
    "codes": [],
    "dewpoint_decimal": {
      "repr": "1122",
      "value": -12.2,
      "spoken": "minus one two point two"
    },
    "maximum_temperature_24": null,
    "minimum_temperature_24": null,
    "precip_hourly": null,
    "sea_level_pressure": {
      "repr": "SLP201",
      "value": 1020.1,
      "spoken": "one zero two zero point one"
    },
    "snow_depth": null,
    "temperature_decimal": {
      "repr": "1050",
      "value": -5,
      "spoken": "minus five point zero"
    }
  },
  "runway_visibility": [],
  "temperature": {
    "repr": "M05",
    "value": -5,
    "spoken": "minus five"
  },
  "wind_variable_direction": [],
  "density_altitude": -2532,
  "pressure_altitude": -143,
  "units": {
    "accumulation": "in",
    "altimeter": "inHg",
    "altitude": "ft",
    "temperature": "C",
    "visibility": "sm",
    "wind_speed": "kt"
  }
}
