{
  "meta": {
    "timestamp": "2023-01-30T19:40:54.100664Z",
    "stations_updated": "2023-01-16"
  },
  "altimeter": {
    "repr": "A3051",
    "value": 30.51,
    "spoken": "three zero point five one"
  },
  "clouds": [
    {
      "repr": "FEW030",
      "type": "FEW",
      "altitude": 30,
      "modifier": null
    },
    {
      "repr": "SCT220",
      "type": "SCT",
      "altitude": 220,
      "modifier": null
    }
  ],
  "flight_rules": "VFR",
  "other": [],
  "visibility": {
    "repr": "10",
    "value": 10,
    "spoken": "one zero"
  },
  "wind_direction": {
    "repr": "110",
    "value": 110,
    "spoken": "one one zero"
  },
  "wind_gust": null,
  "wind_speed": {
    "repr": "06",
    "value": 6,
    "spoken": "six"
  },
  "wx_codes": [],
  "raw": "KNUW 301853Z 11006KT 10SM FEW030 SCT220 02/M03 A3051 RMK SLP331 T100171033",
  "sanitized": "KNUW 301853Z 11006KT 10SM FEW030 SCT220 02/M03 A3051 RMK SLP331 T100171033",
  "station": "KNUW",
  "time": {
    "repr": "301853Z",
    "dt": "2023-01-30T18:53:00Z"
  },
  "remarks": "RMK SLP331 T100171033",
  "dewpoint": {
    "repr": "M03",
    "value": -3,
    "spoken": "minus three"
  },
  "relative_humidity": 0.6946362716347061,
  "remarks_info": {
    "maximum_temperature_6": null,
    "minimum_temperature_6": null,
    "pressure_tendency": null,
    "precip_36_hours": null,
    "precip_24_hours": null,
    "sunshine_minutes": null,
    "codes": [],
    "dewpoint_decimal": null,
    "maximum_temperature_24": null,
    "minimum_temperature_24": null,
    "precip_hourly": null,
    "sea_level_pressure": {
      "repr": "SLP331",
      "value": 1033.1,
      "spoken": "one zero three three point one"
    },
    "snow_depth": null,
    "temperature_decimal": null
  },
  "runway_visibility": [],
  "temperature": {
    "repr": "02",
    "value": 2,
    "spoken": "two"
  },
  "wind_variable_direction": [],
  "density_altitude": -2092,
  "pressure_altitude": -543,
  "units": {
    "accumulation": "in",
    "altimeter": "inHg",
    "altitude": "ft",
    "temperature": "C",
    "visibility": "sm",
    "wind_speed": "kt"
  }
}
