{
  "meta": {
    "timestamp": "2023-05-21T12:07:33.254447Z",
    "stations_updated": "2023-03-11"
  },
  "altimeter": {
    "repr": "A3017",
    "value": 30.17,
    "spoken": "three zero point one seven"
  },
  "clouds": [
    {
      "repr": "SCT010",
      "type": "SCT",
      "altitude": 10,
      "modifier": null
    },
    {
      "repr": "BKN012",
      "type": "BKN",
      "altitude": 12,
      "modifier": null
    },
    {
      "repr": "OVC050",
      "type": "OVC",
      "altitude": 50,
      "modifier": null
    }
  ],
  "flight_rules": "MVFR",
  "other": [],
  "visibility": {
    "repr": "10",
    "value": 10,
    "spoken": "one zero"
  },
  "wind_direction": {
    "repr": "220",
    "value": 220,
    "spoken": "two two zero"
  },
  "wind_gust": null,
  "wind_speed": {
    "repr": "12",
    "value": 12,
    "spoken": "one two"
  },
  "wx_codes": [],
  "raw": "KNUW 211153Z 22012KT 10SM SCT010 BKN012 OVC050 11/09 A3017 RMK AO2 SLP221 T01110094 10111 20106 53009 $",
  "sanitized": "KNUW 211153Z 22012KT 10SM SCT010 BKN012 OVC050 11/09 A3017 RMK AO2 SLP221 T01110094 10111 20106 53009 $",
  "station": "KNUW",
  "time": {
    "repr": "211153Z",
    "dt": "2023-05-21T11:53:00Z"
  },
  "remarks": "RMK AO2 SLP221 T01110094 10111 20106 53009 $",
  "dewpoint": {
    "repr": "09",
    "value": 9,
    "spoken": "nine"
  },
  "relative_humidity": 0.8926151927981825,
  "remarks_info": {
    "maximum_temperature_6": {
      "repr": "10111",
      "value": 11.1,
      "spoken": "one one point one"
    },
    "minimum_temperature_6": {
      "repr": "20106",
      "value": 10.6,
      "spoken": "one zero point six"
    },
    "pressure_tendency": {
      "repr": "53009",
      "tendency": "Decreasing or steady, then increasing",
      "change": 0.9
    },
    "precip_36_hours": null,
    "precip_24_hours": null,
    "sunshine_minutes": null,
    "codes": [
      {
        "repr": "$",
        "value": "ASOS requires maintenance"
      },
      {
        "repr": "AO2",
        "value": "Automated with precipitation sensor"
      }
    ],
    "dewpoint_decimal": {
      "repr": "0094",
      "value": 9.4,
      "spoken": "nine point four"
    },
    "maximum_temperature_24": null,
    "minimum_temperature_24": null,
    "precip_hourly": null,
    "sea_level_pressure": {
      "repr": "SLP221",
      "value": 1022.1,
      "spoken": "one zero two two point one"
    },
    "snow_depth": null,
    "temperature_decimal": {
      "repr": "0111",
      "value": 11.1,
      "spoken": "one one point one"
    }
  },
  "runway_visibility": [],
  "temperature": {
    "repr": "11",
    "value": 11,
    "spoken": "one one"
  },
  "wind_variable_direction": [],
  "density_altitude": -660,
  "pressure_altitude": -203,
  "units": {
    "accumulation": "in",
    "altimeter": "inHg",
    "altitude": "ft",
    "temperature": "C",
    "visibility": "sm",
    "wind_speed": "kt"
  }
}
