{
  "meta": {
    "timestamp": "2022-10-30T17:09:59.756794Z",
    "stations_updated": "2022-09-05"
  },
  "altimeter": {
    "repr": "A3008",
    "value": 30.08,
    "spoken": "three zero point zero eight"
  },
  "clouds": [
    {
      "repr": "FEW018",
      "type": "FEW",
      "altitude": 18,
      "modifier": null
    },
    {
      "repr": "SCT055",
      "type": "SCT",
      "altitude": 55,
      "modifier": null
    },
    {
      "repr": "OVC060",
      "type": "OVC",
      "altitude": 60,
      "modifier": null
    }
  ],
  "flight_rules": "VFR",
  "other": [],
  "visibility": {
    "repr": "10",
    "value": 10,
    "spoken": "one zero"
  },
  "wind_direction": {
    "repr": "150",
    "value": 150,
    "spoken": "one five zero"
  },
  "wind_gust": {
    "repr": "39",
    "value": 39,
    "spoken": "three nine"
  },
  "wind_speed": {
    "repr": "30",
    "value": 30,
    "spoken": "three zero"
  },
  "wx_codes": [
    {
      "repr": "-RA",
      "value": "Light Rain"
    }
  ],
  "raw": "KNUW 301653Z 15030G39KT 10SM -RA FEW018 SCT055 OVC060 11/08 A3008 RMK AO2 PK WND 15039/1647 SLP184 P0001 T01110083 VISNO $",
  "sanitized": "KNUW 301653Z 15030G39KT 10SM -RA FEW018 SCT055 OVC060 11/08 A3008 RMK AO2 PK WND 15039/1647 SLP184 P0001 T01110083 VISNO $",
  "station": "KNUW",
  "time": {
    "repr": "301653Z",
    "dt": "2022-10-30T16:53:00Z"
  },
  "remarks": "RMK AO2 PK WND 15039/1647 SLP184 P0001 T01110083 VISNO $",
  "dewpoint": {
    "repr": "08",
    "value": 8,
    "spoken": "eight"
  },
  "relative_humidity": 0.8286786978983101,
  "remarks_info": {
    "maximum_temperature_6": null,
    "minimum_temperature_6": null,
    "pressure_tendency": null,
    "precip_36_hours": null,
    "precip_24_hours": null,
    "sunshine_minutes": null,
    "codes": [
      {
        "repr": "$",
        "value": "ASOS requires maintenance"
      },
      {
        "repr": "AO2",
        "value": "Automated with precipitation sensor"
      }
    ],
    "dewpoint_decimal": {
      "repr": "0083",
      "value": 8.3,
      "spoken": "eight point three"
    },
    "maximum_temperature_24": null,
    "minimum_temperature_24": null,
    "precip_hourly": {
      "repr": "P0001",
      "value": 0.01,
      "spoken": "zero point zero one"
    },
    "sea_level_pressure": {
      "repr": "SLP184",
      "value": 1018.4,
      "spoken": "one zero one eight point four"
    },
    "snow_depth": null,
    "temperature_decimal": {
      "repr": "0111",
      "value": 11.1,
      "spoken": "one one point one"
    }
  },
  "runway_visibility": [],
  "temperature": {
    "repr": "11",
    "value": 11,
    "spoken": "one one"
  },
  "wind_variable_direction": [],
  "density_altitude": -570,
  "pressure_altitude": -113,
  "units": {
    "accumulation": "in",
    "altimeter": "inHg",
    "altitude": "ft",
    "temperature": "C",
    "visibility": "sm",
    "wind_speed": "kt"
  }
}
