{
  "meta": {
    "timestamp": "2023-05-24T12:43:15.909839Z",
    "stations_updated": "2023-03-11"
  },
  "altimeter": {
    "repr": "A3009",
    "value": 30.09,
    "spoken": "three zero point zero nine"
  },
  "clouds": [
    {
      "repr": "FEW040",
      "type": "FEW",
      "altitude": 40,
      "modifier": null
    },
    {
      "repr": "BKN100",
      "type": "BKN",
      "altitude": 100,
      "modifier": null
    },
    {
      "repr": "BKN200",
      "type": "BKN",
      "altitude": 200,
      "modifier": null
    }
  ],
  "flight_rules": "VFR",
  "other": [],
  "visibility": {
    "repr": "10",
    "value": 10,
    "spoken": "one zero"
  },
  "wind_direction": {
    "repr": "220",
    "value": 220,
    "spoken": "two two zero"
  },
  "wind_gust": null,
  "wind_speed": {
    "repr": "03",
    "value": 3,
    "spoken": "three"
  },
  "wx_codes": [],
  "raw": "KNUW 241153Z 22003KT 10SM FEW040 BKN100 BKN200 09/08 A3009 RMK AO2 SLP194 T00940083 10106 20094 55002 $",
  "sanitized": "KNUW 241153Z 22003KT 10SM FEW040 BKN100 BKN200 09/08 A3009 RMK AO2 SLP194 T00940083 10106 20094 55002 $",
  "station": "KNUW",
  "time": {
    "repr": "241153Z",
    "dt": "2023-05-24T11:53:00Z"
  },
  "remarks": "RMK AO2 SLP194 T00940083 10106 20094 55002 $",
  "dewpoint": {
    "repr": "08",
    "value": 8,
    "spoken": "eight"
  },
  "relative_humidity": 0.9283717155883899,
  "remarks_info": {
    "maximum_temperature_6": {
      "repr": "10106",
      "value": 10.6,
      "spoken": "one zero point six"
    },
    "minimum_temperature_6": {
      "repr": "20094",
      "value": 9.4,
      "spoken": "nine point four"
    },
    "pressure_tendency": {
      "repr": "55002",
      "tendency": "Decreasing, then increasing",
      "change": 0.2
    },
    "precip_36_hours": null,
    "precip_24_hours": null,
    "sunshine_minutes": null,
    "codes": [
      {
        "repr": "$",
        "value": "ASOS requires maintenance"
      },
      {
        "repr": "AO2",
        "value": "Automated with precipitation sensor"
      }
    ],
    "dewpoint_decimal": {
      "repr": "0083",
      "value": 8.3,
      "spoken": "eight point three"
    },
    "maximum_temperature_24": null,
    "minimum_temperature_24": null,
    "precip_hourly": null,
    "sea_level_pressure": {
      "repr": "SLP194",
      "value": 1019.4,
      "spoken": "one zero one nine point four"
    },
    "snow_depth": null,
    "temperature_decimal": {
      "repr": "0094",
      "value": 9.4,
      "spoken": "nine point four"
    }
  },
  "runway_visibility": [],
  "temperature": {
    "repr": "09",
    "value": 9,
    "spoken": "nine"
  },
  "wind_variable_direction": [],
  "density_altitude": -784,
  "pressure_altitude": -123,
  "units": {
    "accumulation": "in",
    "altimeter": "inHg",
    "altitude": "ft",
    "temperature": "C",
    "visibility": "sm",
    "wind_speed": "kt"
  }
}
