{
  "meta": {
    "timestamp": "2022-11-23T14:02:08.304082Z",
    "stations_updated": "2022-09-05"
  },
  "altimeter": {
    "repr": "A3034",
    "value": 30.34,
    "spoken": "three zero point three four"
  },
  "clouds": [
    {
      "repr": "SCT018",
      "type": "SCT",
      "altitude": 18,
      "modifier": null
    },
    {
      "repr": "BKN055",
      "type": "BKN",
      "altitude": 55,
      "modifier": null
    }
  ],
  "flight_rules": "VFR",
  "other": [],
  "visibility": {
    "repr": "10",
    "value": 10,
    "spoken": "one zero"
  },
  "wind_direction": {
    "repr": "120",
    "value": 120,
    "spoken": "one two zero"
  },
  "wind_gust": null,
  "wind_speed": {
    "repr": "07",
    "value": 7,
    "spoken": "seven"
  },
  "wx_codes": [],
  "raw": "KNUW 231353Z 12007KT 10SM SCT018 BKN055 08/06 A3034 RMK AO2 SLP273 T00780061 VISNO $",
  "sanitized": "KNUW 231353Z 12007KT 10SM SCT018 BKN055 08/06 A3034 RMK AO2 SLP273 T00780061 VISNO $",
  "station": "KNUW",
  "time": {
    "repr": "231353Z",
    "dt": "2022-11-23T13:53:00Z"
  },
  "remarks": "RMK AO2 SLP273 T00780061 VISNO $",
  "dewpoint": {
    "repr": "06",
    "value": 6,
    "spoken": "six"
  },
  "relative_humidity": 0.8899294340036578,
  "remarks_info": {
    "maximum_temperature_6": null,
    "minimum_temperature_6": null,
    "pressure_tendency": null,
    "precip_36_hours": null,
    "precip_24_hours": null,
    "sunshine_minutes": null,
    "codes": [
      {
        "repr": "$",
        "value": "ASOS requires maintenance"
      },
      {
        "repr": "AO2",
        "value": "Automated with precipitation sensor"
      }
    ],
    "dewpoint_decimal": {
      "repr": "0061",
      "value": 6.1,
      "spoken": "six point one"
    },
    "maximum_temperature_24": null,
    "minimum_temperature_24": null,
    "precip_hourly": null,
    "sea_level_pressure": {
      "repr": "SLP273",
      "value": 1027.3,
      "spoken": "one zero two seven point three"
    },
    "snow_depth": null,
    "temperature_decimal": {
      "repr": "0078",
      "value": 7.8,
      "spoken": "seven point eight"
    }
  },
  "runway_visibility": [],
  "temperature": {
    "repr": "08",
    "value": 8,
    "spoken": "eight"
  },
  "wind_variable_direction": [],
  "density_altitude": -1226,
  "pressure_altitude": -373,
  "units": {
    "accumulation": "in",
    "altimeter": "inHg",
    "altitude": "ft",
    "temperature": "C",
    "visibility": "sm",
    "wind_speed": "kt"
  }
}
