{
  "meta": {
    "timestamp": "2023-05-07T22:40:34.623484Z",
    "stations_updated": "2023-03-11",
    "cache-timestamp": "2023-05-07T22:40:04.259000Z"
  },
  "altimeter": {
    "repr": "A3005",
    "value": 30.05,
    "spoken": "three zero point zero five"
  },
  "clouds": [
    {
      "repr": "FEW035",
      "type": "FEW",
      "altitude": 35,
      "modifier": null
    },
    {
      "repr": "FEW045",
      "type": "FEW",
      "altitude": 45,
      "modifier": null
    },
    {
      "repr": "SCT180",
      "type": "SCT",
      "altitude": 180,
      "modifier": null
    },
    {
      "repr": "BKN250",
      "type": "BKN",
      "altitude": 250,
      "modifier": null
    }
  ],
  "flight_rules": "VFR",
  "other": [],
  "visibility": {
    "repr": "10",
    "value": 10,
    "spoken": "one zero"
  },
  "wind_direction": {
    "repr": "260",
    "value": 260,
    "spoken": "two six zero"
  },
  "wind_gust": null,
  "wind_speed": {
    "repr": "09",
    "value": 9,
    "spoken": "nine"
  },
  "wx_codes": [],
  "raw": "KNUW 072153Z 26009KT 10SM FEW035 FEW045 SCT180 BKN250 13/09 A3005 RMK AO2 SLP179 T01280089 VISNO",
  "sanitized": "KNUW 072153Z 26009KT 10SM FEW035 FEW045 SCT180 BKN250 13/09 A3005 RMK AO2 SLP179 T01280089 VISNO",
  "station": "KNUW",
  "time": {
    "repr": "072153Z",
    "dt": "2023-05-07T21:53:00Z"
  },
  "remarks": "RMK AO2 SLP179 T01280089 VISNO",
  "dewpoint": {
    "repr": "09",
    "value": 9,
    "spoken": "nine"
  },
  "relative_humidity": 0.7715179528891911,
  "remarks_info": {
    "maximum_temperature_6": null,
    "minimum_temperature_6": null,
    "pressure_tendency": null,
    "precip_36_hours": null,
    "precip_24_hours": null,
    "sunshine_minutes": null,
    "codes": [
      {
        "repr": "AO2",
        "value": "Automated with precipitation sensor"
      }
    ],
    "dewpoint_decimal": {
      "repr": "0089",
      "value": 8.9,
      "spoken": "eight point nine"
    },
    "maximum_temperature_24": null,
    "minimum_temperature_24": null,
    "precip_hourly": null,
    "sea_level_pressure": {
      "repr": "SLP179",
      "value": 1017.9,
      "spoken": "one zero one seven point nine"
    },
    "snow_depth": null,
    "temperature_decimal": {
      "repr": "0128",
      "value": 12.8,
      "spoken": "one two point eight"
    }
  },
  "runway_visibility": [],
  "temperature": {
    "repr": "13",
    "value": 13,
    "spoken": "one three"
  },
  "wind_variable_direction": [],
  "density_altitude": -336,
  "pressure_altitude": -83,
  "units": {
    "accumulation": "in",
    "altimeter": "inHg",
    "altitude": "ft",
    "temperature": "C",
    "visibility": "sm",
    "wind_speed": "kt"
  }
}
