{
  "altimeter": {
    "repr": "A3035",
    "spoken": "three zero point three five",
    "value": 30.35
  },
  "clouds": [
    {
      "altitude": 150,
      "modifier": null,
      "repr": "SCT150",
      "type": "SCT"
    },
    {
      "altitude": 210,
      "modifier": null,
      "repr": "SCT210",
      "type": "SCT"
    },
    {
      "altitude": 250,
      "modifier": null,
      "repr": "BKN250",
      "type": "BKN"
    }
  ],
  "density_altitude": -1572,
  "dewpoint": {
    "repr": "02",
    "spoken": "two",
    "value": 2
  },
  "flight_rules": "VFR",
  "meta": {
    "cache-timestamp": "2023-11-21T05:40:04.662000Z",
    "stations_updated": "2023-10-28",
    "timestamp": "2023-11-21T05:40:35.347677Z"
  },
  "other": [],
  "pressure_altitude": -383,
  "raw": "KNUW 210453Z 11007KT 10SM SCT150 SCT210 BKN250 05/02 A3035 RMK AO2 SLP281 T00500022 $",
  "relative_humidity": 0.820931292196258,
  "remarks": "RMK AO2 SLP281 T00500022 $",
  "remarks_info": {
    "codes": [
      {
        "repr": "$",
        "value": "ASOS requires maintenance"
      },
      {
        "repr": "AO2",
        "value": "Automated with precipitation sensor"
      }
    ],
    "dewpoint_decimal": {
      "repr": "0022",
      "spoken": "two point two",
      "value": 2.2
    },
    "maximum_temperature_24": null,
    "maximum_temperature_6": null,
    "minimum_temperature_24": null,
    "minimum_temperature_6": null,
    "precip_24_hours": null,
    "precip_36_hours": null,
    "precip_hourly": null,
    "pressure_tendency": null,
    "sea_level_pressure": {
      "repr": "SLP281",
      "spoken": "one zero two eight point one",
      "value": 1028.1
    },
    "snow_depth": null,
    "sunshine_minutes": null,
    "temperature_decimal": {
      "repr": "0050",
      "spoken": "five point zero",
      "value": 5
    }
  },
  "runway_visibility": [],
  "sanitized": "KNUW 210453Z 11007KT 10SM SCT150 SCT210 BKN250 05/02 A3035 RMK AO2 SLP281 T00500022 $",
  "station": "KNUW",
  "temperature": {
    "repr": "05",
    "spoken": "five",
    "value": 5
  },
  "time": {
    "dt": "2023-11-21T04:53:00Z",
    "repr": "210453Z"
  },
  "units": {
    "accumulation": "in",
    "altimeter": "inHg",
    "altitude": "ft",
    "temperature": "C",
    "visibility": "sm",
    "wind_speed": "kt"
  },
  "visibility": {
    "repr": "10",
    "spoken": "one zero",
    "value": 10
  },
  "wind_direction": {
    "repr": "110",
    "spoken": "one one zero",
    "value": 110
  },
  "wind_gust": null,
  "wind_speed": {
    "repr": "07",
    "spoken": "seven",
    "value": 7
  },
  "wind_variable_direction": [],
  "wx_codes": []
}
