{
  "meta": {
    "timestamp": "2022-12-11T16:04:02.327565Z",
    "stations_updated": "2022-09-05"
  },
  "altimeter": {
    "repr": "A2974",
    "value": 29.74,
    "spoken": "two nine point seven four"
  },
  "clouds": [
    {
      "repr": "FEW010",
      "type": "FEW",
      "altitude": 10,
      "modifier": null
    },
    {
      "repr": "OVC012",
      "type": "OVC",
      "altitude": 12,
      "modifier": null
    }
  ],
  "flight_rules": "MVFR",
  "other": [],
  "visibility": {
    "repr": "5",
    "value": 5,
    "spoken": "five"
  },
  "wind_direction": {
    "repr": "000",
    "value": 0,
    "spoken": "zero zero zero"
  },
  "wind_gust": null,
  "wind_speed": {
    "repr": "00",
    "value": 0,
    "spoken": "zero"
  },
  "wx_codes": [
    {
      "repr": "BR",
      "value": "Mist"
    }
  ],
  "raw": "KNUW 111553Z 00000KT 5SM BR FEW010 OVC012 06/04 A2974 RMK AO2 SLP069 T00560044 VISNO $",
  "sanitized": "KNUW 111553Z 00000KT 5SM BR FEW010 OVC012 06/04 A2974 RMK AO2 SLP069 T00560044 VISNO $",
  "station": "KNUW",
  "time": {
    "repr": "111553Z",
    "dt": "2022-12-11T15:53:00Z"
  },
  "remarks": "RMK AO2 SLP069 T00560044 VISNO $",
  "dewpoint": {
    "repr": "04",
    "value": 4,
    "spoken": "four"
  },
  "relative_humidity": 0.9197884374087767,
  "remarks_info": {
    "maximum_temperature_6": null,
    "minimum_temperature_6": null,
    "pressure_tendency": null,
    "precip_36_hours": null,
    "precip_24_hours": null,
    "sunshine_minutes": null,
    "codes": [
      {
        "repr": "$",
        "value": "ASOS requires maintenance"
      },
      {
        "repr": "AO2",
        "value": "Automated with precipitation sensor"
      }
    ],
    "dewpoint_decimal": {
      "repr": "0044",
      "value": 4.4,
      "spoken": "four point four"
    },
    "maximum_temperature_24": null,
    "minimum_temperature_24": null,
    "precip_hourly": null,
    "sea_level_pressure": {
      "repr": "SLP069",
      "value": 1006.9,
      "spoken": "one zero zero six point nine"
    },
    "snow_depth": null,
    "temperature_decimal": {
      "repr": "0056",
      "value": 5.6,
      "spoken": "five point six"
    }
  },
  "runway_visibility": [],
  "temperature": {
    "repr": "06",
    "value": 6,
    "spoken": "six"
  },
  "wind_variable_direction": [],
  "density_altitude": -890,
  "pressure_altitude": 227,
  "units": {
    "accumulation": "in",
    "altimeter": "inHg",
    "altitude": "ft",
    "temperature": "C",
    "visibility": "sm",
    "wind_speed": "kt"
  }
}
