{
  "meta": {
    "timestamp": "2022-08-23T10:03:45.444357Z",
    "stations_updated": "2022-07-17"
  },
  "altimeter": {
    "repr": "A3011",
    "value": 30.11,
    "spoken": "three zero point one one"
  },
  "clouds": [
    {
      "repr": "OVC003",
      "type": "OVC",
      "altitude": 3,
      "modifier": null
    }
  ],
  "flight_rules": "LIFR",
  "other": [],
  "visibility": {
    "repr": "3/2",
    "value": 1.5,
    "spoken": "one and one half",
    "numerator": 3,
    "denominator": 2,
    "normalized": "1 1/2"
  },
  "wind_direction": {
    "repr": "210",
    "value": 210,
    "spoken": "two one zero"
  },
  "wind_gust": null,
  "wind_speed": {
    "repr": "08",
    "value": 8,
    "spoken": "eight"
  },
  "wx_codes": [
    {
      "repr": "BR",
      "value": "Mist"
    }
  ],
  "raw": "KNUW 230953Z 21008KT 1 1/2SM BR OVC003 13/12 A3011 RMK SLP197 T01280122",
  "sanitized": "KNUW 230953Z 21008KT 1 1/2SM BR OVC003 13/12 A3011 RMK SLP197 T01280122",
  "station": "KNUW",
  "time": {
    "repr": "230953Z",
    "dt": "2022-08-23T09:53:00Z"
  },
  "remarks": "RMK SLP197 T01280122",
  "dewpoint": {
    "repr": "12",
    "value": 12,
    "spoken": "one two"
  },
  "relative_humidity": 0.9613738290736719,
  "remarks_info": {
    "maximum_temperature_6": null,
    "minimum_temperature_6": null,
    "pressure_tendency": null,
    "precip_36_hours": null,
    "precip_24_hours": null,
    "sunshine_minutes": null,
    "codes": [],
    "dewpoint_decimal": {
      "repr": "0122",
      "value": 12.2,
      "spoken": "one two point two"
    },
    "maximum_temperature_24": null,
    "minimum_temperature_24": null,
    "precip_hourly": null,
    "sea_level_pressure": {
      "repr": "SLP197",
      "value": 1019.7,
      "spoken": "one zero one nine point seven"
    },
    "snow_depth": null,
    "temperature_decimal": {
      "repr": "0128",
      "value": 12.8,
      "spoken": "one two point eight"
    }
  },
  "runway_visibility": [],
  "temperature": {
    "repr": "13",
    "value": 13,
    "spoken": "one three"
  },
  "wind_variable_direction": [],
  "density_altitude": -396,
  "pressure_altitude": -143,
  "units": {
    "accumulation": "in",
    "altimeter": "inHg",
    "altitude": "ft",
    "temperature": "C",
    "visibility": "sm",
    "wind_speed": "kt"
  }
}
