{
  "meta": {
    "timestamp": "2023-04-20T23:40:31.471290Z",
    "stations_updated": "2023-03-11",
    "cache-timestamp": "2023-04-20T23:40:04.381000Z"
  },
  "altimeter": {
    "repr": "A3012",
    "value": 30.12,
    "spoken": "three zero point one two"
  },
  "clouds": [
    {
      "repr": "SCT027",
      "type": "SCT",
      "altitude": 27,
      "modifier": null
    },
    {
      "repr": "BKN033",
      "type": "BKN",
      "altitude": 33,
      "modifier": null
    },
    {
      "repr": "OVC090",
      "type": "OVC",
      "altitude": 90,
      "modifier": null
    }
  ],
  "flight_rules": "VFR",
  "other": [],
  "visibility": {
    "repr": "10",
    "value": 10,
    "spoken": "one zero"
  },
  "wind_direction": {
    "repr": "140",
    "value": 140,
    "spoken": "one four zero"
  },
  "wind_gust": {
    "repr": "50",
    "value": 50,
    "spoken": "five zero"
  },
  "wind_speed": {
    "repr": "31",
    "value": 31,
    "spoken": "three one"
  },
  "wx_codes": [
    {
      "repr": "-RA",
      "value": "Light Rain"
    }
  ],
  "raw": "KNUW 202253Z 14031G50KT 10SM -RA SCT027 BKN033 OVC090 09/03 A3012 RMK PK WND 14050/2248 RAB53 SLP204 P0000 T00940028",
  "sanitized": "KNUW 202253Z 14031G50KT 10SM -RA SCT027 BKN033 OVC090 09/03 A3012 RMK PK WND 14050/2248 RAB53 SLP204 P0000 T00940028",
  "station": "KNUW",
  "time": {
    "repr": "202253Z",
    "dt": "2023-04-20T22:53:00Z"
  },
  "remarks": "RMK PK WND 14050/2248 RAB53 SLP204 P0000 T00940028",
  "dewpoint": {
    "repr": "03",
    "value": 3,
    "spoken": "three"
  },
  "relative_humidity": 0.6338794725921372,
  "remarks_info": {
    "maximum_temperature_6": null,
    "minimum_temperature_6": null,
    "pressure_tendency": null,
    "precip_36_hours": null,
    "precip_24_hours": null,
    "sunshine_minutes": null,
    "codes": [
      {
        "repr": "P0000",
        "value": "Trace amount of rain in the last hour"
      },
      {
        "repr": "RAB53",
        "value": "Rain began at :53"
      }
    ],
    "dewpoint_decimal": {
      "repr": "0028",
      "value": 2.8,
      "spoken": "two point eight"
    },
    "maximum_temperature_24": null,
    "minimum_temperature_24": null,
    "precip_hourly": null,
    "sea_level_pressure": {
      "repr": "SLP204",
      "value": 1020.4,
      "spoken": "one zero two zero point four"
    },
    "snow_depth": null,
    "temperature_decimal": {
      "repr": "0094",
      "value": 9.4,
      "spoken": "nine point four"
    }
  },
  "runway_visibility": [],
  "temperature": {
    "repr": "09",
    "value": 9,
    "spoken": "nine"
  },
  "wind_variable_direction": [],
  "density_altitude": -814,
  "pressure_altitude": -153,
  "units": {
    "accumulation": "in",
    "altimeter": "inHg",
    "altitude": "ft",
    "temperature": "C",
    "visibility": "sm",
    "wind_speed": "kt"
  }
}
