{
  "meta": {
    "timestamp": "2022-12-09T22:40:36.950824Z",
    "stations_updated": "2022-09-05"
  },
  "altimeter": {
    "repr": "A2974",
    "value": 29.74,
    "spoken": "two nine point seven four"
  },
  "clouds": [
    {
      "repr": "FEW025",
      "type": "FEW",
      "altitude": 25,
      "modifier": null
    },
    {
      "repr": "BKN060",
      "type": "BKN",
      "altitude": 60,
      "modifier": null
    },
    {
      "repr": "OVC100",
      "type": "OVC",
      "altitude": 100,
      "modifier": null
    }
  ],
  "flight_rules": "VFR",
  "other": [],
  "visibility": {
    "repr": "10",
    "value": 10,
    "spoken": "one zero"
  },
  "wind_direction": {
    "repr": "110",
    "value": 110,
    "spoken": "one one zero"
  },
  "wind_gust": {
    "repr": "24",
    "value": 24,
    "spoken": "two four"
  },
  "wind_speed": {
    "repr": "17",
    "value": 17,
    "spoken": "one seven"
  },
  "wx_codes": [],
  "raw": "KNUW 092153Z 11017G24KT 10SM FEW025 BKN060 OVC100 06/01 A2974 RMK AO2 PK WND 13029/2130 RAB13E32 SLP071 P0000 T00610011 VISNO $",
  "sanitized": "KNUW 092153Z 11017G24KT 10SM FEW025 BKN060 OVC100 06/01 A2974 RMK AO2 PK WND 13029/2130 RAB13E32 SLP071 P0000 T00610011 VISNO $",
  "station": "KNUW",
  "time": {
    "repr": "092153Z",
    "dt": "2022-12-09T21:53:00Z"
  },
  "remarks": "RMK AO2 PK WND 13029/2130 RAB13E32 SLP071 P0000 T00610011 VISNO $",
  "dewpoint": {
    "repr": "01",
    "value": 1,
    "spoken": "one"
  },
  "relative_humidity": 0.7030167854424878,
  "remarks_info": {
    "maximum_temperature_6": null,
    "minimum_temperature_6": null,
    "pressure_tendency": null,
    "precip_36_hours": null,
    "precip_24_hours": null,
    "sunshine_minutes": null,
    "codes": [
      {
        "repr": "$",
        "value": "ASOS requires maintenance"
      },
      {
        "repr": "AO2",
        "value": "Automated with precipitation sensor"
      },
      {
        "repr": "P0000",
        "value": "Trace amount of rain in the last hour"
      }
    ],
    "dewpoint_decimal": {
      "repr": "0011",
      "value": 1.1,
      "spoken": "one point one"
    },
    "maximum_temperature_24": null,
    "minimum_temperature_24": null,
    "precip_hourly": null,
    "sea_level_pressure": {
      "repr": "SLP071",
      "value": 1007.1,
      "spoken": "one zero zero seven point one"
    },
    "snow_depth": null,
    "temperature_decimal": {
      "repr": "0061",
      "value": 6.1,
      "spoken": "six point one"
    }
  },
  "runway_visibility": [],
  "temperature": {
    "repr": "06",
    "value": 6,
    "spoken": "six"
  },
  "wind_variable_direction": [],
  "density_altitude": -830,
  "pressure_altitude": 227,
  "units": {
    "accumulation": "in",
    "altimeter": "inHg",
    "altitude": "ft",
    "temperature": "C",
    "visibility": "sm",
    "wind_speed": "kt"
  }
}
