{
  "meta": {
    "timestamp": "2023-01-31T07:23:28.775189Z",
    "stations_updated": "2023-01-30"
  },
  "altimeter": {
    "repr": "A3037",
    "value": 30.37,
    "spoken": "three zero point three seven"
  },
  "clouds": [
    {
      "repr": "BKN048",
      "type": "BKN",
      "altitude": 48,
      "modifier": null
    },
    {
      "repr": "BKN120",
      "type": "BKN",
      "altitude": 120,
      "modifier": null
    },
    {
      "repr": "OVC180",
      "type": "OVC",
      "altitude": 180,
      "modifier": null
    }
  ],
  "flight_rules": "VFR",
  "other": [],
  "visibility": {
    "repr": "10",
    "value": 10,
    "spoken": "one zero"
  },
  "wind_direction": {
    "repr": "100",
    "value": 100,
    "spoken": "one zero zero"
  },
  "wind_gust": null,
  "wind_speed": {
    "repr": "06",
    "value": 6,
    "spoken": "six"
  },
  "wx_codes": [],
  "raw": "KNUW 310653Z 10006KT 10SM BKN048 BKN120 OVC180 01/M03 A3037 RMK SLP284 T00061033",
  "sanitized": "KNUW 310653Z 10006KT 10SM BKN048 BKN120 OVC180 01/M03 A3037 RMK SLP284 T00061033",
  "station": "KNUW",
  "time": {
    "repr": "310653Z",
    "dt": "2023-01-31T06:53:00Z"
  },
  "remarks": "RMK SLP284 T00061033",
  "dewpoint": {
    "repr": "M03",
    "value": -3,
    "spoken": "minus three"
  },
  "relative_humidity": 0.7511174716922492,
  "remarks_info": {
    "maximum_temperature_6": null,
    "minimum_temperature_6": null,
    "pressure_tendency": null,
    "precip_36_hours": null,
    "precip_24_hours": null,
    "sunshine_minutes": null,
    "codes": [],
    "dewpoint_decimal": {
      "repr": "1033",
      "value": -3.3,
      "spoken": "minus three point three"
    },
    "maximum_temperature_24": null,
    "minimum_temperature_24": null,
    "precip_hourly": null,
    "sea_level_pressure": {
      "repr": "SLP284",
      "value": 1028.4,
      "spoken": "one zero two eight point four"
    },
    "snow_depth": null,
    "temperature_decimal": {
      "repr": "0006",
      "value": 0.6,
      "spoken": "zero point six"
    }
  },
  "runway_visibility": [],
  "temperature": {
    "repr": "01",
    "value": 1,
    "spoken": "one"
  },
  "wind_variable_direction": [],
  "density_altitude": -2120,
  "pressure_altitude": -403,
  "units": {
    "accumulation": "in",
    "altimeter": "inHg",
    "altitude": "ft",
    "temperature": "C",
    "visibility": "sm",
    "wind_speed": "kt"
  }
}
