{
  "altimeter": {
    "repr": "A2952",
    "spoken": "two nine point five two",
    "value": 29.52
  },
  "clouds": [
    {
      "altitude": 25,
      "modifier": null,
      "repr": "SCT025",
      "type": "SCT"
    },
    {
      "altitude": 40,
      "modifier": null,
      "repr": "BKN040",
      "type": "BKN"
    },
    {
      "altitude": 100,
      "modifier": null,
      "repr": "BKN100",
      "type": "BKN"
    }
  ],
  "density_altitude": -70,
  "dewpoint": {
    "repr": "08",
    "spoken": "eight",
    "value": 8
  },
  "flight_rules": "VFR",
  "meta": {
    "cache-timestamp": "2024-06-03T14:40:13.896000Z",
    "stations_updated": "2024-05-13",
    "timestamp": "2024-06-03T14:40:32.022869Z"
  },
  "other": [],
  "pressure_altitude": 447,
  "raw": "KNUW 031353Z 28026G41KT 10SM SCT025 BKN040 BKN100 11/08 A2952 RMK AO2 PK WND 28045/1323 RAE51 SLP000 P0000 T01060078 $",
  "relative_humidity": 0.828062043990444,
  "remarks": "RMK AO2 PK WND 28045/1323 RAE51 SLP000 P0000 T01060078 $",
  "remarks_info": {
    "codes": [
      {
        "repr": "$",
        "value": "ASOS requires maintenance"
      },
      {
        "repr": "AO2",
        "value": "Automated with precipitation sensor"
      },
      {
        "repr": "P0000",
        "value": "Trace amount of rain in the last hour"
      },
      {
        "repr": "RAE51",
        "value": "Rain ended at :51"
      }
    ],
    "dewpoint_decimal": {
      "repr": "0078",
      "spoken": "seven point eight",
      "value": 7.8
    },
    "maximum_temperature_24": null,
    "maximum_temperature_6": null,
    "minimum_temperature_24": null,
    "minimum_temperature_6": null,
    "precip_24_hours": null,
    "precip_36_hours": null,
    "precip_hourly": null,
    "pressure_tendency": null,
    "sea_level_pressure": {
      "repr": "SLP000",
      "spoken": "one zero zero zero point zero",
      "value": 1000
    },
    "snow_depth": null,
    "sunshine_minutes": null,
    "temperature_decimal": {
      "repr": "0106",
      "spoken": "one zero point six",
      "value": 10.6
    }
  },
  "runway_visibility": [],
  "sanitized": "KNUW 031353Z 28026G41KT 10SM SCT025 BKN040 BKN100 11/08 A2952 RMK AO2 PK WND 28045/1323 RAE51 SLP000 P0000 T01060078 $",
  "station": "KNUW",
  "temperature": {
    "repr": "11",
    "spoken": "one one",
    "value": 11
  },
  "time": {
    "dt": "2024-06-03T13:53:00Z",
    "repr": "031353Z"
  },
  "units": {
    "accumulation": "in",
    "altimeter": "inHg",
    "altitude": "ft",
    "temperature": "C",
    "visibility": "sm",
    "wind_speed": "kt"
  },
  "visibility": {
    "repr": "10",
    "spoken": "one zero",
    "value": 10
  },
  "wind_direction": {
    "repr": "280",
    "spoken": "two eight zero",
    "value": 280
  },
  "wind_gust": {
    "repr": "41",
    "spoken": "four one",
    "value": 41
  },
  "wind_speed": {
    "repr": "26",
    "spoken": "two six",
    "value": 26
  },
  "wind_variable_direction": [],
  "wx_codes": []
}
