{
  "meta": {
    "timestamp": "2023-10-22T08:03:40.681776Z",
    "stations_updated": "2023-10-01"
  },
  "altimeter": {
    "repr": "A2989",
    "value": 29.89,
    "spoken": "two nine point eight nine"
  },
  "clouds": [
    {
      "repr": "SCT014",
      "type": "SCT",
      "altitude": 14,
      "modifier": null
    },
    {
      "repr": "OVC021",
      "type": "OVC",
      "altitude": 21,
      "modifier": null
    }
  ],
  "flight_rules": "MVFR",
  "other": [],
  "visibility": {
    "repr": "10",
    "value": 10,
    "spoken": "one zero"
  },
  "wind_direction": {
    "repr": "000",
    "value": 0,
    "spoken": "zero zero zero"
  },
  "wind_gust": null,
  "wind_speed": {
    "repr": "00",
    "value": 0,
    "spoken": "zero"
  },
  "wx_codes": [],
  "raw": "KNUW 220753Z 00000KT 10SM SCT014 OVC021 11/11 A2989 RMK AO2 RAB24E34 SLP125 P0000 T01110106 401220100 $ KNUW 220653Z 34006KT 10SM SCT015 BKN025 OVC100 11/10 A2989 RMK AO2 RAB0557E19B41E50 SLP127 P0003 T01060100 $",
  "sanitized": "KNUW 220753Z 00000KT 10SM SCT014 OVC021 11/11 A2989 RMK AO2 RAB24E34 SLP125 P0000 T01110106 401220100 $ KNUW 220653Z 34006KT 10SM SCT015 BKN025 OVC100 11/10 A2989 RMK AO2 RAB0557E19B41E50 SLP127 P0003 T01060100 $",
  "station": "KNUW",
  "time": {
    "repr": "220753Z",
    "dt": "2023-10-22T07:53:00Z"
  },
  "remarks": "RMK AO2 RAB24E34 SLP125 P0000 T01110106 401220100 $ KNUW 220653Z 34006KT 10SM SCT015 BKN025 OVC100 11/10 A2989 RMK AO2 RAB0557E19B41E50 SLP127 P0003 T01060100 $",
  "dewpoint": {
    "repr": "11",
    "value": 11,
    "spoken": "one one"
  },
  "relative_humidity": 0.9607146693216029,
  "remarks_info": {
    "maximum_temperature_6": null,
    "minimum_temperature_6": null,
    "pressure_tendency": null,
    "precip_36_hours": null,
    "precip_24_hours": null,
    "sunshine_minutes": null,
    "codes": [
      {
        "repr": "$",
        "value": "ASOS requires maintenance"
      },
      {
        "repr": "$",
        "value": "ASOS requires maintenance"
      },
      {
        "repr": "AO2",
        "value": "Automated with precipitation sensor"
      },
      {
        "repr": "AO2",
        "value": "Automated with precipitation sensor"
      },
      {
        "repr": "P0000",
        "value": "Trace amount of rain in the last hour"
      }
    ],
    "dewpoint_decimal": {
      "repr": "0100",
      "value": 10,
      "spoken": "one zero point zero"
    },
    "maximum_temperature_24": {
      "repr": "0122",
      "value": 12.2,
      "spoken": "one two point two"
    },
    "minimum_temperature_24": {
      "repr": "0100",
      "value": 10,
      "spoken": "one zero point zero"
    },
    "precip_hourly": {
      "repr": "P0003",
      "value": 0.03,
      "spoken": "zero point zero three"
    },
    "sea_level_pressure": {
      "repr": "SLP125",
      "value": 1012.5,
      "spoken": "one zero one two point five"
    },
    "snow_depth": null,
    "temperature_decimal": {
      "repr": "0106",
      "value": 10.6,
      "spoken": "one zero point six"
    }
  },
  "runway_visibility": [],
  "temperature": {
    "repr": "11",
    "value": 11,
    "spoken": "one one"
  },
  "wind_variable_direction": [],
  "density_altitude": -440,
  "pressure_altitude": 77,
  "units": {
    "accumulation": "in",
    "altimeter": "inHg",
    "altitude": "ft",
    "temperature": "C",
    "visibility": "sm",
    "wind_speed": "kt"
  }
}
