{
  "altimeter": {
    "repr": "A3016",
    "spoken": "three zero point one six",
    "value": 30.16
  },
  "clouds": [
    {
      "altitude": 200,
      "modifier": null,
      "repr": "FEW200",
      "type": "FEW"
    }
  ],
  "density_altitude": -1646,
  "dewpoint": {
    "repr": "01",
    "spoken": "one",
    "value": 1
  },
  "flight_rules": "VFR",
  "meta": {
    "cache-timestamp": "2023-11-17T03:24:03.586000Z",
    "stations_updated": "2023-10-28",
    "timestamp": "2023-11-17T03:24:07.175859Z"
  },
  "other": [],
  "pressure_altitude": -193,
  "raw": "KNUW 170253Z 00000KT 10SM FEW200 03/01 A3016 RMK AO2 SLP217 T00280006 52007 $",
  "relative_humidity": 0.8543246885891209,
  "remarks": "RMK AO2 SLP217 T00280006 52007 $",
  "remarks_info": {
    "codes": [
      {
        "repr": "$",
        "value": "ASOS requires maintenance"
      },
      {
        "repr": "AO2",
        "value": "Automated with precipitation sensor"
      }
    ],
    "dewpoint_decimal": {
      "repr": "0006",
      "spoken": "zero point six",
      "value": 0.6
    },
    "maximum_temperature_24": null,
    "maximum_temperature_6": null,
    "minimum_temperature_24": null,
    "minimum_temperature_6": null,
    "precip_24_hours": null,
    "precip_36_hours": null,
    "precip_hourly": null,
    "pressure_tendency": {
      "change": 0.7,
      "repr": "52007",
      "tendency": "Increasing steadily or unsteadily"
    },
    "sea_level_pressure": {
      "repr": "SLP217",
      "spoken": "one zero two one point seven",
      "value": 1021.7
    },
    "snow_depth": null,
    "sunshine_minutes": null,
    "temperature_decimal": {
      "repr": "0028",
      "spoken": "two point eight",
      "value": 2.8
    }
  },
  "runway_visibility": [],
  "sanitized": "KNUW 170253Z 00000KT 10SM FEW200 03/01 A3016 RMK AO2 SLP217 T00280006 52007 $",
  "station": "KNUW",
  "temperature": {
    "repr": "03",
    "spoken": "three",
    "value": 3
  },
  "time": {
    "dt": "2023-11-17T02:53:00Z",
    "repr": "170253Z"
  },
  "units": {
    "accumulation": "in",
    "altimeter": "inHg",
    "altitude": "ft",
    "temperature": "C",
    "visibility": "sm",
    "wind_speed": "kt"
  },
  "visibility": {
    "repr": "10",
    "spoken": "one zero",
    "value": 10
  },
  "wind_direction": {
    "repr": "000",
    "spoken": "zero zero zero",
    "value": 0
  },
  "wind_gust": null,
  "wind_speed": {
    "repr": "00",
    "spoken": "zero",
    "value": 0
  },
  "wind_variable_direction": [],
  "wx_codes": []
}
