{
  "altimeter": {
    "repr": "A3007",
    "spoken": "three zero point zero seven",
    "value": 30.07
  },
  "clouds": [
    {
      "altitude": 4,
      "modifier": null,
      "repr": "VV004",
      "type": "VV"
    }
  ],
  "density_altitude": -1292,
  "dewpoint": {
    "repr": "05",
    "spoken": "five",
    "value": 5
  },
  "flight_rules": "LIFR",
  "meta": {
    "stations_updated": "2024-06-12",
    "timestamp": "2024-10-11T11:03:21.107191Z"
  },
  "other": [],
  "pressure_altitude": -103,
  "raw": "KNUW 111053Z 00000KT 1/4SM FG VV004 05/05 A3007 RMK AO2 SLP185 T00500050 $",
  "relative_humidity": 1,
  "remarks": "RMK AO2 SLP185 T00500050 $",
  "remarks_info": {
    "codes": [
      {
        "repr": "$",
        "value": "ASOS requires maintenance"
      },
      {
        "repr": "AO2",
        "value": "Automated with precipitation sensor"
      }
    ],
    "dewpoint_decimal": {
      "repr": "0050",
      "spoken": "five point zero",
      "value": 5
    },
    "maximum_temperature_24": null,
    "maximum_temperature_6": null,
    "minimum_temperature_24": null,
    "minimum_temperature_6": null,
    "precip_24_hours": null,
    "precip_36_hours": null,
    "precip_hourly": null,
    "pressure_tendency": null,
    "sea_level_pressure": {
      "repr": "SLP185",
      "spoken": "one zero one eight point five",
      "value": 1018.5
    },
    "snow_depth": null,
    "sunshine_minutes": null,
    "temperature_decimal": {
      "repr": "0050",
      "spoken": "five point zero",
      "value": 5
    }
  },
  "runway_visibility": [],
  "sanitized": "KNUW 111053Z 00000KT 1/4SM FG VV004 05/05 A3007 RMK AO2 SLP185 T00500050 $",
  "station": "KNUW",
  "temperature": {
    "repr": "05",
    "spoken": "five",
    "value": 5
  },
  "time": {
    "dt": "2024-10-11T10:53:00Z",
    "repr": "111053Z"
  },
  "units": {
    "accumulation": "in",
    "altimeter": "inHg",
    "altitude": "ft",
    "temperature": "C",
    "visibility": "sm",
    "wind_speed": "kt"
  },
  "visibility": {
    "denominator": 4,
    "normalized": "1/4",
    "numerator": 1,
    "repr": "1/4",
    "spoken": "one quarter",
    "value": 0.25
  },
  "wind_direction": {
    "repr": "000",
    "spoken": "zero zero zero",
    "value": 0
  },
  "wind_gust": null,
  "wind_speed": {
    "repr": "00",
    "spoken": "zero",
    "value": 0
  },
  "wind_variable_direction": [],
  "wx_codes": [
    {
      "repr": "FG",
      "value": "Fog"
    }
  ]
}
