{
  "altimeter": {
    "repr": "A2943",
    "spoken": "two nine point four three",
    "value": 29.43
  },
  "clouds": [
    {
      "altitude": 17,
      "modifier": null,
      "repr": "SCT017",
      "type": "SCT"
    },
    {
      "altitude": 23,
      "modifier": null,
      "repr": "BKN023",
      "type": "BKN"
    },
    {
      "altitude": 29,
      "modifier": null,
      "repr": "OVC029",
      "type": "OVC"
    }
  ],
  "density_altitude": -724,
  "dewpoint": {
    "repr": "01",
    "spoken": "one",
    "value": 1
  },
  "flight_rules": "MVFR",
  "meta": {
    "cache-timestamp": "2024-03-01T07:40:03.476000Z",
    "stations_updated": "2024-01-01",
    "timestamp": "2024-03-01T07:40:38.134650Z"
  },
  "other": [],
  "pressure_altitude": 537,
  "raw": "KNUW 010653Z 14021G29KT 10SM SCT017 BKN023 OVC029 04/01 A2943 RMK AO2 PK WND 12034/0639 SLP969 T00440011 $",
  "relative_humidity": 0.79123360148665,
  "remarks": "RMK AO2 PK WND 12034/0639 SLP969 T00440011 $",
  "remarks_info": {
    "codes": [
      {
        "repr": "$",
        "value": "ASOS requires maintenance"
      },
      {
        "repr": "AO2",
        "value": "Automated with precipitation sensor"
      }
    ],
    "dewpoint_decimal": {
      "repr": "0011",
      "spoken": "one point one",
      "value": 1.1
    },
    "maximum_temperature_24": null,
    "maximum_temperature_6": null,
    "minimum_temperature_24": null,
    "minimum_temperature_6": null,
    "precip_24_hours": null,
    "precip_36_hours": null,
    "precip_hourly": null,
    "pressure_tendency": null,
    "sea_level_pressure": {
      "repr": "SLP969",
      "spoken": "nine nine six point nine",
      "value": 996.9
    },
    "snow_depth": null,
    "sunshine_minutes": null,
    "temperature_decimal": {
      "repr": "0044",
      "spoken": "four point four",
      "value": 4.4
    }
  },
  "runway_visibility": [],
  "sanitized": "KNUW 010653Z 14021G29KT 10SM SCT017 BKN023 OVC029 04/01 A2943 RMK AO2 PK WND 12034/0639 SLP969 T00440011 $",
  "station": "KNUW",
  "temperature": {
    "repr": "04",
    "spoken": "four",
    "value": 4
  },
  "time": {
    "dt": "2024-03-01T06:53:00Z",
    "repr": "010653Z"
  },
  "units": {
    "accumulation": "in",
    "altimeter": "inHg",
    "altitude": "ft",
    "temperature": "C",
    "visibility": "sm",
    "wind_speed": "kt"
  },
  "visibility": {
    "repr": "10",
    "spoken": "one zero",
    "value": 10
  },
  "wind_direction": {
    "repr": "140",
    "spoken": "one four zero",
    "value": 140
  },
  "wind_gust": {
    "repr": "29",
    "spoken": "two nine",
    "value": 29
  },
  "wind_speed": {
    "repr": "21",
    "spoken": "two one",
    "value": 21
  },
  "wind_variable_direction": [],
  "wx_codes": []
}
