{
  "altimeter": {
    "repr": "A3010",
    "spoken": "three zero point one zero",
    "value": 30.1
  },
  "clouds": [
    {
      "altitude": 14,
      "modifier": null,
      "repr": "BKN014",
      "type": "BKN"
    },
    {
      "altitude": 25,
      "modifier": null,
      "repr": "OVC025",
      "type": "OVC"
    }
  ],
  "density_altitude": -1526,
  "dewpoint": {
    "repr": "01",
    "spoken": "one",
    "value": 1
  },
  "flight_rules": "MVFR",
  "meta": {
    "cache-timestamp": "2024-01-08T15:24:05.422000Z",
    "stations_updated": "2023-10-28",
    "timestamp": "2024-01-08T15:24:59.050564Z"
  },
  "other": [],
  "pressure_altitude": -133,
  "raw": "KNUW 081453Z 11013KT 10SM -RA BKN014 OVC025 03/01 A3010 RMK AO2 SLP196 P0001 60001 T00330011 58012 $",
  "relative_humidity": 0.8548717667849024,
  "remarks": "RMK AO2 SLP196 P0001 60001 T00330011 58012 $",
  "remarks_info": {
    "codes": [
      {
        "repr": "$",
        "value": "ASOS requires maintenance"
      },
      {
        "repr": "AO2",
        "value": "Automated with precipitation sensor"
      }
    ],
    "dewpoint_decimal": {
      "repr": "0011",
      "spoken": "one point one",
      "value": 1.1
    },
    "maximum_temperature_24": null,
    "maximum_temperature_6": null,
    "minimum_temperature_24": null,
    "minimum_temperature_6": null,
    "precip_24_hours": null,
    "precip_36_hours": {
      "repr": "60001",
      "spoken": "zero point zero one",
      "value": 0.01
    },
    "precip_hourly": {
      "repr": "P0001",
      "spoken": "zero point zero one",
      "value": 0.01
    },
    "pressure_tendency": {
      "change": 1.2,
      "repr": "58012",
      "tendency": "Steady or increasing, then decreasing"
    },
    "sea_level_pressure": {
      "repr": "SLP196",
      "spoken": "one zero one nine point six",
      "value": 1019.6
    },
    "snow_depth": null,
    "sunshine_minutes": null,
    "temperature_decimal": {
      "repr": "0033",
      "spoken": "three point three",
      "value": 3.3
    }
  },
  "runway_visibility": [],
  "sanitized": "KNUW 081453Z 11013KT 10SM -RA BKN014 OVC025 03/01 A3010 RMK AO2 SLP196 P0001 60001 T00330011 58012 $",
  "station": "KNUW",
  "temperature": {
    "repr": "03",
    "spoken": "three",
    "value": 3
  },
  "time": {
    "dt": "2024-01-08T14:53:00Z",
    "repr": "081453Z"
  },
  "units": {
    "accumulation": "in",
    "altimeter": "inHg",
    "altitude": "ft",
    "temperature": "C",
    "visibility": "sm",
    "wind_speed": "kt"
  },
  "visibility": {
    "repr": "10",
    "spoken": "one zero",
    "value": 10
  },
  "wind_direction": {
    "repr": "110",
    "spoken": "one one zero",
    "value": 110
  },
  "wind_gust": null,
  "wind_speed": {
    "repr": "13",
    "spoken": "one three",
    "value": 13
  },
  "wind_variable_direction": [],
  "wx_codes": [
    {
      "repr": "-RA",
      "value": "Light Rain"
    }
  ]
}
