{
  "meta": {
    "timestamp": "2022-09-06T06:36:28.737350Z",
    "stations_updated": "2022-07-17"
  },
  "altimeter": {
    "repr": "A3015",
    "value": 30.15,
    "spoken": "three zero point one five"
  },
  "clouds": [],
  "flight_rules": "VFR",
  "other": [],
  "visibility": {
    "repr": "10",
    "value": 10,
    "spoken": "one zero"
  },
  "wind_direction": {
    "repr": "000",
    "value": 0,
    "spoken": "zero zero zero"
  },
  "wind_gust": null,
  "wind_speed": {
    "repr": "00",
    "value": 0,
    "spoken": "zero"
  },
  "wx_codes": [],
  "raw": "KNUW 060553Z AUTO 00000KT 10SM CLR 10/09 A3015 RMK AO2 SLP207 T01000094 10178 20100 57009",
  "sanitized": "KNUW 060553Z 00000KT 10SM 10/09 A3015 RMK AO2 SLP207 T01000094 10178 20100 57009",
  "station": "KNUW",
  "time": {
    "repr": "060553Z",
    "dt": "2022-09-06T05:53:00Z"
  },
  "remarks": "RMK AO2 SLP207 T01000094 10178 20100 57009",
  "dewpoint": {
    "repr": "09",
    "value": 9,
    "spoken": "nine"
  },
  "relative_humidity": 0.9605319898773285,
  "remarks_info": {
    "maximum_temperature_6": {
      "repr": "10178",
      "value": 17.8,
      "spoken": "one seven point eight"
    },
    "minimum_temperature_6": {
      "repr": "20100",
      "value": 10,
      "spoken": "one zero point zero"
    },
    "pressure_tendency": {
      "repr": "57009",
      "tendency": "Decreasing steadily or unsteadily",
      "change": 0.9
    },
    "precip_36_hours": null,
    "precip_24_hours": null,
    "sunshine_minutes": null,
    "codes": [
      {
        "repr": "AO2",
        "value": "Automated with precipitation sensor"
      }
    ],
    "dewpoint_decimal": {
      "repr": "0094",
      "value": 9.4,
      "spoken": "nine point four"
    },
    "maximum_temperature_24": null,
    "minimum_temperature_24": null,
    "precip_hourly": null,
    "sea_level_pressure": {
      "repr": "SLP207",
      "value": 1020.7,
      "spoken": "one zero two zero point seven"
    },
    "snow_depth": null,
    "temperature_decimal": {
      "repr": "0100",
      "value": 10,
      "spoken": "one zero point zero"
    }
  },
  "runway_visibility": [],
  "temperature": {
    "repr": "10",
    "value": 10,
    "spoken": "one zero"
  },
  "wind_variable_direction": [],
  "density_altitude": -772,
  "pressure_altitude": -183,
  "units": {
    "accumulation": "in",
    "altimeter": "inHg",
    "altitude": "ft",
    "temperature": "C",
    "visibility": "sm",
    "wind_speed": "kt"
  }
}
