{
  "meta": {
    "timestamp": "2023-04-19T22:40:53.467500Z",
    "stations_updated": "2023-03-11",
    "cache-timestamp": "2023-04-19T22:40:04.662000Z"
  },
  "altimeter": {
    "repr": "A3015",
    "value": 30.15,
    "spoken": "three zero point one five"
  },
  "clouds": [
    {
      "repr": "SCT039",
      "type": "SCT",
      "altitude": 39,
      "modifier": null
    },
    {
      "repr": "SCT070",
      "type": "SCT",
      "altitude": 70,
      "modifier": null
    },
    {
      "repr": "BKN150",
      "type": "BKN",
      "altitude": 150,
      "modifier": null
    },
    {
      "repr": "BKN250",
      "type": "BKN",
      "altitude": 250,
      "modifier": null
    }
  ],
  "flight_rules": "VFR",
  "other": [],
  "visibility": {
    "repr": "10",
    "value": 10,
    "spoken": "one zero"
  },
  "wind_direction": {
    "repr": "140",
    "value": 140,
    "spoken": "one four zero"
  },
  "wind_gust": {
    "repr": "26",
    "value": 26,
    "spoken": "two six"
  },
  "wind_speed": {
    "repr": "15",
    "value": 15,
    "spoken": "one five"
  },
  "wx_codes": [],
  "raw": "KNUW 192153Z 14015G26KT 10SM SCT039 SCT070 BKN150 BKN250 12/02 A3015 RMK PK WND 13030/2105 SLP214 CB DSNT SW-W T01220017",
  "sanitized": "KNUW 192153Z 14015G26KT 10SM SCT039 SCT070 BKN150 BKN250 12/02 A3015 RMK PK WND 13030/2105 SLP214 CB DSNT SW-W T01220017",
  "station": "KNUW",
  "time": {
    "repr": "192153Z",
    "dt": "2023-04-19T21:53:00Z"
  },
  "remarks": "RMK PK WND 13030/2105 SLP214 CB DSNT SW-W T01220017",
  "dewpoint": {
    "repr": "02",
    "value": 2,
    "spoken": "two"
  },
  "relative_humidity": 0.4864769497961591,
  "remarks_info": {
    "maximum_temperature_6": null,
    "minimum_temperature_6": null,
    "pressure_tendency": null,
    "precip_36_hours": null,
    "precip_24_hours": null,
    "sunshine_minutes": null,
    "codes": [],
    "dewpoint_decimal": {
      "repr": "0017",
      "value": 1.7,
      "spoken": "one point seven"
    },
    "maximum_temperature_24": null,
    "minimum_temperature_24": null,
    "precip_hourly": null,
    "sea_level_pressure": {
      "repr": "SLP214",
      "value": 1021.4,
      "spoken": "one zero two one point four"
    },
    "snow_depth": null,
    "temperature_decimal": {
      "repr": "0122",
      "value": 12.2,
      "spoken": "one two point two"
    }
  },
  "runway_visibility": [],
  "temperature": {
    "repr": "12",
    "value": 12,
    "spoken": "one two"
  },
  "wind_variable_direction": [],
  "density_altitude": -508,
  "pressure_altitude": -183,
  "units": {
    "accumulation": "in",
    "altimeter": "inHg",
    "altitude": "ft",
    "temperature": "C",
    "visibility": "sm",
    "wind_speed": "kt"
  }
}
