{
  "meta": {
    "timestamp": "2023-10-25T02:28:41.676604Z",
    "stations_updated": "2023-10-01",
    "cache-timestamp": "2023-10-25T02:28:03.712000Z"
  },
  "altimeter": {
    "repr": "A2964",
    "value": 29.64,
    "spoken": "two nine point six four"
  },
  "clouds": [
    {
      "repr": "SCT017",
      "type": "SCT",
      "altitude": 17,
      "modifier": null
    },
    {
      "repr": "BKN025",
      "type": "BKN",
      "altitude": 25,
      "modifier": null
    },
    {
      "repr": "OVC040",
      "type": "OVC",
      "altitude": 40,
      "modifier": null
    }
  ],
  "flight_rules": "MVFR",
  "other": [],
  "visibility": {
    "repr": "7",
    "value": 7,
    "spoken": "seven"
  },
  "wind_direction": {
    "repr": "110",
    "value": 110,
    "spoken": "one one zero"
  },
  "wind_gust": {
    "repr": "26",
    "value": 26,
    "spoken": "two six"
  },
  "wind_speed": {
    "repr": "14",
    "value": 14,
    "spoken": "one four"
  },
  "wx_codes": [
    {
      "repr": "-RA",
      "value": "Light Rain"
    }
  ],
  "raw": "KNUW 250153Z 11014G26KT 7SM -RA SCT017 BKN025 OVC040 08/07 A2964 RMK PK WND 10026/0144 SLP040 P0009 T00780067",
  "sanitized": "KNUW 250153Z 11014G26KT 7SM -RA SCT017 BKN025 OVC040 08/07 A2964 RMK PK WND 10026/0144 SLP040 P0009 T00780067",
  "station": "KNUW",
  "time": {
    "repr": "250153Z",
    "dt": "2023-10-25T01:53:00Z"
  },
  "remarks": "RMK PK WND 10026/0144 SLP040 P0009 T00780067",
  "dewpoint": {
    "repr": "07",
    "value": 7,
    "spoken": "seven"
  },
  "relative_humidity": 0.9274887710023534,
  "remarks_info": {
    "maximum_temperature_6": null,
    "minimum_temperature_6": null,
    "pressure_tendency": null,
    "precip_36_hours": null,
    "precip_24_hours": null,
    "sunshine_minutes": null,
    "codes": [],
    "dewpoint_decimal": {
      "repr": "0067",
      "value": 6.7,
      "spoken": "six point seven"
    },
    "maximum_temperature_24": null,
    "minimum_temperature_24": null,
    "precip_hourly": {
      "repr": "P0009",
      "value": 0.09,
      "spoken": "zero point zero nine"
    },
    "sea_level_pressure": {
      "repr": "SLP040",
      "value": 1004,
      "spoken": "one zero zero four point zero"
    },
    "snow_depth": null,
    "temperature_decimal": {
      "repr": "0078",
      "value": 7.8,
      "spoken": "seven point eight"
    }
  },
  "runway_visibility": [],
  "temperature": {
    "repr": "08",
    "value": 8,
    "spoken": "eight"
  },
  "wind_variable_direction": [],
  "density_altitude": -526,
  "pressure_altitude": 327,
  "units": {
    "accumulation": "in",
    "altimeter": "inHg",
    "altitude": "ft",
    "temperature": "C",
    "visibility": "sm",
    "wind_speed": "kt"
  }
}
