{
  "altimeter": {
    "repr": "A3045",
    "spoken": "three zero point four five",
    "value": 30.45
  },
  "clouds": [
    {
      "altitude": 30,
      "modifier": null,
      "repr": "FEW030",
      "type": "FEW"
    }
  ],
  "density_altitude": -1336,
  "dewpoint": {
    "repr": "07",
    "spoken": "seven",
    "value": 7
  },
  "flight_rules": "VFR",
  "meta": {
    "stations_updated": "2024-06-12",
    "timestamp": "2024-09-30T10:08:38.041168Z"
  },
  "other": [],
  "pressure_altitude": -483,
  "raw": "KNUW 300953Z 11006KT 10SM FEW030 08/07 A3045 RMK VIS 1 1/2 SLP314 T00780072",
  "relative_humidity": 0.9598512259113078,
  "remarks": "RMK VIS 1 1/2 SLP314 T00780072",
  "remarks_info": {
    "codes": [],
    "dewpoint_decimal": {
      "repr": "0072",
      "spoken": "seven point two",
      "value": 7.2
    },
    "maximum_temperature_24": null,
    "maximum_temperature_6": null,
    "minimum_temperature_24": null,
    "minimum_temperature_6": null,
    "precip_24_hours": null,
    "precip_36_hours": null,
    "precip_hourly": null,
    "pressure_tendency": null,
    "sea_level_pressure": {
      "repr": "SLP314",
      "spoken": "one zero three one point four",
      "value": 1031.4
    },
    "snow_depth": null,
    "sunshine_minutes": null,
    "temperature_decimal": {
      "repr": "0078",
      "spoken": "seven point eight",
      "value": 7.8
    }
  },
  "runway_visibility": [],
  "sanitized": "KNUW 300953Z 11006KT 10SM FEW030 08/07 A3045 RMK VIS 1 1/2 SLP314 T00780072",
  "station": "KNUW",
  "temperature": {
    "repr": "08",
    "spoken": "eight",
    "value": 8
  },
  "time": {
    "dt": "2024-09-30T09:53:00Z",
    "repr": "300953Z"
  },
  "units": {
    "accumulation": "in",
    "altimeter": "inHg",
    "altitude": "ft",
    "temperature": "C",
    "visibility": "sm",
    "wind_speed": "kt"
  },
  "visibility": {
    "repr": "10",
    "spoken": "one zero",
    "value": 10
  },
  "wind_direction": {
    "repr": "110",
    "spoken": "one one zero",
    "value": 110
  },
  "wind_gust": null,
  "wind_speed": {
    "repr": "06",
    "spoken": "six",
    "value": 6
  },
  "wind_variable_direction": [],
  "wx_codes": []
}
