{
  "altimeter": {
    "repr": "A3003",
    "spoken": "three zero point zero three",
    "value": 30.03
  },
  "clouds": [
    {
      "altitude": 10,
      "modifier": null,
      "repr": "FEW010",
      "type": "FEW"
    },
    {
      "altitude": 13,
      "modifier": null,
      "repr": "BKN013",
      "type": "BKN"
    },
    {
      "altitude": 33,
      "modifier": null,
      "repr": "BKN033",
      "type": "BKN"
    }
  ],
  "density_altitude": -1048,
  "dewpoint": {
    "repr": "06",
    "spoken": "six",
    "value": 6
  },
  "flight_rules": "MVFR",
  "meta": {
    "cache-timestamp": "2023-12-10T08:06:05.109000Z",
    "stations_updated": "2023-10-28",
    "timestamp": "2023-12-10T08:06:55.585623Z"
  },
  "other": [],
  "pressure_altitude": -63,
  "raw": "KNUW 100653Z 11013G21KT 10SM FEW010 BKN013 BKN033 07/06 A3003 RMK AO2 PK WND 13027/0614 SLP174 T00670056 $",
  "relative_humidity": 0.9268723723701822,
  "remarks": "RMK AO2 PK WND 13027/0614 SLP174 T00670056 $",
  "remarks_info": {
    "codes": [
      {
        "repr": "$",
        "value": "ASOS requires maintenance"
      },
      {
        "repr": "AO2",
        "value": "Automated with precipitation sensor"
      }
    ],
    "dewpoint_decimal": {
      "repr": "0056",
      "spoken": "five point six",
      "value": 5.6
    },
    "maximum_temperature_24": null,
    "maximum_temperature_6": null,
    "minimum_temperature_24": null,
    "minimum_temperature_6": null,
    "precip_24_hours": null,
    "precip_36_hours": null,
    "precip_hourly": null,
    "pressure_tendency": null,
    "sea_level_pressure": {
      "repr": "SLP174",
      "spoken": "one zero one seven point four",
      "value": 1017.4
    },
    "snow_depth": null,
    "sunshine_minutes": null,
    "temperature_decimal": {
      "repr": "0067",
      "spoken": "six point seven",
      "value": 6.7
    }
  },
  "runway_visibility": [],
  "sanitized": "KNUW 100653Z 11013G21KT 10SM FEW010 BKN013 BKN033 07/06 A3003 RMK AO2 PK WND 13027/0614 SLP174 T00670056 $",
  "station": "KNUW",
  "temperature": {
    "repr": "07",
    "spoken": "seven",
    "value": 7
  },
  "time": {
    "dt": "2023-12-10T06:53:00Z",
    "repr": "100653Z"
  },
  "units": {
    "accumulation": "in",
    "altimeter": "inHg",
    "altitude": "ft",
    "temperature": "C",
    "visibility": "sm",
    "wind_speed": "kt"
  },
  "visibility": {
    "repr": "10",
    "spoken": "one zero",
    "value": 10
  },
  "wind_direction": {
    "repr": "110",
    "spoken": "one one zero",
    "value": 110
  },
  "wind_gust": {
    "repr": "21",
    "spoken": "two one",
    "value": 21
  },
  "wind_speed": {
    "repr": "13",
    "spoken": "one three",
    "value": 13
  },
  "wind_variable_direction": [],
  "wx_codes": []
}
