{
  "altimeter": {
    "repr": "A3017",
    "spoken": "three zero point one seven",
    "value": 30.17
  },
  "clouds": [
    {
      "altitude": 100,
      "modifier": null,
      "repr": "FEW100",
      "type": "FEW"
    },
    {
      "altitude": 150,
      "modifier": null,
      "repr": "SCT150",
      "type": "SCT"
    },
    {
      "altitude": 250,
      "modifier": null,
      "repr": "SCT250",
      "type": "SCT"
    }
  ],
  "density_altitude": -588,
  "dewpoint": {
    "repr": "11",
    "spoken": "one one",
    "value": 11
  },
  "flight_rules": "VFR",
  "meta": {
    "stations_updated": "2024-06-12",
    "timestamp": "2024-10-13T16:32:49.097969Z"
  },
  "other": [],
  "pressure_altitude": -203,
  "raw": "KNUW 131553Z 10009KT 10SM FEW100 SCT150 SCT250 12/11 A3017 RMK AO2 SLP218 T01170106 $",
  "relative_humidity": 0.9296133286105723,
  "remarks": "RMK AO2 SLP218 T01170106 $",
  "remarks_info": {
    "codes": [
      {
        "repr": "$",
        "value": "ASOS requires maintenance"
      },
      {
        "repr": "AO2",
        "value": "Automated with precipitation sensor"
      }
    ],
    "dewpoint_decimal": {
      "repr": "0106",
      "spoken": "one zero point six",
      "value": 10.6
    },
    "maximum_temperature_24": null,
    "maximum_temperature_6": null,
    "minimum_temperature_24": null,
    "minimum_temperature_6": null,
    "precip_24_hours": null,
    "precip_36_hours": null,
    "precip_hourly": null,
    "pressure_tendency": null,
    "sea_level_pressure": {
      "repr": "SLP218",
      "spoken": "one zero two one point eight",
      "value": 1021.8
    },
    "snow_depth": null,
    "sunshine_minutes": null,
    "temperature_decimal": {
      "repr": "0117",
      "spoken": "one one point seven",
      "value": 11.7
    }
  },
  "runway_visibility": [],
  "sanitized": "KNUW 131553Z 10009KT 10SM FEW100 SCT150 SCT250 12/11 A3017 RMK AO2 SLP218 T01170106 $",
  "station": "KNUW",
  "temperature": {
    "repr": "12",
    "spoken": "one two",
    "value": 12
  },
  "time": {
    "dt": "2024-10-13T15:53:00Z",
    "repr": "131553Z"
  },
  "units": {
    "accumulation": "in",
    "altimeter": "inHg",
    "altitude": "ft",
    "temperature": "C",
    "visibility": "sm",
    "wind_speed": "kt"
  },
  "visibility": {
    "repr": "10",
    "spoken": "one zero",
    "value": 10
  },
  "wind_direction": {
    "repr": "100",
    "spoken": "one zero zero",
    "value": 100
  },
  "wind_gust": null,
  "wind_speed": {
    "repr": "09",
    "spoken": "nine",
    "value": 9
  },
  "wind_variable_direction": [],
  "wx_codes": []
}
