{
  "meta": {
    "timestamp": "2023-01-30T21:29:13.148486Z",
    "stations_updated": "2023-01-16"
  },
  "altimeter": {
    "repr": "A3050",
    "value": 30.5,
    "spoken": "three zero point five zero"
  },
  "clouds": [
    {
      "repr": "FEW150",
      "type": "FEW",
      "altitude": 150,
      "modifier": null
    },
    {
      "repr": "BKN220",
      "type": "BKN",
      "altitude": 220,
      "modifier": null
    }
  ],
  "flight_rules": "VFR",
  "other": [],
  "visibility": {
    "repr": "10",
    "value": 10,
    "spoken": "one zero"
  },
  "wind_direction": {
    "repr": "130",
    "value": 130,
    "spoken": "one three zero"
  },
  "wind_gust": null,
  "wind_speed": {
    "repr": "03",
    "value": 3,
    "spoken": "three"
  },
  "wx_codes": [],
  "raw": "KNUW 301953Z 13003KT 10SM FEW150 BKN220 03/M04 A3050 RMK SLP328 T100281044",
  "sanitized": "KNUW 301953Z 13003KT 10SM FEW150 BKN220 03/M04 A3050 RMK SLP328 T100281044",
  "station": "KNUW",
  "time": {
    "repr": "301953Z",
    "dt": "2023-01-30T19:53:00Z"
  },
  "remarks": "RMK SLP328 T100281044",
  "dewpoint": {
    "repr": "M04",
    "value": -4,
    "spoken": "minus four"
  },
  "relative_humidity": 0.6003961855128375,
  "remarks_info": {
    "maximum_temperature_6": null,
    "minimum_temperature_6": null,
    "pressure_tendency": null,
    "precip_36_hours": null,
    "precip_24_hours": null,
    "sunshine_minutes": null,
    "codes": [],
    "dewpoint_decimal": null,
    "maximum_temperature_24": null,
    "minimum_temperature_24": null,
    "precip_hourly": null,
    "sea_level_pressure": {
      "repr": "SLP328",
      "value": 1032.8,
      "spoken": "one zero three two point eight"
    },
    "snow_depth": null,
    "temperature_decimal": null
  },
  "runway_visibility": [],
  "temperature": {
    "repr": "03",
    "value": 3,
    "spoken": "three"
  },
  "wind_variable_direction": [],
  "density_altitude": -1962,
  "pressure_altitude": -533,
  "units": {
    "accumulation": "in",
    "altimeter": "inHg",
    "altitude": "ft",
    "temperature": "C",
    "visibility": "sm",
    "wind_speed": "kt"
  }
}
