{
  "meta": {
    "timestamp": "2023-04-13T16:01:49.743594Z",
    "stations_updated": "2023-03-11"
  },
  "altimeter": {
    "repr": "A3006",
    "value": 30.06,
    "spoken": "three zero point zero six"
  },
  "clouds": [
    {
      "repr": "SCT025",
      "type": "SCT",
      "altitude": 25,
      "modifier": null
    },
    {
      "repr": "BKN040",
      "type": "BKN",
      "altitude": 40,
      "modifier": null
    },
    {
      "repr": "BKN150",
      "type": "BKN",
      "altitude": 150,
      "modifier": null
    }
  ],
  "flight_rules": "VFR",
  "other": [],
  "visibility": {
    "repr": "10",
    "value": 10,
    "spoken": "one zero"
  },
  "wind_direction": {
    "repr": "150",
    "value": 150,
    "spoken": "one five zero"
  },
  "wind_gust": null,
  "wind_speed": {
    "repr": "10",
    "value": 10,
    "spoken": "one zero"
  },
  "wx_codes": [],
  "raw": "KNUW 131453Z 15010KT 10SM SCT025 BKN040 BKN150 06/03 A3006 RMK SLP182 T00610028 56002",
  "sanitized": "KNUW 131453Z 15010KT 10SM SCT025 BKN040 BKN150 06/03 A3006 RMK SLP182 T00610028 56002",
  "station": "KNUW",
  "time": {
    "repr": "131453Z",
    "dt": "2023-04-13T14:53:00Z"
  },
  "remarks": "RMK SLP182 T00610028 56002",
  "dewpoint": {
    "repr": "03",
    "value": 3,
    "spoken": "three"
  },
  "relative_humidity": 0.7937696580662857,
  "remarks_info": {
    "maximum_temperature_6": null,
    "minimum_temperature_6": null,
    "pressure_tendency": {
      "repr": "56002",
      "tendency": "Decreasing, then steady",
      "change": 0.2
    },
    "precip_36_hours": null,
    "precip_24_hours": null,
    "sunshine_minutes": null,
    "codes": [],
    "dewpoint_decimal": {
      "repr": "0028",
      "value": 2.8,
      "spoken": "two point eight"
    },
    "maximum_temperature_24": null,
    "minimum_temperature_24": null,
    "precip_hourly": null,
    "sea_level_pressure": {
      "repr": "SLP182",
      "value": 1018.2,
      "spoken": "one zero one eight point two"
    },
    "snow_depth": null,
    "temperature_decimal": {
      "repr": "0061",
      "value": 6.1,
      "spoken": "six point one"
    }
  },
  "runway_visibility": [],
  "temperature": {
    "repr": "06",
    "value": 6,
    "spoken": "six"
  },
  "wind_variable_direction": [],
  "density_altitude": -1150,
  "pressure_altitude": -93,
  "units": {
    "accumulation": "in",
    "altimeter": "inHg",
    "altitude": "ft",
    "temperature": "C",
    "visibility": "sm",
    "wind_speed": "kt"
  }
}
