{
  "altimeter": {
    "repr": "A3000",
    "spoken": "three zero point zero zero",
    "value": 30
  },
  "clouds": [],
  "density_altitude": -418,
  "dewpoint": {
    "repr": "09",
    "spoken": "nine",
    "value": 9
  },
  "flight_rules": "VFR",
  "meta": {
    "cache-timestamp": "2024-05-13T06:08:02.976000Z",
    "stations_updated": "2024-05-13",
    "timestamp": "2024-05-13T06:08:26.987419Z"
  },
  "other": [],
  "pressure_altitude": -33,
  "raw": "KNUW 130553Z AUTO 23008KT 10SM CLR 12/09 A3000 RMK AO2 SLP162 T01170089 10156 20111 50009 $",
  "relative_humidity": 0.8294144771177383,
  "remarks": "RMK AO2 SLP162 T01170089 10156 20111 50009 $",
  "remarks_info": {
    "codes": [
      {
        "repr": "$",
        "value": "ASOS requires maintenance"
      },
      {
        "repr": "AO2",
        "value": "Automated with precipitation sensor"
      }
    ],
    "dewpoint_decimal": {
      "repr": "0089",
      "spoken": "eight point nine",
      "value": 8.9
    },
    "maximum_temperature_24": null,
    "maximum_temperature_6": {
      "repr": "10156",
      "spoken": "one five point six",
      "value": 15.6
    },
    "minimum_temperature_24": null,
    "minimum_temperature_6": {
      "repr": "20111",
      "spoken": "one one point one",
      "value": 11.1
    },
    "precip_24_hours": null,
    "precip_36_hours": null,
    "precip_hourly": null,
    "pressure_tendency": {
      "change": 0.9,
      "repr": "50009",
      "tendency": "Increasing, then decreasing"
    },
    "sea_level_pressure": {
      "repr": "SLP162",
      "spoken": "one zero one six point two",
      "value": 1016.2
    },
    "snow_depth": null,
    "sunshine_minutes": null,
    "temperature_decimal": {
      "repr": "0117",
      "spoken": "one one point seven",
      "value": 11.7
    }
  },
  "runway_visibility": [],
  "sanitized": "KNUW 130553Z 23008KT 10SM 12/09 A3000 RMK AO2 SLP162 T01170089 10156 20111 50009 $",
  "station": "KNUW",
  "temperature": {
    "repr": "12",
    "spoken": "one two",
    "value": 12
  },
  "time": {
    "dt": "2024-05-13T05:53:00Z",
    "repr": "130553Z"
  },
  "units": {
    "accumulation": "in",
    "altimeter": "inHg",
    "altitude": "ft",
    "temperature": "C",
    "visibility": "sm",
    "wind_speed": "kt"
  },
  "visibility": {
    "repr": "10",
    "spoken": "one zero",
    "value": 10
  },
  "wind_direction": {
    "repr": "230",
    "spoken": "two three zero",
    "value": 230
  },
  "wind_gust": null,
  "wind_speed": {
    "repr": "08",
    "spoken": "eight",
    "value": 8
  },
  "wind_variable_direction": [],
  "wx_codes": []
}
