{
  "meta": {
    "timestamp": "2022-12-28T11:40:36.850295Z",
    "stations_updated": "2022-09-05",
    "cache-timestamp": "2022-12-28T11:40:08.362000Z"
  },
  "altimeter": {
    "repr": "A2965",
    "value": 29.65,
    "spoken": "two nine point six five"
  },
  "clouds": [
    {
      "repr": "FEW029",
      "type": "FEW",
      "altitude": 29,
      "modifier": null
    },
    {
      "repr": "BKN045",
      "type": "BKN",
      "altitude": 45,
      "modifier": null
    },
    {
      "repr": "BKN070",
      "type": "BKN",
      "altitude": 70,
      "modifier": null
    }
  ],
  "flight_rules": "VFR",
  "other": [],
  "visibility": {
    "repr": "10",
    "value": 10,
    "spoken": "one zero"
  },
  "wind_direction": {
    "repr": "240",
    "value": 240,
    "spoken": "two four zero"
  },
  "wind_gust": null,
  "wind_speed": {
    "repr": "09",
    "value": 9,
    "spoken": "nine"
  },
  "wx_codes": [],
  "raw": "KNUW 281053Z 24009KT 10SM FEW029 BKN045 BKN070 07/03 A2965 RMK AO2 SLP040 T00670033 VISNO $",
  "sanitized": "KNUW 281053Z 24009KT 10SM FEW029 BKN045 BKN070 07/03 A2965 RMK AO2 SLP040 T00670033 VISNO $",
  "station": "KNUW",
  "time": {
    "repr": "281053Z",
    "dt": "2022-12-28T10:53:00Z"
  },
  "remarks": "RMK AO2 SLP040 T00670033 VISNO $",
  "dewpoint": {
    "repr": "03",
    "value": 3,
    "spoken": "three"
  },
  "relative_humidity": 0.7890629122317202,
  "remarks_info": {
    "maximum_temperature_6": null,
    "minimum_temperature_6": null,
    "pressure_tendency": null,
    "precip_36_hours": null,
    "precip_24_hours": null,
    "sunshine_minutes": null,
    "codes": [
      {
        "repr": "$",
        "value": "ASOS requires maintenance"
      },
      {
        "repr": "AO2",
        "value": "Automated with precipitation sensor"
      }
    ],
    "dewpoint_decimal": {
      "repr": "0033",
      "value": 3.3,
      "spoken": "three point three"
    },
    "maximum_temperature_24": null,
    "minimum_temperature_24": null,
    "precip_hourly": null,
    "sea_level_pressure": {
      "repr": "SLP040",
      "value": 1004,
      "spoken": "one zero zero four point zero"
    },
    "snow_depth": null,
    "temperature_decimal": {
      "repr": "0067",
      "value": 6.7,
      "spoken": "six point seven"
    }
  },
  "runway_visibility": [],
  "temperature": {
    "repr": "07",
    "value": 7,
    "spoken": "seven"
  },
  "wind_variable_direction": [],
  "density_altitude": -668,
  "pressure_altitude": 317,
  "units": {
    "accumulation": "in",
    "altimeter": "inHg",
    "altitude": "ft",
    "temperature": "C",
    "visibility": "sm",
    "wind_speed": "kt"
  }
}
