{
  "altimeter": {
    "repr": "A2995",
    "spoken": "two nine point nine five",
    "value": 29.95
  },
  "clouds": [
    {
      "altitude": 25,
      "modifier": null,
      "repr": "SCT025",
      "type": "SCT"
    },
    {
      "altitude": 30,
      "modifier": null,
      "repr": "BKN030",
      "type": "BKN"
    },
    {
      "altitude": 50,
      "modifier": null,
      "repr": "OVC050",
      "type": "OVC"
    }
  ],
  "density_altitude": -500,
  "dewpoint": {
    "repr": "08",
    "spoken": "eight",
    "value": 8
  },
  "flight_rules": "MVFR",
  "meta": {
    "cache-timestamp": "2024-04-27T20:40:04.654000Z",
    "stations_updated": "2024-01-01",
    "timestamp": "2024-04-27T20:40:37.982977Z"
  },
  "other": [],
  "pressure_altitude": 17,
  "raw": "KNUW 271953Z 14014G21KT 10SM SCT025 BKN030 OVC050 11/08 A2995 RMK AO2 SLP147 T01060078 $",
  "relative_humidity": 0.828062043990444,
  "remarks": "RMK AO2 SLP147 T01060078 $",
  "remarks_info": {
    "codes": [
      {
        "repr": "$",
        "value": "ASOS requires maintenance"
      },
      {
        "repr": "AO2",
        "value": "Automated with precipitation sensor"
      }
    ],
    "dewpoint_decimal": {
      "repr": "0078",
      "spoken": "seven point eight",
      "value": 7.8
    },
    "maximum_temperature_24": null,
    "maximum_temperature_6": null,
    "minimum_temperature_24": null,
    "minimum_temperature_6": null,
    "precip_24_hours": null,
    "precip_36_hours": null,
    "precip_hourly": null,
    "pressure_tendency": null,
    "sea_level_pressure": {
      "repr": "SLP147",
      "spoken": "one zero one four point seven",
      "value": 1014.7
    },
    "snow_depth": null,
    "sunshine_minutes": null,
    "temperature_decimal": {
      "repr": "0106",
      "spoken": "one zero point six",
      "value": 10.6
    }
  },
  "runway_visibility": [],
  "sanitized": "KNUW 271953Z 14014G21KT 10SM SCT025 BKN030 OVC050 11/08 A2995 RMK AO2 SLP147 T01060078 $",
  "station": "KNUW",
  "temperature": {
    "repr": "11",
    "spoken": "one one",
    "value": 11
  },
  "time": {
    "dt": "2024-04-27T19:53:00Z",
    "repr": "271953Z"
  },
  "units": {
    "accumulation": "in",
    "altimeter": "inHg",
    "altitude": "ft",
    "temperature": "C",
    "visibility": "sm",
    "wind_speed": "kt"
  },
  "visibility": {
    "repr": "10",
    "spoken": "one zero",
    "value": 10
  },
  "wind_direction": {
    "repr": "140",
    "spoken": "one four zero",
    "value": 140
  },
  "wind_gust": {
    "repr": "21",
    "spoken": "two one",
    "value": 21
  },
  "wind_speed": {
    "repr": "14",
    "spoken": "one four",
    "value": 14
  },
  "wind_variable_direction": [],
  "wx_codes": []
}
