{
  "meta": {
    "timestamp": "2023-01-06T07:40:32.428235Z",
    "stations_updated": "2022-12-27",
    "cache-timestamp": "2023-01-06T07:40:04.647000Z"
  },
  "altimeter": {
    "repr": "A2980",
    "value": 29.8,
    "spoken": "two nine point eight zero"
  },
  "clouds": [
    {
      "repr": "FEW026",
      "type": "FEW",
      "altitude": 26,
      "modifier": null
    },
    {
      "repr": "SCT110",
      "type": "SCT",
      "altitude": 110,
      "modifier": null
    },
    {
      "repr": "BKN180",
      "type": "BKN",
      "altitude": 180,
      "modifier": null
    },
    {
      "repr": "OVC250",
      "type": "OVC",
      "altitude": 250,
      "modifier": null
    }
  ],
  "flight_rules": "VFR",
  "other": [],
  "visibility": {
    "repr": "10",
    "value": 10,
    "spoken": "one zero"
  },
  "wind_direction": {
    "repr": "150",
    "value": 150,
    "spoken": "one five zero"
  },
  "wind_gust": {
    "repr": "38",
    "value": 38,
    "spoken": "three eight"
  },
  "wind_speed": {
    "repr": "23",
    "value": 23,
    "spoken": "two three"
  },
  "wx_codes": [],
  "raw": "KNUW 060653Z 15023G38KT 10SM FEW026 SCT110 BKN180 OVC250 10/06 A2980 RMK PK WND 17034/0604 RAE0554 SLP091 P0000 T01000061",
  "sanitized": "KNUW 060653Z 15023G38KT 10SM FEW026 SCT110 BKN180 OVC250 10/06 A2980 RMK PK WND 17034/0604 RAE0554 SLP091 P0000 T01000061",
  "station": "KNUW",
  "time": {
    "repr": "060653Z",
    "dt": "2023-01-06T06:53:00Z"
  },
  "remarks": "RMK PK WND 17034/0604 RAE0554 SLP091 P0000 T01000061",
  "dewpoint": {
    "repr": "06",
    "value": 6,
    "spoken": "six"
  },
  "relative_humidity": 0.7670506235203972,
  "remarks_info": {
    "maximum_temperature_6": null,
    "minimum_temperature_6": null,
    "pressure_tendency": null,
    "precip_36_hours": null,
    "precip_24_hours": null,
    "sunshine_minutes": null,
    "codes": [
      {
        "repr": "P0000",
        "value": "Trace amount of rain in the last hour"
      }
    ],
    "dewpoint_decimal": {
      "repr": "0061",
      "value": 6.1,
      "spoken": "six point one"
    },
    "maximum_temperature_24": null,
    "minimum_temperature_24": null,
    "precip_hourly": null,
    "sea_level_pressure": {
      "repr": "SLP091",
      "value": 1009.1,
      "spoken": "one zero zero nine point one"
    },
    "snow_depth": null,
    "temperature_decimal": {
      "repr": "0100",
      "value": 10,
      "spoken": "one zero point zero"
    }
  },
  "runway_visibility": [],
  "temperature": {
    "repr": "10",
    "value": 10,
    "spoken": "one zero"
  },
  "wind_variable_direction": [],
  "density_altitude": -422,
  "pressure_altitude": 167,
  "units": {
    "accumulation": "in",
    "altimeter": "inHg",
    "altitude": "ft",
    "temperature": "C",
    "visibility": "sm",
    "wind_speed": "kt"
  }
}
