{
  "altimeter": {
    "repr": "A3032",
    "spoken": "three zero point three two",
    "value": 30.32
  },
  "clouds": [
    {
      "altitude": 30,
      "modifier": null,
      "repr": "FEW030",
      "type": "FEW"
    },
    {
      "altitude": 35,
      "modifier": null,
      "repr": "SCT035",
      "type": "SCT"
    },
    {
      "altitude": 43,
      "modifier": null,
      "repr": "SCT043",
      "type": "SCT"
    }
  ],
  "density_altitude": -1410,
  "dewpoint": {
    "repr": "04",
    "spoken": "four",
    "value": 4
  },
  "flight_rules": "VFR",
  "meta": {
    "cache-timestamp": "2024-04-21T13:24:04.578000Z",
    "stations_updated": "2024-01-01",
    "timestamp": "2024-04-21T13:24:15.576128Z"
  },
  "other": [],
  "pressure_altitude": -353,
  "raw": "KNUW 211253Z 11004KT 10SM FEW030 SCT035 SCT043 06/04 A3032 RMK AO2 SLP271 T00610044 $",
  "relative_humidity": 0.8885072425154702,
  "remarks": "RMK AO2 SLP271 T00610044 $",
  "remarks_info": {
    "codes": [
      {
        "repr": "$",
        "value": "ASOS requires maintenance"
      },
      {
        "repr": "AO2",
        "value": "Automated with precipitation sensor"
      }
    ],
    "dewpoint_decimal": {
      "repr": "0044",
      "spoken": "four point four",
      "value": 4.4
    },
    "maximum_temperature_24": null,
    "maximum_temperature_6": null,
    "minimum_temperature_24": null,
    "minimum_temperature_6": null,
    "precip_24_hours": null,
    "precip_36_hours": null,
    "precip_hourly": null,
    "pressure_tendency": null,
    "sea_level_pressure": {
      "repr": "SLP271",
      "spoken": "one zero two seven point one",
      "value": 1027.1
    },
    "snow_depth": null,
    "sunshine_minutes": null,
    "temperature_decimal": {
      "repr": "0061",
      "spoken": "six point one",
      "value": 6.1
    }
  },
  "runway_visibility": [],
  "sanitized": "KNUW 211253Z 11004KT 10SM FEW030 SCT035 SCT043 06/04 A3032 RMK AO2 SLP271 T00610044 $",
  "station": "KNUW",
  "temperature": {
    "repr": "06",
    "spoken": "six",
    "value": 6
  },
  "time": {
    "dt": "2024-04-21T12:53:00Z",
    "repr": "211253Z"
  },
  "units": {
    "accumulation": "in",
    "altimeter": "inHg",
    "altitude": "ft",
    "temperature": "C",
    "visibility": "sm",
    "wind_speed": "kt"
  },
  "visibility": {
    "repr": "10",
    "spoken": "one zero",
    "value": 10
  },
  "wind_direction": {
    "repr": "110",
    "spoken": "one one zero",
    "value": 110
  },
  "wind_gust": null,
  "wind_speed": {
    "repr": "04",
    "spoken": "four",
    "value": 4
  },
  "wind_variable_direction": [],
  "wx_codes": []
}
