{
  "meta": {
    "timestamp": "2023-01-21T07:40:32.581498Z",
    "stations_updated": "2023-01-16",
    "cache-timestamp": "2023-01-21T07:40:06.863000Z"
  },
  "altimeter": {
    "repr": "A3045",
    "value": 30.45,
    "spoken": "three zero point four five"
  },
  "clouds": [
    {
      "repr": "FEW040",
      "type": "FEW",
      "altitude": 40,
      "modifier": null
    },
    {
      "repr": "SCT250",
      "type": "SCT",
      "altitude": 250,
      "modifier": null
    }
  ],
  "flight_rules": "VFR",
  "other": [],
  "visibility": {
    "repr": "10",
    "value": 10,
    "spoken": "one zero"
  },
  "wind_direction": {
    "repr": "100",
    "value": 100,
    "spoken": "one zero zero"
  },
  "wind_gust": null,
  "wind_speed": {
    "repr": "08",
    "value": 8,
    "spoken": "eight"
  },
  "wx_codes": [],
  "raw": "KNUW 210653Z 10008KT 10SM FEW040 SCT250 01/M01 A3045 RMK AO2 SLP311 T00061011 VISNO $",
  "sanitized": "KNUW 210653Z 10008KT 10SM FEW040 SCT250 01/M01 A3045 RMK AO2 SLP311 T00061011 VISNO $",
  "station": "KNUW",
  "time": {
    "repr": "210653Z",
    "dt": "2023-01-21T06:53:00Z"
  },
  "remarks": "RMK AO2 SLP311 T00061011 VISNO $",
  "dewpoint": {
    "repr": "M01",
    "value": -1,
    "spoken": "minus one"
  },
  "relative_humidity": 0.8837167706990872,
  "remarks_info": {
    "maximum_temperature_6": null,
    "minimum_temperature_6": null,
    "pressure_tendency": null,
    "precip_36_hours": null,
    "precip_24_hours": null,
    "sunshine_minutes": null,
    "codes": [
      {
        "repr": "$",
        "value": "ASOS requires maintenance"
      },
      {
        "repr": "AO2",
        "value": "Automated with precipitation sensor"
      }
    ],
    "dewpoint_decimal": {
      "repr": "1011",
      "value": -1.1,
      "spoken": "minus one point one"
    },
    "maximum_temperature_24": null,
    "minimum_temperature_24": null,
    "precip_hourly": null,
    "sea_level_pressure": {
      "repr": "SLP311",
      "value": 1031.1,
      "spoken": "one zero three one point one"
    },
    "snow_depth": null,
    "temperature_decimal": {
      "repr": "0006",
      "value": 0.6,
      "spoken": "zero point six"
    }
  },
  "runway_visibility": [],
  "temperature": {
    "repr": "01",
    "value": 1,
    "spoken": "one"
  },
  "wind_variable_direction": [],
  "density_altitude": -2200,
  "pressure_altitude": -483,
  "units": {
    "accumulation": "in",
    "altimeter": "inHg",
    "altitude": "ft",
    "temperature": "C",
    "visibility": "sm",
    "wind_speed": "kt"
  }
}
