{
  "altimeter": {
    "repr": "A3061",
    "spoken": "three zero point six one",
    "value": 30.61
  },
  "clouds": [],
  "density_altitude": -2636,
  "dewpoint": {
    "repr": "M03",
    "spoken": "minus three",
    "value": -3
  },
  "flight_rules": "VFR",
  "meta": {
    "stations_updated": "2024-12-02",
    "timestamp": "2025-01-20T11:40:30.769874Z"
  },
  "other": [],
  "pressure_altitude": -643,
  "raw": "KNUW 201053Z AUTO 08006KT 10SM CLR M02/M03 A3061 RMK AO2 SLP368 T10171028 $",
  "relative_humidity": 0.9218989053690371,
  "remarks": "RMK AO2 SLP368 T10171028 $",
  "remarks_info": {
    "codes": [
      {
        "repr": "$",
        "value": "ASOS requires maintenance"
      },
      {
        "repr": "AO2",
        "value": "Automated with precipitation sensor"
      }
    ],
    "dewpoint_decimal": {
      "repr": "1028",
      "spoken": "minus two point eight",
      "value": -2.8
    },
    "maximum_temperature_24": null,
    "maximum_temperature_6": null,
    "minimum_temperature_24": null,
    "minimum_temperature_6": null,
    "precip_24_hours": null,
    "precip_36_hours": null,
    "precip_hourly": null,
    "pressure_tendency": null,
    "sea_level_pressure": {
      "repr": "SLP368",
      "spoken": "one zero three six point eight",
      "value": 1036.8
    },
    "snow_depth": null,
    "sunshine_minutes": null,
    "temperature_decimal": {
      "repr": "1017",
      "spoken": "minus one point seven",
      "value": -1.7
    }
  },
  "runway_visibility": [],
  "sanitized": "KNUW 201053Z 08006KT 10SM M02/M03 A3061 RMK AO2 SLP368 T10171028 $",
  "station": "KNUW",
  "temperature": {
    "repr": "M02",
    "spoken": "minus two",
    "value": -2
  },
  "time": {
    "dt": "2025-01-20T10:53:00Z",
    "repr": "201053Z"
  },
  "units": {
    "accumulation": "in",
    "altimeter": "inHg",
    "altitude": "ft",
    "temperature": "C",
    "visibility": "sm",
    "wind_speed": "kt"
  },
  "visibility": {
    "repr": "10",
    "spoken": "one zero",
    "value": 10
  },
  "wind_direction": {
    "repr": "080",
    "spoken": "zero eight zero",
    "value": 80
  },
  "wind_gust": null,
  "wind_speed": {
    "repr": "06",
    "spoken": "six",
    "value": 6
  },
  "wind_variable_direction": [],
  "wx_codes": []
}
