{
  "meta": {
    "timestamp": "2023-01-06T21:23:42.702945Z",
    "stations_updated": "2022-12-27"
  },
  "altimeter": {
    "repr": "A2997",
    "value": 29.97,
    "spoken": "two nine point nine seven"
  },
  "clouds": [
    {
      "repr": "FEW050",
      "type": "FEW",
      "altitude": 50,
      "modifier": null
    },
    {
      "repr": "BKN075",
      "type": "BKN",
      "altitude": 75,
      "modifier": null
    },
    {
      "repr": "BKN120",
      "type": "BKN",
      "altitude": 120,
      "modifier": null
    },
    {
      "repr": "BKN200",
      "type": "BKN",
      "altitude": 200,
      "modifier": null
    }
  ],
  "flight_rules": "VFR",
  "other": [],
  "visibility": {
    "repr": "10",
    "value": 10,
    "spoken": "one zero"
  },
  "wind_direction": {
    "repr": "140",
    "value": 140,
    "spoken": "one four zero"
  },
  "wind_gust": null,
  "wind_speed": {
    "repr": "20",
    "value": 20,
    "spoken": "two zero"
  },
  "wx_codes": [],
  "raw": "KNUW 062053Z 14020KT 10SM FEW050 BKN075 BKN120 BKN200 11/04 A2997 RMK AO2 PK WND 14029/2032 SLP147 T01060044 58009 VISNO $",
  "sanitized": "KNUW 062053Z 14020KT 10SM FEW050 BKN075 BKN120 BKN200 11/04 A2997 RMK AO2 PK WND 14029/2032 SLP147 T01060044 58009 VISNO $",
  "station": "KNUW",
  "time": {
    "repr": "062053Z",
    "dt": "2023-01-06T20:53:00Z"
  },
  "remarks": "RMK AO2 PK WND 14029/2032 SLP147 T01060044 58009 VISNO $",
  "dewpoint": {
    "repr": "04",
    "value": 4,
    "spoken": "four"
  },
  "relative_humidity": 0.654755901606243,
  "remarks_info": {
    "maximum_temperature_6": null,
    "minimum_temperature_6": null,
    "pressure_tendency": {
      "repr": "58009",
      "tendency": "Steady or increasing, then decreasing",
      "change": 0.9
    },
    "precip_36_hours": null,
    "precip_24_hours": null,
    "sunshine_minutes": null,
    "codes": [
      {
        "repr": "$",
        "value": "ASOS requires maintenance"
      },
      {
        "repr": "AO2",
        "value": "Automated with precipitation sensor"
      }
    ],
    "dewpoint_decimal": {
      "repr": "0044",
      "value": 4.4,
      "spoken": "four point four"
    },
    "maximum_temperature_24": null,
    "minimum_temperature_24": null,
    "precip_hourly": null,
    "sea_level_pressure": {
      "repr": "SLP147",
      "value": 1014.7,
      "spoken": "one zero one four point seven"
    },
    "snow_depth": null,
    "temperature_decimal": {
      "repr": "0106",
      "value": 10.6,
      "spoken": "one zero point six"
    }
  },
  "runway_visibility": [],
  "temperature": {
    "repr": "11",
    "value": 11,
    "spoken": "one one"
  },
  "wind_variable_direction": [],
  "density_altitude": -520,
  "pressure_altitude": -3,
  "units": {
    "accumulation": "in",
    "altimeter": "inHg",
    "altitude": "ft",
    "temperature": "C",
    "visibility": "sm",
    "wind_speed": "kt"
  }
}
