{
  "meta": {
    "timestamp": "2023-10-23T21:01:25.591838Z",
    "stations_updated": "2023-10-01"
  },
  "altimeter": {
    "repr": "A3001",
    "value": 30.01,
    "spoken": "three zero point zero one"
  },
  "clouds": [
    {
      "repr": "FEW015",
      "type": "FEW",
      "altitude": 15,
      "modifier": null
    },
    {
      "repr": "BKN048",
      "type": "BKN",
      "altitude": 48,
      "modifier": null
    },
    {
      "repr": "BKN250",
      "type": "BKN",
      "altitude": 250,
      "modifier": null
    }
  ],
  "flight_rules": "VFR",
  "other": [],
  "visibility": {
    "repr": "10",
    "value": 10,
    "spoken": "one zero"
  },
  "wind_direction": {
    "repr": "280",
    "value": 280,
    "spoken": "two eight zero"
  },
  "wind_gust": null,
  "wind_speed": {
    "repr": "13",
    "value": 13,
    "spoken": "one three"
  },
  "wx_codes": [],
  "raw": "KNUW 232053Z 28013KT 10SM FEW015 BKN048 BKN250 12/07 A3001 RMK AO2 SLP165 T01220072 50002 $ KNUW 231953Z 24008KT 10SM FEW015 FEW030 SCT040 SCT200 12/07 A3001 RMK AO2 SLP166 T01170072 $",
  "sanitized": "KNUW 232053Z 28013KT 10SM FEW015 BKN048 BKN250 12/07 A3001 RMK AO2 SLP165 T01220072 50002 $ KNUW 231953Z 24008KT 10SM FEW015 FEW030 SCT040 SCT200 12/07 A3001 RMK AO2 SLP166 T01170072 $",
  "station": "KNUW",
  "time": {
    "repr": "232053Z",
    "dt": "2023-10-23T20:53:00Z"
  },
  "remarks": "RMK AO2 SLP165 T01220072 50002 $ KNUW 231953Z 24008KT 10SM FEW015 FEW030 SCT040 SCT200 12/07 A3001 RMK AO2 SLP166 T01170072 $",
  "dewpoint": {
    "repr": "07",
    "value": 7,
    "spoken": "seven"
  },
  "relative_humidity": 0.7388718895416357,
  "remarks_info": {
    "maximum_temperature_6": null,
    "minimum_temperature_6": null,
    "pressure_tendency": {
      "repr": "50002",
      "tendency": "Increasing, then decreasing",
      "change": 0.2
    },
    "precip_36_hours": null,
    "precip_24_hours": null,
    "sunshine_minutes": null,
    "codes": [
      {
        "repr": "$",
        "value": "ASOS requires maintenance"
      },
      {
        "repr": "$",
        "value": "ASOS requires maintenance"
      },
      {
        "repr": "AO2",
        "value": "Automated with precipitation sensor"
      },
      {
        "repr": "AO2",
        "value": "Automated with precipitation sensor"
      }
    ],
    "dewpoint_decimal": {
      "repr": "0072",
      "value": 7.2,
      "spoken": "seven point two"
    },
    "maximum_temperature_24": null,
    "minimum_temperature_24": null,
    "precip_hourly": null,
    "sea_level_pressure": {
      "repr": "SLP165",
      "value": 1016.5,
      "spoken": "one zero one six point five"
    },
    "snow_depth": null,
    "temperature_decimal": {
      "repr": "0117",
      "value": 11.7,
      "spoken": "one one point seven"
    }
  },
  "runway_visibility": [],
  "temperature": {
    "repr": "12",
    "value": 12,
    "spoken": "one two"
  },
  "wind_variable_direction": [],
  "density_altitude": -428,
  "pressure_altitude": -43,
  "units": {
    "accumulation": "in",
    "altimeter": "inHg",
    "altitude": "ft",
    "temperature": "C",
    "visibility": "sm",
    "wind_speed": "kt"
  }
}
