{
  "meta": {
    "timestamp": "2023-03-17T18:42:09.183793Z",
    "stations_updated": "2023-03-11",
    "cache-timestamp": "2023-03-17T18:42:06.376000Z"
  },
  "altimeter": {
    "repr": "A3017",
    "value": 30.17,
    "spoken": "three zero point one seven"
  },
  "clouds": [
    {
      "repr": "SCT220",
      "type": "SCT",
      "altitude": 220,
      "modifier": null
    }
  ],
  "flight_rules": "VFR",
  "other": [],
  "visibility": {
    "repr": "10",
    "value": 10,
    "spoken": "one zero"
  },
  "wind_direction": {
    "repr": "080",
    "value": 80,
    "spoken": "zero eight zero"
  },
  "wind_gust": null,
  "wind_speed": {
    "repr": "07",
    "value": 7,
    "spoken": "seven"
  },
  "wx_codes": [],
  "raw": "KNUW 171753Z 08007KT 10SM SCT220 11/M01 A3017 RMK AO2 SLP220 T01061006 10106 21006 56002 VISNO $",
  "sanitized": "KNUW 171753Z 08007KT 10SM SCT220 11/M01 A3017 RMK AO2 SLP220 T01061006 10106 21006 56002 VISNO $",
  "station": "KNUW",
  "time": {
    "repr": "171753Z",
    "dt": "2023-03-17T17:53:00Z"
  },
  "remarks": "RMK AO2 SLP220 T01061006 10106 21006 56002 VISNO $",
  "dewpoint": {
    "repr": "M01",
    "value": -1,
    "spoken": "minus one"
  },
  "relative_humidity": 0.45805462382164325,
  "remarks_info": {
    "maximum_temperature_6": {
      "repr": "10106",
      "value": 10.6,
      "spoken": "one zero point six"
    },
    "minimum_temperature_6": {
      "repr": "21006",
      "value": -0.6,
      "spoken": "minus zero point six"
    },
    "pressure_tendency": {
      "repr": "56002",
      "tendency": "Decreasing, then steady",
      "change": 0.2
    },
    "precip_36_hours": null,
    "precip_24_hours": null,
    "sunshine_minutes": null,
    "codes": [
      {
        "repr": "$",
        "value": "ASOS requires maintenance"
      },
      {
        "repr": "AO2",
        "value": "Automated with precipitation sensor"
      }
    ],
    "dewpoint_decimal": {
      "repr": "1006",
      "value": -0.6,
      "spoken": "minus zero point six"
    },
    "maximum_temperature_24": null,
    "minimum_temperature_24": null,
    "precip_hourly": null,
    "sea_level_pressure": {
      "repr": "SLP220",
      "value": 1022,
      "spoken": "one zero two two point zero"
    },
    "snow_depth": null,
    "temperature_decimal": {
      "repr": "0106",
      "value": 10.6,
      "spoken": "one zero point six"
    }
  },
  "runway_visibility": [],
  "temperature": {
    "repr": "11",
    "value": 11,
    "spoken": "one one"
  },
  "wind_variable_direction": [],
  "density_altitude": -720,
  "pressure_altitude": -203,
  "units": {
    "accumulation": "in",
    "altimeter": "inHg",
    "altitude": "ft",
    "temperature": "C",
    "visibility": "sm",
    "wind_speed": "kt"
  }
}
