{
  "meta": {
    "timestamp": "2023-03-28T00:28:44.392501Z",
    "stations_updated": "2023-03-11",
    "cache-timestamp": "2023-03-28T00:28:06.620000Z"
  },
  "altimeter": {
    "repr": "A3012",
    "value": 30.12,
    "spoken": "three zero point one two"
  },
  "clouds": [
    {
      "repr": "FEW040",
      "type": "FEW",
      "altitude": 40,
      "modifier": null
    },
    {
      "repr": "SCT060",
      "type": "SCT",
      "altitude": 60,
      "modifier": null
    },
    {
      "repr": "SCT110",
      "type": "SCT",
      "altitude": 110,
      "modifier": null
    }
  ],
  "flight_rules": "VFR",
  "other": [],
  "visibility": {
    "repr": "10",
    "value": 10,
    "spoken": "one zero"
  },
  "wind_direction": {
    "repr": "340",
    "value": 340,
    "spoken": "three four zero"
  },
  "wind_gust": null,
  "wind_speed": {
    "repr": "13",
    "value": 13,
    "spoken": "one three"
  },
  "wx_codes": [],
  "raw": "KNUW 272353Z 34013KT 10SM FEW040 SCT060 SCT110 12/02 A3012 RMK AO2 SLP201 T01220017 10128 20083 56031 VISNO $",
  "sanitized": "KNUW 272353Z 34013KT 10SM FEW040 SCT060 SCT110 12/02 A3012 RMK AO2 SLP201 T01220017 10128 20083 56031 VISNO $",
  "station": "KNUW",
  "time": {
    "repr": "272353Z",
    "dt": "2023-03-27T23:53:00Z"
  },
  "remarks": "RMK AO2 SLP201 T01220017 10128 20083 56031 VISNO $",
  "dewpoint": {
    "repr": "02",
    "value": 2,
    "spoken": "two"
  },
  "relative_humidity": 0.4864769497961591,
  "remarks_info": {
    "maximum_temperature_6": {
      "repr": "10128",
      "value": 12.8,
      "spoken": "one two point eight"
    },
    "minimum_temperature_6": {
      "repr": "20083",
      "value": 8.3,
      "spoken": "eight point three"
    },
    "pressure_tendency": {
      "repr": "56031",
      "tendency": "Decreasing, then steady",
      "change": 3.1
    },
    "precip_36_hours": null,
    "precip_24_hours": null,
    "sunshine_minutes": null,
    "codes": [
      {
        "repr": "$",
        "value": "ASOS requires maintenance"
      },
      {
        "repr": "AO2",
        "value": "Automated with precipitation sensor"
      }
    ],
    "dewpoint_decimal": {
      "repr": "0017",
      "value": 1.7,
      "spoken": "one point seven"
    },
    "maximum_temperature_24": null,
    "minimum_temperature_24": null,
    "precip_hourly": null,
    "sea_level_pressure": {
      "repr": "SLP201",
      "value": 1020.1,
      "spoken": "one zero two zero point one"
    },
    "snow_depth": null,
    "temperature_decimal": {
      "repr": "0122",
      "value": 12.2,
      "spoken": "one two point two"
    }
  },
  "runway_visibility": [],
  "temperature": {
    "repr": "12",
    "value": 12,
    "spoken": "one two"
  },
  "wind_variable_direction": [],
  "density_altitude": -478,
  "pressure_altitude": -153,
  "units": {
    "accumulation": "in",
    "altimeter": "inHg",
    "altitude": "ft",
    "temperature": "C",
    "visibility": "sm",
    "wind_speed": "kt"
  }
}
