{
  "altimeter": {
    "repr": "A3005",
    "spoken": "three zero point zero five",
    "value": 30.05
  },
  "clouds": [
    {
      "altitude": 30,
      "modifier": null,
      "repr": "FEW030",
      "type": "FEW"
    },
    {
      "altitude": 60,
      "modifier": null,
      "repr": "FEW060",
      "type": "FEW"
    },
    {
      "altitude": 140,
      "modifier": null,
      "repr": "SCT140",
      "type": "SCT"
    }
  ],
  "density_altitude": -276,
  "dewpoint": {
    "repr": "07",
    "spoken": "seven",
    "value": 7
  },
  "flight_rules": "VFR",
  "meta": {
    "cache-timestamp": "2024-05-19T00:30:03.309000Z",
    "stations_updated": "2024-05-13",
    "timestamp": "2024-05-19T00:30:53.012161Z"
  },
  "other": [],
  "pressure_altitude": -83,
  "raw": "KNUW 182353Z 26015KT 10SM FEW030 FEW060 SCT140 13/07 A3005 RMK AO2 SLP181 T01330067 10133 20117 58009 $",
  "relative_humidity": 0.6427660829058479,
  "remarks": "RMK AO2 SLP181 T01330067 10133 20117 58009 $",
  "remarks_info": {
    "codes": [
      {
        "repr": "$",
        "value": "ASOS requires maintenance"
      },
      {
        "repr": "AO2",
        "value": "Automated with precipitation sensor"
      }
    ],
    "dewpoint_decimal": {
      "repr": "0067",
      "spoken": "six point seven",
      "value": 6.7
    },
    "maximum_temperature_24": null,
    "maximum_temperature_6": {
      "repr": "10133",
      "spoken": "one three point three",
      "value": 13.3
    },
    "minimum_temperature_24": null,
    "minimum_temperature_6": {
      "repr": "20117",
      "spoken": "one one point seven",
      "value": 11.7
    },
    "precip_24_hours": null,
    "precip_36_hours": null,
    "precip_hourly": null,
    "pressure_tendency": {
      "change": 0.9,
      "repr": "58009",
      "tendency": "Steady or increasing, then decreasing"
    },
    "sea_level_pressure": {
      "repr": "SLP181",
      "spoken": "one zero one eight point one",
      "value": 1018.1
    },
    "snow_depth": null,
    "sunshine_minutes": null,
    "temperature_decimal": {
      "repr": "0133",
      "spoken": "one three point three",
      "value": 13.3
    }
  },
  "runway_visibility": [],
  "sanitized": "KNUW 182353Z 26015KT 10SM FEW030 FEW060 SCT140 13/07 A3005 RMK AO2 SLP181 T01330067 10133 20117 58009 $",
  "station": "KNUW",
  "temperature": {
    "repr": "13",
    "spoken": "one three",
    "value": 13
  },
  "time": {
    "dt": "2024-05-18T23:53:00Z",
    "repr": "182353Z"
  },
  "units": {
    "accumulation": "in",
    "altimeter": "inHg",
    "altitude": "ft",
    "temperature": "C",
    "visibility": "sm",
    "wind_speed": "kt"
  },
  "visibility": {
    "repr": "10",
    "spoken": "one zero",
    "value": 10
  },
  "wind_direction": {
    "repr": "260",
    "spoken": "two six zero",
    "value": 260
  },
  "wind_gust": null,
  "wind_speed": {
    "repr": "15",
    "spoken": "one five",
    "value": 15
  },
  "wind_variable_direction": [],
  "wx_codes": []
}
