{
  "meta": {
    "timestamp": "2022-12-30T11:21:55.745602Z",
    "stations_updated": "2022-12-27"
  },
  "altimeter": {
    "repr": "A2938",
    "value": 29.38,
    "spoken": "two nine point three eight"
  },
  "clouds": [
    {
      "repr": "FEW049",
      "type": "FEW",
      "altitude": 49,
      "modifier": null
    },
    {
      "repr": "BKN050",
      "type": "BKN",
      "altitude": 50,
      "modifier": null
    },
    {
      "repr": "OVC075",
      "type": "OVC",
      "altitude": 75,
      "modifier": null
    }
  ],
  "flight_rules": "VFR",
  "other": [],
  "visibility": {
    "repr": "10",
    "value": 10,
    "spoken": "one zero"
  },
  "wind_direction": {
    "repr": "130",
    "value": 130,
    "spoken": "one three zero"
  },
  "wind_gust": null,
  "wind_speed": {
    "repr": "15",
    "value": 15,
    "spoken": "one five"
  },
  "wx_codes": [],
  "raw": "KNUW 301053Z 13015KT 10SM FEW049 BKN050 OVC075 07/05 A2938 RMK AO2 RAE31 SLP948 P0001 T00670050 VISNO $",
  "sanitized": "KNUW 301053Z 13015KT 10SM FEW049 BKN050 OVC075 07/05 A2938 RMK AO2 RAE31 SLP948 P0001 T00670050 VISNO $",
  "station": "KNUW",
  "time": {
    "repr": "301053Z",
    "dt": "2022-12-30T10:53:00Z"
  },
  "remarks": "RMK AO2 RAE31 SLP948 P0001 T00670050 VISNO $",
  "dewpoint": {
    "repr": "05",
    "value": 5,
    "spoken": "five"
  },
  "relative_humidity": 0.8890122546203816,
  "remarks_info": {
    "maximum_temperature_6": null,
    "minimum_temperature_6": null,
    "pressure_tendency": null,
    "precip_36_hours": null,
    "precip_24_hours": null,
    "sunshine_minutes": null,
    "codes": [
      {
        "repr": "$",
        "value": "ASOS requires maintenance"
      },
      {
        "repr": "AO2",
        "value": "Automated with precipitation sensor"
      },
      {
        "repr": "RAE31",
        "value": "Rain ended at :31"
      }
    ],
    "dewpoint_decimal": {
      "repr": "0050",
      "value": 5,
      "spoken": "five point zero"
    },
    "maximum_temperature_24": null,
    "minimum_temperature_24": null,
    "precip_hourly": {
      "repr": "P0001",
      "value": 0.01,
      "spoken": "zero point zero one"
    },
    "sea_level_pressure": {
      "repr": "SLP948",
      "value": 994.8,
      "spoken": "nine nine four point eight"
    },
    "snow_depth": null,
    "temperature_decimal": {
      "repr": "0067",
      "value": 6.7,
      "spoken": "six point seven"
    }
  },
  "runway_visibility": [],
  "temperature": {
    "repr": "07",
    "value": 7,
    "spoken": "seven"
  },
  "wind_variable_direction": [],
  "density_altitude": -398,
  "pressure_altitude": 587,
  "units": {
    "accumulation": "in",
    "altimeter": "inHg",
    "altitude": "ft",
    "temperature": "C",
    "visibility": "sm",
    "wind_speed": "kt"
  }
}
