{
  "altimeter": {
    "repr": "A2980",
    "spoken": "two nine point eight zero",
    "value": 29.8
  },
  "clouds": [
    {
      "altitude": 12,
      "modifier": null,
      "repr": "FEW012",
      "type": "FEW"
    },
    {
      "altitude": 28,
      "modifier": null,
      "repr": "SCT028",
      "type": "SCT"
    },
    {
      "altitude": 150,
      "modifier": null,
      "repr": "BKN150",
      "type": "BKN"
    }
  ],
  "density_altitude": -350,
  "dewpoint": {
    "repr": "08",
    "spoken": "eight",
    "value": 8
  },
  "flight_rules": "VFR",
  "meta": {
    "stations_updated": "2024-10-29",
    "timestamp": "2024-11-02T21:26:19.868114Z"
  },
  "other": [],
  "pressure_altitude": 167,
  "raw": "KNUW 022053Z 15007KT 10SM FEW012 SCT028 BKN150 11/08 A2980 RMK AO2 SLP095 T01060078 51002 $",
  "relative_humidity": 0.828062043990444,
  "remarks": "RMK AO2 SLP095 T01060078 51002 $",
  "remarks_info": {
    "codes": [
      {
        "repr": "$",
        "value": "ASOS requires maintenance"
      },
      {
        "repr": "AO2",
        "value": "Automated with precipitation sensor"
      }
    ],
    "dewpoint_decimal": {
      "repr": "0078",
      "spoken": "seven point eight",
      "value": 7.8
    },
    "maximum_temperature_24": null,
    "maximum_temperature_6": null,
    "minimum_temperature_24": null,
    "minimum_temperature_6": null,
    "precip_24_hours": null,
    "precip_36_hours": null,
    "precip_hourly": null,
    "pressure_tendency": {
      "change": 0.2,
      "repr": "51002",
      "tendency": "Increasing, then steady"
    },
    "sea_level_pressure": {
      "repr": "SLP095",
      "spoken": "one zero zero nine point five",
      "value": 1009.5
    },
    "snow_depth": null,
    "sunshine_minutes": null,
    "temperature_decimal": {
      "repr": "0106",
      "spoken": "one zero point six",
      "value": 10.6
    }
  },
  "runway_visibility": [],
  "sanitized": "KNUW 022053Z 15007KT 10SM FEW012 SCT028 BKN150 11/08 A2980 RMK AO2 SLP095 T01060078 51002 $",
  "station": "KNUW",
  "temperature": {
    "repr": "11",
    "spoken": "one one",
    "value": 11
  },
  "time": {
    "dt": "2024-11-02T20:53:00Z",
    "repr": "022053Z"
  },
  "units": {
    "accumulation": "in",
    "altimeter": "inHg",
    "altitude": "ft",
    "temperature": "C",
    "visibility": "sm",
    "wind_speed": "kt"
  },
  "visibility": {
    "repr": "10",
    "spoken": "one zero",
    "value": 10
  },
  "wind_direction": {
    "repr": "150",
    "spoken": "one five zero",
    "value": 150
  },
  "wind_gust": null,
  "wind_speed": {
    "repr": "07",
    "spoken": "seven",
    "value": 7
  },
  "wind_variable_direction": [],
  "wx_codes": []
}
