{
  "altimeter": {
    "repr": "A2962",
    "spoken": "two nine point six two",
    "value": 29.62
  },
  "clouds": [
    {
      "altitude": 150,
      "modifier": null,
      "repr": "BKN150",
      "type": "BKN"
    },
    {
      "altitude": 250,
      "modifier": null,
      "repr": "OVC250",
      "type": "OVC"
    }
  ],
  "density_altitude": -1106,
  "dewpoint": {
    "repr": "M01",
    "spoken": "minus one",
    "value": -1
  },
  "flight_rules": "VFR",
  "meta": {
    "cache-timestamp": "2024-02-05T10:40:03.736000Z",
    "stations_updated": "2024-01-01",
    "timestamp": "2024-02-05T10:40:35.126846Z"
  },
  "other": [],
  "pressure_altitude": 347,
  "raw": "KNUW 050953Z 00000KT 10SM BKN150 OVC250 03/M01 A2962 RMK AO2 SLP033 T00281011 $",
  "relative_humidity": 0.7549810549284812,
  "remarks": "RMK AO2 SLP033 T00281011 $",
  "remarks_info": {
    "codes": [
      {
        "repr": "$",
        "value": "ASOS requires maintenance"
      },
      {
        "repr": "AO2",
        "value": "Automated with precipitation sensor"
      }
    ],
    "dewpoint_decimal": {
      "repr": "1011",
      "spoken": "minus one point one",
      "value": -1.1
    },
    "maximum_temperature_24": null,
    "maximum_temperature_6": null,
    "minimum_temperature_24": null,
    "minimum_temperature_6": null,
    "precip_24_hours": null,
    "precip_36_hours": null,
    "precip_hourly": null,
    "pressure_tendency": null,
    "sea_level_pressure": {
      "repr": "SLP033",
      "spoken": "one zero zero three point three",
      "value": 1003.3
    },
    "snow_depth": null,
    "sunshine_minutes": null,
    "temperature_decimal": {
      "repr": "0028",
      "spoken": "two point eight",
      "value": 2.8
    }
  },
  "runway_visibility": [],
  "sanitized": "KNUW 050953Z 00000KT 10SM BKN150 OVC250 03/M01 A2962 RMK AO2 SLP033 T00281011 $",
  "station": "KNUW",
  "temperature": {
    "repr": "03",
    "spoken": "three",
    "value": 3
  },
  "time": {
    "dt": "2024-02-05T09:53:00Z",
    "repr": "050953Z"
  },
  "units": {
    "accumulation": "in",
    "altimeter": "inHg",
    "altitude": "ft",
    "temperature": "C",
    "visibility": "sm",
    "wind_speed": "kt"
  },
  "visibility": {
    "repr": "10",
    "spoken": "one zero",
    "value": 10
  },
  "wind_direction": {
    "repr": "000",
    "spoken": "zero zero zero",
    "value": 0
  },
  "wind_gust": null,
  "wind_speed": {
    "repr": "00",
    "spoken": "zero",
    "value": 0
  },
  "wind_variable_direction": [],
  "wx_codes": []
}
