{
  "meta": {
    "timestamp": "2022-10-29T07:29:28.211511Z",
    "stations_updated": "2022-09-05"
  },
  "altimeter": {
    "repr": "A3028",
    "value": 30.28,
    "spoken": "three zero point two eight"
  },
  "clouds": [
    {
      "repr": "FEW003",
      "type": "FEW",
      "altitude": 3,
      "modifier": null
    },
    {
      "repr": "SCT210",
      "type": "SCT",
      "altitude": 210,
      "modifier": null
    },
    {
      "repr": "BKN250",
      "type": "BKN",
      "altitude": 250,
      "modifier": null
    }
  ],
  "flight_rules": "VFR",
  "other": [],
  "visibility": {
    "repr": "7",
    "value": 7,
    "spoken": "seven"
  },
  "wind_direction": {
    "repr": "120",
    "value": 120,
    "spoken": "one two zero"
  },
  "wind_gust": null,
  "wind_speed": {
    "repr": "05",
    "value": 5,
    "spoken": "five"
  },
  "wx_codes": [
    {
      "repr": "BCFG",
      "value": "Patchy Fog"
    }
  ],
  "raw": "KNUW 290653Z 12005KT 7SM BCFG FEW003 SCT210 BKN250 06/06 A3028 RMK AO2 SLP254 T00610056 $",
  "sanitized": "KNUW 290653Z 12005KT 7SM BCFG FEW003 SCT210 BKN250 06/06 A3028 RMK AO2 SLP254 T00610056 $",
  "station": "KNUW",
  "time": {
    "repr": "290653Z",
    "dt": "2022-10-29T06:53:00Z"
  },
  "remarks": "RMK AO2 SLP254 T00610056 $",
  "dewpoint": {
    "repr": "06",
    "value": 6,
    "spoken": "six"
  },
  "relative_humidity": 0.9659908804883092,
  "remarks_info": {
    "maximum_temperature_6": null,
    "minimum_temperature_6": null,
    "pressure_tendency": null,
    "precip_36_hours": null,
    "precip_24_hours": null,
    "sunshine_minutes": null,
    "codes": [
      {
        "repr": "$",
        "value": "ASOS requires maintenance"
      },
      {
        "repr": "AO2",
        "value": "Automated with precipitation sensor"
      }
    ],
    "dewpoint_decimal": {
      "repr": "0056",
      "value": 5.6,
      "spoken": "five point six"
    },
    "maximum_temperature_24": null,
    "minimum_temperature_24": null,
    "precip_hourly": null,
    "sea_level_pressure": {
      "repr": "SLP254",
      "value": 1025.4,
      "spoken": "one zero two five point four"
    },
    "snow_depth": null,
    "temperature_decimal": {
      "repr": "0061",
      "value": 6.1,
      "spoken": "six point one"
    }
  },
  "runway_visibility": [],
  "temperature": {
    "repr": "06",
    "value": 6,
    "spoken": "six"
  },
  "wind_variable_direction": [],
  "density_altitude": -1370,
  "pressure_altitude": -313,
  "units": {
    "accumulation": "in",
    "altimeter": "inHg",
    "altitude": "ft",
    "temperature": "C",
    "visibility": "sm",
    "wind_speed": "kt"
  }
}
