{
  "altimeter": {
    "repr": "A2998",
    "spoken": "two nine point nine eight",
    "value": 29.98
  },
  "clouds": [
    {
      "altitude": 40,
      "modifier": null,
      "repr": "SCT040",
      "type": "SCT"
    },
    {
      "altitude": 60,
      "modifier": null,
      "repr": "BKN060",
      "type": "BKN"
    },
    {
      "altitude": 80,
      "modifier": null,
      "repr": "OVC080",
      "type": "OVC"
    }
  ],
  "density_altitude": -806,
  "dewpoint": {
    "repr": "07",
    "spoken": "seven",
    "value": 7
  },
  "flight_rules": "VFR",
  "meta": {
    "stations_updated": "2024-01-01",
    "timestamp": "2024-03-21T08:07:16.891363Z"
  },
  "other": [],
  "pressure_altitude": -13,
  "raw": "KNUW 210753Z 11006KT 10SM SCT040 BKN060 OVC080 08/07 A2998 RMK AO2 RAB34E50 SLP156 P0000 T00830067 401060072 $",
  "relative_humidity": 0.8964857337002037,
  "remarks": "RMK AO2 RAB34E50 SLP156 P0000 T00830067 401060072 $",
  "remarks_info": {
    "codes": [
      {
        "repr": "$",
        "value": "ASOS requires maintenance"
      },
      {
        "repr": "AO2",
        "value": "Automated with precipitation sensor"
      },
      {
        "repr": "P0000",
        "value": "Trace amount of rain in the last hour"
      }
    ],
    "dewpoint_decimal": {
      "repr": "0067",
      "spoken": "six point seven",
      "value": 6.7
    },
    "maximum_temperature_24": {
      "repr": "0106",
      "spoken": "one zero point six",
      "value": 10.6
    },
    "maximum_temperature_6": null,
    "minimum_temperature_24": {
      "repr": "0072",
      "spoken": "seven point two",
      "value": 7.2
    },
    "minimum_temperature_6": null,
    "precip_24_hours": null,
    "precip_36_hours": null,
    "precip_hourly": null,
    "pressure_tendency": null,
    "sea_level_pressure": {
      "repr": "SLP156",
      "spoken": "one zero one five point six",
      "value": 1015.6
    },
    "snow_depth": null,
    "sunshine_minutes": null,
    "temperature_decimal": {
      "repr": "0083",
      "spoken": "eight point three",
      "value": 8.3
    }
  },
  "runway_visibility": [],
  "sanitized": "KNUW 210753Z 11006KT 10SM SCT040 BKN060 OVC080 08/07 A2998 RMK AO2 RAB34E50 SLP156 P0000 T00830067 401060072 $",
  "station": "KNUW",
  "temperature": {
    "repr": "08",
    "spoken": "eight",
    "value": 8
  },
  "time": {
    "dt": "2024-03-21T07:53:00Z",
    "repr": "210753Z"
  },
  "units": {
    "accumulation": "in",
    "altimeter": "inHg",
    "altitude": "ft",
    "temperature": "C",
    "visibility": "sm",
    "wind_speed": "kt"
  },
  "visibility": {
    "repr": "10",
    "spoken": "one zero",
    "value": 10
  },
  "wind_direction": {
    "repr": "110",
    "spoken": "one one zero",
    "value": 110
  },
  "wind_gust": null,
  "wind_speed": {
    "repr": "06",
    "spoken": "six",
    "value": 6
  },
  "wind_variable_direction": [],
  "wx_codes": []
}
