{
  "altimeter": {
    "repr": "A2955",
    "spoken": "two nine point five five",
    "value": 29.55
  },
  "clouds": [
    {
      "altitude": 8,
      "modifier": null,
      "repr": "FEW008",
      "type": "FEW"
    },
    {
      "altitude": 12,
      "modifier": null,
      "repr": "OVC012",
      "type": "OVC"
    }
  ],
  "density_altitude": -436,
  "dewpoint": {
    "repr": "07",
    "spoken": "seven",
    "value": 7
  },
  "flight_rules": "MVFR",
  "meta": {
    "cache-timestamp": "2024-01-09T05:40:05.721000Z",
    "stations_updated": "2023-10-28",
    "timestamp": "2024-01-09T05:40:42.915560Z"
  },
  "other": [],
  "pressure_altitude": 417,
  "raw": "KNUW 090453Z 15026G39KT 10SM -RA FEW008 OVC012 08/07 A2955 RMK AO2 PK WND 15043/0415 RAB10 SLP011 P0001 T00780067 $",
  "relative_humidity": 0.9274887710023534,
  "remarks": "RMK AO2 PK WND 15043/0415 RAB10 SLP011 P0001 T00780067 $",
  "remarks_info": {
    "codes": [
      {
        "repr": "$",
        "value": "ASOS requires maintenance"
      },
      {
        "repr": "AO2",
        "value": "Automated with precipitation sensor"
      },
      {
        "repr": "RAB10",
        "value": "Rain began at :10"
      }
    ],
    "dewpoint_decimal": {
      "repr": "0067",
      "spoken": "six point seven",
      "value": 6.7
    },
    "maximum_temperature_24": null,
    "maximum_temperature_6": null,
    "minimum_temperature_24": null,
    "minimum_temperature_6": null,
    "precip_24_hours": null,
    "precip_36_hours": null,
    "precip_hourly": {
      "repr": "P0001",
      "spoken": "zero point zero one",
      "value": 0.01
    },
    "pressure_tendency": null,
    "sea_level_pressure": {
      "repr": "SLP011",
      "spoken": "one zero zero one point one",
      "value": 1001.1
    },
    "snow_depth": null,
    "sunshine_minutes": null,
    "temperature_decimal": {
      "repr": "0078",
      "spoken": "seven point eight",
      "value": 7.8
    }
  },
  "runway_visibility": [],
  "sanitized": "KNUW 090453Z 15026G39KT 10SM -RA FEW008 OVC012 08/07 A2955 RMK AO2 PK WND 15043/0415 RAB10 SLP011 P0001 T00780067 $",
  "station": "KNUW",
  "temperature": {
    "repr": "08",
    "spoken": "eight",
    "value": 8
  },
  "time": {
    "dt": "2024-01-09T04:53:00Z",
    "repr": "090453Z"
  },
  "units": {
    "accumulation": "in",
    "altimeter": "inHg",
    "altitude": "ft",
    "temperature": "C",
    "visibility": "sm",
    "wind_speed": "kt"
  },
  "visibility": {
    "repr": "10",
    "spoken": "one zero",
    "value": 10
  },
  "wind_direction": {
    "repr": "150",
    "spoken": "one five zero",
    "value": 150
  },
  "wind_gust": {
    "repr": "39",
    "spoken": "three nine",
    "value": 39
  },
  "wind_speed": {
    "repr": "26",
    "spoken": "two six",
    "value": 26
  },
  "wind_variable_direction": [],
  "wx_codes": [
    {
      "repr": "-RA",
      "value": "Light Rain"
    }
  ]
}
