{
  "altimeter": {
    "repr": "A2995",
    "spoken": "two nine point nine five",
    "value": 29.95
  },
  "clouds": [
    {
      "altitude": 60,
      "modifier": null,
      "repr": "SCT060",
      "type": "SCT"
    },
    {
      "altitude": 95,
      "modifier": null,
      "repr": "BKN095",
      "type": "BKN"
    },
    {
      "altitude": 150,
      "modifier": null,
      "repr": "BKN150",
      "type": "BKN"
    }
  ],
  "density_altitude": -1436,
  "dewpoint": {
    "repr": "M01",
    "spoken": "minus one",
    "value": -1
  },
  "flight_rules": "VFR",
  "meta": {
    "cache-timestamp": "2024-03-05T03:24:03.926000Z",
    "stations_updated": "2024-01-01",
    "timestamp": "2024-03-05T03:24:25.895631Z"
  },
  "other": [],
  "pressure_altitude": 17,
  "raw": "KNUW 050253Z 07004KT 10SM SCT060 BKN095 BKN150 03/M01 A2995 RMK AO2 SLP145 T00281006 53008 $",
  "relative_humidity": 0.7830767472324259,
  "remarks": "RMK AO2 SLP145 T00281006 53008 $",
  "remarks_info": {
    "codes": [
      {
        "repr": "$",
        "value": "ASOS requires maintenance"
      },
      {
        "repr": "AO2",
        "value": "Automated with precipitation sensor"
      }
    ],
    "dewpoint_decimal": {
      "repr": "1006",
      "spoken": "minus zero point six",
      "value": -0.6
    },
    "maximum_temperature_24": null,
    "maximum_temperature_6": null,
    "minimum_temperature_24": null,
    "minimum_temperature_6": null,
    "precip_24_hours": null,
    "precip_36_hours": null,
    "precip_hourly": null,
    "pressure_tendency": {
      "change": 0.8,
      "repr": "53008",
      "tendency": "Decreasing or steady, then increasing"
    },
    "sea_level_pressure": {
      "repr": "SLP145",
      "spoken": "one zero one four point five",
      "value": 1014.5
    },
    "snow_depth": null,
    "sunshine_minutes": null,
    "temperature_decimal": {
      "repr": "0028",
      "spoken": "two point eight",
      "value": 2.8
    }
  },
  "runway_visibility": [],
  "sanitized": "KNUW 050253Z 07004KT 10SM SCT060 BKN095 BKN150 03/M01 A2995 RMK AO2 SLP145 T00281006 53008 $",
  "station": "KNUW",
  "temperature": {
    "repr": "03",
    "spoken": "three",
    "value": 3
  },
  "time": {
    "dt": "2024-03-05T02:53:00Z",
    "repr": "050253Z"
  },
  "units": {
    "accumulation": "in",
    "altimeter": "inHg",
    "altitude": "ft",
    "temperature": "C",
    "visibility": "sm",
    "wind_speed": "kt"
  },
  "visibility": {
    "repr": "10",
    "spoken": "one zero",
    "value": 10
  },
  "wind_direction": {
    "repr": "070",
    "spoken": "zero seven zero",
    "value": 70
  },
  "wind_gust": null,
  "wind_speed": {
    "repr": "04",
    "spoken": "four",
    "value": 4
  },
  "wind_variable_direction": [],
  "wx_codes": []
}
