{
  "altimeter": {
    "repr": "A3073",
    "spoken": "three zero point seven three",
    "value": 30.73
  },
  "clouds": [
    {
      "altitude": 23,
      "modifier": null,
      "repr": "FEW023",
      "type": "FEW"
    },
    {
      "altitude": 160,
      "modifier": null,
      "repr": "SCT160",
      "type": "SCT"
    },
    {
      "altitude": 220,
      "modifier": null,
      "repr": "BKN220",
      "type": "BKN"
    }
  ],
  "density_altitude": -2480,
  "dewpoint": {
    "repr": "M03",
    "spoken": "minus three",
    "value": -3
  },
  "flight_rules": "VFR",
  "meta": {
    "stations_updated": "2024-12-02",
    "timestamp": "2025-01-22T10:41:48.934853Z"
  },
  "other": [],
  "pressure_altitude": -763,
  "raw": "KNUW 220953Z 09003KT 10SM FEW023 SCT160 BKN220 01/M03 A3073 RMK AO2 SLP410 T00061028 $",
  "relative_humidity": 0.7795928388776707,
  "remarks": "RMK AO2 SLP410 T00061028 $",
  "remarks_info": {
    "codes": [
      {
        "repr": "$",
        "value": "ASOS requires maintenance"
      },
      {
        "repr": "AO2",
        "value": "Automated with precipitation sensor"
      }
    ],
    "dewpoint_decimal": {
      "repr": "1028",
      "spoken": "minus two point eight",
      "value": -2.8
    },
    "maximum_temperature_24": null,
    "maximum_temperature_6": null,
    "minimum_temperature_24": null,
    "minimum_temperature_6": null,
    "precip_24_hours": null,
    "precip_36_hours": null,
    "precip_hourly": null,
    "pressure_tendency": null,
    "sea_level_pressure": {
      "repr": "SLP410",
      "spoken": "one zero four one point zero",
      "value": 1041.0
    },
    "snow_depth": null,
    "sunshine_minutes": null,
    "temperature_decimal": {
      "repr": "0006",
      "spoken": "zero point six",
      "value": 0.6
    }
  },
  "runway_visibility": [],
  "sanitized": "KNUW 220953Z 09003KT 10SM FEW023 SCT160 BKN220 01/M03 A3073 RMK AO2 SLP410 T00061028 $",
  "station": "KNUW",
  "temperature": {
    "repr": "01",
    "spoken": "one",
    "value": 1
  },
  "time": {
    "dt": "2025-01-22T09:53:00Z",
    "repr": "220953Z"
  },
  "units": {
    "accumulation": "in",
    "altimeter": "inHg",
    "altitude": "ft",
    "temperature": "C",
    "visibility": "sm",
    "wind_speed": "kt"
  },
  "visibility": {
    "repr": "10",
    "spoken": "one zero",
    "value": 10
  },
  "wind_direction": {
    "repr": "090",
    "spoken": "zero nine zero",
    "value": 90
  },
  "wind_gust": null,
  "wind_speed": {
    "repr": "03",
    "spoken": "three",
    "value": 3
  },
  "wind_variable_direction": [],
  "wx_codes": []
}
