{
  "altimeter": {
    "repr": "A3051",
    "spoken": "three zero point five one",
    "value": 30.51
  },
  "clouds": [
    {
      "altitude": 230,
      "modifier": null,
      "repr": "SCT230",
      "type": "SCT"
    }
  ],
  "density_altitude": -2260,
  "dewpoint": {
    "repr": "00",
    "spoken": "zero",
    "value": 0
  },
  "flight_rules": "VFR",
  "meta": {
    "stations_updated": "2024-12-02",
    "timestamp": "2024-12-10T10:37:02.619578Z"
  },
  "other": [],
  "pressure_altitude": -543,
  "raw": "KNUW 100953Z 09005KT 10SM MIFG SCT230 01/00 A3051 RMK AO2 SLP335 T00060000",
  "relative_humidity": 0.9574966857850682,
  "remarks": "RMK AO2 SLP335 T00060000",
  "remarks_info": {
    "codes": [
      {
        "repr": "AO2",
        "value": "Automated with precipitation sensor"
      }
    ],
    "dewpoint_decimal": {
      "repr": "0000",
      "spoken": "zero",
      "value": 0
    },
    "maximum_temperature_24": null,
    "maximum_temperature_6": null,
    "minimum_temperature_24": null,
    "minimum_temperature_6": null,
    "precip_24_hours": null,
    "precip_36_hours": null,
    "precip_hourly": null,
    "pressure_tendency": null,
    "sea_level_pressure": {
      "repr": "SLP335",
      "spoken": "one zero three three point five",
      "value": 1033.5
    },
    "snow_depth": null,
    "sunshine_minutes": null,
    "temperature_decimal": {
      "repr": "0006",
      "spoken": "zero point six",
      "value": 0.6
    }
  },
  "runway_visibility": [],
  "sanitized": "KNUW 100953Z 09005KT 10SM MIFG SCT230 01/00 A3051 RMK AO2 SLP335 T00060000",
  "station": "KNUW",
  "temperature": {
    "repr": "01",
    "spoken": "one",
    "value": 1
  },
  "time": {
    "dt": "2024-12-10T09:53:00Z",
    "repr": "100953Z"
  },
  "units": {
    "accumulation": "in",
    "altimeter": "inHg",
    "altitude": "ft",
    "temperature": "C",
    "visibility": "sm",
    "wind_speed": "kt"
  },
  "visibility": {
    "repr": "10",
    "spoken": "one zero",
    "value": 10
  },
  "wind_direction": {
    "repr": "090",
    "spoken": "zero nine zero",
    "value": 90
  },
  "wind_gust": null,
  "wind_speed": {
    "repr": "05",
    "spoken": "five",
    "value": 5
  },
  "wind_variable_direction": [],
  "wx_codes": [
    {
      "repr": "MIFG",
      "value": "Shallow Fog"
    }
  ]
}
