{
  "meta": {
    "timestamp": "2023-04-02T17:40:43.334393Z",
    "stations_updated": "2023-03-11",
    "cache-timestamp": "2023-04-02T17:40:05.514000Z"
  },
  "altimeter": {
    "repr": "A2988",
    "value": 29.88,
    "spoken": "two nine point eight eight"
  },
  "clouds": [
    {
      "repr": "BKN019",
      "type": "BKN",
      "altitude": 19,
      "modifier": null
    },
    {
      "repr": "OVC025",
      "type": "OVC",
      "altitude": 25,
      "modifier": null
    }
  ],
  "flight_rules": "MVFR",
  "other": [],
  "visibility": {
    "repr": "10",
    "value": 10,
    "spoken": "one zero"
  },
  "wind_direction": {
    "repr": "150",
    "value": 150,
    "spoken": "one five zero"
  },
  "wind_gust": null,
  "wind_speed": {
    "repr": "09",
    "value": 9,
    "spoken": "nine"
  },
  "wx_codes": [],
  "raw": "KNUW 021653Z 15009KT 10SM BKN019 OVC025 06/02 A2988 RMK AO2 SLP123 T00560017 VISNO $",
  "sanitized": "KNUW 021653Z 15009KT 10SM BKN019 OVC025 06/02 A2988 RMK AO2 SLP123 T00560017 VISNO $",
  "station": "KNUW",
  "time": {
    "repr": "021653Z",
    "dt": "2023-04-02T16:53:00Z"
  },
  "remarks": "RMK AO2 SLP123 T00560017 VISNO $",
  "dewpoint": {
    "repr": "02",
    "value": 2,
    "spoken": "two"
  },
  "relative_humidity": 0.7597773110621919,
  "remarks_info": {
    "maximum_temperature_6": null,
    "minimum_temperature_6": null,
    "pressure_tendency": null,
    "precip_36_hours": null,
    "precip_24_hours": null,
    "sunshine_minutes": null,
    "codes": [
      {
        "repr": "$",
        "value": "ASOS requires maintenance"
      },
      {
        "repr": "AO2",
        "value": "Automated with precipitation sensor"
      }
    ],
    "dewpoint_decimal": {
      "repr": "0017",
      "value": 1.7,
      "spoken": "one point seven"
    },
    "maximum_temperature_24": null,
    "minimum_temperature_24": null,
    "precip_hourly": null,
    "sea_level_pressure": {
      "repr": "SLP123",
      "value": 1012.3,
      "spoken": "one zero one two point three"
    },
    "snow_depth": null,
    "temperature_decimal": {
      "repr": "0056",
      "value": 5.6,
      "spoken": "five point six"
    }
  },
  "runway_visibility": [],
  "temperature": {
    "repr": "06",
    "value": 6,
    "spoken": "six"
  },
  "wind_variable_direction": [],
  "density_altitude": -1030,
  "pressure_altitude": 87,
  "units": {
    "accumulation": "in",
    "altimeter": "inHg",
    "altitude": "ft",
    "temperature": "C",
    "visibility": "sm",
    "wind_speed": "kt"
  }
}
