{
  "altimeter": {
    "repr": "A2998",
    "spoken": "two nine point nine eight",
    "value": 29.98
  },
  "clouds": [
    {
      "altitude": 10,
      "modifier": null,
      "repr": "SCT010",
      "type": "SCT"
    },
    {
      "altitude": 24,
      "modifier": null,
      "repr": "OVC024",
      "type": "OVC"
    }
  ],
  "density_altitude": -470,
  "dewpoint": {
    "repr": "11",
    "spoken": "one one",
    "value": 11
  },
  "flight_rules": "MVFR",
  "meta": {
    "stations_updated": "2024-05-13",
    "timestamp": "2024-06-27T08:08:28.404609Z"
  },
  "other": [],
  "pressure_altitude": -13,
  "raw": "KNUW 270753Z COR 21007KT 5SM -RA BR SCT010 OVC024 11/11 A2998 RMK RAB25 SLP156 P0005 T01110111 401720100",
  "relative_humidity": 1,
  "remarks": "RMK RAB25 SLP156 P0005 T01110111 401720100",
  "remarks_info": {
    "codes": [
      {
        "repr": "RAB25",
        "value": "Rain began at :25"
      }
    ],
    "dewpoint_decimal": {
      "repr": "0111",
      "spoken": "one one point one",
      "value": 11.1
    },
    "maximum_temperature_24": {
      "repr": "0172",
      "spoken": "one seven point two",
      "value": 17.2
    },
    "maximum_temperature_6": null,
    "minimum_temperature_24": {
      "repr": "0100",
      "spoken": "one zero point zero",
      "value": 10
    },
    "minimum_temperature_6": null,
    "precip_24_hours": null,
    "precip_36_hours": null,
    "precip_hourly": {
      "repr": "P0005",
      "spoken": "zero point zero five",
      "value": 0.05
    },
    "pressure_tendency": null,
    "sea_level_pressure": {
      "repr": "SLP156",
      "spoken": "one zero one five point six",
      "value": 1015.6
    },
    "snow_depth": null,
    "sunshine_minutes": null,
    "temperature_decimal": {
      "repr": "0111",
      "spoken": "one one point one",
      "value": 11.1
    }
  },
  "runway_visibility": [],
  "sanitized": "KNUW 270753Z 21007KT 5SM -RA BR SCT010 OVC024 11/11 A2998 RMK RAB25 SLP156 P0005 T01110111 401720100",
  "station": "KNUW",
  "temperature": {
    "repr": "11",
    "spoken": "one one",
    "value": 11
  },
  "time": {
    "dt": "2024-06-27T07:53:00Z",
    "repr": "270753Z"
  },
  "units": {
    "accumulation": "in",
    "altimeter": "inHg",
    "altitude": "ft",
    "temperature": "C",
    "visibility": "sm",
    "wind_speed": "kt"
  },
  "visibility": {
    "repr": "5",
    "spoken": "five",
    "value": 5
  },
  "wind_direction": {
    "repr": "210",
    "spoken": "two one zero",
    "value": 210
  },
  "wind_gust": null,
  "wind_speed": {
    "repr": "07",
    "spoken": "seven",
    "value": 7
  },
  "wind_variable_direction": [],
  "wx_codes": [
    {
      "repr": "-RA",
      "value": "Light Rain"
    },
    {
      "repr": "BR",
      "value": "Mist"
    }
  ]
}
