{
  "meta": {
    "timestamp": "2023-02-13T23:40:38.008916Z",
    "stations_updated": "2023-01-30",
    "cache-timestamp": "2023-02-13T23:40:04.765000Z"
  },
  "altimeter": {
    "repr": "A2980",
    "value": 29.8,
    "spoken": "two nine point eight zero"
  },
  "clouds": [
    {
      "repr": "SCT026",
      "type": "SCT",
      "altitude": 26,
      "modifier": null
    },
    {
      "repr": "BKN040",
      "type": "BKN",
      "altitude": 40,
      "modifier": null
    },
    {
      "repr": "BKN110",
      "type": "BKN",
      "altitude": 110,
      "modifier": null
    },
    {
      "repr": "BKN220",
      "type": "BKN",
      "altitude": 220,
      "modifier": null
    }
  ],
  "flight_rules": "VFR",
  "other": [],
  "visibility": {
    "repr": "10",
    "value": 10,
    "spoken": "one zero"
  },
  "wind_direction": {
    "repr": "260",
    "value": 260,
    "spoken": "two six zero"
  },
  "wind_gust": {
    "repr": "31",
    "value": 31,
    "spoken": "three one"
  },
  "wind_speed": {
    "repr": "24",
    "value": 24,
    "spoken": "two four"
  },
  "wx_codes": [],
  "raw": "KNUW 132253Z 26024G31KT 10SM SCT026 BKN040 BKN110 BKN220 07/03 A2980 RMK PK WND 25037/2237 RAB42E52 SLP090 P0000 T00720033",
  "sanitized": "KNUW 132253Z 26024G31KT 10SM SCT026 BKN040 BKN110 BKN220 07/03 A2980 RMK PK WND 25037/2237 RAB42E52 SLP090 P0000 T00720033",
  "station": "KNUW",
  "time": {
    "repr": "132253Z",
    "dt": "2023-02-13T22:53:00Z"
  },
  "remarks": "RMK PK WND 25037/2237 RAB42E52 SLP090 P0000 T00720033",
  "dewpoint": {
    "repr": "03",
    "value": 3,
    "spoken": "three"
  },
  "relative_humidity": 0.7624587758529988,
  "remarks_info": {
    "maximum_temperature_6": null,
    "minimum_temperature_6": null,
    "pressure_tendency": null,
    "precip_36_hours": null,
    "precip_24_hours": null,
    "sunshine_minutes": null,
    "codes": [
      {
        "repr": "P0000",
        "value": "Trace amount of rain in the last hour"
      }
    ],
    "dewpoint_decimal": {
      "repr": "0033",
      "value": 3.3,
      "spoken": "three point three"
    },
    "maximum_temperature_24": null,
    "minimum_temperature_24": null,
    "precip_hourly": null,
    "sea_level_pressure": {
      "repr": "SLP090",
      "value": 1009,
      "spoken": "one zero zero nine point zero"
    },
    "snow_depth": null,
    "temperature_decimal": {
      "repr": "0072",
      "value": 7.2,
      "spoken": "seven point two"
    }
  },
  "runway_visibility": [],
  "temperature": {
    "repr": "07",
    "value": 7,
    "spoken": "seven"
  },
  "wind_variable_direction": [],
  "density_altitude": -758,
  "pressure_altitude": 167,
  "units": {
    "accumulation": "in",
    "altimeter": "inHg",
    "altitude": "ft",
    "temperature": "C",
    "visibility": "sm",
    "wind_speed": "kt"
  }
}
