{
  "altimeter": {
    "repr": "A2999",
    "spoken": "two nine point nine nine",
    "value": 29.99
  },
  "clouds": [
    {
      "altitude": 14,
      "modifier": null,
      "repr": "FEW014",
      "type": "FEW"
    },
    {
      "altitude": 25,
      "modifier": null,
      "repr": "SCT025",
      "type": "SCT"
    },
    {
      "altitude": 32,
      "modifier": null,
      "repr": "BKN032",
      "type": "BKN"
    }
  ],
  "density_altitude": -1080,
  "dewpoint": {
    "repr": "04",
    "spoken": "four",
    "value": 4
  },
  "flight_rules": "VFR",
  "meta": {
    "cache-timestamp": "2024-02-04T16:40:05.720000Z",
    "stations_updated": "2024-01-01",
    "timestamp": "2024-02-04T16:40:33.797226Z"
  },
  "other": [],
  "pressure_altitude": -23,
  "raw": "KNUW 041553Z 01007KT 10SM FEW014 SCT025 BKN032 06/04 A2999 RMK AO2 SLP159 T00610039 $",
  "relative_humidity": 0.8578808713986099,
  "remarks": "RMK AO2 SLP159 T00610039 $",
  "remarks_info": {
    "codes": [
      {
        "repr": "$",
        "value": "ASOS requires maintenance"
      },
      {
        "repr": "AO2",
        "value": "Automated with precipitation sensor"
      }
    ],
    "dewpoint_decimal": {
      "repr": "0039",
      "spoken": "three point nine",
      "value": 3.9
    },
    "maximum_temperature_24": null,
    "maximum_temperature_6": null,
    "minimum_temperature_24": null,
    "minimum_temperature_6": null,
    "precip_24_hours": null,
    "precip_36_hours": null,
    "precip_hourly": null,
    "pressure_tendency": null,
    "sea_level_pressure": {
      "repr": "SLP159",
      "spoken": "one zero one five point nine",
      "value": 1015.9
    },
    "snow_depth": null,
    "sunshine_minutes": null,
    "temperature_decimal": {
      "repr": "0061",
      "spoken": "six point one",
      "value": 6.1
    }
  },
  "runway_visibility": [],
  "sanitized": "KNUW 041553Z 01007KT 10SM FEW014 SCT025 BKN032 06/04 A2999 RMK AO2 SLP159 T00610039 $",
  "station": "KNUW",
  "temperature": {
    "repr": "06",
    "spoken": "six",
    "value": 6
  },
  "time": {
    "dt": "2024-02-04T15:53:00Z",
    "repr": "041553Z"
  },
  "units": {
    "accumulation": "in",
    "altimeter": "inHg",
    "altitude": "ft",
    "temperature": "C",
    "visibility": "sm",
    "wind_speed": "kt"
  },
  "visibility": {
    "repr": "10",
    "spoken": "one zero",
    "value": 10
  },
  "wind_direction": {
    "repr": "010",
    "spoken": "zero one zero",
    "value": 10
  },
  "wind_gust": null,
  "wind_speed": {
    "repr": "07",
    "spoken": "seven",
    "value": 7
  },
  "wind_variable_direction": [],
  "wx_codes": []
}
