{
  "altimeter": {
    "repr": "A2968",
    "spoken": "two nine point six eight",
    "value": 29.68
  },
  "clouds": [
    {
      "altitude": 50,
      "modifier": null,
      "repr": "BKN050",
      "type": "BKN"
    },
    {
      "altitude": 75,
      "modifier": null,
      "repr": "OVC075",
      "type": "OVC"
    }
  ],
  "density_altitude": 94,
  "dewpoint": {
    "repr": "12",
    "spoken": "one two",
    "value": 12
  },
  "flight_rules": "VFR",
  "meta": {
    "stations_updated": "2024-05-13",
    "timestamp": "2024-06-02T20:23:41.852751Z"
  },
  "other": [],
  "pressure_altitude": 287,
  "raw": "KNUW 021953Z 13018G26KT 7SM -RA BKN050 OVC075 13/12 A2968 RMK AO2 PK WND 12026/1950 SLP055 P0010 T01330122 $",
  "relative_humidity": 0.9304583596468419,
  "remarks": "RMK AO2 PK WND 12026/1950 SLP055 P0010 T01330122 $",
  "remarks_info": {
    "codes": [
      {
        "repr": "$",
        "value": "ASOS requires maintenance"
      },
      {
        "repr": "AO2",
        "value": "Automated with precipitation sensor"
      }
    ],
    "dewpoint_decimal": {
      "repr": "0122",
      "spoken": "one two point two",
      "value": 12.2
    },
    "maximum_temperature_24": null,
    "maximum_temperature_6": null,
    "minimum_temperature_24": null,
    "minimum_temperature_6": null,
    "precip_24_hours": null,
    "precip_36_hours": null,
    "precip_hourly": {
      "repr": "P0010",
      "spoken": "zero point one",
      "value": 0.1
    },
    "pressure_tendency": null,
    "sea_level_pressure": {
      "repr": "SLP055",
      "spoken": "one zero zero five point five",
      "value": 1005.5
    },
    "snow_depth": null,
    "sunshine_minutes": null,
    "temperature_decimal": {
      "repr": "0133",
      "spoken": "one three point three",
      "value": 13.3
    }
  },
  "runway_visibility": [],
  "sanitized": "KNUW 021953Z 13018G26KT 7SM -RA BKN050 OVC075 13/12 A2968 RMK AO2 PK WND 12026/1950 SLP055 P0010 T01330122 $",
  "station": "KNUW",
  "temperature": {
    "repr": "13",
    "spoken": "one three",
    "value": 13
  },
  "time": {
    "dt": "2024-06-02T19:53:00Z",
    "repr": "021953Z"
  },
  "units": {
    "accumulation": "in",
    "altimeter": "inHg",
    "altitude": "ft",
    "temperature": "C",
    "visibility": "sm",
    "wind_speed": "kt"
  },
  "visibility": {
    "repr": "7",
    "spoken": "seven",
    "value": 7
  },
  "wind_direction": {
    "repr": "130",
    "spoken": "one three zero",
    "value": 130
  },
  "wind_gust": {
    "repr": "26",
    "spoken": "two six",
    "value": 26
  },
  "wind_speed": {
    "repr": "18",
    "spoken": "one eight",
    "value": 18
  },
  "wind_variable_direction": [],
  "wx_codes": [
    {
      "repr": "-RA",
      "value": "Light Rain"
    }
  ]
}
