{
  "meta": {
    "timestamp": "2022-11-15T07:03:20.320670Z",
    "stations_updated": "2022-09-05"
  },
  "altimeter": {
    "repr": "A3052",
    "value": 30.52,
    "spoken": "three zero point five two"
  },
  "clouds": [
    {
      "repr": "FEW004",
      "type": "FEW",
      "altitude": 4,
      "modifier": null
    }
  ],
  "flight_rules": "MVFR",
  "other": [],
  "visibility": {
    "repr": "5",
    "value": 5,
    "spoken": "five"
  },
  "wind_direction": {
    "repr": "000",
    "value": 0,
    "spoken": "zero zero zero"
  },
  "wind_gust": null,
  "wind_speed": {
    "repr": "00",
    "value": 0,
    "spoken": "zero"
  },
  "wx_codes": [
    {
      "repr": "BR",
      "value": "Mist"
    },
    {
      "repr": "BCFG",
      "value": "Patchy Fog"
    }
  ],
  "raw": "KNUW 150653Z 00000KT 5SM BR BCFG FEW004 01/00 A3052 RMK AO2 SLP333 T00060000 VISNO $",
  "sanitized": "KNUW 150653Z 00000KT 5SM BR BCFG FEW004 01/00 A3052 RMK AO2 SLP333 T00060000 VISNO $",
  "station": "KNUW",
  "time": {
    "repr": "150653Z",
    "dt": "2022-11-15T06:53:00Z"
  },
  "remarks": "RMK AO2 SLP333 T00060000 VISNO $",
  "dewpoint": {
    "repr": "00",
    "value": 0,
    "spoken": "zero"
  },
  "relative_humidity": 0.9574966857850682,
  "remarks_info": {
    "maximum_temperature_6": null,
    "minimum_temperature_6": null,
    "pressure_tendency": null,
    "precip_36_hours": null,
    "precip_24_hours": null,
    "sunshine_minutes": null,
    "codes": [
      {
        "repr": "$",
        "value": "ASOS requires maintenance"
      },
      {
        "repr": "AO2",
        "value": "Automated with precipitation sensor"
      }
    ],
    "dewpoint_decimal": {
      "repr": "0000",
      "value": 0,
      "spoken": "zero"
    },
    "maximum_temperature_24": null,
    "minimum_temperature_24": null,
    "precip_hourly": null,
    "sea_level_pressure": {
      "repr": "SLP333",
      "value": 1033.3,
      "spoken": "one zero three three point three"
    },
    "snow_depth": null,
    "temperature_decimal": {
      "repr": "0006",
      "value": 0.6,
      "spoken": "zero point six"
    }
  },
  "runway_visibility": [],
  "temperature": {
    "repr": "01",
    "value": 1,
    "spoken": "one"
  },
  "wind_variable_direction": [],
  "density_altitude": -2270,
  "pressure_altitude": -553,
  "units": {
    "accumulation": "in",
    "altimeter": "inHg",
    "altitude": "ft",
    "temperature": "C",
    "visibility": "sm",
    "wind_speed": "kt"
  }
}
