{
  "altimeter": {
    "repr": "A3024",
    "spoken": "three zero point two four",
    "value": 30.24
  },
  "clouds": [
    {
      "altitude": 60,
      "modifier": null,
      "repr": "SCT060",
      "type": "SCT"
    },
    {
      "altitude": 180,
      "modifier": null,
      "repr": "BKN180",
      "type": "BKN"
    }
  ],
  "density_altitude": -1198,
  "dewpoint": {
    "repr": "07",
    "spoken": "seven",
    "value": 7
  },
  "flight_rules": "VFR",
  "meta": {
    "stations_updated": "2024-06-12",
    "timestamp": "2024-09-21T14:01:58.175749Z"
  },
  "other": [],
  "pressure_altitude": -273,
  "raw": "KNUW 211353Z 10002KT 7SM MIFG SCT060 BKN180 07/07 A3024 RMK SLP257 T00720067",
  "relative_humidity": 0.9662838843819482,
  "remarks": "RMK SLP257 T00720067",
  "remarks_info": {
    "codes": [],
    "dewpoint_decimal": {
      "repr": "0067",
      "spoken": "six point seven",
      "value": 6.7
    },
    "maximum_temperature_24": null,
    "maximum_temperature_6": null,
    "minimum_temperature_24": null,
    "minimum_temperature_6": null,
    "precip_24_hours": null,
    "precip_36_hours": null,
    "precip_hourly": null,
    "pressure_tendency": null,
    "sea_level_pressure": {
      "repr": "SLP257",
      "spoken": "one zero two five point seven",
      "value": 1025.7
    },
    "snow_depth": null,
    "sunshine_minutes": null,
    "temperature_decimal": {
      "repr": "0072",
      "spoken": "seven point two",
      "value": 7.2
    }
  },
  "runway_visibility": [],
  "sanitized": "KNUW 211353Z 10002KT 7SM MIFG SCT060 BKN180 07/07 A3024 RMK SLP257 T00720067",
  "station": "KNUW",
  "temperature": {
    "repr": "07",
    "spoken": "seven",
    "value": 7
  },
  "time": {
    "dt": "2024-09-21T13:53:00Z",
    "repr": "211353Z"
  },
  "units": {
    "accumulation": "in",
    "altimeter": "inHg",
    "altitude": "ft",
    "temperature": "C",
    "visibility": "sm",
    "wind_speed": "kt"
  },
  "visibility": {
    "repr": "7",
    "spoken": "seven",
    "value": 7
  },
  "wind_direction": {
    "repr": "100",
    "spoken": "one zero zero",
    "value": 100
  },
  "wind_gust": null,
  "wind_speed": {
    "repr": "02",
    "spoken": "two",
    "value": 2
  },
  "wind_variable_direction": [],
  "wx_codes": [
    {
      "repr": "MIFG",
      "value": "Shallow Fog"
    }
  ]
}
