{
  "meta": {
    "timestamp": "2022-12-16T06:30:34.773631Z",
    "stations_updated": "2022-09-05"
  },
  "altimeter": {
    "repr": "A3055",
    "value": 30.55,
    "spoken": "three zero point five five"
  },
  "clouds": [
    {
      "repr": "SCT016",
      "type": "SCT",
      "altitude": 16,
      "modifier": null
    },
    {
      "repr": "SCT250",
      "type": "SCT",
      "altitude": 250,
      "modifier": null
    }
  ],
  "flight_rules": "VFR",
  "other": [],
  "visibility": {
    "repr": "10",
    "value": 10,
    "spoken": "one zero"
  },
  "wind_direction": {
    "repr": "000",
    "value": 0,
    "spoken": "zero zero zero"
  },
  "wind_gust": null,
  "wind_speed": {
    "repr": "00",
    "value": 0,
    "spoken": "zero"
  },
  "wx_codes": [],
  "raw": "KNUW 160553Z 00000KT 10SM SCT016 SCT250 01/00 A3055 RMK AO2 SLP345 T00110000 10050 21006 50006 VISNO $",
  "sanitized": "KNUW 160553Z 00000KT 10SM SCT016 SCT250 01/00 A3055 RMK AO2 SLP345 T00110000 10050 21006 50006 VISNO $",
  "station": "KNUW",
  "time": {
    "repr": "160553Z",
    "dt": "2022-12-16T05:53:00Z"
  },
  "remarks": "RMK AO2 SLP345 T00110000 10050 21006 50006 VISNO $",
  "dewpoint": {
    "repr": "00",
    "value": 0,
    "spoken": "zero"
  },
  "relative_humidity": 0.9236108706295763,
  "remarks_info": {
    "maximum_temperature_6": {
      "repr": "10050",
      "value": 5,
      "spoken": "five point zero"
    },
    "minimum_temperature_6": {
      "repr": "21006",
      "value": -0.6,
      "spoken": "minus zero point six"
    },
    "pressure_tendency": {
      "repr": "50006",
      "tendency": "Increasing, then decreasing",
      "change": 0.6
    },
    "precip_36_hours": null,
    "precip_24_hours": null,
    "sunshine_minutes": null,
    "codes": [
      {
        "repr": "$",
        "value": "ASOS requires maintenance"
      },
      {
        "repr": "AO2",
        "value": "Automated with precipitation sensor"
      }
    ],
    "dewpoint_decimal": {
      "repr": "0000",
      "value": 0,
      "spoken": "zero"
    },
    "maximum_temperature_24": null,
    "minimum_temperature_24": null,
    "precip_hourly": null,
    "sea_level_pressure": {
      "repr": "SLP345",
      "value": 1034.5,
      "spoken": "one zero three four point five"
    },
    "snow_depth": null,
    "temperature_decimal": {
      "repr": "0011",
      "value": 1.1,
      "spoken": "one point one"
    }
  },
  "runway_visibility": [],
  "temperature": {
    "repr": "01",
    "value": 1,
    "spoken": "one"
  },
  "wind_variable_direction": [],
  "density_altitude": -2240,
  "pressure_altitude": -583,
  "units": {
    "accumulation": "in",
    "altimeter": "inHg",
    "altitude": "ft",
    "temperature": "C",
    "visibility": "sm",
    "wind_speed": "kt"
  }
}
