{
  "meta": {
    "timestamp": "2022-12-27T14:24:51.815553Z",
    "stations_updated": "2022-09-05"
  },
  "altimeter": {
    "repr": "A2886",
    "value": 28.86,
    "spoken": "two eight point eight six"
  },
  "clouds": [
    {
      "repr": "SCT050",
      "type": "SCT",
      "altitude": 50,
      "modifier": null
    },
    {
      "repr": "BKN070",
      "type": "BKN",
      "altitude": 70,
      "modifier": null
    },
    {
      "repr": "OVC110",
      "type": "OVC",
      "altitude": 110,
      "modifier": null
    }
  ],
  "flight_rules": "VFR",
  "other": [],
  "visibility": {
    "repr": "6",
    "value": 6,
    "spoken": "six"
  },
  "wind_direction": {
    "repr": "130",
    "value": 130,
    "spoken": "one three zero"
  },
  "wind_gust": {
    "repr": "27",
    "value": 27,
    "spoken": "two seven"
  },
  "wind_speed": {
    "repr": "21",
    "value": 21,
    "spoken": "two one"
  },
  "wx_codes": [
    {
      "repr": "-RA",
      "value": "Light Rain"
    },
    {
      "repr": "BR",
      "value": "Mist"
    }
  ],
  "raw": "KNUW 271353Z 13021G27KT 6SM -RA BR SCT050 BKN070 OVC110 11/08 A2886 RMK AO2 PK WND 13032/1331 RAE10B31 SLP773 P0001 T01110083 VISNO $",
  "sanitized": "KNUW 271353Z 13021G27KT 6SM -RA BR SCT050 BKN070 OVC110 11/08 A2886 RMK AO2 PK WND 13032/1331 RAE10B31 SLP773 P0001 T01110083 VISNO $",
  "station": "KNUW",
  "time": {
    "repr": "271353Z",
    "dt": "2022-12-27T13:53:00Z"
  },
  "remarks": "RMK AO2 PK WND 13032/1331 RAE10B31 SLP773 P0001 T01110083 VISNO $",
  "dewpoint": {
    "repr": "08",
    "value": 8,
    "spoken": "eight"
  },
  "relative_humidity": 0.8286786978983101,
  "remarks_info": {
    "maximum_temperature_6": null,
    "minimum_temperature_6": null,
    "pressure_tendency": null,
    "precip_36_hours": null,
    "precip_24_hours": null,
    "sunshine_minutes": null,
    "codes": [
      {
        "repr": "$",
        "value": "ASOS requires maintenance"
      },
      {
        "repr": "AO2",
        "value": "Automated with precipitation sensor"
      }
    ],
    "dewpoint_decimal": {
      "repr": "0083",
      "value": 8.3,
      "spoken": "eight point three"
    },
    "maximum_temperature_24": null,
    "minimum_temperature_24": null,
    "precip_hourly": {
      "repr": "P0001",
      "value": 0.01,
      "spoken": "zero point zero one"
    },
    "sea_level_pressure": {
      "repr": "SLP773",
      "value": 977.3,
      "spoken": "nine seven seven point three"
    },
    "snow_depth": null,
    "temperature_decimal": {
      "repr": "0111",
      "value": 11.1,
      "spoken": "one one point one"
    }
  },
  "runway_visibility": [],
  "temperature": {
    "repr": "11",
    "value": 11,
    "spoken": "one one"
  },
  "wind_variable_direction": [],
  "density_altitude": 650,
  "pressure_altitude": 1107,
  "units": {
    "accumulation": "in",
    "altimeter": "inHg",
    "altitude": "ft",
    "temperature": "C",
    "visibility": "sm",
    "wind_speed": "kt"
  }
}
