{
  "meta": {
    "timestamp": "2022-11-25T12:50:44.914742Z",
    "stations_updated": "2022-09-05"
  },
  "altimeter": {
    "repr": "A3015",
    "value": 30.15,
    "spoken": "three zero point one five"
  },
  "clouds": [
    {
      "repr": "FEW046",
      "type": "FEW",
      "altitude": 46,
      "modifier": null
    },
    {
      "repr": "OVC090",
      "type": "OVC",
      "altitude": 90,
      "modifier": null
    }
  ],
  "flight_rules": "VFR",
  "other": [],
  "visibility": {
    "repr": "10",
    "value": 10,
    "spoken": "one zero"
  },
  "wind_direction": {
    "repr": "150",
    "value": 150,
    "spoken": "one five zero"
  },
  "wind_gust": null,
  "wind_speed": {
    "repr": "06",
    "value": 6,
    "spoken": "six"
  },
  "wx_codes": [],
  "raw": "KNUW 251153Z AUTO 15006KT 10SM FEW046 OVC090 09/04 A3015 RMK AO2 SLP208 T00940044 10100 20050 55008 VISNO $",
  "sanitized": "KNUW 251153Z 15006KT 10SM FEW046 OVC090 09/04 A3015 RMK AO2 SLP208 T00940044 10100 20050 55008 VISNO $",
  "station": "KNUW",
  "time": {
    "repr": "251153Z",
    "dt": "2022-11-25T11:53:00Z"
  },
  "remarks": "RMK AO2 SLP208 T00940044 10100 20050 55008 VISNO $",
  "dewpoint": {
    "repr": "04",
    "value": 4,
    "spoken": "four"
  },
  "relative_humidity": 0.7095339265701289,
  "remarks_info": {
    "maximum_temperature_6": {
      "repr": "10100",
      "value": 10,
      "spoken": "one zero point zero"
    },
    "minimum_temperature_6": {
      "repr": "20050",
      "value": 5,
      "spoken": "five point zero"
    },
    "pressure_tendency": {
      "repr": "55008",
      "tendency": "Decreasing, then increasing",
      "change": 0.8
    },
    "precip_36_hours": null,
    "precip_24_hours": null,
    "sunshine_minutes": null,
    "codes": [
      {
        "repr": "$",
        "value": "ASOS requires maintenance"
      },
      {
        "repr": "AO2",
        "value": "Automated with precipitation sensor"
      }
    ],
    "dewpoint_decimal": {
      "repr": "0044",
      "value": 4.4,
      "spoken": "four point four"
    },
    "maximum_temperature_24": null,
    "minimum_temperature_24": null,
    "precip_hourly": null,
    "sea_level_pressure": {
      "repr": "SLP208",
      "value": 1020.8,
      "spoken": "one zero two zero point eight"
    },
    "snow_depth": null,
    "temperature_decimal": {
      "repr": "0094",
      "value": 9.4,
      "spoken": "nine point four"
    }
  },
  "runway_visibility": [],
  "temperature": {
    "repr": "09",
    "value": 9,
    "spoken": "nine"
  },
  "wind_variable_direction": [],
  "density_altitude": -844,
  "pressure_altitude": -183,
  "units": {
    "accumulation": "in",
    "altimeter": "inHg",
    "altitude": "ft",
    "temperature": "C",
    "visibility": "sm",
    "wind_speed": "kt"
  }
}
