{
  "meta": {
    "timestamp": "2023-10-21T18:02:51.421785Z",
    "stations_updated": "2023-10-01",
    "cache-timestamp": "2023-10-21T18:02:02.827000Z"
  },
  "altimeter": {
    "repr": "A2992",
    "value": 29.92,
    "spoken": "two nine point nine two"
  },
  "clouds": [
    {
      "repr": "SCT009",
      "type": "SCT",
      "altitude": 9,
      "modifier": null
    },
    {
      "repr": "BKN015",
      "type": "BKN",
      "altitude": 15,
      "modifier": null
    }
  ],
  "flight_rules": "IFR",
  "other": [],
  "visibility": {
    "repr": "3/2",
    "value": 1.5,
    "spoken": "one and one half",
    "numerator": 3,
    "denominator": 2,
    "normalized": "1 1/2"
  },
  "wind_direction": {
    "repr": "320",
    "value": 320,
    "spoken": "three two zero"
  },
  "wind_gust": null,
  "wind_speed": {
    "repr": "04",
    "value": 4,
    "spoken": "four"
  },
  "wx_codes": [
    {
      "repr": "BR",
      "value": "Mist"
    }
  ],
  "raw": "KNUW 211753Z 32004KT 1 1/2SM BR SCT009 BKN015 11/11 A2992 RMK AO2 SFC VIS 4 SLP137 T01110111 10117 20111 50002 $",
  "sanitized": "KNUW 211753Z 32004KT 1 1/2SM BR SCT009 BKN015 11/11 A2992 RMK AO2 SFC VIS 4 SLP137 T01110111 10117 20111 50002 $",
  "station": "KNUW",
  "time": {
    "repr": "211753Z",
    "dt": "2023-10-21T17:53:00Z"
  },
  "remarks": "RMK AO2 SFC VIS 4 SLP137 T01110111 10117 20111 50002 $",
  "dewpoint": {
    "repr": "11",
    "value": 11,
    "spoken": "one one"
  },
  "relative_humidity": 1,
  "remarks_info": {
    "maximum_temperature_6": {
      "repr": "10117",
      "value": 11.7,
      "spoken": "one one point seven"
    },
    "minimum_temperature_6": {
      "repr": "20111",
      "value": 11.1,
      "spoken": "one one point one"
    },
    "pressure_tendency": {
      "repr": "50002",
      "tendency": "Increasing, then decreasing",
      "change": 0.2
    },
    "precip_36_hours": null,
    "precip_24_hours": null,
    "sunshine_minutes": null,
    "codes": [
      {
        "repr": "$",
        "value": "ASOS requires maintenance"
      },
      {
        "repr": "AO2",
        "value": "Automated with precipitation sensor"
      }
    ],
    "dewpoint_decimal": {
      "repr": "0111",
      "value": 11.1,
      "spoken": "one one point one"
    },
    "maximum_temperature_24": null,
    "minimum_temperature_24": null,
    "precip_hourly": null,
    "sea_level_pressure": {
      "repr": "SLP137",
      "value": 1013.7,
      "spoken": "one zero one three point seven"
    },
    "snow_depth": null,
    "temperature_decimal": {
      "repr": "0111",
      "value": 11.1,
      "spoken": "one one point one"
    }
  },
  "runway_visibility": [],
  "temperature": {
    "repr": "11",
    "value": 11,
    "spoken": "one one"
  },
  "wind_variable_direction": [],
  "density_altitude": -410,
  "pressure_altitude": 47,
  "units": {
    "accumulation": "in",
    "altimeter": "inHg",
    "altitude": "ft",
    "temperature": "C",
    "visibility": "sm",
    "wind_speed": "kt"
  }
}
