{
  "meta": {
    "timestamp": "2022-11-19T11:01:39.917097Z",
    "stations_updated": "2022-09-05"
  },
  "altimeter": {
    "repr": "A3043",
    "value": 30.43,
    "spoken": "three zero point four three"
  },
  "clouds": [],
  "flight_rules": "VFR",
  "other": [],
  "visibility": {
    "repr": "10",
    "value": 10,
    "spoken": "one zero"
  },
  "wind_direction": {
    "repr": "130",
    "value": 130,
    "spoken": "one three zero"
  },
  "wind_gust": null,
  "wind_speed": {
    "repr": "05",
    "value": 5,
    "spoken": "five"
  },
  "wx_codes": [],
  "raw": "KNUW 191053Z 13005KT 10SM CLR M03/M05 A3043 RMK AO2 SLP303 T10281050 VISNO $",
  "sanitized": "KNUW 191053Z 13005KT 10SM M03/M05 A3043 RMK AO2 SLP303 T10281050 VISNO $",
  "station": "KNUW",
  "time": {
    "repr": "191053Z",
    "dt": "2022-11-19T10:53:00Z"
  },
  "remarks": "RMK AO2 SLP303 T10281050 VISNO $",
  "dewpoint": {
    "repr": "M05",
    "value": -5,
    "spoken": "minus five"
  },
  "relative_humidity": 0.8479871693406942,
  "remarks_info": {
    "maximum_temperature_6": null,
    "minimum_temperature_6": null,
    "pressure_tendency": null,
    "precip_36_hours": null,
    "precip_24_hours": null,
    "sunshine_minutes": null,
    "codes": [
      {
        "repr": "$",
        "value": "ASOS requires maintenance"
      },
      {
        "repr": "AO2",
        "value": "Automated with precipitation sensor"
      }
    ],
    "dewpoint_decimal": {
      "repr": "1050",
      "value": -5,
      "spoken": "minus five point zero"
    },
    "maximum_temperature_24": null,
    "minimum_temperature_24": null,
    "precip_hourly": null,
    "sea_level_pressure": {
      "repr": "SLP303",
      "value": 1030.3,
      "spoken": "one zero three zero point three"
    },
    "snow_depth": null,
    "temperature_decimal": {
      "repr": "1028",
      "value": -2.8,
      "spoken": "minus two point eight"
    }
  },
  "runway_visibility": [],
  "temperature": {
    "repr": "M03",
    "value": -3,
    "spoken": "minus three"
  },
  "wind_variable_direction": [],
  "density_altitude": -2588,
  "pressure_altitude": -463,
  "units": {
    "accumulation": "in",
    "altimeter": "inHg",
    "altitude": "ft",
    "temperature": "C",
    "visibility": "sm",
    "wind_speed": "kt"
  }
}
