{
  "altimeter": {
    "repr": "A2920",
    "spoken": "two nine point two zero",
    "value": 29.2
  },
  "clouds": [
    {
      "altitude": 27,
      "modifier": null,
      "repr": "FEW027",
      "type": "FEW"
    },
    {
      "altitude": 36,
      "modifier": null,
      "repr": "OVC036",
      "type": "OVC"
    }
  ],
  "density_altitude": -86,
  "dewpoint": {
    "repr": "06",
    "spoken": "six",
    "value": 6
  },
  "flight_rules": "VFR",
  "meta": {
    "stations_updated": "2024-12-02",
    "timestamp": "2024-12-26T11:23:58.314915Z"
  },
  "other": [],
  "pressure_altitude": 767,
  "raw": "KNUW 261053Z AUTO 11021G33KT 7SM -RA FEW027 OVC036 08/06 A2920 RMK AO2 PK WND 13036/1015 SLP892 P0001 T00780056 $",
  "relative_humidity": 0.859663717525656,
  "remarks": "RMK AO2 PK WND 13036/1015 SLP892 P0001 T00780056 $",
  "remarks_info": {
    "codes": [
      {
        "repr": "$",
        "value": "ASOS requires maintenance"
      },
      {
        "repr": "AO2",
        "value": "Automated with precipitation sensor"
      }
    ],
    "dewpoint_decimal": {
      "repr": "0056",
      "spoken": "five point six",
      "value": 5.6
    },
    "maximum_temperature_24": null,
    "maximum_temperature_6": null,
    "minimum_temperature_24": null,
    "minimum_temperature_6": null,
    "precip_24_hours": null,
    "precip_36_hours": null,
    "precip_hourly": {
      "repr": "P0001",
      "spoken": "zero point zero one",
      "value": 0.01
    },
    "pressure_tendency": null,
    "sea_level_pressure": {
      "repr": "SLP892",
      "spoken": "nine eight nine point two",
      "value": 989.2
    },
    "snow_depth": null,
    "sunshine_minutes": null,
    "temperature_decimal": {
      "repr": "0078",
      "spoken": "seven point eight",
      "value": 7.8
    }
  },
  "runway_visibility": [],
  "sanitized": "KNUW 261053Z 11021G33KT 7SM -RA FEW027 OVC036 08/06 A2920 RMK AO2 PK WND 13036/1015 SLP892 P0001 T00780056 $",
  "station": "KNUW",
  "temperature": {
    "repr": "08",
    "spoken": "eight",
    "value": 8
  },
  "time": {
    "dt": "2024-12-26T10:53:00Z",
    "repr": "261053Z"
  },
  "units": {
    "accumulation": "in",
    "altimeter": "inHg",
    "altitude": "ft",
    "temperature": "C",
    "visibility": "sm",
    "wind_speed": "kt"
  },
  "visibility": {
    "repr": "7",
    "spoken": "seven",
    "value": 7
  },
  "wind_direction": {
    "repr": "110",
    "spoken": "one one zero",
    "value": 110
  },
  "wind_gust": {
    "repr": "33",
    "spoken": "three three",
    "value": 33
  },
  "wind_speed": {
    "repr": "21",
    "spoken": "two one",
    "value": 21
  },
  "wind_variable_direction": [],
  "wx_codes": [
    {
      "repr": "-RA",
      "value": "Light Rain"
    }
  ]
}
