{
  "meta": {
    "timestamp": "2023-04-28T21:20:45.420517Z",
    "stations_updated": "2023-03-11",
    "cache-timestamp": "2023-04-28T21:20:06.527000Z"
  },
  "altimeter": {
    "repr": "A2999",
    "value": 29.99,
    "spoken": "two nine point nine nine"
  },
  "clouds": [],
  "flight_rules": "VFR",
  "other": [],
  "visibility": {
    "repr": "10",
    "value": 10,
    "spoken": "one zero"
  },
  "wind_direction": {
    "repr": "260",
    "value": 260,
    "spoken": "two six zero"
  },
  "wind_gust": null,
  "wind_speed": {
    "repr": "07",
    "value": 7,
    "spoken": "seven"
  },
  "wx_codes": [],
  "raw": "KNUW 282053Z 26007KT 10SM CLR 14/08 A2999 RMK AO2 SLP161 T01440083 58024 VISNO $",
  "sanitized": "KNUW 282053Z 26007KT 10SM 14/08 A2999 RMK AO2 SLP161 T01440083 58024 VISNO $",
  "station": "KNUW",
  "time": {
    "repr": "282053Z",
    "dt": "2023-04-28T20:53:00Z"
  },
  "remarks": "RMK AO2 SLP161 T01440083 58024 VISNO $",
  "dewpoint": {
    "repr": "08",
    "value": 8,
    "spoken": "eight"
  },
  "relative_humidity": 0.6675342296720513,
  "remarks_info": {
    "maximum_temperature_6": null,
    "minimum_temperature_6": null,
    "pressure_tendency": {
      "repr": "58024",
      "tendency": "Steady or increasing, then decreasing",
      "change": 2.4
    },
    "precip_36_hours": null,
    "precip_24_hours": null,
    "sunshine_minutes": null,
    "codes": [
      {
        "repr": "$",
        "value": "ASOS requires maintenance"
      },
      {
        "repr": "AO2",
        "value": "Automated with precipitation sensor"
      }
    ],
    "dewpoint_decimal": {
      "repr": "0083",
      "value": 8.3,
      "spoken": "eight point three"
    },
    "maximum_temperature_24": null,
    "minimum_temperature_24": null,
    "precip_hourly": null,
    "sea_level_pressure": {
      "repr": "SLP161",
      "value": 1016.1,
      "spoken": "one zero one six point one"
    },
    "snow_depth": null,
    "temperature_decimal": {
      "repr": "0144",
      "value": 14.4,
      "spoken": "one four point four"
    }
  },
  "runway_visibility": [],
  "temperature": {
    "repr": "14",
    "value": 14,
    "spoken": "one four"
  },
  "wind_variable_direction": [],
  "density_altitude": -84,
  "pressure_altitude": -23,
  "units": {
    "accumulation": "in",
    "altimeter": "inHg",
    "altitude": "ft",
    "temperature": "C",
    "visibility": "sm",
    "wind_speed": "kt"
  }
}
