{
  "altimeter": {
    "repr": "A3013",
    "spoken": "three zero point one three",
    "value": 30.13
  },
  "clouds": [
    {
      "altitude": 26,
      "modifier": null,
      "repr": "FEW026",
      "type": "FEW"
    },
    {
      "altitude": 35,
      "modifier": null,
      "repr": "SCT035",
      "type": "SCT"
    },
    {
      "altitude": 65,
      "modifier": null,
      "repr": "SCT065",
      "type": "SCT"
    },
    {
      "altitude": 250,
      "modifier": null,
      "repr": "BKN250",
      "type": "BKN"
    }
  ],
  "density_altitude": -824,
  "dewpoint": {
    "repr": "04",
    "spoken": "four",
    "value": 4
  },
  "flight_rules": "VFR",
  "meta": {
    "stations_updated": "2023-10-28",
    "timestamp": "2024-01-04T23:24:04.476336Z"
  },
  "other": [],
  "pressure_altitude": -163,
  "raw": "KNUW 042253Z 22008KT 10SM FEW026 SCT035 SCT065 BKN250 09/04 A3013 RMK AO2 WSHFT 2213 SLP206 T00940039 $",
  "relative_humidity": 0.6850766702695293,
  "remarks": "RMK AO2 WSHFT 2213 SLP206 T00940039 $",
  "remarks_info": {
    "codes": [
      {
        "repr": "$",
        "value": "ASOS requires maintenance"
      },
      {
        "repr": "AO2",
        "value": "Automated with precipitation sensor"
      }
    ],
    "dewpoint_decimal": {
      "repr": "0039",
      "spoken": "three point nine",
      "value": 3.9
    },
    "maximum_temperature_24": null,
    "maximum_temperature_6": null,
    "minimum_temperature_24": null,
    "minimum_temperature_6": null,
    "precip_24_hours": null,
    "precip_36_hours": null,
    "precip_hourly": null,
    "pressure_tendency": null,
    "sea_level_pressure": {
      "repr": "SLP206",
      "spoken": "one zero two zero point six",
      "value": 1020.6
    },
    "snow_depth": null,
    "sunshine_minutes": null,
    "temperature_decimal": {
      "repr": "0094",
      "spoken": "nine point four",
      "value": 9.4
    }
  },
  "runway_visibility": [],
  "sanitized": "KNUW 042253Z 22008KT 10SM FEW026 SCT035 SCT065 BKN250 09/04 A3013 RMK AO2 WSHFT 2213 SLP206 T00940039 $",
  "station": "KNUW",
  "temperature": {
    "repr": "09",
    "spoken": "nine",
    "value": 9
  },
  "time": {
    "dt": "2024-01-04T22:53:00Z",
    "repr": "042253Z"
  },
  "units": {
    "accumulation": "in",
    "altimeter": "inHg",
    "altitude": "ft",
    "temperature": "C",
    "visibility": "sm",
    "wind_speed": "kt"
  },
  "visibility": {
    "repr": "10",
    "spoken": "one zero",
    "value": 10
  },
  "wind_direction": {
    "repr": "220",
    "spoken": "two two zero",
    "value": 220
  },
  "wind_gust": null,
  "wind_speed": {
    "repr": "08",
    "spoken": "eight",
    "value": 8
  },
  "wind_variable_direction": [],
  "wx_codes": []
}
