{
  "meta": {
    "timestamp": "2023-04-01T20:40:40.719345Z",
    "stations_updated": "2023-03-11",
    "cache-timestamp": "2023-04-01T20:40:04.338000Z"
  },
  "altimeter": {
    "repr": "A2990",
    "value": 29.9,
    "spoken": "two nine point nine zero"
  },
  "clouds": [
    {
      "repr": "SCT025",
      "type": "SCT",
      "altitude": 25,
      "modifier": null
    },
    {
      "repr": "SCT035",
      "type": "SCT",
      "altitude": 35,
      "modifier": null
    },
    {
      "repr": "BKN110",
      "type": "BKN",
      "altitude": 110,
      "modifier": null
    },
    {
      "repr": "BKN220",
      "type": "BKN",
      "altitude": 220,
      "modifier": null
    }
  ],
  "flight_rules": "VFR",
  "other": [],
  "visibility": {
    "repr": "10",
    "value": 10,
    "spoken": "one zero"
  },
  "wind_direction": {
    "repr": "270",
    "value": 270,
    "spoken": "two seven zero"
  },
  "wind_gust": null,
  "wind_speed": {
    "repr": "12",
    "value": 12,
    "spoken": "one two"
  },
  "wx_codes": [],
  "raw": "KNUW 011953Z 27012KT 10SM SCT025 SCT035 BKN110 BKN220 08/02 A2990 RMK AO2 SLP130 T00780022 VISNO $",
  "sanitized": "KNUW 011953Z 27012KT 10SM SCT025 SCT035 BKN110 BKN220 08/02 A2990 RMK AO2 SLP130 T00780022 VISNO $",
  "station": "KNUW",
  "time": {
    "repr": "011953Z",
    "dt": "2023-04-01T19:53:00Z"
  },
  "remarks": "RMK AO2 SLP130 T00780022 VISNO $",
  "dewpoint": {
    "repr": "02",
    "value": 2,
    "spoken": "two"
  },
  "relative_humidity": 0.6768979803645736,
  "remarks_info": {
    "maximum_temperature_6": null,
    "minimum_temperature_6": null,
    "pressure_tendency": null,
    "precip_36_hours": null,
    "precip_24_hours": null,
    "sunshine_minutes": null,
    "codes": [
      {
        "repr": "$",
        "value": "ASOS requires maintenance"
      },
      {
        "repr": "AO2",
        "value": "Automated with precipitation sensor"
      }
    ],
    "dewpoint_decimal": {
      "repr": "0022",
      "value": 2.2,
      "spoken": "two point two"
    },
    "maximum_temperature_24": null,
    "minimum_temperature_24": null,
    "precip_hourly": null,
    "sea_level_pressure": {
      "repr": "SLP130",
      "value": 1013,
      "spoken": "one zero one three point zero"
    },
    "snow_depth": null,
    "temperature_decimal": {
      "repr": "0078",
      "value": 7.8,
      "spoken": "seven point eight"
    }
  },
  "runway_visibility": [],
  "temperature": {
    "repr": "08",
    "value": 8,
    "spoken": "eight"
  },
  "wind_variable_direction": [],
  "density_altitude": -786,
  "pressure_altitude": 67,
  "units": {
    "accumulation": "in",
    "altimeter": "inHg",
    "altitude": "ft",
    "temperature": "C",
    "visibility": "sm",
    "wind_speed": "kt"
  }
}
