{
  "meta": {
    "timestamp": "2023-04-08T14:40:36.919569Z",
    "stations_updated": "2023-03-11",
    "cache-timestamp": "2023-04-08T14:40:07.084000Z"
  },
  "altimeter": {
    "repr": "A2987",
    "value": 29.87,
    "spoken": "two nine point eight seven"
  },
  "clouds": [
    {
      "repr": "SCT025",
      "type": "SCT",
      "altitude": 25,
      "modifier": null
    },
    {
      "repr": "SCT045",
      "type": "SCT",
      "altitude": 45,
      "modifier": null
    },
    {
      "repr": "BKN120",
      "type": "BKN",
      "altitude": 120,
      "modifier": null
    }
  ],
  "flight_rules": "VFR",
  "other": [],
  "visibility": {
    "repr": "10",
    "value": 10,
    "spoken": "one zero"
  },
  "wind_direction": {
    "repr": "150",
    "value": 150,
    "spoken": "one five zero"
  },
  "wind_gust": {
    "repr": "38",
    "value": 38,
    "spoken": "three eight"
  },
  "wind_speed": {
    "repr": "26",
    "value": 26,
    "spoken": "two six"
  },
  "wx_codes": [],
  "raw": "KNUW 081353Z COR 15026G38KT 10SM SCT025 SCT045 BKN120 09/03 A2987 RMK AO2 PK WND 15039/1343 SLP118 P0000 T00890033 VISNO $",
  "sanitized": "KNUW 081353Z 15026G38KT 10SM SCT025 SCT045 BKN120 09/03 A2987 RMK AO2 PK WND 15039/1343 SLP118 P0000 T00890033 VISNO $",
  "station": "KNUW",
  "time": {
    "repr": "081353Z",
    "dt": "2023-04-08T13:53:00Z"
  },
  "remarks": "RMK AO2 PK WND 15039/1343 SLP118 P0000 T00890033 VISNO $",
  "dewpoint": {
    "repr": "03",
    "value": 3,
    "spoken": "three"
  },
  "relative_humidity": 0.6792253715775652,
  "remarks_info": {
    "maximum_temperature_6": null,
    "minimum_temperature_6": null,
    "pressure_tendency": null,
    "precip_36_hours": null,
    "precip_24_hours": null,
    "sunshine_minutes": null,
    "codes": [
      {
        "repr": "$",
        "value": "ASOS requires maintenance"
      },
      {
        "repr": "AO2",
        "value": "Automated with precipitation sensor"
      },
      {
        "repr": "P0000",
        "value": "Trace amount of rain in the last hour"
      }
    ],
    "dewpoint_decimal": {
      "repr": "0033",
      "value": 3.3,
      "spoken": "three point three"
    },
    "maximum_temperature_24": null,
    "minimum_temperature_24": null,
    "precip_hourly": null,
    "sea_level_pressure": {
      "repr": "SLP118",
      "value": 1011.8,
      "spoken": "one zero one one point eight"
    },
    "snow_depth": null,
    "temperature_decimal": {
      "repr": "0089",
      "value": 8.9,
      "spoken": "eight point nine"
    }
  },
  "runway_visibility": [],
  "temperature": {
    "repr": "09",
    "value": 9,
    "spoken": "nine"
  },
  "wind_variable_direction": [],
  "density_altitude": -624,
  "pressure_altitude": 97,
  "units": {
    "accumulation": "in",
    "altimeter": "inHg",
    "altitude": "ft",
    "temperature": "C",
    "visibility": "sm",
    "wind_speed": "kt"
  }
}
