{
  "meta": {
    "timestamp": "2022-12-11T13:11:42.917713Z",
    "stations_updated": "2022-09-05"
  },
  "altimeter": {
    "repr": "A2968",
    "value": 29.68,
    "spoken": "two nine point six eight"
  },
  "clouds": [
    {
      "repr": "BKN011",
      "type": "BKN",
      "altitude": 11,
      "modifier": null
    },
    {
      "repr": "OVC014",
      "type": "OVC",
      "altitude": 14,
      "modifier": null
    }
  ],
  "flight_rules": "MVFR",
  "other": [],
  "visibility": {
    "repr": "10",
    "value": 10,
    "spoken": "one zero"
  },
  "wind_direction": {
    "repr": "090",
    "value": 90,
    "spoken": "zero nine zero"
  },
  "wind_gust": null,
  "wind_speed": {
    "repr": "06",
    "value": 6,
    "spoken": "six"
  },
  "wx_codes": [],
  "raw": "KNUW 111253Z 09006KT 10SM BKN011 OVC014 07/05 A2968 RMK AO2 SLP051 T00670050 VISNO $",
  "sanitized": "KNUW 111253Z 09006KT 10SM BKN011 OVC014 07/05 A2968 RMK AO2 SLP051 T00670050 VISNO $",
  "station": "KNUW",
  "time": {
    "repr": "111253Z",
    "dt": "2022-12-11T12:53:00Z"
  },
  "remarks": "RMK AO2 SLP051 T00670050 VISNO $",
  "dewpoint": {
    "repr": "05",
    "value": 5,
    "spoken": "five"
  },
  "relative_humidity": 0.8890122546203816,
  "remarks_info": {
    "maximum_temperature_6": null,
    "minimum_temperature_6": null,
    "pressure_tendency": null,
    "precip_36_hours": null,
    "precip_24_hours": null,
    "sunshine_minutes": null,
    "codes": [
      {
        "repr": "$",
        "value": "ASOS requires maintenance"
      },
      {
        "repr": "AO2",
        "value": "Automated with precipitation sensor"
      }
    ],
    "dewpoint_decimal": {
      "repr": "0050",
      "value": 5,
      "spoken": "five point zero"
    },
    "maximum_temperature_24": null,
    "minimum_temperature_24": null,
    "precip_hourly": null,
    "sea_level_pressure": {
      "repr": "SLP051",
      "value": 1005.1,
      "spoken": "one zero zero five point one"
    },
    "snow_depth": null,
    "temperature_decimal": {
      "repr": "0067",
      "value": 6.7,
      "spoken": "six point seven"
    }
  },
  "runway_visibility": [],
  "temperature": {
    "repr": "07",
    "value": 7,
    "spoken": "seven"
  },
  "wind_variable_direction": [],
  "density_altitude": -698,
  "pressure_altitude": 287,
  "units": {
    "accumulation": "in",
    "altimeter": "inHg",
    "altitude": "ft",
    "temperature": "C",
    "visibility": "sm",
    "wind_speed": "kt"
  }
}
