{
  "meta": {
    "timestamp": "2022-08-27T12:11:54.380695Z",
    "stations_updated": "2022-07-17"
  },
  "altimeter": {
    "repr": "A2996",
    "value": 29.96,
    "spoken": "two nine point nine six"
  },
  "clouds": [
    {
      "repr": "SCT030",
      "type": "SCT",
      "altitude": 30,
      "modifier": null
    },
    {
      "repr": "BKN055",
      "type": "BKN",
      "altitude": 55,
      "modifier": null
    }
  ],
  "flight_rules": "VFR",
  "other": [],
  "visibility": {
    "repr": "10",
    "value": 10,
    "spoken": "one zero"
  },
  "wind_direction": {
    "repr": "200",
    "value": 200,
    "spoken": "two zero zero"
  },
  "wind_gust": null,
  "wind_speed": {
    "repr": "05",
    "value": 5,
    "spoken": "five"
  },
  "wx_codes": [],
  "raw": "KNUW 271153Z 20005KT 10SM SCT030 BKN055 13/11 A2996 RMK SLP145 T01330111 10139 20128 58001",
  "sanitized": "KNUW 271153Z 20005KT 10SM SCT030 BKN055 13/11 A2996 RMK SLP145 T01330111 10139 20128 58001",
  "station": "KNUW",
  "time": {
    "repr": "271153Z",
    "dt": "2022-08-27T11:53:00Z"
  },
  "remarks": "RMK SLP145 T01330111 10139 20128 58001",
  "dewpoint": {
    "repr": "11",
    "value": 11,
    "spoken": "one one"
  },
  "relative_humidity": 0.8652137135915917,
  "remarks_info": {
    "maximum_temperature_6": {
      "repr": "10139",
      "value": 13.9,
      "spoken": "one three point nine"
    },
    "minimum_temperature_6": {
      "repr": "20128",
      "value": 12.8,
      "spoken": "one two point eight"
    },
    "pressure_tendency": {
      "repr": "58001",
      "tendency": "Steady or increasing, then decreasing",
      "change": 0.1
    },
    "precip_36_hours": null,
    "precip_24_hours": null,
    "sunshine_minutes": null,
    "codes": [],
    "dewpoint_decimal": {
      "repr": "0111",
      "value": 11.1,
      "spoken": "one one point one"
    },
    "maximum_temperature_24": null,
    "minimum_temperature_24": null,
    "precip_hourly": null,
    "sea_level_pressure": {
      "repr": "SLP145",
      "value": 1014.5,
      "spoken": "one zero one four point five"
    },
    "snow_depth": null,
    "temperature_decimal": {
      "repr": "0133",
      "value": 13.3,
      "spoken": "one three point three"
    }
  },
  "runway_visibility": [],
  "temperature": {
    "repr": "13",
    "value": 13,
    "spoken": "one three"
  },
  "wind_variable_direction": [],
  "density_altitude": -186,
  "pressure_altitude": 7,
  "units": {
    "accumulation": "in",
    "altimeter": "inHg",
    "altitude": "ft",
    "temperature": "C",
    "visibility": "sm",
    "wind_speed": "kt"
  }
}
