{
  "meta": {
    "timestamp": "2023-10-27T20:40:29.583975Z",
    "stations_updated": "2023-10-01",
    "cache-timestamp": "2023-10-27T20:40:03.751000Z"
  },
  "altimeter": {
    "repr": "A3043",
    "value": 30.43,
    "spoken": "three zero point four three"
  },
  "clouds": [
    {
      "repr": "FEW025",
      "type": "FEW",
      "altitude": 25,
      "modifier": null
    }
  ],
  "flight_rules": "VFR",
  "other": [],
  "visibility": {
    "repr": "10",
    "value": 10,
    "spoken": "one zero"
  },
  "wind_direction": {
    "repr": "010",
    "value": 10,
    "spoken": "zero one zero"
  },
  "wind_gust": null,
  "wind_speed": {
    "repr": "07",
    "value": 7,
    "spoken": "seven"
  },
  "wx_codes": [],
  "raw": "KNUW 271953Z 01007KT 10SM FEW025 09/M07 A3043 RMK AO2 SLP309 T00941067 $",
  "sanitized": "KNUW 271953Z 01007KT 10SM FEW025 09/M07 A3043 RMK AO2 SLP309 T00941067 $",
  "station": "KNUW",
  "time": {
    "repr": "271953Z",
    "dt": "2023-10-27T19:53:00Z"
  },
  "remarks": "RMK AO2 SLP309 T00941067 $",
  "dewpoint": {
    "repr": "M07",
    "value": -7,
    "spoken": "minus seven"
  },
  "relative_humidity": 0.31451390979716837,
  "remarks_info": {
    "maximum_temperature_6": null,
    "minimum_temperature_6": null,
    "pressure_tendency": null,
    "precip_36_hours": null,
    "precip_24_hours": null,
    "sunshine_minutes": null,
    "codes": [
      {
        "repr": "$",
        "value": "ASOS requires maintenance"
      },
      {
        "repr": "AO2",
        "value": "Automated with precipitation sensor"
      }
    ],
    "dewpoint_decimal": {
      "repr": "1067",
      "value": -6.7,
      "spoken": "minus six point seven"
    },
    "maximum_temperature_24": null,
    "minimum_temperature_24": null,
    "precip_hourly": null,
    "sea_level_pressure": {
      "repr": "SLP309",
      "value": 1030.9,
      "spoken": "one zero three zero point nine"
    },
    "snow_depth": null,
    "temperature_decimal": {
      "repr": "0094",
      "value": 9.4,
      "spoken": "nine point four"
    }
  },
  "runway_visibility": [],
  "temperature": {
    "repr": "09",
    "value": 9,
    "spoken": "nine"
  },
  "wind_variable_direction": [],
  "density_altitude": -1124,
  "pressure_altitude": -463,
  "units": {
    "accumulation": "in",
    "altimeter": "inHg",
    "altitude": "ft",
    "temperature": "C",
    "visibility": "sm",
    "wind_speed": "kt"
  }
}
