{
  "meta": {
    "timestamp": "2022-10-10T15:43:47.150070Z",
    "stations_updated": "2022-09-05"
  },
  "altimeter": {
    "repr": "A3010",
    "value": 30.1,
    "spoken": "three zero point one zero"
  },
  "clouds": [],
  "flight_rules": "MVFR",
  "other": [],
  "visibility": {
    "repr": "4",
    "value": 4,
    "spoken": "four"
  },
  "wind_direction": {
    "repr": "130",
    "value": 130,
    "spoken": "one three zero"
  },
  "wind_gust": null,
  "wind_speed": {
    "repr": "05",
    "value": 5,
    "spoken": "five"
  },
  "wx_codes": [
    {
      "repr": "BR",
      "value": "Mist"
    }
  ],
  "raw": "KNUW 101453Z AUTO 13005KT 4SM BR CLR 10/09 A3010 RMK AO2 SLP190 T01000094 55002 $",
  "sanitized": "KNUW 101453Z 13005KT 4SM BR 10/09 A3010 RMK AO2 SLP190 T01000094 55002 $",
  "station": "KNUW",
  "time": {
    "repr": "101453Z",
    "dt": "2022-10-10T14:53:00Z"
  },
  "remarks": "RMK AO2 SLP190 T01000094 55002 $",
  "dewpoint": {
    "repr": "09",
    "value": 9,
    "spoken": "nine"
  },
  "relative_humidity": 0.9605319898773285,
  "remarks_info": {
    "maximum_temperature_6": null,
    "minimum_temperature_6": null,
    "pressure_tendency": {
      "repr": "55002",
      "tendency": "Decreasing, then increasing",
      "change": 0.2
    },
    "precip_36_hours": null,
    "precip_24_hours": null,
    "sunshine_minutes": null,
    "codes": [
      {
        "repr": "$",
        "value": "ASOS requires maintenance"
      },
      {
        "repr": "AO2",
        "value": "Automated with precipitation sensor"
      }
    ],
    "dewpoint_decimal": {
      "repr": "0094",
      "value": 9.4,
      "spoken": "nine point four"
    },
    "maximum_temperature_24": null,
    "minimum_temperature_24": null,
    "precip_hourly": null,
    "sea_level_pressure": {
      "repr": "SLP190",
      "value": 1019,
      "spoken": "one zero one nine point zero"
    },
    "snow_depth": null,
    "temperature_decimal": {
      "repr": "0100",
      "value": 10,
      "spoken": "one zero point zero"
    }
  },
  "runway_visibility": [],
  "temperature": {
    "repr": "10",
    "value": 10,
    "spoken": "one zero"
  },
  "wind_variable_direction": [],
  "density_altitude": -722,
  "pressure_altitude": -133,
  "units": {
    "accumulation": "in",
    "altimeter": "inHg",
    "altitude": "ft",
    "temperature": "C",
    "visibility": "sm",
    "wind_speed": "kt"
  }
}
