{
  "altimeter": {
    "repr": "A3048",
    "spoken": "three zero point four eight",
    "value": 30.48
  },
  "clouds": [
    {
      "altitude": 150,
      "modifier": null,
      "repr": "BKN150",
      "type": "BKN"
    },
    {
      "altitude": 230,
      "modifier": null,
      "repr": "BKN230",
      "type": "BKN"
    }
  ],
  "density_altitude": -1030,
  "dewpoint": {
    "repr": "02",
    "spoken": "two",
    "value": 2
  },
  "flight_rules": "VFR",
  "meta": {
    "stations_updated": "2023-10-28",
    "timestamp": "2023-11-20T21:21:59.315805Z"
  },
  "other": [],
  "pressure_altitude": -513,
  "raw": "KNUW 202053Z 01007KT 10SM BKN150 BKN230 11/02 A3048 RMK AO2 SLP326 T01060017 56018 $",
  "relative_humidity": 0.5408511980493674,
  "remarks": "RMK AO2 SLP326 T01060017 56018 $",
  "remarks_info": {
    "codes": [
      {
        "repr": "$",
        "value": "ASOS requires maintenance"
      },
      {
        "repr": "AO2",
        "value": "Automated with precipitation sensor"
      }
    ],
    "dewpoint_decimal": {
      "repr": "0017",
      "spoken": "one point seven",
      "value": 1.7
    },
    "maximum_temperature_24": null,
    "maximum_temperature_6": null,
    "minimum_temperature_24": null,
    "minimum_temperature_6": null,
    "precip_24_hours": null,
    "precip_36_hours": null,
    "precip_hourly": null,
    "pressure_tendency": {
      "change": 1.8,
      "repr": "56018",
      "tendency": "Decreasing, then steady"
    },
    "sea_level_pressure": {
      "repr": "SLP326",
      "spoken": "one zero three two point six",
      "value": 1032.6
    },
    "snow_depth": null,
    "sunshine_minutes": null,
    "temperature_decimal": {
      "repr": "0106",
      "spoken": "one zero point six",
      "value": 10.6
    }
  },
  "runway_visibility": [],
  "sanitized": "KNUW 202053Z 01007KT 10SM BKN150 BKN230 11/02 A3048 RMK AO2 SLP326 T01060017 56018 $",
  "station": "KNUW",
  "temperature": {
    "repr": "11",
    "spoken": "one one",
    "value": 11
  },
  "time": {
    "dt": "2023-11-20T20:53:00Z",
    "repr": "202053Z"
  },
  "units": {
    "accumulation": "in",
    "altimeter": "inHg",
    "altitude": "ft",
    "temperature": "C",
    "visibility": "sm",
    "wind_speed": "kt"
  },
  "visibility": {
    "repr": "10",
    "spoken": "one zero",
    "value": 10
  },
  "wind_direction": {
    "repr": "010",
    "spoken": "zero one zero",
    "value": 10
  },
  "wind_gust": null,
  "wind_speed": {
    "repr": "07",
    "spoken": "seven",
    "value": 7
  },
  "wind_variable_direction": [],
  "wx_codes": []
}
