{
  "altimeter": {
    "repr": "A3024",
    "spoken": "three zero point two four",
    "value": 30.24
  },
  "clouds": [
    {
      "altitude": 40,
      "modifier": null,
      "repr": "FEW040",
      "type": "FEW"
    },
    {
      "altitude": 65,
      "modifier": null,
      "repr": "SCT065",
      "type": "SCT"
    }
  ],
  "density_altitude": -1858,
  "dewpoint": {
    "repr": "M02",
    "spoken": "minus two",
    "value": -2
  },
  "flight_rules": "VFR",
  "meta": {
    "cache-timestamp": "2024-02-16T09:02:03Z",
    "stations_updated": "2024-01-01",
    "timestamp": "2024-02-16T09:02:44.369772Z"
  },
  "other": [],
  "pressure_altitude": -273,
  "raw": "KNUW 160753Z COR 07005KT 10SM FEW040 SCT065 02/M02 A3024 RMK SLP244 T00171022 400610017",
  "relative_humidity": 0.7530598902566881,
  "remarks": "RMK SLP244 T00171022 400610017",
  "remarks_info": {
    "codes": [],
    "dewpoint_decimal": {
      "repr": "1022",
      "spoken": "minus two point two",
      "value": -2.2
    },
    "maximum_temperature_24": {
      "repr": "0061",
      "spoken": "six point one",
      "value": 6.1
    },
    "maximum_temperature_6": null,
    "minimum_temperature_24": {
      "repr": "0017",
      "spoken": "one point seven",
      "value": 1.7
    },
    "minimum_temperature_6": null,
    "precip_24_hours": null,
    "precip_36_hours": null,
    "precip_hourly": null,
    "pressure_tendency": null,
    "sea_level_pressure": {
      "repr": "SLP244",
      "spoken": "one zero two four point four",
      "value": 1024.4
    },
    "snow_depth": null,
    "sunshine_minutes": null,
    "temperature_decimal": {
      "repr": "0017",
      "spoken": "one point seven",
      "value": 1.7
    }
  },
  "runway_visibility": [],
  "sanitized": "KNUW 160753Z 07005KT 10SM FEW040 SCT065 02/M02 A3024 RMK SLP244 T00171022 400610017",
  "station": "KNUW",
  "temperature": {
    "repr": "02",
    "spoken": "two",
    "value": 2
  },
  "time": {
    "dt": "2024-02-16T07:53:00Z",
    "repr": "160753Z"
  },
  "units": {
    "accumulation": "in",
    "altimeter": "inHg",
    "altitude": "ft",
    "temperature": "C",
    "visibility": "sm",
    "wind_speed": "kt"
  },
  "visibility": {
    "repr": "10",
    "spoken": "one zero",
    "value": 10
  },
  "wind_direction": {
    "repr": "070",
    "spoken": "zero seven zero",
    "value": 70
  },
  "wind_gust": null,
  "wind_speed": {
    "repr": "05",
    "spoken": "five",
    "value": 5
  },
  "wind_variable_direction": [],
  "wx_codes": []
}
