{
  "altimeter": {
    "repr": "A2947",
    "spoken": "two nine point four seven",
    "value": 29.47
  },
  "clouds": [
    {
      "altitude": 23,
      "modifier": null,
      "repr": "SCT023",
      "type": "SCT"
    },
    {
      "altitude": 50,
      "modifier": null,
      "repr": "BKN050",
      "type": "BKN"
    },
    {
      "altitude": 100,
      "modifier": null,
      "repr": "BKN100",
      "type": "BKN"
    },
    {
      "altitude": 200,
      "modifier": null,
      "repr": "BKN200",
      "type": "BKN"
    }
  ],
  "density_altitude": 172,
  "dewpoint": {
    "repr": "09",
    "spoken": "nine",
    "value": 9
  },
  "flight_rules": "VFR",
  "meta": {
    "stations_updated": "2024-10-29",
    "timestamp": "2024-11-13T21:40:33.149661Z"
  },
  "other": [],
  "pressure_altitude": 497,
  "raw": "KNUW 132112Z 15023G43KT 10SM SCT023 BKN050 BKN100 BKN200 12/09 A2947 RMK AO2 PK WND 14043/2058 T01220089 $",
  "relative_humidity": 0.8025160760123711,
  "remarks": "RMK AO2 PK WND 14043/2058 T01220089 $",
  "remarks_info": {
    "codes": [
      {
        "repr": "$",
        "value": "ASOS requires maintenance"
      },
      {
        "repr": "AO2",
        "value": "Automated with precipitation sensor"
      }
    ],
    "dewpoint_decimal": {
      "repr": "0089",
      "spoken": "eight point nine",
      "value": 8.9
    },
    "maximum_temperature_24": null,
    "maximum_temperature_6": null,
    "minimum_temperature_24": null,
    "minimum_temperature_6": null,
    "precip_24_hours": null,
    "precip_36_hours": null,
    "precip_hourly": null,
    "pressure_tendency": null,
    "sea_level_pressure": null,
    "snow_depth": null,
    "sunshine_minutes": null,
    "temperature_decimal": {
      "repr": "0122",
      "spoken": "one two point two",
      "value": 12.2
    }
  },
  "runway_visibility": [],
  "sanitized": "KNUW 132112Z 15023G43KT 10SM SCT023 BKN050 BKN100 BKN200 12/09 A2947 RMK AO2 PK WND 14043/2058 T01220089 $",
  "station": "KNUW",
  "temperature": {
    "repr": "12",
    "spoken": "one two",
    "value": 12
  },
  "time": {
    "dt": "2024-11-13T21:12:00Z",
    "repr": "132112Z"
  },
  "units": {
    "accumulation": "in",
    "altimeter": "inHg",
    "altitude": "ft",
    "temperature": "C",
    "visibility": "sm",
    "wind_speed": "kt"
  },
  "visibility": {
    "repr": "10",
    "spoken": "one zero",
    "value": 10
  },
  "wind_direction": {
    "repr": "150",
    "spoken": "one five zero",
    "value": 150
  },
  "wind_gust": {
    "repr": "43",
    "spoken": "four three",
    "value": 43
  },
  "wind_speed": {
    "repr": "23",
    "spoken": "two three",
    "value": 23
  },
  "wind_variable_direction": [],
  "wx_codes": []
}
