{
  "meta": {
    "timestamp": "2022-12-13T16:52:15.653926Z",
    "stations_updated": "2022-09-05"
  },
  "altimeter": {
    "repr": "A3027",
    "value": 30.27,
    "spoken": "three zero point two seven"
  },
  "clouds": [
    {
      "repr": "SCT025",
      "type": "SCT",
      "altitude": 25,
      "modifier": null
    },
    {
      "repr": "BKN035",
      "type": "BKN",
      "altitude": 35,
      "modifier": null
    }
  ],
  "flight_rules": "VFR",
  "other": [],
  "visibility": {
    "repr": "10",
    "value": 10,
    "spoken": "one zero"
  },
  "wind_direction": {
    "repr": "130",
    "value": 130,
    "spoken": "one three zero"
  },
  "wind_gust": null,
  "wind_speed": {
    "repr": "04",
    "value": 4,
    "spoken": "four"
  },
  "wx_codes": [],
  "raw": "KNUW 131553Z 13004KT 10SM SCT025 BKN035 02/01 A3027 RMK AO2 SLP250 T00220011 VISNO $",
  "sanitized": "KNUW 131553Z 13004KT 10SM SCT025 BKN035 02/01 A3027 RMK AO2 SLP250 T00220011 VISNO $",
  "station": "KNUW",
  "time": {
    "repr": "131553Z",
    "dt": "2022-12-13T15:53:00Z"
  },
  "remarks": "RMK AO2 SLP250 T00220011 VISNO $",
  "dewpoint": {
    "repr": "01",
    "value": 1,
    "spoken": "one"
  },
  "relative_humidity": 0.9242682769225287,
  "remarks_info": {
    "maximum_temperature_6": null,
    "minimum_temperature_6": null,
    "pressure_tendency": null,
    "precip_36_hours": null,
    "precip_24_hours": null,
    "sunshine_minutes": null,
    "codes": [
      {
        "repr": "$",
        "value": "ASOS requires maintenance"
      },
      {
        "repr": "AO2",
        "value": "Automated with precipitation sensor"
      }
    ],
    "dewpoint_decimal": {
      "repr": "0011",
      "value": 1.1,
      "spoken": "one point one"
    },
    "maximum_temperature_24": null,
    "minimum_temperature_24": null,
    "precip_hourly": null,
    "sea_level_pressure": {
      "repr": "SLP250",
      "value": 1025,
      "spoken": "one zero two five point zero"
    },
    "snow_depth": null,
    "temperature_decimal": {
      "repr": "0022",
      "value": 2.2,
      "spoken": "two point two"
    }
  },
  "runway_visibility": [],
  "temperature": {
    "repr": "02",
    "value": 2,
    "spoken": "two"
  },
  "wind_variable_direction": [],
  "density_altitude": -1828,
  "pressure_altitude": -303,
  "units": {
    "accumulation": "in",
    "altimeter": "inHg",
    "altitude": "ft",
    "temperature": "C",
    "visibility": "sm",
    "wind_speed": "kt"
  }
}
