{
  "meta": {
    "timestamp": "2023-03-01T17:41:08.347203Z",
    "stations_updated": "2023-01-30"
  },
  "altimeter": {
    "repr": "A3005",
    "value": 30.05,
    "spoken": "three zero point zero five"
  },
  "clouds": [
    {
      "repr": "SCT008",
      "type": "SCT",
      "altitude": 8,
      "modifier": null
    },
    {
      "repr": "BKN020",
      "type": "BKN",
      "altitude": 20,
      "modifier": null
    },
    {
      "repr": "OVC025",
      "type": "OVC",
      "altitude": 25,
      "modifier": null
    }
  ],
  "flight_rules": "MVFR",
  "other": [],
  "visibility": {
    "repr": "10",
    "value": 10,
    "spoken": "one zero"
  },
  "wind_direction": {
    "repr": "120",
    "value": 120,
    "spoken": "one two zero"
  },
  "wind_gust": null,
  "wind_speed": {
    "repr": "08",
    "value": 8,
    "spoken": "eight"
  },
  "wx_codes": [],
  "raw": "KNUW 011653Z 12008KT 10SM SCT008 BKN020 OVC025 02/01 A3005 RMK SLP181 T00170006",
  "sanitized": "KNUW 011653Z 12008KT 10SM SCT008 BKN020 OVC025 02/01 A3005 RMK SLP181 T00170006",
  "station": "KNUW",
  "time": {
    "repr": "011653Z",
    "dt": "2023-03-01T16:53:00Z"
  },
  "remarks": "RMK SLP181 T00170006",
  "dewpoint": {
    "repr": "01",
    "value": 1,
    "spoken": "one"
  },
  "relative_humidity": 0.9239704971399328,
  "remarks_info": {
    "maximum_temperature_6": null,
    "minimum_temperature_6": null,
    "pressure_tendency": null,
    "precip_36_hours": null,
    "precip_24_hours": null,
    "sunshine_minutes": null,
    "codes": [],
    "dewpoint_decimal": {
      "repr": "0006",
      "value": 0.6,
      "spoken": "zero point six"
    },
    "maximum_temperature_24": null,
    "minimum_temperature_24": null,
    "precip_hourly": null,
    "sea_level_pressure": {
      "repr": "SLP181",
      "value": 1018.1,
      "spoken": "one zero one eight point one"
    },
    "snow_depth": null,
    "temperature_decimal": {
      "repr": "0017",
      "value": 1.7,
      "spoken": "one point seven"
    }
  },
  "runway_visibility": [],
  "temperature": {
    "repr": "02",
    "value": 2,
    "spoken": "two"
  },
  "wind_variable_direction": [],
  "density_altitude": -1668,
  "pressure_altitude": -83,
  "units": {
    "accumulation": "in",
    "altimeter": "inHg",
    "altitude": "ft",
    "temperature": "C",
    "visibility": "sm",
    "wind_speed": "kt"
  }
}
