{
  "meta": {
    "timestamp": "2023-08-18T06:06:30.636516Z",
    "stations_updated": "2023-08-05",
    "cache-timestamp": "2023-08-18T06:06:03.329000Z"
  },
  "altimeter": {
    "repr": "A2975",
    "value": 29.75,
    "spoken": "two nine point seven five"
  },
  "clouds": [
    {
      "repr": "FEW250",
      "type": "FEW",
      "altitude": 250,
      "modifier": null
    }
  ],
  "flight_rules": "VFR",
  "other": [],
  "visibility": {
    "repr": "8",
    "value": 8,
    "spoken": "eight"
  },
  "wind_direction": {
    "repr": "240",
    "value": 240,
    "spoken": "two four zero"
  },
  "wind_gust": {
    "repr": "23",
    "value": 23,
    "spoken": "two three"
  },
  "wind_speed": {
    "repr": "16",
    "value": 16,
    "spoken": "one six"
  },
  "wx_codes": [],
  "raw": "KNUW 180553Z 24016G23KT 8SM FEW250 14/12 A2975 RMK AO2 SLP077 T01390117 10178 20133 51001 VISNO $",
  "sanitized": "KNUW 180553Z 24016G23KT 8SM FEW250 14/12 A2975 RMK AO2 SLP077 T01390117 10178 20133 51001 VISNO $",
  "station": "KNUW",
  "time": {
    "repr": "180553Z",
    "dt": "2023-08-18T05:53:00Z"
  },
  "remarks": "RMK AO2 SLP077 T01390117 10178 20133 51001 VISNO $",
  "dewpoint": {
    "repr": "12",
    "value": 12,
    "spoken": "one two"
  },
  "relative_humidity": 0.8657997265283152,
  "remarks_info": {
    "maximum_temperature_6": {
      "repr": "10178",
      "value": 17.8,
      "spoken": "one seven point eight"
    },
    "minimum_temperature_6": {
      "repr": "20133",
      "value": 13.3,
      "spoken": "one three point three"
    },
    "pressure_tendency": {
      "repr": "51001",
      "tendency": "Increasing, then steady",
      "change": 0.1
    },
    "precip_36_hours": null,
    "precip_24_hours": null,
    "sunshine_minutes": null,
    "codes": [
      {
        "repr": "$",
        "value": "ASOS requires maintenance"
      },
      {
        "repr": "AO2",
        "value": "Automated with precipitation sensor"
      }
    ],
    "dewpoint_decimal": {
      "repr": "0117",
      "value": 11.7,
      "spoken": "one one point seven"
    },
    "maximum_temperature_24": null,
    "minimum_temperature_24": null,
    "precip_hourly": null,
    "sea_level_pressure": {
      "repr": "SLP077",
      "value": 1007.7,
      "spoken": "one zero zero seven point seven"
    },
    "snow_depth": null,
    "temperature_decimal": {
      "repr": "0139",
      "value": 13.9,
      "spoken": "one three point nine"
    }
  },
  "runway_visibility": [],
  "temperature": {
    "repr": "14",
    "value": 14,
    "spoken": "one four"
  },
  "wind_variable_direction": [],
  "density_altitude": 96,
  "pressure_altitude": 217,
  "units": {
    "accumulation": "in",
    "altimeter": "inHg",
    "altitude": "ft",
    "temperature": "C",
    "visibility": "sm",
    "wind_speed": "kt"
  }
}
