{
  "meta": {
    "timestamp": "2022-08-04T11:41:10.442437Z",
    "stations_updated": "2022-07-17"
  },
  "altimeter": {
    "repr": "A2997",
    "value": 29.97,
    "spoken": "two nine point nine seven"
  },
  "clouds": [
    {
      "repr": "FEW015",
      "type": "FEW",
      "altitude": 15,
      "modifier": null
    },
    {
      "repr": "BKN023",
      "type": "BKN",
      "altitude": 23,
      "modifier": null
    },
    {
      "repr": "OVC028",
      "type": "OVC",
      "altitude": 28,
      "modifier": null
    }
  ],
  "flight_rules": "MVFR",
  "other": [],
  "visibility": {
    "repr": "10",
    "value": 10,
    "spoken": "one zero"
  },
  "wind_direction": {
    "repr": "240",
    "value": 240,
    "spoken": "two four zero"
  },
  "wind_gust": null,
  "wind_speed": {
    "repr": "05",
    "value": 5,
    "spoken": "five"
  },
  "wx_codes": [],
  "raw": "KNUW 041053Z 24005KT 10SM FEW015 BKN023 OVC028 13/13 A2997 RMK RAE0958 SLP149 P0000 T01330128",
  "sanitized": "KNUW 041053Z 24005KT 10SM FEW015 BKN023 OVC028 13/13 A2997 RMK RAE0958 SLP149 P0000 T01330128",
  "station": "KNUW",
  "time": {
    "repr": "041053Z",
    "dt": "2022-08-04T10:53:00Z"
  },
  "remarks": "RMK RAE0958 SLP149 P0000 T01330128",
  "dewpoint": {
    "repr": "13",
    "value": 13,
    "spoken": "one three"
  },
  "relative_humidity": 0.9678424058447498,
  "remarks_info": {
    "maximum_temperature_6": null,
    "minimum_temperature_6": null,
    "pressure_tendency": null,
    "precip_36_hours": null,
    "precip_24_hours": null,
    "sunshine_minutes": null,
    "codes": [
      {
        "repr": "P0000",
        "value": "Trace amount of rain in the last hour"
      }
    ],
    "dewpoint_decimal": {
      "repr": "0128",
      "value": 12.8,
      "spoken": "one two point eight"
    },
    "maximum_temperature_24": null,
    "minimum_temperature_24": null,
    "precip_hourly": null,
    "sea_level_pressure": {
      "repr": "SLP149",
      "value": 1014.9,
      "spoken": "one zero one four point nine"
    },
    "snow_depth": null,
    "temperature_decimal": {
      "repr": "0133",
      "value": 13.3,
      "spoken": "one three point three"
    }
  },
  "runway_visibility": [],
  "temperature": {
    "repr": "13",
    "value": 13,
    "spoken": "one three"
  },
  "wind_variable_direction": [],
  "density_altitude": -196,
  "pressure_altitude": -3,
  "units": {
    "accumulation": "in",
    "altimeter": "inHg",
    "altitude": "ft",
    "temperature": "C",
    "visibility": "sm",
    "wind_speed": "kt"
  }
}
