{
  "meta": {
    "timestamp": "2023-03-15T03:40:41.644710Z",
    "stations_updated": "2023-03-11",
    "cache-timestamp": "2023-03-15T03:40:05.891000Z"
  },
  "altimeter": {
    "repr": "A2971",
    "value": 29.71,
    "spoken": "two nine point seven one"
  },
  "clouds": [
    {
      "repr": "FEW035",
      "type": "FEW",
      "altitude": 35,
      "modifier": null
    },
    {
      "repr": "BKN100",
      "type": "BKN",
      "altitude": 100,
      "modifier": null
    },
    {
      "repr": "BKN250",
      "type": "BKN",
      "altitude": 250,
      "modifier": null
    }
  ],
  "flight_rules": "VFR",
  "other": [],
  "visibility": {
    "repr": "10",
    "value": 10,
    "spoken": "one zero"
  },
  "wind_direction": {
    "repr": "270",
    "value": 270,
    "spoken": "two seven zero"
  },
  "wind_gust": null,
  "wind_speed": {
    "repr": "09",
    "value": 9,
    "spoken": "nine"
  },
  "wx_codes": [],
  "raw": "KNUW 150253Z 27009KT 10SM FEW035 BKN100 BKN250 07/03 A2971 RMK SLP063 T00720028 53001",
  "sanitized": "KNUW 150253Z 27009KT 10SM FEW035 BKN100 BKN250 07/03 A2971 RMK SLP063 T00720028 53001",
  "station": "KNUW",
  "time": {
    "repr": "150253Z",
    "dt": "2023-03-15T02:53:00Z"
  },
  "remarks": "RMK SLP063 T00720028 53001",
  "dewpoint": {
    "repr": "03",
    "value": 3,
    "spoken": "three"
  },
  "relative_humidity": 0.7359463252875809,
  "remarks_info": {
    "maximum_temperature_6": null,
    "minimum_temperature_6": null,
    "pressure_tendency": {
      "repr": "53001",
      "tendency": "Decreasing or steady, then increasing",
      "change": 0.1
    },
    "precip_36_hours": null,
    "precip_24_hours": null,
    "sunshine_minutes": null,
    "codes": [],
    "dewpoint_decimal": {
      "repr": "0028",
      "value": 2.8,
      "spoken": "two point eight"
    },
    "maximum_temperature_24": null,
    "minimum_temperature_24": null,
    "precip_hourly": null,
    "sea_level_pressure": {
      "repr": "SLP063",
      "value": 1006.3,
      "spoken": "one zero zero six point three"
    },
    "snow_depth": null,
    "temperature_decimal": {
      "repr": "0072",
      "value": 7.2,
      "spoken": "seven point two"
    }
  },
  "runway_visibility": [],
  "temperature": {
    "repr": "07",
    "value": 7,
    "spoken": "seven"
  },
  "wind_variable_direction": [],
  "density_altitude": -668,
  "pressure_altitude": 257,
  "units": {
    "accumulation": "in",
    "altimeter": "inHg",
    "altitude": "ft",
    "temperature": "C",
    "visibility": "sm",
    "wind_speed": "kt"
  }
}
