{
  "meta": {
    "timestamp": "2022-12-21T01:54:10.254937Z",
    "stations_updated": "2022-09-05"
  },
  "altimeter": {
    "repr": "A3022",
    "value": 30.22,
    "spoken": "three zero point two two"
  },
  "clouds": [
    {
      "repr": "BKN021",
      "type": "BKN",
      "altitude": 21,
      "modifier": null
    },
    {
      "repr": "OVC034",
      "type": "OVC",
      "altitude": 34,
      "modifier": null
    }
  ],
  "flight_rules": "MVFR",
  "other": [],
  "visibility": {
    "repr": "10",
    "value": 10,
    "spoken": "one zero"
  },
  "wind_direction": {
    "repr": "000",
    "value": 0,
    "spoken": "zero zero zero"
  },
  "wind_gust": null,
  "wind_speed": {
    "repr": "00",
    "value": 0,
    "spoken": "zero"
  },
  "wx_codes": [],
  "raw": "KNUW 210122Z AUTO 00000KT 10SM BKN021 OVC034 M02/M05 A3022 RMK AO2 SNE12 P0000 T10221050 VISNO $",
  "sanitized": "KNUW 210122Z 00000KT 10SM BKN021 OVC034 M02/M05 A3022 RMK AO2 SNE12 P0000 T10221050 VISNO $",
  "station": "KNUW",
  "time": {
    "repr": "210122Z",
    "dt": "2022-12-21T01:22:00Z"
  },
  "remarks": "RMK AO2 SNE12 P0000 T10221050 VISNO $",
  "dewpoint": {
    "repr": "M05",
    "value": -5,
    "spoken": "minus five"
  },
  "relative_humidity": 0.8111211201333303,
  "remarks_info": {
    "maximum_temperature_6": null,
    "minimum_temperature_6": null,
    "pressure_tendency": null,
    "precip_36_hours": null,
    "precip_24_hours": null,
    "sunshine_minutes": null,
    "codes": [
      {
        "repr": "$",
        "value": "ASOS requires maintenance"
      },
      {
        "repr": "AO2",
        "value": "Automated with precipitation sensor"
      },
      {
        "repr": "P0000",
        "value": "Trace amount of rain in the last hour"
      },
      {
        "repr": "SNE12",
        "value": "Snow ended at :12"
      }
    ],
    "dewpoint_decimal": {
      "repr": "1050",
      "value": -5,
      "spoken": "minus five point zero"
    },
    "maximum_temperature_24": null,
    "minimum_temperature_24": null,
    "precip_hourly": null,
    "sea_level_pressure": null,
    "snow_depth": null,
    "temperature_decimal": {
      "repr": "1022",
      "value": -2.2,
      "spoken": "minus two point two"
    }
  },
  "runway_visibility": [],
  "temperature": {
    "repr": "M02",
    "value": -2,
    "spoken": "minus two"
  },
  "wind_variable_direction": [],
  "density_altitude": -2306,
  "pressure_altitude": -253,
  "units": {
    "accumulation": "in",
    "altimeter": "inHg",
    "altitude": "ft",
    "temperature": "C",
    "visibility": "sm",
    "wind_speed": "kt"
  }
}
