{
  "altimeter": {
    "repr": "A3040",
    "spoken": "three zero point four zero",
    "value": 30.4
  },
  "clouds": [
    {
      "altitude": 10,
      "modifier": null,
      "repr": "FEW010",
      "type": "FEW"
    },
    {
      "altitude": 150,
      "modifier": null,
      "repr": "SCT150",
      "type": "SCT"
    },
    {
      "altitude": 230,
      "modifier": null,
      "repr": "OVC230",
      "type": "OVC"
    }
  ],
  "density_altitude": -1490,
  "dewpoint": {
    "repr": "03",
    "spoken": "three",
    "value": 3
  },
  "flight_rules": "VFR",
  "meta": {
    "stations_updated": "2024-12-02",
    "timestamp": "2024-12-10T21:28:17.550957Z"
  },
  "other": [],
  "pressure_altitude": -433,
  "raw": "KNUW 102053Z 00000KT 10SM FEW010 SCT150 OVC230 06/03 A3040 RMK AO2 SLP298 T00610028 57020",
  "relative_humidity": 0.7937696580662857,
  "remarks": "RMK AO2 SLP298 T00610028 57020",
  "remarks_info": {
    "codes": [
      {
        "repr": "AO2",
        "value": "Automated with precipitation sensor"
      }
    ],
    "dewpoint_decimal": {
      "repr": "0028",
      "spoken": "two point eight",
      "value": 2.8
    },
    "maximum_temperature_24": null,
    "maximum_temperature_6": null,
    "minimum_temperature_24": null,
    "minimum_temperature_6": null,
    "precip_24_hours": null,
    "precip_36_hours": null,
    "precip_hourly": null,
    "pressure_tendency": {
      "change": 2,
      "repr": "57020",
      "tendency": "Decreasing steadily or unsteadily"
    },
    "sea_level_pressure": {
      "repr": "SLP298",
      "spoken": "one zero two nine point eight",
      "value": 1029.8
    },
    "snow_depth": null,
    "sunshine_minutes": null,
    "temperature_decimal": {
      "repr": "0061",
      "spoken": "six point one",
      "value": 6.1
    }
  },
  "runway_visibility": [],
  "sanitized": "KNUW 102053Z 00000KT 10SM FEW010 SCT150 OVC230 06/03 A3040 RMK AO2 SLP298 T00610028 57020",
  "station": "KNUW",
  "temperature": {
    "repr": "06",
    "spoken": "six",
    "value": 6
  },
  "time": {
    "dt": "2024-12-10T20:53:00Z",
    "repr": "102053Z"
  },
  "units": {
    "accumulation": "in",
    "altimeter": "inHg",
    "altitude": "ft",
    "temperature": "C",
    "visibility": "sm",
    "wind_speed": "kt"
  },
  "visibility": {
    "repr": "10",
    "spoken": "one zero",
    "value": 10
  },
  "wind_direction": {
    "repr": "000",
    "spoken": "zero zero zero",
    "value": 0
  },
  "wind_gust": null,
  "wind_speed": {
    "repr": "00",
    "spoken": "zero",
    "value": 0
  },
  "wind_variable_direction": [],
  "wx_codes": []
}
