{
  "altimeter": {
    "repr": "A3042",
    "spoken": "three zero point four two",
    "value": 30.42
  },
  "clouds": [
    {
      "altitude": 100,
      "modifier": null,
      "repr": "SCT100",
      "type": "SCT"
    }
  ],
  "density_altitude": -2242,
  "dewpoint": {
    "repr": "M03",
    "spoken": "minus three",
    "value": -3
  },
  "flight_rules": "VFR",
  "meta": {
    "stations_updated": "2024-12-02",
    "timestamp": "2025-01-21T06:45:19.180741Z"
  },
  "other": [],
  "pressure_altitude": -453,
  "raw": "KNUW 210553Z AUTO 00000KT 10SM SCT100 00/M03 A3042 RMK AO2 SLP306 T00001028 10044 21011 55014 $",
  "relative_humidity": 0.8141989945776877,
  "remarks": "RMK AO2 SLP306 T00001028 10044 21011 55014 $",
  "remarks_info": {
    "codes": [
      {
        "repr": "$",
        "value": "ASOS requires maintenance"
      },
      {
        "repr": "AO2",
        "value": "Automated with precipitation sensor"
      }
    ],
    "dewpoint_decimal": {
      "repr": "1028",
      "spoken": "minus two point eight",
      "value": -2.8
    },
    "maximum_temperature_24": null,
    "maximum_temperature_6": {
      "repr": "10044",
      "spoken": "four point four",
      "value": 4.4
    },
    "minimum_temperature_24": null,
    "minimum_temperature_6": {
      "repr": "21011",
      "spoken": "minus one point one",
      "value": -1.1
    },
    "precip_24_hours": null,
    "precip_36_hours": null,
    "precip_hourly": null,
    "pressure_tendency": {
      "change": 1.4,
      "repr": "55014",
      "tendency": "Decreasing, then increasing"
    },
    "sea_level_pressure": {
      "repr": "SLP306",
      "spoken": "one zero three zero point six",
      "value": 1030.6
    },
    "snow_depth": null,
    "sunshine_minutes": null,
    "temperature_decimal": {
      "repr": "0000",
      "spoken": "zero",
      "value": 0
    }
  },
  "runway_visibility": [],
  "sanitized": "KNUW 210553Z 00000KT 10SM SCT100 00/M03 A3042 RMK AO2 SLP306 T00001028 10044 21011 55014 $",
  "station": "KNUW",
  "temperature": {
    "repr": "00",
    "spoken": "zero",
    "value": 0
  },
  "time": {
    "dt": "2025-01-21T05:53:00Z",
    "repr": "210553Z"
  },
  "units": {
    "accumulation": "in",
    "altimeter": "inHg",
    "altitude": "ft",
    "temperature": "C",
    "visibility": "sm",
    "wind_speed": "kt"
  },
  "visibility": {
    "repr": "10",
    "spoken": "one zero",
    "value": 10
  },
  "wind_direction": {
    "repr": "000",
    "spoken": "zero zero zero",
    "value": 0
  },
  "wind_gust": null,
  "wind_speed": {
    "repr": "00",
    "spoken": "zero",
    "value": 0
  },
  "wind_variable_direction": [],
  "wx_codes": []
}
