{
  "altimeter": {
    "repr": "A2968",
    "spoken": "two nine point six eight",
    "value": 29.68
  },
  "clouds": [
    {
      "altitude": 18,
      "modifier": null,
      "repr": "SCT018",
      "type": "SCT"
    },
    {
      "altitude": 50,
      "modifier": null,
      "repr": "SCT050",
      "type": "SCT"
    },
    {
      "altitude": 140,
      "modifier": null,
      "repr": "OVC140",
      "type": "OVC"
    }
  ],
  "density_altitude": -638,
  "dewpoint": {
    "repr": "04",
    "spoken": "four",
    "value": 4
  },
  "flight_rules": "VFR",
  "meta": {
    "cache-timestamp": "2024-03-28T11:40:04.853000Z",
    "stations_updated": "2024-01-01",
    "timestamp": "2024-03-28T11:40:35.325871Z"
  },
  "other": [],
  "pressure_altitude": 287,
  "raw": "KNUW 281053Z 14027G39KT 10SM SCT018 SCT050 OVC140 07/04 A2968 RMK AO2 PK WND 13039/1052 RAB25E35 SLP054 P0000 T00720039 $",
  "relative_humidity": 0.79538726181392,
  "remarks": "RMK AO2 PK WND 13039/1052 RAB25E35 SLP054 P0000 T00720039 $",
  "remarks_info": {
    "codes": [
      {
        "repr": "$",
        "value": "ASOS requires maintenance"
      },
      {
        "repr": "AO2",
        "value": "Automated with precipitation sensor"
      },
      {
        "repr": "P0000",
        "value": "Trace amount of rain in the last hour"
      }
    ],
    "dewpoint_decimal": {
      "repr": "0039",
      "spoken": "three point nine",
      "value": 3.9
    },
    "maximum_temperature_24": null,
    "maximum_temperature_6": null,
    "minimum_temperature_24": null,
    "minimum_temperature_6": null,
    "precip_24_hours": null,
    "precip_36_hours": null,
    "precip_hourly": null,
    "pressure_tendency": null,
    "sea_level_pressure": {
      "repr": "SLP054",
      "spoken": "one zero zero five point four",
      "value": 1005.4
    },
    "snow_depth": null,
    "sunshine_minutes": null,
    "temperature_decimal": {
      "repr": "0072",
      "spoken": "seven point two",
      "value": 7.2
    }
  },
  "runway_visibility": [],
  "sanitized": "KNUW 281053Z 14027G39KT 10SM SCT018 SCT050 OVC140 07/04 A2968 RMK AO2 PK WND 13039/1052 RAB25E35 SLP054 P0000 T00720039 $",
  "station": "KNUW",
  "temperature": {
    "repr": "07",
    "spoken": "seven",
    "value": 7
  },
  "time": {
    "dt": "2024-03-28T10:53:00Z",
    "repr": "281053Z"
  },
  "units": {
    "accumulation": "in",
    "altimeter": "inHg",
    "altitude": "ft",
    "temperature": "C",
    "visibility": "sm",
    "wind_speed": "kt"
  },
  "visibility": {
    "repr": "10",
    "spoken": "one zero",
    "value": 10
  },
  "wind_direction": {
    "repr": "140",
    "spoken": "one four zero",
    "value": 140
  },
  "wind_gust": {
    "repr": "39",
    "spoken": "three nine",
    "value": 39
  },
  "wind_speed": {
    "repr": "27",
    "spoken": "two seven",
    "value": 27
  },
  "wind_variable_direction": [],
  "wx_codes": []
}
