{
  "altimeter": {
    "repr": "A3025",
    "spoken": "three zero point two five",
    "value": 30.25
  },
  "clouds": [
    {
      "altitude": 170,
      "modifier": null,
      "repr": "FEW170",
      "type": "FEW"
    }
  ],
  "density_altitude": -3404,
  "dewpoint": {
    "repr": "M19",
    "spoken": "minus one nine",
    "value": -19
  },
  "flight_rules": "VFR",
  "meta": {
    "cache-timestamp": "2024-01-13T10:40:21.664000Z",
    "stations_updated": "2023-10-28",
    "timestamp": "2024-01-13T10:40:29.866365Z"
  },
  "other": [],
  "pressure_altitude": -283,
  "raw": "KNUW 130953Z 09003KT 10SM FEW170 M11/M19 A3025 RMK AO2 SLP247 T11111189 $",
  "relative_humidity": 0.5257337229391915,
  "remarks": "RMK AO2 SLP247 T11111189 $",
  "remarks_info": {
    "codes": [
      {
        "repr": "$",
        "value": "ASOS requires maintenance"
      },
      {
        "repr": "AO2",
        "value": "Automated with precipitation sensor"
      }
    ],
    "dewpoint_decimal": {
      "repr": "1189",
      "spoken": "minus one eight point nine",
      "value": -18.9
    },
    "maximum_temperature_24": null,
    "maximum_temperature_6": null,
    "minimum_temperature_24": null,
    "minimum_temperature_6": null,
    "precip_24_hours": null,
    "precip_36_hours": null,
    "precip_hourly": null,
    "pressure_tendency": null,
    "sea_level_pressure": {
      "repr": "SLP247",
      "spoken": "one zero two four point seven",
      "value": 1024.7
    },
    "snow_depth": null,
    "sunshine_minutes": null,
    "temperature_decimal": {
      "repr": "1111",
      "spoken": "minus one one point one",
      "value": -11.1
    }
  },
  "runway_visibility": [],
  "sanitized": "KNUW 130953Z 09003KT 10SM FEW170 M11/M19 A3025 RMK AO2 SLP247 T11111189 $",
  "station": "KNUW",
  "temperature": {
    "repr": "M11",
    "spoken": "minus one one",
    "value": -11
  },
  "time": {
    "dt": "2024-01-13T09:53:00Z",
    "repr": "130953Z"
  },
  "units": {
    "accumulation": "in",
    "altimeter": "inHg",
    "altitude": "ft",
    "temperature": "C",
    "visibility": "sm",
    "wind_speed": "kt"
  },
  "visibility": {
    "repr": "10",
    "spoken": "one zero",
    "value": 10
  },
  "wind_direction": {
    "repr": "090",
    "spoken": "zero nine zero",
    "value": 90
  },
  "wind_gust": null,
  "wind_speed": {
    "repr": "03",
    "spoken": "three",
    "value": 3
  },
  "wind_variable_direction": [],
  "wx_codes": []
}
