{
  "meta": {
    "timestamp": "2022-11-04T14:43:10.238946Z",
    "stations_updated": "2022-09-05"
  },
  "altimeter": {
    "repr": "A2969",
    "value": 29.69,
    "spoken": "two nine point six nine"
  },
  "clouds": [
    {
      "repr": "BKN008",
      "type": "BKN",
      "altitude": 8,
      "modifier": null
    },
    {
      "repr": "OVC026",
      "type": "OVC",
      "altitude": 26,
      "modifier": null
    }
  ],
  "flight_rules": "IFR",
  "other": [],
  "visibility": {
    "repr": "5",
    "value": 5,
    "spoken": "five"
  },
  "wind_direction": {
    "repr": "120",
    "value": 120,
    "spoken": "one two zero"
  },
  "wind_gust": {
    "repr": "24",
    "value": 24,
    "spoken": "two four"
  },
  "wind_speed": {
    "repr": "15",
    "value": 15,
    "spoken": "one five"
  },
  "wx_codes": [
    {
      "repr": "RA",
      "value": "Rain"
    },
    {
      "repr": "BR",
      "value": "Mist"
    }
  ],
  "raw": "KNUW 041400Z 12015G24KT 5SM RA BR BKN008 OVC026 09/08 A2969 RMK AO2 P0001 T00890078 VISNO $",
  "sanitized": "KNUW 041400Z 12015G24KT 5SM RA BR BKN008 OVC026 09/08 A2969 RMK AO2 P0001 T00890078 VISNO $",
  "station": "KNUW",
  "time": {
    "repr": "041400Z",
    "dt": "2022-11-04T14:00:00Z"
  },
  "remarks": "RMK AO2 P0001 T00890078 VISNO $",
  "dewpoint": {
    "repr": "08",
    "value": 8,
    "spoken": "eight"
  },
  "relative_humidity": 0.9280975124584884,
  "remarks_info": {
    "maximum_temperature_6": null,
    "minimum_temperature_6": null,
    "pressure_tendency": null,
    "precip_36_hours": null,
    "precip_24_hours": null,
    "sunshine_minutes": null,
    "codes": [
      {
        "repr": "$",
        "value": "ASOS requires maintenance"
      },
      {
        "repr": "AO2",
        "value": "Automated with precipitation sensor"
      }
    ],
    "dewpoint_decimal": {
      "repr": "0078",
      "value": 7.8,
      "spoken": "seven point eight"
    },
    "maximum_temperature_24": null,
    "minimum_temperature_24": null,
    "precip_hourly": {
      "repr": "P0001",
      "value": 0.01,
      "spoken": "zero point zero one"
    },
    "sea_level_pressure": null,
    "snow_depth": null,
    "temperature_decimal": {
      "repr": "0089",
      "value": 8.9,
      "spoken": "eight point nine"
    }
  },
  "runway_visibility": [],
  "temperature": {
    "repr": "09",
    "value": 9,
    "spoken": "nine"
  },
  "wind_variable_direction": [],
  "density_altitude": -444,
  "pressure_altitude": 277,
  "units": {
    "accumulation": "in",
    "altimeter": "inHg",
    "altitude": "ft",
    "temperature": "C",
    "visibility": "sm",
    "wind_speed": "kt"
  }
}
