{
  "altimeter": {
    "repr": "A3019",
    "spoken": "three zero point one nine",
    "value": 30.19
  },
  "clouds": [],
  "density_altitude": -548,
  "dewpoint": {
    "repr": "12",
    "spoken": "one two",
    "value": 12
  },
  "flight_rules": "VFR",
  "meta": {
    "stations_updated": "2024-06-12",
    "timestamp": "2024-08-07T06:33:24.026695Z"
  },
  "other": [],
  "pressure_altitude": -223,
  "raw": "KNUW 070553Z 24004KT 10SM CLR 12/12 A3019 RMK AO2 SLP228 T01220117 10172 20122 51008",
  "relative_humidity": 0.9675694096890608,
  "remarks": "RMK AO2 SLP228 T01220117 10172 20122 51008",
  "remarks_info": {
    "codes": [
      {
        "repr": "AO2",
        "value": "Automated with precipitation sensor"
      }
    ],
    "dewpoint_decimal": {
      "repr": "0117",
      "spoken": "one one point seven",
      "value": 11.7
    },
    "maximum_temperature_24": null,
    "maximum_temperature_6": {
      "repr": "10172",
      "spoken": "one seven point two",
      "value": 17.2
    },
    "minimum_temperature_24": null,
    "minimum_temperature_6": {
      "repr": "20122",
      "spoken": "one two point two",
      "value": 12.2
    },
    "precip_24_hours": null,
    "precip_36_hours": null,
    "precip_hourly": null,
    "pressure_tendency": {
      "change": 0.8,
      "repr": "51008",
      "tendency": "Increasing, then steady"
    },
    "sea_level_pressure": {
      "repr": "SLP228",
      "spoken": "one zero two two point eight",
      "value": 1022.8
    },
    "snow_depth": null,
    "sunshine_minutes": null,
    "temperature_decimal": {
      "repr": "0122",
      "spoken": "one two point two",
      "value": 12.2
    }
  },
  "runway_visibility": [],
  "sanitized": "KNUW 070553Z 24004KT 10SM 12/12 A3019 RMK AO2 SLP228 T01220117 10172 20122 51008",
  "station": "KNUW",
  "temperature": {
    "repr": "12",
    "spoken": "one two",
    "value": 12
  },
  "time": {
    "dt": "2024-08-07T05:53:00Z",
    "repr": "070553Z"
  },
  "units": {
    "accumulation": "in",
    "altimeter": "inHg",
    "altitude": "ft",
    "temperature": "C",
    "visibility": "sm",
    "wind_speed": "kt"
  },
  "visibility": {
    "repr": "10",
    "spoken": "one zero",
    "value": 10
  },
  "wind_direction": {
    "repr": "240",
    "spoken": "two four zero",
    "value": 240
  },
  "wind_gust": null,
  "wind_speed": {
    "repr": "04",
    "spoken": "four",
    "value": 4
  },
  "wind_variable_direction": [],
  "wx_codes": []
}
