{
  "altimeter": {
    "repr": "A3043",
    "spoken": "three zero point four three",
    "value": 30.43
  },
  "clouds": [
    {
      "altitude": 42,
      "modifier": null,
      "repr": "FEW042",
      "type": "FEW"
    },
    {
      "altitude": 250,
      "modifier": null,
      "repr": "FEW250",
      "type": "FEW"
    }
  ],
  "density_altitude": -788,
  "dewpoint": {
    "repr": "05",
    "spoken": "five",
    "value": 5
  },
  "flight_rules": "VFR",
  "meta": {
    "cache-timestamp": "2024-04-18T00:26:02.593000Z",
    "stations_updated": "2024-01-01",
    "timestamp": "2024-04-18T00:26:45.825893Z"
  },
  "other": [],
  "pressure_altitude": -463,
  "raw": "KNUW 172353Z 29007KT 10SM FEW042 FEW250 12/05 A3043 RMK AO2 SLP310 T01220050 10122 20089 56012 $",
  "relative_humidity": 0.6141348708764632,
  "remarks": "RMK AO2 SLP310 T01220050 10122 20089 56012 $",
  "remarks_info": {
    "codes": [
      {
        "repr": "$",
        "value": "ASOS requires maintenance"
      },
      {
        "repr": "AO2",
        "value": "Automated with precipitation sensor"
      }
    ],
    "dewpoint_decimal": {
      "repr": "0050",
      "spoken": "five point zero",
      "value": 5
    },
    "maximum_temperature_24": null,
    "maximum_temperature_6": {
      "repr": "10122",
      "spoken": "one two point two",
      "value": 12.2
    },
    "minimum_temperature_24": null,
    "minimum_temperature_6": {
      "repr": "20089",
      "spoken": "eight point nine",
      "value": 8.9
    },
    "precip_24_hours": null,
    "precip_36_hours": null,
    "precip_hourly": null,
    "pressure_tendency": {
      "change": 1.2,
      "repr": "56012",
      "tendency": "Decreasing, then steady"
    },
    "sea_level_pressure": {
      "repr": "SLP310",
      "spoken": "one zero three one point zero",
      "value": 1031
    },
    "snow_depth": null,
    "sunshine_minutes": null,
    "temperature_decimal": {
      "repr": "0122",
      "spoken": "one two point two",
      "value": 12.2
    }
  },
  "runway_visibility": [],
  "sanitized": "KNUW 172353Z 29007KT 10SM FEW042 FEW250 12/05 A3043 RMK AO2 SLP310 T01220050 10122 20089 56012 $",
  "station": "KNUW",
  "temperature": {
    "repr": "12",
    "spoken": "one two",
    "value": 12
  },
  "time": {
    "dt": "2024-04-17T23:53:00Z",
    "repr": "172353Z"
  },
  "units": {
    "accumulation": "in",
    "altimeter": "inHg",
    "altitude": "ft",
    "temperature": "C",
    "visibility": "sm",
    "wind_speed": "kt"
  },
  "visibility": {
    "repr": "10",
    "spoken": "one zero",
    "value": 10
  },
  "wind_direction": {
    "repr": "290",
    "spoken": "two nine zero",
    "value": 290
  },
  "wind_gust": null,
  "wind_speed": {
    "repr": "07",
    "spoken": "seven",
    "value": 7
  },
  "wind_variable_direction": [],
  "wx_codes": []
}
