{
  "altimeter": {
    "repr": "A2955",
    "spoken": "two nine point five five",
    "value": 29.55
  },
  "clouds": [
    {
      "altitude": 55,
      "modifier": null,
      "repr": "FEW055",
      "type": "FEW"
    },
    {
      "altitude": 140,
      "modifier": null,
      "repr": "BKN140",
      "type": "BKN"
    },
    {
      "altitude": 180,
      "modifier": null,
      "repr": "BKN180",
      "type": "BKN"
    }
  ],
  "density_altitude": -436,
  "dewpoint": {
    "repr": "05",
    "spoken": "five",
    "value": 5
  },
  "flight_rules": "VFR",
  "meta": {
    "cache-timestamp": "2023-11-19T03:40:03.571000Z",
    "stations_updated": "2023-10-28",
    "timestamp": "2023-11-19T03:40:27.960668Z"
  },
  "other": [],
  "pressure_altitude": 417,
  "raw": "KNUW 190253Z 11007KT 10SM FEW055 BKN140 BKN180 08/05 A2955 RMK AO2 SLP012 T00780050 56015 $",
  "relative_humidity": 0.824548883443889,
  "remarks": "RMK AO2 SLP012 T00780050 56015 $",
  "remarks_info": {
    "codes": [
      {
        "repr": "$",
        "value": "ASOS requires maintenance"
      },
      {
        "repr": "AO2",
        "value": "Automated with precipitation sensor"
      }
    ],
    "dewpoint_decimal": {
      "repr": "0050",
      "spoken": "five point zero",
      "value": 5
    },
    "maximum_temperature_24": null,
    "maximum_temperature_6": null,
    "minimum_temperature_24": null,
    "minimum_temperature_6": null,
    "precip_24_hours": null,
    "precip_36_hours": null,
    "precip_hourly": null,
    "pressure_tendency": {
      "change": 1.5,
      "repr": "56015",
      "tendency": "Decreasing, then steady"
    },
    "sea_level_pressure": {
      "repr": "SLP012",
      "spoken": "one zero zero one point two",
      "value": 1001.2
    },
    "snow_depth": null,
    "sunshine_minutes": null,
    "temperature_decimal": {
      "repr": "0078",
      "spoken": "seven point eight",
      "value": 7.8
    }
  },
  "runway_visibility": [],
  "sanitized": "KNUW 190253Z 11007KT 10SM FEW055 BKN140 BKN180 08/05 A2955 RMK AO2 SLP012 T00780050 56015 $",
  "station": "KNUW",
  "temperature": {
    "repr": "08",
    "spoken": "eight",
    "value": 8
  },
  "time": {
    "dt": "2023-11-19T02:53:00Z",
    "repr": "190253Z"
  },
  "units": {
    "accumulation": "in",
    "altimeter": "inHg",
    "altitude": "ft",
    "temperature": "C",
    "visibility": "sm",
    "wind_speed": "kt"
  },
  "visibility": {
    "repr": "10",
    "spoken": "one zero",
    "value": 10
  },
  "wind_direction": {
    "repr": "110",
    "spoken": "one one zero",
    "value": 110
  },
  "wind_gust": null,
  "wind_speed": {
    "repr": "07",
    "spoken": "seven",
    "value": 7
  },
  "wind_variable_direction": [],
  "wx_codes": []
}
