{
  "altimeter": {
    "repr": "A2961",
    "spoken": "two nine point six one",
    "value": 29.61
  },
  "clouds": [
    {
      "altitude": 25,
      "modifier": null,
      "repr": "BKN025",
      "type": "BKN"
    },
    {
      "altitude": 90,
      "modifier": null,
      "repr": "OVC090",
      "type": "OVC"
    }
  ],
  "density_altitude": -436,
  "dewpoint": {
    "repr": "04",
    "spoken": "four",
    "value": 4
  },
  "flight_rules": "MVFR",
  "meta": {
    "stations_updated": "2024-01-01",
    "timestamp": "2024-03-10T21:01:17.694345Z"
  },
  "other": [],
  "pressure_altitude": 357,
  "raw": "KNUW 102053Z 15022G36KT 10SM BKN025 OVC090 08/04 A2961 RMK AO2 PK WND 16039/2036 SLP031 T00830039 58001 $",
  "relative_humidity": 0.7379335871249983,
  "remarks": "RMK AO2 PK WND 16039/2036 SLP031 T00830039 58001 $",
  "remarks_info": {
    "codes": [
      {
        "repr": "$",
        "value": "ASOS requires maintenance"
      },
      {
        "repr": "AO2",
        "value": "Automated with precipitation sensor"
      }
    ],
    "dewpoint_decimal": {
      "repr": "0039",
      "spoken": "three point nine",
      "value": 3.9
    },
    "maximum_temperature_24": null,
    "maximum_temperature_6": null,
    "minimum_temperature_24": null,
    "minimum_temperature_6": null,
    "precip_24_hours": null,
    "precip_36_hours": null,
    "precip_hourly": null,
    "pressure_tendency": {
      "change": 0.1,
      "repr": "58001",
      "tendency": "Steady or increasing, then decreasing"
    },
    "sea_level_pressure": {
      "repr": "SLP031",
      "spoken": "one zero zero three point one",
      "value": 1003.1
    },
    "snow_depth": null,
    "sunshine_minutes": null,
    "temperature_decimal": {
      "repr": "0083",
      "spoken": "eight point three",
      "value": 8.3
    }
  },
  "runway_visibility": [],
  "sanitized": "KNUW 102053Z 15022G36KT 10SM BKN025 OVC090 08/04 A2961 RMK AO2 PK WND 16039/2036 SLP031 T00830039 58001 $",
  "station": "KNUW",
  "temperature": {
    "repr": "08",
    "spoken": "eight",
    "value": 8
  },
  "time": {
    "dt": "2024-03-10T20:53:00Z",
    "repr": "102053Z"
  },
  "units": {
    "accumulation": "in",
    "altimeter": "inHg",
    "altitude": "ft",
    "temperature": "C",
    "visibility": "sm",
    "wind_speed": "kt"
  },
  "visibility": {
    "repr": "10",
    "spoken": "one zero",
    "value": 10
  },
  "wind_direction": {
    "repr": "150",
    "spoken": "one five zero",
    "value": 150
  },
  "wind_gust": {
    "repr": "36",
    "spoken": "three six",
    "value": 36
  },
  "wind_speed": {
    "repr": "22",
    "spoken": "two two",
    "value": 22
  },
  "wind_variable_direction": [],
  "wx_codes": []
}
