{
  "meta": {
    "timestamp": "2023-01-27T04:05:48.064614Z",
    "stations_updated": "2023-01-16"
  },
  "altimeter": {
    "repr": "A3047",
    "value": 30.47,
    "spoken": "three zero point four seven"
  },
  "clouds": [
    {
      "repr": "BKN007",
      "type": "BKN",
      "altitude": 7,
      "modifier": null
    },
    {
      "repr": "OVC016",
      "type": "OVC",
      "altitude": 16,
      "modifier": null
    }
  ],
  "flight_rules": "IFR",
  "other": [],
  "visibility": {
    "repr": "2",
    "value": 2,
    "spoken": "two"
  },
  "wind_direction": {
    "repr": "160",
    "value": 160,
    "spoken": "one six zero"
  },
  "wind_gust": null,
  "wind_speed": {
    "repr": "16",
    "value": 16,
    "spoken": "one six"
  },
  "wx_codes": [
    {
      "repr": "BR",
      "value": "Mist"
    }
  ],
  "raw": "KNUW 270353Z 16016KT 2SM BR BKN007 OVC016 06/05 A3047 RMK SFC VIS 4 RAB24 SLP318 P0000 T00610050",
  "sanitized": "KNUW 270353Z 16016KT 2SM BR BKN007 OVC016 06/05 A3047 RMK SFC VIS 4 RAB24 SLP318 P0000 T00610050",
  "station": "KNUW",
  "time": {
    "repr": "270353Z",
    "dt": "2023-01-27T03:53:00Z"
  },
  "remarks": "RMK SFC VIS 4 RAB24 SLP318 P0000 T00610050",
  "dewpoint": {
    "repr": "05",
    "value": 5,
    "spoken": "five"
  },
  "relative_humidity": 0.9265328822020961,
  "remarks_info": {
    "maximum_temperature_6": null,
    "minimum_temperature_6": null,
    "pressure_tendency": null,
    "precip_36_hours": null,
    "precip_24_hours": null,
    "sunshine_minutes": null,
    "codes": [
      {
        "repr": "P0000",
        "value": "Trace amount of rain in the last hour"
      },
      {
        "repr": "RAB24",
        "value": "Rain began at :24"
      }
    ],
    "dewpoint_decimal": {
      "repr": "0050",
      "value": 5,
      "spoken": "five point zero"
    },
    "maximum_temperature_24": null,
    "minimum_temperature_24": null,
    "precip_hourly": null,
    "sea_level_pressure": {
      "repr": "SLP318",
      "value": 1031.8,
      "spoken": "one zero three one point eight"
    },
    "snow_depth": null,
    "temperature_decimal": {
      "repr": "0061",
      "value": 6.1,
      "spoken": "six point one"
    }
  },
  "runway_visibility": [],
  "temperature": {
    "repr": "06",
    "value": 6,
    "spoken": "six"
  },
  "wind_variable_direction": [],
  "density_altitude": -1560,
  "pressure_altitude": -503,
  "units": {
    "accumulation": "in",
    "altimeter": "inHg",
    "altitude": "ft",
    "temperature": "C",
    "visibility": "sm",
    "wind_speed": "kt"
  }
}
