{
  "altimeter": {
    "repr": "A3022",
    "spoken": "three zero point two two",
    "value": 30.22
  },
  "clouds": [
    {
      "altitude": 20,
      "modifier": null,
      "repr": "FEW020",
      "type": "FEW"
    },
    {
      "altitude": 70,
      "modifier": null,
      "repr": "FEW070",
      "type": "FEW"
    },
    {
      "altitude": 140,
      "modifier": null,
      "repr": "SCT140",
      "type": "SCT"
    },
    {
      "altitude": 210,
      "modifier": null,
      "repr": "SCT210",
      "type": "SCT"
    }
  ],
  "density_altitude": -350,
  "dewpoint": {
    "repr": "10",
    "spoken": "one zero",
    "value": 10
  },
  "flight_rules": "VFR",
  "meta": {
    "stations_updated": "2024-06-12",
    "timestamp": "2024-09-21T18:07:43.130886Z"
  },
  "other": [],
  "pressure_altitude": -253,
  "raw": "KNUW 211753Z 22004KT 7SM FEW020 FEW070 SCT140 SCT210 14/10 A3022 RMK SLP236 T01410102 10141 20072 56004",
  "relative_humidity": 0.7735509041201345,
  "remarks": "RMK SLP236 T01410102 10141 20072 56004",
  "remarks_info": {
    "codes": [],
    "dewpoint_decimal": {
      "repr": "0102",
      "spoken": "one zero point two",
      "value": 10.2
    },
    "maximum_temperature_24": null,
    "maximum_temperature_6": {
      "repr": "10141",
      "spoken": "one four point one",
      "value": 14.1
    },
    "minimum_temperature_24": null,
    "minimum_temperature_6": {
      "repr": "20072",
      "spoken": "seven point two",
      "value": 7.2
    },
    "precip_24_hours": null,
    "precip_36_hours": null,
    "precip_hourly": null,
    "pressure_tendency": {
      "change": 0.4,
      "repr": "56004",
      "tendency": "Decreasing, then steady"
    },
    "sea_level_pressure": {
      "repr": "SLP236",
      "spoken": "one zero two three point six",
      "value": 1023.6
    },
    "snow_depth": null,
    "sunshine_minutes": null,
    "temperature_decimal": {
      "repr": "0141",
      "spoken": "one four point one",
      "value": 14.1
    }
  },
  "runway_visibility": [],
  "sanitized": "KNUW 211753Z 22004KT 7SM FEW020 FEW070 SCT140 SCT210 14/10 A3022 RMK SLP236 T01410102 10141 20072 56004",
  "station": "KNUW",
  "temperature": {
    "repr": "14",
    "spoken": "one four",
    "value": 14
  },
  "time": {
    "dt": "2024-09-21T17:53:00Z",
    "repr": "211753Z"
  },
  "units": {
    "accumulation": "in",
    "altimeter": "inHg",
    "altitude": "ft",
    "temperature": "C",
    "visibility": "sm",
    "wind_speed": "kt"
  },
  "visibility": {
    "repr": "7",
    "spoken": "seven",
    "value": 7
  },
  "wind_direction": {
    "repr": "220",
    "spoken": "two two zero",
    "value": 220
  },
  "wind_gust": null,
  "wind_speed": {
    "repr": "04",
    "spoken": "four",
    "value": 4
  },
  "wind_variable_direction": [],
  "wx_codes": []
}
