{
  "altimeter": {
    "repr": "A3012",
    "spoken": "three zero point one two",
    "value": 30.12
  },
  "clouds": [
    {
      "altitude": 47,
      "modifier": null,
      "repr": "FEW047",
      "type": "FEW"
    },
    {
      "altitude": 85,
      "modifier": null,
      "repr": "OVC085",
      "type": "OVC"
    }
  ],
  "density_altitude": -3010,
  "dewpoint": {
    "repr": "M18",
    "spoken": "minus one eight",
    "value": -18
  },
  "flight_rules": "VFR",
  "meta": {
    "cache-timestamp": "2024-01-12T11:40:03.751000Z",
    "stations_updated": "2023-10-28",
    "timestamp": "2024-01-12T11:40:31.298595Z"
  },
  "other": [],
  "pressure_altitude": -153,
  "raw": "KNUW 121053Z 36015KT 10SM FEW047 OVC085 M09/M18 A3012 RMK AO2 SLP205 T10891178 $",
  "relative_humidity": 0.48519104830717935,
  "remarks": "RMK AO2 SLP205 T10891178 $",
  "remarks_info": {
    "codes": [
      {
        "repr": "$",
        "value": "ASOS requires maintenance"
      },
      {
        "repr": "AO2",
        "value": "Automated with precipitation sensor"
      }
    ],
    "dewpoint_decimal": {
      "repr": "1178",
      "spoken": "minus one seven point eight",
      "value": -17.8
    },
    "maximum_temperature_24": null,
    "maximum_temperature_6": null,
    "minimum_temperature_24": null,
    "minimum_temperature_6": null,
    "precip_24_hours": null,
    "precip_36_hours": null,
    "precip_hourly": null,
    "pressure_tendency": null,
    "sea_level_pressure": {
      "repr": "SLP205",
      "spoken": "one zero two zero point five",
      "value": 1020.5
    },
    "snow_depth": null,
    "sunshine_minutes": null,
    "temperature_decimal": {
      "repr": "1089",
      "spoken": "minus eight point nine",
      "value": -8.9
    }
  },
  "runway_visibility": [],
  "sanitized": "KNUW 121053Z 36015KT 10SM FEW047 OVC085 M09/M18 A3012 RMK AO2 SLP205 T10891178 $",
  "station": "KNUW",
  "temperature": {
    "repr": "M09",
    "spoken": "minus nine",
    "value": -9
  },
  "time": {
    "dt": "2024-01-12T10:53:00Z",
    "repr": "121053Z"
  },
  "units": {
    "accumulation": "in",
    "altimeter": "inHg",
    "altitude": "ft",
    "temperature": "C",
    "visibility": "sm",
    "wind_speed": "kt"
  },
  "visibility": {
    "repr": "10",
    "spoken": "one zero",
    "value": 10
  },
  "wind_direction": {
    "repr": "360",
    "spoken": "three six zero",
    "value": 360
  },
  "wind_gust": null,
  "wind_speed": {
    "repr": "15",
    "spoken": "one five",
    "value": 15
  },
  "wind_variable_direction": [],
  "wx_codes": []
}
