{
  "altimeter": {
    "repr": "A3001",
    "spoken": "three zero point zero one",
    "value": 30.01
  },
  "clouds": [
    {
      "altitude": 150,
      "modifier": null,
      "repr": "FEW150",
      "type": "FEW"
    }
  ],
  "density_altitude": 640,
  "dewpoint": {
    "repr": "13",
    "spoken": "one three",
    "value": 13
  },
  "flight_rules": "VFR",
  "meta": {
    "stations_updated": "2024-06-12",
    "timestamp": "2024-07-13T23:02:49.996858Z"
  },
  "other": [],
  "pressure_altitude": -43,
  "raw": "KNUW 132253Z 28006KT 10SM FEW150 21/13 A3001 RMK AO2 SLP164 T02060133 $",
  "relative_humidity": 0.6293161583113158,
  "remarks": "RMK AO2 SLP164 T02060133 $",
  "remarks_info": {
    "codes": [
      {
        "repr": "$",
        "value": "ASOS requires maintenance"
      },
      {
        "repr": "AO2",
        "value": "Automated with precipitation sensor"
      }
    ],
    "dewpoint_decimal": {
      "repr": "0133",
      "spoken": "one three point three",
      "value": 13.3
    },
    "maximum_temperature_24": null,
    "maximum_temperature_6": null,
    "minimum_temperature_24": null,
    "minimum_temperature_6": null,
    "precip_24_hours": null,
    "precip_36_hours": null,
    "precip_hourly": null,
    "pressure_tendency": null,
    "sea_level_pressure": {
      "repr": "SLP164",
      "spoken": "one zero one six point four",
      "value": 1016.4
    },
    "snow_depth": null,
    "sunshine_minutes": null,
    "temperature_decimal": {
      "repr": "0206",
      "spoken": "two zero point six",
      "value": 20.6
    }
  },
  "runway_visibility": [],
  "sanitized": "KNUW 132253Z 28006KT 10SM FEW150 21/13 A3001 RMK AO2 SLP164 T02060133 $",
  "station": "KNUW",
  "temperature": {
    "repr": "21",
    "spoken": "two one",
    "value": 21
  },
  "time": {
    "dt": "2024-07-13T22:53:00Z",
    "repr": "132253Z"
  },
  "units": {
    "accumulation": "in",
    "altimeter": "inHg",
    "altitude": "ft",
    "temperature": "C",
    "visibility": "sm",
    "wind_speed": "kt"
  },
  "visibility": {
    "repr": "10",
    "spoken": "one zero",
    "value": 10
  },
  "wind_direction": {
    "repr": "280",
    "spoken": "two eight zero",
    "value": 280
  },
  "wind_gust": null,
  "wind_speed": {
    "repr": "06",
    "spoken": "six",
    "value": 6
  },
  "wind_variable_direction": [],
  "wx_codes": []
}
