{
  "altimeter": {
    "repr": "A2987",
    "spoken": "two nine point eight seven",
    "value": 29.87
  },
  "clouds": [
    {
      "altitude": 80,
      "modifier": null,
      "repr": "SCT080",
      "type": "SCT"
    },
    {
      "altitude": 150,
      "modifier": null,
      "repr": "SCT150",
      "type": "SCT"
    },
    {
      "altitude": 220,
      "modifier": null,
      "repr": "BKN220",
      "type": "BKN"
    }
  ],
  "density_altitude": -2364,
  "dewpoint": {
    "repr": "M14",
    "spoken": "minus one four",
    "value": -14
  },
  "flight_rules": "VFR",
  "meta": {
    "cache-timestamp": "2024-01-13T22:26:03.883000Z",
    "stations_updated": "2023-10-28",
    "timestamp": "2024-01-13T22:26:56.139311Z"
  },
  "other": [],
  "pressure_altitude": 97,
  "raw": "KNUW 132153Z 00000KT 10SM SCT080 SCT150 BKN220 M06/M14 A2987 RMK AO2 SLP119 T10561139 $",
  "relative_humidity": 0.5200639152627263,
  "remarks": "RMK AO2 SLP119 T10561139 $",
  "remarks_info": {
    "codes": [
      {
        "repr": "$",
        "value": "ASOS requires maintenance"
      },
      {
        "repr": "AO2",
        "value": "Automated with precipitation sensor"
      }
    ],
    "dewpoint_decimal": {
      "repr": "1139",
      "spoken": "minus one three point nine",
      "value": -13.9
    },
    "maximum_temperature_24": null,
    "maximum_temperature_6": null,
    "minimum_temperature_24": null,
    "minimum_temperature_6": null,
    "precip_24_hours": null,
    "precip_36_hours": null,
    "precip_hourly": null,
    "pressure_tendency": null,
    "sea_level_pressure": {
      "repr": "SLP119",
      "spoken": "one zero one one point nine",
      "value": 1011.9
    },
    "snow_depth": null,
    "sunshine_minutes": null,
    "temperature_decimal": {
      "repr": "1056",
      "spoken": "minus five point six",
      "value": -5.6
    }
  },
  "runway_visibility": [],
  "sanitized": "KNUW 132153Z 00000KT 10SM SCT080 SCT150 BKN220 M06/M14 A2987 RMK AO2 SLP119 T10561139 $",
  "station": "KNUW",
  "temperature": {
    "repr": "M06",
    "spoken": "minus six",
    "value": -6
  },
  "time": {
    "dt": "2024-01-13T21:53:00Z",
    "repr": "132153Z"
  },
  "units": {
    "accumulation": "in",
    "altimeter": "inHg",
    "altitude": "ft",
    "temperature": "C",
    "visibility": "sm",
    "wind_speed": "kt"
  },
  "visibility": {
    "repr": "10",
    "spoken": "one zero",
    "value": 10
  },
  "wind_direction": {
    "repr": "000",
    "spoken": "zero zero zero",
    "value": 0
  },
  "wind_gust": null,
  "wind_speed": {
    "repr": "00",
    "spoken": "zero",
    "value": 0
  },
  "wind_variable_direction": [],
  "wx_codes": []
}
