{
  "meta": {
    "timestamp": "2023-04-05T12:10:09.647528Z",
    "stations_updated": "2023-03-11",
    "cache-timestamp": "2023-04-05T12:10:06.202000Z"
  },
  "altimeter": {
    "repr": "A3019",
    "value": 30.19,
    "spoken": "three zero point one nine"
  },
  "clouds": [
    {
      "repr": "FEW050",
      "type": "FEW",
      "altitude": 50,
      "modifier": null
    },
    {
      "repr": "FEW220",
      "type": "FEW",
      "altitude": 220,
      "modifier": null
    }
  ],
  "flight_rules": "VFR",
  "other": [],
  "visibility": {
    "repr": "10",
    "value": 10,
    "spoken": "one zero"
  },
  "wind_direction": {
    "repr": "090",
    "value": 90,
    "spoken": "zero nine zero"
  },
  "wind_gust": null,
  "wind_speed": {
    "repr": "09",
    "value": 9,
    "spoken": "nine"
  },
  "wx_codes": [],
  "raw": "KNUW 051153Z 09009KT 10SM FEW050 FEW220 03/01 A3019 RMK AO2 SLP227 T00330006 10033 21011 56002 VISNO $",
  "sanitized": "KNUW 051153Z 09009KT 10SM FEW050 FEW220 03/01 A3019 RMK AO2 SLP227 T00330006 10033 21011 56002 VISNO $",
  "station": "KNUW",
  "time": {
    "repr": "051153Z",
    "dt": "2023-04-05T11:53:00Z"
  },
  "remarks": "RMK AO2 SLP227 T00330006 10033 21011 56002 VISNO $",
  "dewpoint": {
    "repr": "01",
    "value": 1,
    "spoken": "one"
  },
  "relative_humidity": 0.8246178483108445,
  "remarks_info": {
    "maximum_temperature_6": {
      "repr": "10033",
      "value": 3.3,
      "spoken": "three point three"
    },
    "minimum_temperature_6": {
      "repr": "21011",
      "value": -1.1,
      "spoken": "minus one point one"
    },
    "pressure_tendency": {
      "repr": "56002",
      "tendency": "Decreasing, then steady",
      "change": 0.2
    },
    "precip_36_hours": null,
    "precip_24_hours": null,
    "sunshine_minutes": null,
    "codes": [
      {
        "repr": "$",
        "value": "ASOS requires maintenance"
      },
      {
        "repr": "AO2",
        "value": "Automated with precipitation sensor"
      }
    ],
    "dewpoint_decimal": {
      "repr": "0006",
      "value": 0.6,
      "spoken": "zero point six"
    },
    "maximum_temperature_24": null,
    "minimum_temperature_24": null,
    "precip_hourly": null,
    "sea_level_pressure": {
      "repr": "SLP227",
      "value": 1022.7,
      "spoken": "one zero two two point seven"
    },
    "snow_depth": null,
    "temperature_decimal": {
      "repr": "0033",
      "value": 3.3,
      "spoken": "three point three"
    }
  },
  "runway_visibility": [],
  "temperature": {
    "repr": "03",
    "value": 3,
    "spoken": "three"
  },
  "wind_variable_direction": [],
  "density_altitude": -1616,
  "pressure_altitude": -223,
  "units": {
    "accumulation": "in",
    "altimeter": "inHg",
    "altitude": "ft",
    "temperature": "C",
    "visibility": "sm",
    "wind_speed": "kt"
  }
}
