{
  "meta": {
    "timestamp": "2022-08-17T22:30:16.060597Z",
    "stations_updated": "2022-07-17"
  },
  "altimeter": {
    "repr": "A3000",
    "value": 30,
    "spoken": "three zero point zero zero"
  },
  "clouds": [],
  "flight_rules": "VFR",
  "other": [],
  "visibility": {
    "repr": "10",
    "value": 10,
    "spoken": "one zero"
  },
  "wind_direction": {
    "repr": "270",
    "value": 270,
    "spoken": "two seven zero"
  },
  "wind_gust": null,
  "wind_speed": {
    "repr": "08",
    "value": 8,
    "spoken": "eight"
  },
  "wx_codes": [],
  "raw": "KNUW 172153Z 27008KT 10SM SKC 23/14 A3000 RMK SLP159 T02280144",
  "sanitized": "KNUW 172153Z 27008KT 10SM 23/14 A3000 RMK SLP159 T02280144",
  "station": "KNUW",
  "time": {
    "repr": "172153Z",
    "dt": "2022-08-17T21:53:00Z"
  },
  "remarks": "RMK SLP159 T02280144",
  "dewpoint": {
    "repr": "14",
    "value": 14,
    "spoken": "one four"
  },
  "relative_humidity": 0.5908162506091608,
  "remarks_info": {
    "maximum_temperature_6": null,
    "minimum_temperature_6": null,
    "pressure_tendency": null,
    "precip_36_hours": null,
    "precip_24_hours": null,
    "sunshine_minutes": null,
    "codes": [],
    "dewpoint_decimal": {
      "repr": "0144",
      "value": 14.4,
      "spoken": "one four point four"
    },
    "maximum_temperature_24": null,
    "minimum_temperature_24": null,
    "precip_hourly": null,
    "sea_level_pressure": {
      "repr": "SLP159",
      "value": 1015.9,
      "spoken": "one zero one five point nine"
    },
    "snow_depth": null,
    "temperature_decimal": {
      "repr": "0228",
      "value": 22.8,
      "spoken": "two two point eight"
    }
  },
  "runway_visibility": [],
  "temperature": {
    "repr": "23",
    "value": 23,
    "spoken": "two three"
  },
  "wind_variable_direction": [],
  "density_altitude": 914,
  "pressure_altitude": -33,
  "units": {
    "accumulation": "in",
    "altimeter": "inHg",
    "altitude": "ft",
    "temperature": "C",
    "visibility": "sm",
    "wind_speed": "kt"
  }
}
