{
  "altimeter": {
    "repr": "A3060",
    "spoken": "three zero point six zero",
    "value": 30.6
  },
  "clouds": [],
  "density_altitude": -2818,
  "dewpoint": {
    "repr": "M06",
    "spoken": "minus six",
    "value": -6
  },
  "flight_rules": "VFR",
  "meta": {
    "stations_updated": "2024-12-02",
    "timestamp": "2025-01-20T15:07:34.668253Z"
  },
  "other": [],
  "pressure_altitude": -633,
  "raw": "KNUW 201453Z AUTO 10007KT 10SM CLR M03/M06 A3060 RMK AO2 SLP364 T10331061 58002 $",
  "relative_humidity": 0.8095546711683594,
  "remarks": "RMK AO2 SLP364 T10331061 58002 $",
  "remarks_info": {
    "codes": [
      {
        "repr": "$",
        "value": "ASOS requires maintenance"
      },
      {
        "repr": "AO2",
        "value": "Automated with precipitation sensor"
      }
    ],
    "dewpoint_decimal": {
      "repr": "1061",
      "spoken": "minus six point one",
      "value": -6.1
    },
    "maximum_temperature_24": null,
    "maximum_temperature_6": null,
    "minimum_temperature_24": null,
    "minimum_temperature_6": null,
    "precip_24_hours": null,
    "precip_36_hours": null,
    "precip_hourly": null,
    "pressure_tendency": {
      "change": 0.2,
      "repr": "58002",
      "tendency": "Steady or increasing, then decreasing"
    },
    "sea_level_pressure": {
      "repr": "SLP364",
      "spoken": "one zero three six point four",
      "value": 1036.4
    },
    "snow_depth": null,
    "sunshine_minutes": null,
    "temperature_decimal": {
      "repr": "1033",
      "spoken": "minus three point three",
      "value": -3.3
    }
  },
  "runway_visibility": [],
  "sanitized": "KNUW 201453Z 10007KT 10SM M03/M06 A3060 RMK AO2 SLP364 T10331061 58002 $",
  "station": "KNUW",
  "temperature": {
    "repr": "M03",
    "spoken": "minus three",
    "value": -3
  },
  "time": {
    "dt": "2025-01-20T14:53:00Z",
    "repr": "201453Z"
  },
  "units": {
    "accumulation": "in",
    "altimeter": "inHg",
    "altitude": "ft",
    "temperature": "C",
    "visibility": "sm",
    "wind_speed": "kt"
  },
  "visibility": {
    "repr": "10",
    "spoken": "one zero",
    "value": 10
  },
  "wind_direction": {
    "repr": "100",
    "spoken": "one zero zero",
    "value": 100
  },
  "wind_gust": null,
  "wind_speed": {
    "repr": "07",
    "spoken": "seven",
    "value": 7
  },
  "wind_variable_direction": [],
  "wx_codes": []
}
