{
  "altimeter": {
    "repr": "A3021",
    "spoken": "three zero point two one",
    "value": 30.21
  },
  "clouds": [
    {
      "altitude": 38,
      "modifier": null,
      "repr": "FEW038",
      "type": "FEW"
    },
    {
      "altitude": 90,
      "modifier": null,
      "repr": "SCT090",
      "type": "SCT"
    },
    {
      "altitude": 220,
      "modifier": null,
      "repr": "SCT220",
      "type": "SCT"
    }
  ],
  "density_altitude": -628,
  "dewpoint": {
    "repr": "08",
    "spoken": "eight",
    "value": 8
  },
  "flight_rules": "VFR",
  "meta": {
    "cache-timestamp": "2024-06-13T02:46:44.003000Z",
    "stations_updated": "2024-05-13",
    "timestamp": "2024-06-13T02:47:14.619356Z"
  },
  "other": [],
  "pressure_altitude": -243,
  "raw": "KNUW 130153Z 27011KT 10SM FEW038 SCT090 SCT220 12/08 A3021 RMK AO2 SLP235 T01170083 VISNO $",
  "relative_humidity": 0.7963986181242221,
  "remarks": "RMK AO2 SLP235 T01170083 VISNO $",
  "remarks_info": {
    "codes": [
      {
        "repr": "$",
        "value": "ASOS requires maintenance"
      },
      {
        "repr": "AO2",
        "value": "Automated with precipitation sensor"
      }
    ],
    "dewpoint_decimal": {
      "repr": "0083",
      "spoken": "eight point three",
      "value": 8.3
    },
    "maximum_temperature_24": null,
    "maximum_temperature_6": null,
    "minimum_temperature_24": null,
    "minimum_temperature_6": null,
    "precip_24_hours": null,
    "precip_36_hours": null,
    "precip_hourly": null,
    "pressure_tendency": null,
    "sea_level_pressure": {
      "repr": "SLP235",
      "spoken": "one zero two three point five",
      "value": 1023.5
    },
    "snow_depth": null,
    "sunshine_minutes": null,
    "temperature_decimal": {
      "repr": "0117",
      "spoken": "one one point seven",
      "value": 11.7
    }
  },
  "runway_visibility": [],
  "sanitized": "KNUW 130153Z 27011KT 10SM FEW038 SCT090 SCT220 12/08 A3021 RMK AO2 SLP235 T01170083 VISNO $",
  "station": "KNUW",
  "temperature": {
    "repr": "12",
    "spoken": "one two",
    "value": 12
  },
  "time": {
    "dt": "2024-06-13T01:53:00Z",
    "repr": "130153Z"
  },
  "units": {
    "accumulation": "in",
    "altimeter": "inHg",
    "altitude": "ft",
    "temperature": "C",
    "visibility": "sm",
    "wind_speed": "kt"
  },
  "visibility": {
    "repr": "10",
    "spoken": "one zero",
    "value": 10
  },
  "wind_direction": {
    "repr": "270",
    "spoken": "two seven zero",
    "value": 270
  },
  "wind_gust": null,
  "wind_speed": {
    "repr": "11",
    "spoken": "one one",
    "value": 11
  },
  "wind_variable_direction": [],
  "wx_codes": []
}
