{
  "altimeter": {
    "repr": "A3022",
    "spoken": "three zero point two two",
    "value": 30.22
  },
  "clouds": [
    {
      "altitude": 40,
      "modifier": null,
      "repr": "FEW040",
      "type": "FEW"
    },
    {
      "altitude": 70,
      "modifier": null,
      "repr": "SCT070",
      "type": "SCT"
    },
    {
      "altitude": 200,
      "modifier": null,
      "repr": "SCT200",
      "type": "SCT"
    }
  ],
  "density_altitude": -506,
  "dewpoint": {
    "repr": "08",
    "spoken": "eight",
    "value": 8
  },
  "flight_rules": "VFR",
  "meta": {
    "cache-timestamp": "2024-06-13T01:42:04.430000Z",
    "stations_updated": "2024-05-13",
    "timestamp": "2024-06-13T01:42:58.447238Z"
  },
  "other": [],
  "pressure_altitude": -253,
  "raw": "KNUW 130053Z 28008KT 10SM FEW040 SCT070 SCT200 13/08 A3022 RMK AO2 SLP238 T01280083 VISNO $",
  "relative_humidity": 0.740806735944831,
  "remarks": "RMK AO2 SLP238 T01280083 VISNO $",
  "remarks_info": {
    "codes": [
      {
        "repr": "$",
        "value": "ASOS requires maintenance"
      },
      {
        "repr": "AO2",
        "value": "Automated with precipitation sensor"
      }
    ],
    "dewpoint_decimal": {
      "repr": "0083",
      "spoken": "eight point three",
      "value": 8.3
    },
    "maximum_temperature_24": null,
    "maximum_temperature_6": null,
    "minimum_temperature_24": null,
    "minimum_temperature_6": null,
    "precip_24_hours": null,
    "precip_36_hours": null,
    "precip_hourly": null,
    "pressure_tendency": null,
    "sea_level_pressure": {
      "repr": "SLP238",
      "spoken": "one zero two three point eight",
      "value": 1023.8
    },
    "snow_depth": null,
    "sunshine_minutes": null,
    "temperature_decimal": {
      "repr": "0128",
      "spoken": "one two point eight",
      "value": 12.8
    }
  },
  "runway_visibility": [],
  "sanitized": "KNUW 130053Z 28008KT 10SM FEW040 SCT070 SCT200 13/08 A3022 RMK AO2 SLP238 T01280083 VISNO $",
  "station": "KNUW",
  "temperature": {
    "repr": "13",
    "spoken": "one three",
    "value": 13
  },
  "time": {
    "dt": "2024-06-13T00:53:00Z",
    "repr": "130053Z"
  },
  "units": {
    "accumulation": "in",
    "altimeter": "inHg",
    "altitude": "ft",
    "temperature": "C",
    "visibility": "sm",
    "wind_speed": "kt"
  },
  "visibility": {
    "repr": "10",
    "spoken": "one zero",
    "value": 10
  },
  "wind_direction": {
    "repr": "280",
    "spoken": "two eight zero",
    "value": 280
  },
  "wind_gust": null,
  "wind_speed": {
    "repr": "08",
    "spoken": "eight",
    "value": 8
  },
  "wind_variable_direction": [],
  "wx_codes": []
}
