{
  "meta": {
    "timestamp": "2023-05-04T09:02:11.307370Z",
    "stations_updated": "2023-03-11"
  },
  "altimeter": {
    "repr": "A2981",
    "value": 29.81,
    "spoken": "two nine point eight one"
  },
  "clouds": [
    {
      "repr": "OVC012",
      "type": "OVC",
      "altitude": 12,
      "modifier": null
    }
  ],
  "flight_rules": "MVFR",
  "other": [],
  "visibility": {
    "repr": "5",
    "value": 5,
    "spoken": "five"
  },
  "wind_direction": {
    "repr": "240",
    "value": 240,
    "spoken": "two four zero"
  },
  "wind_gust": null,
  "wind_speed": {
    "repr": "08",
    "value": 8,
    "spoken": "eight"
  },
  "wx_codes": [
    {
      "repr": "BR",
      "value": "Mist"
    }
  ],
  "raw": "KNUW 040853Z 24008KT 5SM BR OVC012 10/08 A2981 RMK AO2 SLP100 T01000083 50010 VISNO",
  "sanitized": "KNUW 040853Z 24008KT 5SM BR OVC012 10/08 A2981 RMK AO2 SLP100 T01000083 50010 VISNO",
  "station": "KNUW",
  "time": {
    "repr": "040853Z",
    "dt": "2023-05-04T08:53:00Z"
  },
  "remarks": "RMK AO2 SLP100 T01000083 50010 VISNO",
  "dewpoint": {
    "repr": "08",
    "value": 8,
    "spoken": "eight"
  },
  "relative_humidity": 0.8917307313199454,
  "remarks_info": {
    "maximum_temperature_6": null,
    "minimum_temperature_6": null,
    "pressure_tendency": {
      "repr": "50010",
      "tendency": "Increasing, then decreasing",
      "change": 1
    },
    "precip_36_hours": null,
    "precip_24_hours": null,
    "sunshine_minutes": null,
    "codes": [
      {
        "repr": "AO2",
        "value": "Automated with precipitation sensor"
      }
    ],
    "dewpoint_decimal": {
      "repr": "0083",
      "value": 8.3,
      "spoken": "eight point three"
    },
    "maximum_temperature_24": null,
    "minimum_temperature_24": null,
    "precip_hourly": null,
    "sea_level_pressure": {
      "repr": "SLP100",
      "value": 1010,
      "spoken": "one zero one zero point zero"
    },
    "snow_depth": null,
    "temperature_decimal": {
      "repr": "0100",
      "value": 10,
      "spoken": "one zero point zero"
    }
  },
  "runway_visibility": [],
  "temperature": {
    "repr": "10",
    "value": 10,
    "spoken": "one zero"
  },
  "wind_variable_direction": [],
  "density_altitude": -432,
  "pressure_altitude": 157,
  "units": {
    "accumulation": "in",
    "altimeter": "inHg",
    "altitude": "ft",
    "temperature": "C",
    "visibility": "sm",
    "wind_speed": "kt"
  }
}
