{
  "meta": {
    "timestamp": "2023-02-24T03:42:28.057465Z",
    "stations_updated": "2023-01-30",
    "cache-timestamp": "2023-02-24T03:42:05.459000Z"
  },
  "altimeter": {
    "repr": "A2995",
    "value": 29.95,
    "spoken": "two nine point nine five"
  },
  "clouds": [
    {
      "repr": "FEW055",
      "type": "FEW",
      "altitude": 55,
      "modifier": null
    },
    {
      "repr": "SCT100",
      "type": "SCT",
      "altitude": 100,
      "modifier": null
    },
    {
      "repr": "SCT250",
      "type": "SCT",
      "altitude": 250,
      "modifier": null
    }
  ],
  "flight_rules": "VFR",
  "other": [],
  "visibility": {
    "repr": "10",
    "value": 10,
    "spoken": "one zero"
  },
  "wind_direction": {
    "repr": "350",
    "value": 350,
    "spoken": "three five zero"
  },
  "wind_gust": null,
  "wind_speed": {
    "repr": "11",
    "value": 11,
    "spoken": "one one"
  },
  "wx_codes": [],
  "raw": "KNUW 240253Z 35011KT 10SM FEW055 SCT100 SCT250 M02/M12 A2995 RMK SLP146 T10221117 53028",
  "sanitized": "KNUW 240253Z 35011KT 10SM FEW055 SCT100 SCT250 M02/M12 A2995 RMK SLP146 T10221117 53028",
  "station": "KNUW",
  "time": {
    "repr": "240253Z",
    "dt": "2023-02-24T02:53:00Z"
  },
  "remarks": "RMK SLP146 T10221117 53028",
  "dewpoint": {
    "repr": "M12",
    "value": -12,
    "spoken": "minus one two"
  },
  "relative_humidity": 0.4815318590426007,
  "remarks_info": {
    "maximum_temperature_6": null,
    "minimum_temperature_6": null,
    "pressure_tendency": {
      "repr": "53028",
      "tendency": "Decreasing or steady, then increasing",
      "change": 2.8
    },
    "precip_36_hours": null,
    "precip_24_hours": null,
    "sunshine_minutes": null,
    "codes": [],
    "dewpoint_decimal": {
      "repr": "1117",
      "value": -11.7,
      "spoken": "minus one one point seven"
    },
    "maximum_temperature_24": null,
    "minimum_temperature_24": null,
    "precip_hourly": null,
    "sea_level_pressure": {
      "repr": "SLP146",
      "value": 1014.6,
      "spoken": "one zero one four point six"
    },
    "snow_depth": null,
    "temperature_decimal": {
      "repr": "1022",
      "value": -2.2,
      "spoken": "minus two point two"
    }
  },
  "runway_visibility": [],
  "temperature": {
    "repr": "M02",
    "value": -2,
    "spoken": "minus two"
  },
  "wind_variable_direction": [],
  "density_altitude": -2036,
  "pressure_altitude": 17,
  "units": {
    "accumulation": "in",
    "altimeter": "inHg",
    "altitude": "ft",
    "temperature": "C",
    "visibility": "sm",
    "wind_speed": "kt"
  }
}
