{
  "meta": {
    "timestamp": "2022-12-25T14:01:23.605655Z",
    "stations_updated": "2022-09-05"
  },
  "altimeter": {
    "repr": "A3028",
    "value": 30.28,
    "spoken": "three zero point two eight"
  },
  "clouds": [
    {
      "repr": "OVC014",
      "type": "OVC",
      "altitude": 14,
      "modifier": null
    }
  ],
  "flight_rules": "MVFR",
  "other": [],
  "visibility": {
    "repr": "10",
    "value": 10,
    "spoken": "one zero"
  },
  "wind_direction": {
    "repr": "100",
    "value": 100,
    "spoken": "one zero zero"
  },
  "wind_gust": null,
  "wind_speed": {
    "repr": "07",
    "value": 7,
    "spoken": "seven"
  },
  "wx_codes": [],
  "raw": "KNUW 251353Z AUTO 10007KT 10SM OVC014 09/08 A3028 RMK AO2 SLP253 T00940083 VISNO $",
  "sanitized": "KNUW 251353Z 10007KT 10SM OVC014 09/08 A3028 RMK AO2 SLP253 T00940083 VISNO $",
  "station": "KNUW",
  "time": {
    "repr": "251353Z",
    "dt": "2022-12-25T13:53:00Z"
  },
  "remarks": "RMK AO2 SLP253 T00940083 VISNO $",
  "dewpoint": {
    "repr": "08",
    "value": 8,
    "spoken": "eight"
  },
  "relative_humidity": 0.9283717155883899,
  "remarks_info": {
    "maximum_temperature_6": null,
    "minimum_temperature_6": null,
    "pressure_tendency": null,
    "precip_36_hours": null,
    "precip_24_hours": null,
    "sunshine_minutes": null,
    "codes": [
      {
        "repr": "$",
        "value": "ASOS requires maintenance"
      },
      {
        "repr": "AO2",
        "value": "Automated with precipitation sensor"
      }
    ],
    "dewpoint_decimal": {
      "repr": "0083",
      "value": 8.3,
      "spoken": "eight point three"
    },
    "maximum_temperature_24": null,
    "minimum_temperature_24": null,
    "precip_hourly": null,
    "sea_level_pressure": {
      "repr": "SLP253",
      "value": 1025.3,
      "spoken": "one zero two five point three"
    },
    "snow_depth": null,
    "temperature_decimal": {
      "repr": "0094",
      "value": 9.4,
      "spoken": "nine point four"
    }
  },
  "runway_visibility": [],
  "temperature": {
    "repr": "09",
    "value": 9,
    "spoken": "nine"
  },
  "wind_variable_direction": [],
  "density_altitude": -974,
  "pressure_altitude": -313,
  "units": {
    "accumulation": "in",
    "altimeter": "inHg",
    "altitude": "ft",
    "temperature": "C",
    "visibility": "sm",
    "wind_speed": "kt"
  }
}
