{
  "meta": {
    "timestamp": "2023-01-18T03:07:20.327541Z",
    "stations_updated": "2023-01-16"
  },
  "altimeter": {
    "repr": "A2990",
    "value": 29.9,
    "spoken": "two nine point nine zero"
  },
  "clouds": [
    {
      "repr": "SCT024",
      "type": "SCT",
      "altitude": 24,
      "modifier": null
    },
    {
      "repr": "BKN060",
      "type": "BKN",
      "altitude": 60,
      "modifier": null
    },
    {
      "repr": "OVC075",
      "type": "OVC",
      "altitude": 75,
      "modifier": null
    }
  ],
  "flight_rules": "VFR",
  "other": [],
  "visibility": {
    "repr": "10",
    "value": 10,
    "spoken": "one zero"
  },
  "wind_direction": {
    "repr": "140",
    "value": 140,
    "spoken": "one four zero"
  },
  "wind_gust": {
    "repr": "30",
    "value": 30,
    "spoken": "three zero"
  },
  "wind_speed": {
    "repr": "21",
    "value": 21,
    "spoken": "two one"
  },
  "wx_codes": [],
  "raw": "KNUW 180253Z 14021G30KT 10SM SCT024 BKN060 OVC075 08/04 A2990 RMK AO2 PK WND 14034/0200 SLP124 60000 T00830044 58006 VISNO $",
  "sanitized": "KNUW 180253Z 14021G30KT 10SM SCT024 BKN060 OVC075 08/04 A2990 RMK AO2 PK WND 14034/0200 SLP124 60000 T00830044 58006 VISNO $",
  "station": "KNUW",
  "time": {
    "repr": "180253Z",
    "dt": "2023-01-18T02:53:00Z"
  },
  "remarks": "RMK AO2 PK WND 14034/0200 SLP124 60000 T00830044 58006 VISNO $",
  "dewpoint": {
    "repr": "04",
    "value": 4,
    "spoken": "four"
  },
  "relative_humidity": 0.7642778368365473,
  "remarks_info": {
    "maximum_temperature_6": null,
    "minimum_temperature_6": null,
    "pressure_tendency": {
      "repr": "58006",
      "tendency": "Steady or increasing, then decreasing",
      "change": 0.6
    },
    "precip_36_hours": {
      "repr": "60000",
      "value": 0,
      "spoken": "zero"
    },
    "precip_24_hours": null,
    "sunshine_minutes": null,
    "codes": [
      {
        "repr": "$",
        "value": "ASOS requires maintenance"
      },
      {
        "repr": "AO2",
        "value": "Automated with precipitation sensor"
      }
    ],
    "dewpoint_decimal": {
      "repr": "0044",
      "value": 4.4,
      "spoken": "four point four"
    },
    "maximum_temperature_24": null,
    "minimum_temperature_24": null,
    "precip_hourly": null,
    "sea_level_pressure": {
      "repr": "SLP124",
      "value": 1012.4,
      "spoken": "one zero one two point four"
    },
    "snow_depth": null,
    "temperature_decimal": {
      "repr": "0083",
      "value": 8.3,
      "spoken": "eight point three"
    }
  },
  "runway_visibility": [],
  "temperature": {
    "repr": "08",
    "value": 8,
    "spoken": "eight"
  },
  "wind_variable_direction": [],
  "density_altitude": -726,
  "pressure_altitude": 67,
  "units": {
    "accumulation": "in",
    "altimeter": "inHg",
    "altitude": "ft",
    "temperature": "C",
    "visibility": "sm",
    "wind_speed": "kt"
  }
}
