{
  "altimeter": {
    "repr": "A3005",
    "spoken": "three zero point zero five",
    "value": 30.05
  },
  "clouds": [
    {
      "altitude": 9,
      "modifier": null,
      "repr": "BKN009",
      "type": "BKN"
    },
    {
      "altitude": 40,
      "modifier": null,
      "repr": "OVC040",
      "type": "OVC"
    }
  ],
  "density_altitude": -744,
  "dewpoint": {
    "repr": "08",
    "spoken": "eight",
    "value": 8
  },
  "flight_rules": "IFR",
  "meta": {
    "stations_updated": "2024-10-29",
    "timestamp": "2024-11-03T12:47:22.109954Z"
  },
  "other": [],
  "pressure_altitude": -83,
  "raw": "KNUW 031237Z 25008KT 4SM BR BKN009 OVC040 09/08 A3005 RMK AO2 T00940083 $",
  "relative_humidity": 0.9283717155883899,
  "remarks": "RMK AO2 T00940083 $",
  "remarks_info": {
    "codes": [
      {
        "repr": "$",
        "value": "ASOS requires maintenance"
      },
      {
        "repr": "AO2",
        "value": "Automated with precipitation sensor"
      }
    ],
    "dewpoint_decimal": {
      "repr": "0083",
      "spoken": "eight point three",
      "value": 8.3
    },
    "maximum_temperature_24": null,
    "maximum_temperature_6": null,
    "minimum_temperature_24": null,
    "minimum_temperature_6": null,
    "precip_24_hours": null,
    "precip_36_hours": null,
    "precip_hourly": null,
    "pressure_tendency": null,
    "sea_level_pressure": null,
    "snow_depth": null,
    "sunshine_minutes": null,
    "temperature_decimal": {
      "repr": "0094",
      "spoken": "nine point four",
      "value": 9.4
    }
  },
  "runway_visibility": [],
  "sanitized": "KNUW 031237Z 25008KT 4SM BR BKN009 OVC040 09/08 A3005 RMK AO2 T00940083 $",
  "station": "KNUW",
  "temperature": {
    "repr": "09",
    "spoken": "nine",
    "value": 9
  },
  "time": {
    "dt": "2024-11-03T12:37:00Z",
    "repr": "031237Z"
  },
  "units": {
    "accumulation": "in",
    "altimeter": "inHg",
    "altitude": "ft",
    "temperature": "C",
    "visibility": "sm",
    "wind_speed": "kt"
  },
  "visibility": {
    "repr": "4",
    "spoken": "four",
    "value": 4
  },
  "wind_direction": {
    "repr": "250",
    "spoken": "two five zero",
    "value": 250
  },
  "wind_gust": null,
  "wind_speed": {
    "repr": "08",
    "spoken": "eight",
    "value": 8
  },
  "wind_variable_direction": [],
  "wx_codes": [
    {
      "repr": "BR",
      "value": "Mist"
    }
  ]
}
