{
  "meta": {
    "timestamp": "2023-02-18T02:04:58.535340Z",
    "stations_updated": "2023-01-30",
    "cache-timestamp": "2023-02-18T02:04:13.323000Z"
  },
  "altimeter": {
    "repr": "A3026",
    "value": 30.26,
    "spoken": "three zero point two six"
  },
  "clouds": [
    {
      "repr": "FEW030",
      "type": "FEW",
      "altitude": 30,
      "modifier": null
    },
    {
      "repr": "BKN046",
      "type": "BKN",
      "altitude": 46,
      "modifier": null
    },
    {
      "repr": "BKN200",
      "type": "BKN",
      "altitude": 200,
      "modifier": null
    }
  ],
  "flight_rules": "VFR",
  "other": [],
  "visibility": {
    "repr": "10",
    "value": 10,
    "spoken": "one zero"
  },
  "wind_direction": {
    "repr": "190",
    "value": 190,
    "spoken": "one nine zero"
  },
  "wind_gust": null,
  "wind_speed": {
    "repr": "05",
    "value": 5,
    "spoken": "five"
  },
  "wx_codes": [],
  "raw": "KNUW 180053Z 19005KT 10SM FEW030 BKN046 BKN200 08/02 A3026 RMK SLP247 T00780017",
  "sanitized": "KNUW 180053Z 19005KT 10SM FEW030 BKN046 BKN200 08/02 A3026 RMK SLP247 T00780017",
  "station": "KNUW",
  "time": {
    "repr": "180053Z",
    "dt": "2023-02-18T00:53:00Z"
  },
  "remarks": "RMK SLP247 T00780017",
  "dewpoint": {
    "repr": "02",
    "value": 2,
    "spoken": "two"
  },
  "relative_humidity": 0.6531529877193706,
  "remarks_info": {
    "maximum_temperature_6": null,
    "minimum_temperature_6": null,
    "pressure_tendency": null,
    "precip_36_hours": null,
    "precip_24_hours": null,
    "sunshine_minutes": null,
    "codes": [],
    "dewpoint_decimal": {
      "repr": "0017",
      "value": 1.7,
      "spoken": "one point seven"
    },
    "maximum_temperature_24": null,
    "minimum_temperature_24": null,
    "precip_hourly": null,
    "sea_level_pressure": {
      "repr": "SLP247",
      "value": 1024.7,
      "spoken": "one zero two four point seven"
    },
    "snow_depth": null,
    "temperature_decimal": {
      "repr": "0078",
      "value": 7.8,
      "spoken": "seven point eight"
    }
  },
  "runway_visibility": [],
  "temperature": {
    "repr": "08",
    "value": 8,
    "spoken": "eight"
  },
  "wind_variable_direction": [],
  "density_altitude": -1146,
  "pressure_altitude": -293,
  "units": {
    "accumulation": "in",
    "altimeter": "inHg",
    "altitude": "ft",
    "temperature": "C",
    "visibility": "sm",
    "wind_speed": "kt"
  }
}
