{
  "meta": {
    "timestamp": "2022-11-03T18:44:36.058344Z",
    "stations_updated": "2022-09-05"
  },
  "altimeter": {
    "repr": "A3024",
    "value": 30.24,
    "spoken": "three zero point two four"
  },
  "clouds": [
    {
      "repr": "BKN015",
      "type": "BKN",
      "altitude": 15,
      "modifier": null
    },
    {
      "repr": "BKN030",
      "type": "BKN",
      "altitude": 30,
      "modifier": null
    },
    {
      "repr": "OVC050",
      "type": "OVC",
      "altitude": 50,
      "modifier": null
    }
  ],
  "flight_rules": "MVFR",
  "other": [],
  "visibility": {
    "repr": "10",
    "value": 10,
    "spoken": "one zero"
  },
  "wind_direction": {
    "repr": "160",
    "value": 160,
    "spoken": "one six zero"
  },
  "wind_gust": null,
  "wind_speed": {
    "repr": "08",
    "value": 8,
    "spoken": "eight"
  },
  "wx_codes": [],
  "raw": "KNUW 031753Z 16008KT 10SM BKN015 BKN030 OVC050 07/04 A3024 RMK AO2 SLP241 T00670044 10067 20044 58001 VISNO $",
  "sanitized": "KNUW 031753Z 16008KT 10SM BKN015 BKN030 OVC050 07/04 A3024 RMK AO2 SLP241 T00670044 10067 20044 58001 VISNO $",
  "station": "KNUW",
  "time": {
    "repr": "031753Z",
    "dt": "2022-11-03T17:53:00Z"
  },
  "remarks": "RMK AO2 SLP241 T00670044 10067 20044 58001 VISNO $",
  "dewpoint": {
    "repr": "04",
    "value": 4,
    "spoken": "four"
  },
  "relative_humidity": 0.8525264910597357,
  "remarks_info": {
    "maximum_temperature_6": {
      "repr": "10067",
      "value": 6.7,
      "spoken": "six point seven"
    },
    "minimum_temperature_6": {
      "repr": "20044",
      "value": 4.4,
      "spoken": "four point four"
    },
    "pressure_tendency": {
      "repr": "58001",
      "tendency": "Steady or increasing, then decreasing",
      "change": 0.1
    },
    "precip_36_hours": null,
    "precip_24_hours": null,
    "sunshine_minutes": null,
    "codes": [
      {
        "repr": "$",
        "value": "ASOS requires maintenance"
      },
      {
        "repr": "AO2",
        "value": "Automated with precipitation sensor"
      }
    ],
    "dewpoint_decimal": {
      "repr": "0044",
      "value": 4.4,
      "spoken": "four point four"
    },
    "maximum_temperature_24": null,
    "minimum_temperature_24": null,
    "precip_hourly": null,
    "sea_level_pressure": {
      "repr": "SLP241",
      "value": 1024.1,
      "spoken": "one zero two four point one"
    },
    "snow_depth": null,
    "temperature_decimal": {
      "repr": "0067",
      "value": 6.7,
      "spoken": "six point seven"
    }
  },
  "runway_visibility": [],
  "temperature": {
    "repr": "07",
    "value": 7,
    "spoken": "seven"
  },
  "wind_variable_direction": [],
  "density_altitude": -1258,
  "pressure_altitude": -273,
  "units": {
    "accumulation": "in",
    "altimeter": "inHg",
    "altitude": "ft",
    "temperature": "C",
    "visibility": "sm",
    "wind_speed": "kt"
  }
}
