{
  "meta": {
    "timestamp": "2022-09-11T06:43:45.082206Z",
    "stations_updated": "2022-07-17"
  },
  "altimeter": {
    "repr": "A2990",
    "value": 29.9,
    "spoken": "two nine point nine zero"
  },
  "clouds": [
    {
      "repr": "SCT010",
      "type": "SCT",
      "altitude": 10,
      "modifier": null
    },
    {
      "repr": "OVC029",
      "type": "OVC",
      "altitude": 29,
      "modifier": null
    }
  ],
  "flight_rules": "MVFR",
  "other": [],
  "visibility": {
    "repr": "6",
    "value": 6,
    "spoken": "six"
  },
  "wind_direction": {
    "repr": "140",
    "value": 140,
    "spoken": "one four zero"
  },
  "wind_gust": null,
  "wind_speed": {
    "repr": "06",
    "value": 6,
    "spoken": "six"
  },
  "wx_codes": [
    {
      "repr": "HZ",
      "value": "Haze"
    }
  ],
  "raw": "KNUW 110553Z 14006KT 6SM HZ SCT010 OVC029 11/08 A2990 RMK AO2 SLP125 FU SCT010 FU OVC029 T01110078 10217 20111 51018 $",
  "sanitized": "KNUW 110553Z 14006KT 6SM HZ SCT010 OVC029 11/08 A2990 RMK AO2 SLP125 FU SCT010 FU OVC029 T01110078 10217 20111 51018 $",
  "station": "KNUW",
  "time": {
    "repr": "110553Z",
    "dt": "2022-09-11T05:53:00Z"
  },
  "remarks": "RMK AO2 SLP125 FU SCT010 FU OVC029 T01110078 10217 20111 51018 $",
  "dewpoint": {
    "repr": "08",
    "value": 8,
    "spoken": "eight"
  },
  "relative_humidity": 0.8009785710766422,
  "remarks_info": {
    "maximum_temperature_6": {
      "repr": "10217",
      "value": 21.7,
      "spoken": "two one point seven"
    },
    "minimum_temperature_6": {
      "repr": "20111",
      "value": 11.1,
      "spoken": "one one point one"
    },
    "pressure_tendency": {
      "repr": "51018",
      "tendency": "Increasing, then steady",
      "change": 1.8
    },
    "precip_36_hours": null,
    "precip_24_hours": null,
    "sunshine_minutes": null,
    "codes": [
      {
        "repr": "$",
        "value": "ASOS requires maintenance"
      },
      {
        "repr": "AO2",
        "value": "Automated with precipitation sensor"
      }
    ],
    "dewpoint_decimal": {
      "repr": "0078",
      "value": 7.8,
      "spoken": "seven point eight"
    },
    "maximum_temperature_24": null,
    "minimum_temperature_24": null,
    "precip_hourly": null,
    "sea_level_pressure": {
      "repr": "SLP125",
      "value": 1012.5,
      "spoken": "one zero one two point five"
    },
    "snow_depth": null,
    "temperature_decimal": {
      "repr": "0111",
      "value": 11.1,
      "spoken": "one one point one"
    }
  },
  "runway_visibility": [],
  "temperature": {
    "repr": "11",
    "value": 11,
    "spoken": "one one"
  },
  "wind_variable_direction": [],
  "density_altitude": -390,
  "pressure_altitude": 67,
  "units": {
    "accumulation": "in",
    "altimeter": "inHg",
    "altitude": "ft",
    "temperature": "C",
    "visibility": "sm",
    "wind_speed": "kt"
  }
}
