{
  "altimeter": {
    "repr": "A3006",
    "spoken": "three zero point zero six",
    "value": 30.06
  },
  "clouds": [
    {
      "altitude": 24,
      "modifier": null,
      "repr": "SCT024",
      "type": "SCT"
    },
    {
      "altitude": 45,
      "modifier": null,
      "repr": "BKN045",
      "type": "BKN"
    },
    {
      "altitude": 120,
      "modifier": null,
      "repr": "OVC120",
      "type": "OVC"
    }
  ],
  "density_altitude": -610,
  "dewpoint": {
    "repr": "07",
    "spoken": "seven",
    "value": 7
  },
  "flight_rules": "VFR",
  "meta": {
    "cache-timestamp": "2024-04-24T19:20:03.459000Z",
    "stations_updated": "2024-01-01",
    "timestamp": "2024-04-24T19:20:31.675005Z"
  },
  "other": [],
  "pressure_altitude": -93,
  "raw": "KNUW 241853Z 24006KT 10SM SCT024 BKN045 OVC120 11/07 A3006 RMK AO2 SLP184 T01060067 $",
  "relative_humidity": 0.7680182474943936,
  "remarks": "RMK AO2 SLP184 T01060067 $",
  "remarks_info": {
    "codes": [
      {
        "repr": "$",
        "value": "ASOS requires maintenance"
      },
      {
        "repr": "AO2",
        "value": "Automated with precipitation sensor"
      }
    ],
    "dewpoint_decimal": {
      "repr": "0067",
      "spoken": "six point seven",
      "value": 6.7
    },
    "maximum_temperature_24": null,
    "maximum_temperature_6": null,
    "minimum_temperature_24": null,
    "minimum_temperature_6": null,
    "precip_24_hours": null,
    "precip_36_hours": null,
    "precip_hourly": null,
    "pressure_tendency": null,
    "sea_level_pressure": {
      "repr": "SLP184",
      "spoken": "one zero one eight point four",
      "value": 1018.4
    },
    "snow_depth": null,
    "sunshine_minutes": null,
    "temperature_decimal": {
      "repr": "0106",
      "spoken": "one zero point six",
      "value": 10.6
    }
  },
  "runway_visibility": [],
  "sanitized": "KNUW 241853Z 24006KT 10SM SCT024 BKN045 OVC120 11/07 A3006 RMK AO2 SLP184 T01060067 $",
  "station": "KNUW",
  "temperature": {
    "repr": "11",
    "spoken": "one one",
    "value": 11
  },
  "time": {
    "dt": "2024-04-24T18:53:00Z",
    "repr": "241853Z"
  },
  "units": {
    "accumulation": "in",
    "altimeter": "inHg",
    "altitude": "ft",
    "temperature": "C",
    "visibility": "sm",
    "wind_speed": "kt"
  },
  "visibility": {
    "repr": "10",
    "spoken": "one zero",
    "value": 10
  },
  "wind_direction": {
    "repr": "240",
    "spoken": "two four zero",
    "value": 240
  },
  "wind_gust": null,
  "wind_speed": {
    "repr": "06",
    "spoken": "six",
    "value": 6
  },
  "wind_variable_direction": [],
  "wx_codes": []
}
