{
  "altimeter": {
    "repr": "A2944",
    "spoken": "two nine point four four",
    "value": 29.44
  },
  "clouds": [
    {
      "altitude": 18,
      "modifier": null,
      "repr": "SCT018",
      "type": "SCT"
    },
    {
      "altitude": 27,
      "modifier": null,
      "repr": "BKN027",
      "type": "BKN"
    },
    {
      "altitude": 60,
      "modifier": null,
      "repr": "BKN060",
      "type": "BKN"
    },
    {
      "altitude": 180,
      "modifier": null,
      "repr": "BKN180",
      "type": "BKN"
    }
  ],
  "density_altitude": -590,
  "dewpoint": {
    "repr": "02",
    "spoken": "two",
    "value": 2
  },
  "flight_rules": "MVFR",
  "meta": {
    "cache-timestamp": "2024-03-01T02:40:04.039000Z",
    "stations_updated": "2024-01-01",
    "timestamp": "2024-03-01T02:40:30.509852Z"
  },
  "other": [],
  "pressure_altitude": 527,
  "raw": "KNUW 010153Z 15018G24KT 10SM SCT018 BKN027 BKN060 BKN180 06/02 A2944 RMK AO2 PK WND 17026/0114 SLP972 T00560017 $",
  "relative_humidity": 0.7597773110621919,
  "remarks": "RMK AO2 PK WND 17026/0114 SLP972 T00560017 $",
  "remarks_info": {
    "codes": [
      {
        "repr": "$",
        "value": "ASOS requires maintenance"
      },
      {
        "repr": "AO2",
        "value": "Automated with precipitation sensor"
      }
    ],
    "dewpoint_decimal": {
      "repr": "0017",
      "spoken": "one point seven",
      "value": 1.7
    },
    "maximum_temperature_24": null,
    "maximum_temperature_6": null,
    "minimum_temperature_24": null,
    "minimum_temperature_6": null,
    "precip_24_hours": null,
    "precip_36_hours": null,
    "precip_hourly": null,
    "pressure_tendency": null,
    "sea_level_pressure": {
      "repr": "SLP972",
      "spoken": "nine nine seven point two",
      "value": 997.2
    },
    "snow_depth": null,
    "sunshine_minutes": null,
    "temperature_decimal": {
      "repr": "0056",
      "spoken": "five point six",
      "value": 5.6
    }
  },
  "runway_visibility": [],
  "sanitized": "KNUW 010153Z 15018G24KT 10SM SCT018 BKN027 BKN060 BKN180 06/02 A2944 RMK AO2 PK WND 17026/0114 SLP972 T00560017 $",
  "station": "KNUW",
  "temperature": {
    "repr": "06",
    "spoken": "six",
    "value": 6
  },
  "time": {
    "dt": "2024-03-01T01:53:00Z",
    "repr": "010153Z"
  },
  "units": {
    "accumulation": "in",
    "altimeter": "inHg",
    "altitude": "ft",
    "temperature": "C",
    "visibility": "sm",
    "wind_speed": "kt"
  },
  "visibility": {
    "repr": "10",
    "spoken": "one zero",
    "value": 10
  },
  "wind_direction": {
    "repr": "150",
    "spoken": "one five zero",
    "value": 150
  },
  "wind_gust": {
    "repr": "24",
    "spoken": "two four",
    "value": 24
  },
  "wind_speed": {
    "repr": "18",
    "spoken": "one eight",
    "value": 18
  },
  "wind_variable_direction": [],
  "wx_codes": []
}
