{
  "meta": {
    "timestamp": "2023-01-27T18:29:42.013660Z",
    "stations_updated": "2023-01-16"
  },
  "altimeter": {
    "repr": "A3029",
    "value": 30.29,
    "spoken": "three zero point two nine"
  },
  "clouds": [
    {
      "repr": "FEW008",
      "type": "FEW",
      "altitude": 8,
      "modifier": null
    },
    {
      "repr": "BKN012",
      "type": "BKN",
      "altitude": 12,
      "modifier": null
    },
    {
      "repr": "OVC020",
      "type": "OVC",
      "altitude": 20,
      "modifier": null
    }
  ],
  "flight_rules": "MVFR",
  "other": [],
  "visibility": {
    "repr": "7",
    "value": 7,
    "spoken": "seven"
  },
  "wind_direction": {
    "repr": "340",
    "value": 340,
    "spoken": "three four zero"
  },
  "wind_gust": null,
  "wind_speed": {
    "repr": "10",
    "value": 10,
    "spoken": "one zero"
  },
  "wx_codes": [
    {
      "repr": "-RA",
      "value": "Light Rain"
    }
  ],
  "raw": "KNUW 271753Z 34010KT 7SM -RA FEW008 BKN012 OVC020 07/06 A3029 RMK SLP257 P0000 60004 T00720056 10083 20061 51015",
  "sanitized": "KNUW 271753Z 34010KT 7SM -RA FEW008 BKN012 OVC020 07/06 A3029 RMK SLP257 P0000 60004 T00720056 10083 20061 51015",
  "station": "KNUW",
  "time": {
    "repr": "271753Z",
    "dt": "2023-01-27T17:53:00Z"
  },
  "remarks": "RMK SLP257 P0000 60004 T00720056 10083 20061 51015",
  "dewpoint": {
    "repr": "06",
    "value": 6,
    "spoken": "six"
  },
  "relative_humidity": 0.8956218363001711,
  "remarks_info": {
    "maximum_temperature_6": {
      "repr": "10083",
      "value": 8.3,
      "spoken": "eight point three"
    },
    "minimum_temperature_6": {
      "repr": "20061",
      "value": 6.1,
      "spoken": "six point one"
    },
    "pressure_tendency": {
      "repr": "51015",
      "tendency": "Increasing, then steady",
      "change": 1.5
    },
    "precip_36_hours": {
      "repr": "60004",
      "value": 0.04,
      "spoken": "zero point zero four"
    },
    "precip_24_hours": null,
    "sunshine_minutes": null,
    "codes": [
      {
        "repr": "P0000",
        "value": "Trace amount of rain in the last hour"
      }
    ],
    "dewpoint_decimal": {
      "repr": "0056",
      "value": 5.6,
      "spoken": "five point six"
    },
    "maximum_temperature_24": null,
    "minimum_temperature_24": null,
    "precip_hourly": null,
    "sea_level_pressure": {
      "repr": "SLP257",
      "value": 1025.7,
      "spoken": "one zero two five point seven"
    },
    "snow_depth": null,
    "temperature_decimal": {
      "repr": "0072",
      "value": 7.2,
      "spoken": "seven point two"
    }
  },
  "runway_visibility": [],
  "temperature": {
    "repr": "07",
    "value": 7,
    "spoken": "seven"
  },
  "wind_variable_direction": [],
  "density_altitude": -1248,
  "pressure_altitude": -323,
  "units": {
    "accumulation": "in",
    "altimeter": "inHg",
    "altitude": "ft",
    "temperature": "C",
    "visibility": "sm",
    "wind_speed": "kt"
  }
}
