{
  "meta": {
    "timestamp": "2022-11-05T08:08:04.375505Z",
    "stations_updated": "2022-09-05"
  },
  "altimeter": {
    "repr": "A2963",
    "value": 29.63,
    "spoken": "two nine point six three"
  },
  "clouds": [
    {
      "repr": "FEW026",
      "type": "FEW",
      "altitude": 26,
      "modifier": null
    },
    {
      "repr": "BKN034",
      "type": "BKN",
      "altitude": 34,
      "modifier": null
    },
    {
      "repr": "BKN050",
      "type": "BKN",
      "altitude": 50,
      "modifier": null
    },
    {
      "repr": "BKN150",
      "type": "BKN",
      "altitude": 150,
      "modifier": null
    }
  ],
  "flight_rules": "VFR",
  "other": [],
  "visibility": {
    "repr": "8",
    "value": 8,
    "spoken": "eight"
  },
  "wind_direction": {
    "repr": "270",
    "value": 270,
    "spoken": "two seven zero"
  },
  "wind_gust": {
    "repr": "40",
    "value": 40,
    "spoken": "four zero"
  },
  "wind_speed": {
    "repr": "29",
    "value": 29,
    "spoken": "two nine"
  },
  "wx_codes": [],
  "raw": "KNUW 050753Z 27029G40KT 8SM FEW026 BKN034 BKN050 BKN150 09/04 A2963 RMK AO2 PK WND 27048/0743 SLP033 T00940039 401390072 VISNO",
  "sanitized": "KNUW 050753Z 27029G40KT 8SM FEW026 BKN034 BKN050 BKN150 09/04 A2963 RMK AO2 PK WND 27048/0743 SLP033 T00940039 401390072 VISNO",
  "station": "KNUW",
  "time": {
    "repr": "050753Z",
    "dt": "2022-11-05T07:53:00Z"
  },
  "remarks": "RMK AO2 PK WND 27048/0743 SLP033 T00940039 401390072 VISNO",
  "dewpoint": {
    "repr": "04",
    "value": 4,
    "spoken": "four"
  },
  "relative_humidity": 0.6850766702695293,
  "remarks_info": {
    "maximum_temperature_6": null,
    "minimum_temperature_6": null,
    "pressure_tendency": null,
    "precip_36_hours": null,
    "precip_24_hours": null,
    "sunshine_minutes": null,
    "codes": [
      {
        "repr": "AO2",
        "value": "Automated with precipitation sensor"
      }
    ],
    "dewpoint_decimal": {
      "repr": "0039",
      "value": 3.9,
      "spoken": "three point nine"
    },
    "maximum_temperature_24": {
      "repr": "0139",
      "value": 13.9,
      "spoken": "one three point nine"
    },
    "minimum_temperature_24": {
      "repr": "0072",
      "value": 7.2,
      "spoken": "seven point two"
    },
    "precip_hourly": null,
    "sea_level_pressure": {
      "repr": "SLP033",
      "value": 1003.3,
      "spoken": "one zero zero three point three"
    },
    "snow_depth": null,
    "temperature_decimal": {
      "repr": "0094",
      "value": 9.4,
      "spoken": "nine point four"
    }
  },
  "runway_visibility": [],
  "temperature": {
    "repr": "09",
    "value": 9,
    "spoken": "nine"
  },
  "wind_variable_direction": [],
  "density_altitude": -324,
  "pressure_altitude": 337,
  "units": {
    "accumulation": "in",
    "altimeter": "inHg",
    "altitude": "ft",
    "temperature": "C",
    "visibility": "sm",
    "wind_speed": "kt"
  }
}
