{
  "meta": {
    "timestamp": "2022-11-16T11:26:28.812031Z",
    "stations_updated": "2022-09-05"
  },
  "altimeter": {
    "repr": "A3063",
    "value": 30.63,
    "spoken": "three zero point six three"
  },
  "clouds": [
    {
      "repr": "FEW001",
      "type": "FEW",
      "altitude": 1,
      "modifier": null
    },
    {
      "repr": "SCT003",
      "type": "SCT",
      "altitude": 3,
      "modifier": null
    },
    {
      "repr": "SCT250",
      "type": "SCT",
      "altitude": 250,
      "modifier": null
    }
  ],
  "flight_rules": "MVFR",
  "other": [],
  "visibility": {
    "repr": "5",
    "value": 5,
    "spoken": "five"
  },
  "wind_direction": {
    "repr": "120",
    "value": 120,
    "spoken": "one two zero"
  },
  "wind_gust": null,
  "wind_speed": {
    "repr": "05",
    "value": 5,
    "spoken": "five"
  },
  "wx_codes": [
    {
      "repr": "BR",
      "value": "Mist"
    },
    {
      "repr": "BCFG",
      "value": "Patchy Fog"
    }
  ],
  "raw": "KNUW 161053Z 12005KT 5SM BR BCFG FEW001 SCT003 SCT250 M01/M02 A3063 RMK AO2 SLP370 VIS NE-SE 1 T10111017 VISNO $",
  "sanitized": "KNUW 161053Z 12005KT 5SM BR BCFG FEW001 SCT003 SCT250 M01/M02 A3063 RMK AO2 SLP370 VIS NE-SE 1 T10111017 VISNO $",
  "station": "KNUW",
  "time": {
    "repr": "161053Z",
    "dt": "2022-11-16T10:53:00Z"
  },
  "remarks": "RMK AO2 SLP370 VIS NE-SE 1 T10111017 VISNO $",
  "dewpoint": {
    "repr": "M02",
    "value": -2,
    "spoken": "minus two"
  },
  "relative_humidity": 0.9569107752623097,
  "remarks_info": {
    "maximum_temperature_6": null,
    "minimum_temperature_6": null,
    "pressure_tendency": null,
    "precip_36_hours": null,
    "precip_24_hours": null,
    "sunshine_minutes": null,
    "codes": [
      {
        "repr": "$",
        "value": "ASOS requires maintenance"
      },
      {
        "repr": "AO2",
        "value": "Automated with precipitation sensor"
      }
    ],
    "dewpoint_decimal": {
      "repr": "1017",
      "value": -1.7,
      "spoken": "minus one point seven"
    },
    "maximum_temperature_24": null,
    "minimum_temperature_24": null,
    "precip_hourly": null,
    "sea_level_pressure": {
      "repr": "SLP370",
      "value": 1037,
      "spoken": "one zero three seven point zero"
    },
    "snow_depth": null,
    "temperature_decimal": {
      "repr": "1011",
      "value": -1.1,
      "spoken": "minus one point one"
    }
  },
  "runway_visibility": [],
  "temperature": {
    "repr": "M01",
    "value": -1,
    "spoken": "minus one"
  },
  "wind_variable_direction": [],
  "density_altitude": -2584,
  "pressure_altitude": -663,
  "units": {
    "accumulation": "in",
    "altimeter": "inHg",
    "altitude": "ft",
    "temperature": "C",
    "visibility": "sm",
    "wind_speed": "kt"
  }
}
