{
  "altimeter": {
    "repr": "A2969",
    "spoken": "two nine point six nine",
    "value": 29.69
  },
  "clouds": [
    {
      "altitude": 12,
      "modifier": null,
      "repr": "FEW012",
      "type": "FEW"
    },
    {
      "altitude": 60,
      "modifier": null,
      "repr": "BKN060",
      "type": "BKN"
    }
  ],
  "density_altitude": -312,
  "dewpoint": {
    "repr": "09",
    "spoken": "nine",
    "value": 9
  },
  "flight_rules": "VFR",
  "meta": {
    "stations_updated": "2023-10-28",
    "timestamp": "2023-11-07T08:07:21.489556Z"
  },
  "other": [],
  "pressure_altitude": 277,
  "raw": "KNUW 070753Z 00000KT 10SM FEW012 BKN060 10/09 A2969 RMK AO2 SLP059 T01000094 401220083 $",
  "relative_humidity": 0.9605319898773285,
  "remarks": "RMK AO2 SLP059 T01000094 401220083 $",
  "remarks_info": {
    "codes": [
      {
        "repr": "$",
        "value": "ASOS requires maintenance"
      },
      {
        "repr": "AO2",
        "value": "Automated with precipitation sensor"
      }
    ],
    "dewpoint_decimal": {
      "repr": "0094",
      "spoken": "nine point four",
      "value": 9.4
    },
    "maximum_temperature_24": {
      "repr": "0122",
      "spoken": "one two point two",
      "value": 12.2
    },
    "maximum_temperature_6": null,
    "minimum_temperature_24": {
      "repr": "0083",
      "spoken": "eight point three",
      "value": 8.3
    },
    "minimum_temperature_6": null,
    "precip_24_hours": null,
    "precip_36_hours": null,
    "precip_hourly": null,
    "pressure_tendency": null,
    "sea_level_pressure": {
      "repr": "SLP059",
      "spoken": "one zero zero five point nine",
      "value": 1005.9
    },
    "snow_depth": null,
    "sunshine_minutes": null,
    "temperature_decimal": {
      "repr": "0100",
      "spoken": "one zero point zero",
      "value": 10
    }
  },
  "runway_visibility": [],
  "sanitized": "KNUW 070753Z 00000KT 10SM FEW012 BKN060 10/09 A2969 RMK AO2 SLP059 T01000094 401220083 $",
  "station": "KNUW",
  "temperature": {
    "repr": "10",
    "spoken": "one zero",
    "value": 10
  },
  "time": {
    "dt": "2023-11-07T07:53:00Z",
    "repr": "070753Z"
  },
  "units": {
    "accumulation": "in",
    "altimeter": "inHg",
    "altitude": "ft",
    "temperature": "C",
    "visibility": "sm",
    "wind_speed": "kt"
  },
  "visibility": {
    "repr": "10",
    "spoken": "one zero",
    "value": 10
  },
  "wind_direction": {
    "repr": "000",
    "spoken": "zero zero zero",
    "value": 0
  },
  "wind_gust": null,
  "wind_speed": {
    "repr": "00",
    "spoken": "zero",
    "value": 0
  },
  "wind_variable_direction": [],
  "wx_codes": []
}
