{
  "altimeter": {
    "repr": "A3023",
    "spoken": "three zero point two three",
    "value": 30.23
  },
  "clouds": [
    {
      "altitude": 180,
      "modifier": null,
      "repr": "SCT180",
      "type": "SCT"
    },
    {
      "altitude": 240,
      "modifier": null,
      "repr": "BKN240",
      "type": "BKN"
    }
  ],
  "density_altitude": -2580,
  "dewpoint": {
    "repr": "M08",
    "spoken": "minus eight",
    "value": -8
  },
  "flight_rules": "VFR",
  "meta": {
    "cache-timestamp": "2024-01-14T18:04:05.137000Z",
    "stations_updated": "2023-10-28",
    "timestamp": "2024-01-14T18:05:03.198829Z"
  },
  "other": [],
  "pressure_altitude": -263,
  "raw": "KNUW 141753Z 09007KT 10SM SCT180 BKN240 M04/M08 A3023 RMK AO2 SLP241 T10441078 11039 21106 53024 $",
  "relative_humidity": 0.7713736303445272,
  "remarks": "RMK AO2 SLP241 T10441078 11039 21106 53024 $",
  "remarks_info": {
    "codes": [
      {
        "repr": "$",
        "value": "ASOS requires maintenance"
      },
      {
        "repr": "AO2",
        "value": "Automated with precipitation sensor"
      }
    ],
    "dewpoint_decimal": {
      "repr": "1078",
      "spoken": "minus seven point eight",
      "value": -7.8
    },
    "maximum_temperature_24": null,
    "maximum_temperature_6": {
      "repr": "11039",
      "spoken": "minus three point nine",
      "value": -3.9
    },
    "minimum_temperature_24": null,
    "minimum_temperature_6": {
      "repr": "21106",
      "spoken": "minus one zero point six",
      "value": -10.6
    },
    "precip_24_hours": null,
    "precip_36_hours": null,
    "precip_hourly": null,
    "pressure_tendency": {
      "change": 2.4,
      "repr": "53024",
      "tendency": "Decreasing or steady, then increasing"
    },
    "sea_level_pressure": {
      "repr": "SLP241",
      "spoken": "one zero two four point one",
      "value": 1024.1
    },
    "snow_depth": null,
    "sunshine_minutes": null,
    "temperature_decimal": {
      "repr": "1044",
      "spoken": "minus four point four",
      "value": -4.4
    }
  },
  "runway_visibility": [],
  "sanitized": "KNUW 141753Z 09007KT 10SM SCT180 BKN240 M04/M08 A3023 RMK AO2 SLP241 T10441078 11039 21106 53024 $",
  "station": "KNUW",
  "temperature": {
    "repr": "M04",
    "spoken": "minus four",
    "value": -4
  },
  "time": {
    "dt": "2024-01-14T17:53:00Z",
    "repr": "141753Z"
  },
  "units": {
    "accumulation": "in",
    "altimeter": "inHg",
    "altitude": "ft",
    "temperature": "C",
    "visibility": "sm",
    "wind_speed": "kt"
  },
  "visibility": {
    "repr": "10",
    "spoken": "one zero",
    "value": 10
  },
  "wind_direction": {
    "repr": "090",
    "spoken": "zero nine zero",
    "value": 90
  },
  "wind_gust": null,
  "wind_speed": {
    "repr": "07",
    "spoken": "seven",
    "value": 7
  },
  "wind_variable_direction": [],
  "wx_codes": []
}
