{
  "meta": {
    "timestamp": "2023-05-22T06:40:43.011666Z",
    "stations_updated": "2023-03-11",
    "cache-timestamp": "2023-05-22T06:40:04.507000Z"
  },
  "altimeter": {
    "repr": "A3017",
    "value": 30.17,
    "spoken": "three zero point one seven"
  },
  "clouds": [
    {
      "repr": "BKN045",
      "type": "BKN",
      "altitude": 45,
      "modifier": null
    },
    {
      "repr": "OVC050",
      "type": "OVC",
      "altitude": 50,
      "modifier": null
    }
  ],
  "flight_rules": "VFR",
  "other": [],
  "visibility": {
    "repr": "10",
    "value": 10,
    "spoken": "one zero"
  },
  "wind_direction": {
    "repr": "270",
    "value": 270,
    "spoken": "two seven zero"
  },
  "wind_gust": null,
  "wind_speed": {
    "repr": "15",
    "value": 15,
    "spoken": "one five"
  },
  "wx_codes": [],
  "raw": "KNUW 220553Z 27015KT 10SM BKN045 OVC050 11/08 A3017 RMK AO2 SLP220 T01110083 10139 20111 53002 $",
  "sanitized": "KNUW 220553Z 27015KT 10SM BKN045 OVC050 11/08 A3017 RMK AO2 SLP220 T01110083 10139 20111 53002 $",
  "station": "KNUW",
  "time": {
    "repr": "220553Z",
    "dt": "2023-05-22T05:53:00Z"
  },
  "remarks": "RMK AO2 SLP220 T01110083 10139 20111 53002 $",
  "dewpoint": {
    "repr": "08",
    "value": 8,
    "spoken": "eight"
  },
  "relative_humidity": 0.8286786978983101,
  "remarks_info": {
    "maximum_temperature_6": {
      "repr": "10139",
      "value": 13.9,
      "spoken": "one three point nine"
    },
    "minimum_temperature_6": {
      "repr": "20111",
      "value": 11.1,
      "spoken": "one one point one"
    },
    "pressure_tendency": {
      "repr": "53002",
      "tendency": "Decreasing or steady, then increasing",
      "change": 0.2
    },
    "precip_36_hours": null,
    "precip_24_hours": null,
    "sunshine_minutes": null,
    "codes": [
      {
        "repr": "$",
        "value": "ASOS requires maintenance"
      },
      {
        "repr": "AO2",
        "value": "Automated with precipitation sensor"
      }
    ],
    "dewpoint_decimal": {
      "repr": "0083",
      "value": 8.3,
      "spoken": "eight point three"
    },
    "maximum_temperature_24": null,
    "minimum_temperature_24": null,
    "precip_hourly": null,
    "sea_level_pressure": {
      "repr": "SLP220",
      "value": 1022,
      "spoken": "one zero two two point zero"
    },
    "snow_depth": null,
    "temperature_decimal": {
      "repr": "0111",
      "value": 11.1,
      "spoken": "one one point one"
    }
  },
  "runway_visibility": [],
  "temperature": {
    "repr": "11",
    "value": 11,
    "spoken": "one one"
  },
  "wind_variable_direction": [],
  "density_altitude": -660,
  "pressure_altitude": -203,
  "units": {
    "accumulation": "in",
    "altimeter": "inHg",
    "altitude": "ft",
    "temperature": "C",
    "visibility": "sm",
    "wind_speed": "kt"
  }
}
