{
  "meta": {
    "timestamp": "2022-09-09T08:43:24.214054Z",
    "stations_updated": "2022-07-17"
  },
  "altimeter": {
    "repr": "A3015",
    "value": 30.15,
    "spoken": "three zero point one five"
  },
  "clouds": [
    {
      "repr": "SCT250",
      "type": "SCT",
      "altitude": 250,
      "modifier": null
    }
  ],
  "flight_rules": "VFR",
  "other": [],
  "visibility": {
    "repr": "10",
    "value": 10,
    "spoken": "one zero"
  },
  "wind_direction": {
    "repr": "240",
    "value": 240,
    "spoken": "two four zero"
  },
  "wind_gust": null,
  "wind_speed": {
    "repr": "03",
    "value": 3,
    "spoken": "three"
  },
  "wx_codes": [],
  "raw": "KNUW 090753Z 24003KT 10SM SCT250 11/08 A3015 RMK AO2 SLP209 T01060083 401780078",
  "sanitized": "KNUW 090753Z 24003KT 10SM SCT250 11/08 A3015 RMK AO2 SLP209 T01060083 401780078",
  "station": "KNUW",
  "time": {
    "repr": "090753Z",
    "dt": "2022-09-09T07:53:00Z"
  },
  "remarks": "RMK AO2 SLP209 T01060083 401780078",
  "dewpoint": {
    "repr": "08",
    "value": 8,
    "spoken": "eight"
  },
  "relative_humidity": 0.8566987946639525,
  "remarks_info": {
    "maximum_temperature_6": null,
    "minimum_temperature_6": null,
    "pressure_tendency": null,
    "precip_36_hours": null,
    "precip_24_hours": null,
    "sunshine_minutes": null,
    "codes": [
      {
        "repr": "AO2",
        "value": "Automated with precipitation sensor"
      }
    ],
    "dewpoint_decimal": {
      "repr": "0083",
      "value": 8.3,
      "spoken": "eight point three"
    },
    "maximum_temperature_24": {
      "repr": "0178",
      "value": 17.8,
      "spoken": "one seven point eight"
    },
    "minimum_temperature_24": {
      "repr": "0078",
      "value": 7.8,
      "spoken": "seven point eight"
    },
    "precip_hourly": null,
    "sea_level_pressure": {
      "repr": "SLP209",
      "value": 1020.9,
      "spoken": "one zero two zero point nine"
    },
    "snow_depth": null,
    "temperature_decimal": {
      "repr": "0106",
      "value": 10.6,
      "spoken": "one zero point six"
    }
  },
  "runway_visibility": [],
  "temperature": {
    "repr": "11",
    "value": 11,
    "spoken": "one one"
  },
  "wind_variable_direction": [],
  "density_altitude": -700,
  "pressure_altitude": -183,
  "units": {
    "accumulation": "in",
    "altimeter": "inHg",
    "altitude": "ft",
    "temperature": "C",
    "visibility": "sm",
    "wind_speed": "kt"
  }
}
