{
  "meta": {
    "timestamp": "2022-12-21T19:20:52.298639Z",
    "stations_updated": "2022-09-05"
  },
  "altimeter": {
    "repr": "A3058",
    "value": 30.58,
    "spoken": "three zero point five eight"
  },
  "clouds": [
    {
      "repr": "FEW030",
      "type": "FEW",
      "altitude": 30,
      "modifier": null
    },
    {
      "repr": "SCT060",
      "type": "SCT",
      "altitude": 60,
      "modifier": null
    }
  ],
  "flight_rules": "VFR",
  "other": [],
  "visibility": {
    "repr": "10",
    "value": 10,
    "spoken": "one zero"
  },
  "wind_direction": {
    "repr": "350",
    "value": 350,
    "spoken": "three five zero"
  },
  "wind_gust": null,
  "wind_speed": {
    "repr": "06",
    "value": 6,
    "spoken": "six"
  },
  "wx_codes": [],
  "raw": "KNUW 211853Z 35006KT 10SM FEW030 SCT060 M07/M12 A3058 RMK AO2 SLP352 T10721122 VISNO $",
  "sanitized": "KNUW 211853Z 35006KT 10SM FEW030 SCT060 M07/M12 A3058 RMK AO2 SLP352 T10721122 VISNO $",
  "station": "KNUW",
  "time": {
    "repr": "211853Z",
    "dt": "2022-12-21T18:53:00Z"
  },
  "remarks": "RMK AO2 SLP352 T10721122 VISNO $",
  "dewpoint": {
    "repr": "M12",
    "value": -12,
    "spoken": "minus one two"
  },
  "relative_humidity": 0.6746170802600754,
  "remarks_info": {
    "maximum_temperature_6": null,
    "minimum_temperature_6": null,
    "pressure_tendency": null,
    "precip_36_hours": null,
    "precip_24_hours": null,
    "sunshine_minutes": null,
    "codes": [
      {
        "repr": "$",
        "value": "ASOS requires maintenance"
      },
      {
        "repr": "AO2",
        "value": "Automated with precipitation sensor"
      }
    ],
    "dewpoint_decimal": {
      "repr": "1122",
      "value": -12.2,
      "spoken": "minus one two point two"
    },
    "maximum_temperature_24": null,
    "minimum_temperature_24": null,
    "precip_hourly": null,
    "sea_level_pressure": {
      "repr": "SLP352",
      "value": 1035.2,
      "spoken": "one zero three five point two"
    },
    "snow_depth": null,
    "temperature_decimal": {
      "repr": "1072",
      "value": -7.2,
      "spoken": "minus seven point two"
    }
  },
  "runway_visibility": [],
  "temperature": {
    "repr": "M07",
    "value": -7,
    "spoken": "minus seven"
  },
  "wind_variable_direction": [],
  "density_altitude": -3266,
  "pressure_altitude": -613,
  "units": {
    "accumulation": "in",
    "altimeter": "inHg",
    "altitude": "ft",
    "temperature": "C",
    "visibility": "sm",
    "wind_speed": "kt"
  }
}
