{
  "meta": {
    "timestamp": "2023-02-26T09:25:28.883139Z",
    "stations_updated": "2023-01-30"
  },
  "altimeter": {
    "repr": "A2942",
    "value": 29.42,
    "spoken": "two nine point four two"
  },
  "clouds": [
    {
      "repr": "BKN023",
      "type": "BKN",
      "altitude": 23,
      "modifier": null
    },
    {
      "repr": "OVC028",
      "type": "OVC",
      "altitude": 28,
      "modifier": null
    }
  ],
  "flight_rules": "MVFR",
  "other": [],
  "visibility": {
    "repr": "10",
    "value": 10,
    "spoken": "one zero"
  },
  "wind_direction": {
    "repr": "150",
    "value": 150,
    "spoken": "one five zero"
  },
  "wind_gust": {
    "repr": "47",
    "value": 47,
    "spoken": "four seven"
  },
  "wind_speed": {
    "repr": "32",
    "value": 32,
    "spoken": "three two"
  },
  "wx_codes": [],
  "raw": "KNUW 260853Z 15032G47KT 10SM BKN023 OVC028 03/M01 A2942 RMK PK WND 14047/0844 RAB34E48 SLP968 P0000 60000 T00331011 58034",
  "sanitized": "KNUW 260853Z 15032G47KT 10SM BKN023 OVC028 03/M01 A2942 RMK PK WND 14047/0844 RAB34E48 SLP968 P0000 60000 T00331011 58034",
  "station": "KNUW",
  "time": {
    "repr": "260853Z",
    "dt": "2023-02-26T08:53:00Z"
  },
  "remarks": "RMK PK WND 14047/0844 RAB34E48 SLP968 P0000 60000 T00331011 58034",
  "dewpoint": {
    "repr": "M01",
    "value": -1,
    "spoken": "minus one"
  },
  "relative_humidity": 0.7287286219700893,
  "remarks_info": {
    "maximum_temperature_6": null,
    "minimum_temperature_6": null,
    "pressure_tendency": {
      "repr": "58034",
      "tendency": "Steady or increasing, then decreasing",
      "change": 3.4
    },
    "precip_36_hours": {
      "repr": "60000",
      "value": 0,
      "spoken": "zero"
    },
    "precip_24_hours": null,
    "sunshine_minutes": null,
    "codes": [
      {
        "repr": "P0000",
        "value": "Trace amount of rain in the last hour"
      }
    ],
    "dewpoint_decimal": {
      "repr": "1011",
      "value": -1.1,
      "spoken": "minus one point one"
    },
    "maximum_temperature_24": null,
    "minimum_temperature_24": null,
    "precip_hourly": null,
    "sea_level_pressure": {
      "repr": "SLP968",
      "value": 996.8,
      "spoken": "nine nine six point eight"
    },
    "snow_depth": null,
    "temperature_decimal": {
      "repr": "0033",
      "value": 3.3,
      "spoken": "three point three"
    }
  },
  "runway_visibility": [],
  "temperature": {
    "repr": "03",
    "value": 3,
    "spoken": "three"
  },
  "wind_variable_direction": [],
  "density_altitude": -846,
  "pressure_altitude": 547,
  "units": {
    "accumulation": "in",
    "altimeter": "inHg",
    "altitude": "ft",
    "temperature": "C",
    "visibility": "sm",
    "wind_speed": "kt"
  }
}
