{
  "altimeter": {
    "repr": "A2967",
    "spoken": "two nine point six seven",
    "value": 29.67
  },
  "clouds": [
    {
      "altitude": 19,
      "modifier": null,
      "repr": "BKN019",
      "type": "BKN"
    }
  ],
  "density_altitude": -292,
  "dewpoint": {
    "repr": "07",
    "spoken": "seven",
    "value": 7
  },
  "flight_rules": "MVFR",
  "meta": {
    "cache-timestamp": "2023-11-11T11:00:07.465000Z",
    "stations_updated": "2023-10-28",
    "timestamp": "2023-11-11T11:00:33.056422Z"
  },
  "other": [],
  "pressure_altitude": 297,
  "raw": "KNUW 110953Z AUTO 15030G41KT 10SM -RA BKN019 10/07 A2967 RMK AO2 PK WND 14049/0920 PRESFR SLP051 P0000 T01000067 $",
  "relative_humidity": 0.7994238789303805,
  "remarks": "RMK AO2 PK WND 14049/0920 PRESFR SLP051 P0000 T01000067 $",
  "remarks_info": {
    "codes": [
      {
        "repr": "$",
        "value": "ASOS requires maintenance"
      },
      {
        "repr": "AO2",
        "value": "Automated with precipitation sensor"
      },
      {
        "repr": "P0000",
        "value": "Trace amount of rain in the last hour"
      },
      {
        "repr": "PRESFR",
        "value": "Pressure Falling Rapidly"
      }
    ],
    "dewpoint_decimal": {
      "repr": "0067",
      "spoken": "six point seven",
      "value": 6.7
    },
    "maximum_temperature_24": null,
    "maximum_temperature_6": null,
    "minimum_temperature_24": null,
    "minimum_temperature_6": null,
    "precip_24_hours": null,
    "precip_36_hours": null,
    "precip_hourly": null,
    "pressure_tendency": null,
    "sea_level_pressure": {
      "repr": "SLP051",
      "spoken": "one zero zero five point one",
      "value": 1005.1
    },
    "snow_depth": null,
    "sunshine_minutes": null,
    "temperature_decimal": {
      "repr": "0100",
      "spoken": "one zero point zero",
      "value": 10
    }
  },
  "runway_visibility": [],
  "sanitized": "KNUW 110953Z 15030G41KT 10SM -RA BKN019 10/07 A2967 RMK AO2 PK WND 14049/0920 PRESFR SLP051 P0000 T01000067 $",
  "station": "KNUW",
  "temperature": {
    "repr": "10",
    "spoken": "one zero",
    "value": 10
  },
  "time": {
    "dt": "2023-11-11T09:53:00Z",
    "repr": "110953Z"
  },
  "units": {
    "accumulation": "in",
    "altimeter": "inHg",
    "altitude": "ft",
    "temperature": "C",
    "visibility": "sm",
    "wind_speed": "kt"
  },
  "visibility": {
    "repr": "10",
    "spoken": "one zero",
    "value": 10
  },
  "wind_direction": {
    "repr": "150",
    "spoken": "one five zero",
    "value": 150
  },
  "wind_gust": {
    "repr": "41",
    "spoken": "four one",
    "value": 41
  },
  "wind_speed": {
    "repr": "30",
    "spoken": "three zero",
    "value": 30
  },
  "wind_variable_direction": [],
  "wx_codes": [
    {
      "repr": "-RA",
      "value": "Light Rain"
    }
  ]
}
