{
  "altimeter": {
    "repr": "A3029",
    "spoken": "three zero point two nine",
    "value": 30.29
  },
  "clouds": [
    {
      "altitude": 11,
      "modifier": null,
      "repr": "BKN011",
      "type": "BKN"
    },
    {
      "altitude": 16,
      "modifier": null,
      "repr": "BKN016",
      "type": "BKN"
    },
    {
      "altitude": 60,
      "modifier": null,
      "repr": "OVC060",
      "type": "OVC"
    }
  ],
  "density_altitude": -1512,
  "dewpoint": {
    "repr": "03",
    "spoken": "three",
    "value": 3
  },
  "flight_rules": "MVFR",
  "meta": {
    "stations_updated": "2024-10-29",
    "timestamp": "2024-11-29T18:10:15.045238Z"
  },
  "other": [],
  "pressure_altitude": -323,
  "raw": "KNUW 291753Z AUTO 11007KT 10SM BKN011 BKN016 OVC060 05/03 A3029 RMK AO2 SLP262 T00500033 10050 20011 53015 $",
  "relative_humidity": 0.8875725932131937,
  "remarks": "RMK AO2 SLP262 T00500033 10050 20011 53015 $",
  "remarks_info": {
    "codes": [
      {
        "repr": "$",
        "value": "ASOS requires maintenance"
      },
      {
        "repr": "AO2",
        "value": "Automated with precipitation sensor"
      }
    ],
    "dewpoint_decimal": {
      "repr": "0033",
      "spoken": "three point three",
      "value": 3.3
    },
    "maximum_temperature_24": null,
    "maximum_temperature_6": {
      "repr": "10050",
      "spoken": "five point zero",
      "value": 5
    },
    "minimum_temperature_24": null,
    "minimum_temperature_6": {
      "repr": "20011",
      "spoken": "one point one",
      "value": 1.1
    },
    "precip_24_hours": null,
    "precip_36_hours": null,
    "precip_hourly": null,
    "pressure_tendency": {
      "change": 1.5,
      "repr": "53015",
      "tendency": "Decreasing or steady, then increasing"
    },
    "sea_level_pressure": {
      "repr": "SLP262",
      "spoken": "one zero two six point two",
      "value": 1026.2
    },
    "snow_depth": null,
    "sunshine_minutes": null,
    "temperature_decimal": {
      "repr": "0050",
      "spoken": "five point zero",
      "value": 5
    }
  },
  "runway_visibility": [],
  "sanitized": "KNUW 291753Z 11007KT 10SM BKN011 BKN016 OVC060 05/03 A3029 RMK AO2 SLP262 T00500033 10050 20011 53015 $",
  "station": "KNUW",
  "temperature": {
    "repr": "05",
    "spoken": "five",
    "value": 5
  },
  "time": {
    "dt": "2024-11-29T17:53:00Z",
    "repr": "291753Z"
  },
  "units": {
    "accumulation": "in",
    "altimeter": "inHg",
    "altitude": "ft",
    "temperature": "C",
    "visibility": "sm",
    "wind_speed": "kt"
  },
  "visibility": {
    "repr": "10",
    "spoken": "one zero",
    "value": 10
  },
  "wind_direction": {
    "repr": "110",
    "spoken": "one one zero",
    "value": 110
  },
  "wind_gust": null,
  "wind_speed": {
    "repr": "07",
    "spoken": "seven",
    "value": 7
  },
  "wind_variable_direction": [],
  "wx_codes": []
}
