{
  "meta": {
    "timestamp": "2023-06-03T06:27:12.597066Z",
    "stations_updated": "2023-05-30"
  },
  "altimeter": {
    "repr": "A3013",
    "value": 30.13,
    "spoken": "three zero point one three"
  },
  "clouds": [
    {
      "repr": "FEW080",
      "type": "FEW",
      "altitude": 80,
      "modifier": null
    },
    {
      "repr": "FEW200",
      "type": "FEW",
      "altitude": 200,
      "modifier": null
    }
  ],
  "flight_rules": "VFR",
  "other": [],
  "visibility": {
    "repr": "10",
    "value": 10,
    "spoken": "one zero"
  },
  "wind_direction": {
    "repr": "230",
    "value": 230,
    "spoken": "two three zero"
  },
  "wind_gust": null,
  "wind_speed": {
    "repr": "08",
    "value": 8,
    "spoken": "eight"
  },
  "wx_codes": [],
  "raw": "KNUW 030553Z 23008KT 10SM FEW080 FEW200 11/08 A3013 RMK AO2 SLP206 T01110078 10144 20106 51007 $",
  "sanitized": "KNUW 030553Z 23008KT 10SM FEW080 FEW200 11/08 A3013 RMK AO2 SLP206 T01110078 10144 20106 51007 $",
  "station": "KNUW",
  "time": {
    "repr": "030553Z",
    "dt": "2023-06-03T05:53:00Z"
  },
  "remarks": "RMK AO2 SLP206 T01110078 10144 20106 51007 $",
  "dewpoint": {
    "repr": "08",
    "value": 8,
    "spoken": "eight"
  },
  "relative_humidity": 0.8009785710766422,
  "remarks_info": {
    "maximum_temperature_6": {
      "repr": "10144",
      "value": 14.4,
      "spoken": "one four point four"
    },
    "minimum_temperature_6": {
      "repr": "20106",
      "value": 10.6,
      "spoken": "one zero point six"
    },
    "pressure_tendency": {
      "repr": "51007",
      "tendency": "Increasing, then steady",
      "change": 0.7
    },
    "precip_36_hours": null,
    "precip_24_hours": null,
    "sunshine_minutes": null,
    "codes": [
      {
        "repr": "$",
        "value": "ASOS requires maintenance"
      },
      {
        "repr": "AO2",
        "value": "Automated with precipitation sensor"
      }
    ],
    "dewpoint_decimal": {
      "repr": "0078",
      "value": 7.8,
      "spoken": "seven point eight"
    },
    "maximum_temperature_24": null,
    "minimum_temperature_24": null,
    "precip_hourly": null,
    "sea_level_pressure": {
      "repr": "SLP206",
      "value": 1020.6,
      "spoken": "one zero two zero point six"
    },
    "snow_depth": null,
    "temperature_decimal": {
      "repr": "0111",
      "value": 11.1,
      "spoken": "one one point one"
    }
  },
  "runway_visibility": [],
  "temperature": {
    "repr": "11",
    "value": 11,
    "spoken": "one one"
  },
  "wind_variable_direction": [],
  "density_altitude": -620,
  "pressure_altitude": -163,
  "units": {
    "accumulation": "in",
    "altimeter": "inHg",
    "altitude": "ft",
    "temperature": "C",
    "visibility": "sm",
    "wind_speed": "kt"
  }
}
