{
  "meta": {
    "timestamp": "2022-07-28T00:30:13.584671Z",
    "stations_updated": "2022-07-17"
  },
  "altimeter": {
    "repr": "A3002",
    "value": 30.02,
    "spoken": "three zero point zero two"
  },
  "clouds": [
    {
      "repr": "SCT220",
      "type": "SCT",
      "altitude": 220,
      "modifier": null
    }
  ],
  "flight_rules": "VFR",
  "other": [],
  "visibility": {
    "repr": "10",
    "value": 10,
    "spoken": "one zero"
  },
  "wind_direction": {
    "repr": "260",
    "value": 260,
    "spoken": "two six zero"
  },
  "wind_gust": null,
  "wind_speed": {
    "repr": "07",
    "value": 7,
    "spoken": "seven"
  },
  "wx_codes": [],
  "raw": "KNUW 272353Z 26007KT 10SM SCT220 19/14 A3002 RMK SLP166 T01940144 10211 20178 58007",
  "sanitized": "KNUW 272353Z 26007KT 10SM SCT220 19/14 A3002 RMK SLP166 T01940144 10211 20178 58007",
  "station": "KNUW",
  "time": {
    "repr": "272353Z",
    "dt": "2022-07-27T23:53:00Z"
  },
  "remarks": "RMK SLP166 T01940144 10211 20178 58007",
  "dewpoint": {
    "repr": "14",
    "value": 14,
    "spoken": "one four"
  },
  "relative_humidity": 0.7281157363008879,
  "remarks_info": {
    "maximum_temperature_6": {
      "repr": "10211",
      "value": 21.1,
      "spoken": "two one point one"
    },
    "minimum_temperature_6": {
      "repr": "20178",
      "value": 17.8,
      "spoken": "one seven point eight"
    },
    "pressure_tendency": {
      "repr": "58007",
      "tendency": "Steady or increasing, then decreasing",
      "change": 0.7
    },
    "precip_36_hours": null,
    "precip_24_hours": null,
    "sunshine_minutes": null,
    "codes": [],
    "dewpoint_decimal": {
      "repr": "0144",
      "value": 14.4,
      "spoken": "one four point four"
    },
    "maximum_temperature_24": null,
    "minimum_temperature_24": null,
    "precip_hourly": null,
    "sea_level_pressure": {
      "repr": "SLP166",
      "value": 1016.6,
      "spoken": "one zero one six point six"
    },
    "snow_depth": null,
    "temperature_decimal": {
      "repr": "0194",
      "value": 19.4,
      "spoken": "one nine point four"
    }
  },
  "runway_visibility": [],
  "temperature": {
    "repr": "19",
    "value": 19,
    "spoken": "one nine"
  },
  "wind_variable_direction": [],
  "density_altitude": 486,
  "pressure_altitude": -53,
  "units": {
    "accumulation": "in",
    "altimeter": "inHg",
    "altitude": "ft",
    "temperature": "C",
    "visibility": "sm",
    "wind_speed": "kt"
  }
}
