{
  "meta": {
    "timestamp": "2023-01-23T12:09:16.113240Z",
    "stations_updated": "2023-01-16"
  },
  "altimeter": {
    "repr": "A3054",
    "value": 30.54,
    "spoken": "three zero point five four"
  },
  "clouds": [
    {
      "repr": "BKN070",
      "type": "BKN",
      "altitude": 70,
      "modifier": null
    },
    {
      "repr": "OVC080",
      "type": "OVC",
      "altitude": 80,
      "modifier": null
    }
  ],
  "flight_rules": "VFR",
  "other": [],
  "visibility": {
    "repr": "10",
    "value": 10,
    "spoken": "one zero"
  },
  "wind_direction": {
    "repr": "110",
    "value": 110,
    "spoken": "one one zero"
  },
  "wind_gust": null,
  "wind_speed": {
    "repr": "07",
    "value": 7,
    "spoken": "seven"
  },
  "wx_codes": [],
  "raw": "KNUW 231153Z 11007KT 10SM BKN070 OVC080 03/02 A3054 RMK AO2 SLP342 70011 T00330017 10039 20017 51016 VISNO $",
  "sanitized": "KNUW 231153Z 11007KT 10SM BKN070 OVC080 03/02 A3054 RMK AO2 SLP342 70011 T00330017 10039 20017 51016 VISNO $",
  "station": "KNUW",
  "time": {
    "repr": "231153Z",
    "dt": "2023-01-23T11:53:00Z"
  },
  "remarks": "RMK AO2 SLP342 70011 T00330017 10039 20017 51016 VISNO $",
  "dewpoint": {
    "repr": "02",
    "value": 2,
    "spoken": "two"
  },
  "relative_humidity": 0.892472054966446,
  "remarks_info": {
    "maximum_temperature_6": {
      "repr": "10039",
      "value": 3.9,
      "spoken": "three point nine"
    },
    "minimum_temperature_6": {
      "repr": "20017",
      "value": 1.7,
      "spoken": "one point seven"
    },
    "pressure_tendency": {
      "repr": "51016",
      "tendency": "Increasing, then steady",
      "change": 1.6
    },
    "precip_36_hours": null,
    "precip_24_hours": {
      "repr": "70011",
      "value": 0.11,
      "spoken": "zero point one one"
    },
    "sunshine_minutes": null,
    "codes": [
      {
        "repr": "$",
        "value": "ASOS requires maintenance"
      },
      {
        "repr": "AO2",
        "value": "Automated with precipitation sensor"
      }
    ],
    "dewpoint_decimal": {
      "repr": "0017",
      "value": 1.7,
      "spoken": "one point seven"
    },
    "maximum_temperature_24": null,
    "minimum_temperature_24": null,
    "precip_hourly": null,
    "sea_level_pressure": {
      "repr": "SLP342",
      "value": 1034.2,
      "spoken": "one zero three four point two"
    },
    "snow_depth": null,
    "temperature_decimal": {
      "repr": "0033",
      "value": 3.3,
      "spoken": "three point three"
    }
  },
  "runway_visibility": [],
  "temperature": {
    "repr": "03",
    "value": 3,
    "spoken": "three"
  },
  "wind_variable_direction": [],
  "density_altitude": -1966,
  "pressure_altitude": -573,
  "units": {
    "accumulation": "in",
    "altimeter": "inHg",
    "altitude": "ft",
    "temperature": "C",
    "visibility": "sm",
    "wind_speed": "kt"
  }
}
