{
  "meta": {
    "timestamp": "2022-11-04T16:07:41.750065Z",
    "stations_updated": "2022-09-05"
  },
  "altimeter": {
    "repr": "A2966",
    "value": 29.66,
    "spoken": "two nine point six six"
  },
  "clouds": [
    {
      "repr": "BKN008",
      "type": "BKN",
      "altitude": 8,
      "modifier": null
    },
    {
      "repr": "OVC023",
      "type": "OVC",
      "altitude": 23,
      "modifier": null
    }
  ],
  "flight_rules": "IFR",
  "other": [],
  "visibility": {
    "repr": "3",
    "value": 3,
    "spoken": "three"
  },
  "wind_direction": {
    "repr": "110",
    "value": 110,
    "spoken": "one one zero"
  },
  "wind_gust": null,
  "wind_speed": {
    "repr": "12",
    "value": 12,
    "spoken": "one two"
  },
  "wx_codes": [
    {
      "repr": "RA",
      "value": "Rain"
    },
    {
      "repr": "BR",
      "value": "Mist"
    }
  ],
  "raw": "KNUW 041553Z 11012KT 3SM RA BR BKN008 OVC023 09/08 A2966 RMK AO2 SLP045 P0011 T00940083 VISNO $",
  "sanitized": "KNUW 041553Z 11012KT 3SM RA BR BKN008 OVC023 09/08 A2966 RMK AO2 SLP045 P0011 T00940083 VISNO $",
  "station": "KNUW",
  "time": {
    "repr": "041553Z",
    "dt": "2022-11-04T15:53:00Z"
  },
  "remarks": "RMK AO2 SLP045 P0011 T00940083 VISNO $",
  "dewpoint": {
    "repr": "08",
    "value": 8,
    "spoken": "eight"
  },
  "relative_humidity": 0.9283717155883899,
  "remarks_info": {
    "maximum_temperature_6": null,
    "minimum_temperature_6": null,
    "pressure_tendency": null,
    "precip_36_hours": null,
    "precip_24_hours": null,
    "sunshine_minutes": null,
    "codes": [
      {
        "repr": "$",
        "value": "ASOS requires maintenance"
      },
      {
        "repr": "AO2",
        "value": "Automated with precipitation sensor"
      }
    ],
    "dewpoint_decimal": {
      "repr": "0083",
      "value": 8.3,
      "spoken": "eight point three"
    },
    "maximum_temperature_24": null,
    "minimum_temperature_24": null,
    "precip_hourly": {
      "repr": "P0011",
      "value": 0.11,
      "spoken": "zero point one one"
    },
    "sea_level_pressure": {
      "repr": "SLP045",
      "value": 1004.5,
      "spoken": "one zero zero four point five"
    },
    "snow_depth": null,
    "temperature_decimal": {
      "repr": "0094",
      "value": 9.4,
      "spoken": "nine point four"
    }
  },
  "runway_visibility": [],
  "temperature": {
    "repr": "09",
    "value": 9,
    "spoken": "nine"
  },
  "wind_variable_direction": [],
  "density_altitude": -354,
  "pressure_altitude": 307,
  "units": {
    "accumulation": "in",
    "altimeter": "inHg",
    "altitude": "ft",
    "temperature": "C",
    "visibility": "sm",
    "wind_speed": "kt"
  }
}
