{
  "meta": {
    "timestamp": "2023-05-15T00:28:08.313327Z",
    "stations_updated": "2023-03-11",
    "cache-timestamp": "2023-05-15T00:28:06.145000Z"
  },
  "altimeter": {
    "repr": "A2999",
    "value": 29.99,
    "spoken": "two nine point nine nine"
  },
  "clouds": [
    {
      "repr": "FEW080",
      "type": "FEW",
      "altitude": 80,
      "modifier": null
    },
    {
      "repr": "FEW250",
      "type": "FEW",
      "altitude": 250,
      "modifier": null
    }
  ],
  "flight_rules": "VFR",
  "other": [],
  "visibility": {
    "repr": "10",
    "value": 10,
    "spoken": "one zero"
  },
  "wind_direction": {
    "repr": "300",
    "value": 300,
    "spoken": "three zero zero"
  },
  "wind_gust": null,
  "wind_speed": {
    "repr": "04",
    "value": 4,
    "spoken": "four"
  },
  "wx_codes": [],
  "raw": "KNUW 142353Z 30004KT 10SM FEW080 FEW250 22/11 A2999 RMK AO2 SLP160 T02170111 10228 20167 56019 VISNO $",
  "sanitized": "KNUW 142353Z 30004KT 10SM FEW080 FEW250 22/11 A2999 RMK AO2 SLP160 T02170111 10228 20167 56019 VISNO $",
  "station": "KNUW",
  "time": {
    "repr": "142353Z",
    "dt": "2023-05-14T23:53:00Z"
  },
  "remarks": "RMK AO2 SLP160 T02170111 10228 20167 56019 VISNO $",
  "dewpoint": {
    "repr": "11",
    "value": 11,
    "spoken": "one one"
  },
  "relative_humidity": 0.5089144852436989,
  "remarks_info": {
    "maximum_temperature_6": {
      "repr": "10228",
      "value": 22.8,
      "spoken": "two two point eight"
    },
    "minimum_temperature_6": {
      "repr": "20167",
      "value": 16.7,
      "spoken": "one six point seven"
    },
    "pressure_tendency": {
      "repr": "56019",
      "tendency": "Decreasing, then steady",
      "change": 1.9
    },
    "precip_36_hours": null,
    "precip_24_hours": null,
    "sunshine_minutes": null,
    "codes": [
      {
        "repr": "$",
        "value": "ASOS requires maintenance"
      },
      {
        "repr": "AO2",
        "value": "Automated with precipitation sensor"
      }
    ],
    "dewpoint_decimal": {
      "repr": "0111",
      "value": 11.1,
      "spoken": "one one point one"
    },
    "maximum_temperature_24": null,
    "minimum_temperature_24": null,
    "precip_hourly": null,
    "sea_level_pressure": {
      "repr": "SLP160",
      "value": 1016,
      "spoken": "one zero one six point zero"
    },
    "snow_depth": null,
    "temperature_decimal": {
      "repr": "0217",
      "value": 21.7,
      "spoken": "two one point seven"
    }
  },
  "runway_visibility": [],
  "temperature": {
    "repr": "22",
    "value": 22,
    "spoken": "two two"
  },
  "wind_variable_direction": [],
  "density_altitude": 792,
  "pressure_altitude": -23,
  "units": {
    "accumulation": "in",
    "altimeter": "inHg",
    "altitude": "ft",
    "temperature": "C",
    "visibility": "sm",
    "wind_speed": "kt"
  }
}
