{
  "meta": {
    "timestamp": "2023-06-26T15:02:38.388827Z",
    "stations_updated": "2023-06-06"
  },
  "altimeter": {
    "repr": "A3008",
    "value": 30.08,
    "spoken": "three zero point zero eight"
  },
  "clouds": [
    {
      "repr": "BKN006",
      "type": "BKN",
      "altitude": 6,
      "modifier": null
    },
    {
      "repr": "BKN120",
      "type": "BKN",
      "altitude": 120,
      "modifier": null
    },
    {
      "repr": "BKN220",
      "type": "BKN",
      "altitude": 220,
      "modifier": null
    }
  ],
  "flight_rules": "IFR",
  "other": [],
  "visibility": {
    "repr": "10",
    "value": 10,
    "spoken": "one zero"
  },
  "wind_direction": {
    "repr": "220",
    "value": 220,
    "spoken": "two two zero"
  },
  "wind_gust": null,
  "wind_speed": {
    "repr": "11",
    "value": 11,
    "spoken": "one one"
  },
  "wx_codes": [],
  "raw": "KNUW 261453Z 22011KT 10SM BKN006 BKN120 BKN220 12/11 A3008 RMK AO2 SLP189 T01170106 51007 VISNO $",
  "sanitized": "KNUW 261453Z 22011KT 10SM BKN006 BKN120 BKN220 12/11 A3008 RMK AO2 SLP189 T01170106 51007 VISNO $",
  "station": "KNUW",
  "time": {
    "repr": "261453Z",
    "dt": "2023-06-26T14:53:00Z"
  },
  "remarks": "RMK AO2 SLP189 T01170106 51007 VISNO $",
  "dewpoint": {
    "repr": "11",
    "value": 11,
    "spoken": "one one"
  },
  "relative_humidity": 0.9296133286105723,
  "remarks_info": {
    "maximum_temperature_6": null,
    "minimum_temperature_6": null,
    "pressure_tendency": {
      "repr": "51007",
      "tendency": "Increasing, then steady",
      "change": 0.7
    },
    "precip_36_hours": null,
    "precip_24_hours": null,
    "sunshine_minutes": null,
    "codes": [
      {
        "repr": "$",
        "value": "ASOS requires maintenance"
      },
      {
        "repr": "AO2",
        "value": "Automated with precipitation sensor"
      }
    ],
    "dewpoint_decimal": {
      "repr": "0106",
      "value": 10.6,
      "spoken": "one zero point six"
    },
    "maximum_temperature_24": null,
    "minimum_temperature_24": null,
    "precip_hourly": null,
    "sea_level_pressure": {
      "repr": "SLP189",
      "value": 1018.9,
      "spoken": "one zero one eight point nine"
    },
    "snow_depth": null,
    "temperature_decimal": {
      "repr": "0117",
      "value": 11.7,
      "spoken": "one one point seven"
    }
  },
  "runway_visibility": [],
  "temperature": {
    "repr": "12",
    "value": 12,
    "spoken": "one two"
  },
  "wind_variable_direction": [],
  "density_altitude": -498,
  "pressure_altitude": -113,
  "units": {
    "accumulation": "in",
    "altimeter": "inHg",
    "altitude": "ft",
    "temperature": "C",
    "visibility": "sm",
    "wind_speed": "kt"
  }
}
