{
  "meta": {
    "timestamp": "2023-10-17T07:22:01.213383Z",
    "stations_updated": "2023-10-01"
  },
  "altimeter": {
    "repr": "A3008",
    "value": 30.08,
    "spoken": "three zero point zero eight"
  },
  "clouds": [
    {
      "repr": "FEW028",
      "type": "FEW",
      "altitude": 28,
      "modifier": null
    },
    {
      "repr": "SCT060",
      "type": "SCT",
      "altitude": 60,
      "modifier": null
    },
    {
      "repr": "SCT160",
      "type": "SCT",
      "altitude": 160,
      "modifier": null
    }
  ],
  "flight_rules": "VFR",
  "other": [],
  "visibility": {
    "repr": "10",
    "value": 10,
    "spoken": "one zero"
  },
  "wind_direction": {
    "repr": "100",
    "value": 100,
    "spoken": "one zero zero"
  },
  "wind_gust": null,
  "wind_speed": {
    "repr": "06",
    "value": 6,
    "spoken": "six"
  },
  "wx_codes": [],
  "raw": "KNUW 170653Z 10006KT 10SM FEW028 SCT060 SCT160 09/09 A3008 RMK AO2 SLP189 T00940089 $ KNUW 170553Z 10003KT 10SM FEW022 BKN070 BKN160 09/09 A3007 RMK AO2 SLP185 60014 T00940089 10133 20094 51028 $",
  "sanitized": "KNUW 170653Z 10006KT 10SM FEW028 SCT060 SCT160 09/09 A3008 RMK AO2 SLP189 T00940089 $ KNUW 170553Z 10003KT 10SM FEW022 BKN070 BKN160 09/09 A3007 RMK AO2 SLP185 60014 T00940089 10133 20094 51028 $",
  "station": "KNUW",
  "time": {
    "repr": "170653Z",
    "dt": "2023-10-17T06:53:00Z"
  },
  "remarks": "RMK AO2 SLP189 T00940089 $ KNUW 170553Z 10003KT 10SM FEW022 BKN070 BKN160 09/09 A3007 RMK AO2 SLP185 60014 T00940089 10133 20094 51028 $",
  "dewpoint": {
    "repr": "09",
    "value": 9,
    "spoken": "nine"
  },
  "relative_humidity": 0.9668587106156139,
  "remarks_info": {
    "maximum_temperature_6": {
      "repr": "10133",
      "value": 13.3,
      "spoken": "one three point three"
    },
    "minimum_temperature_6": {
      "repr": "20094",
      "value": 9.4,
      "spoken": "nine point four"
    },
    "pressure_tendency": {
      "repr": "51028",
      "tendency": "Increasing, then steady",
      "change": 2.8
    },
    "precip_36_hours": {
      "repr": "60014",
      "value": 0.14,
      "spoken": "zero point one four"
    },
    "precip_24_hours": null,
    "sunshine_minutes": null,
    "codes": [
      {
        "repr": "$",
        "value": "ASOS requires maintenance"
      },
      {
        "repr": "$",
        "value": "ASOS requires maintenance"
      },
      {
        "repr": "AO2",
        "value": "Automated with precipitation sensor"
      },
      {
        "repr": "AO2",
        "value": "Automated with precipitation sensor"
      }
    ],
    "dewpoint_decimal": {
      "repr": "0089",
      "value": 8.9,
      "spoken": "eight point nine"
    },
    "maximum_temperature_24": null,
    "minimum_temperature_24": null,
    "precip_hourly": null,
    "sea_level_pressure": {
      "repr": "SLP189",
      "value": 1018.9,
      "spoken": "one zero one eight point nine"
    },
    "snow_depth": null,
    "temperature_decimal": {
      "repr": "0094",
      "value": 9.4,
      "spoken": "nine point four"
    }
  },
  "runway_visibility": [],
  "temperature": {
    "repr": "09",
    "value": 9,
    "spoken": "nine"
  },
  "wind_variable_direction": [],
  "density_altitude": -774,
  "pressure_altitude": -113,
  "units": {
    "accumulation": "in",
    "altimeter": "inHg",
    "altitude": "ft",
    "temperature": "C",
    "visibility": "sm",
    "wind_speed": "kt"
  }
}
