{
  "meta": {
    "timestamp": "2022-08-01T09:03:59.666482Z",
    "stations_updated": "2022-07-17"
  },
  "altimeter": {
    "repr": "A2993",
    "value": 29.93,
    "spoken": "two nine point nine three"
  },
  "clouds": [],
  "flight_rules": "VFR",
  "other": [],
  "visibility": {
    "repr": "10",
    "value": 10,
    "spoken": "one zero"
  },
  "wind_direction": {
    "repr": "210",
    "value": 210,
    "spoken": "two one zero"
  },
  "wind_gust": null,
  "wind_speed": {
    "repr": "06",
    "value": 6,
    "spoken": "six"
  },
  "wx_codes": [],
  "raw": "KNUW 010853Z 21006KT 10SM SKC 13/12 A2993 RMK SLP134 T01330117 53002",
  "sanitized": "KNUW 010853Z 21006KT 10SM 13/12 A2993 RMK SLP134 T01330117 53002",
  "station": "KNUW",
  "time": {
    "repr": "010853Z",
    "dt": "2022-08-01T08:53:00Z"
  },
  "remarks": "RMK SLP134 T01330117 53002",
  "dewpoint": {
    "repr": "12",
    "value": 12,
    "spoken": "one two"
  },
  "relative_humidity": 0.9002830457837466,
  "remarks_info": {
    "maximum_temperature_6": null,
    "minimum_temperature_6": null,
    "pressure_tendency": {
      "repr": "53002",
      "tendency": "Decreasing or steady, then increasing",
      "change": 0.2
    },
    "precip_36_hours": null,
    "precip_24_hours": null,
    "sunshine_minutes": null,
    "codes": [],
    "dewpoint_decimal": {
      "repr": "0117",
      "value": 11.7,
      "spoken": "one one point seven"
    },
    "maximum_temperature_24": null,
    "minimum_temperature_24": null,
    "precip_hourly": null,
    "sea_level_pressure": {
      "repr": "SLP134",
      "value": 1013.4,
      "spoken": "one zero one three point four"
    },
    "snow_depth": null,
    "temperature_decimal": {
      "repr": "0133",
      "value": 13.3,
      "spoken": "one three point three"
    }
  },
  "runway_visibility": [],
  "temperature": {
    "repr": "13",
    "value": 13,
    "spoken": "one three"
  },
  "wind_variable_direction": [],
  "density_altitude": -156,
  "pressure_altitude": 37,
  "units": {
    "accumulation": "in",
    "altimeter": "inHg",
    "altitude": "ft",
    "temperature": "C",
    "visibility": "sm",
    "wind_speed": "kt"
  }
}
