{
  "meta": {
    "timestamp": "2023-04-21T14:40:47.359729Z",
    "stations_updated": "2023-03-11"
  },
  "altimeter": {
    "repr": "A3032",
    "value": 30.32,
    "spoken": "three zero point three two"
  },
  "clouds": [
    {
      "repr": "SCT013",
      "type": "SCT",
      "altitude": 13,
      "modifier": null
    },
    {
      "repr": "BKN043",
      "type": "BKN",
      "altitude": 43,
      "modifier": null
    },
    {
      "repr": "OVC060",
      "type": "OVC",
      "altitude": 60,
      "modifier": null
    }
  ],
  "flight_rules": "VFR",
  "other": [],
  "visibility": {
    "repr": "10",
    "value": 10,
    "spoken": "one zero"
  },
  "wind_direction": {
    "repr": "110",
    "value": 110,
    "spoken": "one one zero"
  },
  "wind_gust": null,
  "wind_speed": {
    "repr": "07",
    "value": 7,
    "spoken": "seven"
  },
  "wx_codes": [],
  "raw": "KNUW 211353Z 11007KT 10SM SCT013 BKN043 OVC060 07/05 A3032 RMK SLP272 T00670050",
  "sanitized": "KNUW 211353Z 11007KT 10SM SCT013 BKN043 OVC060 07/05 A3032 RMK SLP272 T00670050",
  "station": "KNUW",
  "time": {
    "repr": "211353Z",
    "dt": "2023-04-21T13:53:00Z"
  },
  "remarks": "RMK SLP272 T00670050",
  "dewpoint": {
    "repr": "05",
    "value": 5,
    "spoken": "five"
  },
  "relative_humidity": 0.8890122546203816,
  "remarks_info": {
    "maximum_temperature_6": null,
    "minimum_temperature_6": null,
    "pressure_tendency": null,
    "precip_36_hours": null,
    "precip_24_hours": null,
    "sunshine_minutes": null,
    "codes": [],
    "dewpoint_decimal": {
      "repr": "0050",
      "value": 5,
      "spoken": "five point zero"
    },
    "maximum_temperature_24": null,
    "minimum_temperature_24": null,
    "precip_hourly": null,
    "sea_level_pressure": {
      "repr": "SLP272",
      "value": 1027.2,
      "spoken": "one zero two seven point two"
    },
    "snow_depth": null,
    "temperature_decimal": {
      "repr": "0067",
      "value": 6.7,
      "spoken": "six point seven"
    }
  },
  "runway_visibility": [],
  "temperature": {
    "repr": "07",
    "value": 7,
    "spoken": "seven"
  },
  "wind_variable_direction": [],
  "density_altitude": -1338,
  "pressure_altitude": -353,
  "units": {
    "accumulation": "in",
    "altimeter": "inHg",
    "altitude": "ft",
    "temperature": "C",
    "visibility": "sm",
    "wind_speed": "kt"
  }
}
