{
  "altimeter": {
    "repr": "A2998",
    "spoken": "two nine point nine eight",
    "value": 29.98
  },
  "clouds": [
    {
      "altitude": 110,
      "modifier": null,
      "repr": "SCT110",
      "type": "SCT"
    },
    {
      "altitude": 160,
      "modifier": null,
      "repr": "SCT160",
      "type": "SCT"
    },
    {
      "altitude": 240,
      "modifier": null,
      "repr": "BKN240",
      "type": "BKN"
    }
  ],
  "density_altitude": -2066,
  "dewpoint": {
    "repr": "M02",
    "spoken": "minus two",
    "value": -2
  },
  "flight_rules": "VFR",
  "meta": {
    "stations_updated": "2023-10-28",
    "timestamp": "2023-11-15T11:01:21.073585Z"
  },
  "other": [],
  "pressure_altitude": -13,
  "raw": "KNUW 151053Z 13006KT 10SM BCFG SCT110 SCT160 BKN240 M02/M02 A2998 RMK AO2 SLP157 T10221022 $",
  "relative_humidity": 1,
  "remarks": "RMK AO2 SLP157 T10221022 $",
  "remarks_info": {
    "codes": [
      {
        "repr": "$",
        "value": "ASOS requires maintenance"
      },
      {
        "repr": "AO2",
        "value": "Automated with precipitation sensor"
      }
    ],
    "dewpoint_decimal": {
      "repr": "1022",
      "spoken": "minus two point two",
      "value": -2.2
    },
    "maximum_temperature_24": null,
    "maximum_temperature_6": null,
    "minimum_temperature_24": null,
    "minimum_temperature_6": null,
    "precip_24_hours": null,
    "precip_36_hours": null,
    "precip_hourly": null,
    "pressure_tendency": null,
    "sea_level_pressure": {
      "repr": "SLP157",
      "spoken": "one zero one five point seven",
      "value": 1015.7
    },
    "snow_depth": null,
    "sunshine_minutes": null,
    "temperature_decimal": {
      "repr": "1022",
      "spoken": "minus two point two",
      "value": -2.2
    }
  },
  "runway_visibility": [],
  "sanitized": "KNUW 151053Z 13006KT 10SM BCFG SCT110 SCT160 BKN240 M02/M02 A2998 RMK AO2 SLP157 T10221022 $",
  "station": "KNUW",
  "temperature": {
    "repr": "M02",
    "spoken": "minus two",
    "value": -2
  },
  "time": {
    "dt": "2023-11-15T10:53:00Z",
    "repr": "151053Z"
  },
  "units": {
    "accumulation": "in",
    "altimeter": "inHg",
    "altitude": "ft",
    "temperature": "C",
    "visibility": "sm",
    "wind_speed": "kt"
  },
  "visibility": {
    "repr": "10",
    "spoken": "one zero",
    "value": 10
  },
  "wind_direction": {
    "repr": "130",
    "spoken": "one three zero",
    "value": 130
  },
  "wind_gust": null,
  "wind_speed": {
    "repr": "06",
    "spoken": "six",
    "value": 6
  },
  "wind_variable_direction": [],
  "wx_codes": [
    {
      "repr": "BCFG",
      "value": "Patchy Fog"
    }
  ]
}
