{
  "altimeter": {
    "repr": "A2995",
    "spoken": "two nine point nine five",
    "value": 29.95
  },
  "clouds": [
    {
      "altitude": 45,
      "modifier": null,
      "repr": "FEW045",
      "type": "FEW"
    },
    {
      "altitude": 120,
      "modifier": null,
      "repr": "SCT120",
      "type": "SCT"
    },
    {
      "altitude": 220,
      "modifier": null,
      "repr": "SCT220",
      "type": "SCT"
    }
  ],
  "density_altitude": -236,
  "dewpoint": {
    "repr": "12",
    "spoken": "one two",
    "value": 12
  },
  "flight_rules": "VFR",
  "meta": {
    "stations_updated": "2024-06-12",
    "timestamp": "2024-08-09T12:11:26.358273Z"
  },
  "other": [],
  "pressure_altitude": 17,
  "raw": "KNUW 091153Z 00000KT 10SM FEW045 SCT120 SCT220 13/12 A2995 RMK AO2 SLP145 T01280117 10156 20122 53001",
  "relative_humidity": 0.9301959082873248,
  "remarks": "RMK AO2 SLP145 T01280117 10156 20122 53001",
  "remarks_info": {
    "codes": [
      {
        "repr": "AO2",
        "value": "Automated with precipitation sensor"
      }
    ],
    "dewpoint_decimal": {
      "repr": "0117",
      "spoken": "one one point seven",
      "value": 11.7
    },
    "maximum_temperature_24": null,
    "maximum_temperature_6": {
      "repr": "10156",
      "spoken": "one five point six",
      "value": 15.6
    },
    "minimum_temperature_24": null,
    "minimum_temperature_6": {
      "repr": "20122",
      "spoken": "one two point two",
      "value": 12.2
    },
    "precip_24_hours": null,
    "precip_36_hours": null,
    "precip_hourly": null,
    "pressure_tendency": {
      "change": 0.1,
      "repr": "53001",
      "tendency": "Decreasing or steady, then increasing"
    },
    "sea_level_pressure": {
      "repr": "SLP145",
      "spoken": "one zero one four point five",
      "value": 1014.5
    },
    "snow_depth": null,
    "sunshine_minutes": null,
    "temperature_decimal": {
      "repr": "0128",
      "spoken": "one two point eight",
      "value": 12.8
    }
  },
  "runway_visibility": [],
  "sanitized": "KNUW 091153Z 00000KT 10SM FEW045 SCT120 SCT220 13/12 A2995 RMK AO2 SLP145 T01280117 10156 20122 53001",
  "station": "KNUW",
  "temperature": {
    "repr": "13",
    "spoken": "one three",
    "value": 13
  },
  "time": {
    "dt": "2024-08-09T11:53:00Z",
    "repr": "091153Z"
  },
  "units": {
    "accumulation": "in",
    "altimeter": "inHg",
    "altitude": "ft",
    "temperature": "C",
    "visibility": "sm",
    "wind_speed": "kt"
  },
  "visibility": {
    "repr": "10",
    "spoken": "one zero",
    "value": 10
  },
  "wind_direction": {
    "repr": "000",
    "spoken": "zero zero zero",
    "value": 0
  },
  "wind_gust": null,
  "wind_speed": {
    "repr": "00",
    "spoken": "zero",
    "value": 0
  },
  "wind_variable_direction": [],
  "wx_codes": []
}
