{
  "meta": {
    "timestamp": "2023-05-20T22:01:29.423017Z",
    "stations_updated": "2023-03-11"
  },
  "altimeter": {
    "repr": "A3013",
    "value": 30.13,
    "spoken": "three zero point one three"
  },
  "clouds": [
    {
      "repr": "FEW033",
      "type": "FEW",
      "altitude": 33,
      "modifier": null
    },
    {
      "repr": "FEW100",
      "type": "FEW",
      "altitude": 100,
      "modifier": null
    },
    {
      "repr": "SCT150",
      "type": "SCT",
      "altitude": 150,
      "modifier": null
    },
    {
      "repr": "BKN220",
      "type": "BKN",
      "altitude": 220,
      "modifier": null
    }
  ],
  "flight_rules": "VFR",
  "other": [],
  "visibility": {
    "repr": "10",
    "value": 10,
    "spoken": "one zero"
  },
  "wind_direction": {
    "repr": "240",
    "value": 240,
    "spoken": "two four zero"
  },
  "wind_gust": null,
  "wind_speed": {
    "repr": "08",
    "value": 8,
    "spoken": "eight"
  },
  "wx_codes": [],
  "raw": "KNUW 202153Z 24008KT 10SM FEW033 FEW100 SCT150 BKN220 15/11 A3013 RMK AO2 SLP208 T01500111 $",
  "sanitized": "KNUW 202153Z 24008KT 10SM FEW033 FEW100 SCT150 BKN220 15/11 A3013 RMK AO2 SLP208 T01500111 $",
  "station": "KNUW",
  "time": {
    "repr": "202153Z",
    "dt": "2023-05-20T21:53:00Z"
  },
  "remarks": "RMK AO2 SLP208 T01500111 $",
  "dewpoint": {
    "repr": "11",
    "value": 11,
    "spoken": "one one"
  },
  "relative_humidity": 0.7749433438834519,
  "remarks_info": {
    "maximum_temperature_6": null,
    "minimum_temperature_6": null,
    "pressure_tendency": null,
    "precip_36_hours": null,
    "precip_24_hours": null,
    "sunshine_minutes": null,
    "codes": [
      {
        "repr": "$",
        "value": "ASOS requires maintenance"
      },
      {
        "repr": "AO2",
        "value": "Automated with precipitation sensor"
      }
    ],
    "dewpoint_decimal": {
      "repr": "0111",
      "value": 11.1,
      "spoken": "one one point one"
    },
    "maximum_temperature_24": null,
    "minimum_temperature_24": null,
    "precip_hourly": null,
    "sea_level_pressure": {
      "repr": "SLP208",
      "value": 1020.8,
      "spoken": "one zero two zero point eight"
    },
    "snow_depth": null,
    "temperature_decimal": {
      "repr": "0150",
      "value": 15,
      "spoken": "one five point zero"
    }
  },
  "runway_visibility": [],
  "temperature": {
    "repr": "15",
    "value": 15,
    "spoken": "one five"
  },
  "wind_variable_direction": [],
  "density_altitude": -152,
  "pressure_altitude": -163,
  "units": {
    "accumulation": "in",
    "altimeter": "inHg",
    "altitude": "ft",
    "temperature": "C",
    "visibility": "sm",
    "wind_speed": "kt"
  }
}
