{
  "altimeter": {
    "repr": "A2975",
    "spoken": "two nine point seven five",
    "value": 29.75
  },
  "clouds": [
    {
      "altitude": 20,
      "modifier": null,
      "repr": "SCT020",
      "type": "SCT"
    },
    {
      "altitude": 50,
      "modifier": null,
      "repr": "BKN050",
      "type": "BKN"
    },
    {
      "altitude": 120,
      "modifier": null,
      "repr": "BKN120",
      "type": "BKN"
    },
    {
      "altitude": 150,
      "modifier": null,
      "repr": "BKN150",
      "type": "BKN"
    }
  ],
  "density_altitude": 432,
  "dewpoint": {
    "repr": "13",
    "spoken": "one three",
    "value": 13
  },
  "flight_rules": "VFR",
  "meta": {
    "stations_updated": "2024-06-12",
    "timestamp": "2024-10-20T19:02:00.557798Z"
  },
  "other": [],
  "pressure_altitude": 217,
  "raw": "KNUW 201853Z 15032G46KT 10SM SCT020 BKN050 BKN120 BKN150 17/13 A2975 RMK AO2 PK WND 15046/1852 SLP077 T01670128 $",
  "relative_humidity": 0.7775405681030445,
  "remarks": "RMK AO2 PK WND 15046/1852 SLP077 T01670128 $",
  "remarks_info": {
    "codes": [
      {
        "repr": "$",
        "value": "ASOS requires maintenance"
      },
      {
        "repr": "AO2",
        "value": "Automated with precipitation sensor"
      }
    ],
    "dewpoint_decimal": {
      "repr": "0128",
      "spoken": "one two point eight",
      "value": 12.8
    },
    "maximum_temperature_24": null,
    "maximum_temperature_6": null,
    "minimum_temperature_24": null,
    "minimum_temperature_6": null,
    "precip_24_hours": null,
    "precip_36_hours": null,
    "precip_hourly": null,
    "pressure_tendency": null,
    "sea_level_pressure": {
      "repr": "SLP077",
      "spoken": "one zero zero seven point seven",
      "value": 1007.7
    },
    "snow_depth": null,
    "sunshine_minutes": null,
    "temperature_decimal": {
      "repr": "0167",
      "spoken": "one six point seven",
      "value": 16.7
    }
  },
  "runway_visibility": [],
  "sanitized": "KNUW 201853Z 15032G46KT 10SM SCT020 BKN050 BKN120 BKN150 17/13 A2975 RMK AO2 PK WND 15046/1852 SLP077 T01670128 $",
  "station": "KNUW",
  "temperature": {
    "repr": "17",
    "spoken": "one seven",
    "value": 17
  },
  "time": {
    "dt": "2024-10-20T18:53:00Z",
    "repr": "201853Z"
  },
  "units": {
    "accumulation": "in",
    "altimeter": "inHg",
    "altitude": "ft",
    "temperature": "C",
    "visibility": "sm",
    "wind_speed": "kt"
  },
  "visibility": {
    "repr": "10",
    "spoken": "one zero",
    "value": 10
  },
  "wind_direction": {
    "repr": "150",
    "spoken": "one five zero",
    "value": 150
  },
  "wind_gust": {
    "repr": "46",
    "spoken": "four six",
    "value": 46
  },
  "wind_speed": {
    "repr": "32",
    "spoken": "three two",
    "value": 32
  },
  "wind_variable_direction": [],
  "wx_codes": []
}
