{
  "meta": {
    "timestamp": "2023-01-12T13:18:42.971279Z",
    "stations_updated": "2022-12-27"
  },
  "altimeter": {
    "repr": "A2981",
    "value": 29.81,
    "spoken": "two nine point eight one"
  },
  "clouds": [
    {
      "repr": "FEW025",
      "type": "FEW",
      "altitude": 25,
      "modifier": null
    },
    {
      "repr": "SCT065",
      "type": "SCT",
      "altitude": 65,
      "modifier": null
    },
    {
      "repr": "BKN100",
      "type": "BKN",
      "altitude": 100,
      "modifier": null
    }
  ],
  "flight_rules": "VFR",
  "other": [],
  "visibility": {
    "repr": "10",
    "value": 10,
    "spoken": "one zero"
  },
  "wind_direction": {
    "repr": "150",
    "value": 150,
    "spoken": "one five zero"
  },
  "wind_gust": null,
  "wind_speed": {
    "repr": "12",
    "value": 12,
    "spoken": "one two"
  },
  "wx_codes": [],
  "raw": "KNUW 121253Z 15012KT 10SM FEW025 SCT065 BKN100 09/06 A2981 RMK AO2 SLP094 T00890061 VISNO $",
  "sanitized": "KNUW 121253Z 15012KT 10SM FEW025 SCT065 BKN100 09/06 A2981 RMK AO2 SLP094 T00890061 VISNO $",
  "station": "KNUW",
  "time": {
    "repr": "121253Z",
    "dt": "2023-01-12T12:53:00Z"
  },
  "remarks": "RMK AO2 SLP094 T00890061 VISNO $",
  "dewpoint": {
    "repr": "06",
    "value": 6,
    "spoken": "six"
  },
  "relative_humidity": 0.8259412939623852,
  "remarks_info": {
    "maximum_temperature_6": null,
    "minimum_temperature_6": null,
    "pressure_tendency": null,
    "precip_36_hours": null,
    "precip_24_hours": null,
    "sunshine_minutes": null,
    "codes": [
      {
        "repr": "$",
        "value": "ASOS requires maintenance"
      },
      {
        "repr": "AO2",
        "value": "Automated with precipitation sensor"
      }
    ],
    "dewpoint_decimal": {
      "repr": "0061",
      "value": 6.1,
      "spoken": "six point one"
    },
    "maximum_temperature_24": null,
    "minimum_temperature_24": null,
    "precip_hourly": null,
    "sea_level_pressure": {
      "repr": "SLP094",
      "value": 1009.4,
      "spoken": "one zero zero nine point four"
    },
    "snow_depth": null,
    "temperature_decimal": {
      "repr": "0089",
      "value": 8.9,
      "spoken": "eight point nine"
    }
  },
  "runway_visibility": [],
  "temperature": {
    "repr": "09",
    "value": 9,
    "spoken": "nine"
  },
  "wind_variable_direction": [],
  "density_altitude": -564,
  "pressure_altitude": 157,
  "units": {
    "accumulation": "in",
    "altimeter": "inHg",
    "altitude": "ft",
    "temperature": "C",
    "visibility": "sm",
    "wind_speed": "kt"
  }
}
