{
  "meta": {
    "timestamp": "2022-11-18T12:10:38.000765Z",
    "stations_updated": "2022-09-05"
  },
  "altimeter": {
    "repr": "A3055",
    "value": 30.55,
    "spoken": "three zero point five five"
  },
  "clouds": [],
  "flight_rules": "VFR",
  "other": [],
  "visibility": {
    "repr": "10",
    "value": 10,
    "spoken": "one zero"
  },
  "wind_direction": {
    "repr": "000",
    "value": 0,
    "spoken": "zero zero zero"
  },
  "wind_gust": null,
  "wind_speed": {
    "repr": "00",
    "value": 0,
    "spoken": "zero"
  },
  "wx_codes": [],
  "raw": "KNUW 181153Z 00000KT 10SM CLR M01/M06 A3055 RMK AO2 SLP345 T10111061 10033 21033 56007 VISNO $",
  "sanitized": "KNUW 181153Z 00000KT 10SM M01/M06 A3055 RMK AO2 SLP345 T10111061 10033 21033 56007 VISNO $",
  "station": "KNUW",
  "time": {
    "repr": "181153Z",
    "dt": "2022-11-18T11:53:00Z"
  },
  "remarks": "RMK AO2 SLP345 T10111061 10033 21033 56007 VISNO $",
  "dewpoint": {
    "repr": "M06",
    "value": -6,
    "spoken": "minus six"
  },
  "relative_humidity": 0.6880831935820321,
  "remarks_info": {
    "maximum_temperature_6": {
      "repr": "10033",
      "value": 3.3,
      "spoken": "three point three"
    },
    "minimum_temperature_6": {
      "repr": "21033",
      "value": -3.3,
      "spoken": "minus three point three"
    },
    "pressure_tendency": {
      "repr": "56007",
      "tendency": "Decreasing, then steady",
      "change": 0.7
    },
    "precip_36_hours": null,
    "precip_24_hours": null,
    "sunshine_minutes": null,
    "codes": [
      {
        "repr": "$",
        "value": "ASOS requires maintenance"
      },
      {
        "repr": "AO2",
        "value": "Automated with precipitation sensor"
      }
    ],
    "dewpoint_decimal": {
      "repr": "1061",
      "value": -6.1,
      "spoken": "minus six point one"
    },
    "maximum_temperature_24": null,
    "minimum_temperature_24": null,
    "precip_hourly": null,
    "sea_level_pressure": {
      "repr": "SLP345",
      "value": 1034.5,
      "spoken": "one zero three four point five"
    },
    "snow_depth": null,
    "temperature_decimal": {
      "repr": "1011",
      "value": -1.1,
      "spoken": "minus one point one"
    }
  },
  "runway_visibility": [],
  "temperature": {
    "repr": "M01",
    "value": -1,
    "spoken": "minus one"
  },
  "wind_variable_direction": [],
  "density_altitude": -2504,
  "pressure_altitude": -583,
  "units": {
    "accumulation": "in",
    "altimeter": "inHg",
    "altitude": "ft",
    "temperature": "C",
    "visibility": "sm",
    "wind_speed": "kt"
  }
}
