{
  "meta": {
    "timestamp": "2023-03-12T17:40:36.212130Z",
    "stations_updated": "2023-03-11",
    "cache-timestamp": "2023-03-12T17:40:06.072000Z"
  },
  "altimeter": {
    "repr": "A2983",
    "value": 29.83,
    "spoken": "two nine point eight three"
  },
  "clouds": [
    {
      "repr": "FEW055",
      "type": "FEW",
      "altitude": 55,
      "modifier": null
    },
    {
      "repr": "BKN150",
      "type": "BKN",
      "altitude": 150,
      "modifier": null
    },
    {
      "repr": "BKN220",
      "type": "BKN",
      "altitude": 220,
      "modifier": null
    }
  ],
  "flight_rules": "VFR",
  "other": [],
  "visibility": {
    "repr": "10",
    "value": 10,
    "spoken": "one zero"
  },
  "wind_direction": {
    "repr": "110",
    "value": 110,
    "spoken": "one one zero"
  },
  "wind_gust": null,
  "wind_speed": {
    "repr": "08",
    "value": 8,
    "spoken": "eight"
  },
  "wx_codes": [],
  "raw": "KNUW 121653Z 11008KT 10SM FEW055 BKN150 BKN220 05/03 A2983 RMK SLP105 T00500028",
  "sanitized": "KNUW 121653Z 11008KT 10SM FEW055 BKN150 BKN220 05/03 A2983 RMK SLP105 T00500028",
  "station": "KNUW",
  "time": {
    "repr": "121653Z",
    "dt": "2023-03-12T16:53:00Z"
  },
  "remarks": "RMK SLP105 T00500028",
  "dewpoint": {
    "repr": "03",
    "value": 3,
    "spoken": "three"
  },
  "relative_humidity": 0.8567096465909865,
  "remarks_info": {
    "maximum_temperature_6": null,
    "minimum_temperature_6": null,
    "pressure_tendency": null,
    "precip_36_hours": null,
    "precip_24_hours": null,
    "sunshine_minutes": null,
    "codes": [],
    "dewpoint_decimal": {
      "repr": "0028",
      "value": 2.8,
      "spoken": "two point eight"
    },
    "maximum_temperature_24": null,
    "minimum_temperature_24": null,
    "precip_hourly": null,
    "sea_level_pressure": {
      "repr": "SLP105",
      "value": 1010.5,
      "spoken": "one zero one zero point five"
    },
    "snow_depth": null,
    "temperature_decimal": {
      "repr": "0050",
      "value": 5,
      "spoken": "five point zero"
    }
  },
  "runway_visibility": [],
  "temperature": {
    "repr": "05",
    "value": 5,
    "spoken": "five"
  },
  "wind_variable_direction": [],
  "density_altitude": -1052,
  "pressure_altitude": 137,
  "units": {
    "accumulation": "in",
    "altimeter": "inHg",
    "altitude": "ft",
    "temperature": "C",
    "visibility": "sm",
    "wind_speed": "kt"
  }
}
