{
  "meta": {
    "timestamp": "2022-12-27T19:01:23.585844Z",
    "stations_updated": "2022-09-05"
  },
  "altimeter": {
    "repr": "A2891",
    "value": 28.91,
    "spoken": "two eight point nine one"
  },
  "clouds": [
    {
      "repr": "SCT027",
      "type": "SCT",
      "altitude": 27,
      "modifier": null
    },
    {
      "repr": "BKN033",
      "type": "BKN",
      "altitude": 33,
      "modifier": null
    },
    {
      "repr": "OVC080",
      "type": "OVC",
      "altitude": 80,
      "modifier": null
    }
  ],
  "flight_rules": "VFR",
  "other": [],
  "visibility": {
    "repr": "10",
    "value": 10,
    "spoken": "one zero"
  },
  "wind_direction": {
    "repr": "140",
    "value": 140,
    "spoken": "one four zero"
  },
  "wind_gust": {
    "repr": "33",
    "value": 33,
    "spoken": "three three"
  },
  "wind_speed": {
    "repr": "27",
    "value": 27,
    "spoken": "two seven"
  },
  "wx_codes": [
    {
      "repr": "-RA",
      "value": "Light Rain"
    }
  ],
  "raw": "KNUW 271853Z 14027G33KT 10SM -RA SCT027 BKN033 OVC080 11/08 A2891 RMK AO2 PK WND 14039/1836 RAB1758E09B52 SLP790 P0000 T01060078 VISNO $",
  "sanitized": "KNUW 271853Z 14027G33KT 10SM -RA SCT027 BKN033 OVC080 11/08 A2891 RMK AO2 PK WND 14039/1836 RAB1758E09B52 SLP790 P0000 T01060078 VISNO $",
  "station": "KNUW",
  "time": {
    "repr": "271853Z",
    "dt": "2022-12-27T18:53:00Z"
  },
  "remarks": "RMK AO2 PK WND 14039/1836 RAB1758E09B52 SLP790 P0000 T01060078 VISNO $",
  "dewpoint": {
    "repr": "08",
    "value": 8,
    "spoken": "eight"
  },
  "relative_humidity": 0.828062043990444,
  "remarks_info": {
    "maximum_temperature_6": null,
    "minimum_temperature_6": null,
    "pressure_tendency": null,
    "precip_36_hours": null,
    "precip_24_hours": null,
    "sunshine_minutes": null,
    "codes": [
      {
        "repr": "$",
        "value": "ASOS requires maintenance"
      },
      {
        "repr": "AO2",
        "value": "Automated with precipitation sensor"
      },
      {
        "repr": "P0000",
        "value": "Trace amount of rain in the last hour"
      }
    ],
    "dewpoint_decimal": {
      "repr": "0078",
      "value": 7.8,
      "spoken": "seven point eight"
    },
    "maximum_temperature_24": null,
    "minimum_temperature_24": null,
    "precip_hourly": null,
    "sea_level_pressure": {
      "repr": "SLP790",
      "value": 979,
      "spoken": "nine seven nine point zero"
    },
    "snow_depth": null,
    "temperature_decimal": {
      "repr": "0106",
      "value": 10.6,
      "spoken": "one zero point six"
    }
  },
  "runway_visibility": [],
  "temperature": {
    "repr": "11",
    "value": 11,
    "spoken": "one one"
  },
  "wind_variable_direction": [],
  "density_altitude": 540,
  "pressure_altitude": 1057,
  "units": {
    "accumulation": "in",
    "altimeter": "inHg",
    "altitude": "ft",
    "temperature": "C",
    "visibility": "sm",
    "wind_speed": "kt"
  }
}
