{
  "meta": {
    "timestamp": "2022-11-17T16:45:01.494552Z",
    "stations_updated": "2022-09-05"
  },
  "altimeter": {
    "repr": "A3050",
    "value": 30.5,
    "spoken": "three zero point five zero"
  },
  "clouds": [
    {
      "repr": "BKN003",
      "type": "BKN",
      "altitude": 3,
      "modifier": null
    },
    {
      "repr": "BKN250",
      "type": "BKN",
      "altitude": 250,
      "modifier": null
    }
  ],
  "flight_rules": "LIFR",
  "other": [],
  "visibility": {
    "repr": "1/8",
    "value": 0.125,
    "spoken": "one eight",
    "numerator": 1,
    "denominator": 8,
    "normalized": "1/8"
  },
  "wind_direction": {
    "repr": "090",
    "value": 90,
    "spoken": "zero nine zero"
  },
  "wind_gust": null,
  "wind_speed": {
    "repr": "04",
    "value": 4,
    "spoken": "four"
  },
  "wx_codes": [
    {
      "repr": "FG",
      "value": "Fog"
    }
  ],
  "raw": "KNUW 171553Z 09004KT 1/8SM FG BKN003 BKN250 01/01 A3050 RMK AO2 SFC VIS 1/4 SLP327 T00110011 VISNO $",
  "sanitized": "KNUW 171553Z 09004KT 1/8SM FG BKN003 BKN250 01/01 A3050 RMK AO2 SFC VIS 1/4 SLP327 T00110011 VISNO $",
  "station": "KNUW",
  "time": {
    "repr": "171553Z",
    "dt": "2022-11-17T15:53:00Z"
  },
  "remarks": "RMK AO2 SFC VIS 1/4 SLP327 T00110011 VISNO $",
  "dewpoint": {
    "repr": "01",
    "value": 1,
    "spoken": "one"
  },
  "relative_humidity": 1,
  "remarks_info": {
    "maximum_temperature_6": null,
    "minimum_temperature_6": null,
    "pressure_tendency": null,
    "precip_36_hours": null,
    "precip_24_hours": null,
    "sunshine_minutes": null,
    "codes": [
      {
        "repr": "$",
        "value": "ASOS requires maintenance"
      },
      {
        "repr": "AO2",
        "value": "Automated with precipitation sensor"
      }
    ],
    "dewpoint_decimal": {
      "repr": "0011",
      "value": 1.1,
      "spoken": "one point one"
    },
    "maximum_temperature_24": null,
    "minimum_temperature_24": null,
    "precip_hourly": null,
    "sea_level_pressure": {
      "repr": "SLP327",
      "value": 1032.7,
      "spoken": "one zero three two point seven"
    },
    "snow_depth": null,
    "temperature_decimal": {
      "repr": "0011",
      "value": 1.1,
      "spoken": "one point one"
    }
  },
  "runway_visibility": [],
  "temperature": {
    "repr": "01",
    "value": 1,
    "spoken": "one"
  },
  "wind_variable_direction": [],
  "density_altitude": -2190,
  "pressure_altitude": -533,
  "units": {
    "accumulation": "in",
    "altimeter": "inHg",
    "altitude": "ft",
    "temperature": "C",
    "visibility": "sm",
    "wind_speed": "kt"
  }
}
