{
  "altimeter": {
    "repr": "A3008",
    "spoken": "three zero point zero eight",
    "value": 30.08
  },
  "clouds": [
    {
      "altitude": 10,
      "modifier": null,
      "repr": "FEW010",
      "type": "FEW"
    },
    {
      "altitude": 230,
      "modifier": null,
      "repr": "SCT230",
      "type": "SCT"
    }
  ],
  "density_altitude": -1230,
  "dewpoint": {
    "repr": "05",
    "spoken": "five",
    "value": 5
  },
  "flight_rules": "VFR",
  "meta": {
    "stations_updated": "2024-06-12",
    "timestamp": "2024-10-11T09:07:46.752738Z"
  },
  "other": [],
  "pressure_altitude": -113,
  "raw": "KNUW 110853Z 00000KT 10SM MIFG FEW010 SCT230 06/05 A3008 RMK AO2 SLP188 T00560050 56007 $",
  "relative_humidity": 0.9591528252665625,
  "remarks": "RMK AO2 SLP188 T00560050 56007 $",
  "remarks_info": {
    "codes": [
      {
        "repr": "$",
        "value": "ASOS requires maintenance"
      },
      {
        "repr": "AO2",
        "value": "Automated with precipitation sensor"
      }
    ],
    "dewpoint_decimal": {
      "repr": "0050",
      "spoken": "five point zero",
      "value": 5
    },
    "maximum_temperature_24": null,
    "maximum_temperature_6": null,
    "minimum_temperature_24": null,
    "minimum_temperature_6": null,
    "precip_24_hours": null,
    "precip_36_hours": null,
    "precip_hourly": null,
    "pressure_tendency": {
      "change": 0.7,
      "repr": "56007",
      "tendency": "Decreasing, then steady"
    },
    "sea_level_pressure": {
      "repr": "SLP188",
      "spoken": "one zero one eight point eight",
      "value": 1018.8
    },
    "snow_depth": null,
    "sunshine_minutes": null,
    "temperature_decimal": {
      "repr": "0056",
      "spoken": "five point six",
      "value": 5.6
    }
  },
  "runway_visibility": [],
  "sanitized": "KNUW 110853Z 00000KT 10SM MIFG FEW010 SCT230 06/05 A3008 RMK AO2 SLP188 T00560050 56007 $",
  "station": "KNUW",
  "temperature": {
    "repr": "06",
    "spoken": "six",
    "value": 6
  },
  "time": {
    "dt": "2024-10-11T08:53:00Z",
    "repr": "110853Z"
  },
  "units": {
    "accumulation": "in",
    "altimeter": "inHg",
    "altitude": "ft",
    "temperature": "C",
    "visibility": "sm",
    "wind_speed": "kt"
  },
  "visibility": {
    "repr": "10",
    "spoken": "one zero",
    "value": 10
  },
  "wind_direction": {
    "repr": "000",
    "spoken": "zero zero zero",
    "value": 0
  },
  "wind_gust": null,
  "wind_speed": {
    "repr": "00",
    "spoken": "zero",
    "value": 0
  },
  "wind_variable_direction": [],
  "wx_codes": [
    {
      "repr": "MIFG",
      "value": "Shallow Fog"
    }
  ]
}
