{
  "meta": {
    "timestamp": "2023-04-27T18:30:26.689009Z",
    "stations_updated": "2023-03-11",
    "cache-timestamp": "2023-04-27T18:30:07.997000Z"
  },
  "altimeter": {
    "repr": "A3029",
    "value": 30.29,
    "spoken": "three zero point two nine"
  },
  "clouds": [
    {
      "repr": "SCT008",
      "type": "SCT",
      "altitude": 8,
      "modifier": null
    },
    {
      "repr": "BKN014",
      "type": "BKN",
      "altitude": 14,
      "modifier": null
    },
    {
      "repr": "BKN240",
      "type": "BKN",
      "altitude": 240,
      "modifier": null
    }
  ],
  "flight_rules": "MVFR",
  "other": [],
  "visibility": {
    "repr": "10",
    "value": 10,
    "spoken": "one zero"
  },
  "wind_direction": {
    "repr": "290",
    "value": 290,
    "spoken": "two nine zero"
  },
  "wind_gust": null,
  "wind_speed": {
    "repr": "05",
    "value": 5,
    "spoken": "five"
  },
  "wx_codes": [],
  "raw": "KNUW 271753Z 29005KT 10SM SCT008 BKN014 BKN240 10/08 A3029 RMK AO2 SLP259 T01000083 10100 20078 58001 VISNO $",
  "sanitized": "KNUW 271753Z 29005KT 10SM SCT008 BKN014 BKN240 10/08 A3029 RMK AO2 SLP259 T01000083 10100 20078 58001 VISNO $",
  "station": "KNUW",
  "time": {
    "repr": "271753Z",
    "dt": "2023-04-27T17:53:00Z"
  },
  "remarks": "RMK AO2 SLP259 T01000083 10100 20078 58001 VISNO $",
  "dewpoint": {
    "repr": "08",
    "value": 8,
    "spoken": "eight"
  },
  "relative_humidity": 0.8917307313199454,
  "remarks_info": {
    "maximum_temperature_6": {
      "repr": "10100",
      "value": 10,
      "spoken": "one zero point zero"
    },
    "minimum_temperature_6": {
      "repr": "20078",
      "value": 7.8,
      "spoken": "seven point eight"
    },
    "pressure_tendency": {
      "repr": "58001",
      "tendency": "Steady or increasing, then decreasing",
      "change": 0.1
    },
    "precip_36_hours": null,
    "precip_24_hours": null,
    "sunshine_minutes": null,
    "codes": [
      {
        "repr": "$",
        "value": "ASOS requires maintenance"
      },
      {
        "repr": "AO2",
        "value": "Automated with precipitation sensor"
      }
    ],
    "dewpoint_decimal": {
      "repr": "0083",
      "value": 8.3,
      "spoken": "eight point three"
    },
    "maximum_temperature_24": null,
    "minimum_temperature_24": null,
    "precip_hourly": null,
    "sea_level_pressure": {
      "repr": "SLP259",
      "value": 1025.9,
      "spoken": "one zero two five point nine"
    },
    "snow_depth": null,
    "temperature_decimal": {
      "repr": "0100",
      "value": 10,
      "spoken": "one zero point zero"
    }
  },
  "runway_visibility": [],
  "temperature": {
    "repr": "10",
    "value": 10,
    "spoken": "one zero"
  },
  "wind_variable_direction": [],
  "density_altitude": -912,
  "pressure_altitude": -323,
  "units": {
    "accumulation": "in",
    "altimeter": "inHg",
    "altitude": "ft",
    "temperature": "C",
    "visibility": "sm",
    "wind_speed": "kt"
  }
}
