{
  "altimeter": {
    "repr": "A2994",
    "spoken": "two nine point nine four",
    "value": 29.94
  },
  "clouds": [
    {
      "altitude": 37,
      "modifier": null,
      "repr": "BKN037",
      "type": "BKN"
    },
    {
      "altitude": 50,
      "modifier": null,
      "repr": "BKN050",
      "type": "BKN"
    },
    {
      "altitude": 65,
      "modifier": null,
      "repr": "OVC065",
      "type": "OVC"
    }
  ],
  "density_altitude": -562,
  "dewpoint": {
    "repr": "09",
    "spoken": "nine",
    "value": 9
  },
  "flight_rules": "VFR",
  "meta": {
    "cache-timestamp": "2024-04-27T06:40:02.892000Z",
    "stations_updated": "2024-01-01",
    "timestamp": "2024-04-27T06:40:37.981828Z"
  },
  "other": [],
  "pressure_altitude": 27,
  "raw": "KNUW 270553Z 20003KT 10SM BKN037 BKN050 OVC065 10/09 A2994 RMK AO2 SLP141 T01000089 10117 20089 53012 $",
  "relative_humidity": 0.9286987212378438,
  "remarks": "RMK AO2 SLP141 T01000089 10117 20089 53012 $",
  "remarks_info": {
    "codes": [
      {
        "repr": "$",
        "value": "ASOS requires maintenance"
      },
      {
        "repr": "AO2",
        "value": "Automated with precipitation sensor"
      }
    ],
    "dewpoint_decimal": {
      "repr": "0089",
      "spoken": "eight point nine",
      "value": 8.9
    },
    "maximum_temperature_24": null,
    "maximum_temperature_6": {
      "repr": "10117",
      "spoken": "one one point seven",
      "value": 11.7
    },
    "minimum_temperature_24": null,
    "minimum_temperature_6": {
      "repr": "20089",
      "spoken": "eight point nine",
      "value": 8.9
    },
    "precip_24_hours": null,
    "precip_36_hours": null,
    "precip_hourly": null,
    "pressure_tendency": {
      "change": 1.2,
      "repr": "53012",
      "tendency": "Decreasing or steady, then increasing"
    },
    "sea_level_pressure": {
      "repr": "SLP141",
      "spoken": "one zero one four point one",
      "value": 1014.1
    },
    "snow_depth": null,
    "sunshine_minutes": null,
    "temperature_decimal": {
      "repr": "0100",
      "spoken": "one zero point zero",
      "value": 10
    }
  },
  "runway_visibility": [],
  "sanitized": "KNUW 270553Z 20003KT 10SM BKN037 BKN050 OVC065 10/09 A2994 RMK AO2 SLP141 T01000089 10117 20089 53012 $",
  "station": "KNUW",
  "temperature": {
    "repr": "10",
    "spoken": "one zero",
    "value": 10
  },
  "time": {
    "dt": "2024-04-27T05:53:00Z",
    "repr": "270553Z"
  },
  "units": {
    "accumulation": "in",
    "altimeter": "inHg",
    "altitude": "ft",
    "temperature": "C",
    "visibility": "sm",
    "wind_speed": "kt"
  },
  "visibility": {
    "repr": "10",
    "spoken": "one zero",
    "value": 10
  },
  "wind_direction": {
    "repr": "200",
    "spoken": "two zero zero",
    "value": 200
  },
  "wind_gust": null,
  "wind_speed": {
    "repr": "03",
    "spoken": "three",
    "value": 3
  },
  "wind_variable_direction": [],
  "wx_codes": []
}
