{
  "altimeter": {
    "repr": "A2993",
    "spoken": "two nine point nine three",
    "value": 29.93
  },
  "clouds": [
    {
      "altitude": 160,
      "modifier": null,
      "repr": "FEW160",
      "type": "FEW"
    },
    {
      "altitude": 230,
      "modifier": null,
      "repr": "BKN230",
      "type": "BKN"
    }
  ],
  "density_altitude": 120,
  "dewpoint": {
    "repr": "09",
    "spoken": "nine",
    "value": 9
  },
  "flight_rules": "VFR",
  "meta": {
    "stations_updated": "2024-05-13",
    "timestamp": "2024-06-08T22:02:01.392339Z"
  },
  "other": [],
  "pressure_altitude": 37,
  "raw": "KNUW 082153Z 27005KT 10SM FEW160 BKN230 16/09 A2993 RMK AO2 SLP138 T01560094 $",
  "relative_humidity": 0.6655714776038613,
  "remarks": "RMK AO2 SLP138 T01560094 $",
  "remarks_info": {
    "codes": [
      {
        "repr": "$",
        "value": "ASOS requires maintenance"
      },
      {
        "repr": "AO2",
        "value": "Automated with precipitation sensor"
      }
    ],
    "dewpoint_decimal": {
      "repr": "0094",
      "spoken": "nine point four",
      "value": 9.4
    },
    "maximum_temperature_24": null,
    "maximum_temperature_6": null,
    "minimum_temperature_24": null,
    "minimum_temperature_6": null,
    "precip_24_hours": null,
    "precip_36_hours": null,
    "precip_hourly": null,
    "pressure_tendency": null,
    "sea_level_pressure": {
      "repr": "SLP138",
      "spoken": "one zero one three point eight",
      "value": 1013.8
    },
    "snow_depth": null,
    "sunshine_minutes": null,
    "temperature_decimal": {
      "repr": "0156",
      "spoken": "one five point six",
      "value": 15.6
    }
  },
  "runway_visibility": [],
  "sanitized": "KNUW 082153Z 27005KT 10SM FEW160 BKN230 16/09 A2993 RMK AO2 SLP138 T01560094 $",
  "station": "KNUW",
  "temperature": {
    "repr": "16",
    "spoken": "one six",
    "value": 16
  },
  "time": {
    "dt": "2024-06-08T21:53:00Z",
    "repr": "082153Z"
  },
  "units": {
    "accumulation": "in",
    "altimeter": "inHg",
    "altitude": "ft",
    "temperature": "C",
    "visibility": "sm",
    "wind_speed": "kt"
  },
  "visibility": {
    "repr": "10",
    "spoken": "one zero",
    "value": 10
  },
  "wind_direction": {
    "repr": "270",
    "spoken": "two seven zero",
    "value": 270
  },
  "wind_gust": null,
  "wind_speed": {
    "repr": "05",
    "spoken": "five",
    "value": 5
  },
  "wind_variable_direction": [],
  "wx_codes": []
}
