{
  "meta": {
    "timestamp": "2023-06-01T09:40:38.665742Z",
    "stations_updated": "2023-05-30",
    "cache-timestamp": "2023-06-01T09:40:06.668000Z"
  },
  "altimeter": {
    "repr": "A3007",
    "value": 30.07,
    "spoken": "three zero point zero seven"
  },
  "clouds": [
    {
      "repr": "FEW220",
      "type": "FEW",
      "altitude": 220,
      "modifier": null
    }
  ],
  "flight_rules": "VFR",
  "other": [],
  "visibility": {
    "repr": "10",
    "value": 10,
    "spoken": "one zero"
  },
  "wind_direction": {
    "repr": "270",
    "value": 270,
    "spoken": "two seven zero"
  },
  "wind_gust": {
    "repr": "24",
    "value": 24,
    "spoken": "two four"
  },
  "wind_speed": {
    "repr": "14",
    "value": 14,
    "spoken": "one four"
  },
  "wx_codes": [],
  "raw": "KNUW 010853Z 27014G24KT 10SM FEW220 10/08 A3007 RMK AO2 SLP187 T01000078 56002 $",
  "sanitized": "KNUW 010853Z 27014G24KT 10SM FEW220 10/08 A3007 RMK AO2 SLP187 T01000078 56002 $",
  "station": "KNUW",
  "time": {
    "repr": "010853Z",
    "dt": "2023-06-01T08:53:00Z"
  },
  "remarks": "RMK AO2 SLP187 T01000078 56002 $",
  "dewpoint": {
    "repr": "08",
    "value": 8,
    "spoken": "eight"
  },
  "relative_humidity": 0.861922973004222,
  "remarks_info": {
    "maximum_temperature_6": null,
    "minimum_temperature_6": null,
    "pressure_tendency": {
      "repr": "56002",
      "tendency": "Decreasing, then steady",
      "change": 0.2
    },
    "precip_36_hours": null,
    "precip_24_hours": null,
    "sunshine_minutes": null,
    "codes": [
      {
        "repr": "$",
        "value": "ASOS requires maintenance"
      },
      {
        "repr": "AO2",
        "value": "Automated with precipitation sensor"
      }
    ],
    "dewpoint_decimal": {
      "repr": "0078",
      "value": 7.8,
      "spoken": "seven point eight"
    },
    "maximum_temperature_24": null,
    "minimum_temperature_24": null,
    "precip_hourly": null,
    "sea_level_pressure": {
      "repr": "SLP187",
      "value": 1018.7,
      "spoken": "one zero one eight point seven"
    },
    "snow_depth": null,
    "temperature_decimal": {
      "repr": "0100",
      "value": 10,
      "spoken": "one zero point zero"
    }
  },
  "runway_visibility": [],
  "temperature": {
    "repr": "10",
    "value": 10,
    "spoken": "one zero"
  },
  "wind_variable_direction": [],
  "density_altitude": -692,
  "pressure_altitude": -103,
  "units": {
    "accumulation": "in",
    "altimeter": "inHg",
    "altitude": "ft",
    "temperature": "C",
    "visibility": "sm",
    "wind_speed": "kt"
  }
}
