{
  "altimeter": {
    "repr": "A2983",
    "spoken": "two nine point eight three",
    "value": 29.83
  },
  "clouds": [
    {
      "altitude": 24,
      "modifier": null,
      "repr": "BKN024",
      "type": "BKN"
    },
    {
      "altitude": 60,
      "modifier": null,
      "repr": "BKN060",
      "type": "BKN"
    },
    {
      "altitude": 220,
      "modifier": null,
      "repr": "OVC220",
      "type": "OVC"
    }
  ],
  "density_altitude": -320,
  "dewpoint": {
    "repr": "08",
    "spoken": "eight",
    "value": 8
  },
  "flight_rules": "MVFR",
  "meta": {
    "stations_updated": "2024-10-29",
    "timestamp": "2024-11-13T00:35:41.982426Z"
  },
  "other": [],
  "pressure_altitude": 137,
  "raw": "KNUW 122353Z 13017G29KT 10SM BKN024 BKN060 OVC220 11/08 A2983 RMK AO2 PK WND 15030/2307 SLP105 T01110078 10128 20106 58027",
  "relative_humidity": 0.8009785710766422,
  "remarks": "RMK AO2 PK WND 15030/2307 SLP105 T01110078 10128 20106 58027",
  "remarks_info": {
    "codes": [
      {
        "repr": "AO2",
        "value": "Automated with precipitation sensor"
      }
    ],
    "dewpoint_decimal": {
      "repr": "0078",
      "spoken": "seven point eight",
      "value": 7.8
    },
    "maximum_temperature_24": null,
    "maximum_temperature_6": {
      "repr": "10128",
      "spoken": "one two point eight",
      "value": 12.8
    },
    "minimum_temperature_24": null,
    "minimum_temperature_6": {
      "repr": "20106",
      "spoken": "one zero point six",
      "value": 10.6
    },
    "precip_24_hours": null,
    "precip_36_hours": null,
    "precip_hourly": null,
    "pressure_tendency": {
      "change": 2.7,
      "repr": "58027",
      "tendency": "Steady or increasing, then decreasing"
    },
    "sea_level_pressure": {
      "repr": "SLP105",
      "spoken": "one zero one zero point five",
      "value": 1010.5
    },
    "snow_depth": null,
    "sunshine_minutes": null,
    "temperature_decimal": {
      "repr": "0111",
      "spoken": "one one point one",
      "value": 11.1
    }
  },
  "runway_visibility": [],
  "sanitized": "KNUW 122353Z 13017G29KT 10SM BKN024 BKN060 OVC220 11/08 A2983 RMK AO2 PK WND 15030/2307 SLP105 T01110078 10128 20106 58027",
  "station": "KNUW",
  "temperature": {
    "repr": "11",
    "spoken": "one one",
    "value": 11
  },
  "time": {
    "dt": "2024-11-12T23:53:00Z",
    "repr": "122353Z"
  },
  "units": {
    "accumulation": "in",
    "altimeter": "inHg",
    "altitude": "ft",
    "temperature": "C",
    "visibility": "sm",
    "wind_speed": "kt"
  },
  "visibility": {
    "repr": "10",
    "spoken": "one zero",
    "value": 10
  },
  "wind_direction": {
    "repr": "130",
    "spoken": "one three zero",
    "value": 130
  },
  "wind_gust": {
    "repr": "29",
    "spoken": "two nine",
    "value": 29
  },
  "wind_speed": {
    "repr": "17",
    "spoken": "one seven",
    "value": 17
  },
  "wind_variable_direction": [],
  "wx_codes": []
}
