{
  "meta": {
    "timestamp": "2023-06-12T11:01:25.210467Z",
    "stations_updated": "2023-06-06"
  },
  "altimeter": {
    "repr": "A3001",
    "value": 30.01,
    "spoken": "three zero point zero one"
  },
  "clouds": [
    {
      "repr": "FEW020",
      "type": "FEW",
      "altitude": 20,
      "modifier": null
    }
  ],
  "flight_rules": "VFR",
  "other": [],
  "visibility": {
    "repr": "10",
    "value": 10,
    "spoken": "one zero"
  },
  "wind_direction": {
    "repr": "000",
    "value": 0,
    "spoken": "zero zero zero"
  },
  "wind_gust": null,
  "wind_speed": {
    "repr": "00",
    "value": 0,
    "spoken": "zero"
  },
  "wx_codes": [],
  "raw": "KNUW 121053Z 00000KT 10SM FEW020 11/09 A3001 RMK AO2 SLP165 T01060094 VISNO $",
  "sanitized": "KNUW 121053Z 00000KT 10SM FEW020 11/09 A3001 RMK AO2 SLP165 T01060094 VISNO $",
  "station": "KNUW",
  "time": {
    "repr": "121053Z",
    "dt": "2023-06-12T10:53:00Z"
  },
  "remarks": "RMK AO2 SLP165 T01060094 VISNO $",
  "dewpoint": {
    "repr": "09",
    "value": 9,
    "spoken": "nine"
  },
  "relative_humidity": 0.9227971730278188,
  "remarks_info": {
    "maximum_temperature_6": null,
    "minimum_temperature_6": null,
    "pressure_tendency": null,
    "precip_36_hours": null,
    "precip_24_hours": null,
    "sunshine_minutes": null,
    "codes": [
      {
        "repr": "$",
        "value": "ASOS requires maintenance"
      },
      {
        "repr": "AO2",
        "value": "Automated with precipitation sensor"
      }
    ],
    "dewpoint_decimal": {
      "repr": "0094",
      "value": 9.4,
      "spoken": "nine point four"
    },
    "maximum_temperature_24": null,
    "minimum_temperature_24": null,
    "precip_hourly": null,
    "sea_level_pressure": {
      "repr": "SLP165",
      "value": 1016.5,
      "spoken": "one zero one six point five"
    },
    "snow_depth": null,
    "temperature_decimal": {
      "repr": "0106",
      "value": 10.6,
      "spoken": "one zero point six"
    }
  },
  "runway_visibility": [],
  "temperature": {
    "repr": "11",
    "value": 11,
    "spoken": "one one"
  },
  "wind_variable_direction": [],
  "density_altitude": -560,
  "pressure_altitude": -43,
  "units": {
    "accumulation": "in",
    "altimeter": "inHg",
    "altitude": "ft",
    "temperature": "C",
    "visibility": "sm",
    "wind_speed": "kt"
  }
}
