{
  "meta": {
    "timestamp": "2023-05-16T02:46:29.899134Z",
    "stations_updated": "2023-03-11"
  },
  "altimeter": {
    "repr": "A2994",
    "value": 29.94,
    "spoken": "two nine point nine four"
  },
  "clouds": [
    {
      "repr": "FEW050",
      "type": "FEW",
      "altitude": 50,
      "modifier": null
    },
    {
      "repr": "SCT070",
      "type": "SCT",
      "altitude": 70,
      "modifier": null
    },
    {
      "repr": "SCT120",
      "type": "SCT",
      "altitude": 120,
      "modifier": null
    },
    {
      "repr": "BKN240",
      "type": "BKN",
      "altitude": 240,
      "modifier": null
    }
  ],
  "flight_rules": "VFR",
  "other": [],
  "visibility": {
    "repr": "10",
    "value": 10,
    "spoken": "one zero"
  },
  "wind_direction": {
    "repr": "250",
    "value": 250,
    "spoken": "two five zero"
  },
  "wind_gust": null,
  "wind_speed": {
    "repr": "08",
    "value": 8,
    "spoken": "eight"
  },
  "wx_codes": [],
  "raw": "KNUW 160153Z 25008KT 10SM FEW050 SCT070 SCT120 BKN240 18/11 A2994 RMK SLP142 CB DSNT SE-S T01830106",
  "sanitized": "KNUW 160153Z 25008KT 10SM FEW050 SCT070 SCT120 BKN240 18/11 A2994 RMK SLP142 CB DSNT SE-S T01830106",
  "station": "KNUW",
  "time": {
    "repr": "160153Z",
    "dt": "2023-05-16T01:53:00Z"
  },
  "remarks": "RMK SLP142 CB DSNT SE-S T01830106",
  "dewpoint": {
    "repr": "11",
    "value": 11,
    "spoken": "one one"
  },
  "relative_humidity": 0.6077291917311168,
  "remarks_info": {
    "maximum_temperature_6": null,
    "minimum_temperature_6": null,
    "pressure_tendency": null,
    "precip_36_hours": null,
    "precip_24_hours": null,
    "sunshine_minutes": null,
    "codes": [],
    "dewpoint_decimal": {
      "repr": "0106",
      "value": 10.6,
      "spoken": "one zero point six"
    },
    "maximum_temperature_24": null,
    "minimum_temperature_24": null,
    "precip_hourly": null,
    "sea_level_pressure": {
      "repr": "SLP142",
      "value": 1014.2,
      "spoken": "one zero one four point two"
    },
    "snow_depth": null,
    "temperature_decimal": {
      "repr": "0183",
      "value": 18.3,
      "spoken": "one eight point three"
    }
  },
  "runway_visibility": [],
  "temperature": {
    "repr": "18",
    "value": 18,
    "spoken": "one eight"
  },
  "wind_variable_direction": [],
  "density_altitude": 434,
  "pressure_altitude": 27,
  "units": {
    "accumulation": "in",
    "altimeter": "inHg",
    "altitude": "ft",
    "temperature": "C",
    "visibility": "sm",
    "wind_speed": "kt"
  }
}
