{
  "meta": {
    "timestamp": "2022-12-19T10:30:42.610661Z",
    "stations_updated": "2022-09-05"
  },
  "altimeter": {
    "repr": "A3024",
    "value": 30.24,
    "spoken": "three zero point two four"
  },
  "clouds": [
    {
      "repr": "OVC070",
      "type": "OVC",
      "altitude": 70,
      "modifier": null
    }
  ],
  "flight_rules": "VFR",
  "other": [],
  "visibility": {
    "repr": "10",
    "value": 10,
    "spoken": "one zero"
  },
  "wind_direction": {
    "repr": "060",
    "value": 60,
    "spoken": "zero six zero"
  },
  "wind_gust": null,
  "wind_speed": {
    "repr": "03",
    "value": 3,
    "spoken": "three"
  },
  "wx_codes": [],
  "raw": "KNUW 190953Z 06003KT 10SM OVC070 M04/M08 A3024 RMK AO2 SNE32 SLP238 P0000 T10391078 VISNO $",
  "sanitized": "KNUW 190953Z 06003KT 10SM OVC070 M04/M08 A3024 RMK AO2 SNE32 SLP238 P0000 T10391078 VISNO $",
  "station": "KNUW",
  "time": {
    "repr": "190953Z",
    "dt": "2022-12-19T09:53:00Z"
  },
  "remarks": "RMK AO2 SNE32 SLP238 P0000 T10391078 VISNO $",
  "dewpoint": {
    "repr": "M08",
    "value": -8,
    "spoken": "minus eight"
  },
  "relative_humidity": 0.7429437515017081,
  "remarks_info": {
    "maximum_temperature_6": null,
    "minimum_temperature_6": null,
    "pressure_tendency": null,
    "precip_36_hours": null,
    "precip_24_hours": null,
    "sunshine_minutes": null,
    "codes": [
      {
        "repr": "$",
        "value": "ASOS requires maintenance"
      },
      {
        "repr": "AO2",
        "value": "Automated with precipitation sensor"
      },
      {
        "repr": "P0000",
        "value": "Trace amount of rain in the last hour"
      },
      {
        "repr": "SNE32",
        "value": "Snow ended at :32"
      }
    ],
    "dewpoint_decimal": {
      "repr": "1078",
      "value": -7.8,
      "spoken": "minus seven point eight"
    },
    "maximum_temperature_24": null,
    "minimum_temperature_24": null,
    "precip_hourly": null,
    "sea_level_pressure": {
      "repr": "SLP238",
      "value": 1023.8,
      "spoken": "one zero two three point eight"
    },
    "snow_depth": null,
    "temperature_decimal": {
      "repr": "1039",
      "value": -3.9,
      "spoken": "minus three point nine"
    }
  },
  "runway_visibility": [],
  "temperature": {
    "repr": "M04",
    "value": -4,
    "spoken": "minus four"
  },
  "wind_variable_direction": [],
  "density_altitude": -2530,
  "pressure_altitude": -273,
  "units": {
    "accumulation": "in",
    "altimeter": "inHg",
    "altitude": "ft",
    "temperature": "C",
    "visibility": "sm",
    "wind_speed": "kt"
  }
}
