{
  "meta": {
    "timestamp": "2022-11-13T14:02:13.279970Z",
    "stations_updated": "2022-09-05"
  },
  "altimeter": {
    "repr": "A3042",
    "value": 30.42,
    "spoken": "three zero point four two"
  },
  "clouds": [
    {
      "repr": "SCT015",
      "type": "SCT",
      "altitude": 15,
      "modifier": null
    },
    {
      "repr": "BKN023",
      "type": "BKN",
      "altitude": 23,
      "modifier": null
    },
    {
      "repr": "OVC090",
      "type": "OVC",
      "altitude": 90,
      "modifier": null
    }
  ],
  "flight_rules": "MVFR",
  "other": [],
  "visibility": {
    "repr": "10",
    "value": 10,
    "spoken": "one zero"
  },
  "wind_direction": {
    "repr": "000",
    "value": 0,
    "spoken": "zero zero zero"
  },
  "wind_gust": null,
  "wind_speed": {
    "repr": "00",
    "value": 0,
    "spoken": "zero"
  },
  "wx_codes": [],
  "raw": "KNUW 131353Z 00000KT 10SM SCT015 BKN023 OVC090 05/03 A3042 RMK AO2 SLP299 T00500033 VISNO $",
  "sanitized": "KNUW 131353Z 00000KT 10SM SCT015 BKN023 OVC090 05/03 A3042 RMK AO2 SLP299 T00500033 VISNO $",
  "station": "KNUW",
  "time": {
    "repr": "131353Z",
    "dt": "2022-11-13T13:53:00Z"
  },
  "remarks": "RMK AO2 SLP299 T00500033 VISNO $",
  "dewpoint": {
    "repr": "03",
    "value": 3,
    "spoken": "three"
  },
  "relative_humidity": 0.8875725932131937,
  "remarks_info": {
    "maximum_temperature_6": null,
    "minimum_temperature_6": null,
    "pressure_tendency": null,
    "precip_36_hours": null,
    "precip_24_hours": null,
    "sunshine_minutes": null,
    "codes": [
      {
        "repr": "$",
        "value": "ASOS requires maintenance"
      },
      {
        "repr": "AO2",
        "value": "Automated with precipitation sensor"
      }
    ],
    "dewpoint_decimal": {
      "repr": "0033",
      "value": 3.3,
      "spoken": "three point three"
    },
    "maximum_temperature_24": null,
    "minimum_temperature_24": null,
    "precip_hourly": null,
    "sea_level_pressure": {
      "repr": "SLP299",
      "value": 1029.9,
      "spoken": "one zero two nine point nine"
    },
    "snow_depth": null,
    "temperature_decimal": {
      "repr": "0050",
      "value": 5,
      "spoken": "five point zero"
    }
  },
  "runway_visibility": [],
  "temperature": {
    "repr": "05",
    "value": 5,
    "spoken": "five"
  },
  "wind_variable_direction": [],
  "density_altitude": -1642,
  "pressure_altitude": -453,
  "units": {
    "accumulation": "in",
    "altimeter": "inHg",
    "altitude": "ft",
    "temperature": "C",
    "visibility": "sm",
    "wind_speed": "kt"
  }
}
