{
  "meta": {
    "timestamp": "2023-05-21T14:01:51.524801Z",
    "stations_updated": "2023-03-11"
  },
  "altimeter": {
    "repr": "A3018",
    "value": 30.18,
    "spoken": "three zero point one eight"
  },
  "clouds": [
    {
      "repr": "SCT007",
      "type": "SCT",
      "altitude": 7,
      "modifier": null
    },
    {
      "repr": "SCT018",
      "type": "SCT",
      "altitude": 18,
      "modifier": null
    },
    {
      "repr": "BKN065",
      "type": "BKN",
      "altitude": 65,
      "modifier": null
    },
    {
      "repr": "BKN180",
      "type": "BKN",
      "altitude": 180,
      "modifier": null
    }
  ],
  "flight_rules": "VFR",
  "other": [],
  "visibility": {
    "repr": "10",
    "value": 10,
    "spoken": "one zero"
  },
  "wind_direction": {
    "repr": "220",
    "value": 220,
    "spoken": "two two zero"
  },
  "wind_gust": null,
  "wind_speed": {
    "repr": "15",
    "value": 15,
    "spoken": "one five"
  },
  "wx_codes": [],
  "raw": "KNUW 211353Z 22015KT 10SM SCT007 SCT018 BKN065 BKN180 11/09 A3018 RMK AO2 SLP223 T01110094 $",
  "sanitized": "KNUW 211353Z 22015KT 10SM SCT007 SCT018 BKN065 BKN180 11/09 A3018 RMK AO2 SLP223 T01110094 $",
  "station": "KNUW",
  "time": {
    "repr": "211353Z",
    "dt": "2023-05-21T13:53:00Z"
  },
  "remarks": "RMK AO2 SLP223 T01110094 $",
  "dewpoint": {
    "repr": "09",
    "value": 9,
    "spoken": "nine"
  },
  "relative_humidity": 0.8926151927981825,
  "remarks_info": {
    "maximum_temperature_6": null,
    "minimum_temperature_6": null,
    "pressure_tendency": null,
    "precip_36_hours": null,
    "precip_24_hours": null,
    "sunshine_minutes": null,
    "codes": [
      {
        "repr": "$",
        "value": "ASOS requires maintenance"
      },
      {
        "repr": "AO2",
        "value": "Automated with precipitation sensor"
      }
    ],
    "dewpoint_decimal": {
      "repr": "0094",
      "value": 9.4,
      "spoken": "nine point four"
    },
    "maximum_temperature_24": null,
    "minimum_temperature_24": null,
    "precip_hourly": null,
    "sea_level_pressure": {
      "repr": "SLP223",
      "value": 1022.3,
      "spoken": "one zero two two point three"
    },
    "snow_depth": null,
    "temperature_decimal": {
      "repr": "0111",
      "value": 11.1,
      "spoken": "one one point one"
    }
  },
  "runway_visibility": [],
  "temperature": {
    "repr": "11",
    "value": 11,
    "spoken": "one one"
  },
  "wind_variable_direction": [],
  "density_altitude": -670,
  "pressure_altitude": -213,
  "units": {
    "accumulation": "in",
    "altimeter": "inHg",
    "altitude": "ft",
    "temperature": "C",
    "visibility": "sm",
    "wind_speed": "kt"
  }
}
