{
  "meta": {
    "timestamp": "2023-03-18T18:41:02.979149Z",
    "stations_updated": "2023-03-11",
    "cache-timestamp": "2023-03-18T18:40:06.640000Z"
  },
  "altimeter": {
    "repr": "A3007",
    "value": 30.07,
    "spoken": "three zero point zero seven"
  },
  "clouds": [
    {
      "repr": "FEW250",
      "type": "FEW",
      "altitude": 250,
      "modifier": null
    }
  ],
  "flight_rules": "VFR",
  "other": [],
  "visibility": {
    "repr": "10",
    "value": 10,
    "spoken": "one zero"
  },
  "wind_direction": {
    "repr": "330",
    "value": 330,
    "spoken": "three three zero"
  },
  "wind_gust": null,
  "wind_speed": {
    "repr": "04",
    "value": 4,
    "spoken": "four"
  },
  "wx_codes": [],
  "raw": "KNUW 181753Z 33004KT 10SM FEW250 12/02 A3007 RMK AO2 SLP187 T01170022 10117 20011 55006 VISNO $",
  "sanitized": "KNUW 181753Z 33004KT 10SM FEW250 12/02 A3007 RMK AO2 SLP187 T01170022 10117 20011 55006 VISNO $",
  "station": "KNUW",
  "time": {
    "repr": "181753Z",
    "dt": "2023-03-18T17:53:00Z"
  },
  "remarks": "RMK AO2 SLP187 T01170022 10117 20011 55006 VISNO $",
  "dewpoint": {
    "repr": "02",
    "value": 2,
    "spoken": "two"
  },
  "relative_humidity": 0.5210608438865542,
  "remarks_info": {
    "maximum_temperature_6": {
      "repr": "10117",
      "value": 11.7,
      "spoken": "one one point seven"
    },
    "minimum_temperature_6": {
      "repr": "20011",
      "value": 1.1,
      "spoken": "one point one"
    },
    "pressure_tendency": {
      "repr": "55006",
      "tendency": "Decreasing, then increasing",
      "change": 0.6
    },
    "precip_36_hours": null,
    "precip_24_hours": null,
    "sunshine_minutes": null,
    "codes": [
      {
        "repr": "$",
        "value": "ASOS requires maintenance"
      },
      {
        "repr": "AO2",
        "value": "Automated with precipitation sensor"
      }
    ],
    "dewpoint_decimal": {
      "repr": "0022",
      "value": 2.2,
      "spoken": "two point two"
    },
    "maximum_temperature_24": null,
    "minimum_temperature_24": null,
    "precip_hourly": null,
    "sea_level_pressure": {
      "repr": "SLP187",
      "value": 1018.7,
      "spoken": "one zero one eight point seven"
    },
    "snow_depth": null,
    "temperature_decimal": {
      "repr": "0117",
      "value": 11.7,
      "spoken": "one one point seven"
    }
  },
  "runway_visibility": [],
  "temperature": {
    "repr": "12",
    "value": 12,
    "spoken": "one two"
  },
  "wind_variable_direction": [],
  "density_altitude": -488,
  "pressure_altitude": -103,
  "units": {
    "accumulation": "in",
    "altimeter": "inHg",
    "altitude": "ft",
    "temperature": "C",
    "visibility": "sm",
    "wind_speed": "kt"
  }
}
