{
  "altimeter": {
    "repr": "A2987",
    "spoken": "two nine point eight seven",
    "value": 29.87
  },
  "clouds": [
    {
      "altitude": 23,
      "modifier": null,
      "repr": "SCT023",
      "type": "SCT"
    },
    {
      "altitude": 31,
      "modifier": null,
      "repr": "BKN031",
      "type": "BKN"
    }
  ],
  "density_altitude": -24,
  "dewpoint": {
    "repr": "09",
    "spoken": "nine",
    "value": 9
  },
  "flight_rules": "VFR",
  "meta": {
    "cache-timestamp": "2024-04-26T20:24:02.877000Z",
    "stations_updated": "2024-01-01",
    "timestamp": "2024-04-26T20:24:14.266369Z"
  },
  "other": [],
  "pressure_altitude": 97,
  "raw": "KNUW 261953Z 14009KT 10SM SCT023 BKN031 14/09 A2987 RMK AO2 SLP119 T01390094 $",
  "relative_humidity": 0.7427215782230824,
  "remarks": "RMK AO2 SLP119 T01390094 $",
  "remarks_info": {
    "codes": [
      {
        "repr": "$",
        "value": "ASOS requires maintenance"
      },
      {
        "repr": "AO2",
        "value": "Automated with precipitation sensor"
      }
    ],
    "dewpoint_decimal": {
      "repr": "0094",
      "spoken": "nine point four",
      "value": 9.4
    },
    "maximum_temperature_24": null,
    "maximum_temperature_6": null,
    "minimum_temperature_24": null,
    "minimum_temperature_6": null,
    "precip_24_hours": null,
    "precip_36_hours": null,
    "precip_hourly": null,
    "pressure_tendency": null,
    "sea_level_pressure": {
      "repr": "SLP119",
      "spoken": "one zero one one point nine",
      "value": 1011.9
    },
    "snow_depth": null,
    "sunshine_minutes": null,
    "temperature_decimal": {
      "repr": "0139",
      "spoken": "one three point nine",
      "value": 13.9
    }
  },
  "runway_visibility": [],
  "sanitized": "KNUW 261953Z 14009KT 10SM SCT023 BKN031 14/09 A2987 RMK AO2 SLP119 T01390094 $",
  "station": "KNUW",
  "temperature": {
    "repr": "14",
    "spoken": "one four",
    "value": 14
  },
  "time": {
    "dt": "2024-04-26T19:53:00Z",
    "repr": "261953Z"
  },
  "units": {
    "accumulation": "in",
    "altimeter": "inHg",
    "altitude": "ft",
    "temperature": "C",
    "visibility": "sm",
    "wind_speed": "kt"
  },
  "visibility": {
    "repr": "10",
    "spoken": "one zero",
    "value": 10
  },
  "wind_direction": {
    "repr": "140",
    "spoken": "one four zero",
    "value": 140
  },
  "wind_gust": null,
  "wind_speed": {
    "repr": "09",
    "spoken": "nine",
    "value": 9
  },
  "wind_variable_direction": [],
  "wx_codes": []
}
