{
  "meta": {
    "timestamp": "2023-04-20T10:40:34.921423Z",
    "stations_updated": "2023-03-11",
    "cache-timestamp": "2023-04-20T10:40:08.023000Z"
  },
  "altimeter": {
    "repr": "A3033",
    "value": 30.33,
    "spoken": "three zero point three three"
  },
  "clouds": [
    {
      "repr": "BKN025",
      "type": "BKN",
      "altitude": 25,
      "modifier": null
    },
    {
      "repr": "OVC028",
      "type": "OVC",
      "altitude": 28,
      "modifier": null
    }
  ],
  "flight_rules": "MVFR",
  "other": [],
  "visibility": {
    "repr": "10",
    "value": 10,
    "spoken": "one zero"
  },
  "wind_direction": {
    "repr": "150",
    "value": 150,
    "spoken": "one five zero"
  },
  "wind_gust": null,
  "wind_speed": {
    "repr": "08",
    "value": 8,
    "spoken": "eight"
  },
  "wx_codes": [],
  "raw": "KNUW 200953Z 15008KT 10SM BKN025 OVC028 06/03 A3033 RMK SLP275 T00560033",
  "sanitized": "KNUW 200953Z 15008KT 10SM BKN025 OVC028 06/03 A3033 RMK SLP275 T00560033",
  "station": "KNUW",
  "time": {
    "repr": "200953Z",
    "dt": "2023-04-20T09:53:00Z"
  },
  "remarks": "RMK SLP275 T00560033",
  "dewpoint": {
    "repr": "03",
    "value": 3,
    "spoken": "three"
  },
  "relative_humidity": 0.8513177604096042,
  "remarks_info": {
    "maximum_temperature_6": null,
    "minimum_temperature_6": null,
    "pressure_tendency": null,
    "precip_36_hours": null,
    "precip_24_hours": null,
    "sunshine_minutes": null,
    "codes": [],
    "dewpoint_decimal": {
      "repr": "0033",
      "value": 3.3,
      "spoken": "three point three"
    },
    "maximum_temperature_24": null,
    "minimum_temperature_24": null,
    "precip_hourly": null,
    "sea_level_pressure": {
      "repr": "SLP275",
      "value": 1027.5,
      "spoken": "one zero two seven point five"
    },
    "snow_depth": null,
    "temperature_decimal": {
      "repr": "0056",
      "value": 5.6,
      "spoken": "five point six"
    }
  },
  "runway_visibility": [],
  "temperature": {
    "repr": "06",
    "value": 6,
    "spoken": "six"
  },
  "wind_variable_direction": [],
  "density_altitude": -1480,
  "pressure_altitude": -363,
  "units": {
    "accumulation": "in",
    "altimeter": "inHg",
    "altitude": "ft",
    "temperature": "C",
    "visibility": "sm",
    "wind_speed": "kt"
  }
}
