{
  "meta": {
    "timestamp": "2023-03-10T18:06:59.866418Z",
    "stations_updated": "2023-01-30",
    "cache-timestamp": "2023-03-10T18:06:05.938000Z"
  },
  "altimeter": {
    "repr": "A2942",
    "value": 29.42,
    "spoken": "two nine point four two"
  },
  "clouds": [
    {
      "repr": "SCT015",
      "type": "SCT",
      "altitude": 15,
      "modifier": null
    },
    {
      "repr": "BKN030",
      "type": "BKN",
      "altitude": 30,
      "modifier": null
    },
    {
      "repr": "OVC045",
      "type": "OVC",
      "altitude": 45,
      "modifier": null
    }
  ],
  "flight_rules": "MVFR",
  "other": [],
  "visibility": {
    "repr": "10",
    "value": 10,
    "spoken": "one zero"
  },
  "wind_direction": {
    "repr": "360",
    "value": 360,
    "spoken": "three six zero"
  },
  "wind_gust": null,
  "wind_speed": {
    "repr": "04",
    "value": 4,
    "spoken": "four"
  },
  "wx_codes": [],
  "raw": "KNUW 101653Z 36004KT 10SM SCT015 BKN030 OVC045 04/03 A2942 RMK SLP966 T00440028",
  "sanitized": "KNUW 101653Z 36004KT 10SM SCT015 BKN030 OVC045 04/03 A2942 RMK SLP966 T00440028",
  "station": "KNUW",
  "time": {
    "repr": "101653Z",
    "dt": "2023-03-10T16:53:00Z"
  },
  "remarks": "RMK SLP966 T00440028",
  "dewpoint": {
    "repr": "03",
    "value": 3,
    "spoken": "three"
  },
  "relative_humidity": 0.893374437578054,
  "remarks_info": {
    "maximum_temperature_6": null,
    "minimum_temperature_6": null,
    "pressure_tendency": null,
    "precip_36_hours": null,
    "precip_24_hours": null,
    "sunshine_minutes": null,
    "codes": [],
    "dewpoint_decimal": {
      "repr": "0028",
      "value": 2.8,
      "spoken": "two point eight"
    },
    "maximum_temperature_24": null,
    "minimum_temperature_24": null,
    "precip_hourly": null,
    "sea_level_pressure": {
      "repr": "SLP966",
      "value": 996.6,
      "spoken": "nine nine six point six"
    },
    "snow_depth": null,
    "temperature_decimal": {
      "repr": "0044",
      "value": 4.4,
      "spoken": "four point four"
    }
  },
  "runway_visibility": [],
  "temperature": {
    "repr": "04",
    "value": 4,
    "spoken": "four"
  },
  "wind_variable_direction": [],
  "density_altitude": -714,
  "pressure_altitude": 547,
  "units": {
    "accumulation": "in",
    "altimeter": "inHg",
    "altitude": "ft",
    "temperature": "C",
    "visibility": "sm",
    "wind_speed": "kt"
  }
}
