{
  "meta": {
    "timestamp": "2022-10-21T08:49:09.715863Z",
    "stations_updated": "2022-09-05"
  },
  "altimeter": {
    "repr": "A3001",
    "value": 30.01,
    "spoken": "three zero point zero one"
  },
  "clouds": [
    {
      "repr": "FEW020",
      "type": "FEW",
      "altitude": 20,
      "modifier": null
    },
    {
      "repr": "SCT060",
      "type": "SCT",
      "altitude": 60,
      "modifier": null
    },
    {
      "repr": "BKN180",
      "type": "BKN",
      "altitude": 180,
      "modifier": null
    },
    {
      "repr": "BKN250",
      "type": "BKN",
      "altitude": 250,
      "modifier": null
    }
  ],
  "flight_rules": "VFR",
  "other": [],
  "visibility": {
    "repr": "10",
    "value": 10,
    "spoken": "one zero"
  },
  "wind_direction": {
    "repr": "230",
    "value": 230,
    "spoken": "two three zero"
  },
  "wind_gust": null,
  "wind_speed": {
    "repr": "07",
    "value": 7,
    "spoken": "seven"
  },
  "wx_codes": [],
  "raw": "KNUW 210753Z 23007KT 10SM FEW020 SCT060 BKN180 BKN250 11/08 A3001 RMK AO2 SLP161 T01060078 401670072 $",
  "sanitized": "KNUW 210753Z 23007KT 10SM FEW020 SCT060 BKN180 BKN250 11/08 A3001 RMK AO2 SLP161 T01060078 401670072 $",
  "station": "KNUW",
  "time": {
    "repr": "210753Z",
    "dt": "2022-10-21T07:53:00Z"
  },
  "remarks": "RMK AO2 SLP161 T01060078 401670072 $",
  "dewpoint": {
    "repr": "08",
    "value": 8,
    "spoken": "eight"
  },
  "relative_humidity": 0.828062043990444,
  "remarks_info": {
    "maximum_temperature_6": null,
    "minimum_temperature_6": null,
    "pressure_tendency": null,
    "precip_36_hours": null,
    "precip_24_hours": null,
    "sunshine_minutes": null,
    "codes": [
      {
        "repr": "$",
        "value": "ASOS requires maintenance"
      },
      {
        "repr": "AO2",
        "value": "Automated with precipitation sensor"
      }
    ],
    "dewpoint_decimal": {
      "repr": "0078",
      "value": 7.8,
      "spoken": "seven point eight"
    },
    "maximum_temperature_24": {
      "repr": "0167",
      "value": 16.7,
      "spoken": "one six point seven"
    },
    "minimum_temperature_24": {
      "repr": "0072",
      "value": 7.2,
      "spoken": "seven point two"
    },
    "precip_hourly": null,
    "sea_level_pressure": {
      "repr": "SLP161",
      "value": 1016.1,
      "spoken": "one zero one six point one"
    },
    "snow_depth": null,
    "temperature_decimal": {
      "repr": "0106",
      "value": 10.6,
      "spoken": "one zero point six"
    }
  },
  "runway_visibility": [],
  "temperature": {
    "repr": "11",
    "value": 11,
    "spoken": "one one"
  },
  "wind_variable_direction": [],
  "density_altitude": -560,
  "pressure_altitude": -43,
  "units": {
    "accumulation": "in",
    "altimeter": "inHg",
    "altitude": "ft",
    "temperature": "C",
    "visibility": "sm",
    "wind_speed": "kt"
  }
}
