{
  "altimeter": {
    "repr": "A3026",
    "spoken": "three zero point two six",
    "value": 30.26
  },
  "clouds": [
    {
      "altitude": 35,
      "modifier": null,
      "repr": "FEW035",
      "type": "FEW"
    },
    {
      "altitude": 55,
      "modifier": null,
      "repr": "SCT055",
      "type": "SCT"
    },
    {
      "altitude": 210,
      "modifier": null,
      "repr": "BKN210",
      "type": "BKN"
    }
  ],
  "density_altitude": -882,
  "dewpoint": {
    "repr": "06",
    "spoken": "six",
    "value": 6
  },
  "flight_rules": "VFR",
  "meta": {
    "cache-timestamp": "2023-11-08T04:06:04.636000Z",
    "stations_updated": "2023-10-28",
    "timestamp": "2023-11-08T04:06:24.349515Z"
  },
  "other": [],
  "pressure_altitude": -293,
  "raw": "KNUW 080253Z 27011KT 10SM FEW035 SCT055 BKN210 10/06 A3026 RMK AO2 SLP249 T01000056 53026 $",
  "relative_humidity": 0.7409639071935751,
  "remarks": "RMK AO2 SLP249 T01000056 53026 $",
  "remarks_info": {
    "codes": [
      {
        "repr": "$",
        "value": "ASOS requires maintenance"
      },
      {
        "repr": "AO2",
        "value": "Automated with precipitation sensor"
      }
    ],
    "dewpoint_decimal": {
      "repr": "0056",
      "spoken": "five point six",
      "value": 5.6
    },
    "maximum_temperature_24": null,
    "maximum_temperature_6": null,
    "minimum_temperature_24": null,
    "minimum_temperature_6": null,
    "precip_24_hours": null,
    "precip_36_hours": null,
    "precip_hourly": null,
    "pressure_tendency": {
      "change": 2.6,
      "repr": "53026",
      "tendency": "Decreasing or steady, then increasing"
    },
    "sea_level_pressure": {
      "repr": "SLP249",
      "spoken": "one zero two four point nine",
      "value": 1024.9
    },
    "snow_depth": null,
    "sunshine_minutes": null,
    "temperature_decimal": {
      "repr": "0100",
      "spoken": "one zero point zero",
      "value": 10
    }
  },
  "runway_visibility": [],
  "sanitized": "KNUW 080253Z 27011KT 10SM FEW035 SCT055 BKN210 10/06 A3026 RMK AO2 SLP249 T01000056 53026 $",
  "station": "KNUW",
  "temperature": {
    "repr": "10",
    "spoken": "one zero",
    "value": 10
  },
  "time": {
    "dt": "2023-11-08T02:53:00Z",
    "repr": "080253Z"
  },
  "units": {
    "accumulation": "in",
    "altimeter": "inHg",
    "altitude": "ft",
    "temperature": "C",
    "visibility": "sm",
    "wind_speed": "kt"
  },
  "visibility": {
    "repr": "10",
    "spoken": "one zero",
    "value": 10
  },
  "wind_direction": {
    "repr": "270",
    "spoken": "two seven zero",
    "value": 270
  },
  "wind_gust": null,
  "wind_speed": {
    "repr": "11",
    "spoken": "one one",
    "value": 11
  },
  "wind_variable_direction": [],
  "wx_codes": []
}
