{
  "altimeter": {
    "repr": "A2989",
    "spoken": "two nine point eight nine",
    "value": 29.89
  },
  "clouds": [
    {
      "altitude": 35,
      "modifier": null,
      "repr": "SCT035",
      "type": "SCT"
    },
    {
      "altitude": 46,
      "modifier": null,
      "repr": "BKN046",
      "type": "BKN"
    }
  ],
  "density_altitude": -1640,
  "dewpoint": {
    "repr": "M01",
    "spoken": "minus one",
    "value": -1
  },
  "flight_rules": "VFR",
  "meta": {
    "cache-timestamp": "2024-01-18T04:28:03.964000Z",
    "stations_updated": "2023-10-28",
    "timestamp": "2024-01-18T04:28:36.508092Z"
  },
  "other": [],
  "pressure_altitude": 77,
  "raw": "KNUW 180353Z 06003KT 8SM SCT035 BKN046 01/M01 A2989 RMK AO2 SNE24 SLP126 P0000 T00061011 $",
  "relative_humidity": 0.8837167706990872,
  "remarks": "RMK AO2 SNE24 SLP126 P0000 T00061011 $",
  "remarks_info": {
    "codes": [
      {
        "repr": "$",
        "value": "ASOS requires maintenance"
      },
      {
        "repr": "AO2",
        "value": "Automated with precipitation sensor"
      },
      {
        "repr": "P0000",
        "value": "Trace amount of rain in the last hour"
      },
      {
        "repr": "SNE24",
        "value": "Snow ended at :24"
      }
    ],
    "dewpoint_decimal": {
      "repr": "1011",
      "spoken": "minus one point one",
      "value": -1.1
    },
    "maximum_temperature_24": null,
    "maximum_temperature_6": null,
    "minimum_temperature_24": null,
    "minimum_temperature_6": null,
    "precip_24_hours": null,
    "precip_36_hours": null,
    "precip_hourly": null,
    "pressure_tendency": null,
    "sea_level_pressure": {
      "repr": "SLP126",
      "spoken": "one zero one two point six",
      "value": 1012.6
    },
    "snow_depth": null,
    "sunshine_minutes": null,
    "temperature_decimal": {
      "repr": "0006",
      "spoken": "zero point six",
      "value": 0.6
    }
  },
  "runway_visibility": [],
  "sanitized": "KNUW 180353Z 06003KT 8SM SCT035 BKN046 01/M01 A2989 RMK AO2 SNE24 SLP126 P0000 T00061011 $",
  "station": "KNUW",
  "temperature": {
    "repr": "01",
    "spoken": "one",
    "value": 1
  },
  "time": {
    "dt": "2024-01-18T03:53:00Z",
    "repr": "180353Z"
  },
  "units": {
    "accumulation": "in",
    "altimeter": "inHg",
    "altitude": "ft",
    "temperature": "C",
    "visibility": "sm",
    "wind_speed": "kt"
  },
  "visibility": {
    "repr": "8",
    "spoken": "eight",
    "value": 8
  },
  "wind_direction": {
    "repr": "060",
    "spoken": "zero six zero",
    "value": 60
  },
  "wind_gust": null,
  "wind_speed": {
    "repr": "03",
    "spoken": "three",
    "value": 3
  },
  "wind_variable_direction": [],
  "wx_codes": []
}
