{
  "meta": {
    "timestamp": "2023-03-26T22:40:36.576238Z",
    "stations_updated": "2023-03-11",
    "cache-timestamp": "2023-03-26T22:40:06.807000Z"
  },
  "altimeter": {
    "repr": "A3028",
    "value": 30.28,
    "spoken": "three zero point two eight"
  },
  "clouds": [
    {
      "repr": "SCT030",
      "type": "SCT",
      "altitude": 30,
      "modifier": null
    },
    {
      "repr": "SCT055",
      "type": "SCT",
      "altitude": 55,
      "modifier": null
    },
    {
      "repr": "BKN220",
      "type": "BKN",
      "altitude": 220,
      "modifier": null
    }
  ],
  "flight_rules": "VFR",
  "other": [],
  "visibility": {
    "repr": "10",
    "value": 10,
    "spoken": "one zero"
  },
  "wind_direction": {
    "repr": "140",
    "value": 140,
    "spoken": "one four zero"
  },
  "wind_gust": null,
  "wind_speed": {
    "repr": "10",
    "value": 10,
    "spoken": "one zero"
  },
  "wx_codes": [],
  "raw": "KNUW 262153Z 14010KT 10SM SCT030 SCT055 BKN220 10/M01 A3028 RMK AO2 SLP259 T01001006 VISNO $",
  "sanitized": "KNUW 262153Z 14010KT 10SM SCT030 SCT055 BKN220 10/M01 A3028 RMK AO2 SLP259 T01001006 VISNO $",
  "station": "KNUW",
  "time": {
    "repr": "262153Z",
    "dt": "2023-03-26T21:53:00Z"
  },
  "remarks": "RMK AO2 SLP259 T01001006 VISNO $",
  "dewpoint": {
    "repr": "M01",
    "value": -1,
    "spoken": "minus one"
  },
  "relative_humidity": 0.47678529166739275,
  "remarks_info": {
    "maximum_temperature_6": null,
    "minimum_temperature_6": null,
    "pressure_tendency": null,
    "precip_36_hours": null,
    "precip_24_hours": null,
    "sunshine_minutes": null,
    "codes": [
      {
        "repr": "$",
        "value": "ASOS requires maintenance"
      },
      {
        "repr": "AO2",
        "value": "Automated with precipitation sensor"
      }
    ],
    "dewpoint_decimal": {
      "repr": "1006",
      "value": -0.6,
      "spoken": "minus zero point six"
    },
    "maximum_temperature_24": null,
    "minimum_temperature_24": null,
    "precip_hourly": null,
    "sea_level_pressure": {
      "repr": "SLP259",
      "value": 1025.9,
      "spoken": "one zero two five point nine"
    },
    "snow_depth": null,
    "temperature_decimal": {
      "repr": "0100",
      "value": 10,
      "spoken": "one zero point zero"
    }
  },
  "runway_visibility": [],
  "temperature": {
    "repr": "10",
    "value": 10,
    "spoken": "one zero"
  },
  "wind_variable_direction": [],
  "density_altitude": -902,
  "pressure_altitude": -313,
  "units": {
    "accumulation": "in",
    "altimeter": "inHg",
    "altitude": "ft",
    "temperature": "C",
    "visibility": "sm",
    "wind_speed": "kt"
  }
}
