{
  "meta": {
    "timestamp": "2023-01-05T12:47:04.068592Z",
    "stations_updated": "2022-12-27"
  },
  "altimeter": {
    "repr": "A2948",
    "value": 29.48,
    "spoken": "two nine point four eight"
  },
  "clouds": [
    {
      "repr": "FEW020",
      "type": "FEW",
      "altitude": 20,
      "modifier": null
    },
    {
      "repr": "BKN070",
      "type": "BKN",
      "altitude": 70,
      "modifier": null
    },
    {
      "repr": "OVC080",
      "type": "OVC",
      "altitude": 80,
      "modifier": null
    }
  ],
  "flight_rules": "VFR",
  "other": [],
  "visibility": {
    "repr": "10",
    "value": 10,
    "spoken": "one zero"
  },
  "wind_direction": {
    "repr": "100",
    "value": 100,
    "spoken": "one zero zero"
  },
  "wind_gust": null,
  "wind_speed": {
    "repr": "05",
    "value": 5,
    "spoken": "five"
  },
  "wx_codes": [],
  "raw": "KNUW 051153Z 10005KT 10SM FEW020 BKN070 OVC080 07/02 A2948 RMK RAE37 SLP983 P0000 60000 T00670022 10094 20061 58010",
  "sanitized": "KNUW 051153Z 10005KT 10SM FEW020 BKN070 OVC080 07/02 A2948 RMK RAE37 SLP983 P0000 60000 T00670022 10094 20061 58010",
  "station": "KNUW",
  "time": {
    "repr": "051153Z",
    "dt": "2023-01-05T11:53:00Z"
  },
  "remarks": "RMK RAE37 SLP983 P0000 60000 T00670022 10094 20061 58010",
  "dewpoint": {
    "repr": "02",
    "value": 2,
    "spoken": "two"
  },
  "relative_humidity": 0.7298179789638187,
  "remarks_info": {
    "maximum_temperature_6": {
      "repr": "10094",
      "value": 9.4,
      "spoken": "nine point four"
    },
    "minimum_temperature_6": {
      "repr": "20061",
      "value": 6.1,
      "spoken": "six point one"
    },
    "pressure_tendency": {
      "repr": "58010",
      "tendency": "Steady or increasing, then decreasing",
      "change": 1
    },
    "precip_36_hours": {
      "repr": "60000",
      "value": 0,
      "spoken": "zero"
    },
    "precip_24_hours": null,
    "sunshine_minutes": null,
    "codes": [
      {
        "repr": "P0000",
        "value": "Trace amount of rain in the last hour"
      },
      {
        "repr": "RAE37",
        "value": "Rain ended at :37"
      }
    ],
    "dewpoint_decimal": {
      "repr": "0022",
      "value": 2.2,
      "spoken": "two point two"
    },
    "maximum_temperature_24": null,
    "minimum_temperature_24": null,
    "precip_hourly": null,
    "sea_level_pressure": {
      "repr": "SLP983",
      "value": 998.3,
      "spoken": "nine nine eight point three"
    },
    "snow_depth": null,
    "temperature_decimal": {
      "repr": "0067",
      "value": 6.7,
      "spoken": "six point seven"
    }
  },
  "runway_visibility": [],
  "temperature": {
    "repr": "07",
    "value": 7,
    "spoken": "seven"
  },
  "wind_variable_direction": [],
  "density_altitude": -498,
  "pressure_altitude": 487,
  "units": {
    "accumulation": "in",
    "altimeter": "inHg",
    "altitude": "ft",
    "temperature": "C",
    "visibility": "sm",
    "wind_speed": "kt"
  }
}
