{
  "altimeter": {
    "repr": "A3015",
    "spoken": "three zero point one five",
    "value": 30.15
  },
  "clouds": [
    {
      "altitude": 150,
      "modifier": null,
      "repr": "FEW150",
      "type": "FEW"
    },
    {
      "altitude": 200,
      "modifier": null,
      "repr": "SCT200",
      "type": "SCT"
    }
  ],
  "density_altitude": -1900,
  "dewpoint": {
    "repr": "00",
    "spoken": "zero",
    "value": 0
  },
  "flight_rules": "VFR",
  "meta": {
    "stations_updated": "2023-10-28",
    "timestamp": "2023-11-01T05:01:29.653165Z"
  },
  "other": [],
  "pressure_altitude": -183,
  "raw": "KNUW 010453Z 12006KT 10SM FEW150 SCT200 01/00 A3015 RMK AO2 SLP214 T00060000 $",
  "relative_humidity": 0.9574966857850682,
  "remarks": "RMK AO2 SLP214 T00060000 $",
  "remarks_info": {
    "codes": [
      {
        "repr": "$",
        "value": "ASOS requires maintenance"
      },
      {
        "repr": "AO2",
        "value": "Automated with precipitation sensor"
      }
    ],
    "dewpoint_decimal": {
      "repr": "0000",
      "spoken": "zero",
      "value": 0
    },
    "maximum_temperature_24": null,
    "maximum_temperature_6": null,
    "minimum_temperature_24": null,
    "minimum_temperature_6": null,
    "precip_24_hours": null,
    "precip_36_hours": null,
    "precip_hourly": null,
    "pressure_tendency": null,
    "sea_level_pressure": {
      "repr": "SLP214",
      "spoken": "one zero two one point four",
      "value": 1021.4
    },
    "snow_depth": null,
    "sunshine_minutes": null,
    "temperature_decimal": {
      "repr": "0006",
      "spoken": "zero point six",
      "value": 0.6
    }
  },
  "runway_visibility": [],
  "sanitized": "KNUW 010453Z 12006KT 10SM FEW150 SCT200 01/00 A3015 RMK AO2 SLP214 T00060000 $",
  "station": "KNUW",
  "temperature": {
    "repr": "01",
    "spoken": "one",
    "value": 1
  },
  "time": {
    "dt": "2023-11-01T04:53:00Z",
    "repr": "010453Z"
  },
  "units": {
    "accumulation": "in",
    "altimeter": "inHg",
    "altitude": "ft",
    "temperature": "C",
    "visibility": "sm",
    "wind_speed": "kt"
  },
  "visibility": {
    "repr": "10",
    "spoken": "one zero",
    "value": 10
  },
  "wind_direction": {
    "repr": "120",
    "spoken": "one two zero",
    "value": 120
  },
  "wind_gust": null,
  "wind_speed": {
    "repr": "06",
    "spoken": "six",
    "value": 6
  },
  "wind_variable_direction": [],
  "wx_codes": []
}
