{
  "meta": {
    "timestamp": "2023-04-10T23:23:28.478020Z",
    "stations_updated": "2023-03-11"
  },
  "altimeter": {
    "repr": "A3001",
    "value": 30.01,
    "spoken": "three zero point zero one"
  },
  "clouds": [
    {
      "repr": "BKN013",
      "type": "BKN",
      "altitude": 13,
      "modifier": null
    },
    {
      "repr": "OVC055",
      "type": "OVC",
      "altitude": 55,
      "modifier": null
    }
  ],
  "flight_rules": "MVFR",
  "other": [],
  "visibility": {
    "repr": "10",
    "value": 10,
    "spoken": "one zero"
  },
  "wind_direction": {
    "repr": "090",
    "value": 90,
    "spoken": "zero nine zero"
  },
  "wind_gust": null,
  "wind_speed": {
    "repr": "04",
    "value": 4,
    "spoken": "four"
  },
  "wx_codes": [],
  "raw": "KNUW 102300Z 09004KT 10SM BKN013 OVC055 08/06 A3001 RMK AO2 T00830061 VISNO $",
  "sanitized": "KNUW 102300Z 09004KT 10SM BKN013 OVC055 08/06 A3001 RMK AO2 T00830061 VISNO $",
  "station": "KNUW",
  "time": {
    "repr": "102300Z",
    "dt": "2023-04-10T23:00:00Z"
  },
  "remarks": "RMK AO2 T00830061 VISNO $",
  "dewpoint": {
    "repr": "06",
    "value": 6,
    "spoken": "six"
  },
  "relative_humidity": 0.8601818874011486,
  "remarks_info": {
    "maximum_temperature_6": null,
    "minimum_temperature_6": null,
    "pressure_tendency": null,
    "precip_36_hours": null,
    "precip_24_hours": null,
    "sunshine_minutes": null,
    "codes": [
      {
        "repr": "$",
        "value": "ASOS requires maintenance"
      },
      {
        "repr": "AO2",
        "value": "Automated with precipitation sensor"
      }
    ],
    "dewpoint_decimal": {
      "repr": "0061",
      "value": 6.1,
      "spoken": "six point one"
    },
    "maximum_temperature_24": null,
    "minimum_temperature_24": null,
    "precip_hourly": null,
    "sea_level_pressure": null,
    "snow_depth": null,
    "temperature_decimal": {
      "repr": "0083",
      "value": 8.3,
      "spoken": "eight point three"
    }
  },
  "runway_visibility": [],
  "temperature": {
    "repr": "08",
    "value": 8,
    "spoken": "eight"
  },
  "wind_variable_direction": [],
  "density_altitude": -836,
  "pressure_altitude": -43,
  "units": {
    "accumulation": "in",
    "altimeter": "inHg",
    "altitude": "ft",
    "temperature": "C",
    "visibility": "sm",
    "wind_speed": "kt"
  }
}
