{
  "meta": {
    "timestamp": "2023-04-28T03:24:46.617312Z",
    "stations_updated": "2023-03-11",
    "cache-timestamp": "2023-04-28T03:24:06.214000Z"
  },
  "altimeter": {
    "repr": "A3015",
    "value": 30.15,
    "spoken": "three zero point one five"
  },
  "clouds": [],
  "flight_rules": "VFR",
  "other": [],
  "visibility": {
    "repr": "10",
    "value": 10,
    "spoken": "one zero"
  },
  "wind_direction": {
    "repr": "240",
    "value": 240,
    "spoken": "two four zero"
  },
  "wind_gust": null,
  "wind_speed": {
    "repr": "05",
    "value": 5,
    "spoken": "five"
  },
  "wx_codes": [],
  "raw": "KNUW 280253Z 24005KT 10SM CLR 11/08 A3015 RMK AO2 SLP215 T01110078 58016 VISNO $",
  "sanitized": "KNUW 280253Z 24005KT 10SM 11/08 A3015 RMK AO2 SLP215 T01110078 58016 VISNO $",
  "station": "KNUW",
  "time": {
    "repr": "280253Z",
    "dt": "2023-04-28T02:53:00Z"
  },
  "remarks": "RMK AO2 SLP215 T01110078 58016 VISNO $",
  "dewpoint": {
    "repr": "08",
    "value": 8,
    "spoken": "eight"
  },
  "relative_humidity": 0.8009785710766422,
  "remarks_info": {
    "maximum_temperature_6": null,
    "minimum_temperature_6": null,
    "pressure_tendency": {
      "repr": "58016",
      "tendency": "Steady or increasing, then decreasing",
      "change": 1.6
    },
    "precip_36_hours": null,
    "precip_24_hours": null,
    "sunshine_minutes": null,
    "codes": [
      {
        "repr": "$",
        "value": "ASOS requires maintenance"
      },
      {
        "repr": "AO2",
        "value": "Automated with precipitation sensor"
      }
    ],
    "dewpoint_decimal": {
      "repr": "0078",
      "value": 7.8,
      "spoken": "seven point eight"
    },
    "maximum_temperature_24": null,
    "minimum_temperature_24": null,
    "precip_hourly": null,
    "sea_level_pressure": {
      "repr": "SLP215",
      "value": 1021.5,
      "spoken": "one zero two one point five"
    },
    "snow_depth": null,
    "temperature_decimal": {
      "repr": "0111",
      "value": 11.1,
      "spoken": "one one point one"
    }
  },
  "runway_visibility": [],
  "temperature": {
    "repr": "11",
    "value": 11,
    "spoken": "one one"
  },
  "wind_variable_direction": [],
  "density_altitude": -640,
  "pressure_altitude": -183,
  "units": {
    "accumulation": "in",
    "altimeter": "inHg",
    "altitude": "ft",
    "temperature": "C",
    "visibility": "sm",
    "wind_speed": "kt"
  }
}
