{
  "meta": {
    "timestamp": "2023-07-22T08:25:35.276378Z",
    "stations_updated": "2023-06-06"
  },
  "altimeter": {
    "repr": "A3006",
    "value": 30.06,
    "spoken": "three zero point zero six"
  },
  "clouds": [
    {
      "repr": "OVC003",
      "type": "OVC",
      "altitude": 3,
      "modifier": null
    }
  ],
  "flight_rules": "LIFR",
  "other": [],
  "visibility": {
    "repr": "1/2",
    "value": 0.5,
    "spoken": "one half",
    "numerator": 1,
    "denominator": 2,
    "normalized": "1/2"
  },
  "wind_direction": {
    "repr": "230",
    "value": 230,
    "spoken": "two three zero"
  },
  "wind_gust": null,
  "wind_speed": {
    "repr": "07",
    "value": 7,
    "spoken": "seven"
  },
  "wx_codes": [
    {
      "repr": "BR",
      "value": "Mist"
    }
  ],
  "raw": "KNUW 220753Z 23007KT 1/2SM BR OVC003 14/13 A3006 RMK AO2 SFC VIS 4 SLP184 T01390128 402110122 VISNO $",
  "sanitized": "KNUW 220753Z 23007KT 1/2SM BR OVC003 14/13 A3006 RMK AO2 SFC VIS 4 SLP184 T01390128 402110122 VISNO $",
  "station": "KNUW",
  "time": {
    "repr": "220753Z",
    "dt": "2023-07-22T07:53:00Z"
  },
  "remarks": "RMK AO2 SFC VIS 4 SLP184 T01390128 402110122 VISNO $",
  "dewpoint": {
    "repr": "13",
    "value": 13,
    "spoken": "one three"
  },
  "relative_humidity": 0.9307713770988568,
  "remarks_info": {
    "maximum_temperature_6": null,
    "minimum_temperature_6": null,
    "pressure_tendency": null,
    "precip_36_hours": null,
    "precip_24_hours": null,
    "sunshine_minutes": null,
    "codes": [
      {
        "repr": "$",
        "value": "ASOS requires maintenance"
      },
      {
        "repr": "AO2",
        "value": "Automated with precipitation sensor"
      }
    ],
    "dewpoint_decimal": {
      "repr": "0128",
      "value": 12.8,
      "spoken": "one two point eight"
    },
    "maximum_temperature_24": {
      "repr": "0211",
      "value": 21.1,
      "spoken": "two one point one"
    },
    "minimum_temperature_24": {
      "repr": "0122",
      "value": 12.2,
      "spoken": "one two point two"
    },
    "precip_hourly": null,
    "sea_level_pressure": {
      "repr": "SLP184",
      "value": 1018.4,
      "spoken": "one zero one eight point four"
    },
    "snow_depth": null,
    "temperature_decimal": {
      "repr": "0139",
      "value": 13.9,
      "spoken": "one three point nine"
    }
  },
  "runway_visibility": [],
  "temperature": {
    "repr": "14",
    "value": 14,
    "spoken": "one four"
  },
  "wind_variable_direction": [],
  "density_altitude": -214,
  "pressure_altitude": -93,
  "units": {
    "accumulation": "in",
    "altimeter": "inHg",
    "altitude": "ft",
    "temperature": "C",
    "visibility": "sm",
    "wind_speed": "kt"
  }
}
