{
  "meta": {
    "timestamp": "2023-10-18T11:01:26.638322Z",
    "stations_updated": "2023-10-01"
  },
  "altimeter": {
    "repr": "A3002",
    "value": 30.02,
    "spoken": "three zero point zero two"
  },
  "clouds": [
    {
      "repr": "SCT060",
      "type": "SCT",
      "altitude": 60,
      "modifier": null
    },
    {
      "repr": "BKN090",
      "type": "BKN",
      "altitude": 90,
      "modifier": null
    },
    {
      "repr": "BKN200",
      "type": "BKN",
      "altitude": 200,
      "modifier": null
    }
  ],
  "flight_rules": "VFR",
  "other": [],
  "visibility": {
    "repr": "10",
    "value": 10,
    "spoken": "one zero"
  },
  "wind_direction": {
    "repr": "120",
    "value": 120,
    "spoken": "one two zero"
  },
  "wind_gust": null,
  "wind_speed": {
    "repr": "10",
    "value": 10,
    "spoken": "one zero"
  },
  "wx_codes": [],
  "raw": "KNUW 181053Z 12010KT 10SM SCT060 BKN090 BKN200 13/09 A3002 RMK AO2 SLP171 T01330089 $ KNUW 180953Z 09007KT 10SM SCT060 BKN095 BKN220 14/08 A3003 RMK AO2 RAB04E22 SLP174 P0000 T01390083 $",
  "sanitized": "KNUW 181053Z 12010KT 10SM SCT060 BKN090 BKN200 13/09 A3002 RMK AO2 SLP171 T01330089 $ KNUW 180953Z 09007KT 10SM SCT060 BKN095 BKN220 14/08 A3003 RMK AO2 RAB04E22 SLP174 P0000 T01390083 $",
  "station": "KNUW",
  "time": {
    "repr": "181053Z",
    "dt": "2023-10-18T10:53:00Z"
  },
  "remarks": "RMK AO2 SLP171 T01330089 $ KNUW 180953Z 09007KT 10SM SCT060 BKN095 BKN220 14/08 A3003 RMK AO2 RAB04E22 SLP174 P0000 T01390083 $",
  "dewpoint": {
    "repr": "09",
    "value": 9,
    "spoken": "nine"
  },
  "relative_humidity": 0.6895217057794796,
  "remarks_info": {
    "maximum_temperature_6": null,
    "minimum_temperature_6": null,
    "pressure_tendency": null,
    "precip_36_hours": null,
    "precip_24_hours": null,
    "sunshine_minutes": null,
    "codes": [
      {
        "repr": "$",
        "value": "ASOS requires maintenance"
      },
      {
        "repr": "$",
        "value": "ASOS requires maintenance"
      },
      {
        "repr": "AO2",
        "value": "Automated with precipitation sensor"
      },
      {
        "repr": "AO2",
        "value": "Automated with precipitation sensor"
      },
      {
        "repr": "P0000",
        "value": "Trace amount of rain in the last hour"
      }
    ],
    "dewpoint_decimal": {
      "repr": "0083",
      "value": 8.3,
      "spoken": "eight point three"
    },
    "maximum_temperature_24": null,
    "minimum_temperature_24": null,
    "precip_hourly": null,
    "sea_level_pressure": {
      "repr": "SLP171",
      "value": 1017.1,
      "spoken": "one zero one seven point one"
    },
    "snow_depth": null,
    "temperature_decimal": {
      "repr": "0139",
      "value": 13.9,
      "spoken": "one three point nine"
    }
  },
  "runway_visibility": [],
  "temperature": {
    "repr": "13",
    "value": 13,
    "spoken": "one three"
  },
  "wind_variable_direction": [],
  "density_altitude": -174,
  "pressure_altitude": -53,
  "units": {
    "accumulation": "in",
    "altimeter": "inHg",
    "altitude": "ft",
    "temperature": "C",
    "visibility": "sm",
    "wind_speed": "kt"
  }
}
