{
  "meta": {
    "timestamp": "2022-11-22T09:43:33.234479Z",
    "stations_updated": "2022-09-05"
  },
  "altimeter": {
    "repr": "A3013",
    "value": 30.13,
    "spoken": "three zero point one three"
  },
  "clouds": [
    {
      "repr": "SCT040",
      "type": "SCT",
      "altitude": 40,
      "modifier": null
    },
    {
      "repr": "BKN080",
      "type": "BKN",
      "altitude": 80,
      "modifier": null
    },
    {
      "repr": "OVC120",
      "type": "OVC",
      "altitude": 120,
      "modifier": null
    }
  ],
  "flight_rules": "VFR",
  "other": [],
  "visibility": {
    "repr": "10",
    "value": 10,
    "spoken": "one zero"
  },
  "wind_direction": {
    "repr": "150",
    "value": 150,
    "spoken": "one five zero"
  },
  "wind_gust": null,
  "wind_speed": {
    "repr": "05",
    "value": 5,
    "spoken": "five"
  },
  "wx_codes": [],
  "raw": "KNUW 220853Z 15005KT 10SM SCT040 BKN080 OVC120 08/03 A3013 RMK AO2 SLP201 T00780028 58012 VISNO $",
  "sanitized": "KNUW 220853Z 15005KT 10SM SCT040 BKN080 OVC120 08/03 A3013 RMK AO2 SLP201 T00780028 58012 VISNO $",
  "station": "KNUW",
  "time": {
    "repr": "220853Z",
    "dt": "2022-11-22T08:53:00Z"
  },
  "remarks": "RMK AO2 SLP201 T00780028 58012 VISNO $",
  "dewpoint": {
    "repr": "03",
    "value": 3,
    "spoken": "three"
  },
  "relative_humidity": 0.7063989825322067,
  "remarks_info": {
    "maximum_temperature_6": null,
    "minimum_temperature_6": null,
    "pressure_tendency": {
      "repr": "58012",
      "tendency": "Steady or increasing, then decreasing",
      "change": 1.2
    },
    "precip_36_hours": null,
    "precip_24_hours": null,
    "sunshine_minutes": null,
    "codes": [
      {
        "repr": "$",
        "value": "ASOS requires maintenance"
      },
      {
        "repr": "AO2",
        "value": "Automated with precipitation sensor"
      }
    ],
    "dewpoint_decimal": {
      "repr": "0028",
      "value": 2.8,
      "spoken": "two point eight"
    },
    "maximum_temperature_24": null,
    "minimum_temperature_24": null,
    "precip_hourly": null,
    "sea_level_pressure": {
      "repr": "SLP201",
      "value": 1020.1,
      "spoken": "one zero two zero point one"
    },
    "snow_depth": null,
    "temperature_decimal": {
      "repr": "0078",
      "value": 7.8,
      "spoken": "seven point eight"
    }
  },
  "runway_visibility": [],
  "temperature": {
    "repr": "08",
    "value": 8,
    "spoken": "eight"
  },
  "wind_variable_direction": [],
  "density_altitude": -1016,
  "pressure_altitude": -163,
  "units": {
    "accumulation": "in",
    "altimeter": "inHg",
    "altitude": "ft",
    "temperature": "C",
    "visibility": "sm",
    "wind_speed": "kt"
  }
}
