{
  "meta": {
    "timestamp": "2023-02-28T16:06:47.426132Z",
    "stations_updated": "2023-01-30",
    "cache-timestamp": "2023-02-28T16:06:07.052000Z"
  },
  "altimeter": {
    "repr": "A2941",
    "value": 29.41,
    "spoken": "two nine point four one"
  },
  "clouds": [
    {
      "repr": "OVC010",
      "type": "OVC",
      "altitude": 10,
      "modifier": null
    }
  ],
  "flight_rules": "MVFR",
  "other": [],
  "visibility": {
    "repr": "6",
    "value": 6,
    "spoken": "six"
  },
  "wind_direction": {
    "repr": "230",
    "value": 230,
    "spoken": "two three zero"
  },
  "wind_gust": {
    "repr": "25",
    "value": 25,
    "spoken": "two five"
  },
  "wind_speed": {
    "repr": "18",
    "value": 18,
    "spoken": "one eight"
  },
  "wx_codes": [
    {
      "repr": "BR",
      "value": "Mist"
    }
  ],
  "raw": "KNUW 281453Z 23018G25KT 6SM BR OVC010 03/01 A2941 RMK WSHFT 1432 RAE43SNE43 SLP963 P0001 60006 T00280011 51011",
  "sanitized": "KNUW 281453Z 23018G25KT 6SM BR OVC010 03/01 A2941 RMK WSHFT 1432 RAE43SNE43 SLP963 P0001 60006 T00280011 51011",
  "station": "KNUW",
  "time": {
    "repr": "281453Z",
    "dt": "2023-02-28T14:53:00Z"
  },
  "remarks": "RMK WSHFT 1432 RAE43SNE43 SLP963 P0001 60006 T00280011 51011",
  "dewpoint": {
    "repr": "01",
    "value": 1,
    "spoken": "one"
  },
  "relative_humidity": 0.8856685038265605,
  "remarks_info": {
    "maximum_temperature_6": null,
    "minimum_temperature_6": null,
    "pressure_tendency": {
      "repr": "51011",
      "tendency": "Increasing, then steady",
      "change": 1.1
    },
    "precip_36_hours": {
      "repr": "60006",
      "value": 0.06,
      "spoken": "zero point zero six"
    },
    "precip_24_hours": null,
    "sunshine_minutes": null,
    "codes": [],
    "dewpoint_decimal": {
      "repr": "0011",
      "value": 1.1,
      "spoken": "one point one"
    },
    "maximum_temperature_24": null,
    "minimum_temperature_24": null,
    "precip_hourly": {
      "repr": "P0001",
      "value": 0.01,
      "spoken": "zero point zero one"
    },
    "sea_level_pressure": {
      "repr": "SLP963",
      "value": 996.3,
      "spoken": "nine nine six point three"
    },
    "snow_depth": null,
    "temperature_decimal": {
      "repr": "0028",
      "value": 2.8,
      "spoken": "two point eight"
    }
  },
  "runway_visibility": [],
  "temperature": {
    "repr": "03",
    "value": 3,
    "spoken": "three"
  },
  "wind_variable_direction": [],
  "density_altitude": -896,
  "pressure_altitude": 557,
  "units": {
    "accumulation": "in",
    "altimeter": "inHg",
    "altitude": "ft",
    "temperature": "C",
    "visibility": "sm",
    "wind_speed": "kt"
  }
}
