{
  "altimeter": {
    "repr": "A2986",
    "spoken": "two nine point eight six",
    "value": 29.86
  },
  "clouds": [
    {
      "altitude": 200,
      "modifier": null,
      "repr": "FEW200",
      "type": "FEW"
    }
  ],
  "density_altitude": -482,
  "dewpoint": {
    "repr": "09",
    "spoken": "nine",
    "value": 9
  },
  "flight_rules": "VFR",
  "meta": {
    "stations_updated": "2024-06-12",
    "timestamp": "2024-09-17T08:45:03.533708Z"
  },
  "other": [],
  "pressure_altitude": 107,
  "raw": "KNUW 170753Z 12003KT 10SM FEW200 10/09 A2986 RMK AO2 SLP115 T01000094 401720089",
  "relative_humidity": 0.9605319898773285,
  "remarks": "RMK AO2 SLP115 T01000094 401720089",
  "remarks_info": {
    "codes": [
      {
        "repr": "AO2",
        "value": "Automated with precipitation sensor"
      }
    ],
    "dewpoint_decimal": {
      "repr": "0094",
      "spoken": "nine point four",
      "value": 9.4
    },
    "maximum_temperature_24": {
      "repr": "0172",
      "spoken": "one seven point two",
      "value": 17.2
    },
    "maximum_temperature_6": null,
    "minimum_temperature_24": {
      "repr": "0089",
      "spoken": "eight point nine",
      "value": 8.9
    },
    "minimum_temperature_6": null,
    "precip_24_hours": null,
    "precip_36_hours": null,
    "precip_hourly": null,
    "pressure_tendency": null,
    "sea_level_pressure": {
      "repr": "SLP115",
      "spoken": "one zero one one point five",
      "value": 1011.5
    },
    "snow_depth": null,
    "sunshine_minutes": null,
    "temperature_decimal": {
      "repr": "0100",
      "spoken": "one zero point zero",
      "value": 10
    }
  },
  "runway_visibility": [],
  "sanitized": "KNUW 170753Z 12003KT 10SM FEW200 10/09 A2986 RMK AO2 SLP115 T01000094 401720089",
  "station": "KNUW",
  "temperature": {
    "repr": "10",
    "spoken": "one zero",
    "value": 10
  },
  "time": {
    "dt": "2024-09-17T07:53:00Z",
    "repr": "170753Z"
  },
  "units": {
    "accumulation": "in",
    "altimeter": "inHg",
    "altitude": "ft",
    "temperature": "C",
    "visibility": "sm",
    "wind_speed": "kt"
  },
  "visibility": {
    "repr": "10",
    "spoken": "one zero",
    "value": 10
  },
  "wind_direction": {
    "repr": "120",
    "spoken": "one two zero",
    "value": 120
  },
  "wind_gust": null,
  "wind_speed": {
    "repr": "03",
    "spoken": "three",
    "value": 3
  },
  "wind_variable_direction": [],
  "wx_codes": []
}
