{
  "altimeter": {
    "repr": "A2982",
    "spoken": "two nine point eight two",
    "value": 29.82
  },
  "clouds": [
    {
      "altitude": 90,
      "modifier": null,
      "repr": "FEW090",
      "type": "FEW"
    },
    {
      "altitude": 140,
      "modifier": null,
      "repr": "SCT140",
      "type": "SCT"
    },
    {
      "altitude": 200,
      "modifier": null,
      "repr": "BKN200",
      "type": "BKN"
    }
  ],
  "density_altitude": -1714,
  "dewpoint": {
    "repr": "M06",
    "spoken": "minus six",
    "value": -6
  },
  "flight_rules": "VFR",
  "meta": {
    "stations_updated": "2023-10-28",
    "timestamp": "2024-01-17T01:41:13.786520Z"
  },
  "other": [],
  "pressure_altitude": 147,
  "raw": "KNUW 170053Z 06003KT 10SM FEW090 SCT140 BKN200 M01/M06 A2982 RMK AO2 SLP103 T10061061 $",
  "relative_humidity": 0.6633957363759272,
  "remarks": "RMK AO2 SLP103 T10061061 $",
  "remarks_info": {
    "codes": [
      {
        "repr": "$",
        "value": "ASOS requires maintenance"
      },
      {
        "repr": "AO2",
        "value": "Automated with precipitation sensor"
      }
    ],
    "dewpoint_decimal": {
      "repr": "1061",
      "spoken": "minus six point one",
      "value": -6.1
    },
    "maximum_temperature_24": null,
    "maximum_temperature_6": null,
    "minimum_temperature_24": null,
    "minimum_temperature_6": null,
    "precip_24_hours": null,
    "precip_36_hours": null,
    "precip_hourly": null,
    "pressure_tendency": null,
    "sea_level_pressure": {
      "repr": "SLP103",
      "spoken": "one zero one zero point three",
      "value": 1010.3
    },
    "snow_depth": null,
    "sunshine_minutes": null,
    "temperature_decimal": {
      "repr": "1006",
      "spoken": "minus zero point six",
      "value": -0.6
    }
  },
  "runway_visibility": [],
  "sanitized": "KNUW 170053Z 06003KT 10SM FEW090 SCT140 BKN200 M01/M06 A2982 RMK AO2 SLP103 T10061061 $",
  "station": "KNUW",
  "temperature": {
    "repr": "M01",
    "spoken": "minus one",
    "value": -1
  },
  "time": {
    "dt": "2024-01-17T00:53:00Z",
    "repr": "170053Z"
  },
  "units": {
    "accumulation": "in",
    "altimeter": "inHg",
    "altitude": "ft",
    "temperature": "C",
    "visibility": "sm",
    "wind_speed": "kt"
  },
  "visibility": {
    "repr": "10",
    "spoken": "one zero",
    "value": 10
  },
  "wind_direction": {
    "repr": "060",
    "spoken": "zero six zero",
    "value": 60
  },
  "wind_gust": null,
  "wind_speed": {
    "repr": "03",
    "spoken": "three",
    "value": 3
  },
  "wind_variable_direction": [],
  "wx_codes": []
}
