{
  "meta": {
    "timestamp": "2023-02-16T19:20:59.717557Z",
    "stations_updated": "2023-01-30"
  },
  "altimeter": {
    "repr": "A3022",
    "value": 30.22,
    "spoken": "three zero point two two"
  },
  "clouds": [
    {
      "repr": "BKN080",
      "type": "BKN",
      "altitude": 80,
      "modifier": null
    },
    {
      "repr": "OVC100",
      "type": "OVC",
      "altitude": 100,
      "modifier": null
    }
  ],
  "flight_rules": "VFR",
  "other": [],
  "visibility": {
    "repr": "10",
    "value": 10,
    "spoken": "one zero"
  },
  "wind_direction": {
    "repr": "130",
    "value": 130,
    "spoken": "one three zero"
  },
  "wind_gust": null,
  "wind_speed": {
    "repr": "06",
    "value": 6,
    "spoken": "six"
  },
  "wx_codes": [],
  "raw": "KNUW 161753Z 13006KT 10SM BKN080 OVC100 06/M01 A3022 RMK SLP231 T00561006 10056 20022 50004",
  "sanitized": "KNUW 161753Z 13006KT 10SM BKN080 OVC100 06/M01 A3022 RMK SLP231 T00561006 10056 20022 50004",
  "station": "KNUW",
  "time": {
    "repr": "161753Z",
    "dt": "2023-02-16T17:53:00Z"
  },
  "remarks": "RMK SLP231 T00561006 10056 20022 50004",
  "dewpoint": {
    "repr": "M01",
    "value": -1,
    "spoken": "minus one"
  },
  "relative_humidity": 0.6434662836321308,
  "remarks_info": {
    "maximum_temperature_6": {
      "repr": "10056",
      "value": 5.6,
      "spoken": "five point six"
    },
    "minimum_temperature_6": {
      "repr": "20022",
      "value": 2.2,
      "spoken": "two point two"
    },
    "pressure_tendency": {
      "repr": "50004",
      "tendency": "Increasing, then decreasing",
      "change": 0.4
    },
    "precip_36_hours": null,
    "precip_24_hours": null,
    "sunshine_minutes": null,
    "codes": [],
    "dewpoint_decimal": {
      "repr": "1006",
      "value": -0.6,
      "spoken": "minus zero point six"
    },
    "maximum_temperature_24": null,
    "minimum_temperature_24": null,
    "precip_hourly": null,
    "sea_level_pressure": {
      "repr": "SLP231",
      "value": 1023.1,
      "spoken": "one zero two three point one"
    },
    "snow_depth": null,
    "temperature_decimal": {
      "repr": "0056",
      "value": 5.6,
      "spoken": "five point six"
    }
  },
  "runway_visibility": [],
  "temperature": {
    "repr": "06",
    "value": 6,
    "spoken": "six"
  },
  "wind_variable_direction": [],
  "density_altitude": -1370,
  "pressure_altitude": -253,
  "units": {
    "accumulation": "in",
    "altimeter": "inHg",
    "altitude": "ft",
    "temperature": "C",
    "visibility": "sm",
    "wind_speed": "kt"
  }
}
