{
  "meta": {
    "timestamp": "2022-12-10T08:42:36.642069Z",
    "stations_updated": "2022-09-05"
  },
  "altimeter": {
    "repr": "A2936",
    "value": 29.36,
    "spoken": "two nine point three six"
  },
  "clouds": [
    {
      "repr": "SCT039",
      "type": "SCT",
      "altitude": 39,
      "modifier": null
    },
    {
      "repr": "OVC110",
      "type": "OVC",
      "altitude": 110,
      "modifier": null
    }
  ],
  "flight_rules": "VFR",
  "other": [],
  "visibility": {
    "repr": "10",
    "value": 10,
    "spoken": "one zero"
  },
  "wind_direction": {
    "repr": "130",
    "value": 130,
    "spoken": "one three zero"
  },
  "wind_gust": {
    "repr": "35",
    "value": 35,
    "spoken": "three five"
  },
  "wind_speed": {
    "repr": "27",
    "value": 27,
    "spoken": "two seven"
  },
  "wx_codes": [
    {
      "repr": "-RA",
      "value": "Light Rain"
    }
  ],
  "raw": "KNUW 100753Z 13027G35KT 10SM -RA SCT039 OVC110 05/03 A2936 RMK AO2 PK WND 13035/0749 SLP942 P0000 T00500028 400670033 VISNO $",
  "sanitized": "KNUW 100753Z 13027G35KT 10SM -RA SCT039 OVC110 05/03 A2936 RMK AO2 PK WND 13035/0749 SLP942 P0000 T00500028 400670033 VISNO $",
  "station": "KNUW",
  "time": {
    "repr": "100753Z",
    "dt": "2022-12-10T07:53:00Z"
  },
  "remarks": "RMK AO2 PK WND 13035/0749 SLP942 P0000 T00500028 400670033 VISNO $",
  "dewpoint": {
    "repr": "03",
    "value": 3,
    "spoken": "three"
  },
  "relative_humidity": 0.8567096465909865,
  "remarks_info": {
    "maximum_temperature_6": null,
    "minimum_temperature_6": null,
    "pressure_tendency": null,
    "precip_36_hours": null,
    "precip_24_hours": null,
    "sunshine_minutes": null,
    "codes": [
      {
        "repr": "$",
        "value": "ASOS requires maintenance"
      },
      {
        "repr": "AO2",
        "value": "Automated with precipitation sensor"
      },
      {
        "repr": "P0000",
        "value": "Trace amount of rain in the last hour"
      }
    ],
    "dewpoint_decimal": {
      "repr": "0028",
      "value": 2.8,
      "spoken": "two point eight"
    },
    "maximum_temperature_24": {
      "repr": "0067",
      "value": 6.7,
      "spoken": "six point seven"
    },
    "minimum_temperature_24": {
      "repr": "0033",
      "value": 3.3,
      "spoken": "three point three"
    },
    "precip_hourly": null,
    "sea_level_pressure": {
      "repr": "SLP942",
      "value": 994.2,
      "spoken": "nine nine four point two"
    },
    "snow_depth": null,
    "temperature_decimal": {
      "repr": "0050",
      "value": 5,
      "spoken": "five point zero"
    }
  },
  "runway_visibility": [],
  "temperature": {
    "repr": "05",
    "value": 5,
    "spoken": "five"
  },
  "wind_variable_direction": [],
  "density_altitude": -582,
  "pressure_altitude": 607,
  "units": {
    "accumulation": "in",
    "altimeter": "inHg",
    "altitude": "ft",
    "temperature": "C",
    "visibility": "sm",
    "wind_speed": "kt"
  }
}
