{
  "meta": {
    "timestamp": "2023-01-24T02:46:00.395361Z",
    "stations_updated": "2023-01-16"
  },
  "altimeter": {
    "repr": "A3055",
    "value": 30.55,
    "spoken": "three zero point five five"
  },
  "clouds": [
    {
      "repr": "FEW025",
      "type": "FEW",
      "altitude": 25,
      "modifier": null
    },
    {
      "repr": "BKN036",
      "type": "BKN",
      "altitude": 36,
      "modifier": null
    },
    {
      "repr": "BKN055",
      "type": "BKN",
      "altitude": 55,
      "modifier": null
    }
  ],
  "flight_rules": "VFR",
  "other": [],
  "visibility": {
    "repr": "10",
    "value": 10,
    "spoken": "one zero"
  },
  "wind_direction": {
    "repr": "140",
    "value": 140,
    "spoken": "one four zero"
  },
  "wind_gust": null,
  "wind_speed": {
    "repr": "03",
    "value": 3,
    "spoken": "three"
  },
  "wx_codes": [],
  "raw": "KNUW 240153Z 14003KT 10SM FEW025 BKN036 BKN055 06/03 A3055 RMK SLP345 T00610028",
  "sanitized": "KNUW 240153Z 14003KT 10SM FEW025 BKN036 BKN055 06/03 A3055 RMK SLP345 T00610028",
  "station": "KNUW",
  "time": {
    "repr": "240153Z",
    "dt": "2023-01-24T01:53:00Z"
  },
  "remarks": "RMK SLP345 T00610028",
  "dewpoint": {
    "repr": "03",
    "value": 3,
    "spoken": "three"
  },
  "relative_humidity": 0.7937696580662857,
  "remarks_info": {
    "maximum_temperature_6": null,
    "minimum_temperature_6": null,
    "pressure_tendency": null,
    "precip_36_hours": null,
    "precip_24_hours": null,
    "sunshine_minutes": null,
    "codes": [],
    "dewpoint_decimal": {
      "repr": "0028",
      "value": 2.8,
      "spoken": "two point eight"
    },
    "maximum_temperature_24": null,
    "minimum_temperature_24": null,
    "precip_hourly": null,
    "sea_level_pressure": {
      "repr": "SLP345",
      "value": 1034.5,
      "spoken": "one zero three four point five"
    },
    "snow_depth": null,
    "temperature_decimal": {
      "repr": "0061",
      "value": 6.1,
      "spoken": "six point one"
    }
  },
  "runway_visibility": [],
  "temperature": {
    "repr": "06",
    "value": 6,
    "spoken": "six"
  },
  "wind_variable_direction": [],
  "density_altitude": -1640,
  "pressure_altitude": -583,
  "units": {
    "accumulation": "in",
    "altimeter": "inHg",
    "altitude": "ft",
    "temperature": "C",
    "visibility": "sm",
    "wind_speed": "kt"
  }
}
