{
  "altimeter": {
    "repr": "A3031",
    "spoken": "three zero point three one",
    "value": 30.31
  },
  "clouds": [
    {
      "altitude": 180,
      "modifier": null,
      "repr": "FEW180",
      "type": "FEW"
    }
  ],
  "density_altitude": -3404,
  "dewpoint": {
    "repr": "M20",
    "spoken": "minus two zero",
    "value": -20
  },
  "flight_rules": "VFR",
  "meta": {
    "stations_updated": "2023-10-28",
    "timestamp": "2024-01-13T07:21:47.408111Z"
  },
  "other": [],
  "pressure_altitude": -343,
  "raw": "KNUW 130653Z 07009KT 10SM FEW180 M11/M20 A3031 RMK SLP268 T11061200",
  "relative_humidity": 0.45978713260854015,
  "remarks": "RMK SLP268 T11061200",
  "remarks_info": {
    "codes": [],
    "dewpoint_decimal": {
      "repr": "1200",
      "spoken": "minus two zero point zero",
      "value": -20
    },
    "maximum_temperature_24": null,
    "maximum_temperature_6": null,
    "minimum_temperature_24": null,
    "minimum_temperature_6": null,
    "precip_24_hours": null,
    "precip_36_hours": null,
    "precip_hourly": null,
    "pressure_tendency": null,
    "sea_level_pressure": {
      "repr": "SLP268",
      "spoken": "one zero two six point eight",
      "value": 1026.8
    },
    "snow_depth": null,
    "sunshine_minutes": null,
    "temperature_decimal": {
      "repr": "1106",
      "spoken": "minus one zero point six",
      "value": -10.6
    }
  },
  "runway_visibility": [],
  "sanitized": "KNUW 130653Z 07009KT 10SM FEW180 M11/M20 A3031 RMK SLP268 T11061200",
  "station": "KNUW",
  "temperature": {
    "repr": "M11",
    "spoken": "minus one one",
    "value": -11
  },
  "time": {
    "dt": "2024-01-13T06:53:00Z",
    "repr": "130653Z"
  },
  "units": {
    "accumulation": "in",
    "altimeter": "inHg",
    "altitude": "ft",
    "temperature": "C",
    "visibility": "sm",
    "wind_speed": "kt"
  },
  "visibility": {
    "repr": "10",
    "spoken": "one zero",
    "value": 10
  },
  "wind_direction": {
    "repr": "070",
    "spoken": "zero seven zero",
    "value": 70
  },
  "wind_gust": null,
  "wind_speed": {
    "repr": "09",
    "spoken": "nine",
    "value": 9
  },
  "wind_variable_direction": [],
  "wx_codes": []
}
