{
  "meta": {
    "timestamp": "2023-02-26T08:06:50.200787Z",
    "stations_updated": "2023-01-30",
    "cache-timestamp": "2023-02-26T08:06:05.681000Z"
  },
  "altimeter": {
    "repr": "A2949",
    "value": 29.49,
    "spoken": "two nine point four nine"
  },
  "clouds": [
    {
      "repr": "SCT035",
      "type": "SCT",
      "altitude": 35,
      "modifier": null
    },
    {
      "repr": "BKN065",
      "type": "BKN",
      "altitude": 65,
      "modifier": null
    },
    {
      "repr": "OVC080",
      "type": "OVC",
      "altitude": 80,
      "modifier": null
    }
  ],
  "flight_rules": "VFR",
  "other": [],
  "visibility": {
    "repr": "10",
    "value": 10,
    "spoken": "one zero"
  },
  "wind_direction": {
    "repr": "140",
    "value": 140,
    "spoken": "one four zero"
  },
  "wind_gust": {
    "repr": "45",
    "value": 45,
    "spoken": "four five"
  },
  "wind_speed": {
    "repr": "26",
    "value": 26,
    "spoken": "two six"
  },
  "wx_codes": [
    {
      "repr": "-RASN",
      "value": "Light Rain Snow"
    }
  ],
  "raw": "KNUW 260653Z 14026G45KT 10SM -RASN SCT035 BKN065 OVC080 04/M03 A2949 RMK PK WND 15045/0649 RABSNB46 PRESFR SLP990 P0000 T00441028",
  "sanitized": "KNUW 260653Z 14026G45KT 10SM -RASN SCT035 BKN065 OVC080 04/M03 A2949 RMK PK WND 15045/0649 RABSNB46 PRESFR SLP990 P0000 T00441028",
  "station": "KNUW",
  "time": {
    "repr": "260653Z",
    "dt": "2023-02-26T06:53:00Z"
  },
  "remarks": "RMK PK WND 15045/0649 RABSNB46 PRESFR SLP990 P0000 T00441028",
  "dewpoint": {
    "repr": "M03",
    "value": -3,
    "spoken": "minus three"
  },
  "relative_humidity": 0.5950100754465047,
  "remarks_info": {
    "maximum_temperature_6": null,
    "minimum_temperature_6": null,
    "pressure_tendency": null,
    "precip_36_hours": null,
    "precip_24_hours": null,
    "sunshine_minutes": null,
    "codes": [
      {
        "repr": "P0000",
        "value": "Trace amount of rain in the last hour"
      },
      {
        "repr": "PRESFR",
        "value": "Pressure Falling Rapidly"
      }
    ],
    "dewpoint_decimal": {
      "repr": "1028",
      "value": -2.8,
      "spoken": "minus two point eight"
    },
    "maximum_temperature_24": null,
    "minimum_temperature_24": null,
    "precip_hourly": null,
    "sea_level_pressure": {
      "repr": "SLP990",
      "value": 999,
      "spoken": "nine nine nine point zero"
    },
    "snow_depth": null,
    "temperature_decimal": {
      "repr": "0044",
      "value": 4.4,
      "spoken": "four point four"
    }
  },
  "runway_visibility": [],
  "temperature": {
    "repr": "04",
    "value": 4,
    "spoken": "four"
  },
  "wind_variable_direction": [],
  "density_altitude": -784,
  "pressure_altitude": 477,
  "units": {
    "accumulation": "in",
    "altimeter": "inHg",
    "altitude": "ft",
    "temperature": "C",
    "visibility": "sm",
    "wind_speed": "kt"
  }
}
