{
  "meta": {
    "timestamp": "2022-11-29T10:43:48.696736Z",
    "stations_updated": "2022-09-05"
  },
  "altimeter": {
    "repr": "A3008",
    "value": 30.08,
    "spoken": "three zero point zero eight"
  },
  "clouds": [
    {
      "repr": "FEW050",
      "type": "FEW",
      "altitude": 50,
      "modifier": null
    },
    {
      "repr": "FEW150",
      "type": "FEW",
      "altitude": 150,
      "modifier": null
    },
    {
      "repr": "SCT200",
      "type": "SCT",
      "altitude": 200,
      "modifier": null
    }
  ],
  "flight_rules": "VFR",
  "other": [],
  "visibility": {
    "repr": "10",
    "value": 10,
    "spoken": "one zero"
  },
  "wind_direction": {
    "repr": "120",
    "value": 120,
    "spoken": "one two zero"
  },
  "wind_gust": null,
  "wind_speed": {
    "repr": "03",
    "value": 3,
    "spoken": "three"
  },
  "wx_codes": [],
  "raw": "KNUW 290953Z 12003KT 10SM FEW050 FEW150 SCT200 M04/M08 A3008 RMK AO2 SLP185 T10391083 VISNO $",
  "sanitized": "KNUW 290953Z 12003KT 10SM FEW050 FEW150 SCT200 M04/M08 A3008 RMK AO2 SLP185 T10391083 VISNO $",
  "station": "KNUW",
  "time": {
    "repr": "290953Z",
    "dt": "2022-11-29T09:53:00Z"
  },
  "remarks": "RMK AO2 SLP185 T10391083 VISNO $",
  "dewpoint": {
    "repr": "M08",
    "value": -8,
    "spoken": "minus eight"
  },
  "relative_humidity": 0.7146646894911062,
  "remarks_info": {
    "maximum_temperature_6": null,
    "minimum_temperature_6": null,
    "pressure_tendency": null,
    "precip_36_hours": null,
    "precip_24_hours": null,
    "sunshine_minutes": null,
    "codes": [
      {
        "repr": "$",
        "value": "ASOS requires maintenance"
      },
      {
        "repr": "AO2",
        "value": "Automated with precipitation sensor"
      }
    ],
    "dewpoint_decimal": {
      "repr": "1083",
      "value": -8.3,
      "spoken": "minus eight point three"
    },
    "maximum_temperature_24": null,
    "minimum_temperature_24": null,
    "precip_hourly": null,
    "sea_level_pressure": {
      "repr": "SLP185",
      "value": 1018.5,
      "spoken": "one zero one eight point five"
    },
    "snow_depth": null,
    "temperature_decimal": {
      "repr": "1039",
      "value": -3.9,
      "spoken": "minus three point nine"
    }
  },
  "runway_visibility": [],
  "temperature": {
    "repr": "M04",
    "value": -4,
    "spoken": "minus four"
  },
  "wind_variable_direction": [],
  "density_altitude": -2370,
  "pressure_altitude": -113,
  "units": {
    "accumulation": "in",
    "altimeter": "inHg",
    "altitude": "ft",
    "temperature": "C",
    "visibility": "sm",
    "wind_speed": "kt"
  }
}
