{
  "meta": {
    "timestamp": "2022-11-30T07:40:46.026156Z",
    "stations_updated": "2022-09-05"
  },
  "altimeter": {
    "repr": "A2948",
    "value": 29.48,
    "spoken": "two nine point four eight"
  },
  "clouds": [
    {
      "repr": "OVC014",
      "type": "OVC",
      "altitude": 14,
      "modifier": null
    }
  ],
  "flight_rules": "MVFR",
  "other": [],
  "visibility": {
    "repr": "9",
    "value": 9,
    "spoken": "nine"
  },
  "wind_direction": {
    "repr": "140",
    "value": 140,
    "spoken": "one four zero"
  },
  "wind_gust": {
    "repr": "40",
    "value": 40,
    "spoken": "four zero"
  },
  "wind_speed": {
    "repr": "27",
    "value": 27,
    "spoken": "two seven"
  },
  "wx_codes": [
    {
      "repr": "-SN",
      "value": "Light Snow"
    }
  ],
  "raw": "KNUW 300653Z 14027G40KT 9SM -SN OVC014 03/01 A2948 RMK AO2 PK WND 15040/0648 SNB44 SLP982 P0000 T00280011 VISNO $",
  "sanitized": "KNUW 300653Z 14027G40KT 9SM -SN OVC014 03/01 A2948 RMK AO2 PK WND 15040/0648 SNB44 SLP982 P0000 T00280011 VISNO $",
  "station": "KNUW",
  "time": {
    "repr": "300653Z",
    "dt": "2022-11-30T06:53:00Z"
  },
  "remarks": "RMK AO2 PK WND 15040/0648 SNB44 SLP982 P0000 T00280011 VISNO $",
  "dewpoint": {
    "repr": "01",
    "value": 1,
    "spoken": "one"
  },
  "relative_humidity": 0.8856685038265605,
  "remarks_info": {
    "maximum_temperature_6": null,
    "minimum_temperature_6": null,
    "pressure_tendency": null,
    "precip_36_hours": null,
    "precip_24_hours": null,
    "sunshine_minutes": null,
    "codes": [
      {
        "repr": "$",
        "value": "ASOS requires maintenance"
      },
      {
        "repr": "AO2",
        "value": "Automated with precipitation sensor"
      },
      {
        "repr": "P0000",
        "value": "Trace amount of rain in the last hour"
      },
      {
        "repr": "SNB44",
        "value": "Snow began at :44"
      }
    ],
    "dewpoint_decimal": {
      "repr": "0011",
      "value": 1.1,
      "spoken": "one point one"
    },
    "maximum_temperature_24": null,
    "minimum_temperature_24": null,
    "precip_hourly": null,
    "sea_level_pressure": {
      "repr": "SLP982",
      "value": 998.2,
      "spoken": "nine nine eight point two"
    },
    "snow_depth": null,
    "temperature_decimal": {
      "repr": "0028",
      "value": 2.8,
      "spoken": "two point eight"
    }
  },
  "runway_visibility": [],
  "temperature": {
    "repr": "03",
    "value": 3,
    "spoken": "three"
  },
  "wind_variable_direction": [],
  "density_altitude": -966,
  "pressure_altitude": 487,
  "units": {
    "accumulation": "in",
    "altimeter": "inHg",
    "altitude": "ft",
    "temperature": "C",
    "visibility": "sm",
    "wind_speed": "kt"
  }
}
