{
  "meta": {
    "timestamp": "2022-08-20T21:03:44.083627Z",
    "stations_updated": "2022-07-17"
  },
  "altimeter": {
    "repr": "A3000",
    "value": 30,
    "spoken": "three zero point zero zero"
  },
  "clouds": [
    {
      "repr": "FEW010",
      "type": "FEW",
      "altitude": 10,
      "modifier": null
    },
    {
      "repr": "BKN018",
      "type": "BKN",
      "altitude": 18,
      "modifier": null
    },
    {
      "repr": "BKN150",
      "type": "BKN",
      "altitude": 150,
      "modifier": null
    }
  ],
  "flight_rules": "MVFR",
  "other": [],
  "visibility": {
    "repr": "10",
    "value": 10,
    "spoken": "one zero"
  },
  "wind_direction": {
    "repr": "310",
    "value": 310,
    "spoken": "three one zero"
  },
  "wind_gust": null,
  "wind_speed": {
    "repr": "05",
    "value": 5,
    "spoken": "five"
  },
  "wx_codes": [],
  "raw": "KNUW 202053Z 31005KT 10SM FEW010 BKN018 BKN150 19/16 A3000 RMK SLP159 60000 T01940156 58004",
  "sanitized": "KNUW 202053Z 31005KT 10SM FEW010 BKN018 BKN150 19/16 A3000 RMK SLP159 60000 T01940156 58004",
  "station": "KNUW",
  "time": {
    "repr": "202053Z",
    "dt": "2022-08-20T20:53:00Z"
  },
  "remarks": "RMK SLP159 60000 T01940156 58004",
  "dewpoint": {
    "repr": "16",
    "value": 16,
    "spoken": "one six"
  },
  "relative_humidity": 0.786606180922979,
  "remarks_info": {
    "maximum_temperature_6": null,
    "minimum_temperature_6": null,
    "pressure_tendency": {
      "repr": "58004",
      "tendency": "Steady or increasing, then decreasing",
      "change": 0.4
    },
    "precip_36_hours": {
      "repr": "60000",
      "value": 0,
      "spoken": "zero"
    },
    "precip_24_hours": null,
    "sunshine_minutes": null,
    "codes": [],
    "dewpoint_decimal": {
      "repr": "0156",
      "value": 15.6,
      "spoken": "one five point six"
    },
    "maximum_temperature_24": null,
    "minimum_temperature_24": null,
    "precip_hourly": null,
    "sea_level_pressure": {
      "repr": "SLP159",
      "value": 1015.9,
      "spoken": "one zero one five point nine"
    },
    "snow_depth": null,
    "temperature_decimal": {
      "repr": "0194",
      "value": 19.4,
      "spoken": "one nine point four"
    }
  },
  "runway_visibility": [],
  "temperature": {
    "repr": "19",
    "value": 19,
    "spoken": "one nine"
  },
  "wind_variable_direction": [],
  "density_altitude": 506,
  "pressure_altitude": -33,
  "units": {
    "accumulation": "in",
    "altimeter": "inHg",
    "altitude": "ft",
    "temperature": "C",
    "visibility": "sm",
    "wind_speed": "kt"
  }
}
