{
  "altimeter": {
    "repr": "A2988",
    "spoken": "two nine point eight eight",
    "value": 29.88
  },
  "clouds": [
    {
      "altitude": 10,
      "modifier": null,
      "repr": "BKN010",
      "type": "BKN"
    },
    {
      "altitude": 15,
      "modifier": null,
      "repr": "OVC015",
      "type": "OVC"
    }
  ],
  "density_altitude": 170,
  "dewpoint": {
    "repr": "14",
    "spoken": "one four",
    "value": 14
  },
  "flight_rules": "MVFR",
  "meta": {
    "stations_updated": "2024-06-12",
    "timestamp": "2024-07-29T16:32:19.873082Z"
  },
  "other": [],
  "pressure_altitude": 87,
  "raw": "KNUW 291553Z COR 13008KT 5SM -RA BR BKN010 OVC015 16/14 A2988 RMK SLP124 P0003 T01560144",
  "relative_humidity": 0.9256420226021359,
  "remarks": "RMK SLP124 P0003 T01560144",
  "remarks_info": {
    "codes": [],
    "dewpoint_decimal": {
      "repr": "0144",
      "spoken": "one four point four",
      "value": 14.4
    },
    "maximum_temperature_24": null,
    "maximum_temperature_6": null,
    "minimum_temperature_24": null,
    "minimum_temperature_6": null,
    "precip_24_hours": null,
    "precip_36_hours": null,
    "precip_hourly": {
      "repr": "P0003",
      "spoken": "zero point zero three",
      "value": 0.03
    },
    "pressure_tendency": null,
    "sea_level_pressure": {
      "repr": "SLP124",
      "spoken": "one zero one two point four",
      "value": 1012.4
    },
    "snow_depth": null,
    "sunshine_minutes": null,
    "temperature_decimal": {
      "repr": "0156",
      "spoken": "one five point six",
      "value": 15.6
    }
  },
  "runway_visibility": [],
  "sanitized": "KNUW 291553Z 13008KT 5SM -RA BR BKN010 OVC015 16/14 A2988 RMK SLP124 P0003 T01560144",
  "station": "KNUW",
  "temperature": {
    "repr": "16",
    "spoken": "one six",
    "value": 16
  },
  "time": {
    "dt": "2024-07-29T15:53:00Z",
    "repr": "291553Z"
  },
  "units": {
    "accumulation": "in",
    "altimeter": "inHg",
    "altitude": "ft",
    "temperature": "C",
    "visibility": "sm",
    "wind_speed": "kt"
  },
  "visibility": {
    "repr": "5",
    "spoken": "five",
    "value": 5
  },
  "wind_direction": {
    "repr": "130",
    "spoken": "one three zero",
    "value": 130
  },
  "wind_gust": null,
  "wind_speed": {
    "repr": "08",
    "spoken": "eight",
    "value": 8
  },
  "wind_variable_direction": [],
  "wx_codes": [
    {
      "repr": "-RA",
      "value": "Light Rain"
    },
    {
      "repr": "BR",
      "value": "Mist"
    }
  ]
}
