{
  "altimeter": {
    "repr": "A2955",
    "spoken": "two nine point five five",
    "value": 29.55
  },
  "clouds": [
    {
      "altitude": 55,
      "modifier": null,
      "repr": "BKN055",
      "type": "BKN"
    },
    {
      "altitude": 85,
      "modifier": null,
      "repr": "BKN085",
      "type": "BKN"
    },
    {
      "altitude": 110,
      "modifier": null,
      "repr": "BKN110",
      "type": "BKN"
    }
  ],
  "density_altitude": 32,
  "dewpoint": {
    "repr": "06",
    "spoken": "six",
    "value": 6
  },
  "flight_rules": "VFR",
  "meta": {
    "stations_updated": "2023-10-28",
    "timestamp": "2023-12-19T20:01:19.463867Z"
  },
  "other": [],
  "pressure_altitude": 417,
  "raw": "KNUW 191953Z 11011KT 10SM BKN055 BKN085 BKN110 12/06 A2955 RMK AO2 SLP010 T01170056 $",
  "relative_humidity": 0.661749798501857,
  "remarks": "RMK AO2 SLP010 T01170056 $",
  "remarks_info": {
    "codes": [
      {
        "repr": "$",
        "value": "ASOS requires maintenance"
      },
      {
        "repr": "AO2",
        "value": "Automated with precipitation sensor"
      }
    ],
    "dewpoint_decimal": {
      "repr": "0056",
      "spoken": "five point six",
      "value": 5.6
    },
    "maximum_temperature_24": null,
    "maximum_temperature_6": null,
    "minimum_temperature_24": null,
    "minimum_temperature_6": null,
    "precip_24_hours": null,
    "precip_36_hours": null,
    "precip_hourly": null,
    "pressure_tendency": null,
    "sea_level_pressure": {
      "repr": "SLP010",
      "spoken": "one zero zero one point zero",
      "value": 1001
    },
    "snow_depth": null,
    "sunshine_minutes": null,
    "temperature_decimal": {
      "repr": "0117",
      "spoken": "one one point seven",
      "value": 11.7
    }
  },
  "runway_visibility": [],
  "sanitized": "KNUW 191953Z 11011KT 10SM BKN055 BKN085 BKN110 12/06 A2955 RMK AO2 SLP010 T01170056 $",
  "station": "KNUW",
  "temperature": {
    "repr": "12",
    "spoken": "one two",
    "value": 12
  },
  "time": {
    "dt": "2023-12-19T19:53:00Z",
    "repr": "191953Z"
  },
  "units": {
    "accumulation": "in",
    "altimeter": "inHg",
    "altitude": "ft",
    "temperature": "C",
    "visibility": "sm",
    "wind_speed": "kt"
  },
  "visibility": {
    "repr": "10",
    "spoken": "one zero",
    "value": 10
  },
  "wind_direction": {
    "repr": "110",
    "spoken": "one one zero",
    "value": 110
  },
  "wind_gust": null,
  "wind_speed": {
    "repr": "11",
    "spoken": "one one",
    "value": 11
  },
  "wind_variable_direction": [],
  "wx_codes": []
}
