{
  "altimeter": {
    "repr": "A2973",
    "spoken": "two nine point seven three",
    "value": 29.73
  },
  "clouds": [
    {
      "altitude": 7,
      "modifier": null,
      "repr": "FEW007",
      "type": "FEW"
    },
    {
      "altitude": 12,
      "modifier": null,
      "repr": "OVC012",
      "type": "OVC"
    }
  ],
  "density_altitude": -484,
  "dewpoint": {
    "repr": "08",
    "spoken": "eight",
    "value": 8
  },
  "flight_rules": "MVFR",
  "meta": {
    "cache-timestamp": "2024-01-23T09:02:37.864000Z",
    "stations_updated": "2023-10-28",
    "timestamp": "2024-01-23T09:02:58.853863Z"
  },
  "other": [],
  "pressure_altitude": 237,
  "raw": "KNUW 230753Z 15005KT 10SM -RA FEW007 OVC012 09/08 A2973 RMK AO2 RAB0659 SLP070 P0001 T00890078 401000067 $",
  "relative_humidity": 0.9280975124584884,
  "remarks": "RMK AO2 RAB0659 SLP070 P0001 T00890078 401000067 $",
  "remarks_info": {
    "codes": [
      {
        "repr": "$",
        "value": "ASOS requires maintenance"
      },
      {
        "repr": "AO2",
        "value": "Automated with precipitation sensor"
      }
    ],
    "dewpoint_decimal": {
      "repr": "0078",
      "spoken": "seven point eight",
      "value": 7.8
    },
    "maximum_temperature_24": {
      "repr": "0100",
      "spoken": "one zero point zero",
      "value": 10
    },
    "maximum_temperature_6": null,
    "minimum_temperature_24": {
      "repr": "0067",
      "spoken": "six point seven",
      "value": 6.7
    },
    "minimum_temperature_6": null,
    "precip_24_hours": null,
    "precip_36_hours": null,
    "precip_hourly": {
      "repr": "P0001",
      "spoken": "zero point zero one",
      "value": 0.01
    },
    "pressure_tendency": null,
    "sea_level_pressure": {
      "repr": "SLP070",
      "spoken": "one zero zero seven point zero",
      "value": 1007
    },
    "snow_depth": null,
    "sunshine_minutes": null,
    "temperature_decimal": {
      "repr": "0089",
      "spoken": "eight point nine",
      "value": 8.9
    }
  },
  "runway_visibility": [],
  "sanitized": "KNUW 230753Z 15005KT 10SM -RA FEW007 OVC012 09/08 A2973 RMK AO2 RAB0659 SLP070 P0001 T00890078 401000067 $",
  "station": "KNUW",
  "temperature": {
    "repr": "09",
    "spoken": "nine",
    "value": 9
  },
  "time": {
    "dt": "2024-01-23T07:53:00Z",
    "repr": "230753Z"
  },
  "units": {
    "accumulation": "in",
    "altimeter": "inHg",
    "altitude": "ft",
    "temperature": "C",
    "visibility": "sm",
    "wind_speed": "kt"
  },
  "visibility": {
    "repr": "10",
    "spoken": "one zero",
    "value": 10
  },
  "wind_direction": {
    "repr": "150",
    "spoken": "one five zero",
    "value": 150
  },
  "wind_gust": null,
  "wind_speed": {
    "repr": "05",
    "spoken": "five",
    "value": 5
  },
  "wind_variable_direction": [],
  "wx_codes": [
    {
      "repr": "-RA",
      "value": "Light Rain"
    }
  ]
}
