{
  "meta": {
    "timestamp": "2023-04-21T01:48:43.890982Z",
    "stations_updated": "2023-03-11",
    "cache-timestamp": "2023-04-21T01:48:32.072000Z"
  },
  "altimeter": {
    "repr": "A3010",
    "value": 30.1,
    "spoken": "three zero point one zero"
  },
  "clouds": [
    {
      "repr": "SCT037",
      "type": "SCT",
      "altitude": 37,
      "modifier": null
    },
    {
      "repr": "BKN080",
      "type": "BKN",
      "altitude": 80,
      "modifier": null
    },
    {
      "repr": "BKN100",
      "type": "BKN",
      "altitude": 100,
      "modifier": null
    }
  ],
  "flight_rules": "VFR",
  "other": [],
  "visibility": {
    "repr": "10",
    "value": 10,
    "spoken": "one zero"
  },
  "wind_direction": {
    "repr": "140",
    "value": 140,
    "spoken": "one four zero"
  },
  "wind_gust": {
    "repr": "42",
    "value": 42,
    "spoken": "four two"
  },
  "wind_speed": {
    "repr": "31",
    "value": 31,
    "spoken": "three one"
  },
  "wx_codes": [],
  "raw": "KNUW 210053Z 14031G42KT 10SM SCT037 BKN080 BKN100 08/03 A3010 RMK AO2 PK WND 15045/2356 SLP197 T00830033 VISNO $",
  "sanitized": "KNUW 210053Z 14031G42KT 10SM SCT037 BKN080 BKN100 08/03 A3010 RMK AO2 PK WND 15045/2356 SLP197 T00830033 VISNO $",
  "station": "KNUW",
  "time": {
    "repr": "210053Z",
    "dt": "2023-04-21T00:53:00Z"
  },
  "remarks": "RMK AO2 PK WND 15045/2356 SLP197 T00830033 VISNO $",
  "dewpoint": {
    "repr": "03",
    "value": 3,
    "spoken": "three"
  },
  "relative_humidity": 0.7073836438076732,
  "remarks_info": {
    "maximum_temperature_6": null,
    "minimum_temperature_6": null,
    "pressure_tendency": null,
    "precip_36_hours": null,
    "precip_24_hours": null,
    "sunshine_minutes": null,
    "codes": [
      {
        "repr": "$",
        "value": "ASOS requires maintenance"
      },
      {
        "repr": "AO2",
        "value": "Automated with precipitation sensor"
      }
    ],
    "dewpoint_decimal": {
      "repr": "0033",
      "value": 3.3,
      "spoken": "three point three"
    },
    "maximum_temperature_24": null,
    "minimum_temperature_24": null,
    "precip_hourly": null,
    "sea_level_pressure": {
      "repr": "SLP197",
      "value": 1019.7,
      "spoken": "one zero one nine point seven"
    },
    "snow_depth": null,
    "temperature_decimal": {
      "repr": "0083",
      "value": 8.3,
      "spoken": "eight point three"
    }
  },
  "runway_visibility": [],
  "temperature": {
    "repr": "08",
    "value": 8,
    "spoken": "eight"
  },
  "wind_variable_direction": [],
  "density_altitude": -926,
  "pressure_altitude": -133,
  "units": {
    "accumulation": "in",
    "altimeter": "inHg",
    "altitude": "ft",
    "temperature": "C",
    "visibility": "sm",
    "wind_speed": "kt"
  }
}
