{
  "meta": {
    "timestamp": "2023-01-23T17:01:58.945762Z",
    "stations_updated": "2023-01-16"
  },
  "altimeter": {
    "repr": "A3053",
    "value": 30.53,
    "spoken": "three zero point five three"
  },
  "clouds": [
    {
      "repr": "BKN028",
      "type": "BKN",
      "altitude": 28,
      "modifier": null
    },
    {
      "repr": "OVC035",
      "type": "OVC",
      "altitude": 35,
      "modifier": null
    }
  ],
  "flight_rules": "MVFR",
  "other": [],
  "visibility": {
    "repr": "10",
    "value": 10,
    "spoken": "one zero"
  },
  "wind_direction": {
    "repr": "120",
    "value": 120,
    "spoken": "one two zero"
  },
  "wind_gust": null,
  "wind_speed": {
    "repr": "07",
    "value": 7,
    "spoken": "seven"
  },
  "wx_codes": [],
  "raw": "KNUW 231653Z 12007KT 10SM BKN028 OVC035 04/03 A3053 RMK AO2 SLP337 T00440028 VISNO $",
  "sanitized": "KNUW 231653Z 12007KT 10SM BKN028 OVC035 04/03 A3053 RMK AO2 SLP337 T00440028 VISNO $",
  "station": "KNUW",
  "time": {
    "repr": "231653Z",
    "dt": "2023-01-23T16:53:00Z"
  },
  "remarks": "RMK AO2 SLP337 T00440028 VISNO $",
  "dewpoint": {
    "repr": "03",
    "value": 3,
    "spoken": "three"
  },
  "relative_humidity": 0.893374437578054,
  "remarks_info": {
    "maximum_temperature_6": null,
    "minimum_temperature_6": null,
    "pressure_tendency": null,
    "precip_36_hours": null,
    "precip_24_hours": null,
    "sunshine_minutes": null,
    "codes": [
      {
        "repr": "$",
        "value": "ASOS requires maintenance"
      },
      {
        "repr": "AO2",
        "value": "Automated with precipitation sensor"
      }
    ],
    "dewpoint_decimal": {
      "repr": "0028",
      "value": 2.8,
      "spoken": "two point eight"
    },
    "maximum_temperature_24": null,
    "minimum_temperature_24": null,
    "precip_hourly": null,
    "sea_level_pressure": {
      "repr": "SLP337",
      "value": 1033.7,
      "spoken": "one zero three three point seven"
    },
    "snow_depth": null,
    "temperature_decimal": {
      "repr": "0044",
      "value": 4.4,
      "spoken": "four point four"
    }
  },
  "runway_visibility": [],
  "temperature": {
    "repr": "04",
    "value": 4,
    "spoken": "four"
  },
  "wind_variable_direction": [],
  "density_altitude": -1824,
  "pressure_altitude": -563,
  "units": {
    "accumulation": "in",
    "altimeter": "inHg",
    "altitude": "ft",
    "temperature": "C",
    "visibility": "sm",
    "wind_speed": "kt"
  }
}
