{
  "meta": {
    "timestamp": "2023-05-23T12:43:08.895002Z",
    "stations_updated": "2023-03-11"
  },
  "altimeter": {
    "repr": "A3016",
    "value": 30.16,
    "spoken": "three zero point one six"
  },
  "clouds": [
    {
      "repr": "SCT036",
      "type": "SCT",
      "altitude": 36,
      "modifier": null
    },
    {
      "repr": "BKN070",
      "type": "BKN",
      "altitude": 70,
      "modifier": null
    }
  ],
  "flight_rules": "VFR",
  "other": [],
  "visibility": {
    "repr": "10",
    "value": 10,
    "spoken": "one zero"
  },
  "wind_direction": {
    "repr": "160",
    "value": 160,
    "spoken": "one six zero"
  },
  "wind_gust": null,
  "wind_speed": {
    "repr": "04",
    "value": 4,
    "spoken": "four"
  },
  "wx_codes": [],
  "raw": "KNUW 231153Z 16004KT 10SM SCT036 BKN070 10/07 A3016 RMK AO2 SLP216 70005 T01000067 10106 20089 56007 $",
  "sanitized": "KNUW 231153Z 16004KT 10SM SCT036 BKN070 10/07 A3016 RMK AO2 SLP216 70005 T01000067 10106 20089 56007 $",
  "station": "KNUW",
  "time": {
    "repr": "231153Z",
    "dt": "2023-05-23T11:53:00Z"
  },
  "remarks": "RMK AO2 SLP216 70005 T01000067 10106 20089 56007 $",
  "dewpoint": {
    "repr": "07",
    "value": 7,
    "spoken": "seven"
  },
  "relative_humidity": 0.7994238789303805,
  "remarks_info": {
    "maximum_temperature_6": {
      "repr": "10106",
      "value": 10.6,
      "spoken": "one zero point six"
    },
    "minimum_temperature_6": {
      "repr": "20089",
      "value": 8.9,
      "spoken": "eight point nine"
    },
    "pressure_tendency": {
      "repr": "56007",
      "tendency": "Decreasing, then steady",
      "change": 0.7
    },
    "precip_36_hours": null,
    "precip_24_hours": {
      "repr": "70005",
      "value": 0.05,
      "spoken": "zero point zero five"
    },
    "sunshine_minutes": null,
    "codes": [
      {
        "repr": "$",
        "value": "ASOS requires maintenance"
      },
      {
        "repr": "AO2",
        "value": "Automated with precipitation sensor"
      }
    ],
    "dewpoint_decimal": {
      "repr": "0067",
      "value": 6.7,
      "spoken": "six point seven"
    },
    "maximum_temperature_24": null,
    "minimum_temperature_24": null,
    "precip_hourly": null,
    "sea_level_pressure": {
      "repr": "SLP216",
      "value": 1021.6,
      "spoken": "one zero two one point six"
    },
    "snow_depth": null,
    "temperature_decimal": {
      "repr": "0100",
      "value": 10,
      "spoken": "one zero point zero"
    }
  },
  "runway_visibility": [],
  "temperature": {
    "repr": "10",
    "value": 10,
    "spoken": "one zero"
  },
  "wind_variable_direction": [],
  "density_altitude": -782,
  "pressure_altitude": -193,
  "units": {
    "accumulation": "in",
    "altimeter": "inHg",
    "altitude": "ft",
    "temperature": "C",
    "visibility": "sm",
    "wind_speed": "kt"
  }
}
