{
  "meta": {
    "timestamp": "2022-11-05T12:09:09.031678Z",
    "stations_updated": "2022-09-05"
  },
  "altimeter": {
    "repr": "A2974",
    "value": 29.74,
    "spoken": "two nine point seven four"
  },
  "clouds": [
    {
      "repr": "SCT022",
      "type": "SCT",
      "altitude": 22,
      "modifier": null
    },
    {
      "repr": "BKN100",
      "type": "BKN",
      "altitude": 100,
      "modifier": null
    }
  ],
  "flight_rules": "VFR",
  "other": [],
  "visibility": {
    "repr": "9",
    "value": 9,
    "spoken": "nine"
  },
  "wind_direction": {
    "repr": "260",
    "value": 260,
    "spoken": "two six zero"
  },
  "wind_gust": {
    "repr": "38",
    "value": 38,
    "spoken": "three eight"
  },
  "wind_speed": {
    "repr": "27",
    "value": 27,
    "spoken": "two seven"
  },
  "wx_codes": [],
  "raw": "KNUW 051153Z 26027G38KT 9SM SCT022 BKN100 08/04 A2974 RMK AO2 PK WND 27041/1113 SLP070 70075 T00830039 10100 20083 53026 VISNO",
  "sanitized": "KNUW 051153Z 26027G38KT 9SM SCT022 BKN100 08/04 A2974 RMK AO2 PK WND 27041/1113 SLP070 70075 T00830039 10100 20083 53026 VISNO",
  "station": "KNUW",
  "time": {
    "repr": "051153Z",
    "dt": "2022-11-05T11:53:00Z"
  },
  "remarks": "RMK AO2 PK WND 27041/1113 SLP070 70075 T00830039 10100 20083 53026 VISNO",
  "dewpoint": {
    "repr": "04",
    "value": 4,
    "spoken": "four"
  },
  "relative_humidity": 0.7379335871249983,
  "remarks_info": {
    "maximum_temperature_6": {
      "repr": "10100",
      "value": 10,
      "spoken": "one zero point zero"
    },
    "minimum_temperature_6": {
      "repr": "20083",
      "value": 8.3,
      "spoken": "eight point three"
    },
    "pressure_tendency": {
      "repr": "53026",
      "tendency": "Decreasing or steady, then increasing",
      "change": 2.6
    },
    "precip_36_hours": null,
    "precip_24_hours": {
      "repr": "70075",
      "value": 0.75,
      "spoken": "zero point seven five"
    },
    "sunshine_minutes": null,
    "codes": [
      {
        "repr": "AO2",
        "value": "Automated with precipitation sensor"
      }
    ],
    "dewpoint_decimal": {
      "repr": "0039",
      "value": 3.9,
      "spoken": "three point nine"
    },
    "maximum_temperature_24": null,
    "minimum_temperature_24": null,
    "precip_hourly": null,
    "sea_level_pressure": {
      "repr": "SLP070",
      "value": 1007,
      "spoken": "one zero zero seven point zero"
    },
    "snow_depth": null,
    "temperature_decimal": {
      "repr": "0083",
      "value": 8.3,
      "spoken": "eight point three"
    }
  },
  "runway_visibility": [],
  "temperature": {
    "repr": "08",
    "value": 8,
    "spoken": "eight"
  },
  "wind_variable_direction": [],
  "density_altitude": -566,
  "pressure_altitude": 227,
  "units": {
    "accumulation": "in",
    "altimeter": "inHg",
    "altitude": "ft",
    "temperature": "C",
    "visibility": "sm",
    "wind_speed": "kt"
  }
}
