{
  "meta": {
    "timestamp": "2022-09-29T15:12:01.118512Z",
    "stations_updated": "2022-09-05"
  },
  "altimeter": {
    "repr": "A3016",
    "value": 30.16,
    "spoken": "three zero point one six"
  },
  "clouds": [
    {
      "repr": "SCT005",
      "type": "SCT",
      "altitude": 5,
      "modifier": null
    },
    {
      "repr": "BKN035",
      "type": "BKN",
      "altitude": 35,
      "modifier": null
    },
    {
      "repr": "BKN050",
      "type": "BKN",
      "altitude": 50,
      "modifier": null
    },
    {
      "repr": "BKN180",
      "type": "BKN",
      "altitude": 180,
      "modifier": null
    }
  ],
  "flight_rules": "VFR",
  "other": [],
  "visibility": {
    "repr": "6",
    "value": 6,
    "spoken": "six"
  },
  "wind_direction": {
    "repr": "000",
    "value": 0,
    "spoken": "zero zero zero"
  },
  "wind_gust": null,
  "wind_speed": {
    "repr": "00",
    "value": 0,
    "spoken": "zero"
  },
  "wx_codes": [
    {
      "repr": "BR",
      "value": "Mist"
    },
    {
      "repr": "BCFG",
      "value": "Patchy Fog"
    }
  ],
  "raw": "KNUW 291453Z 00000KT 6SM BR BCFG SCT005 BKN035 BKN050 BKN180 11/11 A3016 RMK AO2 SLP210 VIS NW-N 1 T01110106 53016",
  "sanitized": "KNUW 291453Z 00000KT 6SM BR BCFG SCT005 BKN035 BKN050 BKN180 11/11 A3016 RMK AO2 SLP210 VIS NW-N 1 T01110106 53016",
  "station": "KNUW",
  "time": {
    "repr": "291453Z",
    "dt": "2022-09-29T14:53:00Z"
  },
  "remarks": "RMK AO2 SLP210 VIS NW-N 1 T01110106 53016",
  "dewpoint": {
    "repr": "11",
    "value": 11,
    "spoken": "one one"
  },
  "relative_humidity": 0.9672929424668637,
  "remarks_info": {
    "maximum_temperature_6": null,
    "minimum_temperature_6": null,
    "pressure_tendency": {
      "repr": "53016",
      "tendency": "Decreasing or steady, then increasing",
      "change": 1.6
    },
    "precip_36_hours": null,
    "precip_24_hours": null,
    "sunshine_minutes": null,
    "codes": [
      {
        "repr": "AO2",
        "value": "Automated with precipitation sensor"
      }
    ],
    "dewpoint_decimal": {
      "repr": "0106",
      "value": 10.6,
      "spoken": "one zero point six"
    },
    "maximum_temperature_24": null,
    "minimum_temperature_24": null,
    "precip_hourly": null,
    "sea_level_pressure": {
      "repr": "SLP210",
      "value": 1021,
      "spoken": "one zero two one point zero"
    },
    "snow_depth": null,
    "temperature_decimal": {
      "repr": "0111",
      "value": 11.1,
      "spoken": "one one point one"
    }
  },
  "runway_visibility": [],
  "temperature": {
    "repr": "11",
    "value": 11,
    "spoken": "one one"
  },
  "wind_variable_direction": [],
  "density_altitude": -650,
  "pressure_altitude": -193,
  "units": {
    "accumulation": "in",
    "altimeter": "inHg",
    "altitude": "ft",
    "temperature": "C",
    "visibility": "sm",
    "wind_speed": "kt"
  }
}
