{
  "meta": {
    "timestamp": "2022-10-29T14:30:55.643039Z",
    "stations_updated": "2022-09-05"
  },
  "altimeter": {
    "repr": "A3029",
    "value": 30.29,
    "spoken": "three zero point two nine"
  },
  "clouds": [
    {
      "repr": "BKN010",
      "type": "BKN",
      "altitude": 10,
      "modifier": null
    },
    {
      "repr": "BKN150",
      "type": "BKN",
      "altitude": 150,
      "modifier": null
    },
    {
      "repr": "BKN220",
      "type": "BKN",
      "altitude": 220,
      "modifier": null
    }
  ],
  "flight_rules": "MVFR",
  "other": [],
  "visibility": {
    "repr": "8",
    "value": 8,
    "spoken": "eight"
  },
  "wind_direction": {
    "repr": "120",
    "value": 120,
    "spoken": "one two zero"
  },
  "wind_gust": null,
  "wind_speed": {
    "repr": "10",
    "value": 10,
    "spoken": "one zero"
  },
  "wx_codes": [
    {
      "repr": "MIFG",
      "value": "Shallow Fog"
    }
  ],
  "raw": "KNUW 291353Z 12010KT 8SM MIFG BKN010 BKN150 BKN220 09/08 A3029 RMK AO2 SLP255 T00890078 VISNO $",
  "sanitized": "KNUW 291353Z 12010KT 8SM MIFG BKN010 BKN150 BKN220 09/08 A3029 RMK AO2 SLP255 T00890078 VISNO $",
  "station": "KNUW",
  "time": {
    "repr": "291353Z",
    "dt": "2022-10-29T13:53:00Z"
  },
  "remarks": "RMK AO2 SLP255 T00890078 VISNO $",
  "dewpoint": {
    "repr": "08",
    "value": 8,
    "spoken": "eight"
  },
  "relative_humidity": 0.9280975124584884,
  "remarks_info": {
    "maximum_temperature_6": null,
    "minimum_temperature_6": null,
    "pressure_tendency": null,
    "precip_36_hours": null,
    "precip_24_hours": null,
    "sunshine_minutes": null,
    "codes": [
      {
        "repr": "$",
        "value": "ASOS requires maintenance"
      },
      {
        "repr": "AO2",
        "value": "Automated with precipitation sensor"
      }
    ],
    "dewpoint_decimal": {
      "repr": "0078",
      "value": 7.8,
      "spoken": "seven point eight"
    },
    "maximum_temperature_24": null,
    "minimum_temperature_24": null,
    "precip_hourly": null,
    "sea_level_pressure": {
      "repr": "SLP255",
      "value": 1025.5,
      "spoken": "one zero two five point five"
    },
    "snow_depth": null,
    "temperature_decimal": {
      "repr": "0089",
      "value": 8.9,
      "spoken": "eight point nine"
    }
  },
  "runway_visibility": [],
  "temperature": {
    "repr": "09",
    "value": 9,
    "spoken": "nine"
  },
  "wind_variable_direction": [],
  "density_altitude": -1044,
  "pressure_altitude": -323,
  "units": {
    "accumulation": "in",
    "altimeter": "inHg",
    "altitude": "ft",
    "temperature": "C",
    "visibility": "sm",
    "wind_speed": "kt"
  }
}
