{
  "meta": {
    "timestamp": "2022-12-23T05:40:36.113183Z",
    "stations_updated": "2022-09-05"
  },
  "altimeter": {
    "repr": "A3023",
    "value": 30.23,
    "spoken": "three zero point two three"
  },
  "clouds": [
    {
      "repr": "FEW032",
      "type": "FEW",
      "altitude": 32,
      "modifier": null
    },
    {
      "repr": "SCT050",
      "type": "SCT",
      "altitude": 50,
      "modifier": null
    },
    {
      "repr": "OVC070",
      "type": "OVC",
      "altitude": 70,
      "modifier": null
    }
  ],
  "flight_rules": "VFR",
  "other": [],
  "visibility": {
    "repr": "9",
    "value": 9,
    "spoken": "nine"
  },
  "wind_direction": {
    "repr": "090",
    "value": 90,
    "spoken": "zero nine zero"
  },
  "wind_gust": null,
  "wind_speed": {
    "repr": "04",
    "value": 4,
    "spoken": "four"
  },
  "wx_codes": [
    {
      "repr": "-SN",
      "value": "Light Snow"
    }
  ],
  "raw": "KNUW 230453Z 09004KT 9SM -SN FEW032 SCT050 OVC070 M04/M11 A3023 RMK AO2 SLP236 P0000 T10441111 VISNO $",
  "sanitized": "KNUW 230453Z 09004KT 9SM -SN FEW032 SCT050 OVC070 M04/M11 A3023 RMK AO2 SLP236 P0000 T10441111 VISNO $",
  "station": "KNUW",
  "time": {
    "repr": "230453Z",
    "dt": "2022-12-23T04:53:00Z"
  },
  "remarks": "RMK AO2 SLP236 P0000 T10441111 VISNO $",
  "dewpoint": {
    "repr": "M11",
    "value": -11,
    "spoken": "minus one one"
  },
  "relative_humidity": 0.5952382046268899,
  "remarks_info": {
    "maximum_temperature_6": null,
    "minimum_temperature_6": null,
    "pressure_tendency": null,
    "precip_36_hours": null,
    "precip_24_hours": null,
    "sunshine_minutes": null,
    "codes": [
      {
        "repr": "$",
        "value": "ASOS requires maintenance"
      },
      {
        "repr": "AO2",
        "value": "Automated with precipitation sensor"
      },
      {
        "repr": "P0000",
        "value": "Trace amount of rain in the last hour"
      }
    ],
    "dewpoint_decimal": {
      "repr": "1111",
      "value": -11.1,
      "spoken": "minus one one point one"
    },
    "maximum_temperature_24": null,
    "minimum_temperature_24": null,
    "precip_hourly": null,
    "sea_level_pressure": {
      "repr": "SLP236",
      "value": 1023.6,
      "spoken": "one zero two three point six"
    },
    "snow_depth": null,
    "temperature_decimal": {
      "repr": "1044",
      "value": -4.4,
      "spoken": "minus four point four"
    }
  },
  "runway_visibility": [],
  "temperature": {
    "repr": "M04",
    "value": -4,
    "spoken": "minus four"
  },
  "wind_variable_direction": [],
  "density_altitude": -2580,
  "pressure_altitude": -263,
  "units": {
    "accumulation": "in",
    "altimeter": "inHg",
    "altitude": "ft",
    "temperature": "C",
    "visibility": "sm",
    "wind_speed": "kt"
  }
}
