{
  "meta": {
    "timestamp": "2023-05-08T12:43:37.435133Z",
    "stations_updated": "2023-03-11"
  },
  "altimeter": {
    "repr": "A2999",
    "value": 29.99,
    "spoken": "two nine point nine nine"
  },
  "clouds": [
    {
      "repr": "SCT025",
      "type": "SCT",
      "altitude": 25,
      "modifier": null
    },
    {
      "repr": "BKN110",
      "type": "BKN",
      "altitude": 110,
      "modifier": null
    },
    {
      "repr": "BKN180",
      "type": "BKN",
      "altitude": 180,
      "modifier": null
    }
  ],
  "flight_rules": "VFR",
  "other": [],
  "visibility": {
    "repr": "10",
    "value": 10,
    "spoken": "one zero"
  },
  "wind_direction": {
    "repr": "000",
    "value": 0,
    "spoken": "zero zero zero"
  },
  "wind_gust": null,
  "wind_speed": {
    "repr": "00",
    "value": 0,
    "spoken": "zero"
  },
  "wx_codes": [],
  "raw": "KNUW 081153Z 00000KT 10SM SCT025 BKN110 BKN180 08/07 A2999 RMK AO2 SLP161 T00780067 10089 20067 56006 VISNO",
  "sanitized": "KNUW 081153Z 00000KT 10SM SCT025 BKN110 BKN180 08/07 A2999 RMK AO2 SLP161 T00780067 10089 20067 56006 VISNO",
  "station": "KNUW",
  "time": {
    "repr": "081153Z",
    "dt": "2023-05-08T11:53:00Z"
  },
  "remarks": "RMK AO2 SLP161 T00780067 10089 20067 56006 VISNO",
  "dewpoint": {
    "repr": "07",
    "value": 7,
    "spoken": "seven"
  },
  "relative_humidity": 0.9274887710023534,
  "remarks_info": {
    "maximum_temperature_6": {
      "repr": "10089",
      "value": 8.9,
      "spoken": "eight point nine"
    },
    "minimum_temperature_6": {
      "repr": "20067",
      "value": 6.7,
      "spoken": "six point seven"
    },
    "pressure_tendency": {
      "repr": "56006",
      "tendency": "Decreasing, then steady",
      "change": 0.6
    },
    "precip_36_hours": null,
    "precip_24_hours": null,
    "sunshine_minutes": null,
    "codes": [
      {
        "repr": "AO2",
        "value": "Automated with precipitation sensor"
      }
    ],
    "dewpoint_decimal": {
      "repr": "0067",
      "value": 6.7,
      "spoken": "six point seven"
    },
    "maximum_temperature_24": null,
    "minimum_temperature_24": null,
    "precip_hourly": null,
    "sea_level_pressure": {
      "repr": "SLP161",
      "value": 1016.1,
      "spoken": "one zero one six point one"
    },
    "snow_depth": null,
    "temperature_decimal": {
      "repr": "0078",
      "value": 7.8,
      "spoken": "seven point eight"
    }
  },
  "runway_visibility": [],
  "temperature": {
    "repr": "08",
    "value": 8,
    "spoken": "eight"
  },
  "wind_variable_direction": [],
  "density_altitude": -876,
  "pressure_altitude": -23,
  "units": {
    "accumulation": "in",
    "altimeter": "inHg",
    "altitude": "ft",
    "temperature": "C",
    "visibility": "sm",
    "wind_speed": "kt"
  }
}
