{
  "meta": {
    "timestamp": "2022-12-24T13:40:38.575450Z",
    "stations_updated": "2022-09-05"
  },
  "altimeter": {
    "repr": "A3000",
    "value": 30,
    "spoken": "three zero point zero zero"
  },
  "clouds": [
    {
      "repr": "OVC014",
      "type": "OVC",
      "altitude": 14,
      "modifier": null
    }
  ],
  "flight_rules": "MVFR",
  "other": [],
  "visibility": {
    "repr": "10",
    "value": 10,
    "spoken": "one zero"
  },
  "wind_direction": {
    "repr": "140",
    "value": 140,
    "spoken": "one four zero"
  },
  "wind_gust": {
    "repr": "40",
    "value": 40,
    "spoken": "four zero"
  },
  "wind_speed": {
    "repr": "30",
    "value": 30,
    "spoken": "three zero"
  },
  "wx_codes": [
    {
      "repr": "-RA",
      "value": "Light Rain"
    }
  ],
  "raw": "KNUW 241312Z AUTO 14030G40KT 10SM -RA OVC014 09/07 A3000 RMK AO2 PK WND 14040/1305 RAB04 P0000 T00940067 VISNO $",
  "sanitized": "KNUW 241312Z 14030G40KT 10SM -RA OVC014 09/07 A3000 RMK AO2 PK WND 14040/1305 RAB04 P0000 T00940067 VISNO $",
  "station": "KNUW",
  "time": {
    "repr": "241312Z",
    "dt": "2022-12-24T13:12:00Z"
  },
  "remarks": "RMK AO2 PK WND 14040/1305 RAB04 P0000 T00940067 VISNO $",
  "dewpoint": {
    "repr": "07",
    "value": 7,
    "spoken": "seven"
  },
  "relative_humidity": 0.8322719985957746,
  "remarks_info": {
    "maximum_temperature_6": null,
    "minimum_temperature_6": null,
    "pressure_tendency": null,
    "precip_36_hours": null,
    "precip_24_hours": null,
    "sunshine_minutes": null,
    "codes": [
      {
        "repr": "$",
        "value": "ASOS requires maintenance"
      },
      {
        "repr": "AO2",
        "value": "Automated with precipitation sensor"
      },
      {
        "repr": "P0000",
        "value": "Trace amount of rain in the last hour"
      },
      {
        "repr": "RAB04",
        "value": "Rain began at :04"
      }
    ],
    "dewpoint_decimal": {
      "repr": "0067",
      "value": 6.7,
      "spoken": "six point seven"
    },
    "maximum_temperature_24": null,
    "minimum_temperature_24": null,
    "precip_hourly": null,
    "sea_level_pressure": null,
    "snow_depth": null,
    "temperature_decimal": {
      "repr": "0094",
      "value": 9.4,
      "spoken": "nine point four"
    }
  },
  "runway_visibility": [],
  "temperature": {
    "repr": "09",
    "value": 9,
    "spoken": "nine"
  },
  "wind_variable_direction": [],
  "density_altitude": -694,
  "pressure_altitude": -33,
  "units": {
    "accumulation": "in",
    "altimeter": "inHg",
    "altitude": "ft",
    "temperature": "C",
    "visibility": "sm",
    "wind_speed": "kt"
  }
}
