{
  "altimeter": {
    "repr": "A3011",
    "spoken": "three zero point one one",
    "value": 30.11
  },
  "clouds": [
    {
      "altitude": 150,
      "modifier": null,
      "repr": "SCT150",
      "type": "SCT"
    },
    {
      "altitude": 200,
      "modifier": null,
      "repr": "BKN200",
      "type": "BKN"
    },
    {
      "altitude": 250,
      "modifier": null,
      "repr": "BKN250",
      "type": "BKN"
    }
  ],
  "density_altitude": -804,
  "dewpoint": {
    "repr": "08",
    "spoken": "eight",
    "value": 8
  },
  "flight_rules": "VFR",
  "meta": {
    "stations_updated": "2024-06-12",
    "timestamp": "2024-10-11T03:44:18.392998Z"
  },
  "other": [],
  "pressure_altitude": -143,
  "raw": "KNUW 110253Z 00000KT 10SM SCT150 BKN200 BKN250 09/08 A3011 RMK AO2 SLP201 T00940083 56014 $",
  "relative_humidity": 0.9283717155883899,
  "remarks": "RMK AO2 SLP201 T00940083 56014 $",
  "remarks_info": {
    "codes": [
      {
        "repr": "$",
        "value": "ASOS requires maintenance"
      },
      {
        "repr": "AO2",
        "value": "Automated with precipitation sensor"
      }
    ],
    "dewpoint_decimal": {
      "repr": "0083",
      "spoken": "eight point three",
      "value": 8.3
    },
    "maximum_temperature_24": null,
    "maximum_temperature_6": null,
    "minimum_temperature_24": null,
    "minimum_temperature_6": null,
    "precip_24_hours": null,
    "precip_36_hours": null,
    "precip_hourly": null,
    "pressure_tendency": {
      "change": 1.4,
      "repr": "56014",
      "tendency": "Decreasing, then steady"
    },
    "sea_level_pressure": {
      "repr": "SLP201",
      "spoken": "one zero two zero point one",
      "value": 1020.1
    },
    "snow_depth": null,
    "sunshine_minutes": null,
    "temperature_decimal": {
      "repr": "0094",
      "spoken": "nine point four",
      "value": 9.4
    }
  },
  "runway_visibility": [],
  "sanitized": "KNUW 110253Z 00000KT 10SM SCT150 BKN200 BKN250 09/08 A3011 RMK AO2 SLP201 T00940083 56014 $",
  "station": "KNUW",
  "temperature": {
    "repr": "09",
    "spoken": "nine",
    "value": 9
  },
  "time": {
    "dt": "2024-10-11T02:53:00Z",
    "repr": "110253Z"
  },
  "units": {
    "accumulation": "in",
    "altimeter": "inHg",
    "altitude": "ft",
    "temperature": "C",
    "visibility": "sm",
    "wind_speed": "kt"
  },
  "visibility": {
    "repr": "10",
    "spoken": "one zero",
    "value": 10
  },
  "wind_direction": {
    "repr": "000",
    "spoken": "zero zero zero",
    "value": 0
  },
  "wind_gust": null,
  "wind_speed": {
    "repr": "00",
    "spoken": "zero",
    "value": 0
  },
  "wind_variable_direction": [],
  "wx_codes": []
}
