{
  "altimeter": {
    "repr": "A2982",
    "spoken": "two nine point eight two",
    "value": 29.82
  },
  "clouds": [
    {
      "altitude": 7,
      "modifier": null,
      "repr": "BKN007",
      "type": "BKN"
    },
    {
      "altitude": 10,
      "modifier": null,
      "repr": "OVC010",
      "type": "OVC"
    }
  ],
  "density_altitude": -574,
  "dewpoint": {
    "repr": "08",
    "spoken": "eight",
    "value": 8
  },
  "flight_rules": "IFR",
  "meta": {
    "cache-timestamp": "2024-01-23T16:44:05.623000Z",
    "stations_updated": "2023-10-28",
    "timestamp": "2024-01-23T16:44:31.503891Z"
  },
  "other": [],
  "pressure_altitude": 147,
  "raw": "KNUW 231553Z 11009KT 10SM BKN007 OVC010 09/08 A2982 RMK AO2 RAE20 SLP100 P0001 T00890078 $",
  "relative_humidity": 0.9280975124584884,
  "remarks": "RMK AO2 RAE20 SLP100 P0001 T00890078 $",
  "remarks_info": {
    "codes": [
      {
        "repr": "$",
        "value": "ASOS requires maintenance"
      },
      {
        "repr": "AO2",
        "value": "Automated with precipitation sensor"
      },
      {
        "repr": "RAE20",
        "value": "Rain ended at :20"
      }
    ],
    "dewpoint_decimal": {
      "repr": "0078",
      "spoken": "seven point eight",
      "value": 7.8
    },
    "maximum_temperature_24": null,
    "maximum_temperature_6": null,
    "minimum_temperature_24": null,
    "minimum_temperature_6": null,
    "precip_24_hours": null,
    "precip_36_hours": null,
    "precip_hourly": {
      "repr": "P0001",
      "spoken": "zero point zero one",
      "value": 0.01
    },
    "pressure_tendency": null,
    "sea_level_pressure": {
      "repr": "SLP100",
      "spoken": "one zero one zero point zero",
      "value": 1010
    },
    "snow_depth": null,
    "sunshine_minutes": null,
    "temperature_decimal": {
      "repr": "0089",
      "spoken": "eight point nine",
      "value": 8.9
    }
  },
  "runway_visibility": [],
  "sanitized": "KNUW 231553Z 11009KT 10SM BKN007 OVC010 09/08 A2982 RMK AO2 RAE20 SLP100 P0001 T00890078 $",
  "station": "KNUW",
  "temperature": {
    "repr": "09",
    "spoken": "nine",
    "value": 9
  },
  "time": {
    "dt": "2024-01-23T15:53:00Z",
    "repr": "231553Z"
  },
  "units": {
    "accumulation": "in",
    "altimeter": "inHg",
    "altitude": "ft",
    "temperature": "C",
    "visibility": "sm",
    "wind_speed": "kt"
  },
  "visibility": {
    "repr": "10",
    "spoken": "one zero",
    "value": 10
  },
  "wind_direction": {
    "repr": "110",
    "spoken": "one one zero",
    "value": 110
  },
  "wind_gust": null,
  "wind_speed": {
    "repr": "09",
    "spoken": "nine",
    "value": 9
  },
  "wind_variable_direction": [],
  "wx_codes": []
}
