{
  "altimeter": {
    "repr": "A2984",
    "spoken": "two nine point eight four",
    "value": 29.84
  },
  "clouds": [
    {
      "altitude": 25,
      "modifier": null,
      "repr": "FEW025",
      "type": "FEW"
    },
    {
      "altitude": 40,
      "modifier": null,
      "repr": "BKN040",
      "type": "BKN"
    },
    {
      "altitude": 90,
      "modifier": null,
      "repr": "BKN090",
      "type": "BKN"
    },
    {
      "altitude": 130,
      "modifier": null,
      "repr": "OVC130",
      "type": "OVC"
    }
  ],
  "density_altitude": -462,
  "dewpoint": {
    "repr": "08",
    "spoken": "eight",
    "value": 8
  },
  "flight_rules": "VFR",
  "meta": {
    "cache-timestamp": "2023-12-04T20:40:03.830000Z",
    "stations_updated": "2023-10-28",
    "timestamp": "2023-12-04T20:40:41.587623Z"
  },
  "other": [],
  "pressure_altitude": 127,
  "raw": "KNUW 041953Z 14025G35KT 10SM FEW025 BKN040 BKN090 OVC130 10/08 A2984 RMK AO2 PK WND 13035/1947 SLP108 T01000083 $",
  "relative_humidity": 0.8917307313199454,
  "remarks": "RMK AO2 PK WND 13035/1947 SLP108 T01000083 $",
  "remarks_info": {
    "codes": [
      {
        "repr": "$",
        "value": "ASOS requires maintenance"
      },
      {
        "repr": "AO2",
        "value": "Automated with precipitation sensor"
      }
    ],
    "dewpoint_decimal": {
      "repr": "0083",
      "spoken": "eight point three",
      "value": 8.3
    },
    "maximum_temperature_24": null,
    "maximum_temperature_6": null,
    "minimum_temperature_24": null,
    "minimum_temperature_6": null,
    "precip_24_hours": null,
    "precip_36_hours": null,
    "precip_hourly": null,
    "pressure_tendency": null,
    "sea_level_pressure": {
      "repr": "SLP108",
      "spoken": "one zero one zero point eight",
      "value": 1010.8
    },
    "snow_depth": null,
    "sunshine_minutes": null,
    "temperature_decimal": {
      "repr": "0100",
      "spoken": "one zero point zero",
      "value": 10
    }
  },
  "runway_visibility": [],
  "sanitized": "KNUW 041953Z 14025G35KT 10SM FEW025 BKN040 BKN090 OVC130 10/08 A2984 RMK AO2 PK WND 13035/1947 SLP108 T01000083 $",
  "station": "KNUW",
  "temperature": {
    "repr": "10",
    "spoken": "one zero",
    "value": 10
  },
  "time": {
    "dt": "2023-12-04T19:53:00Z",
    "repr": "041953Z"
  },
  "units": {
    "accumulation": "in",
    "altimeter": "inHg",
    "altitude": "ft",
    "temperature": "C",
    "visibility": "sm",
    "wind_speed": "kt"
  },
  "visibility": {
    "repr": "10",
    "spoken": "one zero",
    "value": 10
  },
  "wind_direction": {
    "repr": "140",
    "spoken": "one four zero",
    "value": 140
  },
  "wind_gust": {
    "repr": "35",
    "spoken": "three five",
    "value": 35
  },
  "wind_speed": {
    "repr": "25",
    "spoken": "two five",
    "value": 25
  },
  "wind_variable_direction": [],
  "wx_codes": []
}
