{
  "altimeter": {
    "repr": "A3018",
    "spoken": "three zero point one eight",
    "value": 30.18
  },
  "clouds": [
    {
      "altitude": 10,
      "modifier": null,
      "repr": "FEW010",
      "type": "FEW"
    },
    {
      "altitude": 70,
      "modifier": null,
      "repr": "FEW070",
      "type": "FEW"
    },
    {
      "altitude": 120,
      "modifier": null,
      "repr": "SCT120",
      "type": "SCT"
    },
    {
      "altitude": 220,
      "modifier": null,
      "repr": "SCT220",
      "type": "SCT"
    }
  ],
  "density_altitude": -334,
  "dewpoint": {
    "repr": "12",
    "spoken": "one two",
    "value": 12
  },
  "flight_rules": "VFR",
  "meta": {
    "stations_updated": "2024-06-12",
    "timestamp": "2024-07-01T17:40:35.742061Z"
  },
  "other": [],
  "pressure_altitude": -213,
  "raw": "KNUW 011653Z 22009KT 10SM FEW010 FEW070 SCT120 SCT220 14/12 A3018 RMK AO2 SLP222 T01390117 $",
  "relative_humidity": 0.8657997265283152,
  "remarks": "RMK AO2 SLP222 T01390117 $",
  "remarks_info": {
    "codes": [
      {
        "repr": "$",
        "value": "ASOS requires maintenance"
      },
      {
        "repr": "AO2",
        "value": "Automated with precipitation sensor"
      }
    ],
    "dewpoint_decimal": {
      "repr": "0117",
      "spoken": "one one point seven",
      "value": 11.7
    },
    "maximum_temperature_24": null,
    "maximum_temperature_6": null,
    "minimum_temperature_24": null,
    "minimum_temperature_6": null,
    "precip_24_hours": null,
    "precip_36_hours": null,
    "precip_hourly": null,
    "pressure_tendency": null,
    "sea_level_pressure": {
      "repr": "SLP222",
      "spoken": "one zero two two point two",
      "value": 1022.2
    },
    "snow_depth": null,
    "sunshine_minutes": null,
    "temperature_decimal": {
      "repr": "0139",
      "spoken": "one three point nine",
      "value": 13.9
    }
  },
  "runway_visibility": [],
  "sanitized": "KNUW 011653Z 22009KT 10SM FEW010 FEW070 SCT120 SCT220 14/12 A3018 RMK AO2 SLP222 T01390117 $",
  "station": "KNUW",
  "temperature": {
    "repr": "14",
    "spoken": "one four",
    "value": 14
  },
  "time": {
    "dt": "2024-07-01T16:53:00Z",
    "repr": "011653Z"
  },
  "units": {
    "accumulation": "in",
    "altimeter": "inHg",
    "altitude": "ft",
    "temperature": "C",
    "visibility": "sm",
    "wind_speed": "kt"
  },
  "visibility": {
    "repr": "10",
    "spoken": "one zero",
    "value": 10
  },
  "wind_direction": {
    "repr": "220",
    "spoken": "two two zero",
    "value": 220
  },
  "wind_gust": null,
  "wind_speed": {
    "repr": "09",
    "spoken": "nine",
    "value": 9
  },
  "wind_variable_direction": [],
  "wx_codes": []
}
