{
  "altimeter": {
    "repr": "A3048",
    "spoken": "three zero point four eight",
    "value": 30.48
  },
  "clouds": [
    {
      "altitude": 30,
      "modifier": null,
      "repr": "FEW030",
      "type": "FEW"
    },
    {
      "altitude": 80,
      "modifier": null,
      "repr": "BKN080",
      "type": "BKN"
    }
  ],
  "density_altitude": -2170,
  "dewpoint": {
    "repr": "M02",
    "spoken": "minus two",
    "value": -2
  },
  "flight_rules": "VFR",
  "meta": {
    "stations_updated": "2024-12-02",
    "timestamp": "2025-01-19T03:31:32.572636Z"
  },
  "other": [],
  "pressure_altitude": -513,
  "raw": "KNUW 190253Z 10004KT 10SM FEW030 BKN080 01/M02 A3048 RMK AO2 SLP326 T00111022 58002 $",
  "relative_humidity": 0.7861821315000787,
  "remarks": "RMK AO2 SLP326 T00111022 58002 $",
  "remarks_info": {
    "codes": [
      {
        "repr": "$",
        "value": "ASOS requires maintenance"
      },
      {
        "repr": "AO2",
        "value": "Automated with precipitation sensor"
      }
    ],
    "dewpoint_decimal": {
      "repr": "1022",
      "spoken": "minus two point two",
      "value": -2.2
    },
    "maximum_temperature_24": null,
    "maximum_temperature_6": null,
    "minimum_temperature_24": null,
    "minimum_temperature_6": null,
    "precip_24_hours": null,
    "precip_36_hours": null,
    "precip_hourly": null,
    "pressure_tendency": {
      "change": 0.2,
      "repr": "58002",
      "tendency": "Steady or increasing, then decreasing"
    },
    "sea_level_pressure": {
      "repr": "SLP326",
      "spoken": "one zero three two point six",
      "value": 1032.6
    },
    "snow_depth": null,
    "sunshine_minutes": null,
    "temperature_decimal": {
      "repr": "0011",
      "spoken": "one point one",
      "value": 1.1
    }
  },
  "runway_visibility": [],
  "sanitized": "KNUW 190253Z 10004KT 10SM FEW030 BKN080 01/M02 A3048 RMK AO2 SLP326 T00111022 58002 $",
  "station": "KNUW",
  "temperature": {
    "repr": "01",
    "spoken": "one",
    "value": 1
  },
  "time": {
    "dt": "2025-01-19T02:53:00Z",
    "repr": "190253Z"
  },
  "units": {
    "accumulation": "in",
    "altimeter": "inHg",
    "altitude": "ft",
    "temperature": "C",
    "visibility": "sm",
    "wind_speed": "kt"
  },
  "visibility": {
    "repr": "10",
    "spoken": "one zero",
    "value": 10
  },
  "wind_direction": {
    "repr": "100",
    "spoken": "one zero zero",
    "value": 100
  },
  "wind_gust": null,
  "wind_speed": {
    "repr": "04",
    "spoken": "four",
    "value": 4
  },
  "wind_variable_direction": [],
  "wx_codes": []
}
