{
  "altimeter": {
    "repr": "A3033",
    "spoken": "three zero point three three",
    "value": 30.33
  },
  "clouds": [
    {
      "altitude": 30,
      "modifier": null,
      "repr": "FEW030",
      "type": "FEW"
    },
    {
      "altitude": 65,
      "modifier": null,
      "repr": "FEW065",
      "type": "FEW"
    },
    {
      "altitude": 150,
      "modifier": null,
      "repr": "SCT150",
      "type": "SCT"
    }
  ],
  "density_altitude": -3148,
  "dewpoint": {
    "repr": "M18",
    "spoken": "minus one eight",
    "value": -18
  },
  "flight_rules": "VFR",
  "meta": {
    "cache-timestamp": "2024-01-12T23:40:04.716000Z",
    "stations_updated": "2023-10-28",
    "timestamp": "2024-01-12T23:40:48.351230Z"
  },
  "other": [],
  "pressure_altitude": -363,
  "raw": "KNUW 122253Z 01006KT 10SM FEW030 FEW065 SCT150 M08/M18 A3033 RMK AO2 SLP274 T10831183 $",
  "relative_humidity": 0.4438249790908982,
  "remarks": "RMK AO2 SLP274 T10831183 $",
  "remarks_info": {
    "codes": [
      {
        "repr": "$",
        "value": "ASOS requires maintenance"
      },
      {
        "repr": "AO2",
        "value": "Automated with precipitation sensor"
      }
    ],
    "dewpoint_decimal": {
      "repr": "1183",
      "spoken": "minus one eight point three",
      "value": -18.3
    },
    "maximum_temperature_24": null,
    "maximum_temperature_6": null,
    "minimum_temperature_24": null,
    "minimum_temperature_6": null,
    "precip_24_hours": null,
    "precip_36_hours": null,
    "precip_hourly": null,
    "pressure_tendency": null,
    "sea_level_pressure": {
      "repr": "SLP274",
      "spoken": "one zero two seven point four",
      "value": 1027.4
    },
    "snow_depth": null,
    "sunshine_minutes": null,
    "temperature_decimal": {
      "repr": "1083",
      "spoken": "minus eight point three",
      "value": -8.3
    }
  },
  "runway_visibility": [],
  "sanitized": "KNUW 122253Z 01006KT 10SM FEW030 FEW065 SCT150 M08/M18 A3033 RMK AO2 SLP274 T10831183 $",
  "station": "KNUW",
  "temperature": {
    "repr": "M08",
    "spoken": "minus eight",
    "value": -8
  },
  "time": {
    "dt": "2024-01-12T22:53:00Z",
    "repr": "122253Z"
  },
  "units": {
    "accumulation": "in",
    "altimeter": "inHg",
    "altitude": "ft",
    "temperature": "C",
    "visibility": "sm",
    "wind_speed": "kt"
  },
  "visibility": {
    "repr": "10",
    "spoken": "one zero",
    "value": 10
  },
  "wind_direction": {
    "repr": "010",
    "spoken": "zero one zero",
    "value": 10
  },
  "wind_gust": null,
  "wind_speed": {
    "repr": "06",
    "spoken": "six",
    "value": 6
  },
  "wind_variable_direction": [],
  "wx_codes": []
}
