{
  "meta": {
    "timestamp": "2023-10-25T03:40:32.280567Z",
    "stations_updated": "2023-10-01",
    "cache-timestamp": "2023-10-25T03:40:04.873000Z"
  },
  "altimeter": {
    "repr": "A2963",
    "value": 29.63,
    "spoken": "two nine point six three"
  },
  "clouds": [
    {
      "repr": "FEW029",
      "type": "FEW",
      "altitude": 29,
      "modifier": null
    },
    {
      "repr": "OVC038",
      "type": "OVC",
      "altitude": 38,
      "modifier": null
    }
  ],
  "flight_rules": "MVFR",
  "other": [],
  "visibility": {
    "repr": "5",
    "value": 5,
    "spoken": "five"
  },
  "wind_direction": {
    "repr": "090",
    "value": 90,
    "spoken": "zero nine zero"
  },
  "wind_gust": null,
  "wind_speed": {
    "repr": "18",
    "value": 18,
    "spoken": "one eight"
  },
  "wx_codes": [
    {
      "repr": "RA",
      "value": "Rain"
    },
    {
      "repr": "BR",
      "value": "Mist"
    }
  ],
  "raw": "KNUW 250253Z 09018KT 5SM RA BR FEW029 OVC038 07/06 A2963 RMK PK WND 10031/0242 SLP036 P0012 60032 T00720061 56021",
  "sanitized": "KNUW 250253Z 09018KT 5SM RA BR FEW029 OVC038 07/06 A2963 RMK PK WND 10031/0242 SLP036 P0012 60032 T00720061 56021",
  "station": "KNUW",
  "time": {
    "repr": "250253Z",
    "dt": "2023-10-25T02:53:00Z"
  },
  "remarks": "RMK PK WND 10031/0242 SLP036 P0012 60032 T00720061 56021",
  "dewpoint": {
    "repr": "06",
    "value": 6,
    "spoken": "six"
  },
  "relative_humidity": 0.9271535108565763,
  "remarks_info": {
    "maximum_temperature_6": null,
    "minimum_temperature_6": null,
    "pressure_tendency": {
      "repr": "56021",
      "tendency": "Decreasing, then steady",
      "change": 2.1
    },
    "precip_36_hours": {
      "repr": "60032",
      "value": 0.32,
      "spoken": "zero point three two"
    },
    "precip_24_hours": null,
    "sunshine_minutes": null,
    "codes": [],
    "dewpoint_decimal": {
      "repr": "0061",
      "value": 6.1,
      "spoken": "six point one"
    },
    "maximum_temperature_24": null,
    "minimum_temperature_24": null,
    "precip_hourly": {
      "repr": "P0012",
      "value": 0.12,
      "spoken": "zero point one two"
    },
    "sea_level_pressure": {
      "repr": "SLP036",
      "value": 1003.6,
      "spoken": "one zero zero three point six"
    },
    "snow_depth": null,
    "temperature_decimal": {
      "repr": "0072",
      "value": 7.2,
      "spoken": "seven point two"
    }
  },
  "runway_visibility": [],
  "temperature": {
    "repr": "07",
    "value": 7,
    "spoken": "seven"
  },
  "wind_variable_direction": [],
  "density_altitude": -588,
  "pressure_altitude": 337,
  "units": {
    "accumulation": "in",
    "altimeter": "inHg",
    "altitude": "ft",
    "temperature": "C",
    "visibility": "sm",
    "wind_speed": "kt"
  }
}
