{
  "altimeter": {
    "repr": "A2986",
    "spoken": "two nine point eight six",
    "value": 29.86
  },
  "clouds": [
    {
      "altitude": 28,
      "modifier": null,
      "repr": "SCT028",
      "type": "SCT"
    },
    {
      "altitude": 100,
      "modifier": null,
      "repr": "OVC100",
      "type": "OVC"
    }
  ],
  "density_altitude": -686,
  "dewpoint": {
    "repr": "03",
    "spoken": "three",
    "value": 3
  },
  "flight_rules": "VFR",
  "meta": {
    "stations_updated": "2024-12-02",
    "timestamp": "2024-12-25T18:09:26.220526Z"
  },
  "other": [],
  "pressure_altitude": 107,
  "raw": "KNUW 251753Z AUTO 14032G47KT 10SM SCT028 OVC100 08/03 A2986 RMK AO2 PK WND 15048/1720 SLP115 T00830028 10083 20072 56021 $",
  "relative_humidity": 0.6827862826372221,
  "remarks": "RMK AO2 PK WND 15048/1720 SLP115 T00830028 10083 20072 56021 $",
  "remarks_info": {
    "codes": [
      {
        "repr": "$",
        "value": "ASOS requires maintenance"
      },
      {
        "repr": "AO2",
        "value": "Automated with precipitation sensor"
      }
    ],
    "dewpoint_decimal": {
      "repr": "0028",
      "spoken": "two point eight",
      "value": 2.8
    },
    "maximum_temperature_24": null,
    "maximum_temperature_6": {
      "repr": "10083",
      "spoken": "eight point three",
      "value": 8.3
    },
    "minimum_temperature_24": null,
    "minimum_temperature_6": {
      "repr": "20072",
      "spoken": "seven point two",
      "value": 7.2
    },
    "precip_24_hours": null,
    "precip_36_hours": null,
    "precip_hourly": null,
    "pressure_tendency": {
      "change": 2.1,
      "repr": "56021",
      "tendency": "Decreasing, then steady"
    },
    "sea_level_pressure": {
      "repr": "SLP115",
      "spoken": "one zero one one point five",
      "value": 1011.5
    },
    "snow_depth": null,
    "sunshine_minutes": null,
    "temperature_decimal": {
      "repr": "0083",
      "spoken": "eight point three",
      "value": 8.3
    }
  },
  "runway_visibility": [],
  "sanitized": "KNUW 251753Z 14032G47KT 10SM SCT028 OVC100 08/03 A2986 RMK AO2 PK WND 15048/1720 SLP115 T00830028 10083 20072 56021 $",
  "station": "KNUW",
  "temperature": {
    "repr": "08",
    "spoken": "eight",
    "value": 8
  },
  "time": {
    "dt": "2024-12-25T17:53:00Z",
    "repr": "251753Z"
  },
  "units": {
    "accumulation": "in",
    "altimeter": "inHg",
    "altitude": "ft",
    "temperature": "C",
    "visibility": "sm",
    "wind_speed": "kt"
  },
  "visibility": {
    "repr": "10",
    "spoken": "one zero",
    "value": 10
  },
  "wind_direction": {
    "repr": "140",
    "spoken": "one four zero",
    "value": 140
  },
  "wind_gust": {
    "repr": "47",
    "spoken": "four seven",
    "value": 47
  },
  "wind_speed": {
    "repr": "32",
    "spoken": "three two",
    "value": 32
  },
  "wind_variable_direction": [],
  "wx_codes": []
}
