{
  "altimeter": {
    "repr": "A2996",
    "spoken": "two nine point nine six",
    "value": 29.96
  },
  "clouds": [],
  "density_altitude": 1014,
  "dewpoint": {
    "repr": "12",
    "spoken": "one two",
    "value": 12
  },
  "flight_rules": "VFR",
  "meta": {
    "stations_updated": "2024-06-12",
    "timestamp": "2024-07-08T01:47:11.236796Z"
  },
  "other": [],
  "pressure_altitude": 7,
  "raw": "KNUW 080053Z 31003KT 10SM CLR 23/12 A2996 RMK SLP148 T02330122",
  "relative_humidity": 0.49655016520987943,
  "remarks": "RMK SLP148 T02330122",
  "remarks_info": {
    "codes": [],
    "dewpoint_decimal": {
      "repr": "0122",
      "spoken": "one two point two",
      "value": 12.2
    },
    "maximum_temperature_24": null,
    "maximum_temperature_6": null,
    "minimum_temperature_24": null,
    "minimum_temperature_6": null,
    "precip_24_hours": null,
    "precip_36_hours": null,
    "precip_hourly": null,
    "pressure_tendency": null,
    "sea_level_pressure": {
      "repr": "SLP148",
      "spoken": "one zero one four point eight",
      "value": 1014.8
    },
    "snow_depth": null,
    "sunshine_minutes": null,
    "temperature_decimal": {
      "repr": "0233",
      "spoken": "two three point three",
      "value": 23.3
    }
  },
  "runway_visibility": [],
  "sanitized": "KNUW 080053Z 31003KT 10SM 23/12 A2996 RMK SLP148 T02330122",
  "station": "KNUW",
  "temperature": {
    "repr": "23",
    "spoken": "two three",
    "value": 23
  },
  "time": {
    "dt": "2024-07-08T00:53:00Z",
    "repr": "080053Z"
  },
  "units": {
    "accumulation": "in",
    "altimeter": "inHg",
    "altitude": "ft",
    "temperature": "C",
    "visibility": "sm",
    "wind_speed": "kt"
  },
  "visibility": {
    "repr": "10",
    "spoken": "one zero",
    "value": 10
  },
  "wind_direction": {
    "repr": "310",
    "spoken": "three one zero",
    "value": 310
  },
  "wind_gust": null,
  "wind_speed": {
    "repr": "03",
    "spoken": "three",
    "value": 3
  },
  "wind_variable_direction": [],
  "wx_codes": []
}
