{
  "altimeter": {
    "repr": "A3024",
    "spoken": "three zero point two four",
    "value": 30.24
  },
  "clouds": [
    {
      "altitude": 3,
      "modifier": null,
      "repr": "VV003",
      "type": "VV"
    }
  ],
  "density_altitude": -1858,
  "dewpoint": {
    "repr": "02",
    "spoken": "two",
    "value": 2
  },
  "flight_rules": "LIFR",
  "meta": {
    "stations_updated": "2024-12-02",
    "timestamp": "2024-12-05T06:12:11.851688Z"
  },
  "other": [],
  "pressure_altitude": -273,
  "raw": "KNUW 050553Z 12007KT 1/8SM FG VV003 02/02 A3024 RMK SFC VIS 1/4 SLP245 T00170017 10039 20006 50008",
  "relative_humidity": 1,
  "remarks": "RMK SFC VIS 1/4 SLP245 T00170017 10039 20006 50008",
  "remarks_info": {
    "codes": [],
    "dewpoint_decimal": {
      "repr": "0017",
      "spoken": "one point seven",
      "value": 1.7
    },
    "maximum_temperature_24": null,
    "maximum_temperature_6": {
      "repr": "10039",
      "spoken": "three point nine",
      "value": 3.9
    },
    "minimum_temperature_24": null,
    "minimum_temperature_6": {
      "repr": "20006",
      "spoken": "zero point six",
      "value": 0.6
    },
    "precip_24_hours": null,
    "precip_36_hours": null,
    "precip_hourly": null,
    "pressure_tendency": {
      "change": 0.8,
      "repr": "50008",
      "tendency": "Increasing, then decreasing"
    },
    "sea_level_pressure": {
      "repr": "SLP245",
      "spoken": "one zero two four point five",
      "value": 1024.5
    },
    "snow_depth": null,
    "sunshine_minutes": null,
    "temperature_decimal": {
      "repr": "0017",
      "spoken": "one point seven",
      "value": 1.7
    }
  },
  "runway_visibility": [],
  "sanitized": "KNUW 050553Z 12007KT 1/8SM FG VV003 02/02 A3024 RMK SFC VIS 1/4 SLP245 T00170017 10039 20006 50008",
  "station": "KNUW",
  "temperature": {
    "repr": "02",
    "spoken": "two",
    "value": 2
  },
  "time": {
    "dt": "2024-12-05T05:53:00Z",
    "repr": "050553Z"
  },
  "units": {
    "accumulation": "in",
    "altimeter": "inHg",
    "altitude": "ft",
    "temperature": "C",
    "visibility": "sm",
    "wind_speed": "kt"
  },
  "visibility": {
    "denominator": 8,
    "normalized": "1/8",
    "numerator": 1,
    "repr": "1/8",
    "spoken": "one eight",
    "value": 0.125
  },
  "wind_direction": {
    "repr": "120",
    "spoken": "one two zero",
    "value": 120
  },
  "wind_gust": null,
  "wind_speed": {
    "repr": "07",
    "spoken": "seven",
    "value": 7
  },
  "wind_variable_direction": [],
  "wx_codes": [
    {
      "repr": "FG",
      "value": "Fog"
    }
  ]
}
