{
  "altimeter": {
    "repr": "A2951",
    "spoken": "two nine point five one",
    "value": 29.51
  },
  "clouds": [
    {
      "altitude": 13,
      "modifier": null,
      "repr": "FEW013",
      "type": "FEW"
    },
    {
      "altitude": 32,
      "modifier": null,
      "repr": "BKN032",
      "type": "BKN"
    },
    {
      "altitude": 41,
      "modifier": null,
      "repr": "OVC041",
      "type": "OVC"
    }
  ],
  "density_altitude": -132,
  "dewpoint": {
    "repr": "08",
    "spoken": "eight",
    "value": 8
  },
  "flight_rules": "MVFR",
  "meta": {
    "stations_updated": "2024-10-29",
    "timestamp": "2024-11-11T15:28:30.743237Z"
  },
  "other": [],
  "pressure_altitude": 457,
  "raw": "KNUW 111520Z AUTO 24010G25KT 5SM -RA BR FEW013 BKN032 OVC041 10/08 A2951 RMK AO2 PK WND 15035/1457 WSHFT 1452 RAB1459 CIG 019 P0014 T01000083 $",
  "relative_humidity": 0.8917307313199454,
  "remarks": "RMK AO2 PK WND 15035/1457 WSHFT 1452 RAB1459 CIG 019 P0014 T01000083 $",
  "remarks_info": {
    "codes": [
      {
        "repr": "$",
        "value": "ASOS requires maintenance"
      },
      {
        "repr": "AO2",
        "value": "Automated with precipitation sensor"
      }
    ],
    "dewpoint_decimal": {
      "repr": "0083",
      "spoken": "eight point three",
      "value": 8.3
    },
    "maximum_temperature_24": null,
    "maximum_temperature_6": null,
    "minimum_temperature_24": null,
    "minimum_temperature_6": null,
    "precip_24_hours": null,
    "precip_36_hours": null,
    "precip_hourly": {
      "repr": "P0014",
      "spoken": "zero point one four",
      "value": 0.14
    },
    "pressure_tendency": null,
    "sea_level_pressure": null,
    "snow_depth": null,
    "sunshine_minutes": null,
    "temperature_decimal": {
      "repr": "0100",
      "spoken": "one zero point zero",
      "value": 10
    }
  },
  "runway_visibility": [],
  "sanitized": "KNUW 111520Z 24010G25KT 5SM -RA BR FEW013 BKN032 OVC041 10/08 A2951 RMK AO2 PK WND 15035/1457 WSHFT 1452 RAB1459 CIG 019 P0014 T01000083 $",
  "station": "KNUW",
  "temperature": {
    "repr": "10",
    "spoken": "one zero",
    "value": 10
  },
  "time": {
    "dt": "2024-11-11T15:20:00Z",
    "repr": "111520Z"
  },
  "units": {
    "accumulation": "in",
    "altimeter": "inHg",
    "altitude": "ft",
    "temperature": "C",
    "visibility": "sm",
    "wind_speed": "kt"
  },
  "visibility": {
    "repr": "5",
    "spoken": "five",
    "value": 5
  },
  "wind_direction": {
    "repr": "240",
    "spoken": "two four zero",
    "value": 240
  },
  "wind_gust": {
    "repr": "25",
    "spoken": "two five",
    "value": 25
  },
  "wind_speed": {
    "repr": "10",
    "spoken": "one zero",
    "value": 10
  },
  "wind_variable_direction": [],
  "wx_codes": [
    {
      "repr": "-RA",
      "value": "Light Rain"
    },
    {
      "repr": "BR",
      "value": "Mist"
    }
  ]
}
