{
  "altimeter": {
    "repr": "A3004",
    "spoken": "three zero point zero four",
    "value": 30.04
  },
  "clouds": [
    {
      "altitude": 250,
      "modifier": null,
      "repr": "FEW250",
      "type": "FEW"
    }
  ],
  "density_altitude": -134,
  "dewpoint": {
    "repr": "13",
    "spoken": "one three",
    "value": 13
  },
  "flight_rules": "VFR",
  "meta": {
    "stations_updated": "2024-06-12",
    "timestamp": "2024-07-18T08:29:53.563550Z"
  },
  "other": [],
  "pressure_altitude": -73,
  "raw": "KNUW 180753Z 20005KT 10SM FEW250 14/13 A3004 RMK AO2 SLP176 T01440133 402110122 $",
  "relative_humidity": 0.9310306339626941,
  "remarks": "RMK AO2 SLP176 T01440133 402110122 $",
  "remarks_info": {
    "codes": [
      {
        "repr": "$",
        "value": "ASOS requires maintenance"
      },
      {
        "repr": "AO2",
        "value": "Automated with precipitation sensor"
      }
    ],
    "dewpoint_decimal": {
      "repr": "0133",
      "spoken": "one three point three",
      "value": 13.3
    },
    "maximum_temperature_24": {
      "repr": "0211",
      "spoken": "two one point one",
      "value": 21.1
    },
    "maximum_temperature_6": null,
    "minimum_temperature_24": {
      "repr": "0122",
      "spoken": "one two point two",
      "value": 12.2
    },
    "minimum_temperature_6": null,
    "precip_24_hours": null,
    "precip_36_hours": null,
    "precip_hourly": null,
    "pressure_tendency": null,
    "sea_level_pressure": {
      "repr": "SLP176",
      "spoken": "one zero one seven point six",
      "value": 1017.6
    },
    "snow_depth": null,
    "sunshine_minutes": null,
    "temperature_decimal": {
      "repr": "0144",
      "spoken": "one four point four",
      "value": 14.4
    }
  },
  "runway_visibility": [],
  "sanitized": "KNUW 180753Z 20005KT 10SM FEW250 14/13 A3004 RMK AO2 SLP176 T01440133 402110122 $",
  "station": "KNUW",
  "temperature": {
    "repr": "14",
    "spoken": "one four",
    "value": 14
  },
  "time": {
    "dt": "2024-07-18T07:53:00Z",
    "repr": "180753Z"
  },
  "units": {
    "accumulation": "in",
    "altimeter": "inHg",
    "altitude": "ft",
    "temperature": "C",
    "visibility": "sm",
    "wind_speed": "kt"
  },
  "visibility": {
    "repr": "10",
    "spoken": "one zero",
    "value": 10
  },
  "wind_direction": {
    "repr": "200",
    "spoken": "two zero zero",
    "value": 200
  },
  "wind_gust": null,
  "wind_speed": {
    "repr": "05",
    "spoken": "five",
    "value": 5
  },
  "wind_variable_direction": [],
  "wx_codes": []
}
