{
  "meta": {
    "timestamp": "2023-03-19T06:07:49.728046Z",
    "stations_updated": "2023-03-11"
  },
  "altimeter": {
    "repr": "A2993",
    "value": 29.93,
    "spoken": "two nine point nine three"
  },
  "clouds": [
    {
      "repr": "BKN150",
      "type": "BKN",
      "altitude": 150,
      "modifier": null
    },
    {
      "repr": "BKN250",
      "type": "BKN",
      "altitude": 250,
      "modifier": null
    }
  ],
  "flight_rules": "VFR",
  "other": [],
  "visibility": {
    "repr": "10",
    "value": 10,
    "spoken": "one zero"
  },
  "wind_direction": {
    "repr": "130",
    "value": 130,
    "spoken": "one three zero"
  },
  "wind_gust": null,
  "wind_speed": {
    "repr": "03",
    "value": 3,
    "spoken": "three"
  },
  "wx_codes": [],
  "raw": "KNUW 190553Z 13003KT 10SM BKN150 BKN250 06/03 A2993 RMK AO2 SLP138 T00610033 10150 20056 58000 VISNO $",
  "sanitized": "KNUW 190553Z 13003KT 10SM BKN150 BKN250 06/03 A2993 RMK AO2 SLP138 T00610033 10150 20056 58000 VISNO $",
  "station": "KNUW",
  "time": {
    "repr": "190553Z",
    "dt": "2023-03-19T05:53:00Z"
  },
  "remarks": "RMK AO2 SLP138 T00610033 10150 20056 58000 VISNO $",
  "dewpoint": {
    "repr": "03",
    "value": 3,
    "spoken": "three"
  },
  "relative_humidity": 0.8223651929534089,
  "remarks_info": {
    "maximum_temperature_6": {
      "repr": "10150",
      "value": 15,
      "spoken": "one five point zero"
    },
    "minimum_temperature_6": {
      "repr": "20056",
      "value": 5.6,
      "spoken": "five point six"
    },
    "pressure_tendency": {
      "repr": "58000",
      "tendency": "Steady or increasing, then decreasing",
      "change": 0
    },
    "precip_36_hours": null,
    "precip_24_hours": null,
    "sunshine_minutes": null,
    "codes": [
      {
        "repr": "$",
        "value": "ASOS requires maintenance"
      },
      {
        "repr": "AO2",
        "value": "Automated with precipitation sensor"
      }
    ],
    "dewpoint_decimal": {
      "repr": "0033",
      "value": 3.3,
      "spoken": "three point three"
    },
    "maximum_temperature_24": null,
    "minimum_temperature_24": null,
    "precip_hourly": null,
    "sea_level_pressure": {
      "repr": "SLP138",
      "value": 1013.8,
      "spoken": "one zero one three point eight"
    },
    "snow_depth": null,
    "temperature_decimal": {
      "repr": "0061",
      "value": 6.1,
      "spoken": "six point one"
    }
  },
  "runway_visibility": [],
  "temperature": {
    "repr": "06",
    "value": 6,
    "spoken": "six"
  },
  "wind_variable_direction": [],
  "density_altitude": -1020,
  "pressure_altitude": 37,
  "units": {
    "accumulation": "in",
    "altimeter": "inHg",
    "altitude": "ft",
    "temperature": "C",
    "visibility": "sm",
    "wind_speed": "kt"
  }
}
