{
  "meta": {
    "timestamp": "2023-01-16T09:40:35.217668Z",
    "stations_updated": "2022-12-27",
    "cache-timestamp": "2023-01-16T09:40:04.919000Z"
  },
  "altimeter": {
    "repr": "A2955",
    "value": 29.55,
    "spoken": "two nine point five five"
  },
  "clouds": [
    {
      "repr": "OVC017",
      "type": "OVC",
      "altitude": 17,
      "modifier": null
    }
  ],
  "flight_rules": "MVFR",
  "other": [],
  "visibility": {
    "repr": "10",
    "value": 10,
    "spoken": "one zero"
  },
  "wind_direction": {
    "repr": "150",
    "value": 150,
    "spoken": "one five zero"
  },
  "wind_gust": {
    "repr": "29",
    "value": 29,
    "spoken": "two nine"
  },
  "wind_speed": {
    "repr": "21",
    "value": 21,
    "spoken": "two one"
  },
  "wx_codes": [],
  "raw": "KNUW 160853Z AUTO 15021G29KT 10SM OVC017 08/06 A2955 RMK AO2 PK WND 15031/0802 SLP005 60000 T00830061 53016 VISNO $",
  "sanitized": "KNUW 160853Z 15021G29KT 10SM OVC017 08/06 A2955 RMK AO2 PK WND 15031/0802 SLP005 60000 T00830061 53016 VISNO $",
  "station": "KNUW",
  "time": {
    "repr": "160853Z",
    "dt": "2023-01-16T08:53:00Z"
  },
  "remarks": "RMK AO2 PK WND 15031/0802 SLP005 60000 T00830061 53016 VISNO $",
  "dewpoint": {
    "repr": "06",
    "value": 6,
    "spoken": "six"
  },
  "relative_humidity": 0.8601818874011486,
  "remarks_info": {
    "maximum_temperature_6": null,
    "minimum_temperature_6": null,
    "pressure_tendency": {
      "repr": "53016",
      "tendency": "Decreasing or steady, then increasing",
      "change": 1.6
    },
    "precip_36_hours": {
      "repr": "60000",
      "value": 0,
      "spoken": "zero"
    },
    "precip_24_hours": null,
    "sunshine_minutes": null,
    "codes": [
      {
        "repr": "$",
        "value": "ASOS requires maintenance"
      },
      {
        "repr": "AO2",
        "value": "Automated with precipitation sensor"
      }
    ],
    "dewpoint_decimal": {
      "repr": "0061",
      "value": 6.1,
      "spoken": "six point one"
    },
    "maximum_temperature_24": null,
    "minimum_temperature_24": null,
    "precip_hourly": null,
    "sea_level_pressure": {
      "repr": "SLP005",
      "value": 1000.5,
      "spoken": "one zero zero zero point five"
    },
    "snow_depth": null,
    "temperature_decimal": {
      "repr": "0083",
      "value": 8.3,
      "spoken": "eight point three"
    }
  },
  "runway_visibility": [],
  "temperature": {
    "repr": "08",
    "value": 8,
    "spoken": "eight"
  },
  "wind_variable_direction": [],
  "density_altitude": -376,
  "pressure_altitude": 417,
  "units": {
    "accumulation": "in",
    "altimeter": "inHg",
    "altitude": "ft",
    "temperature": "C",
    "visibility": "sm",
    "wind_speed": "kt"
  }
}
