{
  "meta": {
    "timestamp": "2022-12-26T10:02:35.613756Z",
    "stations_updated": "2022-09-05"
  },
  "altimeter": {
    "repr": "A2978",
    "value": 29.78,
    "spoken": "two nine point seven eight"
  },
  "clouds": [
    {
      "repr": "BKN013",
      "type": "BKN",
      "altitude": 13,
      "modifier": null
    },
    {
      "repr": "OVC110",
      "type": "OVC",
      "altitude": 110,
      "modifier": null
    }
  ],
  "flight_rules": "MVFR",
  "other": [],
  "visibility": {
    "repr": "10",
    "value": 10,
    "spoken": "one zero"
  },
  "wind_direction": {
    "repr": "140",
    "value": 140,
    "spoken": "one four zero"
  },
  "wind_gust": {
    "repr": "36",
    "value": 36,
    "spoken": "three six"
  },
  "wind_speed": {
    "repr": "27",
    "value": 27,
    "spoken": "two seven"
  },
  "wx_codes": [],
  "raw": "KNUW 260953Z AUTO 14027G36KT 10SM BKN013 OVC110 12/11 A2978 RMK AO2 PK WND 13036/0952 SLP084 T01220106 VISNO $",
  "sanitized": "KNUW 260953Z 14027G36KT 10SM BKN013 OVC110 12/11 A2978 RMK AO2 PK WND 13036/0952 SLP084 T01220106 VISNO $",
  "station": "KNUW",
  "time": {
    "repr": "260953Z",
    "dt": "2022-12-26T09:53:00Z"
  },
  "remarks": "RMK AO2 PK WND 13036/0952 SLP084 T01220106 VISNO $",
  "dewpoint": {
    "repr": "11",
    "value": 11,
    "spoken": "one one"
  },
  "relative_humidity": 0.8994654196028143,
  "remarks_info": {
    "maximum_temperature_6": null,
    "minimum_temperature_6": null,
    "pressure_tendency": null,
    "precip_36_hours": null,
    "precip_24_hours": null,
    "sunshine_minutes": null,
    "codes": [
      {
        "repr": "$",
        "value": "ASOS requires maintenance"
      },
      {
        "repr": "AO2",
        "value": "Automated with precipitation sensor"
      }
    ],
    "dewpoint_decimal": {
      "repr": "0106",
      "value": 10.6,
      "spoken": "one zero point six"
    },
    "maximum_temperature_24": null,
    "minimum_temperature_24": null,
    "precip_hourly": null,
    "sea_level_pressure": {
      "repr": "SLP084",
      "value": 1008.4,
      "spoken": "one zero zero eight point four"
    },
    "snow_depth": null,
    "temperature_decimal": {
      "repr": "0122",
      "value": 12.2,
      "spoken": "one two point two"
    }
  },
  "runway_visibility": [],
  "temperature": {
    "repr": "12",
    "value": 12,
    "spoken": "one two"
  },
  "wind_variable_direction": [],
  "density_altitude": -138,
  "pressure_altitude": 187,
  "units": {
    "accumulation": "in",
    "altimeter": "inHg",
    "altitude": "ft",
    "temperature": "C",
    "visibility": "sm",
    "wind_speed": "kt"
  }
}
