{
  "altimeter": {
    "repr": "A3033",
    "spoken": "three zero point three three",
    "value": 30.33
  },
  "clouds": [
    {
      "altitude": 1,
      "modifier": null,
      "repr": "BKN001",
      "type": "BKN"
    }
  ],
  "density_altitude": -2224,
  "dewpoint": {
    "repr": "M01",
    "spoken": "minus one",
    "value": -1
  },
  "flight_rules": "LIFR",
  "meta": {
    "cache-timestamp": "2023-11-26T09:40:04.517000Z",
    "stations_updated": "2023-10-28",
    "timestamp": "2023-11-26T09:40:31.915376Z"
  },
  "other": [],
  "pressure_altitude": -363,
  "raw": "KNUW 260919Z 00000KT 3SM BR MIFG BKN001 M01/M01 A3033 RMK AO2 TWR VIS 4 VIS E 1/4 T10061006 $",
  "relative_humidity": 1,
  "remarks": "RMK AO2 TWR VIS 4 VIS E 1/4 T10061006 $",
  "remarks_info": {
    "codes": [
      {
        "repr": "$",
        "value": "ASOS requires maintenance"
      },
      {
        "repr": "AO2",
        "value": "Automated with precipitation sensor"
      }
    ],
    "dewpoint_decimal": {
      "repr": "1006",
      "spoken": "minus zero point six",
      "value": -0.6
    },
    "maximum_temperature_24": null,
    "maximum_temperature_6": null,
    "minimum_temperature_24": null,
    "minimum_temperature_6": null,
    "precip_24_hours": null,
    "precip_36_hours": null,
    "precip_hourly": null,
    "pressure_tendency": null,
    "sea_level_pressure": null,
    "snow_depth": null,
    "sunshine_minutes": null,
    "temperature_decimal": {
      "repr": "1006",
      "spoken": "minus zero point six",
      "value": -0.6
    }
  },
  "runway_visibility": [],
  "sanitized": "KNUW 260919Z 00000KT 3SM BR MIFG BKN001 M01/M01 A3033 RMK AO2 TWR VIS 4 VIS E 1/4 T10061006 $",
  "station": "KNUW",
  "temperature": {
    "repr": "M01",
    "spoken": "minus one",
    "value": -1
  },
  "time": {
    "dt": "2023-11-26T09:19:00Z",
    "repr": "260919Z"
  },
  "units": {
    "accumulation": "in",
    "altimeter": "inHg",
    "altitude": "ft",
    "temperature": "C",
    "visibility": "sm",
    "wind_speed": "kt"
  },
  "visibility": {
    "repr": "3",
    "spoken": "three",
    "value": 3
  },
  "wind_direction": {
    "repr": "000",
    "spoken": "zero zero zero",
    "value": 0
  },
  "wind_gust": null,
  "wind_speed": {
    "repr": "00",
    "spoken": "zero",
    "value": 0
  },
  "wind_variable_direction": [],
  "wx_codes": [
    {
      "repr": "BR",
      "value": "Mist"
    },
    {
      "repr": "MIFG",
      "value": "Shallow Fog"
    }
  ]
}
