{
  "altimeter": {
    "repr": "A2958",
    "spoken": "two nine point five eight",
    "value": 29.58
  },
  "clouds": [
    {
      "altitude": 23,
      "modifier": null,
      "repr": "FEW023",
      "type": "FEW"
    },
    {
      "altitude": 38,
      "modifier": null,
      "repr": "BKN038",
      "type": "BKN"
    },
    {
      "altitude": 70,
      "modifier": null,
      "repr": "BKN070",
      "type": "BKN"
    },
    {
      "altitude": 200,
      "modifier": null,
      "repr": "BKN200",
      "type": "BKN"
    }
  ],
  "density_altitude": -406,
  "dewpoint": {
    "repr": "05",
    "spoken": "five",
    "value": 5
  },
  "flight_rules": "VFR",
  "meta": {
    "stations_updated": "2024-10-29",
    "timestamp": "2024-11-17T19:23:24.945793Z"
  },
  "other": [],
  "pressure_altitude": 387,
  "raw": "KNUW 171853Z 30005KT 10SM FEW023 BKN038 BKN070 BKN200 08/05 A2958 RMK AO2 RAE25 SLP020 P0007 T00830050 $",
  "relative_humidity": 0.7969868033518251,
  "remarks": "RMK AO2 RAE25 SLP020 P0007 T00830050 $",
  "remarks_info": {
    "codes": [
      {
        "repr": "$",
        "value": "ASOS requires maintenance"
      },
      {
        "repr": "AO2",
        "value": "Automated with precipitation sensor"
      },
      {
        "repr": "RAE25",
        "value": "Rain ended at :25"
      }
    ],
    "dewpoint_decimal": {
      "repr": "0050",
      "spoken": "five point zero",
      "value": 5
    },
    "maximum_temperature_24": null,
    "maximum_temperature_6": null,
    "minimum_temperature_24": null,
    "minimum_temperature_6": null,
    "precip_24_hours": null,
    "precip_36_hours": null,
    "precip_hourly": {
      "repr": "P0007",
      "spoken": "zero point zero seven",
      "value": 0.07
    },
    "pressure_tendency": null,
    "sea_level_pressure": {
      "repr": "SLP020",
      "spoken": "one zero zero two point zero",
      "value": 1002
    },
    "snow_depth": null,
    "sunshine_minutes": null,
    "temperature_decimal": {
      "repr": "0083",
      "spoken": "eight point three",
      "value": 8.3
    }
  },
  "runway_visibility": [],
  "sanitized": "KNUW 171853Z 30005KT 10SM FEW023 BKN038 BKN070 BKN200 08/05 A2958 RMK AO2 RAE25 SLP020 P0007 T00830050 $",
  "station": "KNUW",
  "temperature": {
    "repr": "08",
    "spoken": "eight",
    "value": 8
  },
  "time": {
    "dt": "2024-11-17T18:53:00Z",
    "repr": "171853Z"
  },
  "units": {
    "accumulation": "in",
    "altimeter": "inHg",
    "altitude": "ft",
    "temperature": "C",
    "visibility": "sm",
    "wind_speed": "kt"
  },
  "visibility": {
    "repr": "10",
    "spoken": "one zero",
    "value": 10
  },
  "wind_direction": {
    "repr": "300",
    "spoken": "three zero zero",
    "value": 300
  },
  "wind_gust": null,
  "wind_speed": {
    "repr": "05",
    "spoken": "five",
    "value": 5
  },
  "wind_variable_direction": [],
  "wx_codes": []
}
