{
  "altimeter": {
    "repr": "A2996",
    "spoken": "two nine point nine six",
    "value": 29.96
  },
  "clouds": [
    {
      "altitude": 35,
      "modifier": null,
      "repr": "SCT035",
      "type": "SCT"
    },
    {
      "altitude": 80,
      "modifier": null,
      "repr": "OVC080",
      "type": "OVC"
    }
  ],
  "density_altitude": -2382,
  "dewpoint": {
    "repr": "M14",
    "spoken": "minus one four",
    "value": -14
  },
  "flight_rules": "VFR",
  "meta": {
    "stations_updated": "2023-10-28",
    "timestamp": "2024-01-12T05:27:52.171065Z"
  },
  "other": [],
  "pressure_altitude": 7,
  "raw": "KNUW 120453Z 36012KT 10SM SCT035 OVC080 M05/M14 A2996 RMK AO2 SLP149 T10501139 $",
  "relative_humidity": 0.4969316538300045,
  "remarks": "RMK AO2 SLP149 T10501139 $",
  "remarks_info": {
    "codes": [
      {
        "repr": "$",
        "value": "ASOS requires maintenance"
      },
      {
        "repr": "AO2",
        "value": "Automated with precipitation sensor"
      }
    ],
    "dewpoint_decimal": {
      "repr": "1139",
      "spoken": "minus one three point nine",
      "value": -13.9
    },
    "maximum_temperature_24": null,
    "maximum_temperature_6": null,
    "minimum_temperature_24": null,
    "minimum_temperature_6": null,
    "precip_24_hours": null,
    "precip_36_hours": null,
    "precip_hourly": null,
    "pressure_tendency": null,
    "sea_level_pressure": {
      "repr": "SLP149",
      "spoken": "one zero one four point nine",
      "value": 1014.9
    },
    "snow_depth": null,
    "sunshine_minutes": null,
    "temperature_decimal": {
      "repr": "1050",
      "spoken": "minus five point zero",
      "value": -5
    }
  },
  "runway_visibility": [],
  "sanitized": "KNUW 120453Z 36012KT 10SM SCT035 OVC080 M05/M14 A2996 RMK AO2 SLP149 T10501139 $",
  "station": "KNUW",
  "temperature": {
    "repr": "M05",
    "spoken": "minus five",
    "value": -5
  },
  "time": {
    "dt": "2024-01-12T04:53:00Z",
    "repr": "120453Z"
  },
  "units": {
    "accumulation": "in",
    "altimeter": "inHg",
    "altitude": "ft",
    "temperature": "C",
    "visibility": "sm",
    "wind_speed": "kt"
  },
  "visibility": {
    "repr": "10",
    "spoken": "one zero",
    "value": 10
  },
  "wind_direction": {
    "repr": "360",
    "spoken": "three six zero",
    "value": 360
  },
  "wind_gust": null,
  "wind_speed": {
    "repr": "12",
    "spoken": "one two",
    "value": 12
  },
  "wind_variable_direction": [],
  "wx_codes": []
}
