{
  "altimeter": {
    "repr": "A3025",
    "spoken": "three zero point two five",
    "value": 30.25
  },
  "clouds": [
    {
      "altitude": 3,
      "modifier": null,
      "repr": "VV003",
      "type": "VV"
    }
  ],
  "density_altitude": -1808,
  "dewpoint": {
    "repr": "02",
    "spoken": "two",
    "value": 2
  },
  "flight_rules": "LIFR",
  "meta": {
    "stations_updated": "2024-12-02",
    "timestamp": "2024-12-05T07:08:03.617068Z"
  },
  "other": [],
  "pressure_altitude": -283,
  "raw": "KNUW 050653Z 11006KT 1/8SM FG VV003 02/02 A3025 RMK AO2 SFC VIS 1/4 SLP248 T00220017",
  "relative_humidity": 0.9649208694160765,
  "remarks": "RMK AO2 SFC VIS 1/4 SLP248 T00220017",
  "remarks_info": {
    "codes": [
      {
        "repr": "AO2",
        "value": "Automated with precipitation sensor"
      }
    ],
    "dewpoint_decimal": {
      "repr": "0017",
      "spoken": "one point seven",
      "value": 1.7
    },
    "maximum_temperature_24": null,
    "maximum_temperature_6": null,
    "minimum_temperature_24": null,
    "minimum_temperature_6": null,
    "precip_24_hours": null,
    "precip_36_hours": null,
    "precip_hourly": null,
    "pressure_tendency": null,
    "sea_level_pressure": {
      "repr": "SLP248",
      "spoken": "one zero two four point eight",
      "value": 1024.8
    },
    "snow_depth": null,
    "sunshine_minutes": null,
    "temperature_decimal": {
      "repr": "0022",
      "spoken": "two point two",
      "value": 2.2
    }
  },
  "runway_visibility": [],
  "sanitized": "KNUW 050653Z 11006KT 1/8SM FG VV003 02/02 A3025 RMK AO2 SFC VIS 1/4 SLP248 T00220017",
  "station": "KNUW",
  "temperature": {
    "repr": "02",
    "spoken": "two",
    "value": 2
  },
  "time": {
    "dt": "2024-12-05T06:53:00Z",
    "repr": "050653Z"
  },
  "units": {
    "accumulation": "in",
    "altimeter": "inHg",
    "altitude": "ft",
    "temperature": "C",
    "visibility": "sm",
    "wind_speed": "kt"
  },
  "visibility": {
    "denominator": 8,
    "normalized": "1/8",
    "numerator": 1,
    "repr": "1/8",
    "spoken": "one eight",
    "value": 0.125
  },
  "wind_direction": {
    "repr": "110",
    "spoken": "one one zero",
    "value": 110
  },
  "wind_gust": null,
  "wind_speed": {
    "repr": "06",
    "spoken": "six",
    "value": 6
  },
  "wind_variable_direction": [],
  "wx_codes": [
    {
      "repr": "FG",
      "value": "Fog"
    }
  ]
}
