{
  "altimeter": {
    "repr": "A2998",
    "spoken": "two nine point nine eight",
    "value": 29.98
  },
  "clouds": [
    {
      "altitude": 8,
      "modifier": null,
      "repr": "SCT008",
      "type": "SCT"
    },
    {
      "altitude": 11,
      "modifier": null,
      "repr": "OVC011",
      "type": "OVC"
    }
  ],
  "density_altitude": -338,
  "dewpoint": {
    "repr": "11",
    "spoken": "one one",
    "value": 11
  },
  "flight_rules": "MVFR",
  "meta": {
    "stations_updated": "2024-06-12",
    "timestamp": "2024-10-16T06:36:54.004250Z"
  },
  "other": [],
  "pressure_altitude": -13,
  "raw": "KNUW 160553Z 10004KT 7SM SCT008 OVC011 12/11 A2998 RMK RAB13E42 SLP156 P0000 60000 T01220111 10128 20111 56008",
  "relative_humidity": 0.9298790264187491,
  "remarks": "RMK RAB13E42 SLP156 P0000 60000 T01220111 10128 20111 56008",
  "remarks_info": {
    "codes": [
      {
        "repr": "P0000",
        "value": "Trace amount of rain in the last hour"
      }
    ],
    "dewpoint_decimal": {
      "repr": "0111",
      "spoken": "one one point one",
      "value": 11.1
    },
    "maximum_temperature_24": null,
    "maximum_temperature_6": {
      "repr": "10128",
      "spoken": "one two point eight",
      "value": 12.8
    },
    "minimum_temperature_24": null,
    "minimum_temperature_6": {
      "repr": "20111",
      "spoken": "one one point one",
      "value": 11.1
    },
    "precip_24_hours": null,
    "precip_36_hours": {
      "repr": "60000",
      "spoken": "zero",
      "value": 0
    },
    "precip_hourly": null,
    "pressure_tendency": {
      "change": 0.8,
      "repr": "56008",
      "tendency": "Decreasing, then steady"
    },
    "sea_level_pressure": {
      "repr": "SLP156",
      "spoken": "one zero one five point six",
      "value": 1015.6
    },
    "snow_depth": null,
    "sunshine_minutes": null,
    "temperature_decimal": {
      "repr": "0122",
      "spoken": "one two point two",
      "value": 12.2
    }
  },
  "runway_visibility": [],
  "sanitized": "KNUW 160553Z 10004KT 7SM SCT008 OVC011 12/11 A2998 RMK RAB13E42 SLP156 P0000 60000 T01220111 10128 20111 56008",
  "station": "KNUW",
  "temperature": {
    "repr": "12",
    "spoken": "one two",
    "value": 12
  },
  "time": {
    "dt": "2024-10-16T05:53:00Z",
    "repr": "160553Z"
  },
  "units": {
    "accumulation": "in",
    "altimeter": "inHg",
    "altitude": "ft",
    "temperature": "C",
    "visibility": "sm",
    "wind_speed": "kt"
  },
  "visibility": {
    "repr": "7",
    "spoken": "seven",
    "value": 7
  },
  "wind_direction": {
    "repr": "100",
    "spoken": "one zero zero",
    "value": 100
  },
  "wind_gust": null,
  "wind_speed": {
    "repr": "04",
    "spoken": "four",
    "value": 4
  },
  "wind_variable_direction": [],
  "wx_codes": []
}
