{
  "altimeter": {
    "repr": "A3013",
    "spoken": "three zero point one three",
    "value": 30.13
  },
  "clouds": [
    {
      "altitude": 22,
      "modifier": null,
      "repr": "BKN022",
      "type": "BKN"
    },
    {
      "altitude": 30,
      "modifier": null,
      "repr": "BKN030",
      "type": "BKN"
    },
    {
      "altitude": 38,
      "modifier": null,
      "repr": "BKN038",
      "type": "BKN"
    }
  ],
  "density_altitude": -752,
  "dewpoint": {
    "repr": "06",
    "spoken": "six",
    "value": 6
  },
  "flight_rules": "MVFR",
  "meta": {
    "cache-timestamp": "2024-01-26T12:38:02.981000Z",
    "stations_updated": "2023-10-28",
    "timestamp": "2024-01-26T12:38:44.726547Z"
  },
  "other": [],
  "pressure_altitude": -163,
  "raw": "KNUW 261153Z 13011KT 10SM BKN022 BKN030 BKN038 10/06 A3013 RMK AO2 SLP207 T01000061 10100 20094 55002 $",
  "relative_humidity": 0.7670506235203972,
  "remarks": "RMK AO2 SLP207 T01000061 10100 20094 55002 $",
  "remarks_info": {
    "codes": [
      {
        "repr": "$",
        "value": "ASOS requires maintenance"
      },
      {
        "repr": "AO2",
        "value": "Automated with precipitation sensor"
      }
    ],
    "dewpoint_decimal": {
      "repr": "0061",
      "spoken": "six point one",
      "value": 6.1
    },
    "maximum_temperature_24": null,
    "maximum_temperature_6": {
      "repr": "10100",
      "spoken": "one zero point zero",
      "value": 10
    },
    "minimum_temperature_24": null,
    "minimum_temperature_6": {
      "repr": "20094",
      "spoken": "nine point four",
      "value": 9.4
    },
    "precip_24_hours": null,
    "precip_36_hours": null,
    "precip_hourly": null,
    "pressure_tendency": {
      "change": 0.2,
      "repr": "55002",
      "tendency": "Decreasing, then increasing"
    },
    "sea_level_pressure": {
      "repr": "SLP207",
      "spoken": "one zero two zero point seven",
      "value": 1020.7
    },
    "snow_depth": null,
    "sunshine_minutes": null,
    "temperature_decimal": {
      "repr": "0100",
      "spoken": "one zero point zero",
      "value": 10
    }
  },
  "runway_visibility": [],
  "sanitized": "KNUW 261153Z 13011KT 10SM BKN022 BKN030 BKN038 10/06 A3013 RMK AO2 SLP207 T01000061 10100 20094 55002 $",
  "station": "KNUW",
  "temperature": {
    "repr": "10",
    "spoken": "one zero",
    "value": 10
  },
  "time": {
    "dt": "2024-01-26T11:53:00Z",
    "repr": "261153Z"
  },
  "units": {
    "accumulation": "in",
    "altimeter": "inHg",
    "altitude": "ft",
    "temperature": "C",
    "visibility": "sm",
    "wind_speed": "kt"
  },
  "visibility": {
    "repr": "10",
    "spoken": "one zero",
    "value": 10
  },
  "wind_direction": {
    "repr": "130",
    "spoken": "one three zero",
    "value": 130
  },
  "wind_gust": null,
  "wind_speed": {
    "repr": "11",
    "spoken": "one one",
    "value": 11
  },
  "wind_variable_direction": [],
  "wx_codes": []
}
