{
  "altimeter": {
    "repr": "A2998",
    "spoken": "two nine point nine eight",
    "value": 29.98
  },
  "clouds": [],
  "density_altitude": 730,
  "dewpoint": {
    "repr": "14",
    "spoken": "one four",
    "value": 14
  },
  "flight_rules": "VFR",
  "meta": {
    "stations_updated": "2024-06-12",
    "timestamp": "2024-09-01T00:39:47.730953Z"
  },
  "other": [],
  "pressure_altitude": -13,
  "raw": "KNUW 312353Z 27004KT 10SM CLR 21/14 A2998 RMK AO2 SLP154 T02110144 10211 20172 56017 $",
  "relative_humidity": 0.6554429647413942,
  "remarks": "RMK AO2 SLP154 T02110144 10211 20172 56017 $",
  "remarks_info": {
    "codes": [
      {
        "repr": "$",
        "value": "ASOS requires maintenance"
      },
      {
        "repr": "AO2",
        "value": "Automated with precipitation sensor"
      }
    ],
    "dewpoint_decimal": {
      "repr": "0144",
      "spoken": "one four point four",
      "value": 14.4
    },
    "maximum_temperature_24": null,
    "maximum_temperature_6": {
      "repr": "10211",
      "spoken": "two one point one",
      "value": 21.1
    },
    "minimum_temperature_24": null,
    "minimum_temperature_6": {
      "repr": "20172",
      "spoken": "one seven point two",
      "value": 17.2
    },
    "precip_24_hours": null,
    "precip_36_hours": null,
    "precip_hourly": null,
    "pressure_tendency": {
      "change": 1.7,
      "repr": "56017",
      "tendency": "Decreasing, then steady"
    },
    "sea_level_pressure": {
      "repr": "SLP154",
      "spoken": "one zero one five point four",
      "value": 1015.4
    },
    "snow_depth": null,
    "sunshine_minutes": null,
    "temperature_decimal": {
      "repr": "0211",
      "spoken": "two one point one",
      "value": 21.1
    }
  },
  "runway_visibility": [],
  "sanitized": "KNUW 312353Z 27004KT 10SM 21/14 A2998 RMK AO2 SLP154 T02110144 10211 20172 56017 $",
  "station": "KNUW",
  "temperature": {
    "repr": "21",
    "spoken": "two one",
    "value": 21
  },
  "time": {
    "dt": "2024-08-31T23:53:00Z",
    "repr": "312353Z"
  },
  "units": {
    "accumulation": "in",
    "altimeter": "inHg",
    "altitude": "ft",
    "temperature": "C",
    "visibility": "sm",
    "wind_speed": "kt"
  },
  "visibility": {
    "repr": "10",
    "spoken": "one zero",
    "value": 10
  },
  "wind_direction": {
    "repr": "270",
    "spoken": "two seven zero",
    "value": 270
  },
  "wind_gust": null,
  "wind_speed": {
    "repr": "04",
    "spoken": "four",
    "value": 4
  },
  "wind_variable_direction": [],
  "wx_codes": []
}
