{
  "meta": {
    "timestamp": "2022-12-31T11:20:58.901373Z",
    "stations_updated": "2022-12-27",
    "cache-timestamp": "2022-12-31T11:20:07.908000Z"
  },
  "altimeter": {
    "repr": "A2970",
    "value": 29.7,
    "spoken": "two nine point seven zero"
  },
  "clouds": [
    {
      "repr": "OVC021",
      "type": "OVC",
      "altitude": 21,
      "modifier": null
    }
  ],
  "flight_rules": "MVFR",
  "other": [],
  "visibility": {
    "repr": "10",
    "value": 10,
    "spoken": "one zero"
  },
  "wind_direction": {
    "repr": "140",
    "value": 140,
    "spoken": "one four zero"
  },
  "wind_gust": null,
  "wind_speed": {
    "repr": "04",
    "value": 4,
    "spoken": "four"
  },
  "wx_codes": [],
  "raw": "KNUW 311053Z AUTO 14004KT 10SM OVC021 08/06 A2970 RMK AO2 SLP058 T00780056 VISNO $",
  "sanitized": "KNUW 311053Z 14004KT 10SM OVC021 08/06 A2970 RMK AO2 SLP058 T00780056 VISNO $",
  "station": "KNUW",
  "time": {
    "repr": "311053Z",
    "dt": "2022-12-31T10:53:00Z"
  },
  "remarks": "RMK AO2 SLP058 T00780056 VISNO $",
  "dewpoint": {
    "repr": "06",
    "value": 6,
    "spoken": "six"
  },
  "relative_humidity": 0.859663717525656,
  "remarks_info": {
    "maximum_temperature_6": null,
    "minimum_temperature_6": null,
    "pressure_tendency": null,
    "precip_36_hours": null,
    "precip_24_hours": null,
    "sunshine_minutes": null,
    "codes": [
      {
        "repr": "$",
        "value": "ASOS requires maintenance"
      },
      {
        "repr": "AO2",
        "value": "Automated with precipitation sensor"
      }
    ],
    "dewpoint_decimal": {
      "repr": "0056",
      "value": 5.6,
      "spoken": "five point six"
    },
    "maximum_temperature_24": null,
    "minimum_temperature_24": null,
    "precip_hourly": null,
    "sea_level_pressure": {
      "repr": "SLP058",
      "value": 1005.8,
      "spoken": "one zero zero five point eight"
    },
    "snow_depth": null,
    "temperature_decimal": {
      "repr": "0078",
      "value": 7.8,
      "spoken": "seven point eight"
    }
  },
  "runway_visibility": [],
  "temperature": {
    "repr": "08",
    "value": 8,
    "spoken": "eight"
  },
  "wind_variable_direction": [],
  "density_altitude": -586,
  "pressure_altitude": 267,
  "units": {
    "accumulation": "in",
    "altimeter": "inHg",
    "altitude": "ft",
    "temperature": "C",
    "visibility": "sm",
    "wind_speed": "kt"
  }
}
