{
  "altimeter": {
    "repr": "A2959",
    "spoken": "two nine point five nine",
    "value": 29.59
  },
  "clouds": [
    {
      "altitude": 12,
      "modifier": null,
      "repr": "SCT012",
      "type": "SCT"
    },
    {
      "altitude": 30,
      "modifier": null,
      "repr": "OVC030",
      "type": "OVC"
    }
  ],
  "density_altitude": -416,
  "dewpoint": {
    "repr": "07",
    "spoken": "seven",
    "value": 7
  },
  "flight_rules": "MVFR",
  "meta": {
    "stations_updated": "2024-10-29",
    "timestamp": "2024-11-01T16:34:04.939304Z"
  },
  "other": [],
  "pressure_altitude": 377,
  "raw": "KNUW 011553Z 10013KT 10SM -RA SCT012 OVC030 08/07 A2959 RMK AO2 SLP025 P0004 T00830067 $",
  "relative_humidity": 0.8964857337002037,
  "remarks": "RMK AO2 SLP025 P0004 T00830067 $",
  "remarks_info": {
    "codes": [
      {
        "repr": "$",
        "value": "ASOS requires maintenance"
      },
      {
        "repr": "AO2",
        "value": "Automated with precipitation sensor"
      }
    ],
    "dewpoint_decimal": {
      "repr": "0067",
      "spoken": "six point seven",
      "value": 6.7
    },
    "maximum_temperature_24": null,
    "maximum_temperature_6": null,
    "minimum_temperature_24": null,
    "minimum_temperature_6": null,
    "precip_24_hours": null,
    "precip_36_hours": null,
    "precip_hourly": {
      "repr": "P0004",
      "spoken": "zero point zero four",
      "value": 0.04
    },
    "pressure_tendency": null,
    "sea_level_pressure": {
      "repr": "SLP025",
      "spoken": "one zero zero two point five",
      "value": 1002.5
    },
    "snow_depth": null,
    "sunshine_minutes": null,
    "temperature_decimal": {
      "repr": "0083",
      "spoken": "eight point three",
      "value": 8.3
    }
  },
  "runway_visibility": [],
  "sanitized": "KNUW 011553Z 10013KT 10SM -RA SCT012 OVC030 08/07 A2959 RMK AO2 SLP025 P0004 T00830067 $",
  "station": "KNUW",
  "temperature": {
    "repr": "08",
    "spoken": "eight",
    "value": 8
  },
  "time": {
    "dt": "2024-11-01T15:53:00Z",
    "repr": "011553Z"
  },
  "units": {
    "accumulation": "in",
    "altimeter": "inHg",
    "altitude": "ft",
    "temperature": "C",
    "visibility": "sm",
    "wind_speed": "kt"
  },
  "visibility": {
    "repr": "10",
    "spoken": "one zero",
    "value": 10
  },
  "wind_direction": {
    "repr": "100",
    "spoken": "one zero zero",
    "value": 100
  },
  "wind_gust": null,
  "wind_speed": {
    "repr": "13",
    "spoken": "one three",
    "value": 13
  },
  "wind_variable_direction": [],
  "wx_codes": [
    {
      "repr": "-RA",
      "value": "Light Rain"
    }
  ]
}
