{
  "meta": {
    "timestamp": "2022-12-05T22:40:34.393031Z",
    "stations_updated": "2022-09-05"
  },
  "altimeter": {
    "repr": "A3006",
    "value": 30.06,
    "spoken": "three zero point zero six"
  },
  "clouds": [
    {
      "repr": "BKN035",
      "type": "BKN",
      "altitude": 35,
      "modifier": null
    }
  ],
  "flight_rules": "VFR",
  "other": [],
  "visibility": {
    "repr": "10",
    "value": 10,
    "spoken": "one zero"
  },
  "wind_direction": {
    "repr": "130",
    "value": 130,
    "spoken": "one three zero"
  },
  "wind_gust": null,
  "wind_speed": {
    "repr": "04",
    "value": 4,
    "spoken": "four"
  },
  "wx_codes": [],
  "raw": "KNUW 052153Z 13004KT 10SM BKN035 04/M01 A3006 RMK AO2 SLP179 T00391006 VISNO $",
  "sanitized": "KNUW 052153Z 13004KT 10SM BKN035 04/M01 A3006 RMK AO2 SLP179 T00391006 VISNO $",
  "station": "KNUW",
  "time": {
    "repr": "052153Z",
    "dt": "2022-12-05T21:53:00Z"
  },
  "remarks": "RMK AO2 SLP179 T00391006 VISNO $",
  "dewpoint": {
    "repr": "M01",
    "value": -1,
    "spoken": "minus one"
  },
  "relative_humidity": 0.7245558009435169,
  "remarks_info": {
    "maximum_temperature_6": null,
    "minimum_temperature_6": null,
    "pressure_tendency": null,
    "precip_36_hours": null,
    "precip_24_hours": null,
    "sunshine_minutes": null,
    "codes": [
      {
        "repr": "$",
        "value": "ASOS requires maintenance"
      },
      {
        "repr": "AO2",
        "value": "Automated with precipitation sensor"
      }
    ],
    "dewpoint_decimal": {
      "repr": "1006",
      "value": -0.6,
      "spoken": "minus zero point six"
    },
    "maximum_temperature_24": null,
    "minimum_temperature_24": null,
    "precip_hourly": null,
    "sea_level_pressure": {
      "repr": "SLP179",
      "value": 1017.9,
      "spoken": "one zero one seven point nine"
    },
    "snow_depth": null,
    "temperature_decimal": {
      "repr": "0039",
      "value": 3.9,
      "spoken": "three point nine"
    }
  },
  "runway_visibility": [],
  "temperature": {
    "repr": "04",
    "value": 4,
    "spoken": "four"
  },
  "wind_variable_direction": [],
  "density_altitude": -1414,
  "pressure_altitude": -93,
  "units": {
    "accumulation": "in",
    "altimeter": "inHg",
    "altitude": "ft",
    "temperature": "C",
    "visibility": "sm",
    "wind_speed": "kt"
  }
}
