{
  "meta": {
    "timestamp": "2023-01-02T14:01:27.047034Z",
    "stations_updated": "2022-12-27"
  },
  "altimeter": {
    "repr": "A2984",
    "value": 29.84,
    "spoken": "two nine point eight four"
  },
  "clouds": [],
  "flight_rules": "VFR",
  "other": [],
  "visibility": {
    "repr": "10",
    "value": 10,
    "spoken": "one zero"
  },
  "wind_direction": {
    "repr": "090",
    "value": 90,
    "spoken": "zero nine zero"
  },
  "wind_gust": {
    "repr": "24",
    "value": 24,
    "spoken": "two four"
  },
  "wind_speed": {
    "repr": "15",
    "value": 15,
    "spoken": "one five"
  },
  "wx_codes": [],
  "raw": "KNUW 021353Z AUTO 09015G24KT 10SM CLR 03/01 A2984 RMK AO2 SLP103 T00280006 VISNO $",
  "sanitized": "KNUW 021353Z 09015G24KT 10SM 03/01 A2984 RMK AO2 SLP103 T00280006 VISNO $",
  "station": "KNUW",
  "time": {
    "repr": "021353Z",
    "dt": "2023-01-02T13:53:00Z"
  },
  "remarks": "RMK AO2 SLP103 T00280006 VISNO $",
  "dewpoint": {
    "repr": "01",
    "value": 1,
    "spoken": "one"
  },
  "relative_humidity": 0.8543246885891209,
  "remarks_info": {
    "maximum_temperature_6": null,
    "minimum_temperature_6": null,
    "pressure_tendency": null,
    "precip_36_hours": null,
    "precip_24_hours": null,
    "sunshine_minutes": null,
    "codes": [
      {
        "repr": "$",
        "value": "ASOS requires maintenance"
      },
      {
        "repr": "AO2",
        "value": "Automated with precipitation sensor"
      }
    ],
    "dewpoint_decimal": {
      "repr": "0006",
      "value": 0.6,
      "spoken": "zero point six"
    },
    "maximum_temperature_24": null,
    "minimum_temperature_24": null,
    "precip_hourly": null,
    "sea_level_pressure": {
      "repr": "SLP103",
      "value": 1010.3,
      "spoken": "one zero one zero point three"
    },
    "snow_depth": null,
    "temperature_decimal": {
      "repr": "0028",
      "value": 2.8,
      "spoken": "two point eight"
    }
  },
  "runway_visibility": [],
  "temperature": {
    "repr": "03",
    "value": 3,
    "spoken": "three"
  },
  "wind_variable_direction": [],
  "density_altitude": -1326,
  "pressure_altitude": 127,
  "units": {
    "accumulation": "in",
    "altimeter": "inHg",
    "altitude": "ft",
    "temperature": "C",
    "visibility": "sm",
    "wind_speed": "kt"
  }
}
