{
  "meta": {
    "timestamp": "2023-06-30T11:01:25.871675Z",
    "stations_updated": "2023-06-06"
  },
  "altimeter": {
    "repr": "A3009",
    "value": 30.09,
    "spoken": "three zero point zero nine"
  },
  "clouds": [
    {
      "repr": "FEW007",
      "type": "FEW",
      "altitude": 7,
      "modifier": null
    },
    {
      "repr": "SCT070",
      "type": "SCT",
      "altitude": 70,
      "modifier": null
    },
    {
      "repr": "SCT190",
      "type": "SCT",
      "altitude": 190,
      "modifier": null
    }
  ],
  "flight_rules": "VFR",
  "other": [],
  "visibility": {
    "repr": "10",
    "value": 10,
    "spoken": "one zero"
  },
  "wind_direction": {
    "repr": "230",
    "value": 230,
    "spoken": "two three zero"
  },
  "wind_gust": null,
  "wind_speed": {
    "repr": "12",
    "value": 12,
    "spoken": "one two"
  },
  "wx_codes": [],
  "raw": "KNUW 301053Z 23012KT 10SM FEW007 SCT070 SCT190 12/11 A3009 RMK AO2 SLP193 T01220111 VISNO $",
  "sanitized": "KNUW 301053Z 23012KT 10SM FEW007 SCT070 SCT190 12/11 A3009 RMK AO2 SLP193 T01220111 VISNO $",
  "station": "KNUW",
  "time": {
    "repr": "301053Z",
    "dt": "2023-06-30T10:53:00Z"
  },
  "remarks": "RMK AO2 SLP193 T01220111 VISNO $",
  "dewpoint": {
    "repr": "11",
    "value": 11,
    "spoken": "one one"
  },
  "relative_humidity": 0.9298790264187491,
  "remarks_info": {
    "maximum_temperature_6": null,
    "minimum_temperature_6": null,
    "pressure_tendency": null,
    "precip_36_hours": null,
    "precip_24_hours": null,
    "sunshine_minutes": null,
    "codes": [
      {
        "repr": "$",
        "value": "ASOS requires maintenance"
      },
      {
        "repr": "AO2",
        "value": "Automated with precipitation sensor"
      }
    ],
    "dewpoint_decimal": {
      "repr": "0111",
      "value": 11.1,
      "spoken": "one one point one"
    },
    "maximum_temperature_24": null,
    "minimum_temperature_24": null,
    "precip_hourly": null,
    "sea_level_pressure": {
      "repr": "SLP193",
      "value": 1019.3,
      "spoken": "one zero one nine point three"
    },
    "snow_depth": null,
    "temperature_decimal": {
      "repr": "0122",
      "value": 12.2,
      "spoken": "one two point two"
    }
  },
  "runway_visibility": [],
  "temperature": {
    "repr": "12",
    "value": 12,
    "spoken": "one two"
  },
  "wind_variable_direction": [],
  "density_altitude": -448,
  "pressure_altitude": -123,
  "units": {
    "accumulation": "in",
    "altimeter": "inHg",
    "altitude": "ft",
    "temperature": "C",
    "visibility": "sm",
    "wind_speed": "kt"
  }
}
