{
  "meta": {
    "timestamp": "2022-12-27T17:01:18.494814Z",
    "stations_updated": "2022-09-05"
  },
  "altimeter": {
    "repr": "A2888",
    "value": 28.88,
    "spoken": "two eight point eight eight"
  },
  "clouds": [
    {
      "repr": "SCT025",
      "type": "SCT",
      "altitude": 25,
      "modifier": null
    },
    {
      "repr": "BKN065",
      "type": "BKN",
      "altitude": 65,
      "modifier": null
    },
    {
      "repr": "OVC110",
      "type": "OVC",
      "altitude": 110,
      "modifier": null
    }
  ],
  "flight_rules": "VFR",
  "other": [],
  "visibility": {
    "repr": "10",
    "value": 10,
    "spoken": "one zero"
  },
  "wind_direction": {
    "repr": "140",
    "value": 140,
    "spoken": "one four zero"
  },
  "wind_gust": {
    "repr": "30",
    "value": 30,
    "spoken": "three zero"
  },
  "wind_speed": {
    "repr": "23",
    "value": 23,
    "spoken": "two three"
  },
  "wx_codes": [],
  "raw": "KNUW 271653Z 14023G30KT 10SM SCT025 BKN065 OVC110 11/09 A2888 RMK AO2 PK WND 13032/1611 RAE40 SLP780 P0000 T01110089 VISNO $",
  "sanitized": "KNUW 271653Z 14023G30KT 10SM SCT025 BKN065 OVC110 11/09 A2888 RMK AO2 PK WND 13032/1611 RAE40 SLP780 P0000 T01110089 VISNO $",
  "station": "KNUW",
  "time": {
    "repr": "271653Z",
    "dt": "2022-12-27T16:53:00Z"
  },
  "remarks": "RMK AO2 PK WND 13032/1611 RAE40 SLP780 P0000 T01110089 VISNO $",
  "dewpoint": {
    "repr": "09",
    "value": 9,
    "spoken": "nine"
  },
  "relative_humidity": 0.8630327743847583,
  "remarks_info": {
    "maximum_temperature_6": null,
    "minimum_temperature_6": null,
    "pressure_tendency": null,
    "precip_36_hours": null,
    "precip_24_hours": null,
    "sunshine_minutes": null,
    "codes": [
      {
        "repr": "$",
        "value": "ASOS requires maintenance"
      },
      {
        "repr": "AO2",
        "value": "Automated with precipitation sensor"
      },
      {
        "repr": "P0000",
        "value": "Trace amount of rain in the last hour"
      },
      {
        "repr": "RAE40",
        "value": "Rain ended at :40"
      }
    ],
    "dewpoint_decimal": {
      "repr": "0089",
      "value": 8.9,
      "spoken": "eight point nine"
    },
    "maximum_temperature_24": null,
    "minimum_temperature_24": null,
    "precip_hourly": null,
    "sea_level_pressure": {
      "repr": "SLP780",
      "value": 978,
      "spoken": "nine seven eight point zero"
    },
    "snow_depth": null,
    "temperature_decimal": {
      "repr": "0111",
      "value": 11.1,
      "spoken": "one one point one"
    }
  },
  "runway_visibility": [],
  "temperature": {
    "repr": "11",
    "value": 11,
    "spoken": "one one"
  },
  "wind_variable_direction": [],
  "density_altitude": 630,
  "pressure_altitude": 1087,
  "units": {
    "accumulation": "in",
    "altimeter": "inHg",
    "altitude": "ft",
    "temperature": "C",
    "visibility": "sm",
    "wind_speed": "kt"
  }
}
