{
  "meta": {
    "timestamp": "2023-06-02T00:31:59.664117Z",
    "stations_updated": "2023-05-30"
  },
  "altimeter": {
    "repr": "A3006",
    "value": 30.06,
    "spoken": "three zero point zero six"
  },
  "clouds": [
    {
      "repr": "FEW040",
      "type": "FEW",
      "altitude": 40,
      "modifier": null
    },
    {
      "repr": "FEW060",
      "type": "FEW",
      "altitude": 60,
      "modifier": null
    }
  ],
  "flight_rules": "VFR",
  "other": [],
  "visibility": {
    "repr": "10",
    "value": 10,
    "spoken": "one zero"
  },
  "wind_direction": {
    "repr": "270",
    "value": 270,
    "spoken": "two seven zero"
  },
  "wind_gust": null,
  "wind_speed": {
    "repr": "09",
    "value": 9,
    "spoken": "nine"
  },
  "wx_codes": [],
  "raw": "KNUW 012353Z COR 27009KT 10SM FEW040 FEW060 14/09 A3006 RMK AO2 SLP182 T01390094 10156 20128 56006 $",
  "sanitized": "KNUW 012353Z 27009KT 10SM FEW040 FEW060 14/09 A3006 RMK AO2 SLP182 T01390094 10156 20128 56006 $",
  "station": "KNUW",
  "time": {
    "repr": "012353Z",
    "dt": "2023-06-01T23:53:00Z"
  },
  "remarks": "RMK AO2 SLP182 T01390094 10156 20128 56006 $",
  "dewpoint": {
    "repr": "09",
    "value": 9,
    "spoken": "nine"
  },
  "relative_humidity": 0.7427215782230824,
  "remarks_info": {
    "maximum_temperature_6": {
      "repr": "10156",
      "value": 15.6,
      "spoken": "one five point six"
    },
    "minimum_temperature_6": {
      "repr": "20128",
      "value": 12.8,
      "spoken": "one two point eight"
    },
    "pressure_tendency": {
      "repr": "56006",
      "tendency": "Decreasing, then steady",
      "change": 0.6
    },
    "precip_36_hours": null,
    "precip_24_hours": null,
    "sunshine_minutes": null,
    "codes": [
      {
        "repr": "$",
        "value": "ASOS requires maintenance"
      },
      {
        "repr": "AO2",
        "value": "Automated with precipitation sensor"
      }
    ],
    "dewpoint_decimal": {
      "repr": "0094",
      "value": 9.4,
      "spoken": "nine point four"
    },
    "maximum_temperature_24": null,
    "minimum_temperature_24": null,
    "precip_hourly": null,
    "sea_level_pressure": {
      "repr": "SLP182",
      "value": 1018.2,
      "spoken": "one zero one eight point two"
    },
    "snow_depth": null,
    "temperature_decimal": {
      "repr": "0139",
      "value": 13.9,
      "spoken": "one three point nine"
    }
  },
  "runway_visibility": [],
  "temperature": {
    "repr": "14",
    "value": 14,
    "spoken": "one four"
  },
  "wind_variable_direction": [],
  "density_altitude": -214,
  "pressure_altitude": -93,
  "units": {
    "accumulation": "in",
    "altimeter": "inHg",
    "altitude": "ft",
    "temperature": "C",
    "visibility": "sm",
    "wind_speed": "kt"
  }
}
