{
  "meta": {
    "timestamp": "2022-12-02T09:26:12.248482Z",
    "stations_updated": "2022-09-05"
  },
  "altimeter": {
    "repr": "A3003",
    "value": 30.03,
    "spoken": "three zero point zero three"
  },
  "clouds": [
    {
      "repr": "FEW018",
      "type": "FEW",
      "altitude": 18,
      "modifier": null
    },
    {
      "repr": "BKN080",
      "type": "BKN",
      "altitude": 80,
      "modifier": null
    }
  ],
  "flight_rules": "VFR",
  "other": [],
  "visibility": {
    "repr": "10",
    "value": 10,
    "spoken": "one zero"
  },
  "wind_direction": {
    "repr": "100",
    "value": 100,
    "spoken": "one zero zero"
  },
  "wind_gust": null,
  "wind_speed": {
    "repr": "08",
    "value": 8,
    "spoken": "eight"
  },
  "wx_codes": [],
  "raw": "KNUW 020853Z 10008KT 10SM FEW018 BKN080 M01/M04 A3003 RMK AO2 SLP168 T10111044 53017 VISNO $",
  "sanitized": "KNUW 020853Z 10008KT 10SM FEW018 BKN080 M01/M04 A3003 RMK AO2 SLP168 T10111044 53017 VISNO $",
  "station": "KNUW",
  "time": {
    "repr": "020853Z",
    "dt": "2022-12-02T08:53:00Z"
  },
  "remarks": "RMK AO2 SLP168 T10111044 53017 VISNO $",
  "dewpoint": {
    "repr": "M04",
    "value": -4,
    "spoken": "minus four"
  },
  "relative_humidity": 0.7827172638452038,
  "remarks_info": {
    "maximum_temperature_6": null,
    "minimum_temperature_6": null,
    "pressure_tendency": {
      "repr": "53017",
      "tendency": "Decreasing or steady, then increasing",
      "change": 1.7
    },
    "precip_36_hours": null,
    "precip_24_hours": null,
    "sunshine_minutes": null,
    "codes": [
      {
        "repr": "$",
        "value": "ASOS requires maintenance"
      },
      {
        "repr": "AO2",
        "value": "Automated with precipitation sensor"
      }
    ],
    "dewpoint_decimal": {
      "repr": "1044",
      "value": -4.4,
      "spoken": "minus four point four"
    },
    "maximum_temperature_24": null,
    "minimum_temperature_24": null,
    "precip_hourly": null,
    "sea_level_pressure": {
      "repr": "SLP168",
      "value": 1016.8,
      "spoken": "one zero one six point eight"
    },
    "snow_depth": null,
    "temperature_decimal": {
      "repr": "1011",
      "value": -1.1,
      "spoken": "minus one point one"
    }
  },
  "runway_visibility": [],
  "temperature": {
    "repr": "M01",
    "value": -1,
    "spoken": "minus one"
  },
  "wind_variable_direction": [],
  "density_altitude": -1984,
  "pressure_altitude": -63,
  "units": {
    "accumulation": "in",
    "altimeter": "inHg",
    "altitude": "ft",
    "temperature": "C",
    "visibility": "sm",
    "wind_speed": "kt"
  }
}
