{
  "meta": {
    "timestamp": "2023-02-12T06:42:26.346573Z",
    "stations_updated": "2023-01-30",
    "cache-timestamp": "2023-02-12T06:42:06.245000Z"
  },
  "altimeter": {
    "repr": "A3034",
    "value": 30.34,
    "spoken": "three zero point three four"
  },
  "clouds": [
    {
      "repr": "BKN100",
      "type": "BKN",
      "altitude": 100,
      "modifier": null
    },
    {
      "repr": "OVC200",
      "type": "OVC",
      "altitude": 200,
      "modifier": null
    }
  ],
  "flight_rules": "VFR",
  "other": [],
  "visibility": {
    "repr": "8",
    "value": 8,
    "spoken": "eight"
  },
  "wind_direction": {
    "repr": "110",
    "value": 110,
    "spoken": "one one zero"
  },
  "wind_gust": null,
  "wind_speed": {
    "repr": "05",
    "value": 5,
    "spoken": "five"
  },
  "wx_codes": [],
  "raw": "KNUW 120553Z 11005KT 8SM BKN100 OVC200 02/01 A3034 RMK SLP273 T00170006 10072 20006 53006",
  "sanitized": "KNUW 120553Z 11005KT 8SM BKN100 OVC200 02/01 A3034 RMK SLP273 T00170006 10072 20006 53006",
  "station": "KNUW",
  "time": {
    "repr": "120553Z",
    "dt": "2023-02-12T05:53:00Z"
  },
  "remarks": "RMK SLP273 T00170006 10072 20006 53006",
  "dewpoint": {
    "repr": "01",
    "value": 1,
    "spoken": "one"
  },
  "relative_humidity": 0.9239704971399328,
  "remarks_info": {
    "maximum_temperature_6": {
      "repr": "10072",
      "value": 7.2,
      "spoken": "seven point two"
    },
    "minimum_temperature_6": {
      "repr": "20006",
      "value": 0.6,
      "spoken": "zero point six"
    },
    "pressure_tendency": {
      "repr": "53006",
      "tendency": "Decreasing or steady, then increasing",
      "change": 0.6
    },
    "precip_36_hours": null,
    "precip_24_hours": null,
    "sunshine_minutes": null,
    "codes": [],
    "dewpoint_decimal": {
      "repr": "0006",
      "value": 0.6,
      "spoken": "zero point six"
    },
    "maximum_temperature_24": null,
    "minimum_temperature_24": null,
    "precip_hourly": null,
    "sea_level_pressure": {
      "repr": "SLP273",
      "value": 1027.3,
      "spoken": "one zero two seven point three"
    },
    "snow_depth": null,
    "temperature_decimal": {
      "repr": "0017",
      "value": 1.7,
      "spoken": "one point seven"
    }
  },
  "runway_visibility": [],
  "temperature": {
    "repr": "02",
    "value": 2,
    "spoken": "two"
  },
  "wind_variable_direction": [],
  "density_altitude": -1958,
  "pressure_altitude": -373,
  "units": {
    "accumulation": "in",
    "altimeter": "inHg",
    "altitude": "ft",
    "temperature": "C",
    "visibility": "sm",
    "wind_speed": "kt"
  }
}
