{
  "meta": {
    "timestamp": "2023-09-03T13:22:07.651249Z",
    "stations_updated": "2023-08-05",
    "cache-timestamp": "2023-09-03T13:22:05.887000Z"
  },
  "altimeter": {
    "repr": "A2991",
    "value": 29.91,
    "spoken": "two nine point nine one"
  },
  "clouds": [
    {
      "repr": "FEW010",
      "type": "FEW",
      "altitude": 10,
      "modifier": null
    },
    {
      "repr": "SCT110",
      "type": "SCT",
      "altitude": 110,
      "modifier": null
    },
    {
      "repr": "BKN250",
      "type": "BKN",
      "altitude": 250,
      "modifier": null
    }
  ],
  "flight_rules": "VFR",
  "other": [],
  "visibility": {
    "repr": "10",
    "value": 10,
    "spoken": "one zero"
  },
  "wind_direction": {
    "repr": "140",
    "value": 140,
    "spoken": "one four zero"
  },
  "wind_gust": null,
  "wind_speed": {
    "repr": "09",
    "value": 9,
    "spoken": "nine"
  },
  "wx_codes": [],
  "raw": "KNUW 031253Z 14009KT 10SM FEW010 SCT110 BKN250 16/14 A2991 RMK AO2 SLP133 T01610139 $",
  "sanitized": "KNUW 031253Z 14009KT 10SM FEW010 SCT110 BKN250 16/14 A2991 RMK AO2 SLP133 T01610139 $",
  "station": "KNUW",
  "time": {
    "repr": "031253Z",
    "dt": "2023-09-03T12:53:00Z"
  },
  "remarks": "RMK AO2 SLP133 T01610139 $",
  "dewpoint": {
    "repr": "14",
    "value": 14,
    "spoken": "one four"
  },
  "relative_humidity": 0.8679169411495125,
  "remarks_info": {
    "maximum_temperature_6": null,
    "minimum_temperature_6": null,
    "pressure_tendency": null,
    "precip_36_hours": null,
    "precip_24_hours": null,
    "sunshine_minutes": null,
    "codes": [
      {
        "repr": "$",
        "value": "ASOS requires maintenance"
      },
      {
        "repr": "AO2",
        "value": "Automated with precipitation sensor"
      }
    ],
    "dewpoint_decimal": {
      "repr": "0139",
      "value": 13.9,
      "spoken": "one three point nine"
    },
    "maximum_temperature_24": null,
    "minimum_temperature_24": null,
    "precip_hourly": null,
    "sea_level_pressure": {
      "repr": "SLP133",
      "value": 1013.3,
      "spoken": "one zero one three point three"
    },
    "snow_depth": null,
    "temperature_decimal": {
      "repr": "0161",
      "value": 16.1,
      "spoken": "one six point one"
    }
  },
  "runway_visibility": [],
  "temperature": {
    "repr": "16",
    "value": 16,
    "spoken": "one six"
  },
  "wind_variable_direction": [],
  "density_altitude": 200,
  "pressure_altitude": 57,
  "units": {
    "accumulation": "in",
    "altimeter": "inHg",
    "altitude": "ft",
    "temperature": "C",
    "visibility": "sm",
    "wind_speed": "kt"
  }
}
