{
  "meta": {
    "timestamp": "2022-11-11T06:44:41.417573Z",
    "stations_updated": "2022-09-05"
  },
  "altimeter": {
    "repr": "A3033",
    "value": 30.33,
    "spoken": "three zero point three three"
  },
  "clouds": [
    {
      "repr": "FEW050",
      "type": "FEW",
      "altitude": 50,
      "modifier": null
    },
    {
      "repr": "FEW150",
      "type": "FEW",
      "altitude": 150,
      "modifier": null
    },
    {
      "repr": "OVC250",
      "type": "OVC",
      "altitude": 250,
      "modifier": null
    }
  ],
  "flight_rules": "VFR",
  "other": [],
  "visibility": {
    "repr": "10",
    "value": 10,
    "spoken": "one zero"
  },
  "wind_direction": {
    "repr": "000",
    "value": 0,
    "spoken": "zero zero zero"
  },
  "wind_gust": null,
  "wind_speed": {
    "repr": "00",
    "value": 0,
    "spoken": "zero"
  },
  "wx_codes": [],
  "raw": "KNUW 110553Z 00000KT 10SM FEW050 FEW150 OVC250 01/M03 A3033 RMK AO2 SLP270 T00061028 10067 20000 58011 VISNO $",
  "sanitized": "KNUW 110553Z 00000KT 10SM FEW050 FEW150 OVC250 01/M03 A3033 RMK AO2 SLP270 T00061028 10067 20000 58011 VISNO $",
  "station": "KNUW",
  "time": {
    "repr": "110553Z",
    "dt": "2022-11-11T05:53:00Z"
  },
  "remarks": "RMK AO2 SLP270 T00061028 10067 20000 58011 VISNO $",
  "dewpoint": {
    "repr": "M03",
    "value": -3,
    "spoken": "minus three"
  },
  "relative_humidity": 0.7795928388776707,
  "remarks_info": {
    "maximum_temperature_6": {
      "repr": "10067",
      "value": 6.7,
      "spoken": "six point seven"
    },
    "minimum_temperature_6": {
      "repr": "20000",
      "value": 0,
      "spoken": "zero"
    },
    "pressure_tendency": {
      "repr": "58011",
      "tendency": "Steady or increasing, then decreasing",
      "change": 1.1
    },
    "precip_36_hours": null,
    "precip_24_hours": null,
    "sunshine_minutes": null,
    "codes": [
      {
        "repr": "$",
        "value": "ASOS requires maintenance"
      },
      {
        "repr": "AO2",
        "value": "Automated with precipitation sensor"
      }
    ],
    "dewpoint_decimal": {
      "repr": "1028",
      "value": -2.8,
      "spoken": "minus two point eight"
    },
    "maximum_temperature_24": null,
    "minimum_temperature_24": null,
    "precip_hourly": null,
    "sea_level_pressure": {
      "repr": "SLP270",
      "value": 1027,
      "spoken": "one zero two seven point zero"
    },
    "snow_depth": null,
    "temperature_decimal": {
      "repr": "0006",
      "value": 0.6,
      "spoken": "zero point six"
    }
  },
  "runway_visibility": [],
  "temperature": {
    "repr": "01",
    "value": 1,
    "spoken": "one"
  },
  "wind_variable_direction": [],
  "density_altitude": -2080,
  "pressure_altitude": -363,
  "units": {
    "accumulation": "in",
    "altimeter": "inHg",
    "altitude": "ft",
    "temperature": "C",
    "visibility": "sm",
    "wind_speed": "kt"
  }
}
