{
  "meta": {
    "timestamp": "2022-08-03T14:28:31.587068Z",
    "stations_updated": "2022-07-17"
  },
  "altimeter": {
    "repr": "A3001",
    "value": 30.01,
    "spoken": "three zero point zero one"
  },
  "clouds": [
    {
      "repr": "BKN007",
      "type": "BKN",
      "altitude": 7,
      "modifier": null
    },
    {
      "repr": "OVC020",
      "type": "OVC",
      "altitude": 20,
      "modifier": null
    }
  ],
  "flight_rules": "IFR",
  "other": [],
  "visibility": {
    "repr": "10",
    "value": 10,
    "spoken": "one zero"
  },
  "wind_direction": {
    "repr": "210",
    "value": 210,
    "spoken": "two one zero"
  },
  "wind_gust": null,
  "wind_speed": {
    "repr": "03",
    "value": 3,
    "spoken": "three"
  },
  "wx_codes": [],
  "raw": "KNUW 031353Z 21003KT 10SM BKN007 OVC020 12/11 A3001 RMK SLP163 T01220111",
  "sanitized": "KNUW 031353Z 21003KT 10SM BKN007 OVC020 12/11 A3001 RMK SLP163 T01220111",
  "station": "KNUW",
  "time": {
    "repr": "031353Z",
    "dt": "2022-08-03T13:53:00Z"
  },
  "remarks": "RMK SLP163 T01220111",
  "dewpoint": {
    "repr": "11",
    "value": 11,
    "spoken": "one one"
  },
  "relative_humidity": 0.9298790264187491,
  "remarks_info": {
    "maximum_temperature_6": null,
    "minimum_temperature_6": null,
    "pressure_tendency": null,
    "precip_36_hours": null,
    "precip_24_hours": null,
    "sunshine_minutes": null,
    "codes": [],
    "dewpoint_decimal": {
      "repr": "0111",
      "value": 11.1,
      "spoken": "one one point one"
    },
    "maximum_temperature_24": null,
    "minimum_temperature_24": null,
    "precip_hourly": null,
    "sea_level_pressure": {
      "repr": "SLP163",
      "value": 1016.3,
      "spoken": "one zero one six point three"
    },
    "snow_depth": null,
    "temperature_decimal": {
      "repr": "0122",
      "value": 12.2,
      "spoken": "one two point two"
    }
  },
  "runway_visibility": [],
  "temperature": {
    "repr": "12",
    "value": 12,
    "spoken": "one two"
  },
  "wind_variable_direction": [],
  "density_altitude": -368,
  "pressure_altitude": -43,
  "units": {
    "accumulation": "in",
    "altimeter": "inHg",
    "altitude": "ft",
    "temperature": "C",
    "visibility": "sm",
    "wind_speed": "kt"
  }
}
