{
  "meta": {
    "timestamp": "2022-11-05T10:33:33.217257Z",
    "stations_updated": "2022-09-05"
  },
  "altimeter": {
    "repr": "A2969",
    "value": 29.69,
    "spoken": "two nine point six nine"
  },
  "clouds": [
    {
      "repr": "FEW026",
      "type": "FEW",
      "altitude": 26,
      "modifier": null
    },
    {
      "repr": "SCT150",
      "type": "SCT",
      "altitude": 150,
      "modifier": null
    }
  ],
  "flight_rules": "VFR",
  "other": [],
  "visibility": {
    "repr": "9",
    "value": 9,
    "spoken": "nine"
  },
  "wind_direction": {
    "repr": "270",
    "value": 270,
    "spoken": "two seven zero"
  },
  "wind_gust": {
    "repr": "41",
    "value": 41,
    "spoken": "four one"
  },
  "wind_speed": {
    "repr": "29",
    "value": 29,
    "spoken": "two nine"
  },
  "wx_codes": [],
  "raw": "KNUW 050953Z 27029G41KT 9SM FEW026 SCT150 09/04 A2969 RMK AO2 PK WND 26044/0909 SLP054 T00890039 VISNO",
  "sanitized": "KNUW 050953Z 27029G41KT 9SM FEW026 SCT150 09/04 A2969 RMK AO2 PK WND 26044/0909 SLP054 T00890039 VISNO",
  "station": "KNUW",
  "time": {
    "repr": "050953Z",
    "dt": "2022-11-05T09:53:00Z"
  },
  "remarks": "RMK AO2 PK WND 26044/0909 SLP054 T00890039 VISNO",
  "dewpoint": {
    "repr": "04",
    "value": 4,
    "spoken": "four"
  },
  "relative_humidity": 0.7085592369885465,
  "remarks_info": {
    "maximum_temperature_6": null,
    "minimum_temperature_6": null,
    "pressure_tendency": null,
    "precip_36_hours": null,
    "precip_24_hours": null,
    "sunshine_minutes": null,
    "codes": [
      {
        "repr": "AO2",
        "value": "Automated with precipitation sensor"
      }
    ],
    "dewpoint_decimal": {
      "repr": "0039",
      "value": 3.9,
      "spoken": "three point nine"
    },
    "maximum_temperature_24": null,
    "minimum_temperature_24": null,
    "precip_hourly": null,
    "sea_level_pressure": {
      "repr": "SLP054",
      "value": 1005.4,
      "spoken": "one zero zero five point four"
    },
    "snow_depth": null,
    "temperature_decimal": {
      "repr": "0089",
      "value": 8.9,
      "spoken": "eight point nine"
    }
  },
  "runway_visibility": [],
  "temperature": {
    "repr": "09",
    "value": 9,
    "spoken": "nine"
  },
  "wind_variable_direction": [],
  "density_altitude": -444,
  "pressure_altitude": 277,
  "units": {
    "accumulation": "in",
    "altimeter": "inHg",
    "altitude": "ft",
    "temperature": "C",
    "visibility": "sm",
    "wind_speed": "kt"
  }
}
