{
  "altimeter": {
    "repr": "A3061",
    "spoken": "three zero point six one",
    "value": 30.61
  },
  "clouds": [],
  "density_altitude": -2636,
  "dewpoint": {
    "repr": "M06",
    "spoken": "minus six",
    "value": -6
  },
  "flight_rules": "VFR",
  "meta": {
    "stations_updated": "2024-12-02",
    "timestamp": "2025-01-20T14:30:13.374944Z"
  },
  "other": [],
  "pressure_altitude": -643,
  "raw": "KNUW 201353Z AUTO 10004KT 10SM CLR M02/M06 A3061 RMK AO2 SLP368 T10171056 $",
  "relative_humidity": 0.7469861004869652,
  "remarks": "RMK AO2 SLP368 T10171056 $",
  "remarks_info": {
    "codes": [
      {
        "repr": "$",
        "value": "ASOS requires maintenance"
      },
      {
        "repr": "AO2",
        "value": "Automated with precipitation sensor"
      }
    ],
    "dewpoint_decimal": {
      "repr": "1056",
      "spoken": "minus five point six",
      "value": -5.6
    },
    "maximum_temperature_24": null,
    "maximum_temperature_6": null,
    "minimum_temperature_24": null,
    "minimum_temperature_6": null,
    "precip_24_hours": null,
    "precip_36_hours": null,
    "precip_hourly": null,
    "pressure_tendency": null,
    "sea_level_pressure": {
      "repr": "SLP368",
      "spoken": "one zero three six point eight",
      "value": 1036.8
    },
    "snow_depth": null,
    "sunshine_minutes": null,
    "temperature_decimal": {
      "repr": "1017",
      "spoken": "minus one point seven",
      "value": -1.7
    }
  },
  "runway_visibility": [],
  "sanitized": "KNUW 201353Z 10004KT 10SM M02/M06 A3061 RMK AO2 SLP368 T10171056 $",
  "station": "KNUW",
  "temperature": {
    "repr": "M02",
    "spoken": "minus two",
    "value": -2
  },
  "time": {
    "dt": "2025-01-20T13:53:00Z",
    "repr": "201353Z"
  },
  "units": {
    "accumulation": "in",
    "altimeter": "inHg",
    "altitude": "ft",
    "temperature": "C",
    "visibility": "sm",
    "wind_speed": "kt"
  },
  "visibility": {
    "repr": "10",
    "spoken": "one zero",
    "value": 10
  },
  "wind_direction": {
    "repr": "100",
    "spoken": "one zero zero",
    "value": 100
  },
  "wind_gust": null,
  "wind_speed": {
    "repr": "04",
    "spoken": "four",
    "value": 4
  },
  "wind_variable_direction": [],
  "wx_codes": []
}
