{
  "altimeter": {
    "repr": "A3002",
    "spoken": "three zero point zero two",
    "value": 30.02
  },
  "clouds": [
    {
      "altitude": 5,
      "modifier": null,
      "repr": "SCT005",
      "type": "SCT"
    },
    {
      "altitude": 17,
      "modifier": null,
      "repr": "BKN017",
      "type": "BKN"
    },
    {
      "altitude": 23,
      "modifier": null,
      "repr": "OVC023",
      "type": "OVC"
    }
  ],
  "density_altitude": -438,
  "dewpoint": {
    "repr": "12",
    "spoken": "one two",
    "value": 12
  },
  "flight_rules": "MVFR",
  "meta": {
    "stations_updated": "2024-06-12",
    "timestamp": "2024-09-18T15:29:17.158655Z"
  },
  "other": [],
  "pressure_altitude": -53,
  "raw": "KNUW 181453Z 00000KT 6SM BR SCT005 BKN017 OVC023 12/12 A3002 RMK AO2 SLP168 T01170117 53012",
  "relative_humidity": 1,
  "remarks": "RMK AO2 SLP168 T01170117 53012",
  "remarks_info": {
    "codes": [
      {
        "repr": "AO2",
        "value": "Automated with precipitation sensor"
      }
    ],
    "dewpoint_decimal": {
      "repr": "0117",
      "spoken": "one one point seven",
      "value": 11.7
    },
    "maximum_temperature_24": null,
    "maximum_temperature_6": null,
    "minimum_temperature_24": null,
    "minimum_temperature_6": null,
    "precip_24_hours": null,
    "precip_36_hours": null,
    "precip_hourly": null,
    "pressure_tendency": {
      "change": 1.2,
      "repr": "53012",
      "tendency": "Decreasing or steady, then increasing"
    },
    "sea_level_pressure": {
      "repr": "SLP168",
      "spoken": "one zero one six point eight",
      "value": 1016.8
    },
    "snow_depth": null,
    "sunshine_minutes": null,
    "temperature_decimal": {
      "repr": "0117",
      "spoken": "one one point seven",
      "value": 11.7
    }
  },
  "runway_visibility": [],
  "sanitized": "KNUW 181453Z 00000KT 6SM BR SCT005 BKN017 OVC023 12/12 A3002 RMK AO2 SLP168 T01170117 53012",
  "station": "KNUW",
  "temperature": {
    "repr": "12",
    "spoken": "one two",
    "value": 12
  },
  "time": {
    "dt": "2024-09-18T14:53:00Z",
    "repr": "181453Z"
  },
  "units": {
    "accumulation": "in",
    "altimeter": "inHg",
    "altitude": "ft",
    "temperature": "C",
    "visibility": "sm",
    "wind_speed": "kt"
  },
  "visibility": {
    "repr": "6",
    "spoken": "six",
    "value": 6
  },
  "wind_direction": {
    "repr": "000",
    "spoken": "zero zero zero",
    "value": 0
  },
  "wind_gust": null,
  "wind_speed": {
    "repr": "00",
    "spoken": "zero",
    "value": 0
  },
  "wind_variable_direction": [],
  "wx_codes": [
    {
      "repr": "BR",
      "value": "Mist"
    }
  ]
}
