{
  "meta": {
    "timestamp": "2023-04-10T21:01:40.487111Z",
    "stations_updated": "2023-03-11"
  },
  "altimeter": {
    "repr": "A3004",
    "value": 30.04,
    "spoken": "three zero point zero four"
  },
  "clouds": [
    {
      "repr": "SCT019",
      "type": "SCT",
      "altitude": 19,
      "modifier": null
    },
    {
      "repr": "BKN043",
      "type": "BKN",
      "altitude": 43,
      "modifier": null
    },
    {
      "repr": "OVC055",
      "type": "OVC",
      "altitude": 55,
      "modifier": null
    }
  ],
  "flight_rules": "VFR",
  "other": [],
  "visibility": {
    "repr": "10",
    "value": 10,
    "spoken": "one zero"
  },
  "wind_direction": {
    "repr": "180",
    "value": 180,
    "spoken": "one eight zero"
  },
  "wind_gust": null,
  "wind_speed": {
    "repr": "05",
    "value": 5,
    "spoken": "five"
  },
  "wx_codes": [],
  "raw": "KNUW 102053Z 18005KT 10SM SCT019 BKN043 OVC055 08/06 A3004 RMK AO2 SLP176 60001 T00830056 56011 VISNO $",
  "sanitized": "KNUW 102053Z 18005KT 10SM SCT019 BKN043 OVC055 08/06 A3004 RMK AO2 SLP176 60001 T00830056 56011 VISNO $",
  "station": "KNUW",
  "time": {
    "repr": "102053Z",
    "dt": "2023-04-10T20:53:00Z"
  },
  "remarks": "RMK AO2 SLP176 60001 T00830056 56011 VISNO $",
  "dewpoint": {
    "repr": "06",
    "value": 6,
    "spoken": "six"
  },
  "relative_humidity": 0.8309278587907312,
  "remarks_info": {
    "maximum_temperature_6": null,
    "minimum_temperature_6": null,
    "pressure_tendency": {
      "repr": "56011",
      "tendency": "Decreasing, then steady",
      "change": 1.1
    },
    "precip_36_hours": {
      "repr": "60001",
      "value": 0.01,
      "spoken": "zero point zero one"
    },
    "precip_24_hours": null,
    "sunshine_minutes": null,
    "codes": [
      {
        "repr": "$",
        "value": "ASOS requires maintenance"
      },
      {
        "repr": "AO2",
        "value": "Automated with precipitation sensor"
      }
    ],
    "dewpoint_decimal": {
      "repr": "0056",
      "value": 5.6,
      "spoken": "five point six"
    },
    "maximum_temperature_24": null,
    "minimum_temperature_24": null,
    "precip_hourly": null,
    "sea_level_pressure": {
      "repr": "SLP176",
      "value": 1017.6,
      "spoken": "one zero one seven point six"
    },
    "snow_depth": null,
    "temperature_decimal": {
      "repr": "0083",
      "value": 8.3,
      "spoken": "eight point three"
    }
  },
  "runway_visibility": [],
  "temperature": {
    "repr": "08",
    "value": 8,
    "spoken": "eight"
  },
  "wind_variable_direction": [],
  "density_altitude": -866,
  "pressure_altitude": -73,
  "units": {
    "accumulation": "in",
    "altimeter": "inHg",
    "altitude": "ft",
    "temperature": "C",
    "visibility": "sm",
    "wind_speed": "kt"
  }
}
