{
  "meta": {
    "timestamp": "2022-12-04T08:30:35.196086Z",
    "stations_updated": "2022-09-05"
  },
  "altimeter": {
    "repr": "A3018",
    "value": 30.18,
    "spoken": "three zero point one eight"
  },
  "clouds": [
    {
      "repr": "FEW220",
      "type": "FEW",
      "altitude": 220,
      "modifier": null
    }
  ],
  "flight_rules": "VFR",
  "other": [],
  "visibility": {
    "repr": "10",
    "value": 10,
    "spoken": "one zero"
  },
  "wind_direction": {
    "repr": "000",
    "value": 0,
    "spoken": "zero zero zero"
  },
  "wind_gust": null,
  "wind_speed": {
    "repr": "00",
    "value": 0,
    "spoken": "zero"
  },
  "wx_codes": [],
  "raw": "KNUW 040753Z 00000KT 10SM FEW220 M03/M04 A3018 RMK AO2 SLP220 T10281044 400501039 VISNO $",
  "sanitized": "KNUW 040753Z 00000KT 10SM FEW220 M03/M04 A3018 RMK AO2 SLP220 T10281044 400501039 VISNO $",
  "station": "KNUW",
  "time": {
    "repr": "040753Z",
    "dt": "2022-12-04T07:53:00Z"
  },
  "remarks": "RMK AO2 SLP220 T10281044 400501039 VISNO $",
  "dewpoint": {
    "repr": "M04",
    "value": -4,
    "spoken": "minus four"
  },
  "relative_humidity": 0.8872584999260705,
  "remarks_info": {
    "maximum_temperature_6": null,
    "minimum_temperature_6": null,
    "pressure_tendency": null,
    "precip_36_hours": null,
    "precip_24_hours": null,
    "sunshine_minutes": null,
    "codes": [
      {
        "repr": "$",
        "value": "ASOS requires maintenance"
      },
      {
        "repr": "AO2",
        "value": "Automated with precipitation sensor"
      }
    ],
    "dewpoint_decimal": {
      "repr": "1044",
      "value": -4.4,
      "spoken": "minus four point four"
    },
    "maximum_temperature_24": {
      "repr": "0050",
      "value": 5,
      "spoken": "five point zero"
    },
    "minimum_temperature_24": {
      "repr": "1039",
      "value": -3.9,
      "spoken": "minus three point nine"
    },
    "precip_hourly": null,
    "sea_level_pressure": {
      "repr": "SLP220",
      "value": 1022,
      "spoken": "one zero two two point zero"
    },
    "snow_depth": null,
    "temperature_decimal": {
      "repr": "1028",
      "value": -2.8,
      "spoken": "minus two point eight"
    }
  },
  "runway_visibility": [],
  "temperature": {
    "repr": "M03",
    "value": -3,
    "spoken": "minus three"
  },
  "wind_variable_direction": [],
  "density_altitude": -2338,
  "pressure_altitude": -213,
  "units": {
    "accumulation": "in",
    "altimeter": "inHg",
    "altitude": "ft",
    "temperature": "C",
    "visibility": "sm",
    "wind_speed": "kt"
  }
}
