{
  "meta": {
    "timestamp": "2023-01-24T23:01:46.586316Z",
    "stations_updated": "2023-01-16"
  },
  "altimeter": {
    "repr": "A3061",
    "value": 30.61,
    "spoken": "three zero point six one"
  },
  "clouds": [
    {
      "repr": "SCT005",
      "type": "SCT",
      "altitude": 5,
      "modifier": null
    },
    {
      "repr": "BKN010",
      "type": "BKN",
      "altitude": 10,
      "modifier": null
    },
    {
      "repr": "OVC015",
      "type": "OVC",
      "altitude": 15,
      "modifier": null
    }
  ],
  "flight_rules": "MVFR",
  "other": [],
  "visibility": {
    "repr": "6",
    "value": 6,
    "spoken": "six"
  },
  "wind_direction": {
    "repr": "130",
    "value": 130,
    "spoken": "one three zero"
  },
  "wind_gust": null,
  "wind_speed": {
    "repr": "07",
    "value": 7,
    "spoken": "seven"
  },
  "wx_codes": [
    {
      "repr": "BR",
      "value": "Mist"
    }
  ],
  "raw": "KNUW 242153Z 13007KT 6SM BR SCT005 BKN010 OVC015 06/04 A3061 RMK SLP366 T00610044",
  "sanitized": "KNUW 242153Z 13007KT 6SM BR SCT005 BKN010 OVC015 06/04 A3061 RMK SLP366 T00610044",
  "station": "KNUW",
  "time": {
    "repr": "242153Z",
    "dt": "2023-01-24T21:53:00Z"
  },
  "remarks": "RMK SLP366 T00610044",
  "dewpoint": {
    "repr": "04",
    "value": 4,
    "spoken": "four"
  },
  "relative_humidity": 0.8885072425154702,
  "remarks_info": {
    "maximum_temperature_6": null,
    "minimum_temperature_6": null,
    "pressure_tendency": null,
    "precip_36_hours": null,
    "precip_24_hours": null,
    "sunshine_minutes": null,
    "codes": [],
    "dewpoint_decimal": {
      "repr": "0044",
      "value": 4.4,
      "spoken": "four point four"
    },
    "maximum_temperature_24": null,
    "minimum_temperature_24": null,
    "precip_hourly": null,
    "sea_level_pressure": {
      "repr": "SLP366",
      "value": 1036.6,
      "spoken": "one zero three six point six"
    },
    "snow_depth": null,
    "temperature_decimal": {
      "repr": "0061",
      "value": 6.1,
      "spoken": "six point one"
    }
  },
  "runway_visibility": [],
  "temperature": {
    "repr": "06",
    "value": 6,
    "spoken": "six"
  },
  "wind_variable_direction": [],
  "density_altitude": -1700,
  "pressure_altitude": -643,
  "units": {
    "accumulation": "in",
    "altimeter": "inHg",
    "altitude": "ft",
    "temperature": "C",
    "visibility": "sm",
    "wind_speed": "kt"
  }
}
