{
  "altimeter": {
    "repr": "A2965",
    "spoken": "two nine point six five",
    "value": 29.65
  },
  "clouds": [
    {
      "altitude": 26,
      "modifier": null,
      "repr": "BKN026",
      "type": "BKN"
    },
    {
      "altitude": 50,
      "modifier": null,
      "repr": "BKN050",
      "type": "BKN"
    },
    {
      "altitude": 80,
      "modifier": null,
      "repr": "OVC080",
      "type": "OVC"
    }
  ],
  "density_altitude": -800,
  "dewpoint": {
    "repr": "01",
    "spoken": "one",
    "value": 1
  },
  "flight_rules": "MVFR",
  "meta": {
    "stations_updated": "2024-01-01",
    "timestamp": "2024-03-04T02:49:39.537473Z"
  },
  "other": [],
  "pressure_altitude": 317,
  "raw": "KNUW 040153Z 15016KT 10SM BKN026 BKN050 OVC080 06/01 A2965 RMK AO2 PK WND 14027/0055 SLP044 T00560011 $",
  "relative_humidity": 0.7277675179367246,
  "remarks": "RMK AO2 PK WND 14027/0055 SLP044 T00560011 $",
  "remarks_info": {
    "codes": [
      {
        "repr": "$",
        "value": "ASOS requires maintenance"
      },
      {
        "repr": "AO2",
        "value": "Automated with precipitation sensor"
      }
    ],
    "dewpoint_decimal": {
      "repr": "0011",
      "spoken": "one point one",
      "value": 1.1
    },
    "maximum_temperature_24": null,
    "maximum_temperature_6": null,
    "minimum_temperature_24": null,
    "minimum_temperature_6": null,
    "precip_24_hours": null,
    "precip_36_hours": null,
    "precip_hourly": null,
    "pressure_tendency": null,
    "sea_level_pressure": {
      "repr": "SLP044",
      "spoken": "one zero zero four point four",
      "value": 1004.4
    },
    "snow_depth": null,
    "sunshine_minutes": null,
    "temperature_decimal": {
      "repr": "0056",
      "spoken": "five point six",
      "value": 5.6
    }
  },
  "runway_visibility": [],
  "sanitized": "KNUW 040153Z 15016KT 10SM BKN026 BKN050 OVC080 06/01 A2965 RMK AO2 PK WND 14027/0055 SLP044 T00560011 $",
  "station": "KNUW",
  "temperature": {
    "repr": "06",
    "spoken": "six",
    "value": 6
  },
  "time": {
    "dt": "2024-03-04T01:53:00Z",
    "repr": "040153Z"
  },
  "units": {
    "accumulation": "in",
    "altimeter": "inHg",
    "altitude": "ft",
    "temperature": "C",
    "visibility": "sm",
    "wind_speed": "kt"
  },
  "visibility": {
    "repr": "10",
    "spoken": "one zero",
    "value": 10
  },
  "wind_direction": {
    "repr": "150",
    "spoken": "one five zero",
    "value": 150
  },
  "wind_gust": null,
  "wind_speed": {
    "repr": "16",
    "spoken": "one six",
    "value": 16
  },
  "wind_variable_direction": [],
  "wx_codes": []
}
