{
  "altimeter": {
    "repr": "A3040",
    "spoken": "three zero point four zero",
    "value": 30.4
  },
  "clouds": [
    {
      "altitude": 18,
      "modifier": null,
      "repr": "BKN018",
      "type": "BKN"
    },
    {
      "altitude": 200,
      "modifier": null,
      "repr": "BKN200",
      "type": "BKN"
    }
  ],
  "density_altitude": -2090,
  "dewpoint": {
    "repr": "01",
    "spoken": "one",
    "value": 1
  },
  "flight_rules": "MVFR",
  "meta": {
    "cache-timestamp": "2023-11-25T15:40:02.847000Z",
    "stations_updated": "2023-10-28",
    "timestamp": "2023-11-25T15:40:32.854210Z"
  },
  "other": [],
  "pressure_altitude": -433,
  "raw": "KNUW 251453Z 12006KT 6SM BR BKN018 BKN200 01/01 A3040 RMK AO2 SLP297 T00110006 53003 $",
  "relative_humidity": 0.9646099922239331,
  "remarks": "RMK AO2 SLP297 T00110006 53003 $",
  "remarks_info": {
    "codes": [
      {
        "repr": "$",
        "value": "ASOS requires maintenance"
      },
      {
        "repr": "AO2",
        "value": "Automated with precipitation sensor"
      }
    ],
    "dewpoint_decimal": {
      "repr": "0006",
      "spoken": "zero point six",
      "value": 0.6
    },
    "maximum_temperature_24": null,
    "maximum_temperature_6": null,
    "minimum_temperature_24": null,
    "minimum_temperature_6": null,
    "precip_24_hours": null,
    "precip_36_hours": null,
    "precip_hourly": null,
    "pressure_tendency": {
      "change": 0.3,
      "repr": "53003",
      "tendency": "Decreasing or steady, then increasing"
    },
    "sea_level_pressure": {
      "repr": "SLP297",
      "spoken": "one zero two nine point seven",
      "value": 1029.7
    },
    "snow_depth": null,
    "sunshine_minutes": null,
    "temperature_decimal": {
      "repr": "0011",
      "spoken": "one point one",
      "value": 1.1
    }
  },
  "runway_visibility": [],
  "sanitized": "KNUW 251453Z 12006KT 6SM BR BKN018 BKN200 01/01 A3040 RMK AO2 SLP297 T00110006 53003 $",
  "station": "KNUW",
  "temperature": {
    "repr": "01",
    "spoken": "one",
    "value": 1
  },
  "time": {
    "dt": "2023-11-25T14:53:00Z",
    "repr": "251453Z"
  },
  "units": {
    "accumulation": "in",
    "altimeter": "inHg",
    "altitude": "ft",
    "temperature": "C",
    "visibility": "sm",
    "wind_speed": "kt"
  },
  "visibility": {
    "repr": "6",
    "spoken": "six",
    "value": 6
  },
  "wind_direction": {
    "repr": "120",
    "spoken": "one two zero",
    "value": 120
  },
  "wind_gust": null,
  "wind_speed": {
    "repr": "06",
    "spoken": "six",
    "value": 6
  },
  "wind_variable_direction": [],
  "wx_codes": [
    {
      "repr": "BR",
      "value": "Mist"
    }
  ]
}
