{
  "meta": {
    "timestamp": "2023-10-14T01:32:25.666239Z",
    "stations_updated": "2023-10-01",
    "cache-timestamp": "2023-10-14T01:32:16.367000Z"
  },
  "altimeter": {
    "repr": "A2976",
    "value": 29.76,
    "spoken": "two nine point seven six"
  },
  "clouds": [
    {
      "repr": "FEW055",
      "type": "FEW",
      "altitude": 55,
      "modifier": null
    },
    {
      "repr": "SCT080",
      "type": "SCT",
      "altitude": 80,
      "modifier": null
    },
    {
      "repr": "BKN100",
      "type": "BKN",
      "altitude": 100,
      "modifier": null
    },
    {
      "repr": "BKN200",
      "type": "BKN",
      "altitude": 200,
      "modifier": null
    }
  ],
  "flight_rules": "VFR",
  "other": [],
  "visibility": {
    "repr": "10",
    "value": 10,
    "spoken": "one zero"
  },
  "wind_direction": {
    "repr": "180",
    "value": 180,
    "spoken": "one eight zero"
  },
  "wind_gust": null,
  "wind_speed": {
    "repr": "04",
    "value": 4,
    "spoken": "four"
  },
  "wx_codes": [],
  "raw": "KNUW 140053Z 18004KT 10SM FEW055 SCT080 BKN100 BKN200 17/09 A2976 RMK AO2 SLP080 T01720089 $",
  "sanitized": "KNUW 140053Z 18004KT 10SM FEW055 SCT080 BKN100 BKN200 17/09 A2976 RMK AO2 SLP080 T01720089 $",
  "station": "KNUW",
  "time": {
    "repr": "140053Z",
    "dt": "2023-10-14T00:53:00Z"
  },
  "remarks": "RMK AO2 SLP080 T01720089 $",
  "dewpoint": {
    "repr": "09",
    "value": 9,
    "spoken": "nine"
  },
  "relative_humidity": 0.5811599569406913,
  "remarks_info": {
    "maximum_temperature_6": null,
    "minimum_temperature_6": null,
    "pressure_tendency": null,
    "precip_36_hours": null,
    "precip_24_hours": null,
    "sunshine_minutes": null,
    "codes": [
      {
        "repr": "$",
        "value": "ASOS requires maintenance"
      },
      {
        "repr": "AO2",
        "value": "Automated with precipitation sensor"
      }
    ],
    "dewpoint_decimal": {
      "repr": "0089",
      "value": 8.9,
      "spoken": "eight point nine"
    },
    "maximum_temperature_24": null,
    "minimum_temperature_24": null,
    "precip_hourly": null,
    "sea_level_pressure": {
      "repr": "SLP080",
      "value": 1008,
      "spoken": "one zero zero eight point zero"
    },
    "snow_depth": null,
    "temperature_decimal": {
      "repr": "0172",
      "value": 17.2,
      "spoken": "one seven point two"
    }
  },
  "runway_visibility": [],
  "temperature": {
    "repr": "17",
    "value": 17,
    "spoken": "one seven"
  },
  "wind_variable_direction": [],
  "density_altitude": 482,
  "pressure_altitude": 207,
  "units": {
    "accumulation": "in",
    "altimeter": "inHg",
    "altitude": "ft",
    "temperature": "C",
    "visibility": "sm",
    "wind_speed": "kt"
  }
}
