{
  "meta": {
    "timestamp": "2022-12-21T22:40:52.010020Z",
    "stations_updated": "2022-09-05"
  },
  "altimeter": {
    "repr": "A3058",
    "value": 30.58,
    "spoken": "three zero point five eight"
  },
  "clouds": [
    {
      "repr": "FEW025",
      "type": "FEW",
      "altitude": 25,
      "modifier": null
    },
    {
      "repr": "SCT060",
      "type": "SCT",
      "altitude": 60,
      "modifier": null
    },
    {
      "repr": "BKN200",
      "type": "BKN",
      "altitude": 200,
      "modifier": null
    }
  ],
  "flight_rules": "VFR",
  "other": [],
  "visibility": {
    "repr": "10",
    "value": 10,
    "spoken": "one zero"
  },
  "wind_direction": {
    "repr": "010",
    "value": 10,
    "spoken": "zero one zero"
  },
  "wind_gust": null,
  "wind_speed": {
    "repr": "07",
    "value": 7,
    "spoken": "seven"
  },
  "wx_codes": [],
  "raw": "KNUW 212153Z 01007KT 10SM FEW025 SCT060 BKN200 M06/M13 A3058 RMK AO2 SLP354 T10611128 VISNO $",
  "sanitized": "KNUW 212153Z 01007KT 10SM FEW025 SCT060 BKN200 M06/M13 A3058 RMK AO2 SLP354 T10611128 VISNO $",
  "station": "KNUW",
  "time": {
    "repr": "212153Z",
    "dt": "2022-12-21T21:53:00Z"
  },
  "remarks": "RMK AO2 SLP354 T10611128 VISNO $",
  "dewpoint": {
    "repr": "M13",
    "value": -13,
    "spoken": "minus one three"
  },
  "relative_humidity": 0.5907520185367606,
  "remarks_info": {
    "maximum_temperature_6": null,
    "minimum_temperature_6": null,
    "pressure_tendency": null,
    "precip_36_hours": null,
    "precip_24_hours": null,
    "sunshine_minutes": null,
    "codes": [
      {
        "repr": "$",
        "value": "ASOS requires maintenance"
      },
      {
        "repr": "AO2",
        "value": "Automated with precipitation sensor"
      }
    ],
    "dewpoint_decimal": {
      "repr": "1128",
      "value": -12.8,
      "spoken": "minus one two point eight"
    },
    "maximum_temperature_24": null,
    "minimum_temperature_24": null,
    "precip_hourly": null,
    "sea_level_pressure": {
      "repr": "SLP354",
      "value": 1035.4,
      "spoken": "one zero three five point four"
    },
    "snow_depth": null,
    "temperature_decimal": {
      "repr": "1061",
      "value": -6.1,
      "spoken": "minus six point one"
    }
  },
  "runway_visibility": [],
  "temperature": {
    "repr": "M06",
    "value": -6,
    "spoken": "minus six"
  },
  "wind_variable_direction": [],
  "density_altitude": -3134,
  "pressure_altitude": -613,
  "units": {
    "accumulation": "in",
    "altimeter": "inHg",
    "altitude": "ft",
    "temperature": "C",
    "visibility": "sm",
    "wind_speed": "kt"
  }
}
