{
  "meta": {
    "timestamp": "2023-06-02T11:00:46.161778Z",
    "stations_updated": "2023-05-30",
    "cache-timestamp": "2023-06-02T11:00:04.966000Z"
  },
  "altimeter": {
    "repr": "A3008",
    "value": 30.08,
    "spoken": "three zero point zero eight"
  },
  "clouds": [
    {
      "repr": "FEW250",
      "type": "FEW",
      "altitude": 250,
      "modifier": null
    }
  ],
  "flight_rules": "VFR",
  "other": [],
  "visibility": {
    "repr": "10",
    "value": 10,
    "spoken": "one zero"
  },
  "wind_direction": {
    "repr": "220",
    "value": 220,
    "spoken": "two two zero"
  },
  "wind_gust": {
    "repr": "20",
    "value": 20,
    "spoken": "two zero"
  },
  "wind_speed": {
    "repr": "14",
    "value": 14,
    "spoken": "one four"
  },
  "wx_codes": [],
  "raw": "KNUW 021053Z 22014G20KT 10SM FEW250 10/08 A3008 RMK AO2 SLP189 T01000078 $",
  "sanitized": "KNUW 021053Z 22014G20KT 10SM FEW250 10/08 A3008 RMK AO2 SLP189 T01000078 $",
  "station": "KNUW",
  "time": {
    "repr": "021053Z",
    "dt": "2023-06-02T10:53:00Z"
  },
  "remarks": "RMK AO2 SLP189 T01000078 $",
  "dewpoint": {
    "repr": "08",
    "value": 8,
    "spoken": "eight"
  },
  "relative_humidity": 0.861922973004222,
  "remarks_info": {
    "maximum_temperature_6": null,
    "minimum_temperature_6": null,
    "pressure_tendency": null,
    "precip_36_hours": null,
    "precip_24_hours": null,
    "sunshine_minutes": null,
    "codes": [
      {
        "repr": "$",
        "value": "ASOS requires maintenance"
      },
      {
        "repr": "AO2",
        "value": "Automated with precipitation sensor"
      }
    ],
    "dewpoint_decimal": {
      "repr": "0078",
      "value": 7.8,
      "spoken": "seven point eight"
    },
    "maximum_temperature_24": null,
    "minimum_temperature_24": null,
    "precip_hourly": null,
    "sea_level_pressure": {
      "repr": "SLP189",
      "value": 1018.9,
      "spoken": "one zero one eight point nine"
    },
    "snow_depth": null,
    "temperature_decimal": {
      "repr": "0100",
      "value": 10,
      "spoken": "one zero point zero"
    }
  },
  "runway_visibility": [],
  "temperature": {
    "repr": "10",
    "value": 10,
    "spoken": "one zero"
  },
  "wind_variable_direction": [],
  "density_altitude": -702,
  "pressure_altitude": -113,
  "units": {
    "accumulation": "in",
    "altimeter": "inHg",
    "altitude": "ft",
    "temperature": "C",
    "visibility": "sm",
    "wind_speed": "kt"
  }
}
