{
  "altimeter": {
    "repr": "A3022",
    "spoken": "three zero point two two",
    "value": 30.22
  },
  "clouds": [
    {
      "altitude": 30,
      "modifier": null,
      "repr": "FEW030",
      "type": "FEW"
    },
    {
      "altitude": 100,
      "modifier": null,
      "repr": "FEW100",
      "type": "FEW"
    },
    {
      "altitude": 210,
      "modifier": null,
      "repr": "SCT210",
      "type": "SCT"
    }
  ],
  "density_altitude": -218,
  "dewpoint": {
    "repr": "10",
    "spoken": "one zero",
    "value": 10
  },
  "flight_rules": "VFR",
  "meta": {
    "stations_updated": "2024-06-12",
    "timestamp": "2024-09-21T19:40:30.115490Z"
  },
  "other": [],
  "pressure_altitude": -253,
  "raw": "KNUW 211853Z 24007KT 7SM FEW030 FEW100 SCT210 15/10 A3022 RMK SLP238 T01520101",
  "relative_humidity": 0.715715748914193,
  "remarks": "RMK SLP238 T01520101",
  "remarks_info": {
    "codes": [],
    "dewpoint_decimal": {
      "repr": "0101",
      "spoken": "one zero point one",
      "value": 10.1
    },
    "maximum_temperature_24": null,
    "maximum_temperature_6": null,
    "minimum_temperature_24": null,
    "minimum_temperature_6": null,
    "precip_24_hours": null,
    "precip_36_hours": null,
    "precip_hourly": null,
    "pressure_tendency": null,
    "sea_level_pressure": {
      "repr": "SLP238",
      "spoken": "one zero two three point eight",
      "value": 1023.8
    },
    "snow_depth": null,
    "sunshine_minutes": null,
    "temperature_decimal": {
      "repr": "0152",
      "spoken": "one five point two",
      "value": 15.2
    }
  },
  "runway_visibility": [],
  "sanitized": "KNUW 211853Z 24007KT 7SM FEW030 FEW100 SCT210 15/10 A3022 RMK SLP238 T01520101",
  "station": "KNUW",
  "temperature": {
    "repr": "15",
    "spoken": "one five",
    "value": 15
  },
  "time": {
    "dt": "2024-09-21T18:53:00Z",
    "repr": "211853Z"
  },
  "units": {
    "accumulation": "in",
    "altimeter": "inHg",
    "altitude": "ft",
    "temperature": "C",
    "visibility": "sm",
    "wind_speed": "kt"
  },
  "visibility": {
    "repr": "7",
    "spoken": "seven",
    "value": 7
  },
  "wind_direction": {
    "repr": "240",
    "spoken": "two four zero",
    "value": 240
  },
  "wind_gust": null,
  "wind_speed": {
    "repr": "07",
    "spoken": "seven",
    "value": 7
  },
  "wind_variable_direction": [],
  "wx_codes": []
}
