{
  "altimeter": {
    "repr": "A2961",
    "spoken": "two nine point six one",
    "value": 29.61
  },
  "clouds": [
    {
      "altitude": 25,
      "modifier": null,
      "repr": "FEW025",
      "type": "FEW"
    },
    {
      "altitude": 50,
      "modifier": null,
      "repr": "SCT050",
      "type": "SCT"
    },
    {
      "altitude": 90,
      "modifier": null,
      "repr": "BKN090",
      "type": "BKN"
    },
    {
      "altitude": 250,
      "modifier": null,
      "repr": "BKN250",
      "type": "BKN"
    }
  ],
  "density_altitude": -364,
  "dewpoint": {
    "repr": "08",
    "spoken": "eight",
    "value": 8
  },
  "flight_rules": "VFR",
  "meta": {
    "cache-timestamp": "2023-11-07T03:40:05.169000Z",
    "stations_updated": "2023-10-28",
    "timestamp": "2023-11-07T03:40:36.534055Z"
  },
  "other": [],
  "pressure_altitude": 357,
  "raw": "KNUW 070253Z 12006KT 10SM FEW025 SCT050 BKN090 BKN250 09/08 A2961 RMK AO2 SLP031 60000 T00890078 53021 $",
  "relative_humidity": 0.9280975124584884,
  "remarks": "RMK AO2 SLP031 60000 T00890078 53021 $",
  "remarks_info": {
    "codes": [
      {
        "repr": "$",
        "value": "ASOS requires maintenance"
      },
      {
        "repr": "AO2",
        "value": "Automated with precipitation sensor"
      }
    ],
    "dewpoint_decimal": {
      "repr": "0078",
      "spoken": "seven point eight",
      "value": 7.8
    },
    "maximum_temperature_24": null,
    "maximum_temperature_6": null,
    "minimum_temperature_24": null,
    "minimum_temperature_6": null,
    "precip_24_hours": null,
    "precip_36_hours": {
      "repr": "60000",
      "spoken": "zero",
      "value": 0
    },
    "precip_hourly": null,
    "pressure_tendency": {
      "change": 2.1,
      "repr": "53021",
      "tendency": "Decreasing or steady, then increasing"
    },
    "sea_level_pressure": {
      "repr": "SLP031",
      "spoken": "one zero zero three point one",
      "value": 1003.1
    },
    "snow_depth": null,
    "sunshine_minutes": null,
    "temperature_decimal": {
      "repr": "0089",
      "spoken": "eight point nine",
      "value": 8.9
    }
  },
  "runway_visibility": [],
  "sanitized": "KNUW 070253Z 12006KT 10SM FEW025 SCT050 BKN090 BKN250 09/08 A2961 RMK AO2 SLP031 60000 T00890078 53021 $",
  "station": "KNUW",
  "temperature": {
    "repr": "09",
    "spoken": "nine",
    "value": 9
  },
  "time": {
    "dt": "2023-11-07T02:53:00Z",
    "repr": "070253Z"
  },
  "units": {
    "accumulation": "in",
    "altimeter": "inHg",
    "altitude": "ft",
    "temperature": "C",
    "visibility": "sm",
    "wind_speed": "kt"
  },
  "visibility": {
    "repr": "10",
    "spoken": "one zero",
    "value": 10
  },
  "wind_direction": {
    "repr": "120",
    "spoken": "one two zero",
    "value": 120
  },
  "wind_gust": null,
  "wind_speed": {
    "repr": "06",
    "spoken": "six",
    "value": 6
  },
  "wind_variable_direction": [],
  "wx_codes": []
}
