{
  "altimeter": {
    "repr": "A3015",
    "spoken": "three zero point one five",
    "value": 30.15
  },
  "clouds": [
    {
      "altitude": 110,
      "modifier": null,
      "repr": "FEW110",
      "type": "FEW"
    },
    {
      "altitude": 200,
      "modifier": null,
      "repr": "FEW200",
      "type": "FEW"
    }
  ],
  "density_altitude": -700,
  "dewpoint": {
    "repr": "09",
    "spoken": "nine",
    "value": 9
  },
  "flight_rules": "VFR",
  "meta": {
    "stations_updated": "2024-06-12",
    "timestamp": "2024-10-07T04:09:36.195704Z"
  },
  "other": [],
  "pressure_altitude": -183,
  "raw": "KNUW 070353Z 12005KT 10SM FEW110 FEW200 11/09 A3015 RMK AO2 SLP213 T01060094 $",
  "relative_humidity": 0.9227971730278188,
  "remarks": "RMK AO2 SLP213 T01060094 $",
  "remarks_info": {
    "codes": [
      {
        "repr": "$",
        "value": "ASOS requires maintenance"
      },
      {
        "repr": "AO2",
        "value": "Automated with precipitation sensor"
      }
    ],
    "dewpoint_decimal": {
      "repr": "0094",
      "spoken": "nine point four",
      "value": 9.4
    },
    "maximum_temperature_24": null,
    "maximum_temperature_6": null,
    "minimum_temperature_24": null,
    "minimum_temperature_6": null,
    "precip_24_hours": null,
    "precip_36_hours": null,
    "precip_hourly": null,
    "pressure_tendency": null,
    "sea_level_pressure": {
      "repr": "SLP213",
      "spoken": "one zero two one point three",
      "value": 1021.3
    },
    "snow_depth": null,
    "sunshine_minutes": null,
    "temperature_decimal": {
      "repr": "0106",
      "spoken": "one zero point six",
      "value": 10.6
    }
  },
  "runway_visibility": [],
  "sanitized": "KNUW 070353Z 12005KT 10SM FEW110 FEW200 11/09 A3015 RMK AO2 SLP213 T01060094 $",
  "station": "KNUW",
  "temperature": {
    "repr": "11",
    "spoken": "one one",
    "value": 11
  },
  "time": {
    "dt": "2024-10-07T03:53:00Z",
    "repr": "070353Z"
  },
  "units": {
    "accumulation": "in",
    "altimeter": "inHg",
    "altitude": "ft",
    "temperature": "C",
    "visibility": "sm",
    "wind_speed": "kt"
  },
  "visibility": {
    "repr": "10",
    "spoken": "one zero",
    "value": 10
  },
  "wind_direction": {
    "repr": "120",
    "spoken": "one two zero",
    "value": 120
  },
  "wind_gust": null,
  "wind_speed": {
    "repr": "05",
    "spoken": "five",
    "value": 5
  },
  "wind_variable_direction": [],
  "wx_codes": []
}
