{
  "meta": {
    "timestamp": "2022-11-12T11:26:47.358823Z",
    "stations_updated": "2022-09-05"
  },
  "altimeter": {
    "repr": "A3022",
    "value": 30.22,
    "spoken": "three zero point two two"
  },
  "clouds": [
    {
      "repr": "BKN110",
      "type": "BKN",
      "altitude": 110,
      "modifier": null
    },
    {
      "repr": "BKN200",
      "type": "BKN",
      "altitude": 200,
      "modifier": null
    }
  ],
  "flight_rules": "VFR",
  "other": [],
  "visibility": {
    "repr": "10",
    "value": 10,
    "spoken": "one zero"
  },
  "wind_direction": {
    "repr": "350",
    "value": 350,
    "spoken": "three five zero"
  },
  "wind_gust": null,
  "wind_speed": {
    "repr": "03",
    "value": 3,
    "spoken": "three"
  },
  "wx_codes": [],
  "raw": "KNUW 121053Z 35003KT 10SM BKN110 BKN200 03/M01 A3022 RMK AO2 SLP233 T00281006 VISNO $",
  "sanitized": "KNUW 121053Z 35003KT 10SM BKN110 BKN200 03/M01 A3022 RMK AO2 SLP233 T00281006 VISNO $",
  "station": "KNUW",
  "time": {
    "repr": "121053Z",
    "dt": "2022-11-12T10:53:00Z"
  },
  "remarks": "RMK AO2 SLP233 T00281006 VISNO $",
  "dewpoint": {
    "repr": "M01",
    "value": -1,
    "spoken": "minus one"
  },
  "relative_humidity": 0.7830767472324259,
  "remarks_info": {
    "maximum_temperature_6": null,
    "minimum_temperature_6": null,
    "pressure_tendency": null,
    "precip_36_hours": null,
    "precip_24_hours": null,
    "sunshine_minutes": null,
    "codes": [
      {
        "repr": "$",
        "value": "ASOS requires maintenance"
      },
      {
        "repr": "AO2",
        "value": "Automated with precipitation sensor"
      }
    ],
    "dewpoint_decimal": {
      "repr": "1006",
      "value": -0.6,
      "spoken": "minus zero point six"
    },
    "maximum_temperature_24": null,
    "minimum_temperature_24": null,
    "precip_hourly": null,
    "sea_level_pressure": {
      "repr": "SLP233",
      "value": 1023.3,
      "spoken": "one zero two three point three"
    },
    "snow_depth": null,
    "temperature_decimal": {
      "repr": "0028",
      "value": 2.8,
      "spoken": "two point eight"
    }
  },
  "runway_visibility": [],
  "temperature": {
    "repr": "03",
    "value": 3,
    "spoken": "three"
  },
  "wind_variable_direction": [],
  "density_altitude": -1706,
  "pressure_altitude": -253,
  "units": {
    "accumulation": "in",
    "altimeter": "inHg",
    "altitude": "ft",
    "temperature": "C",
    "visibility": "sm",
    "wind_speed": "kt"
  }
}
