{
  "meta": {
    "timestamp": "2022-11-05T15:44:26.575285Z",
    "stations_updated": "2022-09-05"
  },
  "altimeter": {
    "repr": "A2982",
    "value": 29.82,
    "spoken": "two nine point eight two"
  },
  "clouds": [
    {
      "repr": "FEW025",
      "type": "FEW",
      "altitude": 25,
      "modifier": null
    },
    {
      "repr": "BKN075",
      "type": "BKN",
      "altitude": 75,
      "modifier": null
    },
    {
      "repr": "BKN085",
      "type": "BKN",
      "altitude": 85,
      "modifier": null
    }
  ],
  "flight_rules": "VFR",
  "other": [],
  "visibility": {
    "repr": "10",
    "value": 10,
    "spoken": "one zero"
  },
  "wind_direction": {
    "repr": "250",
    "value": 250,
    "spoken": "two five zero"
  },
  "wind_gust": {
    "repr": "31",
    "value": 31,
    "spoken": "three one"
  },
  "wind_speed": {
    "repr": "23",
    "value": 23,
    "spoken": "two three"
  },
  "wx_codes": [],
  "raw": "KNUW 051453Z 25023G31KT 10SM FEW025 BKN075 BKN085 08/04 A2982 RMK AO2 PK WND 26031/1450 RAB29E38 SLP096 P0000 60000 T00780039 51027 VISNO",
  "sanitized": "KNUW 051453Z 25023G31KT 10SM FEW025 BKN075 BKN085 08/04 A2982 RMK AO2 PK WND 26031/1450 RAB29E38 SLP096 P0000 60000 T00780039 51027 VISNO",
  "station": "KNUW",
  "time": {
    "repr": "051453Z",
    "dt": "2022-11-05T14:53:00Z"
  },
  "remarks": "RMK AO2 PK WND 26031/1450 RAB29E38 SLP096 P0000 60000 T00780039 51027 VISNO",
  "dewpoint": {
    "repr": "04",
    "value": 4,
    "spoken": "four"
  },
  "relative_humidity": 0.7634534383263296,
  "remarks_info": {
    "maximum_temperature_6": null,
    "minimum_temperature_6": null,
    "pressure_tendency": {
      "repr": "51027",
      "tendency": "Increasing, then steady",
      "change": 2.7
    },
    "precip_36_hours": {
      "repr": "60000",
      "value": 0,
      "spoken": "zero"
    },
    "precip_24_hours": null,
    "sunshine_minutes": null,
    "codes": [
      {
        "repr": "AO2",
        "value": "Automated with precipitation sensor"
      },
      {
        "repr": "P0000",
        "value": "Trace amount of rain in the last hour"
      }
    ],
    "dewpoint_decimal": {
      "repr": "0039",
      "value": 3.9,
      "spoken": "three point nine"
    },
    "maximum_temperature_24": null,
    "minimum_temperature_24": null,
    "precip_hourly": null,
    "sea_level_pressure": {
      "repr": "SLP096",
      "value": 1009.6,
      "spoken": "one zero zero nine point six"
    },
    "snow_depth": null,
    "temperature_decimal": {
      "repr": "0078",
      "value": 7.8,
      "spoken": "seven point eight"
    }
  },
  "runway_visibility": [],
  "temperature": {
    "repr": "08",
    "value": 8,
    "spoken": "eight"
  },
  "wind_variable_direction": [],
  "density_altitude": -706,
  "pressure_altitude": 147,
  "units": {
    "accumulation": "in",
    "altimeter": "inHg",
    "altitude": "ft",
    "temperature": "C",
    "visibility": "sm",
    "wind_speed": "kt"
  }
}
