{
  "altimeter": {
    "repr": "A3010",
    "spoken": "three zero point one zero",
    "value": 30.1
  },
  "clouds": [
    {
      "altitude": 15,
      "modifier": null,
      "repr": "FEW015",
      "type": "FEW"
    },
    {
      "altitude": 41,
      "modifier": null,
      "repr": "BKN041",
      "type": "BKN"
    }
  ],
  "density_altitude": -650,
  "dewpoint": {
    "repr": "09",
    "spoken": "nine",
    "value": 9
  },
  "flight_rules": "VFR",
  "meta": {
    "cache-timestamp": "2024-06-10T07:06:05.932000Z",
    "stations_updated": "2024-05-13",
    "timestamp": "2024-06-10T07:06:29.455365Z"
  },
  "other": [],
  "pressure_altitude": -133,
  "raw": "KNUW 100653Z 24017G25KT 10SM FEW015 BKN041 11/09 A3010 RMK AO2 PK WND 24027/0640 SLP195 T01060089 $",
  "relative_humidity": 0.8922144848734106,
  "remarks": "RMK AO2 PK WND 24027/0640 SLP195 T01060089 $",
  "remarks_info": {
    "codes": [
      {
        "repr": "$",
        "value": "ASOS requires maintenance"
      },
      {
        "repr": "AO2",
        "value": "Automated with precipitation sensor"
      }
    ],
    "dewpoint_decimal": {
      "repr": "0089",
      "spoken": "eight point nine",
      "value": 8.9
    },
    "maximum_temperature_24": null,
    "maximum_temperature_6": null,
    "minimum_temperature_24": null,
    "minimum_temperature_6": null,
    "precip_24_hours": null,
    "precip_36_hours": null,
    "precip_hourly": null,
    "pressure_tendency": null,
    "sea_level_pressure": {
      "repr": "SLP195",
      "spoken": "one zero one nine point five",
      "value": 1019.5
    },
    "snow_depth": null,
    "sunshine_minutes": null,
    "temperature_decimal": {
      "repr": "0106",
      "spoken": "one zero point six",
      "value": 10.6
    }
  },
  "runway_visibility": [],
  "sanitized": "KNUW 100653Z 24017G25KT 10SM FEW015 BKN041 11/09 A3010 RMK AO2 PK WND 24027/0640 SLP195 T01060089 $",
  "station": "KNUW",
  "temperature": {
    "repr": "11",
    "spoken": "one one",
    "value": 11
  },
  "time": {
    "dt": "2024-06-10T06:53:00Z",
    "repr": "100653Z"
  },
  "units": {
    "accumulation": "in",
    "altimeter": "inHg",
    "altitude": "ft",
    "temperature": "C",
    "visibility": "sm",
    "wind_speed": "kt"
  },
  "visibility": {
    "repr": "10",
    "spoken": "one zero",
    "value": 10
  },
  "wind_direction": {
    "repr": "240",
    "spoken": "two four zero",
    "value": 240
  },
  "wind_gust": {
    "repr": "25",
    "spoken": "two five",
    "value": 25
  },
  "wind_speed": {
    "repr": "17",
    "spoken": "one seven",
    "value": 17
  },
  "wind_variable_direction": [],
  "wx_codes": []
}
