{
  "meta": {
    "timestamp": "2023-03-26T09:01:44.231892Z",
    "stations_updated": "2023-03-11"
  },
  "altimeter": {
    "repr": "A3027",
    "value": 30.27,
    "spoken": "three zero point two seven"
  },
  "clouds": [
    {
      "repr": "FEW020",
      "type": "FEW",
      "altitude": 20,
      "modifier": null
    },
    {
      "repr": "SCT050",
      "type": "SCT",
      "altitude": 50,
      "modifier": null
    },
    {
      "repr": "BKN150",
      "type": "BKN",
      "altitude": 150,
      "modifier": null
    }
  ],
  "flight_rules": "VFR",
  "other": [],
  "visibility": {
    "repr": "10",
    "value": 10,
    "spoken": "one zero"
  },
  "wind_direction": {
    "repr": "120",
    "value": 120,
    "spoken": "one two zero"
  },
  "wind_gust": null,
  "wind_speed": {
    "repr": "06",
    "value": 6,
    "spoken": "six"
  },
  "wx_codes": [],
  "raw": "KNUW 260853Z 12006KT 10SM FEW020 SCT050 BKN150 00/M01 A3027 RMK AO2 SLP254 T00001011 51004 VISNO $",
  "sanitized": "KNUW 260853Z 12006KT 10SM FEW020 SCT050 BKN150 00/M01 A3027 RMK AO2 SLP254 T00001011 51004 VISNO $",
  "station": "KNUW",
  "time": {
    "repr": "260853Z",
    "dt": "2023-03-26T08:53:00Z"
  },
  "remarks": "RMK AO2 SLP254 T00001011 51004 VISNO $",
  "dewpoint": {
    "repr": "M01",
    "value": -1,
    "spoken": "minus one"
  },
  "relative_humidity": 0.9229449916837179,
  "remarks_info": {
    "maximum_temperature_6": null,
    "minimum_temperature_6": null,
    "pressure_tendency": {
      "repr": "51004",
      "tendency": "Increasing, then steady",
      "change": 0.4
    },
    "precip_36_hours": null,
    "precip_24_hours": null,
    "sunshine_minutes": null,
    "codes": [
      {
        "repr": "$",
        "value": "ASOS requires maintenance"
      },
      {
        "repr": "AO2",
        "value": "Automated with precipitation sensor"
      }
    ],
    "dewpoint_decimal": {
      "repr": "1011",
      "value": -1.1,
      "spoken": "minus one point one"
    },
    "maximum_temperature_24": null,
    "minimum_temperature_24": null,
    "precip_hourly": null,
    "sea_level_pressure": {
      "repr": "SLP254",
      "value": 1025.4,
      "spoken": "one zero two five point four"
    },
    "snow_depth": null,
    "temperature_decimal": {
      "repr": "0000",
      "value": 0,
      "spoken": "zero"
    }
  },
  "runway_visibility": [],
  "temperature": {
    "repr": "00",
    "value": 0,
    "spoken": "zero"
  },
  "wind_variable_direction": [],
  "density_altitude": -2092,
  "pressure_altitude": -303,
  "units": {
    "accumulation": "in",
    "altimeter": "inHg",
    "altitude": "ft",
    "temperature": "C",
    "visibility": "sm",
    "wind_speed": "kt"
  }
}
