{
  "meta": {
    "timestamp": "2022-09-11T09:02:59.814498Z",
    "stations_updated": "2022-07-17"
  },
  "altimeter": {
    "repr": "A2993",
    "value": 29.93,
    "spoken": "two nine point nine three"
  },
  "clouds": [
    {
      "repr": "BKN013",
      "type": "BKN",
      "altitude": 13,
      "modifier": null
    },
    {
      "repr": "BKN250",
      "type": "BKN",
      "altitude": 250,
      "modifier": null
    }
  ],
  "flight_rules": "MVFR",
  "other": [],
  "visibility": {
    "repr": "6",
    "value": 6,
    "spoken": "six"
  },
  "wind_direction": {
    "repr": "090",
    "value": 90,
    "spoken": "zero nine zero"
  },
  "wind_gust": null,
  "wind_speed": {
    "repr": "03",
    "value": 3,
    "spoken": "three"
  },
  "wx_codes": [
    {
      "repr": "HZ",
      "value": "Haze"
    }
  ],
  "raw": "KNUW 110853Z 09003KT 6SM HZ BKN013 BKN250 12/08 A2993 RMK AO2 SLP135 FU BKN013 T01220083 53010 $",
  "sanitized": "KNUW 110853Z 09003KT 6SM HZ BKN013 BKN250 12/08 A2993 RMK AO2 SLP135 FU BKN013 T01220083 53010 $",
  "station": "KNUW",
  "time": {
    "repr": "110853Z",
    "dt": "2022-09-11T08:53:00Z"
  },
  "remarks": "RMK AO2 SLP135 FU BKN013 T01220083 53010 $",
  "dewpoint": {
    "repr": "08",
    "value": 8,
    "spoken": "eight"
  },
  "relative_humidity": 0.7705709408156373,
  "remarks_info": {
    "maximum_temperature_6": null,
    "minimum_temperature_6": null,
    "pressure_tendency": {
      "repr": "53010",
      "tendency": "Decreasing or steady, then increasing",
      "change": 1
    },
    "precip_36_hours": null,
    "precip_24_hours": null,
    "sunshine_minutes": null,
    "codes": [
      {
        "repr": "$",
        "value": "ASOS requires maintenance"
      },
      {
        "repr": "AO2",
        "value": "Automated with precipitation sensor"
      }
    ],
    "dewpoint_decimal": {
      "repr": "0083",
      "value": 8.3,
      "spoken": "eight point three"
    },
    "maximum_temperature_24": null,
    "minimum_temperature_24": null,
    "precip_hourly": null,
    "sea_level_pressure": {
      "repr": "SLP135",
      "value": 1013.5,
      "spoken": "one zero one three point five"
    },
    "snow_depth": null,
    "temperature_decimal": {
      "repr": "0122",
      "value": 12.2,
      "spoken": "one two point two"
    }
  },
  "runway_visibility": [],
  "temperature": {
    "repr": "12",
    "value": 12,
    "spoken": "one two"
  },
  "wind_variable_direction": [],
  "density_altitude": -288,
  "pressure_altitude": 37,
  "units": {
    "accumulation": "in",
    "altimeter": "inHg",
    "altitude": "ft",
    "temperature": "C",
    "visibility": "sm",
    "wind_speed": "kt"
  }
}
