{
  "altimeter": {
    "repr": "A3057",
    "spoken": "three zero point five seven",
    "value": 30.57
  },
  "clouds": [
    {
      "altitude": 19,
      "modifier": null,
      "repr": "FEW019",
      "type": "FEW"
    }
  ],
  "density_altitude": -2524,
  "dewpoint": {
    "repr": "M01",
    "spoken": "minus one",
    "value": -1
  },
  "flight_rules": "VFR",
  "meta": {
    "stations_updated": "2024-12-02",
    "timestamp": "2025-01-18T12:45:22.325971Z"
  },
  "other": [],
  "pressure_altitude": -603,
  "raw": "KNUW 181153Z 13004KT 7SM FEW019 M01/M01 A3057 RMK SLP355 T10111011 10017 21022 53007",
  "relative_humidity": 1.0,
  "remarks": "RMK SLP355 T10111011 10017 21022 53007",
  "remarks_info": {
    "codes": [],
    "dewpoint_decimal": {
      "repr": "1011",
      "spoken": "minus one point one",
      "value": -1.1
    },
    "maximum_temperature_24": null,
    "maximum_temperature_6": {
      "repr": "10017",
      "spoken": "one point seven",
      "value": 1.7
    },
    "minimum_temperature_24": null,
    "minimum_temperature_6": {
      "repr": "21022",
      "spoken": "minus two point two",
      "value": -2.2
    },
    "precip_24_hours": null,
    "precip_36_hours": null,
    "precip_hourly": null,
    "pressure_tendency": {
      "change": 0.7,
      "repr": "53007",
      "tendency": "Decreasing or steady, then increasing"
    },
    "sea_level_pressure": {
      "repr": "SLP355",
      "spoken": "one zero three five point five",
      "value": 1035.5
    },
    "snow_depth": null,
    "sunshine_minutes": null,
    "temperature_decimal": {
      "repr": "1011",
      "spoken": "minus one point one",
      "value": -1.1
    }
  },
  "runway_visibility": [],
  "sanitized": "KNUW 181153Z 13004KT 7SM FEW019 M01/M01 A3057 RMK SLP355 T10111011 10017 21022 53007",
  "station": "KNUW",
  "temperature": {
    "repr": "M01",
    "spoken": "minus one",
    "value": -1
  },
  "time": {
    "dt": "2025-01-18T11:53:00Z",
    "repr": "181153Z"
  },
  "units": {
    "accumulation": "in",
    "altimeter": "inHg",
    "altitude": "ft",
    "temperature": "C",
    "visibility": "sm",
    "wind_speed": "kt"
  },
  "visibility": {
    "repr": "7",
    "spoken": "seven",
    "value": 7
  },
  "wind_direction": {
    "repr": "130",
    "spoken": "one three zero",
    "value": 130
  },
  "wind_gust": null,
  "wind_speed": {
    "repr": "04",
    "spoken": "four",
    "value": 4
  },
  "wind_variable_direction": [],
  "wx_codes": []
}
