{
  "altimeter": {
    "repr": "A2987",
    "spoken": "two nine point eight seven",
    "value": 29.87
  },
  "clouds": [
    {
      "altitude": 20,
      "modifier": "CB",
      "repr": "BKN020CB",
      "type": "BKN"
    },
    {
      "altitude": 60,
      "modifier": null,
      "repr": "OVC060",
      "type": "OVC"
    }
  ],
  "density_altitude": 444,
  "dewpoint": {
    "repr": "17",
    "spoken": "one seven",
    "value": 17
  },
  "flight_rules": "IFR",
  "meta": {
    "stations_updated": "2024-06-12",
    "timestamp": "2024-08-18T06:07:55.985604Z"
  },
  "other": [],
  "pressure_altitude": 97,
  "raw": "KNUW 180545Z 14024G39KT 2SM TSRA BR BKN020CB OVC060 18/17 A2987 RMK AO2 PK WND 15041/0535 RAB0455 FRQ LTGICCC OHD TS OHD MOV NW P0011 T01780167 VISNO $",
  "relative_humidity": 0.9327560496042876,
  "remarks": "RMK AO2 PK WND 15041/0535 RAB0455 FRQ LTGICCC OHD TS OHD MOV NW P0011 T01780167 VISNO $",
  "remarks_info": {
    "codes": [
      {
        "repr": "$",
        "value": "ASOS requires maintenance"
      },
      {
        "repr": "AO2",
        "value": "Automated with precipitation sensor"
      }
    ],
    "dewpoint_decimal": {
      "repr": "0167",
      "spoken": "one six point seven",
      "value": 16.7
    },
    "maximum_temperature_24": null,
    "maximum_temperature_6": null,
    "minimum_temperature_24": null,
    "minimum_temperature_6": null,
    "precip_24_hours": null,
    "precip_36_hours": null,
    "precip_hourly": {
      "repr": "P0011",
      "spoken": "zero point one one",
      "value": 0.11
    },
    "pressure_tendency": null,
    "sea_level_pressure": null,
    "snow_depth": null,
    "sunshine_minutes": null,
    "temperature_decimal": {
      "repr": "0178",
      "spoken": "one seven point eight",
      "value": 17.8
    }
  },
  "runway_visibility": [],
  "sanitized": "KNUW 180545Z 14024G39KT 2SM TSRA BR BKN020CB OVC060 18/17 A2987 RMK AO2 PK WND 15041/0535 RAB0455 FRQ LTGICCC OHD TS OHD MOV NW P0011 T01780167 VISNO $",
  "station": "KNUW",
  "temperature": {
    "repr": "18",
    "spoken": "one eight",
    "value": 18
  },
  "time": {
    "dt": "2024-08-18T05:45:00Z",
    "repr": "180545Z"
  },
  "units": {
    "accumulation": "in",
    "altimeter": "inHg",
    "altitude": "ft",
    "temperature": "C",
    "visibility": "sm",
    "wind_speed": "kt"
  },
  "visibility": {
    "repr": "2",
    "spoken": "two",
    "value": 2
  },
  "wind_direction": {
    "repr": "140",
    "spoken": "one four zero",
    "value": 140
  },
  "wind_gust": {
    "repr": "39",
    "spoken": "three nine",
    "value": 39
  },
  "wind_speed": {
    "repr": "24",
    "spoken": "two four",
    "value": 24
  },
  "wind_variable_direction": [],
  "wx_codes": [
    {
      "repr": "TSRA",
      "value": "Thunderstorm Rain"
    },
    {
      "repr": "BR",
      "value": "Mist"
    }
  ]
}
