{
  "meta": {
    "timestamp": "2022-11-17T19:40:39.742994Z",
    "stations_updated": "2022-09-05"
  },
  "altimeter": {
    "repr": "A3055",
    "value": 30.55,
    "spoken": "three zero point five five"
  },
  "clouds": [
    {
      "repr": "FEW200",
      "type": "FEW",
      "altitude": 200,
      "modifier": null
    }
  ],
  "flight_rules": "VFR",
  "other": [],
  "visibility": {
    "repr": "10",
    "value": 10,
    "spoken": "one zero"
  },
  "wind_direction": {
    "repr": "000",
    "value": 0,
    "spoken": "zero zero zero"
  },
  "wind_gust": null,
  "wind_speed": {
    "repr": "00",
    "value": 0,
    "spoken": "zero"
  },
  "wx_codes": [],
  "raw": "KNUW 171853Z 00000KT 10SM FEW200 09/07 A3055 RMK AO2 SLP344 T00890067 VISNO $",
  "sanitized": "KNUW 171853Z 00000KT 10SM FEW200 09/07 A3055 RMK AO2 SLP344 T00890067 VISNO $",
  "station": "KNUW",
  "time": {
    "repr": "171853Z",
    "dt": "2022-11-17T18:53:00Z"
  },
  "remarks": "RMK AO2 SLP344 T00890067 VISNO $",
  "dewpoint": {
    "repr": "07",
    "value": 7,
    "spoken": "seven"
  },
  "relative_humidity": 0.8608000212004648,
  "remarks_info": {
    "maximum_temperature_6": null,
    "minimum_temperature_6": null,
    "pressure_tendency": null,
    "precip_36_hours": null,
    "precip_24_hours": null,
    "sunshine_minutes": null,
    "codes": [
      {
        "repr": "$",
        "value": "ASOS requires maintenance"
      },
      {
        "repr": "AO2",
        "value": "Automated with precipitation sensor"
      }
    ],
    "dewpoint_decimal": {
      "repr": "0067",
      "value": 6.7,
      "spoken": "six point seven"
    },
    "maximum_temperature_24": null,
    "minimum_temperature_24": null,
    "precip_hourly": null,
    "sea_level_pressure": {
      "repr": "SLP344",
      "value": 1034.4,
      "spoken": "one zero three four point four"
    },
    "snow_depth": null,
    "temperature_decimal": {
      "repr": "0089",
      "value": 8.9,
      "spoken": "eight point nine"
    }
  },
  "runway_visibility": [],
  "temperature": {
    "repr": "09",
    "value": 9,
    "spoken": "nine"
  },
  "wind_variable_direction": [],
  "density_altitude": -1304,
  "pressure_altitude": -583,
  "units": {
    "accumulation": "in",
    "altimeter": "inHg",
    "altitude": "ft",
    "temperature": "C",
    "visibility": "sm",
    "wind_speed": "kt"
  }
}
