{
  "meta": {
    "timestamp": "2023-01-09T03:40:40.028083Z",
    "stations_updated": "2022-12-27",
    "cache-timestamp": "2023-01-09T03:40:08.048000Z"
  },
  "altimeter": {
    "repr": "A2976",
    "value": 29.76,
    "spoken": "two nine point seven six"
  },
  "clouds": [
    {
      "repr": "FEW022",
      "type": "FEW",
      "altitude": 22,
      "modifier": null
    },
    {
      "repr": "SCT120",
      "type": "SCT",
      "altitude": 120,
      "modifier": null
    },
    {
      "repr": "SCT180",
      "type": "SCT",
      "altitude": 180,
      "modifier": null
    }
  ],
  "flight_rules": "VFR",
  "other": [],
  "visibility": {
    "repr": "10",
    "value": 10,
    "spoken": "one zero"
  },
  "wind_direction": {
    "repr": "160",
    "value": 160,
    "spoken": "one six zero"
  },
  "wind_gust": {
    "repr": "34",
    "value": 34,
    "spoken": "three four"
  },
  "wind_speed": {
    "repr": "25",
    "value": 25,
    "spoken": "two five"
  },
  "wx_codes": [],
  "raw": "KNUW 090253Z 16025G34KT 10SM FEW022 SCT120 SCT180 09/05 A2976 RMK AO2 PK WND 15034/0242 SLP076 T00890050 53023 VISNO $",
  "sanitized": "KNUW 090253Z 16025G34KT 10SM FEW022 SCT120 SCT180 09/05 A2976 RMK AO2 PK WND 15034/0242 SLP076 T00890050 53023 VISNO $",
  "station": "KNUW",
  "time": {
    "repr": "090253Z",
    "dt": "2023-01-09T02:53:00Z"
  },
  "remarks": "RMK AO2 PK WND 15034/0242 SLP076 T00890050 53023 VISNO $",
  "dewpoint": {
    "repr": "05",
    "value": 5,
    "spoken": "five"
  },
  "relative_humidity": 0.7652617676246976,
  "remarks_info": {
    "maximum_temperature_6": null,
    "minimum_temperature_6": null,
    "pressure_tendency": {
      "repr": "53023",
      "tendency": "Decreasing or steady, then increasing",
      "change": 2.3
    },
    "precip_36_hours": null,
    "precip_24_hours": null,
    "sunshine_minutes": null,
    "codes": [
      {
        "repr": "$",
        "value": "ASOS requires maintenance"
      },
      {
        "repr": "AO2",
        "value": "Automated with precipitation sensor"
      }
    ],
    "dewpoint_decimal": {
      "repr": "0050",
      "value": 5,
      "spoken": "five point zero"
    },
    "maximum_temperature_24": null,
    "minimum_temperature_24": null,
    "precip_hourly": null,
    "sea_level_pressure": {
      "repr": "SLP076",
      "value": 1007.6,
      "spoken": "one zero zero seven point six"
    },
    "snow_depth": null,
    "temperature_decimal": {
      "repr": "0089",
      "value": 8.9,
      "spoken": "eight point nine"
    }
  },
  "runway_visibility": [],
  "temperature": {
    "repr": "09",
    "value": 9,
    "spoken": "nine"
  },
  "wind_variable_direction": [],
  "density_altitude": -514,
  "pressure_altitude": 207,
  "units": {
    "accumulation": "in",
    "altimeter": "inHg",
    "altitude": "ft",
    "temperature": "C",
    "visibility": "sm",
    "wind_speed": "kt"
  }
}
