{
  "meta": {
    "timestamp": "2023-04-17T20:40:40.835461Z",
    "stations_updated": "2023-03-11",
    "cache-timestamp": "2023-04-17T20:40:05.511000Z"
  },
  "altimeter": {
    "repr": "A2966",
    "value": 29.66,
    "spoken": "two nine point six six"
  },
  "clouds": [
    {
      "repr": "BKN065",
      "type": "BKN",
      "altitude": 65,
      "modifier": null
    },
    {
      "repr": "OVC120",
      "type": "OVC",
      "altitude": 120,
      "modifier": null
    }
  ],
  "flight_rules": "VFR",
  "other": [],
  "visibility": {
    "repr": "10",
    "value": 10,
    "spoken": "one zero"
  },
  "wind_direction": {
    "repr": "140",
    "value": 140,
    "spoken": "one four zero"
  },
  "wind_gust": {
    "repr": "28",
    "value": 28,
    "spoken": "two eight"
  },
  "wind_speed": {
    "repr": "19",
    "value": 19,
    "spoken": "one nine"
  },
  "wx_codes": [],
  "raw": "KNUW 171953Z 14019G28KT 10SM BKN065 OVC120 11/M01 A2966 RMK PK WND 16030/1901 SLP048 T01111006",
  "sanitized": "KNUW 171953Z 14019G28KT 10SM BKN065 OVC120 11/M01 A2966 RMK PK WND 16030/1901 SLP048 T01111006",
  "station": "KNUW",
  "time": {
    "repr": "171953Z",
    "dt": "2023-04-17T19:53:00Z"
  },
  "remarks": "RMK PK WND 16030/1901 SLP048 T01111006",
  "dewpoint": {
    "repr": "M01",
    "value": -1,
    "spoken": "minus one"
  },
  "relative_humidity": 0.44307300488698964,
  "remarks_info": {
    "maximum_temperature_6": null,
    "minimum_temperature_6": null,
    "pressure_tendency": null,
    "precip_36_hours": null,
    "precip_24_hours": null,
    "sunshine_minutes": null,
    "codes": [],
    "dewpoint_decimal": {
      "repr": "1006",
      "value": -0.6,
      "spoken": "minus zero point six"
    },
    "maximum_temperature_24": null,
    "minimum_temperature_24": null,
    "precip_hourly": null,
    "sea_level_pressure": {
      "repr": "SLP048",
      "value": 1004.8,
      "spoken": "one zero zero four point eight"
    },
    "snow_depth": null,
    "temperature_decimal": {
      "repr": "0111",
      "value": 11.1,
      "spoken": "one one point one"
    }
  },
  "runway_visibility": [],
  "temperature": {
    "repr": "11",
    "value": 11,
    "spoken": "one one"
  },
  "wind_variable_direction": [],
  "density_altitude": -150,
  "pressure_altitude": 307,
  "units": {
    "accumulation": "in",
    "altimeter": "inHg",
    "altitude": "ft",
    "temperature": "C",
    "visibility": "sm",
    "wind_speed": "kt"
  }
}
