{
  "meta": {
    "timestamp": "2023-02-06T02:47:08.578227Z",
    "stations_updated": "2023-01-30"
  },
  "altimeter": {
    "repr": "A3005",
    "value": 30.05,
    "spoken": "three zero point zero five"
  },
  "clouds": [
    {
      "repr": "SCT017",
      "type": "SCT",
      "altitude": 17,
      "modifier": null
    },
    {
      "repr": "BKN038",
      "type": "BKN",
      "altitude": 38,
      "modifier": null
    },
    {
      "repr": "OVC047",
      "type": "OVC",
      "altitude": 47,
      "modifier": null
    }
  ],
  "flight_rules": "VFR",
  "other": [],
  "visibility": {
    "repr": "10",
    "value": 10,
    "spoken": "one zero"
  },
  "wind_direction": {
    "repr": "270",
    "value": 270,
    "spoken": "two seven zero"
  },
  "wind_gust": {
    "repr": "24",
    "value": 24,
    "spoken": "two four"
  },
  "wind_speed": {
    "repr": "16",
    "value": 16,
    "spoken": "one six"
  },
  "wx_codes": [
    {
      "repr": "-RA",
      "value": "Light Rain"
    }
  ],
  "raw": "KNUW 060153Z 27016G24KT 10SM -RA SCT017 BKN038 OVC047 08/06 A3005 RMK RAB26 SLP174 P0001 T00780061",
  "sanitized": "KNUW 060153Z 27016G24KT 10SM -RA SCT017 BKN038 OVC047 08/06 A3005 RMK RAB26 SLP174 P0001 T00780061",
  "station": "KNUW",
  "time": {
    "repr": "060153Z",
    "dt": "2023-02-06T01:53:00Z"
  },
  "remarks": "RMK RAB26 SLP174 P0001 T00780061",
  "dewpoint": {
    "repr": "06",
    "value": 6,
    "spoken": "six"
  },
  "relative_humidity": 0.8899294340036578,
  "remarks_info": {
    "maximum_temperature_6": null,
    "minimum_temperature_6": null,
    "pressure_tendency": null,
    "precip_36_hours": null,
    "precip_24_hours": null,
    "sunshine_minutes": null,
    "codes": [
      {
        "repr": "RAB26",
        "value": "Rain began at :26"
      }
    ],
    "dewpoint_decimal": {
      "repr": "0061",
      "value": 6.1,
      "spoken": "six point one"
    },
    "maximum_temperature_24": null,
    "minimum_temperature_24": null,
    "precip_hourly": {
      "repr": "P0001",
      "value": 0.01,
      "spoken": "zero point zero one"
    },
    "sea_level_pressure": {
      "repr": "SLP174",
      "value": 1017.4,
      "spoken": "one zero one seven point four"
    },
    "snow_depth": null,
    "temperature_decimal": {
      "repr": "0078",
      "value": 7.8,
      "spoken": "seven point eight"
    }
  },
  "runway_visibility": [],
  "temperature": {
    "repr": "08",
    "value": 8,
    "spoken": "eight"
  },
  "wind_variable_direction": [],
  "density_altitude": -936,
  "pressure_altitude": -83,
  "units": {
    "accumulation": "in",
    "altimeter": "inHg",
    "altitude": "ft",
    "temperature": "C",
    "visibility": "sm",
    "wind_speed": "kt"
  }
}
