{
  "altimeter": {
    "repr": "A2994",
    "spoken": "two nine point nine four",
    "value": 29.94
  },
  "clouds": [
    {
      "altitude": 4,
      "modifier": null,
      "repr": "VV004",
      "type": "VV"
    }
  ],
  "density_altitude": -430,
  "dewpoint": {
    "repr": "11",
    "spoken": "one one",
    "value": 11
  },
  "flight_rules": "LIFR",
  "meta": {
    "stations_updated": "2024-06-12",
    "timestamp": "2024-09-24T14:31:21.270678Z"
  },
  "other": [],
  "pressure_altitude": 27,
  "raw": "KNUW 241353Z 25003KT 1/2SM FG VV004 11/11 A2994 RMK AO2 SLP142 T01110111",
  "relative_humidity": 1,
  "remarks": "RMK AO2 SLP142 T01110111",
  "remarks_info": {
    "codes": [
      {
        "repr": "AO2",
        "value": "Automated with precipitation sensor"
      }
    ],
    "dewpoint_decimal": {
      "repr": "0111",
      "spoken": "one one point one",
      "value": 11.1
    },
    "maximum_temperature_24": null,
    "maximum_temperature_6": null,
    "minimum_temperature_24": null,
    "minimum_temperature_6": null,
    "precip_24_hours": null,
    "precip_36_hours": null,
    "precip_hourly": null,
    "pressure_tendency": null,
    "sea_level_pressure": {
      "repr": "SLP142",
      "spoken": "one zero one four point two",
      "value": 1014.2
    },
    "snow_depth": null,
    "sunshine_minutes": null,
    "temperature_decimal": {
      "repr": "0111",
      "spoken": "one one point one",
      "value": 11.1
    }
  },
  "runway_visibility": [],
  "sanitized": "KNUW 241353Z 25003KT 1/2SM FG VV004 11/11 A2994 RMK AO2 SLP142 T01110111",
  "station": "KNUW",
  "temperature": {
    "repr": "11",
    "spoken": "one one",
    "value": 11
  },
  "time": {
    "dt": "2024-09-24T13:53:00Z",
    "repr": "241353Z"
  },
  "units": {
    "accumulation": "in",
    "altimeter": "inHg",
    "altitude": "ft",
    "temperature": "C",
    "visibility": "sm",
    "wind_speed": "kt"
  },
  "visibility": {
    "denominator": 2,
    "normalized": "1/2",
    "numerator": 1,
    "repr": "1/2",
    "spoken": "one half",
    "value": 0.5
  },
  "wind_direction": {
    "repr": "250",
    "spoken": "two five zero",
    "value": 250
  },
  "wind_gust": null,
  "wind_speed": {
    "repr": "03",
    "spoken": "three",
    "value": 3
  },
  "wind_variable_direction": [],
  "wx_codes": [
    {
      "repr": "FG",
      "value": "Fog"
    }
  ]
}
