{
  "altimeter": {
    "repr": "A2986",
    "spoken": "two nine point eight six",
    "value": 29.86
  },
  "clouds": [
    {
      "altitude": 30,
      "modifier": null,
      "repr": "FEW030",
      "type": "FEW"
    },
    {
      "altitude": 80,
      "modifier": null,
      "repr": "SCT080",
      "type": "SCT"
    },
    {
      "altitude": 160,
      "modifier": null,
      "repr": "SCT160",
      "type": "SCT"
    },
    {
      "altitude": 250,
      "modifier": null,
      "repr": "SCT250",
      "type": "SCT"
    }
  ],
  "density_altitude": -218,
  "dewpoint": {
    "repr": "10",
    "spoken": "one zero",
    "value": 10
  },
  "flight_rules": "VFR",
  "meta": {
    "stations_updated": "2024-06-12",
    "timestamp": "2024-09-26T05:42:32.336941Z"
  },
  "other": [],
  "pressure_altitude": 107,
  "raw": "KNUW 260453Z 26019G30KT 10SM FEW030 SCT080 SCT160 SCT250 12/10 A2986 RMK PK WND 26033/0400 SLP114 T01220100",
  "relative_humidity": 0.8641296231599346,
  "remarks": "RMK PK WND 26033/0400 SLP114 T01220100",
  "remarks_info": {
    "codes": [],
    "dewpoint_decimal": {
      "repr": "0100",
      "spoken": "one zero point zero",
      "value": 10
    },
    "maximum_temperature_24": null,
    "maximum_temperature_6": null,
    "minimum_temperature_24": null,
    "minimum_temperature_6": null,
    "precip_24_hours": null,
    "precip_36_hours": null,
    "precip_hourly": null,
    "pressure_tendency": null,
    "sea_level_pressure": {
      "repr": "SLP114",
      "spoken": "one zero one one point four",
      "value": 1011.4
    },
    "snow_depth": null,
    "sunshine_minutes": null,
    "temperature_decimal": {
      "repr": "0122",
      "spoken": "one two point two",
      "value": 12.2
    }
  },
  "runway_visibility": [],
  "sanitized": "KNUW 260453Z 26019G30KT 10SM FEW030 SCT080 SCT160 SCT250 12/10 A2986 RMK PK WND 26033/0400 SLP114 T01220100",
  "station": "KNUW",
  "temperature": {
    "repr": "12",
    "spoken": "one two",
    "value": 12
  },
  "time": {
    "dt": "2024-09-26T04:53:00Z",
    "repr": "260453Z"
  },
  "units": {
    "accumulation": "in",
    "altimeter": "inHg",
    "altitude": "ft",
    "temperature": "C",
    "visibility": "sm",
    "wind_speed": "kt"
  },
  "visibility": {
    "repr": "10",
    "spoken": "one zero",
    "value": 10
  },
  "wind_direction": {
    "repr": "260",
    "spoken": "two six zero",
    "value": 260
  },
  "wind_gust": {
    "repr": "30",
    "spoken": "three zero",
    "value": 30
  },
  "wind_speed": {
    "repr": "19",
    "spoken": "one nine",
    "value": 19
  },
  "wind_variable_direction": [],
  "wx_codes": []
}
