{
  "altimeter": {
    "repr": "A2961",
    "spoken": "two nine point six one",
    "value": 29.61
  },
  "clouds": [
    {
      "altitude": 35,
      "modifier": null,
      "repr": "FEW035",
      "type": "FEW"
    },
    {
      "altitude": 70,
      "modifier": null,
      "repr": "SCT070",
      "type": "SCT"
    },
    {
      "altitude": 120,
      "modifier": null,
      "repr": "BKN120",
      "type": "BKN"
    }
  ],
  "density_altitude": -1036,
  "dewpoint": {
    "repr": "03",
    "spoken": "three",
    "value": 3
  },
  "flight_rules": "VFR",
  "meta": {
    "cache-timestamp": "2024-01-20T19:40:04.531000Z",
    "stations_updated": "2023-10-28",
    "timestamp": "2024-01-20T19:40:32.997951Z"
  },
  "other": [],
  "pressure_altitude": 357,
  "raw": "KNUW 201853Z 11003KT 10SM FEW035 SCT070 BKN120 03/03 A2961 RMK AO2 SLP031 T00330028 $",
  "relative_humidity": 0.9652276930831346,
  "remarks": "RMK AO2 SLP031 T00330028 $",
  "remarks_info": {
    "codes": [
      {
        "repr": "$",
        "value": "ASOS requires maintenance"
      },
      {
        "repr": "AO2",
        "value": "Automated with precipitation sensor"
      }
    ],
    "dewpoint_decimal": {
      "repr": "0028",
      "spoken": "two point eight",
      "value": 2.8
    },
    "maximum_temperature_24": null,
    "maximum_temperature_6": null,
    "minimum_temperature_24": null,
    "minimum_temperature_6": null,
    "precip_24_hours": null,
    "precip_36_hours": null,
    "precip_hourly": null,
    "pressure_tendency": null,
    "sea_level_pressure": {
      "repr": "SLP031",
      "spoken": "one zero zero three point one",
      "value": 1003.1
    },
    "snow_depth": null,
    "sunshine_minutes": null,
    "temperature_decimal": {
      "repr": "0033",
      "spoken": "three point three",
      "value": 3.3
    }
  },
  "runway_visibility": [],
  "sanitized": "KNUW 201853Z 11003KT 10SM FEW035 SCT070 BKN120 03/03 A2961 RMK AO2 SLP031 T00330028 $",
  "station": "KNUW",
  "temperature": {
    "repr": "03",
    "spoken": "three",
    "value": 3
  },
  "time": {
    "dt": "2024-01-20T18:53:00Z",
    "repr": "201853Z"
  },
  "units": {
    "accumulation": "in",
    "altimeter": "inHg",
    "altitude": "ft",
    "temperature": "C",
    "visibility": "sm",
    "wind_speed": "kt"
  },
  "visibility": {
    "repr": "10",
    "spoken": "one zero",
    "value": 10
  },
  "wind_direction": {
    "repr": "110",
    "spoken": "one one zero",
    "value": 110
  },
  "wind_gust": null,
  "wind_speed": {
    "repr": "03",
    "spoken": "three",
    "value": 3
  },
  "wind_variable_direction": [],
  "wx_codes": []
}
