{
  "meta": {
    "timestamp": "2023-10-11T04:27:12.337342Z",
    "stations_updated": "2023-10-01"
  },
  "altimeter": {
    "repr": "A2942",
    "value": 29.42,
    "spoken": "two nine point four two"
  },
  "clouds": [
    {
      "repr": "SCT048",
      "type": "SCT",
      "altitude": 48,
      "modifier": null
    },
    {
      "repr": "BKN060",
      "type": "BKN",
      "altitude": 60,
      "modifier": null
    },
    {
      "repr": "OVC075",
      "type": "OVC",
      "altitude": 75,
      "modifier": null
    }
  ],
  "flight_rules": "VFR",
  "other": [],
  "visibility": {
    "repr": "10",
    "value": 10,
    "spoken": "one zero"
  },
  "wind_direction": {
    "repr": "120",
    "value": 120,
    "spoken": "one two zero"
  },
  "wind_gust": null,
  "wind_speed": {
    "repr": "09",
    "value": 9,
    "spoken": "nine"
  },
  "wx_codes": [
    {
      "repr": "-RA",
      "value": "Light Rain"
    }
  ],
  "raw": "KNUW 110353Z 12009KT 10SM -RA SCT048 BKN060 OVC075 13/12 A2942 RMK AO2 SLP968 P0006 T01280117",
  "sanitized": "KNUW 110353Z 12009KT 10SM -RA SCT048 BKN060 OVC075 13/12 A2942 RMK AO2 SLP968 P0006 T01280117",
  "station": "KNUW",
  "time": {
    "repr": "110353Z",
    "dt": "2023-10-11T03:53:00Z"
  },
  "remarks": "RMK AO2 SLP968 P0006 T01280117",
  "dewpoint": {
    "repr": "12",
    "value": 12,
    "spoken": "one two"
  },
  "relative_humidity": 0.9301959082873248,
  "remarks_info": {
    "maximum_temperature_6": null,
    "minimum_temperature_6": null,
    "pressure_tendency": null,
    "precip_36_hours": null,
    "precip_24_hours": null,
    "sunshine_minutes": null,
    "codes": [
      {
        "repr": "AO2",
        "value": "Automated with precipitation sensor"
      }
    ],
    "dewpoint_decimal": {
      "repr": "0117",
      "value": 11.7,
      "spoken": "one one point seven"
    },
    "maximum_temperature_24": null,
    "minimum_temperature_24": null,
    "precip_hourly": {
      "repr": "P0006",
      "value": 0.06,
      "spoken": "zero point zero six"
    },
    "sea_level_pressure": {
      "repr": "SLP968",
      "value": 996.8,
      "spoken": "nine nine six point eight"
    },
    "snow_depth": null,
    "temperature_decimal": {
      "repr": "0128",
      "value": 12.8,
      "spoken": "one two point eight"
    }
  },
  "runway_visibility": [],
  "temperature": {
    "repr": "13",
    "value": 13,
    "spoken": "one three"
  },
  "wind_variable_direction": [],
  "density_altitude": 294,
  "pressure_altitude": 547,
  "units": {
    "accumulation": "in",
    "altimeter": "inHg",
    "altitude": "ft",
    "temperature": "C",
    "visibility": "sm",
    "wind_speed": "kt"
  }
}
