{
  "altimeter": {
    "repr": "A2958",
    "spoken": "two nine point five eight",
    "value": 29.58
  },
  "clouds": [
    {
      "altitude": 30,
      "modifier": null,
      "repr": "SCT030",
      "type": "SCT"
    },
    {
      "altitude": 41,
      "modifier": null,
      "repr": "OVC041",
      "type": "OVC"
    }
  ],
  "density_altitude": -598,
  "dewpoint": {
    "repr": "04",
    "spoken": "four",
    "value": 4
  },
  "flight_rules": "VFR",
  "meta": {
    "stations_updated": "2024-10-29",
    "timestamp": "2024-11-20T13:17:57.467346Z"
  },
  "other": [],
  "pressure_altitude": 387,
  "raw": "KNUW 201253Z 10022G34KT 10SM SCT030 OVC041 07/04 A2958 RMK AO2 PK WND 12041/1210 RAE1159 SLP020 P0000 T00670039 $",
  "relative_humidity": 0.8231403572695032,
  "remarks": "RMK AO2 PK WND 12041/1210 RAE1159 SLP020 P0000 T00670039 $",
  "remarks_info": {
    "codes": [
      {
        "repr": "$",
        "value": "ASOS requires maintenance"
      },
      {
        "repr": "AO2",
        "value": "Automated with precipitation sensor"
      },
      {
        "repr": "P0000",
        "value": "Trace amount of rain in the last hour"
      }
    ],
    "dewpoint_decimal": {
      "repr": "0039",
      "spoken": "three point nine",
      "value": 3.9
    },
    "maximum_temperature_24": null,
    "maximum_temperature_6": null,
    "minimum_temperature_24": null,
    "minimum_temperature_6": null,
    "precip_24_hours": null,
    "precip_36_hours": null,
    "precip_hourly": null,
    "pressure_tendency": null,
    "sea_level_pressure": {
      "repr": "SLP020",
      "spoken": "one zero zero two point zero",
      "value": 1002
    },
    "snow_depth": null,
    "sunshine_minutes": null,
    "temperature_decimal": {
      "repr": "0067",
      "spoken": "six point seven",
      "value": 6.7
    }
  },
  "runway_visibility": [],
  "sanitized": "KNUW 201253Z 10022G34KT 10SM SCT030 OVC041 07/04 A2958 RMK AO2 PK WND 12041/1210 RAE1159 SLP020 P0000 T00670039 $",
  "station": "KNUW",
  "temperature": {
    "repr": "07",
    "spoken": "seven",
    "value": 7
  },
  "time": {
    "dt": "2024-11-20T12:53:00Z",
    "repr": "201253Z"
  },
  "units": {
    "accumulation": "in",
    "altimeter": "inHg",
    "altitude": "ft",
    "temperature": "C",
    "visibility": "sm",
    "wind_speed": "kt"
  },
  "visibility": {
    "repr": "10",
    "spoken": "one zero",
    "value": 10
  },
  "wind_direction": {
    "repr": "100",
    "spoken": "one zero zero",
    "value": 100
  },
  "wind_gust": {
    "repr": "34",
    "spoken": "three four",
    "value": 34
  },
  "wind_speed": {
    "repr": "22",
    "spoken": "two two",
    "value": 22
  },
  "wind_variable_direction": [],
  "wx_codes": []
}
