{
  "altimeter": {
    "repr": "A2958",
    "spoken": "two nine point five eight",
    "value": 29.58
  },
  "clouds": [
    {
      "altitude": 50,
      "modifier": null,
      "repr": "BKN050",
      "type": "BKN"
    }
  ],
  "density_altitude": -598,
  "dewpoint": {
    "repr": "03",
    "spoken": "three",
    "value": 3
  },
  "flight_rules": "VFR",
  "meta": {
    "stations_updated": "2024-10-29",
    "timestamp": "2024-11-20T14:44:41.493948Z"
  },
  "other": [],
  "pressure_altitude": 387,
  "raw": "KNUW 201353Z 12024G38KT 10SM BKN050 07/03 A2958 RMK AO2 PK WND 12038/1353 RAB33E43 SLP021 P0000 T00670033 $",
  "relative_humidity": 0.7890629122317202,
  "remarks": "RMK AO2 PK WND 12038/1353 RAB33E43 SLP021 P0000 T00670033 $",
  "remarks_info": {
    "codes": [
      {
        "repr": "$",
        "value": "ASOS requires maintenance"
      },
      {
        "repr": "AO2",
        "value": "Automated with precipitation sensor"
      },
      {
        "repr": "P0000",
        "value": "Trace amount of rain in the last hour"
      }
    ],
    "dewpoint_decimal": {
      "repr": "0033",
      "spoken": "three point three",
      "value": 3.3
    },
    "maximum_temperature_24": null,
    "maximum_temperature_6": null,
    "minimum_temperature_24": null,
    "minimum_temperature_6": null,
    "precip_24_hours": null,
    "precip_36_hours": null,
    "precip_hourly": null,
    "pressure_tendency": null,
    "sea_level_pressure": {
      "repr": "SLP021",
      "spoken": "one zero zero two point one",
      "value": 1002.1
    },
    "snow_depth": null,
    "sunshine_minutes": null,
    "temperature_decimal": {
      "repr": "0067",
      "spoken": "six point seven",
      "value": 6.7
    }
  },
  "runway_visibility": [],
  "sanitized": "KNUW 201353Z 12024G38KT 10SM BKN050 07/03 A2958 RMK AO2 PK WND 12038/1353 RAB33E43 SLP021 P0000 T00670033 $",
  "station": "KNUW",
  "temperature": {
    "repr": "07",
    "spoken": "seven",
    "value": 7
  },
  "time": {
    "dt": "2024-11-20T13:53:00Z",
    "repr": "201353Z"
  },
  "units": {
    "accumulation": "in",
    "altimeter": "inHg",
    "altitude": "ft",
    "temperature": "C",
    "visibility": "sm",
    "wind_speed": "kt"
  },
  "visibility": {
    "repr": "10",
    "spoken": "one zero",
    "value": 10
  },
  "wind_direction": {
    "repr": "120",
    "spoken": "one two zero",
    "value": 120
  },
  "wind_gust": {
    "repr": "38",
    "spoken": "three eight",
    "value": 38
  },
  "wind_speed": {
    "repr": "24",
    "spoken": "two four",
    "value": 24
  },
  "wind_variable_direction": [],
  "wx_codes": []
}
