{
  "altimeter": {
    "repr": "A2933",
    "spoken": "two nine point three three",
    "value": 29.33
  },
  "clouds": [
    {
      "altitude": 13,
      "modifier": null,
      "repr": "SCT013",
      "type": "SCT"
    },
    {
      "altitude": 20,
      "modifier": null,
      "repr": "BKN020",
      "type": "BKN"
    },
    {
      "altitude": 40,
      "modifier": null,
      "repr": "BKN040",
      "type": "BKN"
    }
  ],
  "density_altitude": -624,
  "dewpoint": {
    "repr": "02",
    "spoken": "two",
    "value": 2
  },
  "flight_rules": "MVFR",
  "meta": {
    "cache-timestamp": "2024-03-02T16:06:04.388000Z",
    "stations_updated": "2024-01-01",
    "timestamp": "2024-03-02T16:06:05.950300Z"
  },
  "other": [],
  "pressure_altitude": 637,
  "raw": "KNUW 021553Z 16010KT 10SM SCT013 BKN020 BKN040 04/02 A2933 RMK AO2 PK WND 15033/1455 SLP934 T00440017 $",
  "relative_humidity": 0.8260348577577609,
  "remarks": "RMK AO2 PK WND 15033/1455 SLP934 T00440017 $",
  "remarks_info": {
    "codes": [
      {
        "repr": "$",
        "value": "ASOS requires maintenance"
      },
      {
        "repr": "AO2",
        "value": "Automated with precipitation sensor"
      }
    ],
    "dewpoint_decimal": {
      "repr": "0017",
      "spoken": "one point seven",
      "value": 1.7
    },
    "maximum_temperature_24": null,
    "maximum_temperature_6": null,
    "minimum_temperature_24": null,
    "minimum_temperature_6": null,
    "precip_24_hours": null,
    "precip_36_hours": null,
    "precip_hourly": null,
    "pressure_tendency": null,
    "sea_level_pressure": {
      "repr": "SLP934",
      "spoken": "nine nine three point four",
      "value": 993.4
    },
    "snow_depth": null,
    "sunshine_minutes": null,
    "temperature_decimal": {
      "repr": "0044",
      "spoken": "four point four",
      "value": 4.4
    }
  },
  "runway_visibility": [],
  "sanitized": "KNUW 021553Z 16010KT 10SM SCT013 BKN020 BKN040 04/02 A2933 RMK AO2 PK WND 15033/1455 SLP934 T00440017 $",
  "station": "KNUW",
  "temperature": {
    "repr": "04",
    "spoken": "four",
    "value": 4
  },
  "time": {
    "dt": "2024-03-02T15:53:00Z",
    "repr": "021553Z"
  },
  "units": {
    "accumulation": "in",
    "altimeter": "inHg",
    "altitude": "ft",
    "temperature": "C",
    "visibility": "sm",
    "wind_speed": "kt"
  },
  "visibility": {
    "repr": "10",
    "spoken": "one zero",
    "value": 10
  },
  "wind_direction": {
    "repr": "160",
    "spoken": "one six zero",
    "value": 160
  },
  "wind_gust": null,
  "wind_speed": {
    "repr": "10",
    "spoken": "one zero",
    "value": 10
  },
  "wind_variable_direction": [],
  "wx_codes": []
}
