{
  "altimeter": {
    "repr": "A2998",
    "spoken": "two nine point nine eight",
    "value": 29.98
  },
  "clouds": [
    {
      "altitude": 15,
      "modifier": null,
      "repr": "SCT015",
      "type": "SCT"
    },
    {
      "altitude": 45,
      "modifier": null,
      "repr": "SCT045",
      "type": "SCT"
    },
    {
      "altitude": 80,
      "modifier": null,
      "repr": "BKN080",
      "type": "BKN"
    },
    {
      "altitude": 130,
      "modifier": null,
      "repr": "BKN130",
      "type": "BKN"
    }
  ],
  "density_altitude": -938,
  "dewpoint": {
    "repr": "04",
    "spoken": "four",
    "value": 4
  },
  "flight_rules": "VFR",
  "meta": {
    "stations_updated": "2023-10-28",
    "timestamp": "2023-11-15T22:01:20.206062Z"
  },
  "other": [],
  "pressure_altitude": -13,
  "raw": "KNUW 152053Z 34006KT 10SM SCT015 SCT045 BKN080 BKN130 07/04 A2998 RMK SLP157 T00720039 51004",
  "relative_humidity": 0.79538726181392,
  "remarks": "RMK SLP157 T00720039 51004",
  "remarks_info": {
    "codes": [],
    "dewpoint_decimal": {
      "repr": "0039",
      "spoken": "three point nine",
      "value": 3.9
    },
    "maximum_temperature_24": null,
    "maximum_temperature_6": null,
    "minimum_temperature_24": null,
    "minimum_temperature_6": null,
    "precip_24_hours": null,
    "precip_36_hours": null,
    "precip_hourly": null,
    "pressure_tendency": {
      "change": 0.4,
      "repr": "51004",
      "tendency": "Increasing, then steady"
    },
    "sea_level_pressure": {
      "repr": "SLP157",
      "spoken": "one zero one five point seven",
      "value": 1015.7
    },
    "snow_depth": null,
    "sunshine_minutes": null,
    "temperature_decimal": {
      "repr": "0072",
      "spoken": "seven point two",
      "value": 7.2
    }
  },
  "runway_visibility": [],
  "sanitized": "KNUW 152053Z 34006KT 10SM SCT015 SCT045 BKN080 BKN130 07/04 A2998 RMK SLP157 T00720039 51004",
  "station": "KNUW",
  "temperature": {
    "repr": "07",
    "spoken": "seven",
    "value": 7
  },
  "time": {
    "dt": "2023-11-15T20:53:00Z",
    "repr": "152053Z"
  },
  "units": {
    "accumulation": "in",
    "altimeter": "inHg",
    "altitude": "ft",
    "temperature": "C",
    "visibility": "sm",
    "wind_speed": "kt"
  },
  "visibility": {
    "repr": "10",
    "spoken": "one zero",
    "value": 10
  },
  "wind_direction": {
    "repr": "340",
    "spoken": "three four zero",
    "value": 340
  },
  "wind_gust": null,
  "wind_speed": {
    "repr": "06",
    "spoken": "six",
    "value": 6
  },
  "wind_variable_direction": [],
  "wx_codes": []
}
