{
  "meta": {
    "timestamp": "2022-08-21T04:04:28.196754Z",
    "stations_updated": "2022-07-17"
  },
  "altimeter": {
    "repr": "A2998",
    "value": 29.98,
    "spoken": "two nine point nine eight"
  },
  "clouds": [
    {
      "repr": "FEW035",
      "type": "FEW",
      "altitude": 35,
      "modifier": null
    },
    {
      "repr": "FEW110",
      "type": "FEW",
      "altitude": 110,
      "modifier": null
    },
    {
      "repr": "SCT220",
      "type": "SCT",
      "altitude": 220,
      "modifier": null
    }
  ],
  "flight_rules": "VFR",
  "other": [],
  "visibility": {
    "repr": "10",
    "value": 10,
    "spoken": "one zero"
  },
  "wind_direction": {
    "repr": "240",
    "value": 240,
    "spoken": "two four zero"
  },
  "wind_gust": null,
  "wind_speed": {
    "repr": "03",
    "value": 3,
    "spoken": "three"
  },
  "wx_codes": [],
  "raw": "KNUW 210353Z 24003KT 10SM FEW035 FEW110 SCT220 16/13 A2998 RMK SLP152 T01560128",
  "sanitized": "KNUW 210353Z 24003KT 10SM FEW035 FEW110 SCT220 16/13 A2998 RMK SLP152 T01560128",
  "station": "KNUW",
  "time": {
    "repr": "210353Z",
    "dt": "2022-08-21T03:53:00Z"
  },
  "remarks": "RMK SLP152 T01560128",
  "dewpoint": {
    "repr": "13",
    "value": 13,
    "spoken": "one three"
  },
  "relative_humidity": 0.8340876297806936,
  "remarks_info": {
    "maximum_temperature_6": null,
    "minimum_temperature_6": null,
    "pressure_tendency": null,
    "precip_36_hours": null,
    "precip_24_hours": null,
    "sunshine_minutes": null,
    "codes": [],
    "dewpoint_decimal": {
      "repr": "0128",
      "value": 12.8,
      "spoken": "one two point eight"
    },
    "maximum_temperature_24": null,
    "minimum_temperature_24": null,
    "precip_hourly": null,
    "sea_level_pressure": {
      "repr": "SLP152",
      "value": 1015.2,
      "spoken": "one zero one five point two"
    },
    "snow_depth": null,
    "temperature_decimal": {
      "repr": "0156",
      "value": 15.6,
      "spoken": "one five point six"
    }
  },
  "runway_visibility": [],
  "temperature": {
    "repr": "16",
    "value": 16,
    "spoken": "one six"
  },
  "wind_variable_direction": [],
  "density_altitude": 70,
  "pressure_altitude": -13,
  "units": {
    "accumulation": "in",
    "altimeter": "inHg",
    "altitude": "ft",
    "temperature": "C",
    "visibility": "sm",
    "wind_speed": "kt"
  }
}
