{
  "meta": {
    "timestamp": "2022-12-26T03:04:11.320547Z",
    "stations_updated": "2022-09-05"
  },
  "altimeter": {
    "repr": "A2994",
    "value": 29.94,
    "spoken": "two nine point nine four"
  },
  "clouds": [],
  "flight_rules": "VFR",
  "other": [],
  "visibility": {
    "repr": "10",
    "value": 10,
    "spoken": "one zero"
  },
  "wind_direction": {
    "repr": "140",
    "value": 140,
    "spoken": "one four zero"
  },
  "wind_gust": {
    "repr": "32",
    "value": 32,
    "spoken": "three two"
  },
  "wind_speed": {
    "repr": "24",
    "value": 24,
    "spoken": "two four"
  },
  "wx_codes": [],
  "raw": "KNUW 260253Z AUTO 14024G32KT 10SM CLR 13/10 A2994 RMK AO2 PK WND 14035/0238 SLP138 T01280100 56035 VISNO $",
  "sanitized": "KNUW 260253Z 14024G32KT 10SM 13/10 A2994 RMK AO2 PK WND 14035/0238 SLP138 T01280100 56035 VISNO $",
  "station": "KNUW",
  "time": {
    "repr": "260253Z",
    "dt": "2022-12-26T02:53:00Z"
  },
  "remarks": "RMK AO2 PK WND 14035/0238 SLP138 T01280100 56035 VISNO $",
  "dewpoint": {
    "repr": "10",
    "value": 10,
    "spoken": "one zero"
  },
  "relative_humidity": 0.8307516046332555,
  "remarks_info": {
    "maximum_temperature_6": null,
    "minimum_temperature_6": null,
    "pressure_tendency": {
      "repr": "56035",
      "tendency": "Decreasing, then steady",
      "change": 3.5
    },
    "precip_36_hours": null,
    "precip_24_hours": null,
    "sunshine_minutes": null,
    "codes": [
      {
        "repr": "$",
        "value": "ASOS requires maintenance"
      },
      {
        "repr": "AO2",
        "value": "Automated with precipitation sensor"
      }
    ],
    "dewpoint_decimal": {
      "repr": "0100",
      "value": 10,
      "spoken": "one zero point zero"
    },
    "maximum_temperature_24": null,
    "minimum_temperature_24": null,
    "precip_hourly": null,
    "sea_level_pressure": {
      "repr": "SLP138",
      "value": 1013.8,
      "spoken": "one zero one three point eight"
    },
    "snow_depth": null,
    "temperature_decimal": {
      "repr": "0128",
      "value": 12.8,
      "spoken": "one two point eight"
    }
  },
  "runway_visibility": [],
  "temperature": {
    "repr": "13",
    "value": 13,
    "spoken": "one three"
  },
  "wind_variable_direction": [],
  "density_altitude": -226,
  "pressure_altitude": 27,
  "units": {
    "accumulation": "in",
    "altimeter": "inHg",
    "altitude": "ft",
    "temperature": "C",
    "visibility": "sm",
    "wind_speed": "kt"
  }
}
