{
  "meta": {
    "timestamp": "2023-03-22T14:40:56.252173Z",
    "stations_updated": "2023-03-11",
    "cache-timestamp": "2023-03-22T14:40:06.674000Z"
  },
  "altimeter": {
    "repr": "A2980",
    "value": 29.8,
    "spoken": "two nine point eight zero"
  },
  "clouds": [
    {
      "repr": "FEW000",
      "type": "FEW",
      "altitude": 0,
      "modifier": null
    },
    {
      "repr": "FEW240",
      "type": "FEW",
      "altitude": 240,
      "modifier": null
    }
  ],
  "flight_rules": "MVFR",
  "other": [],
  "visibility": {
    "repr": "5",
    "value": 5,
    "spoken": "five"
  },
  "wind_direction": {
    "repr": "050",
    "value": 50,
    "spoken": "zero five zero"
  },
  "wind_gust": null,
  "wind_speed": {
    "repr": "04",
    "value": 4,
    "spoken": "four"
  },
  "wx_codes": [
    {
      "repr": "BR",
      "value": "Mist"
    }
  ],
  "raw": "KNUW 221353Z 05004KT 5SM BR FEW000 FEW240 02/01 A2980 RMK AO2 SLP095 VIS SE 2 1/2 FG FEW000 FG BANK SE T00170011 VISNO $",
  "sanitized": "KNUW 221353Z 05004KT 5SM BR FEW000 FEW240 02/01 A2980 RMK AO2 SLP095 VIS SE 2 1/2 FG FEW000 FG BANK SE T00170011 VISNO $",
  "station": "KNUW",
  "time": {
    "repr": "221353Z",
    "dt": "2023-03-22T13:53:00Z"
  },
  "remarks": "RMK AO2 SLP095 VIS SE 2 1/2 FG FEW000 FG BANK SE T00170011 VISNO $",
  "dewpoint": {
    "repr": "01",
    "value": 1,
    "spoken": "one"
  },
  "relative_humidity": 0.9578695064206159,
  "remarks_info": {
    "maximum_temperature_6": null,
    "minimum_temperature_6": null,
    "pressure_tendency": null,
    "precip_36_hours": null,
    "precip_24_hours": null,
    "sunshine_minutes": null,
    "codes": [
      {
        "repr": "$",
        "value": "ASOS requires maintenance"
      },
      {
        "repr": "AO2",
        "value": "Automated with precipitation sensor"
      }
    ],
    "dewpoint_decimal": {
      "repr": "0011",
      "value": 1.1,
      "spoken": "one point one"
    },
    "maximum_temperature_24": null,
    "minimum_temperature_24": null,
    "precip_hourly": null,
    "sea_level_pressure": {
      "repr": "SLP095",
      "value": 1009.5,
      "spoken": "one zero zero nine point five"
    },
    "snow_depth": null,
    "temperature_decimal": {
      "repr": "0017",
      "value": 1.7,
      "spoken": "one point seven"
    }
  },
  "runway_visibility": [],
  "temperature": {
    "repr": "02",
    "value": 2,
    "spoken": "two"
  },
  "wind_variable_direction": [],
  "density_altitude": -1418,
  "pressure_altitude": 167,
  "units": {
    "accumulation": "in",
    "altimeter": "inHg",
    "altitude": "ft",
    "temperature": "C",
    "visibility": "sm",
    "wind_speed": "kt"
  }
}
