{
  "altimeter": {
    "repr": "A3045",
    "spoken": "three zero point four five",
    "value": 30.45
  },
  "clouds": [
    {
      "altitude": 35,
      "modifier": null,
      "repr": "FEW035",
      "type": "FEW"
    },
    {
      "altitude": 65,
      "modifier": null,
      "repr": "BKN065",
      "type": "BKN"
    }
  ],
  "density_altitude": -1276,
  "dewpoint": {
    "repr": "06",
    "spoken": "six",
    "value": 6
  },
  "flight_rules": "VFR",
  "meta": {
    "stations_updated": "2024-12-02",
    "timestamp": "2025-01-11T12:11:41.747714Z"
  },
  "other": [],
  "pressure_altitude": -483,
  "raw": "KNUW 111153Z 28011KT 10SM FEW035 BKN065 08/06 A3045 RMK AO2 SLP316 70029 T00830056 10089 20078 51012 $",
  "relative_humidity": 0.8309278587907312,
  "remarks": "RMK AO2 SLP316 70029 T00830056 10089 20078 51012 $",
  "remarks_info": {
    "codes": [
      {
        "repr": "$",
        "value": "ASOS requires maintenance"
      },
      {
        "repr": "AO2",
        "value": "Automated with precipitation sensor"
      }
    ],
    "dewpoint_decimal": {
      "repr": "0056",
      "spoken": "five point six",
      "value": 5.6
    },
    "maximum_temperature_24": null,
    "maximum_temperature_6": {
      "repr": "10089",
      "spoken": "eight point nine",
      "value": 8.9
    },
    "minimum_temperature_24": null,
    "minimum_temperature_6": {
      "repr": "20078",
      "spoken": "seven point eight",
      "value": 7.8
    },
    "precip_24_hours": {
      "repr": "70029",
      "spoken": "zero point two nine",
      "value": 0.29
    },
    "precip_36_hours": null,
    "precip_hourly": null,
    "pressure_tendency": {
      "change": 1.2,
      "repr": "51012",
      "tendency": "Increasing, then steady"
    },
    "sea_level_pressure": {
      "repr": "SLP316",
      "spoken": "one zero three one point six",
      "value": 1031.6
    },
    "snow_depth": null,
    "sunshine_minutes": null,
    "temperature_decimal": {
      "repr": "0083",
      "spoken": "eight point three",
      "value": 8.3
    }
  },
  "runway_visibility": [],
  "sanitized": "KNUW 111153Z 28011KT 10SM FEW035 BKN065 08/06 A3045 RMK AO2 SLP316 70029 T00830056 10089 20078 51012 $",
  "station": "KNUW",
  "temperature": {
    "repr": "08",
    "spoken": "eight",
    "value": 8
  },
  "time": {
    "dt": "2025-01-11T11:53:00Z",
    "repr": "111153Z"
  },
  "units": {
    "accumulation": "in",
    "altimeter": "inHg",
    "altitude": "ft",
    "temperature": "C",
    "visibility": "sm",
    "wind_speed": "kt"
  },
  "visibility": {
    "repr": "10",
    "spoken": "one zero",
    "value": 10
  },
  "wind_direction": {
    "repr": "280",
    "spoken": "two eight zero",
    "value": 280
  },
  "wind_gust": null,
  "wind_speed": {
    "repr": "11",
    "spoken": "one one",
    "value": 11
  },
  "wind_variable_direction": [],
  "wx_codes": []
}
