{
  "altimeter": {
    "repr": "A3000",
    "spoken": "three zero point zero zero",
    "value": 30
  },
  "clouds": [
    {
      "altitude": 220,
      "modifier": null,
      "repr": "FEW220",
      "type": "FEW"
    }
  ],
  "density_altitude": -754,
  "dewpoint": {
    "repr": "02",
    "spoken": "two",
    "value": 2
  },
  "flight_rules": "VFR",
  "meta": {
    "stations_updated": "2023-10-28",
    "timestamp": "2023-11-17T23:23:32.562142Z"
  },
  "other": [],
  "pressure_altitude": -33,
  "raw": "KNUW 172253Z 33005KT 10SM FEW220 09/02 A3000 RMK AO2 SLP163 T00890017 $",
  "relative_humidity": 0.6061896631571775,
  "remarks": "RMK AO2 SLP163 T00890017 $",
  "remarks_info": {
    "codes": [
      {
        "repr": "$",
        "value": "ASOS requires maintenance"
      },
      {
        "repr": "AO2",
        "value": "Automated with precipitation sensor"
      }
    ],
    "dewpoint_decimal": {
      "repr": "0017",
      "spoken": "one point seven",
      "value": 1.7
    },
    "maximum_temperature_24": null,
    "maximum_temperature_6": null,
    "minimum_temperature_24": null,
    "minimum_temperature_6": null,
    "precip_24_hours": null,
    "precip_36_hours": null,
    "precip_hourly": null,
    "pressure_tendency": null,
    "sea_level_pressure": {
      "repr": "SLP163",
      "spoken": "one zero one six point three",
      "value": 1016.3
    },
    "snow_depth": null,
    "sunshine_minutes": null,
    "temperature_decimal": {
      "repr": "0089",
      "spoken": "eight point nine",
      "value": 8.9
    }
  },
  "runway_visibility": [],
  "sanitized": "KNUW 172253Z 33005KT 10SM FEW220 09/02 A3000 RMK AO2 SLP163 T00890017 $",
  "station": "KNUW",
  "temperature": {
    "repr": "09",
    "spoken": "nine",
    "value": 9
  },
  "time": {
    "dt": "2023-11-17T22:53:00Z",
    "repr": "172253Z"
  },
  "units": {
    "accumulation": "in",
    "altimeter": "inHg",
    "altitude": "ft",
    "temperature": "C",
    "visibility": "sm",
    "wind_speed": "kt"
  },
  "visibility": {
    "repr": "10",
    "spoken": "one zero",
    "value": 10
  },
  "wind_direction": {
    "repr": "330",
    "spoken": "three three zero",
    "value": 330
  },
  "wind_gust": null,
  "wind_speed": {
    "repr": "05",
    "spoken": "five",
    "value": 5
  },
  "wind_variable_direction": [],
  "wx_codes": []
}
