{
  "meta": {
    "timestamp": "2022-12-26T17:01:27.271019Z",
    "stations_updated": "2022-09-05"
  },
  "altimeter": {
    "repr": "A2973",
    "value": 29.73,
    "spoken": "two nine point seven three"
  },
  "clouds": [
    {
      "repr": "FEW034",
      "type": "FEW",
      "altitude": 34,
      "modifier": null
    },
    {
      "repr": "SCT044",
      "type": "SCT",
      "altitude": 44,
      "modifier": null
    }
  ],
  "flight_rules": "VFR",
  "other": [],
  "visibility": {
    "repr": "10",
    "value": 10,
    "spoken": "one zero"
  },
  "wind_direction": {
    "repr": "210",
    "value": 210,
    "spoken": "two one zero"
  },
  "wind_gust": null,
  "wind_speed": {
    "repr": "15",
    "value": 15,
    "spoken": "one five"
  },
  "wx_codes": [],
  "raw": "KNUW 261653Z AUTO 21015KT 10SM FEW034 SCT044 12/08 A2973 RMK AO2 PK WND 17031/1604 SLP068 T01170083 VISNO $",
  "sanitized": "KNUW 261653Z 21015KT 10SM FEW034 SCT044 12/08 A2973 RMK AO2 PK WND 17031/1604 SLP068 T01170083 VISNO $",
  "station": "KNUW",
  "time": {
    "repr": "261653Z",
    "dt": "2022-12-26T16:53:00Z"
  },
  "remarks": "RMK AO2 PK WND 17031/1604 SLP068 T01170083 VISNO $",
  "dewpoint": {
    "repr": "08",
    "value": 8,
    "spoken": "eight"
  },
  "relative_humidity": 0.7963986181242221,
  "remarks_info": {
    "maximum_temperature_6": null,
    "minimum_temperature_6": null,
    "pressure_tendency": null,
    "precip_36_hours": null,
    "precip_24_hours": null,
    "sunshine_minutes": null,
    "codes": [
      {
        "repr": "$",
        "value": "ASOS requires maintenance"
      },
      {
        "repr": "AO2",
        "value": "Automated with precipitation sensor"
      }
    ],
    "dewpoint_decimal": {
      "repr": "0083",
      "value": 8.3,
      "spoken": "eight point three"
    },
    "maximum_temperature_24": null,
    "minimum_temperature_24": null,
    "precip_hourly": null,
    "sea_level_pressure": {
      "repr": "SLP068",
      "value": 1006.8,
      "spoken": "one zero zero six point eight"
    },
    "snow_depth": null,
    "temperature_decimal": {
      "repr": "0117",
      "value": 11.7,
      "spoken": "one one point seven"
    }
  },
  "runway_visibility": [],
  "temperature": {
    "repr": "12",
    "value": 12,
    "spoken": "one two"
  },
  "wind_variable_direction": [],
  "density_altitude": -148,
  "pressure_altitude": 237,
  "units": {
    "accumulation": "in",
    "altimeter": "inHg",
    "altitude": "ft",
    "temperature": "C",
    "visibility": "sm",
    "wind_speed": "kt"
  }
}
