{
  "altimeter": {
    "repr": "A3004",
    "spoken": "three zero point zero four",
    "value": 30.04
  },
  "clouds": [],
  "density_altitude": -458,
  "dewpoint": {
    "repr": "11",
    "spoken": "one one",
    "value": 11
  },
  "flight_rules": "VFR",
  "meta": {
    "stations_updated": "2024-06-12",
    "timestamp": "2024-08-08T09:40:32.887927Z"
  },
  "other": [],
  "pressure_altitude": -73,
  "raw": "KNUW 080853Z 21003KT 10SM CLR 12/11 A3004 RMK SLP174 T01170106 58003",
  "relative_humidity": 0.9296133286105723,
  "remarks": "RMK SLP174 T01170106 58003",
  "remarks_info": {
    "codes": [],
    "dewpoint_decimal": {
      "repr": "0106",
      "spoken": "one zero point six",
      "value": 10.6
    },
    "maximum_temperature_24": null,
    "maximum_temperature_6": null,
    "minimum_temperature_24": null,
    "minimum_temperature_6": null,
    "precip_24_hours": null,
    "precip_36_hours": null,
    "precip_hourly": null,
    "pressure_tendency": {
      "change": 0.3,
      "repr": "58003",
      "tendency": "Steady or increasing, then decreasing"
    },
    "sea_level_pressure": {
      "repr": "SLP174",
      "spoken": "one zero one seven point four",
      "value": 1017.4
    },
    "snow_depth": null,
    "sunshine_minutes": null,
    "temperature_decimal": {
      "repr": "0117",
      "spoken": "one one point seven",
      "value": 11.7
    }
  },
  "runway_visibility": [],
  "sanitized": "KNUW 080853Z 21003KT 10SM 12/11 A3004 RMK SLP174 T01170106 58003",
  "station": "KNUW",
  "temperature": {
    "repr": "12",
    "spoken": "one two",
    "value": 12
  },
  "time": {
    "dt": "2024-08-08T08:53:00Z",
    "repr": "080853Z"
  },
  "units": {
    "accumulation": "in",
    "altimeter": "inHg",
    "altitude": "ft",
    "temperature": "C",
    "visibility": "sm",
    "wind_speed": "kt"
  },
  "visibility": {
    "repr": "10",
    "spoken": "one zero",
    "value": 10
  },
  "wind_direction": {
    "repr": "210",
    "spoken": "two one zero",
    "value": 210
  },
  "wind_gust": null,
  "wind_speed": {
    "repr": "03",
    "spoken": "three",
    "value": 3
  },
  "wind_variable_direction": [],
  "wx_codes": []
}
