{
  "meta": {
    "timestamp": "2022-11-30T02:11:40.164384Z",
    "stations_updated": "2022-09-05"
  },
  "altimeter": {
    "repr": "A2961",
    "value": 29.61,
    "spoken": "two nine point six one"
  },
  "clouds": [
    {
      "repr": "BKN017",
      "type": "BKN",
      "altitude": 17,
      "modifier": null
    },
    {
      "repr": "BKN048",
      "type": "BKN",
      "altitude": 48,
      "modifier": null
    },
    {
      "repr": "OVC080",
      "type": "OVC",
      "altitude": 80,
      "modifier": null
    }
  ],
  "flight_rules": "MVFR",
  "other": [],
  "visibility": {
    "repr": "8",
    "value": 8,
    "spoken": "eight"
  },
  "wind_direction": {
    "repr": "140",
    "value": 140,
    "spoken": "one four zero"
  },
  "wind_gust": {
    "repr": "39",
    "value": 39,
    "spoken": "three nine"
  },
  "wind_speed": {
    "repr": "27",
    "value": 27,
    "spoken": "two seven"
  },
  "wx_codes": [
    {
      "repr": "-SN",
      "value": "Light Snow"
    }
  ],
  "raw": "KNUW 300153Z 14027G39KT 8SM -SN BKN017 BKN048 OVC080 03/00 A2961 RMK AO2 PK WND 14043/0143 SLP025 P0000 T00280000 VISNO $",
  "sanitized": "KNUW 300153Z 14027G39KT 8SM -SN BKN017 BKN048 OVC080 03/00 A2961 RMK AO2 PK WND 14043/0143 SLP025 P0000 T00280000 VISNO $",
  "station": "KNUW",
  "time": {
    "repr": "300153Z",
    "dt": "2022-11-30T01:53:00Z"
  },
  "remarks": "RMK AO2 PK WND 14043/0143 SLP025 P0000 T00280000 VISNO $",
  "dewpoint": {
    "repr": "00",
    "value": 0,
    "spoken": "zero"
  },
  "relative_humidity": 0.8180130579084437,
  "remarks_info": {
    "maximum_temperature_6": null,
    "minimum_temperature_6": null,
    "pressure_tendency": null,
    "precip_36_hours": null,
    "precip_24_hours": null,
    "sunshine_minutes": null,
    "codes": [
      {
        "repr": "$",
        "value": "ASOS requires maintenance"
      },
      {
        "repr": "AO2",
        "value": "Automated with precipitation sensor"
      },
      {
        "repr": "P0000",
        "value": "Trace amount of rain in the last hour"
      }
    ],
    "dewpoint_decimal": {
      "repr": "0000",
      "value": 0,
      "spoken": "zero"
    },
    "maximum_temperature_24": null,
    "minimum_temperature_24": null,
    "precip_hourly": null,
    "sea_level_pressure": {
      "repr": "SLP025",
      "value": 1002.5,
      "spoken": "one zero zero two point five"
    },
    "snow_depth": null,
    "temperature_decimal": {
      "repr": "0028",
      "value": 2.8,
      "spoken": "two point eight"
    }
  },
  "runway_visibility": [],
  "temperature": {
    "repr": "03",
    "value": 3,
    "spoken": "three"
  },
  "wind_variable_direction": [],
  "density_altitude": -1096,
  "pressure_altitude": 357,
  "units": {
    "accumulation": "in",
    "altimeter": "inHg",
    "altitude": "ft",
    "temperature": "C",
    "visibility": "sm",
    "wind_speed": "kt"
  }
}
