{
  "altimeter": {
    "repr": "A2996",
    "spoken": "two nine point nine six",
    "value": 29.96
  },
  "clouds": [
    {
      "altitude": 19,
      "modifier": null,
      "repr": "SCT019",
      "type": "SCT"
    },
    {
      "altitude": 40,
      "modifier": null,
      "repr": "SCT040",
      "type": "SCT"
    },
    {
      "altitude": 85,
      "modifier": null,
      "repr": "BKN085",
      "type": "BKN"
    }
  ],
  "density_altitude": -450,
  "dewpoint": {
    "repr": "08",
    "spoken": "eight",
    "value": 8
  },
  "flight_rules": "VFR",
  "meta": {
    "stations_updated": "2023-10-28",
    "timestamp": "2024-01-27T13:21:38.245016Z"
  },
  "other": [],
  "pressure_altitude": 7,
  "raw": "KNUW 271253Z 13021G29KT 10SM SCT019 SCT040 BKN085 11/08 A2996 RMK AO2 PK WND 12029/1252 SLP150 T01110078 $",
  "relative_humidity": 0.8009785710766422,
  "remarks": "RMK AO2 PK WND 12029/1252 SLP150 T01110078 $",
  "remarks_info": {
    "codes": [
      {
        "repr": "$",
        "value": "ASOS requires maintenance"
      },
      {
        "repr": "AO2",
        "value": "Automated with precipitation sensor"
      }
    ],
    "dewpoint_decimal": {
      "repr": "0078",
      "spoken": "seven point eight",
      "value": 7.8
    },
    "maximum_temperature_24": null,
    "maximum_temperature_6": null,
    "minimum_temperature_24": null,
    "minimum_temperature_6": null,
    "precip_24_hours": null,
    "precip_36_hours": null,
    "precip_hourly": null,
    "pressure_tendency": null,
    "sea_level_pressure": {
      "repr": "SLP150",
      "spoken": "one zero one five point zero",
      "value": 1015
    },
    "snow_depth": null,
    "sunshine_minutes": null,
    "temperature_decimal": {
      "repr": "0111",
      "spoken": "one one point one",
      "value": 11.1
    }
  },
  "runway_visibility": [],
  "sanitized": "KNUW 271253Z 13021G29KT 10SM SCT019 SCT040 BKN085 11/08 A2996 RMK AO2 PK WND 12029/1252 SLP150 T01110078 $",
  "station": "KNUW",
  "temperature": {
    "repr": "11",
    "spoken": "one one",
    "value": 11
  },
  "time": {
    "dt": "2024-01-27T12:53:00Z",
    "repr": "271253Z"
  },
  "units": {
    "accumulation": "in",
    "altimeter": "inHg",
    "altitude": "ft",
    "temperature": "C",
    "visibility": "sm",
    "wind_speed": "kt"
  },
  "visibility": {
    "repr": "10",
    "spoken": "one zero",
    "value": 10
  },
  "wind_direction": {
    "repr": "130",
    "spoken": "one three zero",
    "value": 130
  },
  "wind_gust": {
    "repr": "29",
    "spoken": "two nine",
    "value": 29
  },
  "wind_speed": {
    "repr": "21",
    "spoken": "two one",
    "value": 21
  },
  "wind_variable_direction": [],
  "wx_codes": []
}
