{
  "meta": {
    "timestamp": "2022-12-22T08:06:49.818729Z",
    "stations_updated": "2022-09-05"
  },
  "altimeter": {
    "repr": "A3067",
    "value": 30.67,
    "spoken": "three zero point six seven"
  },
  "clouds": [
    {
      "repr": "FEW020",
      "type": "FEW",
      "altitude": 20,
      "modifier": null
    },
    {
      "repr": "SCT080",
      "type": "SCT",
      "altitude": 80,
      "modifier": null
    },
    {
      "repr": "BKN220",
      "type": "BKN",
      "altitude": 220,
      "modifier": null
    }
  ],
  "flight_rules": "VFR",
  "other": [],
  "visibility": {
    "repr": "10",
    "value": 10,
    "spoken": "one zero"
  },
  "wind_direction": {
    "repr": "010",
    "value": 10,
    "spoken": "zero one zero"
  },
  "wind_gust": null,
  "wind_speed": {
    "repr": "06",
    "value": 6,
    "spoken": "six"
  },
  "wx_codes": [],
  "raw": "KNUW 220753Z 01006KT 10SM FEW020 SCT080 BKN220 M11/M15 A3067 RMK AO2 SLP383 T11111150 410331117 VISNO $",
  "sanitized": "KNUW 220753Z 01006KT 10SM FEW020 SCT080 BKN220 M11/M15 A3067 RMK AO2 SLP383 T11111150 410331117 VISNO $",
  "station": "KNUW",
  "time": {
    "repr": "220753Z",
    "dt": "2022-12-22T07:53:00Z"
  },
  "remarks": "RMK AO2 SLP383 T11111150 410331117 VISNO $",
  "dewpoint": {
    "repr": "M15",
    "value": -15,
    "spoken": "minus one five"
  },
  "relative_humidity": 0.729064377541782,
  "remarks_info": {
    "maximum_temperature_6": null,
    "minimum_temperature_6": null,
    "pressure_tendency": null,
    "precip_36_hours": null,
    "precip_24_hours": null,
    "sunshine_minutes": null,
    "codes": [
      {
        "repr": "$",
        "value": "ASOS requires maintenance"
      },
      {
        "repr": "AO2",
        "value": "Automated with precipitation sensor"
      }
    ],
    "dewpoint_decimal": {
      "repr": "1150",
      "value": -15,
      "spoken": "minus one five point zero"
    },
    "maximum_temperature_24": {
      "repr": "1033",
      "value": -3.3,
      "spoken": "minus three point three"
    },
    "minimum_temperature_24": {
      "repr": "1117",
      "value": -11.7,
      "spoken": "minus one one point seven"
    },
    "precip_hourly": null,
    "sea_level_pressure": {
      "repr": "SLP383",
      "value": 1038.3,
      "spoken": "one zero three eight point three"
    },
    "snow_depth": null,
    "temperature_decimal": {
      "repr": "1111",
      "value": -11.1,
      "spoken": "minus one one point one"
    }
  },
  "runway_visibility": [],
  "temperature": {
    "repr": "M11",
    "value": -11,
    "spoken": "minus one one"
  },
  "wind_variable_direction": [],
  "density_altitude": -3824,
  "pressure_altitude": -703,
  "units": {
    "accumulation": "in",
    "altimeter": "inHg",
    "altitude": "ft",
    "temperature": "C",
    "visibility": "sm",
    "wind_speed": "kt"
  }
}
