{
  "meta": {
    "timestamp": "2023-10-08T08:40:33.603748Z",
    "stations_updated": "2023-10-01",
    "cache-timestamp": "2023-10-08T08:40:04.380000Z"
  },
  "altimeter": {
    "repr": "A2989",
    "value": 29.89,
    "spoken": "two nine point eight nine"
  },
  "clouds": [],
  "flight_rules": "VFR",
  "other": [],
  "visibility": {
    "repr": "10",
    "value": 10,
    "spoken": "one zero"
  },
  "wind_direction": {
    "repr": "160",
    "value": 160,
    "spoken": "one six zero"
  },
  "wind_gust": null,
  "wind_speed": {
    "repr": "03",
    "value": 3,
    "spoken": "three"
  },
  "wx_codes": [
    {
      "repr": "MIFG",
      "value": "Shallow Fog"
    }
  ],
  "raw": "KNUW 080753Z COR 16003KT 10SM MIFG CLR 13/11 A2989 RMK AO2 SLP124 T01280106 401890094 PNO $",
  "sanitized": "KNUW 080753Z 16003KT 10SM MIFG 13/11 A2989 RMK AO2 SLP124 T01280106 401890094 PNO $",
  "station": "KNUW",
  "time": {
    "repr": "080753Z",
    "dt": "2023-10-08T07:53:00Z"
  },
  "remarks": "RMK AO2 SLP124 T01280106 401890094 PNO $",
  "dewpoint": {
    "repr": "11",
    "value": 11,
    "spoken": "one one"
  },
  "relative_humidity": 0.8647225145629146,
  "remarks_info": {
    "maximum_temperature_6": null,
    "minimum_temperature_6": null,
    "pressure_tendency": null,
    "precip_36_hours": null,
    "precip_24_hours": null,
    "sunshine_minutes": null,
    "codes": [
      {
        "repr": "$",
        "value": "ASOS requires maintenance"
      },
      {
        "repr": "AO2",
        "value": "Automated with precipitation sensor"
      },
      {
        "repr": "PNO",
        "value": "Precipitation amount not available"
      }
    ],
    "dewpoint_decimal": {
      "repr": "0106",
      "value": 10.6,
      "spoken": "one zero point six"
    },
    "maximum_temperature_24": {
      "repr": "0189",
      "value": 18.9,
      "spoken": "one eight point nine"
    },
    "minimum_temperature_24": {
      "repr": "0094",
      "value": 9.4,
      "spoken": "nine point four"
    },
    "precip_hourly": null,
    "sea_level_pressure": {
      "repr": "SLP124",
      "value": 1012.4,
      "spoken": "one zero one two point four"
    },
    "snow_depth": null,
    "temperature_decimal": {
      "repr": "0128",
      "value": 12.8,
      "spoken": "one two point eight"
    }
  },
  "runway_visibility": [],
  "temperature": {
    "repr": "13",
    "value": 13,
    "spoken": "one three"
  },
  "wind_variable_direction": [],
  "density_altitude": -176,
  "pressure_altitude": 77,
  "units": {
    "accumulation": "in",
    "altimeter": "inHg",
    "altitude": "ft",
    "temperature": "C",
    "visibility": "sm",
    "wind_speed": "kt"
  }
}
