{
  "altimeter": {
    "repr": "A3011",
    "spoken": "three zero point one one",
    "value": 30.11
  },
  "clouds": [
    {
      "altitude": 55,
      "modifier": null,
      "repr": "SCT055",
      "type": "SCT"
    },
    {
      "altitude": 80,
      "modifier": null,
      "repr": "SCT080",
      "type": "SCT"
    },
    {
      "altitude": 190,
      "modifier": null,
      "repr": "OVC190",
      "type": "OVC"
    }
  ],
  "density_altitude": -1128,
  "dewpoint": {
    "repr": "06",
    "spoken": "six",
    "value": 6
  },
  "flight_rules": "VFR",
  "meta": {
    "cache-timestamp": "2023-11-12T09:20:04.468000Z",
    "stations_updated": "2023-10-28",
    "timestamp": "2023-11-12T09:20:53.165419Z"
  },
  "other": [],
  "pressure_altitude": -143,
  "raw": "KNUW 120853Z 10007KT 10SM SCT055 SCT080 OVC190 07/06 A3011 RMK AO2 SLP199 T00670061 50006 $",
  "relative_humidity": 0.9595042676817481,
  "remarks": "RMK AO2 SLP199 T00670061 50006 $",
  "remarks_info": {
    "codes": [
      {
        "repr": "$",
        "value": "ASOS requires maintenance"
      },
      {
        "repr": "AO2",
        "value": "Automated with precipitation sensor"
      }
    ],
    "dewpoint_decimal": {
      "repr": "0061",
      "spoken": "six point one",
      "value": 6.1
    },
    "maximum_temperature_24": null,
    "maximum_temperature_6": null,
    "minimum_temperature_24": null,
    "minimum_temperature_6": null,
    "precip_24_hours": null,
    "precip_36_hours": null,
    "precip_hourly": null,
    "pressure_tendency": {
      "change": 0.6,
      "repr": "50006",
      "tendency": "Increasing, then decreasing"
    },
    "sea_level_pressure": {
      "repr": "SLP199",
      "spoken": "one zero one nine point nine",
      "value": 1019.9
    },
    "snow_depth": null,
    "sunshine_minutes": null,
    "temperature_decimal": {
      "repr": "0067",
      "spoken": "six point seven",
      "value": 6.7
    }
  },
  "runway_visibility": [],
  "sanitized": "KNUW 120853Z 10007KT 10SM SCT055 SCT080 OVC190 07/06 A3011 RMK AO2 SLP199 T00670061 50006 $",
  "station": "KNUW",
  "temperature": {
    "repr": "07",
    "spoken": "seven",
    "value": 7
  },
  "time": {
    "dt": "2023-11-12T08:53:00Z",
    "repr": "120853Z"
  },
  "units": {
    "accumulation": "in",
    "altimeter": "inHg",
    "altitude": "ft",
    "temperature": "C",
    "visibility": "sm",
    "wind_speed": "kt"
  },
  "visibility": {
    "repr": "10",
    "spoken": "one zero",
    "value": 10
  },
  "wind_direction": {
    "repr": "100",
    "spoken": "one zero zero",
    "value": 100
  },
  "wind_gust": null,
  "wind_speed": {
    "repr": "07",
    "spoken": "seven",
    "value": 7
  },
  "wind_variable_direction": [],
  "wx_codes": []
}
