{
  "altimeter": {
    "repr": "A2975",
    "spoken": "two nine point seven five",
    "value": 29.75
  },
  "clouds": [
    {
      "altitude": 10,
      "modifier": null,
      "repr": "SCT010",
      "type": "SCT"
    },
    {
      "altitude": 18,
      "modifier": null,
      "repr": "OVC018",
      "type": "OVC"
    }
  ],
  "density_altitude": 24,
  "dewpoint": {
    "repr": "13",
    "spoken": "one three",
    "value": 13
  },
  "flight_rules": "MVFR",
  "meta": {
    "stations_updated": "2024-06-12",
    "timestamp": "2024-10-27T07:27:48.755857Z"
  },
  "other": [],
  "pressure_altitude": 217,
  "raw": "KNUW 270653Z 12005KT 10SM SCT010 OVC018 13/13 A2975 RMK AO2 RAB11E30 SLP078 P0001 T01330128 $",
  "relative_humidity": 0.9678424058447498,
  "remarks": "RMK AO2 RAB11E30 SLP078 P0001 T01330128 $",
  "remarks_info": {
    "codes": [
      {
        "repr": "$",
        "value": "ASOS requires maintenance"
      },
      {
        "repr": "AO2",
        "value": "Automated with precipitation sensor"
      }
    ],
    "dewpoint_decimal": {
      "repr": "0128",
      "spoken": "one two point eight",
      "value": 12.8
    },
    "maximum_temperature_24": null,
    "maximum_temperature_6": null,
    "minimum_temperature_24": null,
    "minimum_temperature_6": null,
    "precip_24_hours": null,
    "precip_36_hours": null,
    "precip_hourly": {
      "repr": "P0001",
      "spoken": "zero point zero one",
      "value": 0.01
    },
    "pressure_tendency": null,
    "sea_level_pressure": {
      "repr": "SLP078",
      "spoken": "one zero zero seven point eight",
      "value": 1007.8
    },
    "snow_depth": null,
    "sunshine_minutes": null,
    "temperature_decimal": {
      "repr": "0133",
      "spoken": "one three point three",
      "value": 13.3
    }
  },
  "runway_visibility": [],
  "sanitized": "KNUW 270653Z 12005KT 10SM SCT010 OVC018 13/13 A2975 RMK AO2 RAB11E30 SLP078 P0001 T01330128 $",
  "station": "KNUW",
  "temperature": {
    "repr": "13",
    "spoken": "one three",
    "value": 13
  },
  "time": {
    "dt": "2024-10-27T06:53:00Z",
    "repr": "270653Z"
  },
  "units": {
    "accumulation": "in",
    "altimeter": "inHg",
    "altitude": "ft",
    "temperature": "C",
    "visibility": "sm",
    "wind_speed": "kt"
  },
  "visibility": {
    "repr": "10",
    "spoken": "one zero",
    "value": 10
  },
  "wind_direction": {
    "repr": "120",
    "spoken": "one two zero",
    "value": 120
  },
  "wind_gust": null,
  "wind_speed": {
    "repr": "05",
    "spoken": "five",
    "value": 5
  },
  "wind_variable_direction": [],
  "wx_codes": []
}
