{
  "meta": {
    "timestamp": "2022-12-17T20:40:36.171768Z",
    "stations_updated": "2022-09-05"
  },
  "altimeter": {
    "repr": "A3009",
    "value": 30.09,
    "spoken": "three zero point zero nine"
  },
  "clouds": [
    {
      "repr": "SCT010",
      "type": "SCT",
      "altitude": 10,
      "modifier": null
    },
    {
      "repr": "BKN012",
      "type": "BKN",
      "altitude": 12,
      "modifier": null
    },
    {
      "repr": "OVC015",
      "type": "OVC",
      "altitude": 15,
      "modifier": null
    }
  ],
  "flight_rules": "MVFR",
  "other": [],
  "visibility": {
    "repr": "5",
    "value": 5,
    "spoken": "five"
  },
  "wind_direction": {
    "repr": "150",
    "value": 150,
    "spoken": "one five zero"
  },
  "wind_gust": null,
  "wind_speed": {
    "repr": "10",
    "value": 10,
    "spoken": "one zero"
  },
  "wx_codes": [
    {
      "repr": "BR",
      "value": "Mist"
    }
  ],
  "raw": "KNUW 171953Z 15010KT 5SM BR SCT010 BKN012 OVC015 03/02 A3009 RMK AO2 UPB10E13RAB13E37 SLP189 P0001 T00330017 VISNO $",
  "sanitized": "KNUW 171953Z 15010KT 5SM BR SCT010 BKN012 OVC015 03/02 A3009 RMK AO2 UPB10E13RAB13E37 SLP189 P0001 T00330017 VISNO $",
  "station": "KNUW",
  "time": {
    "repr": "171953Z",
    "dt": "2022-12-17T19:53:00Z"
  },
  "remarks": "RMK AO2 UPB10E13RAB13E37 SLP189 P0001 T00330017 VISNO $",
  "dewpoint": {
    "repr": "02",
    "value": 2,
    "spoken": "two"
  },
  "relative_humidity": 0.892472054966446,
  "remarks_info": {
    "maximum_temperature_6": null,
    "minimum_temperature_6": null,
    "pressure_tendency": null,
    "precip_36_hours": null,
    "precip_24_hours": null,
    "sunshine_minutes": null,
    "codes": [
      {
        "repr": "$",
        "value": "ASOS requires maintenance"
      },
      {
        "repr": "AO2",
        "value": "Automated with precipitation sensor"
      }
    ],
    "dewpoint_decimal": {
      "repr": "0017",
      "value": 1.7,
      "spoken": "one point seven"
    },
    "maximum_temperature_24": null,
    "minimum_temperature_24": null,
    "precip_hourly": {
      "repr": "P0001",
      "value": 0.01,
      "spoken": "zero point zero one"
    },
    "sea_level_pressure": {
      "repr": "SLP189",
      "value": 1018.9,
      "spoken": "one zero one eight point nine"
    },
    "snow_depth": null,
    "temperature_decimal": {
      "repr": "0033",
      "value": 3.3,
      "spoken": "three point three"
    }
  },
  "runway_visibility": [],
  "temperature": {
    "repr": "03",
    "value": 3,
    "spoken": "three"
  },
  "wind_variable_direction": [],
  "density_altitude": -1516,
  "pressure_altitude": -123,
  "units": {
    "accumulation": "in",
    "altimeter": "inHg",
    "altitude": "ft",
    "temperature": "C",
    "visibility": "sm",
    "wind_speed": "kt"
  }
}
