{
  "meta": {
    "timestamp": "2023-01-04T12:09:08.295074Z",
    "stations_updated": "2022-12-27"
  },
  "altimeter": {
    "repr": "A2996",
    "value": 29.96,
    "spoken": "two nine point nine six"
  },
  "clouds": [
    {
      "repr": "FEW042",
      "type": "FEW",
      "altitude": 42,
      "modifier": null
    },
    {
      "repr": "SCT100",
      "type": "SCT",
      "altitude": 100,
      "modifier": null
    },
    {
      "repr": "BKN180",
      "type": "BKN",
      "altitude": 180,
      "modifier": null
    }
  ],
  "flight_rules": "VFR",
  "other": [],
  "visibility": {
    "repr": "10",
    "value": 10,
    "spoken": "one zero"
  },
  "wind_direction": {
    "repr": "100",
    "value": 100,
    "spoken": "one zero zero"
  },
  "wind_gust": null,
  "wind_speed": {
    "repr": "11",
    "value": 11,
    "spoken": "one one"
  },
  "wx_codes": [],
  "raw": "KNUW 041153Z 10011KT 10SM FEW042 SCT100 BKN180 06/M02 A2996 RMK AO2 SLP144 60000 T00561017 10067 20022 51003 VISNO $",
  "sanitized": "KNUW 041153Z 10011KT 10SM FEW042 SCT100 BKN180 06/M02 A2996 RMK AO2 SLP144 60000 T00561017 10067 20022 51003 VISNO $",
  "station": "KNUW",
  "time": {
    "repr": "041153Z",
    "dt": "2023-01-04T11:53:00Z"
  },
  "remarks": "RMK AO2 SLP144 60000 T00561017 10067 20022 51003 VISNO $",
  "dewpoint": {
    "repr": "M02",
    "value": -2,
    "spoken": "minus two"
  },
  "relative_humidity": 0.5936479416019491,
  "remarks_info": {
    "maximum_temperature_6": {
      "repr": "10067",
      "value": 6.7,
      "spoken": "six point seven"
    },
    "minimum_temperature_6": {
      "repr": "20022",
      "value": 2.2,
      "spoken": "two point two"
    },
    "pressure_tendency": {
      "repr": "51003",
      "tendency": "Increasing, then steady",
      "change": 0.3
    },
    "precip_36_hours": {
      "repr": "60000",
      "value": 0,
      "spoken": "zero"
    },
    "precip_24_hours": null,
    "sunshine_minutes": null,
    "codes": [
      {
        "repr": "$",
        "value": "ASOS requires maintenance"
      },
      {
        "repr": "AO2",
        "value": "Automated with precipitation sensor"
      }
    ],
    "dewpoint_decimal": {
      "repr": "1017",
      "value": -1.7,
      "spoken": "minus one point seven"
    },
    "maximum_temperature_24": null,
    "minimum_temperature_24": null,
    "precip_hourly": null,
    "sea_level_pressure": {
      "repr": "SLP144",
      "value": 1014.4,
      "spoken": "one zero one four point four"
    },
    "snow_depth": null,
    "temperature_decimal": {
      "repr": "0056",
      "value": 5.6,
      "spoken": "five point six"
    }
  },
  "runway_visibility": [],
  "temperature": {
    "repr": "06",
    "value": 6,
    "spoken": "six"
  },
  "wind_variable_direction": [],
  "density_altitude": -1110,
  "pressure_altitude": 7,
  "units": {
    "accumulation": "in",
    "altimeter": "inHg",
    "altitude": "ft",
    "temperature": "C",
    "visibility": "sm",
    "wind_speed": "kt"
  }
}
