{
  "meta": {
    "timestamp": "2023-01-15T00:30:54.264201Z",
    "stations_updated": "2022-12-27",
    "cache-timestamp": "2023-01-15T00:30:06.662000Z"
  },
  "altimeter": {
    "repr": "A2936",
    "value": 29.36,
    "spoken": "two nine point three six"
  },
  "clouds": [
    {
      "repr": "FEW025",
      "type": "FEW",
      "altitude": 25,
      "modifier": null
    },
    {
      "repr": "SCT150",
      "type": "SCT",
      "altitude": 150,
      "modifier": null
    },
    {
      "repr": "BKN220",
      "type": "BKN",
      "altitude": 220,
      "modifier": null
    }
  ],
  "flight_rules": "VFR",
  "other": [],
  "visibility": {
    "repr": "10",
    "value": 10,
    "spoken": "one zero"
  },
  "wind_direction": {
    "repr": "060",
    "value": 60,
    "spoken": "zero six zero"
  },
  "wind_gust": null,
  "wind_speed": {
    "repr": "06",
    "value": 6,
    "spoken": "six"
  },
  "wx_codes": [],
  "raw": "KNUW 142353Z 06006KT 10SM FEW025 SCT150 BKN220 13/06 A2936 RMK AO2 SLP941 T01280056 10144 20106 56025 VISNO $",
  "sanitized": "KNUW 142353Z 06006KT 10SM FEW025 SCT150 BKN220 13/06 A2936 RMK AO2 SLP941 T01280056 10144 20106 56025 VISNO $",
  "station": "KNUW",
  "time": {
    "repr": "142353Z",
    "dt": "2023-01-14T23:53:00Z"
  },
  "remarks": "RMK AO2 SLP941 T01280056 10144 20106 56025 VISNO $",
  "dewpoint": {
    "repr": "06",
    "value": 6,
    "spoken": "six"
  },
  "relative_humidity": 0.6155569548763891,
  "remarks_info": {
    "maximum_temperature_6": {
      "repr": "10144",
      "value": 14.4,
      "spoken": "one four point four"
    },
    "minimum_temperature_6": {
      "repr": "20106",
      "value": 10.6,
      "spoken": "one zero point six"
    },
    "pressure_tendency": {
      "repr": "56025",
      "tendency": "Decreasing, then steady",
      "change": 2.5
    },
    "precip_36_hours": null,
    "precip_24_hours": null,
    "sunshine_minutes": null,
    "codes": [
      {
        "repr": "$",
        "value": "ASOS requires maintenance"
      },
      {
        "repr": "AO2",
        "value": "Automated with precipitation sensor"
      }
    ],
    "dewpoint_decimal": {
      "repr": "0056",
      "value": 5.6,
      "spoken": "five point six"
    },
    "maximum_temperature_24": null,
    "minimum_temperature_24": null,
    "precip_hourly": null,
    "sea_level_pressure": {
      "repr": "SLP941",
      "value": 994.1,
      "spoken": "nine nine four point one"
    },
    "snow_depth": null,
    "temperature_decimal": {
      "repr": "0128",
      "value": 12.8,
      "spoken": "one two point eight"
    }
  },
  "runway_visibility": [],
  "temperature": {
    "repr": "13",
    "value": 13,
    "spoken": "one three"
  },
  "wind_variable_direction": [],
  "density_altitude": 354,
  "pressure_altitude": 607,
  "units": {
    "accumulation": "in",
    "altimeter": "inHg",
    "altitude": "ft",
    "temperature": "C",
    "visibility": "sm",
    "wind_speed": "kt"
  }
}
