{
  "meta": {
    "timestamp": "2022-09-19T21:33:09.308455Z",
    "stations_updated": "2022-09-05"
  },
  "altimeter": {
    "repr": "A2992",
    "value": 29.92,
    "spoken": "two nine point nine two"
  },
  "clouds": [
    {
      "repr": "FEW040",
      "type": "FEW",
      "altitude": 40,
      "modifier": null
    }
  ],
  "flight_rules": "VFR",
  "other": [],
  "visibility": {
    "repr": "10",
    "value": 10,
    "spoken": "one zero"
  },
  "wind_direction": {
    "repr": "270",
    "value": 270,
    "spoken": "two seven zero"
  },
  "wind_gust": null,
  "wind_speed": {
    "repr": "06",
    "value": 6,
    "spoken": "six"
  },
  "wx_codes": [],
  "raw": "KNUW 192053Z 27006KT 10SM FEW040 17/11 A2992 RMK AO2 SLP131 T01720106 50000 $",
  "sanitized": "KNUW 192053Z 27006KT 10SM FEW040 17/11 A2992 RMK AO2 SLP131 T01720106 50000 $",
  "station": "KNUW",
  "time": {
    "repr": "192053Z",
    "dt": "2022-09-19T20:53:00Z"
  },
  "remarks": "RMK AO2 SLP131 T01720106 50000 $",
  "dewpoint": {
    "repr": "11",
    "value": 11,
    "spoken": "one one"
  },
  "relative_humidity": 0.6513679914344225,
  "remarks_info": {
    "maximum_temperature_6": null,
    "minimum_temperature_6": null,
    "pressure_tendency": {
      "repr": "50000",
      "tendency": "Increasing, then decreasing",
      "change": 0
    },
    "precip_36_hours": null,
    "precip_24_hours": null,
    "sunshine_minutes": null,
    "codes": [
      {
        "repr": "$",
        "value": "ASOS requires maintenance"
      },
      {
        "repr": "AO2",
        "value": "Automated with precipitation sensor"
      }
    ],
    "dewpoint_decimal": {
      "repr": "0106",
      "value": 10.6,
      "spoken": "one zero point six"
    },
    "maximum_temperature_24": null,
    "minimum_temperature_24": null,
    "precip_hourly": null,
    "sea_level_pressure": {
      "repr": "SLP131",
      "value": 1013.1,
      "spoken": "one zero one three point one"
    },
    "snow_depth": null,
    "temperature_decimal": {
      "repr": "0172",
      "value": 17.2,
      "spoken": "one seven point two"
    }
  },
  "runway_visibility": [],
  "temperature": {
    "repr": "17",
    "value": 17,
    "spoken": "one seven"
  },
  "wind_variable_direction": [],
  "density_altitude": 322,
  "pressure_altitude": 47,
  "units": {
    "accumulation": "in",
    "altimeter": "inHg",
    "altitude": "ft",
    "temperature": "C",
    "visibility": "sm",
    "wind_speed": "kt"
  }
}
