{
  "meta": {
    "timestamp": "2023-08-05T18:40:37.238307Z",
    "stations_updated": "2023-06-06",
    "cache-timestamp": "2023-08-05T18:40:03.643000Z"
  },
  "altimeter": {
    "repr": "A3017",
    "value": 30.17,
    "spoken": "three zero point one seven"
  },
  "clouds": [
    {
      "repr": "SCT100",
      "type": "SCT",
      "altitude": 100,
      "modifier": null
    },
    {
      "repr": "BKN180",
      "type": "BKN",
      "altitude": 180,
      "modifier": null
    },
    {
      "repr": "BKN250",
      "type": "BKN",
      "altitude": 250,
      "modifier": null
    }
  ],
  "flight_rules": "VFR",
  "other": [],
  "visibility": {
    "repr": "10",
    "value": 10,
    "spoken": "one zero"
  },
  "wind_direction": {
    "repr": "310",
    "value": 310,
    "spoken": "three one zero"
  },
  "wind_gust": null,
  "wind_speed": {
    "repr": "04",
    "value": 4,
    "spoken": "four"
  },
  "wx_codes": [],
  "raw": "KNUW 051753Z 31004KT 10SM SCT100 BKN180 BKN250 16/14 A3017 RMK AO2 SLP220 T01610139 10161 20128 51004 VISNO $",
  "sanitized": "KNUW 051753Z 31004KT 10SM SCT100 BKN180 BKN250 16/14 A3017 RMK AO2 SLP220 T01610139 10161 20128 51004 VISNO $",
  "station": "KNUW",
  "time": {
    "repr": "051753Z",
    "dt": "2023-08-05T17:53:00Z"
  },
  "remarks": "RMK AO2 SLP220 T01610139 10161 20128 51004 VISNO $",
  "dewpoint": {
    "repr": "14",
    "value": 14,
    "spoken": "one four"
  },
  "relative_humidity": 0.8679169411495125,
  "remarks_info": {
    "maximum_temperature_6": {
      "repr": "10161",
      "value": 16.1,
      "spoken": "one six point one"
    },
    "minimum_temperature_6": {
      "repr": "20128",
      "value": 12.8,
      "spoken": "one two point eight"
    },
    "pressure_tendency": {
      "repr": "51004",
      "tendency": "Increasing, then steady",
      "change": 0.4
    },
    "precip_36_hours": null,
    "precip_24_hours": null,
    "sunshine_minutes": null,
    "codes": [
      {
        "repr": "$",
        "value": "ASOS requires maintenance"
      },
      {
        "repr": "AO2",
        "value": "Automated with precipitation sensor"
      }
    ],
    "dewpoint_decimal": {
      "repr": "0139",
      "value": 13.9,
      "spoken": "one three point nine"
    },
    "maximum_temperature_24": null,
    "minimum_temperature_24": null,
    "precip_hourly": null,
    "sea_level_pressure": {
      "repr": "SLP220",
      "value": 1022,
      "spoken": "one zero two two point zero"
    },
    "snow_depth": null,
    "temperature_decimal": {
      "repr": "0161",
      "value": 16.1,
      "spoken": "one six point one"
    }
  },
  "runway_visibility": [],
  "temperature": {
    "repr": "16",
    "value": 16,
    "spoken": "one six"
  },
  "wind_variable_direction": [],
  "density_altitude": -60,
  "pressure_altitude": -203,
  "units": {
    "accumulation": "in",
    "altimeter": "inHg",
    "altitude": "ft",
    "temperature": "C",
    "visibility": "sm",
    "wind_speed": "kt"
  }
}
