{
  "altimeter": {
    "repr": "A2997",
    "spoken": "two nine point nine seven",
    "value": 29.97
  },
  "clouds": [
    {
      "altitude": 13,
      "modifier": null,
      "repr": "BKN013",
      "type": "BKN"
    },
    {
      "altitude": 28,
      "modifier": null,
      "repr": "OVC028",
      "type": "OVC"
    }
  ],
  "density_altitude": -460,
  "dewpoint": {
    "repr": "09",
    "spoken": "nine",
    "value": 9
  },
  "flight_rules": "MVFR",
  "meta": {
    "stations_updated": "2024-06-12",
    "timestamp": "2024-10-16T15:30:23.696647Z"
  },
  "other": [],
  "pressure_altitude": -3,
  "raw": "KNUW 161353Z 24004KT 10SM BKN013 OVC028 11/09 A2997 RMK RAB13E24 SLP151 P0000 T01110094",
  "relative_humidity": 0.8926151927981825,
  "remarks": "RMK RAB13E24 SLP151 P0000 T01110094",
  "remarks_info": {
    "codes": [
      {
        "repr": "P0000",
        "value": "Trace amount of rain in the last hour"
      }
    ],
    "dewpoint_decimal": {
      "repr": "0094",
      "spoken": "nine point four",
      "value": 9.4
    },
    "maximum_temperature_24": null,
    "maximum_temperature_6": null,
    "minimum_temperature_24": null,
    "minimum_temperature_6": null,
    "precip_24_hours": null,
    "precip_36_hours": null,
    "precip_hourly": null,
    "pressure_tendency": null,
    "sea_level_pressure": {
      "repr": "SLP151",
      "spoken": "one zero one five point one",
      "value": 1015.1
    },
    "snow_depth": null,
    "sunshine_minutes": null,
    "temperature_decimal": {
      "repr": "0111",
      "spoken": "one one point one",
      "value": 11.1
    }
  },
  "runway_visibility": [],
  "sanitized": "KNUW 161353Z 24004KT 10SM BKN013 OVC028 11/09 A2997 RMK RAB13E24 SLP151 P0000 T01110094",
  "station": "KNUW",
  "temperature": {
    "repr": "11",
    "spoken": "one one",
    "value": 11
  },
  "time": {
    "dt": "2024-10-16T13:53:00Z",
    "repr": "161353Z"
  },
  "units": {
    "accumulation": "in",
    "altimeter": "inHg",
    "altitude": "ft",
    "temperature": "C",
    "visibility": "sm",
    "wind_speed": "kt"
  },
  "visibility": {
    "repr": "10",
    "spoken": "one zero",
    "value": 10
  },
  "wind_direction": {
    "repr": "240",
    "spoken": "two four zero",
    "value": 240
  },
  "wind_gust": null,
  "wind_speed": {
    "repr": "04",
    "spoken": "four",
    "value": 4
  },
  "wind_variable_direction": [],
  "wx_codes": []
}
