{
  "meta": {
    "timestamp": "2023-10-19T11:01:33.807744Z",
    "stations_updated": "2023-10-01"
  },
  "altimeter": {
    "repr": "A3000",
    "value": 30,
    "spoken": "three zero point zero zero"
  },
  "clouds": [
    {
      "repr": "FEW002",
      "type": "FEW",
      "altitude": 2,
      "modifier": null
    },
    {
      "repr": "SCT250",
      "type": "SCT",
      "altitude": 250,
      "modifier": null
    }
  ],
  "flight_rules": "VFR",
  "other": [],
  "visibility": {
    "repr": "10",
    "value": 10,
    "spoken": "one zero"
  },
  "wind_direction": {
    "repr": "110",
    "value": 110,
    "spoken": "one one zero"
  },
  "wind_gust": null,
  "wind_speed": {
    "repr": "08",
    "value": 8,
    "spoken": "eight"
  },
  "wx_codes": [
    {
      "repr": "MIFG",
      "value": "Shallow Fog"
    }
  ],
  "raw": "KNUW 191053Z 11008KT 10SM MIFG FEW002 SCT250 09/09 A3000 RMK AO2 SLP164 T00940089 $ KNUW 191023Z 12005KT 10SM MIFG FEW002 SCT250 08/08 A3001 RMK AO2 T00830078 $ KNUW 190953Z 11005KT 10SM MIFG FEW040 SCT250 09/08 A3002 RMK AO2 SLP169 T00890083 $",
  "sanitized": "KNUW 191053Z 11008KT 10SM MIFG FEW002 SCT250 09/09 A3000 RMK AO2 SLP164 T00940089 $ KNUW 191023Z 12005KT 10SM MIFG FEW002 SCT250 08/08 A3001 RMK AO2 T00830078 $ KNUW 190953Z 11005KT 10SM MIFG FEW040 SCT250 09/08 A3002 RMK AO2 SLP169 T00890083 $",
  "station": "KNUW",
  "time": {
    "repr": "191053Z",
    "dt": "2023-10-19T10:53:00Z"
  },
  "remarks": "RMK AO2 SLP164 T00940089 $ KNUW 191023Z 12005KT 10SM MIFG FEW002 SCT250 08/08 A3001 RMK AO2 T00830078 $ KNUW 190953Z 11005KT 10SM MIFG FEW040 SCT250 09/08 A3002 RMK AO2 SLP169 T00890083 $",
  "dewpoint": {
    "repr": "09",
    "value": 9,
    "spoken": "nine"
  },
  "relative_humidity": 0.9601937753627737,
  "remarks_info": {
    "maximum_temperature_6": null,
    "minimum_temperature_6": null,
    "pressure_tendency": null,
    "precip_36_hours": null,
    "precip_24_hours": null,
    "sunshine_minutes": null,
    "codes": [
      {
        "repr": "$",
        "value": "ASOS requires maintenance"
      },
      {
        "repr": "$",
        "value": "ASOS requires maintenance"
      },
      {
        "repr": "$",
        "value": "ASOS requires maintenance"
      },
      {
        "repr": "AO2",
        "value": "Automated with precipitation sensor"
      },
      {
        "repr": "AO2",
        "value": "Automated with precipitation sensor"
      },
      {
        "repr": "AO2",
        "value": "Automated with precipitation sensor"
      }
    ],
    "dewpoint_decimal": {
      "repr": "0083",
      "value": 8.3,
      "spoken": "eight point three"
    },
    "maximum_temperature_24": null,
    "minimum_temperature_24": null,
    "precip_hourly": null,
    "sea_level_pressure": {
      "repr": "SLP164",
      "value": 1016.4,
      "spoken": "one zero one six point four"
    },
    "snow_depth": null,
    "temperature_decimal": {
      "repr": "0089",
      "value": 8.9,
      "spoken": "eight point nine"
    }
  },
  "runway_visibility": [],
  "temperature": {
    "repr": "09",
    "value": 9,
    "spoken": "nine"
  },
  "wind_variable_direction": [],
  "density_altitude": -754,
  "pressure_altitude": -33,
  "units": {
    "accumulation": "in",
    "altimeter": "inHg",
    "altitude": "ft",
    "temperature": "C",
    "visibility": "sm",
    "wind_speed": "kt"
  }
}
