{
  "altimeter": {
    "repr": "A3001",
    "spoken": "three zero point zero one",
    "value": 30.01
  },
  "clouds": [
    {
      "altitude": 17,
      "modifier": null,
      "repr": "BKN017",
      "type": "BKN"
    }
  ],
  "density_altitude": -428,
  "dewpoint": {
    "repr": "11",
    "spoken": "one one",
    "value": 11
  },
  "flight_rules": "MVFR",
  "meta": {
    "stations_updated": "2024-06-12",
    "timestamp": "2024-09-16T13:42:41.466938Z"
  },
  "other": [],
  "pressure_altitude": -43,
  "raw": "KNUW 161153Z 31003KT 10SM BKN017 12/11 A3001 RMK SLP166 T01170106 10122 20083 56001",
  "relative_humidity": 0.9296133286105723,
  "remarks": "RMK SLP166 T01170106 10122 20083 56001",
  "remarks_info": {
    "codes": [],
    "dewpoint_decimal": {
      "repr": "0106",
      "spoken": "one zero point six",
      "value": 10.6
    },
    "maximum_temperature_24": null,
    "maximum_temperature_6": {
      "repr": "10122",
      "spoken": "one two point two",
      "value": 12.2
    },
    "minimum_temperature_24": null,
    "minimum_temperature_6": {
      "repr": "20083",
      "spoken": "eight point three",
      "value": 8.3
    },
    "precip_24_hours": null,
    "precip_36_hours": null,
    "precip_hourly": null,
    "pressure_tendency": {
      "change": 0.1,
      "repr": "56001",
      "tendency": "Decreasing, then steady"
    },
    "sea_level_pressure": {
      "repr": "SLP166",
      "spoken": "one zero one six point six",
      "value": 1016.6
    },
    "snow_depth": null,
    "sunshine_minutes": null,
    "temperature_decimal": {
      "repr": "0117",
      "spoken": "one one point seven",
      "value": 11.7
    }
  },
  "runway_visibility": [],
  "sanitized": "KNUW 161153Z 31003KT 10SM BKN017 12/11 A3001 RMK SLP166 T01170106 10122 20083 56001",
  "station": "KNUW",
  "temperature": {
    "repr": "12",
    "spoken": "one two",
    "value": 12
  },
  "time": {
    "dt": "2024-09-16T11:53:00Z",
    "repr": "161153Z"
  },
  "units": {
    "accumulation": "in",
    "altimeter": "inHg",
    "altitude": "ft",
    "temperature": "C",
    "visibility": "sm",
    "wind_speed": "kt"
  },
  "visibility": {
    "repr": "10",
    "spoken": "one zero",
    "value": 10
  },
  "wind_direction": {
    "repr": "310",
    "spoken": "three one zero",
    "value": 310
  },
  "wind_gust": null,
  "wind_speed": {
    "repr": "03",
    "spoken": "three",
    "value": 3
  },
  "wind_variable_direction": [],
  "wx_codes": []
}
