{
  "altimeter": {
    "repr": "A3022",
    "spoken": "three zero point two two",
    "value": 30.22
  },
  "clouds": [
    {
      "altitude": 3,
      "modifier": null,
      "repr": "VV003",
      "type": "VV"
    }
  ],
  "density_altitude": -1838,
  "dewpoint": {
    "repr": "02",
    "spoken": "two",
    "value": 2
  },
  "flight_rules": "LIFR",
  "meta": {
    "stations_updated": "2024-12-02",
    "timestamp": "2024-12-05T03:44:29.935731Z"
  },
  "other": [],
  "pressure_altitude": -253,
  "raw": "KNUW 050253Z 12004KT 1/8SM FG VV003 02/02 A3022 RMK SFC VIS 1/2 SLP237 T00170017 55003",
  "relative_humidity": 1,
  "remarks": "RMK SFC VIS 1/2 SLP237 T00170017 55003",
  "remarks_info": {
    "codes": [],
    "dewpoint_decimal": {
      "repr": "0017",
      "spoken": "one point seven",
      "value": 1.7
    },
    "maximum_temperature_24": null,
    "maximum_temperature_6": null,
    "minimum_temperature_24": null,
    "minimum_temperature_6": null,
    "precip_24_hours": null,
    "precip_36_hours": null,
    "precip_hourly": null,
    "pressure_tendency": {
      "change": 0.3,
      "repr": "55003",
      "tendency": "Decreasing, then increasing"
    },
    "sea_level_pressure": {
      "repr": "SLP237",
      "spoken": "one zero two three point seven",
      "value": 1023.7
    },
    "snow_depth": null,
    "sunshine_minutes": null,
    "temperature_decimal": {
      "repr": "0017",
      "spoken": "one point seven",
      "value": 1.7
    }
  },
  "runway_visibility": [],
  "sanitized": "KNUW 050253Z 12004KT 1/8SM FG VV003 02/02 A3022 RMK SFC VIS 1/2 SLP237 T00170017 55003",
  "station": "KNUW",
  "temperature": {
    "repr": "02",
    "spoken": "two",
    "value": 2
  },
  "time": {
    "dt": "2024-12-05T02:53:00Z",
    "repr": "050253Z"
  },
  "units": {
    "accumulation": "in",
    "altimeter": "inHg",
    "altitude": "ft",
    "temperature": "C",
    "visibility": "sm",
    "wind_speed": "kt"
  },
  "visibility": {
    "denominator": 8,
    "normalized": "1/8",
    "numerator": 1,
    "repr": "1/8",
    "spoken": "one eight",
    "value": 0.125
  },
  "wind_direction": {
    "repr": "120",
    "spoken": "one two zero",
    "value": 120
  },
  "wind_gust": null,
  "wind_speed": {
    "repr": "04",
    "spoken": "four",
    "value": 4
  },
  "wind_variable_direction": [],
  "wx_codes": [
    {
      "repr": "FG",
      "value": "Fog"
    }
  ]
}
