{
  "meta": {
    "timestamp": "2023-06-13T02:03:24.321292Z",
    "stations_updated": "2023-06-06"
  },
  "altimeter": {
    "repr": "A2993",
    "value": 29.93,
    "spoken": "two nine point nine three"
  },
  "clouds": [
    {
      "repr": "FEW035",
      "type": "FEW",
      "altitude": 35,
      "modifier": null
    },
    {
      "repr": "FEW065",
      "type": "FEW",
      "altitude": 65,
      "modifier": null
    },
    {
      "repr": "SCT180",
      "type": "SCT",
      "altitude": 180,
      "modifier": null
    },
    {
      "repr": "SCT250",
      "type": "SCT",
      "altitude": 250,
      "modifier": null
    }
  ],
  "flight_rules": "VFR",
  "other": [],
  "visibility": {
    "repr": "10",
    "value": 10,
    "spoken": "one zero"
  },
  "wind_direction": {
    "repr": "240",
    "value": 240,
    "spoken": "two four zero"
  },
  "wind_gust": null,
  "wind_speed": {
    "repr": "05",
    "value": 5,
    "spoken": "five"
  },
  "wx_codes": [],
  "raw": "KNUW 130153Z 24005KT 10SM FEW035 FEW065 SCT180 SCT250 17/12 A2993 RMK AO2 SLP140 T01670117 VISNO $",
  "sanitized": "KNUW 130153Z 24005KT 10SM FEW035 FEW065 SCT180 SCT250 17/12 A2993 RMK AO2 SLP140 T01670117 VISNO $",
  "station": "KNUW",
  "time": {
    "repr": "130153Z",
    "dt": "2023-06-13T01:53:00Z"
  },
  "remarks": "RMK AO2 SLP140 T01670117 VISNO $",
  "dewpoint": {
    "repr": "12",
    "value": 12,
    "spoken": "one two"
  },
  "relative_humidity": 0.723265054976854,
  "remarks_info": {
    "maximum_temperature_6": null,
    "minimum_temperature_6": null,
    "pressure_tendency": null,
    "precip_36_hours": null,
    "precip_24_hours": null,
    "sunshine_minutes": null,
    "codes": [
      {
        "repr": "$",
        "value": "ASOS requires maintenance"
      },
      {
        "repr": "AO2",
        "value": "Automated with precipitation sensor"
      }
    ],
    "dewpoint_decimal": {
      "repr": "0117",
      "value": 11.7,
      "spoken": "one one point seven"
    },
    "maximum_temperature_24": null,
    "minimum_temperature_24": null,
    "precip_hourly": null,
    "sea_level_pressure": {
      "repr": "SLP140",
      "value": 1014,
      "spoken": "one zero one four point zero"
    },
    "snow_depth": null,
    "temperature_decimal": {
      "repr": "0167",
      "value": 16.7,
      "spoken": "one six point seven"
    }
  },
  "runway_visibility": [],
  "temperature": {
    "repr": "17",
    "value": 17,
    "spoken": "one seven"
  },
  "wind_variable_direction": [],
  "density_altitude": 252,
  "pressure_altitude": 37,
  "units": {
    "accumulation": "in",
    "altimeter": "inHg",
    "altitude": "ft",
    "temperature": "C",
    "visibility": "sm",
    "wind_speed": "kt"
  }
}
