{
  "meta": {
    "timestamp": "2023-03-12T03:40:47.600478Z",
    "stations_updated": "2023-03-11",
    "cache-timestamp": "2023-03-12T03:40:06.503000Z"
  },
  "altimeter": {
    "repr": "A2992",
    "value": 29.92,
    "spoken": "two nine point nine two"
  },
  "clouds": [
    {
      "repr": "SCT080",
      "type": "SCT",
      "altitude": 80,
      "modifier": null
    },
    {
      "repr": "BKN120",
      "type": "BKN",
      "altitude": 120,
      "modifier": null
    },
    {
      "repr": "BKN180",
      "type": "BKN",
      "altitude": 180,
      "modifier": null
    }
  ],
  "flight_rules": "VFR",
  "other": [],
  "visibility": {
    "repr": "10",
    "value": 10,
    "spoken": "one zero"
  },
  "wind_direction": {
    "repr": "110",
    "value": 110,
    "spoken": "one one zero"
  },
  "wind_gust": null,
  "wind_speed": {
    "repr": "09",
    "value": 9,
    "spoken": "nine"
  },
  "wx_codes": [],
  "raw": "KNUW 120253Z 11009KT 10SM SCT080 BKN120 BKN180 08/02 A2992 RMK SLP135 T00780022 53002",
  "sanitized": "KNUW 120253Z 11009KT 10SM SCT080 BKN120 BKN180 08/02 A2992 RMK SLP135 T00780022 53002",
  "station": "KNUW",
  "time": {
    "repr": "120253Z",
    "dt": "2023-03-12T02:53:00Z"
  },
  "remarks": "RMK SLP135 T00780022 53002",
  "dewpoint": {
    "repr": "02",
    "value": 2,
    "spoken": "two"
  },
  "relative_humidity": 0.6768979803645736,
  "remarks_info": {
    "maximum_temperature_6": null,
    "minimum_temperature_6": null,
    "pressure_tendency": {
      "repr": "53002",
      "tendency": "Decreasing or steady, then increasing",
      "change": 0.2
    },
    "precip_36_hours": null,
    "precip_24_hours": null,
    "sunshine_minutes": null,
    "codes": [],
    "dewpoint_decimal": {
      "repr": "0022",
      "value": 2.2,
      "spoken": "two point two"
    },
    "maximum_temperature_24": null,
    "minimum_temperature_24": null,
    "precip_hourly": null,
    "sea_level_pressure": {
      "repr": "SLP135",
      "value": 1013.5,
      "spoken": "one zero one three point five"
    },
    "snow_depth": null,
    "temperature_decimal": {
      "repr": "0078",
      "value": 7.8,
      "spoken": "seven point eight"
    }
  },
  "runway_visibility": [],
  "temperature": {
    "repr": "08",
    "value": 8,
    "spoken": "eight"
  },
  "wind_variable_direction": [],
  "density_altitude": -806,
  "pressure_altitude": 47,
  "units": {
    "accumulation": "in",
    "altimeter": "inHg",
    "altitude": "ft",
    "temperature": "C",
    "visibility": "sm",
    "wind_speed": "kt"
  }
}
