{
  "meta": {
    "timestamp": "2023-02-05T12:43:49.165041Z",
    "stations_updated": "2023-01-30"
  },
  "altimeter": {
    "repr": "A2971",
    "value": 29.71,
    "spoken": "two nine point seven one"
  },
  "clouds": [
    {
      "repr": "BKN070",
      "type": "BKN",
      "altitude": 70,
      "modifier": null
    },
    {
      "repr": "BKN100",
      "type": "BKN",
      "altitude": 100,
      "modifier": null
    },
    {
      "repr": "OVC120",
      "type": "OVC",
      "altitude": 120,
      "modifier": null
    }
  ],
  "flight_rules": "VFR",
  "other": [],
  "visibility": {
    "repr": "10",
    "value": 10,
    "spoken": "one zero"
  },
  "wind_direction": {
    "repr": "080",
    "value": 80,
    "spoken": "zero eight zero"
  },
  "wind_gust": null,
  "wind_speed": {
    "repr": "04",
    "value": 4,
    "spoken": "four"
  },
  "wx_codes": [],
  "raw": "KNUW 051153Z 08004KT 10SM BKN070 BKN100 OVC120 08/04 A2971 RMK SLP059 60000 70001 T00830044 10089 20072 55015",
  "sanitized": "KNUW 051153Z 08004KT 10SM BKN070 BKN100 OVC120 08/04 A2971 RMK SLP059 60000 70001 T00830044 10089 20072 55015",
  "station": "KNUW",
  "time": {
    "repr": "051153Z",
    "dt": "2023-02-05T11:53:00Z"
  },
  "remarks": "RMK SLP059 60000 70001 T00830044 10089 20072 55015",
  "dewpoint": {
    "repr": "04",
    "value": 4,
    "spoken": "four"
  },
  "relative_humidity": 0.7642778368365473,
  "remarks_info": {
    "maximum_temperature_6": {
      "repr": "10089",
      "value": 8.9,
      "spoken": "eight point nine"
    },
    "minimum_temperature_6": {
      "repr": "20072",
      "value": 7.2,
      "spoken": "seven point two"
    },
    "pressure_tendency": {
      "repr": "55015",
      "tendency": "Decreasing, then increasing",
      "change": 1.5
    },
    "precip_36_hours": {
      "repr": "60000",
      "value": 0,
      "spoken": "zero"
    },
    "precip_24_hours": {
      "repr": "70001",
      "value": 0.01,
      "spoken": "zero point zero one"
    },
    "sunshine_minutes": null,
    "codes": [],
    "dewpoint_decimal": {
      "repr": "0044",
      "value": 4.4,
      "spoken": "four point four"
    },
    "maximum_temperature_24": null,
    "minimum_temperature_24": null,
    "precip_hourly": null,
    "sea_level_pressure": {
      "repr": "SLP059",
      "value": 1005.9,
      "spoken": "one zero zero five point nine"
    },
    "snow_depth": null,
    "temperature_decimal": {
      "repr": "0083",
      "value": 8.3,
      "spoken": "eight point three"
    }
  },
  "runway_visibility": [],
  "temperature": {
    "repr": "08",
    "value": 8,
    "spoken": "eight"
  },
  "wind_variable_direction": [],
  "density_altitude": -536,
  "pressure_altitude": 257,
  "units": {
    "accumulation": "in",
    "altimeter": "inHg",
    "altitude": "ft",
    "temperature": "C",
    "visibility": "sm",
    "wind_speed": "kt"
  }
}
