{
  "meta": {
    "timestamp": "2022-12-22T11:01:33.154011Z",
    "stations_updated": "2022-09-05"
  },
  "altimeter": {
    "repr": "A3063",
    "value": 30.63,
    "spoken": "three zero point six three"
  },
  "clouds": [
    {
      "repr": "FEW028",
      "type": "FEW",
      "altitude": 28,
      "modifier": null
    },
    {
      "repr": "SCT150",
      "type": "SCT",
      "altitude": 150,
      "modifier": null
    },
    {
      "repr": "BKN220",
      "type": "BKN",
      "altitude": 220,
      "modifier": null
    }
  ],
  "flight_rules": "VFR",
  "other": [],
  "visibility": {
    "repr": "10",
    "value": 10,
    "spoken": "one zero"
  },
  "wind_direction": {
    "repr": "050",
    "value": 50,
    "spoken": "zero five zero"
  },
  "wind_gust": null,
  "wind_speed": {
    "repr": "04",
    "value": 4,
    "spoken": "four"
  },
  "wx_codes": [],
  "raw": "KNUW 221053Z 05004KT 10SM FEW028 SCT150 BKN220 M09/M14 A3063 RMK AO2 SLP370 T10941144 VISNO $",
  "sanitized": "KNUW 221053Z 05004KT 10SM FEW028 SCT150 BKN220 M09/M14 A3063 RMK AO2 SLP370 T10941144 VISNO $",
  "station": "KNUW",
  "time": {
    "repr": "221053Z",
    "dt": "2022-12-22T10:53:00Z"
  },
  "remarks": "RMK AO2 SLP370 T10941144 VISNO $",
  "dewpoint": {
    "repr": "M14",
    "value": -14,
    "spoken": "minus one four"
  },
  "relative_humidity": 0.6695668013192471,
  "remarks_info": {
    "maximum_temperature_6": null,
    "minimum_temperature_6": null,
    "pressure_tendency": null,
    "precip_36_hours": null,
    "precip_24_hours": null,
    "sunshine_minutes": null,
    "codes": [
      {
        "repr": "$",
        "value": "ASOS requires maintenance"
      },
      {
        "repr": "AO2",
        "value": "Automated with precipitation sensor"
      }
    ],
    "dewpoint_decimal": {
      "repr": "1144",
      "value": -14.4,
      "spoken": "minus one four point four"
    },
    "maximum_temperature_24": null,
    "minimum_temperature_24": null,
    "precip_hourly": null,
    "sea_level_pressure": {
      "repr": "SLP370",
      "value": 1037,
      "spoken": "one zero three seven point zero"
    },
    "snow_depth": null,
    "temperature_decimal": {
      "repr": "1094",
      "value": -9.4,
      "spoken": "minus nine point four"
    }
  },
  "runway_visibility": [],
  "temperature": {
    "repr": "M09",
    "value": -9,
    "spoken": "minus nine"
  },
  "wind_variable_direction": [],
  "density_altitude": -3580,
  "pressure_altitude": -663,
  "units": {
    "accumulation": "in",
    "altimeter": "inHg",
    "altitude": "ft",
    "temperature": "C",
    "visibility": "sm",
    "wind_speed": "kt"
  }
}
