{
  "altimeter": {
    "repr": "A2992",
    "spoken": "two nine point nine two",
    "value": 29.92
  },
  "clouds": [
    {
      "altitude": 50,
      "modifier": null,
      "repr": "FEW050",
      "type": "FEW"
    },
    {
      "altitude": 110,
      "modifier": null,
      "repr": "BKN110",
      "type": "BKN"
    },
    {
      "altitude": 160,
      "modifier": null,
      "repr": "BKN160",
      "type": "BKN"
    }
  ],
  "density_altitude": -614,
  "dewpoint": {
    "repr": "04",
    "spoken": "four",
    "value": 4
  },
  "flight_rules": "VFR",
  "meta": {
    "stations_updated": "2024-10-29",
    "timestamp": "2024-11-21T20:08:23.051297Z"
  },
  "other": [],
  "pressure_altitude": 47,
  "raw": "KNUW 211953Z 10005KT 10SM FEW050 BKN110 BKN160 09/04 A2992 RMK AO2 SLP135 T00940044",
  "relative_humidity": 0.7095339265701289,
  "remarks": "RMK AO2 SLP135 T00940044",
  "remarks_info": {
    "codes": [
      {
        "repr": "AO2",
        "value": "Automated with precipitation sensor"
      }
    ],
    "dewpoint_decimal": {
      "repr": "0044",
      "spoken": "four point four",
      "value": 4.4
    },
    "maximum_temperature_24": null,
    "maximum_temperature_6": null,
    "minimum_temperature_24": null,
    "minimum_temperature_6": null,
    "precip_24_hours": null,
    "precip_36_hours": null,
    "precip_hourly": null,
    "pressure_tendency": null,
    "sea_level_pressure": {
      "repr": "SLP135",
      "spoken": "one zero one three point five",
      "value": 1013.5
    },
    "snow_depth": null,
    "sunshine_minutes": null,
    "temperature_decimal": {
      "repr": "0094",
      "spoken": "nine point four",
      "value": 9.4
    }
  },
  "runway_visibility": [],
  "sanitized": "KNUW 211953Z 10005KT 10SM FEW050 BKN110 BKN160 09/04 A2992 RMK AO2 SLP135 T00940044",
  "station": "KNUW",
  "temperature": {
    "repr": "09",
    "spoken": "nine",
    "value": 9
  },
  "time": {
    "dt": "2024-11-21T19:53:00Z",
    "repr": "211953Z"
  },
  "units": {
    "accumulation": "in",
    "altimeter": "inHg",
    "altitude": "ft",
    "temperature": "C",
    "visibility": "sm",
    "wind_speed": "kt"
  },
  "visibility": {
    "repr": "10",
    "spoken": "one zero",
    "value": 10
  },
  "wind_direction": {
    "repr": "100",
    "spoken": "one zero zero",
    "value": 100
  },
  "wind_gust": null,
  "wind_speed": {
    "repr": "05",
    "spoken": "five",
    "value": 5
  },
  "wind_variable_direction": [],
  "wx_codes": []
}
