{
  "altimeter": {
    "repr": "A3016",
    "spoken": "three zero point one six",
    "value": 30.16
  },
  "clouds": [
    {
      "altitude": 2,
      "modifier": null,
      "repr": "FEW002",
      "type": "FEW"
    },
    {
      "altitude": 5,
      "modifier": null,
      "repr": "OVC005",
      "type": "OVC"
    }
  ],
  "density_altitude": -314,
  "dewpoint": {
    "repr": "13",
    "spoken": "one three",
    "value": 13
  },
  "flight_rules": "IFR",
  "meta": {
    "stations_updated": "2024-06-12",
    "timestamp": "2024-07-15T18:42:19.483797Z"
  },
  "other": [],
  "pressure_altitude": -193,
  "raw": "KNUW 151753Z 26004KT 5SM BR FEW002 OVC005 14/13 A3016 RMK SLP215 T01390128 10139 20122 51005",
  "relative_humidity": 0.9307713770988568,
  "remarks": "RMK SLP215 T01390128 10139 20122 51005",
  "remarks_info": {
    "codes": [],
    "dewpoint_decimal": {
      "repr": "0128",
      "spoken": "one two point eight",
      "value": 12.8
    },
    "maximum_temperature_24": null,
    "maximum_temperature_6": {
      "repr": "10139",
      "spoken": "one three point nine",
      "value": 13.9
    },
    "minimum_temperature_24": null,
    "minimum_temperature_6": {
      "repr": "20122",
      "spoken": "one two point two",
      "value": 12.2
    },
    "precip_24_hours": null,
    "precip_36_hours": null,
    "precip_hourly": null,
    "pressure_tendency": {
      "change": 0.5,
      "repr": "51005",
      "tendency": "Increasing, then steady"
    },
    "sea_level_pressure": {
      "repr": "SLP215",
      "spoken": "one zero two one point five",
      "value": 1021.5
    },
    "snow_depth": null,
    "sunshine_minutes": null,
    "temperature_decimal": {
      "repr": "0139",
      "spoken": "one three point nine",
      "value": 13.9
    }
  },
  "runway_visibility": [],
  "sanitized": "KNUW 151753Z 26004KT 5SM BR FEW002 OVC005 14/13 A3016 RMK SLP215 T01390128 10139 20122 51005",
  "station": "KNUW",
  "temperature": {
    "repr": "14",
    "spoken": "one four",
    "value": 14
  },
  "time": {
    "dt": "2024-07-15T17:53:00Z",
    "repr": "151753Z"
  },
  "units": {
    "accumulation": "in",
    "altimeter": "inHg",
    "altitude": "ft",
    "temperature": "C",
    "visibility": "sm",
    "wind_speed": "kt"
  },
  "visibility": {
    "repr": "5",
    "spoken": "five",
    "value": 5
  },
  "wind_direction": {
    "repr": "260",
    "spoken": "two six zero",
    "value": 260
  },
  "wind_gust": null,
  "wind_speed": {
    "repr": "04",
    "spoken": "four",
    "value": 4
  },
  "wind_variable_direction": [],
  "wx_codes": [
    {
      "repr": "BR",
      "value": "Mist"
    }
  ]
}
