{
  "meta": {
    "timestamp": "2022-12-22T05:40:47.183141Z",
    "stations_updated": "2022-09-05"
  },
  "altimeter": {
    "repr": "A3064",
    "value": 30.64,
    "spoken": "three zero point six four"
  },
  "clouds": [
    {
      "repr": "FEW025",
      "type": "FEW",
      "altitude": 25,
      "modifier": null
    },
    {
      "repr": "SCT110",
      "type": "SCT",
      "altitude": 110,
      "modifier": null
    },
    {
      "repr": "BKN250",
      "type": "BKN",
      "altitude": 250,
      "modifier": null
    }
  ],
  "flight_rules": "VFR",
  "other": [],
  "visibility": {
    "repr": "10",
    "value": 10,
    "spoken": "one zero"
  },
  "wind_direction": {
    "repr": "020",
    "value": 20,
    "spoken": "zero two zero"
  },
  "wind_gust": null,
  "wind_speed": {
    "repr": "05",
    "value": 5,
    "spoken": "five"
  },
  "wx_codes": [],
  "raw": "KNUW 220453Z 02005KT 10SM FEW025 SCT110 BKN250 M10/M14 A3064 RMK AO2 SLP375 T11001144 VISNO $",
  "sanitized": "KNUW 220453Z 02005KT 10SM FEW025 SCT110 BKN250 M10/M14 A3064 RMK AO2 SLP375 T11001144 VISNO $",
  "station": "KNUW",
  "time": {
    "repr": "220453Z",
    "dt": "2022-12-22T04:53:00Z"
  },
  "remarks": "RMK AO2 SLP375 T11001144 VISNO $",
  "dewpoint": {
    "repr": "M14",
    "value": -14,
    "spoken": "minus one four"
  },
  "relative_humidity": 0.7019476438191479,
  "remarks_info": {
    "maximum_temperature_6": null,
    "minimum_temperature_6": null,
    "pressure_tendency": null,
    "precip_36_hours": null,
    "precip_24_hours": null,
    "sunshine_minutes": null,
    "codes": [
      {
        "repr": "$",
        "value": "ASOS requires maintenance"
      },
      {
        "repr": "AO2",
        "value": "Automated with precipitation sensor"
      }
    ],
    "dewpoint_decimal": {
      "repr": "1144",
      "value": -14.4,
      "spoken": "minus one four point four"
    },
    "maximum_temperature_24": null,
    "minimum_temperature_24": null,
    "precip_hourly": null,
    "sea_level_pressure": {
      "repr": "SLP375",
      "value": 1037.5,
      "spoken": "one zero three seven point five"
    },
    "snow_depth": null,
    "temperature_decimal": {
      "repr": "1100",
      "value": -10,
      "spoken": "minus one zero point zero"
    }
  },
  "runway_visibility": [],
  "temperature": {
    "repr": "M10",
    "value": -10,
    "spoken": "minus one zero"
  },
  "wind_variable_direction": [],
  "density_altitude": -3662,
  "pressure_altitude": -673,
  "units": {
    "accumulation": "in",
    "altimeter": "inHg",
    "altitude": "ft",
    "temperature": "C",
    "visibility": "sm",
    "wind_speed": "kt"
  }
}
