{
  "altimeter": {
    "repr": "A3042",
    "spoken": "three zero point four two",
    "value": 30.42
  },
  "clouds": [],
  "density_altitude": -2914,
  "dewpoint": {
    "repr": "M08",
    "spoken": "minus eight",
    "value": -8
  },
  "flight_rules": "VFR",
  "meta": {
    "cache-timestamp": "2024-01-15T12:10:05.432000Z",
    "stations_updated": "2023-10-28",
    "timestamp": "2024-01-15T12:10:11.076491Z"
  },
  "other": [],
  "pressure_altitude": -453,
  "raw": "KNUW 151153Z AUTO 00000KT 10SM CLR M06/M08 A3042 RMK AO2 SLP306 T10561083 11039 21083 50007 $",
  "relative_humidity": 0.812516381525716,
  "remarks": "RMK AO2 SLP306 T10561083 11039 21083 50007 $",
  "remarks_info": {
    "codes": [
      {
        "repr": "$",
        "value": "ASOS requires maintenance"
      },
      {
        "repr": "AO2",
        "value": "Automated with precipitation sensor"
      }
    ],
    "dewpoint_decimal": {
      "repr": "1083",
      "spoken": "minus eight point three",
      "value": -8.3
    },
    "maximum_temperature_24": null,
    "maximum_temperature_6": {
      "repr": "11039",
      "spoken": "minus three point nine",
      "value": -3.9
    },
    "minimum_temperature_24": null,
    "minimum_temperature_6": {
      "repr": "21083",
      "spoken": "minus eight point three",
      "value": -8.3
    },
    "precip_24_hours": null,
    "precip_36_hours": null,
    "precip_hourly": null,
    "pressure_tendency": {
      "change": 0.7,
      "repr": "50007",
      "tendency": "Increasing, then decreasing"
    },
    "sea_level_pressure": {
      "repr": "SLP306",
      "spoken": "one zero three zero point six",
      "value": 1030.6
    },
    "snow_depth": null,
    "sunshine_minutes": null,
    "temperature_decimal": {
      "repr": "1056",
      "spoken": "minus five point six",
      "value": -5.6
    }
  },
  "runway_visibility": [],
  "sanitized": "KNUW 151153Z 00000KT 10SM M06/M08 A3042 RMK AO2 SLP306 T10561083 11039 21083 50007 $",
  "station": "KNUW",
  "temperature": {
    "repr": "M06",
    "spoken": "minus six",
    "value": -6
  },
  "time": {
    "dt": "2024-01-15T11:53:00Z",
    "repr": "151153Z"
  },
  "units": {
    "accumulation": "in",
    "altimeter": "inHg",
    "altitude": "ft",
    "temperature": "C",
    "visibility": "sm",
    "wind_speed": "kt"
  },
  "visibility": {
    "repr": "10",
    "spoken": "one zero",
    "value": 10
  },
  "wind_direction": {
    "repr": "000",
    "spoken": "zero zero zero",
    "value": 0
  },
  "wind_gust": null,
  "wind_speed": {
    "repr": "00",
    "spoken": "zero",
    "value": 0
  },
  "wind_variable_direction": [],
  "wx_codes": []
}
