{
  "altimeter": {
    "repr": "A3009",
    "spoken": "three zero point zero nine",
    "value": 30.09
  },
  "clouds": [
    {
      "altitude": 35,
      "modifier": null,
      "repr": "FEW035",
      "type": "FEW"
    },
    {
      "altitude": 55,
      "modifier": null,
      "repr": "SCT055",
      "type": "SCT"
    },
    {
      "altitude": 95,
      "modifier": null,
      "repr": "BKN095",
      "type": "BKN"
    },
    {
      "altitude": 200,
      "modifier": null,
      "repr": "BKN200",
      "type": "BKN"
    }
  ],
  "density_altitude": -40,
  "dewpoint": {
    "repr": "13",
    "spoken": "one three",
    "value": 13
  },
  "flight_rules": "VFR",
  "meta": {
    "stations_updated": "2024-06-12",
    "timestamp": "2024-08-21T04:42:16.956908Z"
  },
  "other": [],
  "pressure_altitude": -123,
  "raw": "KNUW 210353Z 00000KT 10SM FEW035 SCT055 BKN095 BKN200 16/13 A3009 RMK SLP193 T01560128",
  "relative_humidity": 0.8340876297806936,
  "remarks": "RMK SLP193 T01560128",
  "remarks_info": {
    "codes": [],
    "dewpoint_decimal": {
      "repr": "0128",
      "spoken": "one two point eight",
      "value": 12.8
    },
    "maximum_temperature_24": null,
    "maximum_temperature_6": null,
    "minimum_temperature_24": null,
    "minimum_temperature_6": null,
    "precip_24_hours": null,
    "precip_36_hours": null,
    "precip_hourly": null,
    "pressure_tendency": null,
    "sea_level_pressure": {
      "repr": "SLP193",
      "spoken": "one zero one nine point three",
      "value": 1019.3
    },
    "snow_depth": null,
    "sunshine_minutes": null,
    "temperature_decimal": {
      "repr": "0156",
      "spoken": "one five point six",
      "value": 15.6
    }
  },
  "runway_visibility": [],
  "sanitized": "KNUW 210353Z 00000KT 10SM FEW035 SCT055 BKN095 BKN200 16/13 A3009 RMK SLP193 T01560128",
  "station": "KNUW",
  "temperature": {
    "repr": "16",
    "spoken": "one six",
    "value": 16
  },
  "time": {
    "dt": "2024-08-21T03:53:00Z",
    "repr": "210353Z"
  },
  "units": {
    "accumulation": "in",
    "altimeter": "inHg",
    "altitude": "ft",
    "temperature": "C",
    "visibility": "sm",
    "wind_speed": "kt"
  },
  "visibility": {
    "repr": "10",
    "spoken": "one zero",
    "value": 10
  },
  "wind_direction": {
    "repr": "000",
    "spoken": "zero zero zero",
    "value": 0
  },
  "wind_gust": null,
  "wind_speed": {
    "repr": "00",
    "spoken": "zero",
    "value": 0
  },
  "wind_variable_direction": [],
  "wx_codes": []
}
