{
  "meta": {
    "timestamp": "2022-11-13T08:07:52.523023Z",
    "stations_updated": "2022-09-05"
  },
  "altimeter": {
    "repr": "A3038",
    "value": 30.38,
    "spoken": "three zero point three eight"
  },
  "clouds": [
    {
      "repr": "SCT020",
      "type": "SCT",
      "altitude": 20,
      "modifier": null
    },
    {
      "repr": "BKN031",
      "type": "BKN",
      "altitude": 31,
      "modifier": null
    },
    {
      "repr": "OVC090",
      "type": "OVC",
      "altitude": 90,
      "modifier": null
    }
  ],
  "flight_rules": "VFR",
  "other": [],
  "visibility": {
    "repr": "10",
    "value": 10,
    "spoken": "one zero"
  },
  "wind_direction": {
    "repr": "110",
    "value": 110,
    "spoken": "one one zero"
  },
  "wind_gust": null,
  "wind_speed": {
    "repr": "04",
    "value": 4,
    "spoken": "four"
  },
  "wx_codes": [],
  "raw": "KNUW 130753Z 11004KT 10SM SCT020 BKN031 OVC090 04/02 A3038 RMK AO2 SLP286 T00390022 400941017 VISNO $",
  "sanitized": "KNUW 130753Z 11004KT 10SM SCT020 BKN031 OVC090 04/02 A3038 RMK AO2 SLP286 T00390022 400941017 VISNO $",
  "station": "KNUW",
  "time": {
    "repr": "130753Z",
    "dt": "2022-11-13T07:53:00Z"
  },
  "remarks": "RMK AO2 SLP286 T00390022 400941017 VISNO $",
  "dewpoint": {
    "repr": "02",
    "value": 2,
    "spoken": "two"
  },
  "relative_humidity": 0.886626408872418,
  "remarks_info": {
    "maximum_temperature_6": null,
    "minimum_temperature_6": null,
    "pressure_tendency": null,
    "precip_36_hours": null,
    "precip_24_hours": null,
    "sunshine_minutes": null,
    "codes": [
      {
        "repr": "$",
        "value": "ASOS requires maintenance"
      },
      {
        "repr": "AO2",
        "value": "Automated with precipitation sensor"
      }
    ],
    "dewpoint_decimal": {
      "repr": "0022",
      "value": 2.2,
      "spoken": "two point two"
    },
    "maximum_temperature_24": {
      "repr": "0094",
      "value": 9.4,
      "spoken": "nine point four"
    },
    "minimum_temperature_24": {
      "repr": "1017",
      "value": -1.7,
      "spoken": "minus one point seven"
    },
    "precip_hourly": null,
    "sea_level_pressure": {
      "repr": "SLP286",
      "value": 1028.6,
      "spoken": "one zero two eight point six"
    },
    "snow_depth": null,
    "temperature_decimal": {
      "repr": "0039",
      "value": 3.9,
      "spoken": "three point nine"
    }
  },
  "runway_visibility": [],
  "temperature": {
    "repr": "04",
    "value": 4,
    "spoken": "four"
  },
  "wind_variable_direction": [],
  "density_altitude": -1734,
  "pressure_altitude": -413,
  "units": {
    "accumulation": "in",
    "altimeter": "inHg",
    "altitude": "ft",
    "temperature": "C",
    "visibility": "sm",
    "wind_speed": "kt"
  }
}
