{
  "altimeter": {
    "repr": "A2984",
    "spoken": "two nine point eight four",
    "value": 29.84
  },
  "clouds": [
    {
      "altitude": 3,
      "modifier": null,
      "repr": "BKN003",
      "type": "BKN"
    }
  ],
  "density_altitude": -66,
  "dewpoint": {
    "repr": "13",
    "spoken": "one three",
    "value": 13
  },
  "flight_rules": "LIFR",
  "meta": {
    "stations_updated": "2024-06-12",
    "timestamp": "2024-09-24T19:21:42.845414Z"
  },
  "other": [],
  "pressure_altitude": 127,
  "raw": "KNUW 241853Z 28005KT 1/2SM FG BKN003 13/13 A2984 RMK SLP109 T01330128",
  "relative_humidity": 0.9678424058447498,
  "remarks": "RMK SLP109 T01330128",
  "remarks_info": {
    "codes": [],
    "dewpoint_decimal": {
      "repr": "0128",
      "spoken": "one two point eight",
      "value": 12.8
    },
    "maximum_temperature_24": null,
    "maximum_temperature_6": null,
    "minimum_temperature_24": null,
    "minimum_temperature_6": null,
    "precip_24_hours": null,
    "precip_36_hours": null,
    "precip_hourly": null,
    "pressure_tendency": null,
    "sea_level_pressure": {
      "repr": "SLP109",
      "spoken": "one zero one zero point nine",
      "value": 1010.9
    },
    "snow_depth": null,
    "sunshine_minutes": null,
    "temperature_decimal": {
      "repr": "0133",
      "spoken": "one three point three",
      "value": 13.3
    }
  },
  "runway_visibility": [],
  "sanitized": "KNUW 241853Z 28005KT 1/2SM FG BKN003 13/13 A2984 RMK SLP109 T01330128",
  "station": "KNUW",
  "temperature": {
    "repr": "13",
    "spoken": "one three",
    "value": 13
  },
  "time": {
    "dt": "2024-09-24T18:53:00Z",
    "repr": "241853Z"
  },
  "units": {
    "accumulation": "in",
    "altimeter": "inHg",
    "altitude": "ft",
    "temperature": "C",
    "visibility": "sm",
    "wind_speed": "kt"
  },
  "visibility": {
    "denominator": 2,
    "normalized": "1/2",
    "numerator": 1,
    "repr": "1/2",
    "spoken": "one half",
    "value": 0.5
  },
  "wind_direction": {
    "repr": "280",
    "spoken": "two eight zero",
    "value": 280
  },
  "wind_gust": null,
  "wind_speed": {
    "repr": "05",
    "spoken": "five",
    "value": 5
  },
  "wind_variable_direction": [],
  "wx_codes": [
    {
      "repr": "FG",
      "value": "Fog"
    }
  ]
}
