{
  "meta": {
    "timestamp": "2023-01-19T08:42:17.717041Z",
    "stations_updated": "2023-01-16",
    "cache-timestamp": "2023-01-19T08:42:07.819000Z"
  },
  "altimeter": {
    "repr": "A3015",
    "value": 30.15,
    "spoken": "three zero point one five"
  },
  "clouds": [
    {
      "repr": "OVC042",
      "type": "OVC",
      "altitude": 42,
      "modifier": null
    }
  ],
  "flight_rules": "VFR",
  "other": [],
  "visibility": {
    "repr": "10",
    "value": 10,
    "spoken": "one zero"
  },
  "wind_direction": {
    "repr": "290",
    "value": 290,
    "spoken": "two nine zero"
  },
  "wind_gust": null,
  "wind_speed": {
    "repr": "10",
    "value": 10,
    "spoken": "one zero"
  },
  "wx_codes": [],
  "raw": "KNUW 190753Z 29010KT 10SM OVC042 06/02 A3015 RMK SLP207 T00610022 400890061",
  "sanitized": "KNUW 190753Z 29010KT 10SM OVC042 06/02 A3015 RMK SLP207 T00610022 400890061",
  "station": "KNUW",
  "time": {
    "repr": "190753Z",
    "dt": "2023-01-19T07:53:00Z"
  },
  "remarks": "RMK SLP207 T00610022 400890061",
  "dewpoint": {
    "repr": "02",
    "value": 2,
    "spoken": "two"
  },
  "relative_humidity": 0.76061983624849,
  "remarks_info": {
    "maximum_temperature_6": null,
    "minimum_temperature_6": null,
    "pressure_tendency": null,
    "precip_36_hours": null,
    "precip_24_hours": null,
    "sunshine_minutes": null,
    "codes": [],
    "dewpoint_decimal": {
      "repr": "0022",
      "value": 2.2,
      "spoken": "two point two"
    },
    "maximum_temperature_24": {
      "repr": "0089",
      "value": 8.9,
      "spoken": "eight point nine"
    },
    "minimum_temperature_24": {
      "repr": "0061",
      "value": 6.1,
      "spoken": "six point one"
    },
    "precip_hourly": null,
    "sea_level_pressure": {
      "repr": "SLP207",
      "value": 1020.7,
      "spoken": "one zero two zero point seven"
    },
    "snow_depth": null,
    "temperature_decimal": {
      "repr": "0061",
      "value": 6.1,
      "spoken": "six point one"
    }
  },
  "runway_visibility": [],
  "temperature": {
    "repr": "06",
    "value": 6,
    "spoken": "six"
  },
  "wind_variable_direction": [],
  "density_altitude": -1240,
  "pressure_altitude": -183,
  "units": {
    "accumulation": "in",
    "altimeter": "inHg",
    "altitude": "ft",
    "temperature": "C",
    "visibility": "sm",
    "wind_speed": "kt"
  }
}
