{
  "meta": {
    "timestamp": "2023-02-24T18:44:40.261452Z",
    "stations_updated": "2023-01-30",
    "cache-timestamp": "2023-02-24T18:44:05.769000Z"
  },
  "altimeter": {
    "repr": "A3018",
    "value": 30.18,
    "spoken": "three zero point one eight"
  },
  "clouds": [
    {
      "repr": "FEW220",
      "type": "FEW",
      "altitude": 220,
      "modifier": null
    }
  ],
  "flight_rules": "VFR",
  "other": [],
  "visibility": {
    "repr": "10",
    "value": 10,
    "spoken": "one zero"
  },
  "wind_direction": {
    "repr": "010",
    "value": 10,
    "spoken": "zero one zero"
  },
  "wind_gust": null,
  "wind_speed": {
    "repr": "06",
    "value": 6,
    "spoken": "six"
  },
  "wx_codes": [],
  "raw": "KNUW 241753Z 01006KT 10SM FEW220 M01/M12 A3018 RMK SLP225 T10111117 11006 21067 52006",
  "sanitized": "KNUW 241753Z 01006KT 10SM FEW220 M01/M12 A3018 RMK SLP225 T10111117 11006 21067 52006",
  "station": "KNUW",
  "time": {
    "repr": "241753Z",
    "dt": "2023-02-24T17:53:00Z"
  },
  "remarks": "RMK SLP225 T10111117 11006 21067 52006",
  "dewpoint": {
    "repr": "M12",
    "value": -12,
    "spoken": "minus one two"
  },
  "relative_humidity": 0.44410262656918004,
  "remarks_info": {
    "maximum_temperature_6": {
      "repr": "11006",
      "value": -0.6,
      "spoken": "minus zero point six"
    },
    "minimum_temperature_6": {
      "repr": "21067",
      "value": -6.7,
      "spoken": "minus six point seven"
    },
    "pressure_tendency": {
      "repr": "52006",
      "tendency": "Increasing steadily or unsteadily",
      "change": 0.6
    },
    "precip_36_hours": null,
    "precip_24_hours": null,
    "sunshine_minutes": null,
    "codes": [],
    "dewpoint_decimal": {
      "repr": "1117",
      "value": -11.7,
      "spoken": "minus one one point seven"
    },
    "maximum_temperature_24": null,
    "minimum_temperature_24": null,
    "precip_hourly": null,
    "sea_level_pressure": {
      "repr": "SLP225",
      "value": 1022.5,
      "spoken": "one zero two two point five"
    },
    "snow_depth": null,
    "temperature_decimal": {
      "repr": "1011",
      "value": -1.1,
      "spoken": "minus one point one"
    }
  },
  "runway_visibility": [],
  "temperature": {
    "repr": "M01",
    "value": -1,
    "spoken": "minus one"
  },
  "wind_variable_direction": [],
  "density_altitude": -2134,
  "pressure_altitude": -213,
  "units": {
    "accumulation": "in",
    "altimeter": "inHg",
    "altitude": "ft",
    "temperature": "C",
    "visibility": "sm",
    "wind_speed": "kt"
  }
}
