{
  "meta": {
    "timestamp": "2022-08-10T19:40:36.446819Z",
    "stations_updated": "2022-07-17"
  },
  "altimeter": {
    "repr": "A3005",
    "value": 30.05,
    "spoken": "three zero point zero five"
  },
  "clouds": [
    {
      "repr": "FEW015",
      "type": "FEW",
      "altitude": 15,
      "modifier": null
    },
    {
      "repr": "SCT025CB",
      "type": "SCT",
      "altitude": 25,
      "modifier": "CB"
    },
    {
      "repr": "SCT040",
      "type": "SCT",
      "altitude": 40,
      "modifier": null
    },
    {
      "repr": "BKN130",
      "type": "BKN",
      "altitude": 130,
      "modifier": null
    }
  ],
  "flight_rules": "VFR",
  "other": [],
  "visibility": {
    "repr": "10",
    "value": 10,
    "spoken": "one zero"
  },
  "wind_direction": {
    "repr": "160",
    "value": 160,
    "spoken": "one six zero"
  },
  "wind_gust": {
    "repr": "15",
    "value": 15,
    "spoken": "one five"
  },
  "wind_speed": {
    "repr": "09",
    "value": 9,
    "spoken": "nine"
  },
  "wx_codes": [],
  "raw": "KNUW 101923Z 16009G15KT 10SM FEW015 SCT025CB SCT040 BKN130 18/16 A3005 RMK RAE06 TSE17 CB NE MOV E P0009 T01830161",
  "sanitized": "KNUW 101923Z 16009G15KT 10SM FEW015 SCT025CB SCT040 BKN130 18/16 A3005 RMK RAE06 TSE17 CB NE MOV E P0009 T01830161",
  "station": "KNUW",
  "time": {
    "repr": "101923Z",
    "dt": "2022-08-10T19:23:00Z"
  },
  "remarks": "RMK RAE06 TSE17 CB NE MOV E P0009 T01830161",
  "dewpoint": {
    "repr": "16",
    "value": 16,
    "spoken": "one six"
  },
  "relative_humidity": 0.8699857637780094,
  "remarks_info": {
    "maximum_temperature_6": null,
    "minimum_temperature_6": null,
    "pressure_tendency": null,
    "precip_36_hours": null,
    "precip_24_hours": null,
    "sunshine_minutes": null,
    "codes": [
      {
        "repr": "RAE06",
        "value": "Rain ended at :06"
      },
      {
        "repr": "TSE17",
        "value": "Thunderstorm ended at :17"
      }
    ],
    "dewpoint_decimal": {
      "repr": "0161",
      "value": 16.1,
      "spoken": "one six point one"
    },
    "maximum_temperature_24": null,
    "minimum_temperature_24": null,
    "precip_hourly": {
      "repr": "P0009",
      "value": 0.09,
      "spoken": "zero point zero nine"
    },
    "sea_level_pressure": null,
    "snow_depth": null,
    "temperature_decimal": {
      "repr": "0183",
      "value": 18.3,
      "spoken": "one eight point three"
    }
  },
  "runway_visibility": [],
  "temperature": {
    "repr": "18",
    "value": 18,
    "spoken": "one eight"
  },
  "wind_variable_direction": [],
  "density_altitude": 324,
  "pressure_altitude": -83,
  "units": {
    "accumulation": "in",
    "altimeter": "inHg",
    "altitude": "ft",
    "temperature": "C",
    "visibility": "sm",
    "wind_speed": "kt"
  }
}
