{
  "meta": {
    "timestamp": "2023-03-05T22:01:51.920320Z",
    "stations_updated": "2023-01-30"
  },
  "altimeter": {
    "repr": "A2974",
    "value": 29.74,
    "spoken": "two nine point seven four"
  },
  "clouds": [
    {
      "repr": "FEW037",
      "type": "FEW",
      "altitude": 37,
      "modifier": null
    },
    {
      "repr": "SCT140",
      "type": "SCT",
      "altitude": 140,
      "modifier": null
    },
    {
      "repr": "BKN220",
      "type": "BKN",
      "altitude": 220,
      "modifier": null
    }
  ],
  "flight_rules": "VFR",
  "other": [],
  "visibility": {
    "repr": "10",
    "value": 10,
    "spoken": "one zero"
  },
  "wind_direction": {
    "repr": "320",
    "value": 320,
    "spoken": "three two zero"
  },
  "wind_gust": null,
  "wind_speed": {
    "repr": "07",
    "value": 7,
    "spoken": "seven"
  },
  "wx_codes": [],
  "raw": "KNUW 052053Z 32007KT 10SM FEW037 SCT140 BKN220 08/02 A2974 RMK SLP076 T00780017",
  "sanitized": "KNUW 052053Z 32007KT 10SM FEW037 SCT140 BKN220 08/02 A2974 RMK SLP076 T00780017",
  "station": "KNUW",
  "time": {
    "repr": "052053Z",
    "dt": "2023-03-05T20:53:00Z"
  },
  "remarks": "RMK SLP076 T00780017",
  "dewpoint": {
    "repr": "02",
    "value": 2,
    "spoken": "two"
  },
  "relative_humidity": 0.6531529877193706,
  "remarks_info": {
    "maximum_temperature_6": null,
    "minimum_temperature_6": null,
    "pressure_tendency": null,
    "precip_36_hours": null,
    "precip_24_hours": null,
    "sunshine_minutes": null,
    "codes": [],
    "dewpoint_decimal": {
      "repr": "0017",
      "value": 1.7,
      "spoken": "one point seven"
    },
    "maximum_temperature_24": null,
    "minimum_temperature_24": null,
    "precip_hourly": null,
    "sea_level_pressure": {
      "repr": "SLP076",
      "value": 1007.6,
      "spoken": "one zero zero seven point six"
    },
    "snow_depth": null,
    "temperature_decimal": {
      "repr": "0078",
      "value": 7.8,
      "spoken": "seven point eight"
    }
  },
  "runway_visibility": [],
  "temperature": {
    "repr": "08",
    "value": 8,
    "spoken": "eight"
  },
  "wind_variable_direction": [],
  "density_altitude": -626,
  "pressure_altitude": 227,
  "units": {
    "accumulation": "in",
    "altimeter": "inHg",
    "altitude": "ft",
    "temperature": "C",
    "visibility": "sm",
    "wind_speed": "kt"
  }
}
