{
  "meta": {
    "timestamp": "2023-01-14T02:29:01.157692Z",
    "stations_updated": "2022-12-27",
    "cache-timestamp": "2023-01-14T02:28:38.975000Z"
  },
  "altimeter": {
    "repr": "A2967",
    "value": 29.67,
    "spoken": "two nine point six seven"
  },
  "clouds": [
    {
      "repr": "BKN015",
      "type": "BKN",
      "altitude": 15,
      "modifier": null
    },
    {
      "repr": "OVC075",
      "type": "OVC",
      "altitude": 75,
      "modifier": null
    }
  ],
  "flight_rules": "MVFR",
  "other": [],
  "visibility": {
    "repr": "10",
    "value": 10,
    "spoken": "one zero"
  },
  "wind_direction": {
    "repr": "140",
    "value": 140,
    "spoken": "one four zero"
  },
  "wind_gust": null,
  "wind_speed": {
    "repr": "14",
    "value": 14,
    "spoken": "one four"
  },
  "wx_codes": [],
  "raw": "KNUW 140153Z 14014KT 10SM BKN015 OVC075 11/09 A2967 RMK AO2 SLP047 T01110089 VISNO $",
  "sanitized": "KNUW 140153Z 14014KT 10SM BKN015 OVC075 11/09 A2967 RMK AO2 SLP047 T01110089 VISNO $",
  "station": "KNUW",
  "time": {
    "repr": "140153Z",
    "dt": "2023-01-14T01:53:00Z"
  },
  "remarks": "RMK AO2 SLP047 T01110089 VISNO $",
  "dewpoint": {
    "repr": "09",
    "value": 9,
    "spoken": "nine"
  },
  "relative_humidity": 0.8630327743847583,
  "remarks_info": {
    "maximum_temperature_6": null,
    "minimum_temperature_6": null,
    "pressure_tendency": null,
    "precip_36_hours": null,
    "precip_24_hours": null,
    "sunshine_minutes": null,
    "codes": [
      {
        "repr": "$",
        "value": "ASOS requires maintenance"
      },
      {
        "repr": "AO2",
        "value": "Automated with precipitation sensor"
      }
    ],
    "dewpoint_decimal": {
      "repr": "0089",
      "value": 8.9,
      "spoken": "eight point nine"
    },
    "maximum_temperature_24": null,
    "minimum_temperature_24": null,
    "precip_hourly": null,
    "sea_level_pressure": {
      "repr": "SLP047",
      "value": 1004.7,
      "spoken": "one zero zero four point seven"
    },
    "snow_depth": null,
    "temperature_decimal": {
      "repr": "0111",
      "value": 11.1,
      "spoken": "one one point one"
    }
  },
  "runway_visibility": [],
  "temperature": {
    "repr": "11",
    "value": 11,
    "spoken": "one one"
  },
  "wind_variable_direction": [],
  "density_altitude": -160,
  "pressure_altitude": 297,
  "units": {
    "accumulation": "in",
    "altimeter": "inHg",
    "altitude": "ft",
    "temperature": "C",
    "visibility": "sm",
    "wind_speed": "kt"
  }
}
