{
  "altimeter": {
    "repr": "A2972",
    "spoken": "two nine point seven two",
    "value": 29.72
  },
  "clouds": [
    {
      "altitude": 50,
      "modifier": null,
      "repr": "FEW050",
      "type": "FEW"
    },
    {
      "altitude": 80,
      "modifier": null,
      "repr": "BKN080",
      "type": "BKN"
    },
    {
      "altitude": 110,
      "modifier": null,
      "repr": "OVC110",
      "type": "OVC"
    }
  ],
  "density_altitude": 126,
  "dewpoint": {
    "repr": "07",
    "spoken": "seven",
    "value": 7
  },
  "flight_rules": "VFR",
  "meta": {
    "stations_updated": "2024-06-12",
    "timestamp": "2024-10-26T08:44:06.984774Z"
  },
  "other": [],
  "pressure_altitude": 247,
  "raw": "KNUW 260753Z 14034G51KT 10SM FEW050 BKN080 OVC110 14/07 A2972 RMK AO2 PK WND 14051/0753 SLP069 T01390067 401440017 $",
  "relative_humidity": 0.6181463723079327,
  "remarks": "RMK AO2 PK WND 14051/0753 SLP069 T01390067 401440017 $",
  "remarks_info": {
    "codes": [
      {
        "repr": "$",
        "value": "ASOS requires maintenance"
      },
      {
        "repr": "AO2",
        "value": "Automated with precipitation sensor"
      }
    ],
    "dewpoint_decimal": {
      "repr": "0067",
      "spoken": "six point seven",
      "value": 6.7
    },
    "maximum_temperature_24": {
      "repr": "0144",
      "spoken": "one four point four",
      "value": 14.4
    },
    "maximum_temperature_6": null,
    "minimum_temperature_24": {
      "repr": "0017",
      "spoken": "one point seven",
      "value": 1.7
    },
    "minimum_temperature_6": null,
    "precip_24_hours": null,
    "precip_36_hours": null,
    "precip_hourly": null,
    "pressure_tendency": null,
    "sea_level_pressure": {
      "repr": "SLP069",
      "spoken": "one zero zero six point nine",
      "value": 1006.9
    },
    "snow_depth": null,
    "sunshine_minutes": null,
    "temperature_decimal": {
      "repr": "0139",
      "spoken": "one three point nine",
      "value": 13.9
    }
  },
  "runway_visibility": [],
  "sanitized": "KNUW 260753Z 14034G51KT 10SM FEW050 BKN080 OVC110 14/07 A2972 RMK AO2 PK WND 14051/0753 SLP069 T01390067 401440017 $",
  "station": "KNUW",
  "temperature": {
    "repr": "14",
    "spoken": "one four",
    "value": 14
  },
  "time": {
    "dt": "2024-10-26T07:53:00Z",
    "repr": "260753Z"
  },
  "units": {
    "accumulation": "in",
    "altimeter": "inHg",
    "altitude": "ft",
    "temperature": "C",
    "visibility": "sm",
    "wind_speed": "kt"
  },
  "visibility": {
    "repr": "10",
    "spoken": "one zero",
    "value": 10
  },
  "wind_direction": {
    "repr": "140",
    "spoken": "one four zero",
    "value": 140
  },
  "wind_gust": {
    "repr": "51",
    "spoken": "five one",
    "value": 51
  },
  "wind_speed": {
    "repr": "34",
    "spoken": "three four",
    "value": 34
  },
  "wind_variable_direction": [],
  "wx_codes": []
}
