{
  "altimeter": {
    "repr": "A2995",
    "spoken": "two nine point nine five",
    "value": 29.95
  },
  "clouds": [
    {
      "altitude": 10,
      "modifier": null,
      "repr": "SCT010",
      "type": "SCT"
    },
    {
      "altitude": 14,
      "modifier": null,
      "repr": "BKN014",
      "type": "BKN"
    },
    {
      "altitude": 27,
      "modifier": null,
      "repr": "OVC027",
      "type": "OVC"
    }
  ],
  "density_altitude": 160,
  "dewpoint": {
    "repr": "14",
    "spoken": "one four",
    "value": 14
  },
  "flight_rules": "MVFR",
  "meta": {
    "stations_updated": "2024-06-12",
    "timestamp": "2024-10-08T22:06:53.557819Z"
  },
  "other": [],
  "pressure_altitude": 17,
  "raw": "KNUW 082153Z 13011KT 10SM SCT010 BKN014 OVC027 16/14 A2995 RMK AO2 RAE04 SLP144 P0000 T01610139 $",
  "relative_humidity": 0.8679169411495125,
  "remarks": "RMK AO2 RAE04 SLP144 P0000 T01610139 $",
  "remarks_info": {
    "codes": [
      {
        "repr": "$",
        "value": "ASOS requires maintenance"
      },
      {
        "repr": "AO2",
        "value": "Automated with precipitation sensor"
      },
      {
        "repr": "P0000",
        "value": "Trace amount of rain in the last hour"
      },
      {
        "repr": "RAE04",
        "value": "Rain ended at :04"
      }
    ],
    "dewpoint_decimal": {
      "repr": "0139",
      "spoken": "one three point nine",
      "value": 13.9
    },
    "maximum_temperature_24": null,
    "maximum_temperature_6": null,
    "minimum_temperature_24": null,
    "minimum_temperature_6": null,
    "precip_24_hours": null,
    "precip_36_hours": null,
    "precip_hourly": null,
    "pressure_tendency": null,
    "sea_level_pressure": {
      "repr": "SLP144",
      "spoken": "one zero one four point four",
      "value": 1014.4
    },
    "snow_depth": null,
    "sunshine_minutes": null,
    "temperature_decimal": {
      "repr": "0161",
      "spoken": "one six point one",
      "value": 16.1
    }
  },
  "runway_visibility": [],
  "sanitized": "KNUW 082153Z 13011KT 10SM SCT010 BKN014 OVC027 16/14 A2995 RMK AO2 RAE04 SLP144 P0000 T01610139 $",
  "station": "KNUW",
  "temperature": {
    "repr": "16",
    "spoken": "one six",
    "value": 16
  },
  "time": {
    "dt": "2024-10-08T21:53:00Z",
    "repr": "082153Z"
  },
  "units": {
    "accumulation": "in",
    "altimeter": "inHg",
    "altitude": "ft",
    "temperature": "C",
    "visibility": "sm",
    "wind_speed": "kt"
  },
  "visibility": {
    "repr": "10",
    "spoken": "one zero",
    "value": 10
  },
  "wind_direction": {
    "repr": "130",
    "spoken": "one three zero",
    "value": 130
  },
  "wind_gust": null,
  "wind_speed": {
    "repr": "11",
    "spoken": "one one",
    "value": 11
  },
  "wind_variable_direction": [],
  "wx_codes": []
}
