{
  "meta": {
    "timestamp": "2023-10-21T17:25:15.619756Z",
    "stations_updated": "2023-10-01"
  },
  "altimeter": {
    "repr": "A2993",
    "value": 29.93,
    "spoken": "two nine point nine three"
  },
  "clouds": [
    {
      "repr": "BKN008",
      "type": "BKN",
      "altitude": 8,
      "modifier": null
    },
    {
      "repr": "OVC012",
      "type": "OVC",
      "altitude": 12,
      "modifier": null
    }
  ],
  "flight_rules": "IFR",
  "other": [],
  "visibility": {
    "repr": "1",
    "value": 1,
    "spoken": "one"
  },
  "wind_direction": {
    "repr": "320",
    "value": 320,
    "spoken": "three two zero"
  },
  "wind_gust": null,
  "wind_speed": {
    "repr": "07",
    "value": 7,
    "spoken": "seven"
  },
  "wx_codes": [
    {
      "repr": "BR",
      "value": "Mist"
    }
  ],
  "raw": "KNUW 211653Z 32007KT 1SM BR BKN008 OVC012 11/11 A2993 RMK AO2 SFC VIS 2 1/2 SLP138 T01110106 $ KNUW 211553Z 00000KT 1SM BR BKN009 BKN012 11/11 A2992 RMK AO2 SFC VIS 4 SLP137 T01110111 $",
  "sanitized": "KNUW 211653Z 32007KT 1SM BR BKN008 OVC012 11/11 A2993 RMK AO2 SFC VIS 2 1/2 SLP138 T01110106 $ KNUW 211553Z 00000KT 1SM BR BKN009 BKN012 11/11 A2992 RMK AO2 SFC VIS 4 SLP137 T01110111 $",
  "station": "KNUW",
  "time": {
    "repr": "211653Z",
    "dt": "2023-10-21T16:53:00Z"
  },
  "remarks": "RMK AO2 SFC VIS 2 1/2 SLP138 T01110106 $ KNUW 211553Z 00000KT 1SM BR BKN009 BKN012 11/11 A2992 RMK AO2 SFC VIS 4 SLP137 T01110111 $",
  "dewpoint": {
    "repr": "11",
    "value": 11,
    "spoken": "one one"
  },
  "relative_humidity": 1,
  "remarks_info": {
    "maximum_temperature_6": null,
    "minimum_temperature_6": null,
    "pressure_tendency": null,
    "precip_36_hours": null,
    "precip_24_hours": null,
    "sunshine_minutes": null,
    "codes": [
      {
        "repr": "$",
        "value": "ASOS requires maintenance"
      },
      {
        "repr": "$",
        "value": "ASOS requires maintenance"
      },
      {
        "repr": "AO2",
        "value": "Automated with precipitation sensor"
      },
      {
        "repr": "AO2",
        "value": "Automated with precipitation sensor"
      }
    ],
    "dewpoint_decimal": {
      "repr": "0111",
      "value": 11.1,
      "spoken": "one one point one"
    },
    "maximum_temperature_24": null,
    "minimum_temperature_24": null,
    "precip_hourly": null,
    "sea_level_pressure": {
      "repr": "SLP138",
      "value": 1013.8,
      "spoken": "one zero one three point eight"
    },
    "snow_depth": null,
    "temperature_decimal": {
      "repr": "0111",
      "value": 11.1,
      "spoken": "one one point one"
    }
  },
  "runway_visibility": [],
  "temperature": {
    "repr": "11",
    "value": 11,
    "spoken": "one one"
  },
  "wind_variable_direction": [],
  "density_altitude": -420,
  "pressure_altitude": 37,
  "units": {
    "accumulation": "in",
    "altimeter": "inHg",
    "altitude": "ft",
    "temperature": "C",
    "visibility": "sm",
    "wind_speed": "kt"
  }
}
