{
  "meta": {
    "timestamp": "2022-12-27T22:40:43.805413Z",
    "stations_updated": "2022-09-05"
  },
  "altimeter": {
    "repr": "A2898",
    "value": 28.98,
    "spoken": "two eight point nine eight"
  },
  "clouds": [
    {
      "repr": "SCT025",
      "type": "SCT",
      "altitude": 25,
      "modifier": null
    },
    {
      "repr": "BKN040",
      "type": "BKN",
      "altitude": 40,
      "modifier": null
    },
    {
      "repr": "OVC100",
      "type": "OVC",
      "altitude": 100,
      "modifier": null
    }
  ],
  "flight_rules": "VFR",
  "other": [],
  "visibility": {
    "repr": "10",
    "value": 10,
    "spoken": "one zero"
  },
  "wind_direction": {
    "repr": "150",
    "value": 150,
    "spoken": "one five zero"
  },
  "wind_gust": {
    "repr": "29",
    "value": 29,
    "spoken": "two nine"
  },
  "wind_speed": {
    "repr": "24",
    "value": 24,
    "spoken": "two four"
  },
  "wx_codes": [],
  "raw": "KNUW 272153Z 15024G29KT 10SM SCT025 BKN040 OVC100 11/07 A2898 RMK AO2 PK WND 16035/2110 RAE00 SLP814 P0000 T01060067 VISNO $",
  "sanitized": "KNUW 272153Z 15024G29KT 10SM SCT025 BKN040 OVC100 11/07 A2898 RMK AO2 PK WND 16035/2110 RAE00 SLP814 P0000 T01060067 VISNO $",
  "station": "KNUW",
  "time": {
    "repr": "272153Z",
    "dt": "2022-12-27T21:53:00Z"
  },
  "remarks": "RMK AO2 PK WND 16035/2110 RAE00 SLP814 P0000 T01060067 VISNO $",
  "dewpoint": {
    "repr": "07",
    "value": 7,
    "spoken": "seven"
  },
  "relative_humidity": 0.7680182474943936,
  "remarks_info": {
    "maximum_temperature_6": null,
    "minimum_temperature_6": null,
    "pressure_tendency": null,
    "precip_36_hours": null,
    "precip_24_hours": null,
    "sunshine_minutes": null,
    "codes": [
      {
        "repr": "$",
        "value": "ASOS requires maintenance"
      },
      {
        "repr": "AO2",
        "value": "Automated with precipitation sensor"
      },
      {
        "repr": "P0000",
        "value": "Trace amount of rain in the last hour"
      },
      {
        "repr": "RAE00",
        "value": "Rain ended at :00"
      }
    ],
    "dewpoint_decimal": {
      "repr": "0067",
      "value": 6.7,
      "spoken": "six point seven"
    },
    "maximum_temperature_24": null,
    "minimum_temperature_24": null,
    "precip_hourly": null,
    "sea_level_pressure": {
      "repr": "SLP814",
      "value": 981.4,
      "spoken": "nine eight one point four"
    },
    "snow_depth": null,
    "temperature_decimal": {
      "repr": "0106",
      "value": 10.6,
      "spoken": "one zero point six"
    }
  },
  "runway_visibility": [],
  "temperature": {
    "repr": "11",
    "value": 11,
    "spoken": "one one"
  },
  "wind_variable_direction": [],
  "density_altitude": 470,
  "pressure_altitude": 987,
  "units": {
    "accumulation": "in",
    "altimeter": "inHg",
    "altitude": "ft",
    "temperature": "C",
    "visibility": "sm",
    "wind_speed": "kt"
  }
}
