{
  "meta": {
    "timestamp": "2023-04-18T21:40:48.175396Z",
    "stations_updated": "2023-03-11",
    "cache-timestamp": "2023-04-18T21:40:05.769000Z"
  },
  "altimeter": {
    "repr": "A2985",
    "value": 29.85,
    "spoken": "two nine point eight five"
  },
  "clouds": [
    {
      "repr": "SCT028",
      "type": "SCT",
      "altitude": 28,
      "modifier": null
    },
    {
      "repr": "BKN033",
      "type": "BKN",
      "altitude": 33,
      "modifier": null
    },
    {
      "repr": "BKN110",
      "type": "BKN",
      "altitude": 110,
      "modifier": null
    }
  ],
  "flight_rules": "VFR",
  "other": [],
  "visibility": {
    "repr": "10",
    "value": 10,
    "spoken": "one zero"
  },
  "wind_direction": {
    "repr": "170",
    "value": 170,
    "spoken": "one seven zero"
  },
  "wind_gust": {
    "repr": "40",
    "value": 40,
    "spoken": "four zero"
  },
  "wind_speed": {
    "repr": "24",
    "value": 24,
    "spoken": "two four"
  },
  "wx_codes": [],
  "raw": "KNUW 182100Z 17024G40KT 10SM SCT028 BKN033 BKN110 10/02 A2985 RMK PK WND 18040/2100 T01000022",
  "sanitized": "KNUW 182100Z 17024G40KT 10SM SCT028 BKN033 BKN110 10/02 A2985 RMK PK WND 18040/2100 T01000022",
  "station": "KNUW",
  "time": {
    "repr": "182100Z",
    "dt": "2023-04-18T21:00:00Z"
  },
  "remarks": "RMK PK WND 18040/2100 T01000022",
  "dewpoint": {
    "repr": "02",
    "value": 2,
    "spoken": "two"
  },
  "relative_humidity": 0.5834339196563868,
  "remarks_info": {
    "maximum_temperature_6": null,
    "minimum_temperature_6": null,
    "pressure_tendency": null,
    "precip_36_hours": null,
    "precip_24_hours": null,
    "sunshine_minutes": null,
    "codes": [],
    "dewpoint_decimal": {
      "repr": "0022",
      "value": 2.2,
      "spoken": "two point two"
    },
    "maximum_temperature_24": null,
    "minimum_temperature_24": null,
    "precip_hourly": null,
    "sea_level_pressure": null,
    "snow_depth": null,
    "temperature_decimal": {
      "repr": "0100",
      "value": 10,
      "spoken": "one zero point zero"
    }
  },
  "runway_visibility": [],
  "temperature": {
    "repr": "10",
    "value": 10,
    "spoken": "one zero"
  },
  "wind_variable_direction": [],
  "density_altitude": -472,
  "pressure_altitude": 117,
  "units": {
    "accumulation": "in",
    "altimeter": "inHg",
    "altitude": "ft",
    "temperature": "C",
    "visibility": "sm",
    "wind_speed": "kt"
  }
}
