{
  "meta": {
    "timestamp": "2023-02-07T10:29:37.432755Z",
    "stations_updated": "2023-01-30"
  },
  "altimeter": {
    "repr": "A3018",
    "value": 30.18,
    "spoken": "three zero point one eight"
  },
  "clouds": [
    {
      "repr": "SCT021",
      "type": "SCT",
      "altitude": 21,
      "modifier": null
    },
    {
      "repr": "SCT050",
      "type": "SCT",
      "altitude": 50,
      "modifier": null
    },
    {
      "repr": "BKN100",
      "type": "BKN",
      "altitude": 100,
      "modifier": null
    },
    {
      "repr": "OVC140",
      "type": "OVC",
      "altitude": 140,
      "modifier": null
    }
  ],
  "flight_rules": "VFR",
  "other": [],
  "visibility": {
    "repr": "10",
    "value": 10,
    "spoken": "one zero"
  },
  "wind_direction": {
    "repr": "150",
    "value": 150,
    "spoken": "one five zero"
  },
  "wind_gust": {
    "repr": "39",
    "value": 39,
    "spoken": "three nine"
  },
  "wind_speed": {
    "repr": "28",
    "value": 28,
    "spoken": "two eight"
  },
  "wx_codes": [],
  "raw": "KNUW 070953Z 15028G39KT 10SM SCT021 SCT050 BKN100 OVC140 08/05 A3018 RMK PK WND 15039/0944 SLP219 T00830050",
  "sanitized": "KNUW 070953Z 15028G39KT 10SM SCT021 SCT050 BKN100 OVC140 08/05 A3018 RMK PK WND 15039/0944 SLP219 T00830050",
  "station": "KNUW",
  "time": {
    "repr": "070953Z",
    "dt": "2023-02-07T09:53:00Z"
  },
  "remarks": "RMK PK WND 15039/0944 SLP219 T00830050",
  "dewpoint": {
    "repr": "05",
    "value": 5,
    "spoken": "five"
  },
  "relative_humidity": 0.7969868033518251,
  "remarks_info": {
    "maximum_temperature_6": null,
    "minimum_temperature_6": null,
    "pressure_tendency": null,
    "precip_36_hours": null,
    "precip_24_hours": null,
    "sunshine_minutes": null,
    "codes": [],
    "dewpoint_decimal": {
      "repr": "0050",
      "value": 5,
      "spoken": "five point zero"
    },
    "maximum_temperature_24": null,
    "minimum_temperature_24": null,
    "precip_hourly": null,
    "sea_level_pressure": {
      "repr": "SLP219",
      "value": 1021.9,
      "spoken": "one zero two one point nine"
    },
    "snow_depth": null,
    "temperature_decimal": {
      "repr": "0083",
      "value": 8.3,
      "spoken": "eight point three"
    }
  },
  "runway_visibility": [],
  "temperature": {
    "repr": "08",
    "value": 8,
    "spoken": "eight"
  },
  "wind_variable_direction": [],
  "density_altitude": -1006,
  "pressure_altitude": -213,
  "units": {
    "accumulation": "in",
    "altimeter": "inHg",
    "altitude": "ft",
    "temperature": "C",
    "visibility": "sm",
    "wind_speed": "kt"
  }
}
