{
  "altimeter": {
    "repr": "A3026",
    "spoken": "three zero point two six",
    "value": 30.26
  },
  "clouds": [
    {
      "altitude": 25,
      "modifier": null,
      "repr": "FEW025",
      "type": "FEW"
    },
    {
      "altitude": 160,
      "modifier": null,
      "repr": "FEW160",
      "type": "FEW"
    }
  ],
  "density_altitude": -486,
  "dewpoint": {
    "repr": "08",
    "spoken": "eight",
    "value": 8
  },
  "flight_rules": "VFR",
  "meta": {
    "stations_updated": "2024-06-12",
    "timestamp": "2024-09-29T18:33:20.575276Z"
  },
  "other": [],
  "pressure_altitude": -293,
  "raw": "KNUW 291753Z 25012KT 10SM FEW025 FEW160 13/08 A3026 RMK AO2 SLP252 T01330083 10139 20106 51026 $",
  "relative_humidity": 0.7169841735828416,
  "remarks": "RMK AO2 SLP252 T01330083 10139 20106 51026 $",
  "remarks_info": {
    "codes": [
      {
        "repr": "$",
        "value": "ASOS requires maintenance"
      },
      {
        "repr": "AO2",
        "value": "Automated with precipitation sensor"
      }
    ],
    "dewpoint_decimal": {
      "repr": "0083",
      "spoken": "eight point three",
      "value": 8.3
    },
    "maximum_temperature_24": null,
    "maximum_temperature_6": {
      "repr": "10139",
      "spoken": "one three point nine",
      "value": 13.9
    },
    "minimum_temperature_24": null,
    "minimum_temperature_6": {
      "repr": "20106",
      "spoken": "one zero point six",
      "value": 10.6
    },
    "precip_24_hours": null,
    "precip_36_hours": null,
    "precip_hourly": null,
    "pressure_tendency": {
      "change": 2.6,
      "repr": "51026",
      "tendency": "Increasing, then steady"
    },
    "sea_level_pressure": {
      "repr": "SLP252",
      "spoken": "one zero two five point two",
      "value": 1025.2
    },
    "snow_depth": null,
    "sunshine_minutes": null,
    "temperature_decimal": {
      "repr": "0133",
      "spoken": "one three point three",
      "value": 13.3
    }
  },
  "runway_visibility": [],
  "sanitized": "KNUW 291753Z 25012KT 10SM FEW025 FEW160 13/08 A3026 RMK AO2 SLP252 T01330083 10139 20106 51026 $",
  "station": "KNUW",
  "temperature": {
    "repr": "13",
    "spoken": "one three",
    "value": 13
  },
  "time": {
    "dt": "2024-09-29T17:53:00Z",
    "repr": "291753Z"
  },
  "units": {
    "accumulation": "in",
    "altimeter": "inHg",
    "altitude": "ft",
    "temperature": "C",
    "visibility": "sm",
    "wind_speed": "kt"
  },
  "visibility": {
    "repr": "10",
    "spoken": "one zero",
    "value": 10
  },
  "wind_direction": {
    "repr": "250",
    "spoken": "two five zero",
    "value": 250
  },
  "wind_gust": null,
  "wind_speed": {
    "repr": "12",
    "spoken": "one two",
    "value": 12
  },
  "wind_variable_direction": [],
  "wx_codes": []
}
