{
  "altimeter": {
    "repr": "A3013",
    "spoken": "three zero point one three",
    "value": 30.13
  },
  "clouds": [
    {
      "altitude": 60,
      "modifier": null,
      "repr": "SCT060",
      "type": "SCT"
    },
    {
      "altitude": 220,
      "modifier": null,
      "repr": "BKN220",
      "type": "BKN"
    }
  ],
  "density_altitude": -1016,
  "dewpoint": {
    "repr": "07",
    "spoken": "seven",
    "value": 7
  },
  "flight_rules": "VFR",
  "meta": {
    "stations_updated": "2024-05-13",
    "timestamp": "2024-06-16T11:01:15.174339Z"
  },
  "other": [],
  "pressure_altitude": -163,
  "raw": "KNUW 160953Z 16006KT 10SM SCT060 BKN220 08/07 A3013 RMK SLP208 T00780072",
  "relative_humidity": 0.9598512259113078,
  "remarks": "RMK SLP208 T00780072",
  "remarks_info": {
    "codes": [],
    "dewpoint_decimal": {
      "repr": "0072",
      "spoken": "seven point two",
      "value": 7.2
    },
    "maximum_temperature_24": null,
    "maximum_temperature_6": null,
    "minimum_temperature_24": null,
    "minimum_temperature_6": null,
    "precip_24_hours": null,
    "precip_36_hours": null,
    "precip_hourly": null,
    "pressure_tendency": null,
    "sea_level_pressure": {
      "repr": "SLP208",
      "spoken": "one zero two zero point eight",
      "value": 1020.8
    },
    "snow_depth": null,
    "sunshine_minutes": null,
    "temperature_decimal": {
      "repr": "0078",
      "spoken": "seven point eight",
      "value": 7.8
    }
  },
  "runway_visibility": [],
  "sanitized": "KNUW 160953Z 16006KT 10SM SCT060 BKN220 08/07 A3013 RMK SLP208 T00780072",
  "station": "KNUW",
  "temperature": {
    "repr": "08",
    "spoken": "eight",
    "value": 8
  },
  "time": {
    "dt": "2024-06-16T09:53:00Z",
    "repr": "160953Z"
  },
  "units": {
    "accumulation": "in",
    "altimeter": "inHg",
    "altitude": "ft",
    "temperature": "C",
    "visibility": "sm",
    "wind_speed": "kt"
  },
  "visibility": {
    "repr": "10",
    "spoken": "one zero",
    "value": 10
  },
  "wind_direction": {
    "repr": "160",
    "spoken": "one six zero",
    "value": 160
  },
  "wind_gust": null,
  "wind_speed": {
    "repr": "06",
    "spoken": "six",
    "value": 6
  },
  "wind_variable_direction": [],
  "wx_codes": []
}
