{
  "meta": {
    "timestamp": "2023-01-29T18:28:17.718777Z",
    "stations_updated": "2023-01-16",
    "cache-timestamp": "2023-01-29T18:28:07.681000Z"
  },
  "altimeter": {
    "repr": "A3057",
    "value": 30.57,
    "spoken": "three zero point five seven"
  },
  "clouds": [],
  "flight_rules": "VFR",
  "other": [],
  "visibility": {
    "repr": "10",
    "value": 10,
    "spoken": "one zero"
  },
  "wind_direction": {
    "repr": "010",
    "value": 10,
    "spoken": "zero one zero"
  },
  "wind_gust": null,
  "wind_speed": {
    "repr": "05",
    "value": 5,
    "spoken": "five"
  },
  "wx_codes": [],
  "raw": "KNUW 291753Z 01005KT 10SM SKC 03/M11 A3057 RMK SLP351 T00281106 10028 21028 51015",
  "sanitized": "KNUW 291753Z 01005KT 10SM 03/M11 A3057 RMK SLP351 T00281106 10028 21028 51015",
  "station": "KNUW",
  "time": {
    "repr": "291753Z",
    "dt": "2023-01-29T17:53:00Z"
  },
  "remarks": "RMK SLP351 T00281106 10028 21028 51015",
  "dewpoint": {
    "repr": "M11",
    "value": -11,
    "spoken": "minus one one"
  },
  "relative_humidity": 0.36601045471898497,
  "remarks_info": {
    "maximum_temperature_6": {
      "repr": "10028",
      "value": 2.8,
      "spoken": "two point eight"
    },
    "minimum_temperature_6": {
      "repr": "21028",
      "value": -2.8,
      "spoken": "minus two point eight"
    },
    "pressure_tendency": {
      "repr": "51015",
      "tendency": "Increasing, then steady",
      "change": 1.5
    },
    "precip_36_hours": null,
    "precip_24_hours": null,
    "sunshine_minutes": null,
    "codes": [],
    "dewpoint_decimal": {
      "repr": "1106",
      "value": -10.6,
      "spoken": "minus one zero point six"
    },
    "maximum_temperature_24": null,
    "minimum_temperature_24": null,
    "precip_hourly": null,
    "sea_level_pressure": {
      "repr": "SLP351",
      "value": 1035.1,
      "spoken": "one zero three five point one"
    },
    "snow_depth": null,
    "temperature_decimal": {
      "repr": "0028",
      "value": 2.8,
      "spoken": "two point eight"
    }
  },
  "runway_visibility": [],
  "temperature": {
    "repr": "03",
    "value": 3,
    "spoken": "three"
  },
  "wind_variable_direction": [],
  "density_altitude": -2056,
  "pressure_altitude": -603,
  "units": {
    "accumulation": "in",
    "altimeter": "inHg",
    "altitude": "ft",
    "temperature": "C",
    "visibility": "sm",
    "wind_speed": "kt"
  }
}
