{
  "meta": {
    "timestamp": "2022-11-26T19:01:37.243377Z",
    "stations_updated": "2022-09-05"
  },
  "altimeter": {
    "repr": "A3044",
    "value": 30.44,
    "spoken": "three zero point four four"
  },
  "clouds": [
    {
      "repr": "FEW010",
      "type": "FEW",
      "altitude": 10,
      "modifier": null
    },
    {
      "repr": "BKN030",
      "type": "BKN",
      "altitude": 30,
      "modifier": null
    },
    {
      "repr": "BKN035",
      "type": "BKN",
      "altitude": 35,
      "modifier": null
    },
    {
      "repr": "BKN140",
      "type": "BKN",
      "altitude": 140,
      "modifier": null
    }
  ],
  "flight_rules": "MVFR",
  "other": [],
  "visibility": {
    "repr": "10",
    "value": 10,
    "spoken": "one zero"
  },
  "wind_direction": {
    "repr": "160",
    "value": 160,
    "spoken": "one six zero"
  },
  "wind_gust": {
    "repr": "25",
    "value": 25,
    "spoken": "two five"
  },
  "wind_speed": {
    "repr": "20",
    "value": 20,
    "spoken": "two zero"
  },
  "wx_codes": [],
  "raw": "KNUW 261853Z 16020G25KT 10SM FEW010 BKN030 BKN035 BKN140 07/04 A3044 RMK AO2 PK WND 16026/1850 SLP307 T00670044 VISNO $",
  "sanitized": "KNUW 261853Z 16020G25KT 10SM FEW010 BKN030 BKN035 BKN140 07/04 A3044 RMK AO2 PK WND 16026/1850 SLP307 T00670044 VISNO $",
  "station": "KNUW",
  "time": {
    "repr": "261853Z",
    "dt": "2022-11-26T18:53:00Z"
  },
  "remarks": "RMK AO2 PK WND 16026/1850 SLP307 T00670044 VISNO $",
  "dewpoint": {
    "repr": "04",
    "value": 4,
    "spoken": "four"
  },
  "relative_humidity": 0.8525264910597357,
  "remarks_info": {
    "maximum_temperature_6": null,
    "minimum_temperature_6": null,
    "pressure_tendency": null,
    "precip_36_hours": null,
    "precip_24_hours": null,
    "sunshine_minutes": null,
    "codes": [
      {
        "repr": "$",
        "value": "ASOS requires maintenance"
      },
      {
        "repr": "AO2",
        "value": "Automated with precipitation sensor"
      }
    ],
    "dewpoint_decimal": {
      "repr": "0044",
      "value": 4.4,
      "spoken": "four point four"
    },
    "maximum_temperature_24": null,
    "minimum_temperature_24": null,
    "precip_hourly": null,
    "sea_level_pressure": {
      "repr": "SLP307",
      "value": 1030.7,
      "spoken": "one zero three zero point seven"
    },
    "snow_depth": null,
    "temperature_decimal": {
      "repr": "0067",
      "value": 6.7,
      "spoken": "six point seven"
    }
  },
  "runway_visibility": [],
  "temperature": {
    "repr": "07",
    "value": 7,
    "spoken": "seven"
  },
  "wind_variable_direction": [],
  "density_altitude": -1458,
  "pressure_altitude": -473,
  "units": {
    "accumulation": "in",
    "altimeter": "inHg",
    "altitude": "ft",
    "temperature": "C",
    "visibility": "sm",
    "wind_speed": "kt"
  }
}
