{
  "meta": {
    "timestamp": "2022-08-21T17:43:23.844377Z",
    "stations_updated": "2022-07-17"
  },
  "altimeter": {
    "repr": "A3008",
    "value": 30.08,
    "spoken": "three zero point zero eight"
  },
  "clouds": [
    {
      "repr": "FEW001",
      "type": "FEW",
      "altitude": 1,
      "modifier": null
    },
    {
      "repr": "SCT007",
      "type": "SCT",
      "altitude": 7,
      "modifier": null
    },
    {
      "repr": "OVC012",
      "type": "OVC",
      "altitude": 12,
      "modifier": null
    }
  ],
  "flight_rules": "MVFR",
  "other": [],
  "visibility": {
    "repr": "6",
    "value": 6,
    "spoken": "six"
  },
  "wind_direction": {
    "repr": "330",
    "value": 330,
    "spoken": "three three zero"
  },
  "wind_gust": null,
  "wind_speed": {
    "repr": "03",
    "value": 3,
    "spoken": "three"
  },
  "wx_codes": [
    {
      "repr": "BR",
      "value": "Mist"
    }
  ],
  "raw": "KNUW 211653Z 33003KT 6SM BR FEW001 SCT007 OVC012 17/15 A3008 RMK SLP186 T01670150",
  "sanitized": "KNUW 211653Z 33003KT 6SM BR FEW001 SCT007 OVC012 17/15 A3008 RMK SLP186 T01670150",
  "station": "KNUW",
  "time": {
    "repr": "211653Z",
    "dt": "2022-08-21T16:53:00Z"
  },
  "remarks": "RMK SLP186 T01670150",
  "dewpoint": {
    "repr": "15",
    "value": 15,
    "spoken": "one five"
  },
  "relative_humidity": 0.8969574735509072,
  "remarks_info": {
    "maximum_temperature_6": null,
    "minimum_temperature_6": null,
    "pressure_tendency": null,
    "precip_36_hours": null,
    "precip_24_hours": null,
    "sunshine_minutes": null,
    "codes": [],
    "dewpoint_decimal": {
      "repr": "0150",
      "value": 15,
      "spoken": "one five point zero"
    },
    "maximum_temperature_24": null,
    "minimum_temperature_24": null,
    "precip_hourly": null,
    "sea_level_pressure": {
      "repr": "SLP186",
      "value": 1018.6,
      "spoken": "one zero one eight point six"
    },
    "snow_depth": null,
    "temperature_decimal": {
      "repr": "0167",
      "value": 16.7,
      "spoken": "one six point seven"
    }
  },
  "runway_visibility": [],
  "temperature": {
    "repr": "17",
    "value": 17,
    "spoken": "one seven"
  },
  "wind_variable_direction": [],
  "density_altitude": 102,
  "pressure_altitude": -113,
  "units": {
    "accumulation": "in",
    "altimeter": "inHg",
    "altitude": "ft",
    "temperature": "C",
    "visibility": "sm",
    "wind_speed": "kt"
  }
}
