{
  "altimeter": {
    "repr": "A2951",
    "spoken": "two nine point five one",
    "value": 29.51
  },
  "clouds": [
    {
      "altitude": 31,
      "modifier": null,
      "repr": "SCT031",
      "type": "SCT"
    },
    {
      "altitude": 80,
      "modifier": null,
      "repr": "OVC080",
      "type": "OVC"
    }
  ],
  "density_altitude": -336,
  "dewpoint": {
    "repr": "05",
    "spoken": "five",
    "value": 5
  },
  "flight_rules": "VFR",
  "meta": {
    "stations_updated": "2024-12-02",
    "timestamp": "2024-12-28T08:08:50.185630Z"
  },
  "other": [],
  "pressure_altitude": 457,
  "raw": "KNUW 280753Z AUTO 13024G35KT 10SM SCT031 OVC080 08/05 A2951 RMK AO2 PK WND 14039/0700 CIG 033 SLP998 T00830050 400890050 $",
  "relative_humidity": 0.7969868033518251,
  "remarks": "RMK AO2 PK WND 14039/0700 CIG 033 SLP998 T00830050 400890050 $",
  "remarks_info": {
    "codes": [
      {
        "repr": "$",
        "value": "ASOS requires maintenance"
      },
      {
        "repr": "AO2",
        "value": "Automated with precipitation sensor"
      }
    ],
    "dewpoint_decimal": {
      "repr": "0050",
      "spoken": "five point zero",
      "value": 5
    },
    "maximum_temperature_24": {
      "repr": "0089",
      "spoken": "eight point nine",
      "value": 8.9
    },
    "maximum_temperature_6": null,
    "minimum_temperature_24": {
      "repr": "0050",
      "spoken": "five point zero",
      "value": 5
    },
    "minimum_temperature_6": null,
    "precip_24_hours": null,
    "precip_36_hours": null,
    "precip_hourly": null,
    "pressure_tendency": null,
    "sea_level_pressure": {
      "repr": "SLP998",
      "spoken": "nine nine nine point eight",
      "value": 999.8
    },
    "snow_depth": null,
    "sunshine_minutes": null,
    "temperature_decimal": {
      "repr": "0083",
      "spoken": "eight point three",
      "value": 8.3
    }
  },
  "runway_visibility": [],
  "sanitized": "KNUW 280753Z 13024G35KT 10SM SCT031 OVC080 08/05 A2951 RMK AO2 PK WND 14039/0700 CIG 033 SLP998 T00830050 400890050 $",
  "station": "KNUW",
  "temperature": {
    "repr": "08",
    "spoken": "eight",
    "value": 8
  },
  "time": {
    "dt": "2024-12-28T07:53:00Z",
    "repr": "280753Z"
  },
  "units": {
    "accumulation": "in",
    "altimeter": "inHg",
    "altitude": "ft",
    "temperature": "C",
    "visibility": "sm",
    "wind_speed": "kt"
  },
  "visibility": {
    "repr": "10",
    "spoken": "one zero",
    "value": 10
  },
  "wind_direction": {
    "repr": "130",
    "spoken": "one three zero",
    "value": 130
  },
  "wind_gust": {
    "repr": "35",
    "spoken": "three five",
    "value": 35
  },
  "wind_speed": {
    "repr": "24",
    "spoken": "two four",
    "value": 24
  },
  "wind_variable_direction": [],
  "wx_codes": []
}
