{
  "meta": {
    "timestamp": "2023-06-16T21:20:34.412989Z",
    "stations_updated": "2023-06-06",
    "cache-timestamp": "2023-06-16T21:20:05.156000Z"
  },
  "altimeter": {
    "repr": "A3015",
    "value": 30.15,
    "spoken": "three zero point one five"
  },
  "clouds": [
    {
      "repr": "FEW035",
      "type": "FEW",
      "altitude": 35,
      "modifier": null
    },
    {
      "repr": "SCT060",
      "type": "SCT",
      "altitude": 60,
      "modifier": null
    },
    {
      "repr": "BKN130",
      "type": "BKN",
      "altitude": 130,
      "modifier": null
    },
    {
      "repr": "BKN220",
      "type": "BKN",
      "altitude": 220,
      "modifier": null
    }
  ],
  "flight_rules": "VFR",
  "other": [],
  "visibility": {
    "repr": "10",
    "value": 10,
    "spoken": "one zero"
  },
  "wind_direction": {
    "repr": "230",
    "value": 230,
    "spoken": "two three zero"
  },
  "wind_gust": null,
  "wind_speed": {
    "repr": "11",
    "value": 11,
    "spoken": "one one"
  },
  "wx_codes": [],
  "raw": "KNUW 162053Z 23011KT 10SM FEW035 SCT060 BKN130 BKN220 17/12 A3015 RMK AO2 SLP213 T01670122 58007 VISNO $",
  "sanitized": "KNUW 162053Z 23011KT 10SM FEW035 SCT060 BKN130 BKN220 17/12 A3015 RMK AO2 SLP213 T01670122 58007 VISNO $",
  "station": "KNUW",
  "time": {
    "repr": "162053Z",
    "dt": "2023-06-16T20:53:00Z"
  },
  "remarks": "RMK AO2 SLP213 T01670122 58007 VISNO $",
  "dewpoint": {
    "repr": "12",
    "value": 12,
    "spoken": "one two"
  },
  "relative_humidity": 0.7475071532173421,
  "remarks_info": {
    "maximum_temperature_6": null,
    "minimum_temperature_6": null,
    "pressure_tendency": {
      "repr": "58007",
      "tendency": "Steady or increasing, then decreasing",
      "change": 0.7
    },
    "precip_36_hours": null,
    "precip_24_hours": null,
    "sunshine_minutes": null,
    "codes": [
      {
        "repr": "$",
        "value": "ASOS requires maintenance"
      },
      {
        "repr": "AO2",
        "value": "Automated with precipitation sensor"
      }
    ],
    "dewpoint_decimal": {
      "repr": "0122",
      "value": 12.2,
      "spoken": "one two point two"
    },
    "maximum_temperature_24": null,
    "minimum_temperature_24": null,
    "precip_hourly": null,
    "sea_level_pressure": {
      "repr": "SLP213",
      "value": 1021.3,
      "spoken": "one zero two one point three"
    },
    "snow_depth": null,
    "temperature_decimal": {
      "repr": "0167",
      "value": 16.7,
      "spoken": "one six point seven"
    }
  },
  "runway_visibility": [],
  "temperature": {
    "repr": "17",
    "value": 17,
    "spoken": "one seven"
  },
  "wind_variable_direction": [],
  "density_altitude": 32,
  "pressure_altitude": -183,
  "units": {
    "accumulation": "in",
    "altimeter": "inHg",
    "altitude": "ft",
    "temperature": "C",
    "visibility": "sm",
    "wind_speed": "kt"
  }
}
