{
  "altimeter": {
    "repr": "A2997",
    "spoken": "two nine point nine seven",
    "value": 29.97
  },
  "clouds": [],
  "density_altitude": -196,
  "dewpoint": {
    "repr": "11",
    "spoken": "one one",
    "value": 11
  },
  "flight_rules": "VFR",
  "meta": {
    "cache-timestamp": "2024-06-20T03:28:05.286000Z",
    "stations_updated": "2024-05-13",
    "timestamp": "2024-06-20T03:28:22.899961Z"
  },
  "other": [],
  "pressure_altitude": -3,
  "raw": "KNUW 200253Z AUTO 27005KT 10SM CLR 13/11 A2997 RMK AO2 SLP154 T01330111 55002 $",
  "relative_humidity": 0.8652137135915917,
  "remarks": "RMK AO2 SLP154 T01330111 55002 $",
  "remarks_info": {
    "codes": [
      {
        "repr": "$",
        "value": "ASOS requires maintenance"
      },
      {
        "repr": "AO2",
        "value": "Automated with precipitation sensor"
      }
    ],
    "dewpoint_decimal": {
      "repr": "0111",
      "spoken": "one one point one",
      "value": 11.1
    },
    "maximum_temperature_24": null,
    "maximum_temperature_6": null,
    "minimum_temperature_24": null,
    "minimum_temperature_6": null,
    "precip_24_hours": null,
    "precip_36_hours": null,
    "precip_hourly": null,
    "pressure_tendency": {
      "change": 0.2,
      "repr": "55002",
      "tendency": "Decreasing, then increasing"
    },
    "sea_level_pressure": {
      "repr": "SLP154",
      "spoken": "one zero one five point four",
      "value": 1015.4
    },
    "snow_depth": null,
    "sunshine_minutes": null,
    "temperature_decimal": {
      "repr": "0133",
      "spoken": "one three point three",
      "value": 13.3
    }
  },
  "runway_visibility": [],
  "sanitized": "KNUW 200253Z 27005KT 10SM 13/11 A2997 RMK AO2 SLP154 T01330111 55002 $",
  "station": "KNUW",
  "temperature": {
    "repr": "13",
    "spoken": "one three",
    "value": 13
  },
  "time": {
    "dt": "2024-06-20T02:53:00Z",
    "repr": "200253Z"
  },
  "units": {
    "accumulation": "in",
    "altimeter": "inHg",
    "altitude": "ft",
    "temperature": "C",
    "visibility": "sm",
    "wind_speed": "kt"
  },
  "visibility": {
    "repr": "10",
    "spoken": "one zero",
    "value": 10
  },
  "wind_direction": {
    "repr": "270",
    "spoken": "two seven zero",
    "value": 270
  },
  "wind_gust": null,
  "wind_speed": {
    "repr": "05",
    "spoken": "five",
    "value": 5
  },
  "wind_variable_direction": [],
  "wx_codes": []
}
