{
  "altimeter": {
    "repr": "A3047",
    "spoken": "three zero point four seven",
    "value": 30.47
  },
  "clouds": [
    {
      "altitude": 180,
      "modifier": null,
      "repr": "FEW180",
      "type": "FEW"
    }
  ],
  "density_altitude": -2628,
  "dewpoint": {
    "repr": "M03",
    "spoken": "minus three",
    "value": -3
  },
  "flight_rules": "VFR",
  "meta": {
    "stations_updated": "2024-12-02",
    "timestamp": "2025-01-19T15:40:37.565010Z"
  },
  "other": [],
  "pressure_altitude": -503,
  "raw": "KNUW 191453Z 13003KT 10SM FEW180 M03/M03 A3047 RMK AO2 SLP323 T10281033 53004 $",
  "relative_humidity": 0.9634740523958434,
  "remarks": "RMK AO2 SLP323 T10281033 53004 $",
  "remarks_info": {
    "codes": [
      {
        "repr": "$",
        "value": "ASOS requires maintenance"
      },
      {
        "repr": "AO2",
        "value": "Automated with precipitation sensor"
      }
    ],
    "dewpoint_decimal": {
      "repr": "1033",
      "spoken": "minus three point three",
      "value": -3.3
    },
    "maximum_temperature_24": null,
    "maximum_temperature_6": null,
    "minimum_temperature_24": null,
    "minimum_temperature_6": null,
    "precip_24_hours": null,
    "precip_36_hours": null,
    "precip_hourly": null,
    "pressure_tendency": {
      "change": 0.4,
      "repr": "53004",
      "tendency": "Decreasing or steady, then increasing"
    },
    "sea_level_pressure": {
      "repr": "SLP323",
      "spoken": "one zero three two point three",
      "value": 1032.3
    },
    "snow_depth": null,
    "sunshine_minutes": null,
    "temperature_decimal": {
      "repr": "1028",
      "spoken": "minus two point eight",
      "value": -2.8
    }
  },
  "runway_visibility": [],
  "sanitized": "KNUW 191453Z 13003KT 10SM FEW180 M03/M03 A3047 RMK AO2 SLP323 T10281033 53004 $",
  "station": "KNUW",
  "temperature": {
    "repr": "M03",
    "spoken": "minus three",
    "value": -3
  },
  "time": {
    "dt": "2025-01-19T14:53:00Z",
    "repr": "191453Z"
  },
  "units": {
    "accumulation": "in",
    "altimeter": "inHg",
    "altitude": "ft",
    "temperature": "C",
    "visibility": "sm",
    "wind_speed": "kt"
  },
  "visibility": {
    "repr": "10",
    "spoken": "one zero",
    "value": 10
  },
  "wind_direction": {
    "repr": "130",
    "spoken": "one three zero",
    "value": 130
  },
  "wind_gust": null,
  "wind_speed": {
    "repr": "03",
    "spoken": "three",
    "value": 3
  },
  "wind_variable_direction": [],
  "wx_codes": []
}
