{
  "meta": {
    "timestamp": "2022-10-21T07:21:32.800500Z",
    "stations_updated": "2022-09-05"
  },
  "altimeter": {
    "repr": "A3002",
    "value": 30.02,
    "spoken": "three zero point zero two"
  },
  "clouds": [
    {
      "repr": "FEW020",
      "type": "FEW",
      "altitude": 20,
      "modifier": null
    },
    {
      "repr": "SCT060",
      "type": "SCT",
      "altitude": 60,
      "modifier": null
    },
    {
      "repr": "BKN180",
      "type": "BKN",
      "altitude": 180,
      "modifier": null
    },
    {
      "repr": "BKN250",
      "type": "BKN",
      "altitude": 250,
      "modifier": null
    }
  ],
  "flight_rules": "VFR",
  "other": [],
  "visibility": {
    "repr": "10",
    "value": 10,
    "spoken": "one zero"
  },
  "wind_direction": {
    "repr": "240",
    "value": 240,
    "spoken": "two four zero"
  },
  "wind_gust": null,
  "wind_speed": {
    "repr": "09",
    "value": 9,
    "spoken": "nine"
  },
  "wx_codes": [],
  "raw": "KNUW 210653Z 24009KT 10SM FEW020 SCT060 BKN180 BKN250 11/08 A3002 RMK AO2 SLP165 T01110078 $",
  "sanitized": "KNUW 210653Z 24009KT 10SM FEW020 SCT060 BKN180 BKN250 11/08 A3002 RMK AO2 SLP165 T01110078 $",
  "station": "KNUW",
  "time": {
    "repr": "210653Z",
    "dt": "2022-10-21T06:53:00Z"
  },
  "remarks": "RMK AO2 SLP165 T01110078 $",
  "dewpoint": {
    "repr": "08",
    "value": 8,
    "spoken": "eight"
  },
  "relative_humidity": 0.8009785710766422,
  "remarks_info": {
    "maximum_temperature_6": null,
    "minimum_temperature_6": null,
    "pressure_tendency": null,
    "precip_36_hours": null,
    "precip_24_hours": null,
    "sunshine_minutes": null,
    "codes": [
      {
        "repr": "$",
        "value": "ASOS requires maintenance"
      },
      {
        "repr": "AO2",
        "value": "Automated with precipitation sensor"
      }
    ],
    "dewpoint_decimal": {
      "repr": "0078",
      "value": 7.8,
      "spoken": "seven point eight"
    },
    "maximum_temperature_24": null,
    "minimum_temperature_24": null,
    "precip_hourly": null,
    "sea_level_pressure": {
      "repr": "SLP165",
      "value": 1016.5,
      "spoken": "one zero one six point five"
    },
    "snow_depth": null,
    "temperature_decimal": {
      "repr": "0111",
      "value": 11.1,
      "spoken": "one one point one"
    }
  },
  "runway_visibility": [],
  "temperature": {
    "repr": "11",
    "value": 11,
    "spoken": "one one"
  },
  "wind_variable_direction": [],
  "density_altitude": -510,
  "pressure_altitude": -53,
  "units": {
    "accumulation": "in",
    "altimeter": "inHg",
    "altitude": "ft",
    "temperature": "C",
    "visibility": "sm",
    "wind_speed": "kt"
  }
}
