{
  "altimeter": {
    "repr": "A2950",
    "spoken": "two nine point five zero",
    "value": 29.5
  },
  "clouds": [
    {
      "altitude": 35,
      "modifier": null,
      "repr": "BKN035",
      "type": "BKN"
    },
    {
      "altitude": 100,
      "modifier": null,
      "repr": "OVC100",
      "type": "OVC"
    }
  ],
  "density_altitude": -386,
  "dewpoint": {
    "repr": "05",
    "spoken": "five",
    "value": 5
  },
  "flight_rules": "VFR",
  "meta": {
    "stations_updated": "2024-12-02",
    "timestamp": "2024-12-14T08:09:38.987453Z"
  },
  "other": [],
  "pressure_altitude": 467,
  "raw": "KNUW 140753Z 12017G27KT 10SM BKN035 OVC100 08/05 A2950 RMK AO2 PK WND 14034/0657 SLP993 T00780050 400890061 $",
  "relative_humidity": 0.824548883443889,
  "remarks": "RMK AO2 PK WND 14034/0657 SLP993 T00780050 400890061 $",
  "remarks_info": {
    "codes": [
      {
        "repr": "$",
        "value": "ASOS requires maintenance"
      },
      {
        "repr": "AO2",
        "value": "Automated with precipitation sensor"
      }
    ],
    "dewpoint_decimal": {
      "repr": "0050",
      "spoken": "five point zero",
      "value": 5
    },
    "maximum_temperature_24": {
      "repr": "0089",
      "spoken": "eight point nine",
      "value": 8.9
    },
    "maximum_temperature_6": null,
    "minimum_temperature_24": {
      "repr": "0061",
      "spoken": "six point one",
      "value": 6.1
    },
    "minimum_temperature_6": null,
    "precip_24_hours": null,
    "precip_36_hours": null,
    "precip_hourly": null,
    "pressure_tendency": null,
    "sea_level_pressure": {
      "repr": "SLP993",
      "spoken": "nine nine nine point three",
      "value": 999.3
    },
    "snow_depth": null,
    "sunshine_minutes": null,
    "temperature_decimal": {
      "repr": "0078",
      "spoken": "seven point eight",
      "value": 7.8
    }
  },
  "runway_visibility": [],
  "sanitized": "KNUW 140753Z 12017G27KT 10SM BKN035 OVC100 08/05 A2950 RMK AO2 PK WND 14034/0657 SLP993 T00780050 400890061 $",
  "station": "KNUW",
  "temperature": {
    "repr": "08",
    "spoken": "eight",
    "value": 8
  },
  "time": {
    "dt": "2024-12-14T07:53:00Z",
    "repr": "140753Z"
  },
  "units": {
    "accumulation": "in",
    "altimeter": "inHg",
    "altitude": "ft",
    "temperature": "C",
    "visibility": "sm",
    "wind_speed": "kt"
  },
  "visibility": {
    "repr": "10",
    "spoken": "one zero",
    "value": 10
  },
  "wind_direction": {
    "repr": "120",
    "spoken": "one two zero",
    "value": 120
  },
  "wind_gust": {
    "repr": "27",
    "spoken": "two seven",
    "value": 27
  },
  "wind_speed": {
    "repr": "17",
    "spoken": "one seven",
    "value": 17
  },
  "wind_variable_direction": [],
  "wx_codes": []
}
