{
  "altimeter": {
    "repr": "A2994",
    "spoken": "two nine point nine four",
    "value": 29.94
  },
  "clouds": [
    {
      "altitude": 60,
      "modifier": null,
      "repr": "FEW060",
      "type": "FEW"
    },
    {
      "altitude": 90,
      "modifier": null,
      "repr": "FEW090",
      "type": "FEW"
    },
    {
      "altitude": 200,
      "modifier": null,
      "repr": "SCT200",
      "type": "SCT"
    }
  ],
  "density_altitude": 902,
  "dewpoint": {
    "repr": "14",
    "spoken": "one four",
    "value": 14
  },
  "flight_rules": "VFR",
  "meta": {
    "stations_updated": "2024-06-12",
    "timestamp": "2024-07-17T00:30:55.416916Z"
  },
  "other": [],
  "pressure_altitude": 27,
  "raw": "KNUW 162353Z 27007KT 10SM FEW060 FEW090 SCT200 22/14 A2994 RMK AO2 SLP143 T02220139 10228 20156 58015 $",
  "relative_humidity": 0.5932307004904688,
  "remarks": "RMK AO2 SLP143 T02220139 10228 20156 58015 $",
  "remarks_info": {
    "codes": [
      {
        "repr": "$",
        "value": "ASOS requires maintenance"
      },
      {
        "repr": "AO2",
        "value": "Automated with precipitation sensor"
      }
    ],
    "dewpoint_decimal": {
      "repr": "0139",
      "spoken": "one three point nine",
      "value": 13.9
    },
    "maximum_temperature_24": null,
    "maximum_temperature_6": {
      "repr": "10228",
      "spoken": "two two point eight",
      "value": 22.8
    },
    "minimum_temperature_24": null,
    "minimum_temperature_6": {
      "repr": "20156",
      "spoken": "one five point six",
      "value": 15.6
    },
    "precip_24_hours": null,
    "precip_36_hours": null,
    "precip_hourly": null,
    "pressure_tendency": {
      "change": 1.5,
      "repr": "58015",
      "tendency": "Steady or increasing, then decreasing"
    },
    "sea_level_pressure": {
      "repr": "SLP143",
      "spoken": "one zero one four point three",
      "value": 1014.3
    },
    "snow_depth": null,
    "sunshine_minutes": null,
    "temperature_decimal": {
      "repr": "0222",
      "spoken": "two two point two",
      "value": 22.2
    }
  },
  "runway_visibility": [],
  "sanitized": "KNUW 162353Z 27007KT 10SM FEW060 FEW090 SCT200 22/14 A2994 RMK AO2 SLP143 T02220139 10228 20156 58015 $",
  "station": "KNUW",
  "temperature": {
    "repr": "22",
    "spoken": "two two",
    "value": 22
  },
  "time": {
    "dt": "2024-07-16T23:53:00Z",
    "repr": "162353Z"
  },
  "units": {
    "accumulation": "in",
    "altimeter": "inHg",
    "altitude": "ft",
    "temperature": "C",
    "visibility": "sm",
    "wind_speed": "kt"
  },
  "visibility": {
    "repr": "10",
    "spoken": "one zero",
    "value": 10
  },
  "wind_direction": {
    "repr": "270",
    "spoken": "two seven zero",
    "value": 270
  },
  "wind_gust": null,
  "wind_speed": {
    "repr": "07",
    "spoken": "seven",
    "value": 7
  },
  "wind_variable_direction": [],
  "wx_codes": []
}
