{
  "meta": {
    "timestamp": "2022-12-13T19:01:15.408116Z",
    "stations_updated": "2022-09-05"
  },
  "altimeter": {
    "repr": "A3030",
    "value": 30.3,
    "spoken": "three zero point three zero"
  },
  "clouds": [
    {
      "repr": "SCT027",
      "type": "SCT",
      "altitude": 27,
      "modifier": null
    },
    {
      "repr": "OVC035",
      "type": "OVC",
      "altitude": 35,
      "modifier": null
    }
  ],
  "flight_rules": "VFR",
  "other": [],
  "visibility": {
    "repr": "10",
    "value": 10,
    "spoken": "one zero"
  },
  "wind_direction": {
    "repr": "110",
    "value": 110,
    "spoken": "one one zero"
  },
  "wind_gust": null,
  "wind_speed": {
    "repr": "04",
    "value": 4,
    "spoken": "four"
  },
  "wx_codes": [],
  "raw": "KNUW 131753Z 11004KT 10SM SCT027 OVC035 04/02 A3030 RMK AO2 SLP258 T00390022 10039 20022 53013 VISNO $",
  "sanitized": "KNUW 131753Z 11004KT 10SM SCT027 OVC035 04/02 A3030 RMK AO2 SLP258 T00390022 10039 20022 53013 VISNO $",
  "station": "KNUW",
  "time": {
    "repr": "131753Z",
    "dt": "2022-12-13T17:53:00Z"
  },
  "remarks": "RMK AO2 SLP258 T00390022 10039 20022 53013 VISNO $",
  "dewpoint": {
    "repr": "02",
    "value": 2,
    "spoken": "two"
  },
  "relative_humidity": 0.886626408872418,
  "remarks_info": {
    "maximum_temperature_6": {
      "repr": "10039",
      "value": 3.9,
      "spoken": "three point nine"
    },
    "minimum_temperature_6": {
      "repr": "20022",
      "value": 2.2,
      "spoken": "two point two"
    },
    "pressure_tendency": {
      "repr": "53013",
      "tendency": "Decreasing or steady, then increasing",
      "change": 1.3
    },
    "precip_36_hours": null,
    "precip_24_hours": null,
    "sunshine_minutes": null,
    "codes": [
      {
        "repr": "$",
        "value": "ASOS requires maintenance"
      },
      {
        "repr": "AO2",
        "value": "Automated with precipitation sensor"
      }
    ],
    "dewpoint_decimal": {
      "repr": "0022",
      "value": 2.2,
      "spoken": "two point two"
    },
    "maximum_temperature_24": null,
    "minimum_temperature_24": null,
    "precip_hourly": null,
    "sea_level_pressure": {
      "repr": "SLP258",
      "value": 1025.8,
      "spoken": "one zero two five point eight"
    },
    "snow_depth": null,
    "temperature_decimal": {
      "repr": "0039",
      "value": 3.9,
      "spoken": "three point nine"
    }
  },
  "runway_visibility": [],
  "temperature": {
    "repr": "04",
    "value": 4,
    "spoken": "four"
  },
  "wind_variable_direction": [],
  "density_altitude": -1654,
  "pressure_altitude": -333,
  "units": {
    "accumulation": "in",
    "altimeter": "inHg",
    "altitude": "ft",
    "temperature": "C",
    "visibility": "sm",
    "wind_speed": "kt"
  }
}
