{
  "altimeter": {
    "repr": "A3017",
    "spoken": "three zero point one seven",
    "value": 30.17
  },
  "clouds": [
    {
      "altitude": 150,
      "modifier": null,
      "repr": "FEW150",
      "type": "FEW"
    }
  ],
  "density_altitude": -120,
  "dewpoint": {
    "repr": "12",
    "spoken": "one two",
    "value": 12
  },
  "flight_rules": "VFR",
  "meta": {
    "stations_updated": "2024-06-12",
    "timestamp": "2024-07-20T18:07:43.161643Z"
  },
  "other": [],
  "pressure_altitude": -203,
  "raw": "KNUW 201753Z 26008KT 10SM FEW150 16/12 A3017 RMK AO2 SLP219 T01560122 10161 20111 51001 $",
  "relative_humidity": 0.8018700184252487,
  "remarks": "RMK AO2 SLP219 T01560122 10161 20111 51001 $",
  "remarks_info": {
    "codes": [
      {
        "repr": "$",
        "value": "ASOS requires maintenance"
      },
      {
        "repr": "AO2",
        "value": "Automated with precipitation sensor"
      }
    ],
    "dewpoint_decimal": {
      "repr": "0122",
      "spoken": "one two point two",
      "value": 12.2
    },
    "maximum_temperature_24": null,
    "maximum_temperature_6": {
      "repr": "10161",
      "spoken": "one six point one",
      "value": 16.1
    },
    "minimum_temperature_24": null,
    "minimum_temperature_6": {
      "repr": "20111",
      "spoken": "one one point one",
      "value": 11.1
    },
    "precip_24_hours": null,
    "precip_36_hours": null,
    "precip_hourly": null,
    "pressure_tendency": {
      "change": 0.1,
      "repr": "51001",
      "tendency": "Increasing, then steady"
    },
    "sea_level_pressure": {
      "repr": "SLP219",
      "spoken": "one zero two one point nine",
      "value": 1021.9
    },
    "snow_depth": null,
    "sunshine_minutes": null,
    "temperature_decimal": {
      "repr": "0156",
      "spoken": "one five point six",
      "value": 15.6
    }
  },
  "runway_visibility": [],
  "sanitized": "KNUW 201753Z 26008KT 10SM FEW150 16/12 A3017 RMK AO2 SLP219 T01560122 10161 20111 51001 $",
  "station": "KNUW",
  "temperature": {
    "repr": "16",
    "spoken": "one six",
    "value": 16
  },
  "time": {
    "dt": "2024-07-20T17:53:00Z",
    "repr": "201753Z"
  },
  "units": {
    "accumulation": "in",
    "altimeter": "inHg",
    "altitude": "ft",
    "temperature": "C",
    "visibility": "sm",
    "wind_speed": "kt"
  },
  "visibility": {
    "repr": "10",
    "spoken": "one zero",
    "value": 10
  },
  "wind_direction": {
    "repr": "260",
    "spoken": "two six zero",
    "value": 260
  },
  "wind_gust": null,
  "wind_speed": {
    "repr": "08",
    "spoken": "eight",
    "value": 8
  },
  "wind_variable_direction": [],
  "wx_codes": []
}
