{
  "altimeter": {
    "repr": "A3003",
    "spoken": "three zero point zero three",
    "value": 30.03
  },
  "clouds": [
    {
      "altitude": 200,
      "modifier": null,
      "repr": "SCT200",
      "type": "SCT"
    }
  ],
  "density_altitude": -2848,
  "dewpoint": {
    "repr": "M15",
    "spoken": "minus one five",
    "value": -15
  },
  "flight_rules": "VFR",
  "meta": {
    "cache-timestamp": "2024-01-13T18:40:03.101000Z",
    "stations_updated": "2023-10-28",
    "timestamp": "2024-01-13T18:40:31.660451Z"
  },
  "other": [],
  "pressure_altitude": -63,
  "raw": "KNUW 131753Z 04003KT 10SM SCT200 M08/M15 A3003 RMK AO2 SLP173 T10831150 11083 21117 58025 $",
  "relative_humidity": 0.5848513521928687,
  "remarks": "RMK AO2 SLP173 T10831150 11083 21117 58025 $",
  "remarks_info": {
    "codes": [
      {
        "repr": "$",
        "value": "ASOS requires maintenance"
      },
      {
        "repr": "AO2",
        "value": "Automated with precipitation sensor"
      }
    ],
    "dewpoint_decimal": {
      "repr": "1150",
      "spoken": "minus one five point zero",
      "value": -15
    },
    "maximum_temperature_24": null,
    "maximum_temperature_6": {
      "repr": "11083",
      "spoken": "minus eight point three",
      "value": -8.3
    },
    "minimum_temperature_24": null,
    "minimum_temperature_6": {
      "repr": "21117",
      "spoken": "minus one one point seven",
      "value": -11.7
    },
    "precip_24_hours": null,
    "precip_36_hours": null,
    "precip_hourly": null,
    "pressure_tendency": {
      "change": 2.5,
      "repr": "58025",
      "tendency": "Steady or increasing, then decreasing"
    },
    "sea_level_pressure": {
      "repr": "SLP173",
      "spoken": "one zero one seven point three",
      "value": 1017.3
    },
    "snow_depth": null,
    "sunshine_minutes": null,
    "temperature_decimal": {
      "repr": "1083",
      "spoken": "minus eight point three",
      "value": -8.3
    }
  },
  "runway_visibility": [],
  "sanitized": "KNUW 131753Z 04003KT 10SM SCT200 M08/M15 A3003 RMK AO2 SLP173 T10831150 11083 21117 58025 $",
  "station": "KNUW",
  "temperature": {
    "repr": "M08",
    "spoken": "minus eight",
    "value": -8
  },
  "time": {
    "dt": "2024-01-13T17:53:00Z",
    "repr": "131753Z"
  },
  "units": {
    "accumulation": "in",
    "altimeter": "inHg",
    "altitude": "ft",
    "temperature": "C",
    "visibility": "sm",
    "wind_speed": "kt"
  },
  "visibility": {
    "repr": "10",
    "spoken": "one zero",
    "value": 10
  },
  "wind_direction": {
    "repr": "040",
    "spoken": "zero four zero",
    "value": 40
  },
  "wind_gust": null,
  "wind_speed": {
    "repr": "03",
    "spoken": "three",
    "value": 3
  },
  "wind_variable_direction": [],
  "wx_codes": []
}
