{
  "altimeter": {
    "repr": "A3041",
    "spoken": "three zero point four one",
    "value": 30.41
  },
  "clouds": [
    {
      "altitude": 230,
      "modifier": null,
      "repr": "FEW230",
      "type": "FEW"
    }
  ],
  "density_altitude": -2232,
  "dewpoint": {
    "repr": "M03",
    "spoken": "minus three",
    "value": -3
  },
  "flight_rules": "VFR",
  "meta": {
    "stations_updated": "2024-12-02",
    "timestamp": "2025-01-26T05:29:25.917488Z"
  },
  "other": [],
  "pressure_altitude": -443,
  "raw": "KNUW 260453Z 13004KT 10SM FEW230 00/M03 A3041 RMK AO2 SLP301 T00001033 $",
  "relative_humidity": 0.7844596047623861,
  "remarks": "RMK AO2 SLP301 T00001033 $",
  "remarks_info": {
    "codes": [
      {
        "repr": "$",
        "value": "ASOS requires maintenance"
      },
      {
        "repr": "AO2",
        "value": "Automated with precipitation sensor"
      }
    ],
    "dewpoint_decimal": {
      "repr": "1033",
      "spoken": "minus three point three",
      "value": -3.3
    },
    "maximum_temperature_24": null,
    "maximum_temperature_6": null,
    "minimum_temperature_24": null,
    "minimum_temperature_6": null,
    "precip_24_hours": null,
    "precip_36_hours": null,
    "precip_hourly": null,
    "pressure_tendency": null,
    "sea_level_pressure": {
      "repr": "SLP301",
      "spoken": "one zero three zero point one",
      "value": 1030.1
    },
    "snow_depth": null,
    "sunshine_minutes": null,
    "temperature_decimal": {
      "repr": "0000",
      "spoken": "zero",
      "value": 0
    }
  },
  "runway_visibility": [],
  "sanitized": "KNUW 260453Z 13004KT 10SM FEW230 00/M03 A3041 RMK AO2 SLP301 T00001033 $",
  "station": "KNUW",
  "temperature": {
    "repr": "00",
    "spoken": "zero",
    "value": 0
  },
  "time": {
    "dt": "2025-01-26T04:53:00Z",
    "repr": "260453Z"
  },
  "units": {
    "accumulation": "in",
    "altimeter": "inHg",
    "altitude": "ft",
    "temperature": "C",
    "visibility": "sm",
    "wind_speed": "kt"
  },
  "visibility": {
    "repr": "10",
    "spoken": "one zero",
    "value": 10
  },
  "wind_direction": {
    "repr": "130",
    "spoken": "one three zero",
    "value": 130
  },
  "wind_gust": null,
  "wind_speed": {
    "repr": "04",
    "spoken": "four",
    "value": 4
  },
  "wind_variable_direction": [],
  "wx_codes": []
}
