{
  "meta": {
    "timestamp": "2023-02-26T09:02:19.126343Z",
    "stations_updated": "2023-01-30"
  },
  "altimeter": {
    "repr": "A2944",
    "value": 29.44,
    "spoken": "two nine point four four"
  },
  "clouds": [
    {
      "repr": "BKN025",
      "type": "BKN",
      "altitude": 25,
      "modifier": null
    },
    {
      "repr": "OVC033",
      "type": "OVC",
      "altitude": 33,
      "modifier": null
    }
  ],
  "flight_rules": "MVFR",
  "other": [],
  "visibility": {
    "repr": "10",
    "value": 10,
    "spoken": "one zero"
  },
  "wind_direction": {
    "repr": "150",
    "value": 150,
    "spoken": "one five zero"
  },
  "wind_gust": {
    "repr": "37",
    "value": 37,
    "spoken": "three seven"
  },
  "wind_speed": {
    "repr": "28",
    "value": 28,
    "spoken": "two eight"
  },
  "wx_codes": [
    {
      "repr": "-RA",
      "value": "Light Rain"
    }
  ],
  "raw": "KNUW 260835Z 15028G37KT 10SM -RA BKN025 OVC033 04/M01 A2944 RMK PK WND 15039/0813 RAB34 P0000 T00391011",
  "sanitized": "KNUW 260835Z 15028G37KT 10SM -RA BKN025 OVC033 04/M01 A2944 RMK PK WND 15039/0813 RAB34 P0000 T00391011",
  "station": "KNUW",
  "time": {
    "repr": "260835Z",
    "dt": "2023-02-26T08:35:00Z"
  },
  "remarks": "RMK PK WND 15039/0813 RAB34 P0000 T00391011",
  "dewpoint": {
    "repr": "M01",
    "value": -1,
    "spoken": "minus one"
  },
  "relative_humidity": 0.6985597578835062,
  "remarks_info": {
    "maximum_temperature_6": null,
    "minimum_temperature_6": null,
    "pressure_tendency": null,
    "precip_36_hours": null,
    "precip_24_hours": null,
    "sunshine_minutes": null,
    "codes": [
      {
        "repr": "P0000",
        "value": "Trace amount of rain in the last hour"
      },
      {
        "repr": "RAB34",
        "value": "Rain began at :34"
      }
    ],
    "dewpoint_decimal": {
      "repr": "1011",
      "value": -1.1,
      "spoken": "minus one point one"
    },
    "maximum_temperature_24": null,
    "minimum_temperature_24": null,
    "precip_hourly": null,
    "sea_level_pressure": null,
    "snow_depth": null,
    "temperature_decimal": {
      "repr": "0039",
      "value": 3.9,
      "spoken": "three point nine"
    }
  },
  "runway_visibility": [],
  "temperature": {
    "repr": "04",
    "value": 4,
    "spoken": "four"
  },
  "wind_variable_direction": [],
  "density_altitude": -794,
  "pressure_altitude": 527,
  "units": {
    "accumulation": "in",
    "altimeter": "inHg",
    "altitude": "ft",
    "temperature": "C",
    "visibility": "sm",
    "wind_speed": "kt"
  }
}
