{
  "meta": {
    "timestamp": "2022-12-23T04:04:46.059542Z",
    "stations_updated": "2022-09-05"
  },
  "altimeter": {
    "repr": "A3026",
    "value": 30.26,
    "spoken": "three zero point two six"
  },
  "clouds": [
    {
      "repr": "FEW032",
      "type": "FEW",
      "altitude": 32,
      "modifier": null
    },
    {
      "repr": "BKN070",
      "type": "BKN",
      "altitude": 70,
      "modifier": null
    },
    {
      "repr": "OVC090",
      "type": "OVC",
      "altitude": 90,
      "modifier": null
    }
  ],
  "flight_rules": "VFR",
  "other": [],
  "visibility": {
    "repr": "10",
    "value": 10,
    "spoken": "one zero"
  },
  "wind_direction": {
    "repr": "060",
    "value": 60,
    "spoken": "zero six zero"
  },
  "wind_gust": null,
  "wind_speed": {
    "repr": "05",
    "value": 5,
    "spoken": "five"
  },
  "wx_codes": [
    {
      "repr": "-SN",
      "value": "Light Snow"
    }
  ],
  "raw": "KNUW 230353Z 06005KT 10SM -SN FEW032 BKN070 OVC090 M04/M11 A3026 RMK AO2 SNB50 SLP245 P0000 T10441111 VISNO $",
  "sanitized": "KNUW 230353Z 06005KT 10SM -SN FEW032 BKN070 OVC090 M04/M11 A3026 RMK AO2 SNB50 SLP245 P0000 T10441111 VISNO $",
  "station": "KNUW",
  "time": {
    "repr": "230353Z",
    "dt": "2022-12-23T03:53:00Z"
  },
  "remarks": "RMK AO2 SNB50 SLP245 P0000 T10441111 VISNO $",
  "dewpoint": {
    "repr": "M11",
    "value": -11,
    "spoken": "minus one one"
  },
  "relative_humidity": 0.5952382046268899,
  "remarks_info": {
    "maximum_temperature_6": null,
    "minimum_temperature_6": null,
    "pressure_tendency": null,
    "precip_36_hours": null,
    "precip_24_hours": null,
    "sunshine_minutes": null,
    "codes": [
      {
        "repr": "$",
        "value": "ASOS requires maintenance"
      },
      {
        "repr": "AO2",
        "value": "Automated with precipitation sensor"
      },
      {
        "repr": "P0000",
        "value": "Trace amount of rain in the last hour"
      },
      {
        "repr": "SNB50",
        "value": "Snow began at :50"
      }
    ],
    "dewpoint_decimal": {
      "repr": "1111",
      "value": -11.1,
      "spoken": "minus one one point one"
    },
    "maximum_temperature_24": null,
    "minimum_temperature_24": null,
    "precip_hourly": null,
    "sea_level_pressure": {
      "repr": "SLP245",
      "value": 1024.5,
      "spoken": "one zero two four point five"
    },
    "snow_depth": null,
    "temperature_decimal": {
      "repr": "1044",
      "value": -4.4,
      "spoken": "minus four point four"
    }
  },
  "runway_visibility": [],
  "temperature": {
    "repr": "M04",
    "value": -4,
    "spoken": "minus four"
  },
  "wind_variable_direction": [],
  "density_altitude": -2610,
  "pressure_altitude": -293,
  "units": {
    "accumulation": "in",
    "altimeter": "inHg",
    "altitude": "ft",
    "temperature": "C",
    "visibility": "sm",
    "wind_speed": "kt"
  }
}
