{
  "meta": {
    "timestamp": "2022-11-17T18:35:11.444284Z",
    "stations_updated": "2022-09-05"
  },
  "altimeter": {
    "repr": "A3054",
    "value": 30.54,
    "spoken": "three zero point five four"
  },
  "clouds": [
    {
      "repr": "FEW005",
      "type": "FEW",
      "altitude": 5,
      "modifier": null
    },
    {
      "repr": "SCT250",
      "type": "SCT",
      "altitude": 250,
      "modifier": null
    }
  ],
  "flight_rules": "VFR",
  "other": [],
  "visibility": {
    "repr": "7",
    "value": 7,
    "spoken": "seven"
  },
  "wind_direction": {
    "repr": "130",
    "value": 130,
    "spoken": "one three zero"
  },
  "wind_gust": null,
  "wind_speed": {
    "repr": "03",
    "value": 3,
    "spoken": "three"
  },
  "wx_codes": [],
  "raw": "KNUW 171753Z 13003KT 7SM FEW005 SCT250 06/06 A3054 RMK AO2 SLP341 T00560056 10061 20000 51022 VISNO $",
  "sanitized": "KNUW 171753Z 13003KT 7SM FEW005 SCT250 06/06 A3054 RMK AO2 SLP341 T00560056 10061 20000 51022 VISNO $",
  "station": "KNUW",
  "time": {
    "repr": "171753Z",
    "dt": "2022-11-17T17:53:00Z"
  },
  "remarks": "RMK AO2 SLP341 T00560056 10061 20000 51022 VISNO $",
  "dewpoint": {
    "repr": "06",
    "value": 6,
    "spoken": "six"
  },
  "relative_humidity": 1,
  "remarks_info": {
    "maximum_temperature_6": {
      "repr": "10061",
      "value": 6.1,
      "spoken": "six point one"
    },
    "minimum_temperature_6": {
      "repr": "20000",
      "value": 0,
      "spoken": "zero"
    },
    "pressure_tendency": {
      "repr": "51022",
      "tendency": "Increasing, then steady",
      "change": 2.2
    },
    "precip_36_hours": null,
    "precip_24_hours": null,
    "sunshine_minutes": null,
    "codes": [
      {
        "repr": "$",
        "value": "ASOS requires maintenance"
      },
      {
        "repr": "AO2",
        "value": "Automated with precipitation sensor"
      }
    ],
    "dewpoint_decimal": {
      "repr": "0056",
      "value": 5.6,
      "spoken": "five point six"
    },
    "maximum_temperature_24": null,
    "minimum_temperature_24": null,
    "precip_hourly": null,
    "sea_level_pressure": {
      "repr": "SLP341",
      "value": 1034.1,
      "spoken": "one zero three four point one"
    },
    "snow_depth": null,
    "temperature_decimal": {
      "repr": "0056",
      "value": 5.6,
      "spoken": "five point six"
    }
  },
  "runway_visibility": [],
  "temperature": {
    "repr": "06",
    "value": 6,
    "spoken": "six"
  },
  "wind_variable_direction": [],
  "density_altitude": -1690,
  "pressure_altitude": -573,
  "units": {
    "accumulation": "in",
    "altimeter": "inHg",
    "altitude": "ft",
    "temperature": "C",
    "visibility": "sm",
    "wind_speed": "kt"
  }
}
