{
  "altimeter": {
    "repr": "A2956",
    "spoken": "two nine point five six",
    "value": 29.56
  },
  "clouds": [
    {
      "altitude": 85,
      "modifier": null,
      "repr": "OVC085",
      "type": "OVC"
    }
  ],
  "density_altitude": -50,
  "dewpoint": {
    "repr": "09",
    "spoken": "nine",
    "value": 9
  },
  "flight_rules": "VFR",
  "meta": {
    "stations_updated": "2024-01-01",
    "timestamp": "2024-05-05T00:29:51.948554Z"
  },
  "other": [],
  "pressure_altitude": 407,
  "raw": "KNUW 042353Z 26004KT 10SM -RA OVC085 11/09 A2956 RMK AO2 RAE2256B50 SLP012 P0000 60000 T01110089 10122 20106 51002 $",
  "relative_humidity": 0.8630327743847583,
  "remarks": "RMK AO2 RAE2256B50 SLP012 P0000 60000 T01110089 10122 20106 51002 $",
  "remarks_info": {
    "codes": [
      {
        "repr": "$",
        "value": "ASOS requires maintenance"
      },
      {
        "repr": "AO2",
        "value": "Automated with precipitation sensor"
      },
      {
        "repr": "P0000",
        "value": "Trace amount of rain in the last hour"
      }
    ],
    "dewpoint_decimal": {
      "repr": "0089",
      "spoken": "eight point nine",
      "value": 8.9
    },
    "maximum_temperature_24": null,
    "maximum_temperature_6": {
      "repr": "10122",
      "spoken": "one two point two",
      "value": 12.2
    },
    "minimum_temperature_24": null,
    "minimum_temperature_6": {
      "repr": "20106",
      "spoken": "one zero point six",
      "value": 10.6
    },
    "precip_24_hours": null,
    "precip_36_hours": {
      "repr": "60000",
      "spoken": "zero",
      "value": 0
    },
    "precip_hourly": null,
    "pressure_tendency": {
      "change": 0.2,
      "repr": "51002",
      "tendency": "Increasing, then steady"
    },
    "sea_level_pressure": {
      "repr": "SLP012",
      "spoken": "one zero zero one point two",
      "value": 1001.2
    },
    "snow_depth": null,
    "sunshine_minutes": null,
    "temperature_decimal": {
      "repr": "0111",
      "spoken": "one one point one",
      "value": 11.1
    }
  },
  "runway_visibility": [],
  "sanitized": "KNUW 042353Z 26004KT 10SM -RA OVC085 11/09 A2956 RMK AO2 RAE2256B50 SLP012 P0000 60000 T01110089 10122 20106 51002 $",
  "station": "KNUW",
  "temperature": {
    "repr": "11",
    "spoken": "one one",
    "value": 11
  },
  "time": {
    "dt": "2024-05-04T23:53:00Z",
    "repr": "042353Z"
  },
  "units": {
    "accumulation": "in",
    "altimeter": "inHg",
    "altitude": "ft",
    "temperature": "C",
    "visibility": "sm",
    "wind_speed": "kt"
  },
  "visibility": {
    "repr": "10",
    "spoken": "one zero",
    "value": 10
  },
  "wind_direction": {
    "repr": "260",
    "spoken": "two six zero",
    "value": 260
  },
  "wind_gust": null,
  "wind_speed": {
    "repr": "04",
    "spoken": "four",
    "value": 4
  },
  "wind_variable_direction": [],
  "wx_codes": [
    {
      "repr": "-RA",
      "value": "Light Rain"
    }
  ]
}
