{
  "meta": {
    "timestamp": "2023-01-11T09:43:12.486856Z",
    "stations_updated": "2022-12-27"
  },
  "altimeter": {
    "repr": "A2975",
    "value": 29.75,
    "spoken": "two nine point seven five"
  },
  "clouds": [
    {
      "repr": "BKN100",
      "type": "BKN",
      "altitude": 100,
      "modifier": null
    },
    {
      "repr": "BKN220",
      "type": "BKN",
      "altitude": 220,
      "modifier": null
    }
  ],
  "flight_rules": "VFR",
  "other": [],
  "visibility": {
    "repr": "10",
    "value": 10,
    "spoken": "one zero"
  },
  "wind_direction": {
    "repr": "100",
    "value": 100,
    "spoken": "one zero zero"
  },
  "wind_gust": null,
  "wind_speed": {
    "repr": "08",
    "value": 8,
    "spoken": "eight"
  },
  "wx_codes": [],
  "raw": "KNUW 110853Z 10008KT 10SM BKN100 BKN220 04/02 A2975 RMK AO2 SLP073 T00390022 50009 VISNO $",
  "sanitized": "KNUW 110853Z 10008KT 10SM BKN100 BKN220 04/02 A2975 RMK AO2 SLP073 T00390022 50009 VISNO $",
  "station": "KNUW",
  "time": {
    "repr": "110853Z",
    "dt": "2023-01-11T08:53:00Z"
  },
  "remarks": "RMK AO2 SLP073 T00390022 50009 VISNO $",
  "dewpoint": {
    "repr": "02",
    "value": 2,
    "spoken": "two"
  },
  "relative_humidity": 0.886626408872418,
  "remarks_info": {
    "maximum_temperature_6": null,
    "minimum_temperature_6": null,
    "pressure_tendency": {
      "repr": "50009",
      "tendency": "Increasing, then decreasing",
      "change": 0.9
    },
    "precip_36_hours": null,
    "precip_24_hours": null,
    "sunshine_minutes": null,
    "codes": [
      {
        "repr": "$",
        "value": "ASOS requires maintenance"
      },
      {
        "repr": "AO2",
        "value": "Automated with precipitation sensor"
      }
    ],
    "dewpoint_decimal": {
      "repr": "0022",
      "value": 2.2,
      "spoken": "two point two"
    },
    "maximum_temperature_24": null,
    "minimum_temperature_24": null,
    "precip_hourly": null,
    "sea_level_pressure": {
      "repr": "SLP073",
      "value": 1007.3,
      "spoken": "one zero zero seven point three"
    },
    "snow_depth": null,
    "temperature_decimal": {
      "repr": "0039",
      "value": 3.9,
      "spoken": "three point nine"
    }
  },
  "runway_visibility": [],
  "temperature": {
    "repr": "04",
    "value": 4,
    "spoken": "four"
  },
  "wind_variable_direction": [],
  "density_altitude": -1104,
  "pressure_altitude": 217,
  "units": {
    "accumulation": "in",
    "altimeter": "inHg",
    "altitude": "ft",
    "temperature": "C",
    "visibility": "sm",
    "wind_speed": "kt"
  }
}
