{
  "meta": {
    "timestamp": "2022-11-16T09:43:26.704646Z",
    "stations_updated": "2022-09-05"
  },
  "altimeter": {
    "repr": "A3064",
    "value": 30.64,
    "spoken": "three zero point six four"
  },
  "clouds": [
    {
      "repr": "SCT004",
      "type": "SCT",
      "altitude": 4,
      "modifier": null
    },
    {
      "repr": "BKN250",
      "type": "BKN",
      "altitude": 250,
      "modifier": null
    }
  ],
  "flight_rules": "VFR",
  "other": [],
  "visibility": {
    "repr": "7",
    "value": 7,
    "spoken": "seven"
  },
  "wind_direction": {
    "repr": "120",
    "value": 120,
    "spoken": "one two zero"
  },
  "wind_gust": null,
  "wind_speed": {
    "repr": "03",
    "value": 3,
    "spoken": "three"
  },
  "wx_codes": [
    {
      "repr": "BCFG",
      "value": "Patchy Fog"
    }
  ],
  "raw": "KNUW 160853Z 12003KT 7SM BCFG SCT004 BKN250 M01/M02 A3064 RMK AO2 SLP374 VIS E-SE 2 T10061017 50004 VISNO $",
  "sanitized": "KNUW 160853Z 12003KT 7SM BCFG SCT004 BKN250 M01/M02 A3064 RMK AO2 SLP374 VIS E-SE 2 T10061017 50004 VISNO $",
  "station": "KNUW",
  "time": {
    "repr": "160853Z",
    "dt": "2022-11-16T08:53:00Z"
  },
  "remarks": "RMK AO2 SLP374 VIS E-SE 2 T10061017 50004 VISNO $",
  "dewpoint": {
    "repr": "M02",
    "value": -2,
    "spoken": "minus two"
  },
  "relative_humidity": 0.9225781625278401,
  "remarks_info": {
    "maximum_temperature_6": null,
    "minimum_temperature_6": null,
    "pressure_tendency": {
      "repr": "50004",
      "tendency": "Increasing, then decreasing",
      "change": 0.4
    },
    "precip_36_hours": null,
    "precip_24_hours": null,
    "sunshine_minutes": null,
    "codes": [
      {
        "repr": "$",
        "value": "ASOS requires maintenance"
      },
      {
        "repr": "AO2",
        "value": "Automated with precipitation sensor"
      }
    ],
    "dewpoint_decimal": {
      "repr": "1017",
      "value": -1.7,
      "spoken": "minus one point seven"
    },
    "maximum_temperature_24": null,
    "minimum_temperature_24": null,
    "precip_hourly": null,
    "sea_level_pressure": {
      "repr": "SLP374",
      "value": 1037.4,
      "spoken": "one zero three seven point four"
    },
    "snow_depth": null,
    "temperature_decimal": {
      "repr": "1006",
      "value": -0.6,
      "spoken": "minus zero point six"
    }
  },
  "runway_visibility": [],
  "temperature": {
    "repr": "M01",
    "value": -1,
    "spoken": "minus one"
  },
  "wind_variable_direction": [],
  "density_altitude": -2534,
  "pressure_altitude": -673,
  "units": {
    "accumulation": "in",
    "altimeter": "inHg",
    "altitude": "ft",
    "temperature": "C",
    "visibility": "sm",
    "wind_speed": "kt"
  }
}
