{
  "altimeter": {
    "repr": "A2960",
    "spoken": "two nine point six zero",
    "value": 29.6
  },
  "clouds": [
    {
      "altitude": 22,
      "modifier": null,
      "repr": "FEW022",
      "type": "FEW"
    },
    {
      "altitude": 29,
      "modifier": null,
      "repr": "SCT029",
      "type": "SCT"
    },
    {
      "altitude": 95,
      "modifier": null,
      "repr": "SCT095",
      "type": "SCT"
    }
  ],
  "density_altitude": -558,
  "dewpoint": {
    "repr": "04",
    "spoken": "four",
    "value": 4
  },
  "flight_rules": "VFR",
  "meta": {
    "stations_updated": "2024-12-02",
    "timestamp": "2024-12-26T02:03:30.431609Z"
  },
  "other": [],
  "pressure_altitude": 367,
  "raw": "KNUW 260153Z AUTO 13027G45KT 10SM FEW022 SCT029 SCT095 07/04 A2960 RMK AO2 PK WND 13046/0128 RAB07E17 SLP028 P0000 T00720039 $",
  "relative_humidity": 0.79538726181392,
  "remarks": "RMK AO2 PK WND 13046/0128 RAB07E17 SLP028 P0000 T00720039 $",
  "remarks_info": {
    "codes": [
      {
        "repr": "$",
        "value": "ASOS requires maintenance"
      },
      {
        "repr": "AO2",
        "value": "Automated with precipitation sensor"
      },
      {
        "repr": "P0000",
        "value": "Trace amount of rain in the last hour"
      }
    ],
    "dewpoint_decimal": {
      "repr": "0039",
      "spoken": "three point nine",
      "value": 3.9
    },
    "maximum_temperature_24": null,
    "maximum_temperature_6": null,
    "minimum_temperature_24": null,
    "minimum_temperature_6": null,
    "precip_24_hours": null,
    "precip_36_hours": null,
    "precip_hourly": null,
    "pressure_tendency": null,
    "sea_level_pressure": {
      "repr": "SLP028",
      "spoken": "one zero zero two point eight",
      "value": 1002.8
    },
    "snow_depth": null,
    "sunshine_minutes": null,
    "temperature_decimal": {
      "repr": "0072",
      "spoken": "seven point two",
      "value": 7.2
    }
  },
  "runway_visibility": [],
  "sanitized": "KNUW 260153Z 13027G45KT 10SM FEW022 SCT029 SCT095 07/04 A2960 RMK AO2 PK WND 13046/0128 RAB07E17 SLP028 P0000 T00720039 $",
  "station": "KNUW",
  "temperature": {
    "repr": "07",
    "spoken": "seven",
    "value": 7
  },
  "time": {
    "dt": "2024-12-26T01:53:00Z",
    "repr": "260153Z"
  },
  "units": {
    "accumulation": "in",
    "altimeter": "inHg",
    "altitude": "ft",
    "temperature": "C",
    "visibility": "sm",
    "wind_speed": "kt"
  },
  "visibility": {
    "repr": "10",
    "spoken": "one zero",
    "value": 10
  },
  "wind_direction": {
    "repr": "130",
    "spoken": "one three zero",
    "value": 130
  },
  "wind_gust": {
    "repr": "45",
    "spoken": "four five",
    "value": 45
  },
  "wind_speed": {
    "repr": "27",
    "spoken": "two seven",
    "value": 27
  },
  "wind_variable_direction": [],
  "wx_codes": []
}
