{
  "altimeter": {
    "repr": "A3010",
    "spoken": "three zero point one zero",
    "value": 30.1
  },
  "clouds": [
    {
      "altitude": 48,
      "modifier": null,
      "repr": "FEW048",
      "type": "FEW"
    },
    {
      "altitude": 100,
      "modifier": null,
      "repr": "SCT100",
      "type": "SCT"
    },
    {
      "altitude": 240,
      "modifier": null,
      "repr": "BKN240",
      "type": "BKN"
    }
  ],
  "density_altitude": -854,
  "dewpoint": {
    "repr": "05",
    "spoken": "five",
    "value": 5
  },
  "flight_rules": "VFR",
  "meta": {
    "cache-timestamp": "2024-04-15T07:40:02.853000Z",
    "stations_updated": "2024-01-01",
    "timestamp": "2024-04-15T07:40:28.871001Z"
  },
  "other": [],
  "pressure_altitude": -133,
  "raw": "KNUW 150653Z 26021G28KT 10SM FEW048 SCT100 BKN240 09/05 A3010 RMK AO2 PK WND 26030/0603 SLP195 T00890050 $",
  "relative_humidity": 0.7652617676246976,
  "remarks": "RMK AO2 PK WND 26030/0603 SLP195 T00890050 $",
  "remarks_info": {
    "codes": [
      {
        "repr": "$",
        "value": "ASOS requires maintenance"
      },
      {
        "repr": "AO2",
        "value": "Automated with precipitation sensor"
      }
    ],
    "dewpoint_decimal": {
      "repr": "0050",
      "spoken": "five point zero",
      "value": 5
    },
    "maximum_temperature_24": null,
    "maximum_temperature_6": null,
    "minimum_temperature_24": null,
    "minimum_temperature_6": null,
    "precip_24_hours": null,
    "precip_36_hours": null,
    "precip_hourly": null,
    "pressure_tendency": null,
    "sea_level_pressure": {
      "repr": "SLP195",
      "spoken": "one zero one nine point five",
      "value": 1019.5
    },
    "snow_depth": null,
    "sunshine_minutes": null,
    "temperature_decimal": {
      "repr": "0089",
      "spoken": "eight point nine",
      "value": 8.9
    }
  },
  "runway_visibility": [],
  "sanitized": "KNUW 150653Z 26021G28KT 10SM FEW048 SCT100 BKN240 09/05 A3010 RMK AO2 PK WND 26030/0603 SLP195 T00890050 $",
  "station": "KNUW",
  "temperature": {
    "repr": "09",
    "spoken": "nine",
    "value": 9
  },
  "time": {
    "dt": "2024-04-15T06:53:00Z",
    "repr": "150653Z"
  },
  "units": {
    "accumulation": "in",
    "altimeter": "inHg",
    "altitude": "ft",
    "temperature": "C",
    "visibility": "sm",
    "wind_speed": "kt"
  },
  "visibility": {
    "repr": "10",
    "spoken": "one zero",
    "value": 10
  },
  "wind_direction": {
    "repr": "260",
    "spoken": "two six zero",
    "value": 260
  },
  "wind_gust": {
    "repr": "28",
    "spoken": "two eight",
    "value": 28
  },
  "wind_speed": {
    "repr": "21",
    "spoken": "two one",
    "value": 21
  },
  "wind_variable_direction": [],
  "wx_codes": []
}
