{
  "meta": {
    "timestamp": "2022-12-28T04:42:22.877908Z",
    "stations_updated": "2022-09-05",
    "cache-timestamp": "2022-12-28T04:42:06.246000Z"
  },
  "altimeter": {
    "repr": "A2930",
    "value": 29.3,
    "spoken": "two nine point three zero"
  },
  "clouds": [
    {
      "repr": "SCT020",
      "type": "SCT",
      "altitude": 20,
      "modifier": null
    },
    {
      "repr": "BKN047",
      "type": "BKN",
      "altitude": 47,
      "modifier": null
    },
    {
      "repr": "OVC080",
      "type": "OVC",
      "altitude": 80,
      "modifier": null
    }
  ],
  "flight_rules": "VFR",
  "other": [],
  "visibility": {
    "repr": "10",
    "value": 10,
    "spoken": "one zero"
  },
  "wind_direction": {
    "repr": "260",
    "value": 260,
    "spoken": "two six zero"
  },
  "wind_gust": {
    "repr": "36",
    "value": 36,
    "spoken": "three six"
  },
  "wind_speed": {
    "repr": "28",
    "value": 28,
    "spoken": "two eight"
  },
  "wx_codes": [
    {
      "repr": "-RA",
      "value": "Light Rain"
    }
  ],
  "raw": "KNUW 280353Z COR 26028G36KT 10SM -RA SCT020 BKN047 OVC080 08/05 A2930 RMK PK WND 25042/0303 RAE30B50 SLP922 P0003 T00780050 VISNO",
  "sanitized": "KNUW 280353Z 26028G36KT 10SM -RA SCT020 BKN047 OVC080 08/05 A2930 RMK PK WND 25042/0303 RAE30B50 SLP922 P0003 T00780050 VISNO",
  "station": "KNUW",
  "time": {
    "repr": "280353Z",
    "dt": "2022-12-28T03:53:00Z"
  },
  "remarks": "RMK PK WND 25042/0303 RAE30B50 SLP922 P0003 T00780050 VISNO",
  "dewpoint": {
    "repr": "05",
    "value": 5,
    "spoken": "five"
  },
  "relative_humidity": 0.824548883443889,
  "remarks_info": {
    "maximum_temperature_6": null,
    "minimum_temperature_6": null,
    "pressure_tendency": null,
    "precip_36_hours": null,
    "precip_24_hours": null,
    "sunshine_minutes": null,
    "codes": [],
    "dewpoint_decimal": {
      "repr": "0050",
      "value": 5,
      "spoken": "five point zero"
    },
    "maximum_temperature_24": null,
    "minimum_temperature_24": null,
    "precip_hourly": {
      "repr": "P0003",
      "value": 0.03,
      "spoken": "zero point zero three"
    },
    "sea_level_pressure": {
      "repr": "SLP922",
      "value": 992.2,
      "spoken": "nine nine two point two"
    },
    "snow_depth": null,
    "temperature_decimal": {
      "repr": "0078",
      "value": 7.8,
      "spoken": "seven point eight"
    }
  },
  "runway_visibility": [],
  "temperature": {
    "repr": "08",
    "value": 8,
    "spoken": "eight"
  },
  "wind_variable_direction": [],
  "density_altitude": -186,
  "pressure_altitude": 667,
  "units": {
    "accumulation": "in",
    "altimeter": "inHg",
    "altitude": "ft",
    "temperature": "C",
    "visibility": "sm",
    "wind_speed": "kt"
  }
}
