{
  "meta": {
    "timestamp": "2022-10-08T20:06:27.544673Z",
    "stations_updated": "2022-09-05"
  },
  "altimeter": {
    "repr": "A3023",
    "value": 30.23,
    "spoken": "three zero point two three"
  },
  "clouds": [
    {
      "repr": "FEW042",
      "type": "FEW",
      "altitude": 42,
      "modifier": null
    },
    {
      "repr": "FEW150",
      "type": "FEW",
      "altitude": 150,
      "modifier": null
    }
  ],
  "flight_rules": "VFR",
  "other": [],
  "visibility": {
    "repr": "10",
    "value": 10,
    "spoken": "one zero"
  },
  "wind_direction": {
    "repr": "290",
    "value": 290,
    "spoken": "two nine zero"
  },
  "wind_gust": null,
  "wind_speed": {
    "repr": "05",
    "value": 5,
    "spoken": "five"
  },
  "wx_codes": [],
  "raw": "KNUW 081953Z 29005KT 10SM FEW042 FEW150 15/11 A3023 RMK AO2 SLP235 T01500106",
  "sanitized": "KNUW 081953Z 29005KT 10SM FEW042 FEW150 15/11 A3023 RMK AO2 SLP235 T01500106",
  "station": "KNUW",
  "time": {
    "repr": "081953Z",
    "dt": "2022-10-08T19:53:00Z"
  },
  "remarks": "RMK AO2 SLP235 T01500106",
  "dewpoint": {
    "repr": "11",
    "value": 11,
    "spoken": "one one"
  },
  "relative_humidity": 0.7495972273501348,
  "remarks_info": {
    "maximum_temperature_6": null,
    "minimum_temperature_6": null,
    "pressure_tendency": null,
    "precip_36_hours": null,
    "precip_24_hours": null,
    "sunshine_minutes": null,
    "codes": [
      {
        "repr": "AO2",
        "value": "Automated with precipitation sensor"
      }
    ],
    "dewpoint_decimal": {
      "repr": "0106",
      "value": 10.6,
      "spoken": "one zero point six"
    },
    "maximum_temperature_24": null,
    "minimum_temperature_24": null,
    "precip_hourly": null,
    "sea_level_pressure": {
      "repr": "SLP235",
      "value": 1023.5,
      "spoken": "one zero two three point five"
    },
    "snow_depth": null,
    "temperature_decimal": {
      "repr": "0150",
      "value": 15,
      "spoken": "one five point zero"
    }
  },
  "runway_visibility": [],
  "temperature": {
    "repr": "15",
    "value": 15,
    "spoken": "one five"
  },
  "wind_variable_direction": [],
  "density_altitude": -252,
  "pressure_altitude": -263,
  "units": {
    "accumulation": "in",
    "altimeter": "inHg",
    "altitude": "ft",
    "temperature": "C",
    "visibility": "sm",
    "wind_speed": "kt"
  }
}
