{
  "altimeter": {
    "repr": "A3027",
    "spoken": "three zero point two seven",
    "value": 30.27
  },
  "clouds": [
    {
      "altitude": 10,
      "modifier": null,
      "repr": "BKN010",
      "type": "BKN"
    },
    {
      "altitude": 15,
      "modifier": null,
      "repr": "OVC015",
      "type": "OVC"
    }
  ],
  "density_altitude": -1024,
  "dewpoint": {
    "repr": "08",
    "spoken": "eight",
    "value": 8
  },
  "flight_rules": "MVFR",
  "meta": {
    "stations_updated": "2024-06-12",
    "timestamp": "2024-10-23T15:07:37.193886Z"
  },
  "other": [],
  "pressure_altitude": -303,
  "raw": "KNUW 231453Z 28004KT 8SM -RA BKN010 OVC015 09/08 A3027 RMK AO2 RAB43 SLP255 P0001 60001 T00890083 53003 $",
  "relative_humidity": 0.9601937753627737,
  "remarks": "RMK AO2 RAB43 SLP255 P0001 60001 T00890083 53003 $",
  "remarks_info": {
    "codes": [
      {
        "repr": "$",
        "value": "ASOS requires maintenance"
      },
      {
        "repr": "AO2",
        "value": "Automated with precipitation sensor"
      },
      {
        "repr": "RAB43",
        "value": "Rain began at :43"
      }
    ],
    "dewpoint_decimal": {
      "repr": "0083",
      "spoken": "eight point three",
      "value": 8.3
    },
    "maximum_temperature_24": null,
    "maximum_temperature_6": null,
    "minimum_temperature_24": null,
    "minimum_temperature_6": null,
    "precip_24_hours": null,
    "precip_36_hours": {
      "repr": "60001",
      "spoken": "zero point zero one",
      "value": 0.01
    },
    "precip_hourly": {
      "repr": "P0001",
      "spoken": "zero point zero one",
      "value": 0.01
    },
    "pressure_tendency": {
      "change": 0.3,
      "repr": "53003",
      "tendency": "Decreasing or steady, then increasing"
    },
    "sea_level_pressure": {
      "repr": "SLP255",
      "spoken": "one zero two five point five",
      "value": 1025.5
    },
    "snow_depth": null,
    "sunshine_minutes": null,
    "temperature_decimal": {
      "repr": "0089",
      "spoken": "eight point nine",
      "value": 8.9
    }
  },
  "runway_visibility": [],
  "sanitized": "KNUW 231453Z 28004KT 8SM -RA BKN010 OVC015 09/08 A3027 RMK AO2 RAB43 SLP255 P0001 60001 T00890083 53003 $",
  "station": "KNUW",
  "temperature": {
    "repr": "09",
    "spoken": "nine",
    "value": 9
  },
  "time": {
    "dt": "2024-10-23T14:53:00Z",
    "repr": "231453Z"
  },
  "units": {
    "accumulation": "in",
    "altimeter": "inHg",
    "altitude": "ft",
    "temperature": "C",
    "visibility": "sm",
    "wind_speed": "kt"
  },
  "visibility": {
    "repr": "8",
    "spoken": "eight",
    "value": 8
  },
  "wind_direction": {
    "repr": "280",
    "spoken": "two eight zero",
    "value": 280
  },
  "wind_gust": null,
  "wind_speed": {
    "repr": "04",
    "spoken": "four",
    "value": 4
  },
  "wind_variable_direction": [],
  "wx_codes": [
    {
      "repr": "-RA",
      "value": "Light Rain"
    }
  ]
}
