{
  "meta": {
    "timestamp": "2022-11-10T23:06:33.231025Z",
    "stations_updated": "2022-09-05"
  },
  "altimeter": {
    "repr": "A3039",
    "value": 30.39,
    "spoken": "three zero point three nine"
  },
  "clouds": [
    {
      "repr": "FEW055",
      "type": "FEW",
      "altitude": 55,
      "modifier": null
    },
    {
      "repr": "BKN060",
      "type": "BKN",
      "altitude": 60,
      "modifier": null
    },
    {
      "repr": "BKN180",
      "type": "BKN",
      "altitude": 180,
      "modifier": null
    }
  ],
  "flight_rules": "VFR",
  "other": [],
  "visibility": {
    "repr": "10",
    "value": 10,
    "spoken": "one zero"
  },
  "wind_direction": {
    "repr": "090",
    "value": 90,
    "spoken": "zero nine zero"
  },
  "wind_gust": null,
  "wind_speed": {
    "repr": "07",
    "value": 7,
    "spoken": "seven"
  },
  "wx_codes": [],
  "raw": "KNUW 102253Z 09007KT 10SM FEW055 BKN060 BKN180 08/00 A3039 RMK AO2 SLP291 T00830000 VISNO $",
  "sanitized": "KNUW 102253Z 09007KT 10SM FEW055 BKN060 BKN180 08/00 A3039 RMK AO2 SLP291 T00830000 VISNO $",
  "station": "KNUW",
  "time": {
    "repr": "102253Z",
    "dt": "2022-11-10T22:53:00Z"
  },
  "remarks": "RMK AO2 SLP291 T00830000 VISNO $",
  "dewpoint": {
    "repr": "00",
    "value": 0,
    "spoken": "zero"
  },
  "relative_humidity": 0.558528094958013,
  "remarks_info": {
    "maximum_temperature_6": null,
    "minimum_temperature_6": null,
    "pressure_tendency": null,
    "precip_36_hours": null,
    "precip_24_hours": null,
    "sunshine_minutes": null,
    "codes": [
      {
        "repr": "$",
        "value": "ASOS requires maintenance"
      },
      {
        "repr": "AO2",
        "value": "Automated with precipitation sensor"
      }
    ],
    "dewpoint_decimal": {
      "repr": "0000",
      "value": 0,
      "spoken": "zero"
    },
    "maximum_temperature_24": null,
    "minimum_temperature_24": null,
    "precip_hourly": null,
    "sea_level_pressure": {
      "repr": "SLP291",
      "value": 1029.1,
      "spoken": "one zero two nine point one"
    },
    "snow_depth": null,
    "temperature_decimal": {
      "repr": "0083",
      "value": 8.3,
      "spoken": "eight point three"
    }
  },
  "runway_visibility": [],
  "temperature": {
    "repr": "08",
    "value": 8,
    "spoken": "eight"
  },
  "wind_variable_direction": [],
  "density_altitude": -1216,
  "pressure_altitude": -423,
  "units": {
    "accumulation": "in",
    "altimeter": "inHg",
    "altitude": "ft",
    "temperature": "C",
    "visibility": "sm",
    "wind_speed": "kt"
  }
}
