{
  "altimeter": {
    "repr": "A3056",
    "spoken": "three zero point five six",
    "value": 30.56
  },
  "clouds": [],
  "density_altitude": -2382,
  "dewpoint": {
    "repr": "M04",
    "spoken": "minus four",
    "value": -4
  },
  "flight_rules": "VFR",
  "meta": {
    "stations_updated": "2024-12-02",
    "timestamp": "2025-01-20T06:10:52.934763Z"
  },
  "other": [],
  "pressure_altitude": -593,
  "raw": "KNUW 200553Z 10006KT 10SM CLR 00/M04 A3056 RMK AO2 SLP353 T00001044 10067 21017 51015 $",
  "relative_humidity": 0.722404978570314,
  "remarks": "RMK AO2 SLP353 T00001044 10067 21017 51015 $",
  "remarks_info": {
    "codes": [
      {
        "repr": "$",
        "value": "ASOS requires maintenance"
      },
      {
        "repr": "AO2",
        "value": "Automated with precipitation sensor"
      }
    ],
    "dewpoint_decimal": {
      "repr": "1044",
      "spoken": "minus four point four",
      "value": -4.4
    },
    "maximum_temperature_24": null,
    "maximum_temperature_6": {
      "repr": "10067",
      "spoken": "six point seven",
      "value": 6.7
    },
    "minimum_temperature_24": null,
    "minimum_temperature_6": {
      "repr": "21017",
      "spoken": "minus one point seven",
      "value": -1.7
    },
    "precip_24_hours": null,
    "precip_36_hours": null,
    "precip_hourly": null,
    "pressure_tendency": {
      "change": 1.5,
      "repr": "51015",
      "tendency": "Increasing, then steady"
    },
    "sea_level_pressure": {
      "repr": "SLP353",
      "spoken": "one zero three five point three",
      "value": 1035.3
    },
    "snow_depth": null,
    "sunshine_minutes": null,
    "temperature_decimal": {
      "repr": "0000",
      "spoken": "zero",
      "value": 0
    }
  },
  "runway_visibility": [],
  "sanitized": "KNUW 200553Z 10006KT 10SM 00/M04 A3056 RMK AO2 SLP353 T00001044 10067 21017 51015 $",
  "station": "KNUW",
  "temperature": {
    "repr": "00",
    "spoken": "zero",
    "value": 0
  },
  "time": {
    "dt": "2025-01-20T05:53:00Z",
    "repr": "200553Z"
  },
  "units": {
    "accumulation": "in",
    "altimeter": "inHg",
    "altitude": "ft",
    "temperature": "C",
    "visibility": "sm",
    "wind_speed": "kt"
  },
  "visibility": {
    "repr": "10",
    "spoken": "one zero",
    "value": 10
  },
  "wind_direction": {
    "repr": "100",
    "spoken": "one zero zero",
    "value": 100
  },
  "wind_gust": null,
  "wind_speed": {
    "repr": "06",
    "spoken": "six",
    "value": 6
  },
  "wind_variable_direction": [],
  "wx_codes": []
}
