{
  "meta": {
    "timestamp": "2023-04-20T20:02:17.487086Z",
    "stations_updated": "2023-03-11"
  },
  "altimeter": {
    "repr": "A3023",
    "value": 30.23,
    "spoken": "three zero point two three"
  },
  "clouds": [
    {
      "repr": "FEW025",
      "type": "FEW",
      "altitude": 25,
      "modifier": null
    },
    {
      "repr": "SCT085",
      "type": "SCT",
      "altitude": 85,
      "modifier": null
    },
    {
      "repr": "BKN100",
      "type": "BKN",
      "altitude": 100,
      "modifier": null
    },
    {
      "repr": "OVC180",
      "type": "OVC",
      "altitude": 180,
      "modifier": null
    }
  ],
  "flight_rules": "VFR",
  "other": [],
  "visibility": {
    "repr": "10",
    "value": 10,
    "spoken": "one zero"
  },
  "wind_direction": {
    "repr": "150",
    "value": 150,
    "spoken": "one five zero"
  },
  "wind_gust": {
    "repr": "41",
    "value": 41,
    "spoken": "four one"
  },
  "wind_speed": {
    "repr": "28",
    "value": 28,
    "spoken": "two eight"
  },
  "wx_codes": [],
  "raw": "KNUW 201853Z 15028G41KT 10SM FEW025 SCT085 BKN100 OVC180 09/M01 A3023 RMK PK WND 15041/1852 RAB43E49 SLP240 P0000 T00941006",
  "sanitized": "KNUW 201853Z 15028G41KT 10SM FEW025 SCT085 BKN100 OVC180 09/M01 A3023 RMK PK WND 15041/1852 RAB43E49 SLP240 P0000 T00941006",
  "station": "KNUW",
  "time": {
    "repr": "201853Z",
    "dt": "2023-04-20T18:53:00Z"
  },
  "remarks": "RMK PK WND 15041/1852 RAB43E49 SLP240 P0000 T00941006",
  "dewpoint": {
    "repr": "M01",
    "value": -1,
    "spoken": "minus one"
  },
  "relative_humidity": 0.49637627553485647,
  "remarks_info": {
    "maximum_temperature_6": null,
    "minimum_temperature_6": null,
    "pressure_tendency": null,
    "precip_36_hours": null,
    "precip_24_hours": null,
    "sunshine_minutes": null,
    "codes": [
      {
        "repr": "P0000",
        "value": "Trace amount of rain in the last hour"
      }
    ],
    "dewpoint_decimal": {
      "repr": "1006",
      "value": -0.6,
      "spoken": "minus zero point six"
    },
    "maximum_temperature_24": null,
    "minimum_temperature_24": null,
    "precip_hourly": null,
    "sea_level_pressure": {
      "repr": "SLP240",
      "value": 1024,
      "spoken": "one zero two four point zero"
    },
    "snow_depth": null,
    "temperature_decimal": {
      "repr": "0094",
      "value": 9.4,
      "spoken": "nine point four"
    }
  },
  "runway_visibility": [],
  "temperature": {
    "repr": "09",
    "value": 9,
    "spoken": "nine"
  },
  "wind_variable_direction": [],
  "density_altitude": -924,
  "pressure_altitude": -263,
  "units": {
    "accumulation": "in",
    "altimeter": "inHg",
    "altitude": "ft",
    "temperature": "C",
    "visibility": "sm",
    "wind_speed": "kt"
  }
}
