{
  "altimeter": {
    "repr": "A3045",
    "spoken": "three zero point four five",
    "value": 30.45
  },
  "clouds": [],
  "density_altitude": -1540,
  "dewpoint": {
    "repr": "06",
    "spoken": "six",
    "value": 6
  },
  "flight_rules": "VFR",
  "meta": {
    "stations_updated": "2024-06-12",
    "timestamp": "2024-09-30T12:14:07.552139Z"
  },
  "other": [],
  "pressure_altitude": -483,
  "raw": "KNUW 301153Z 09005KT 7SM MIFG CLR 06/06 A3045 RMK SLP315 T00610061 10106 20061 51005",
  "relative_humidity": 1,
  "remarks": "RMK SLP315 T00610061 10106 20061 51005",
  "remarks_info": {
    "codes": [],
    "dewpoint_decimal": {
      "repr": "0061",
      "spoken": "six point one",
      "value": 6.1
    },
    "maximum_temperature_24": null,
    "maximum_temperature_6": {
      "repr": "10106",
      "spoken": "one zero point six",
      "value": 10.6
    },
    "minimum_temperature_24": null,
    "minimum_temperature_6": {
      "repr": "20061",
      "spoken": "six point one",
      "value": 6.1
    },
    "precip_24_hours": null,
    "precip_36_hours": null,
    "precip_hourly": null,
    "pressure_tendency": {
      "change": 0.5,
      "repr": "51005",
      "tendency": "Increasing, then steady"
    },
    "sea_level_pressure": {
      "repr": "SLP315",
      "spoken": "one zero three one point five",
      "value": 1031.5
    },
    "snow_depth": null,
    "sunshine_minutes": null,
    "temperature_decimal": {
      "repr": "0061",
      "spoken": "six point one",
      "value": 6.1
    }
  },
  "runway_visibility": [],
  "sanitized": "KNUW 301153Z 09005KT 7SM MIFG 06/06 A3045 RMK SLP315 T00610061 10106 20061 51005",
  "station": "KNUW",
  "temperature": {
    "repr": "06",
    "spoken": "six",
    "value": 6
  },
  "time": {
    "dt": "2024-09-30T11:53:00Z",
    "repr": "301153Z"
  },
  "units": {
    "accumulation": "in",
    "altimeter": "inHg",
    "altitude": "ft",
    "temperature": "C",
    "visibility": "sm",
    "wind_speed": "kt"
  },
  "visibility": {
    "repr": "7",
    "spoken": "seven",
    "value": 7
  },
  "wind_direction": {
    "repr": "090",
    "spoken": "zero nine zero",
    "value": 90
  },
  "wind_gust": null,
  "wind_speed": {
    "repr": "05",
    "spoken": "five",
    "value": 5
  },
  "wind_variable_direction": [],
  "wx_codes": [
    {
      "repr": "MIFG",
      "value": "Shallow Fog"
    }
  ]
}
