{
  "meta": {
    "timestamp": "2022-12-16T08:29:48.201198Z",
    "stations_updated": "2022-09-05"
  },
  "altimeter": {
    "repr": "A3055",
    "value": 30.55,
    "spoken": "three zero point five five"
  },
  "clouds": [
    {
      "repr": "FEW010",
      "type": "FEW",
      "altitude": 10,
      "modifier": null
    },
    {
      "repr": "BKN014",
      "type": "BKN",
      "altitude": 14,
      "modifier": null
    }
  ],
  "flight_rules": "MVFR",
  "other": [],
  "visibility": {
    "repr": "10",
    "value": 10,
    "spoken": "one zero"
  },
  "wind_direction": {
    "repr": "000",
    "value": 0,
    "spoken": "zero zero zero"
  },
  "wind_gust": null,
  "wind_speed": {
    "repr": "00",
    "value": 0,
    "spoken": "zero"
  },
  "wx_codes": [],
  "raw": "KNUW 160753Z 00000KT 10SM FEW010 BKN014 00/M01 A3055 RMK AO2 SLP343 T00001011 400671028 VISNO $",
  "sanitized": "KNUW 160753Z 00000KT 10SM FEW010 BKN014 00/M01 A3055 RMK AO2 SLP343 T00001011 400671028 VISNO $",
  "station": "KNUW",
  "time": {
    "repr": "160753Z",
    "dt": "2022-12-16T07:53:00Z"
  },
  "remarks": "RMK AO2 SLP343 T00001011 400671028 VISNO $",
  "dewpoint": {
    "repr": "M01",
    "value": -1,
    "spoken": "minus one"
  },
  "relative_humidity": 0.9229449916837179,
  "remarks_info": {
    "maximum_temperature_6": null,
    "minimum_temperature_6": null,
    "pressure_tendency": null,
    "precip_36_hours": null,
    "precip_24_hours": null,
    "sunshine_minutes": null,
    "codes": [
      {
        "repr": "$",
        "value": "ASOS requires maintenance"
      },
      {
        "repr": "AO2",
        "value": "Automated with precipitation sensor"
      }
    ],
    "dewpoint_decimal": {
      "repr": "1011",
      "value": -1.1,
      "spoken": "minus one point one"
    },
    "maximum_temperature_24": {
      "repr": "0067",
      "value": 6.7,
      "spoken": "six point seven"
    },
    "minimum_temperature_24": {
      "repr": "1028",
      "value": -2.8,
      "spoken": "minus two point eight"
    },
    "precip_hourly": null,
    "sea_level_pressure": {
      "repr": "SLP343",
      "value": 1034.3,
      "spoken": "one zero three four point three"
    },
    "snow_depth": null,
    "temperature_decimal": {
      "repr": "0000",
      "value": 0,
      "spoken": "zero"
    }
  },
  "runway_visibility": [],
  "temperature": {
    "repr": "00",
    "value": 0,
    "spoken": "zero"
  },
  "wind_variable_direction": [],
  "density_altitude": -2372,
  "pressure_altitude": -583,
  "units": {
    "accumulation": "in",
    "altimeter": "inHg",
    "altitude": "ft",
    "temperature": "C",
    "visibility": "sm",
    "wind_speed": "kt"
  }
}
