{
  "altimeter": {
    "repr": "A2964",
    "spoken": "two nine point six four",
    "value": 29.64
  },
  "clouds": [
    {
      "altitude": 25,
      "modifier": null,
      "repr": "FEW025",
      "type": "FEW"
    },
    {
      "altitude": 75,
      "modifier": null,
      "repr": "BKN075",
      "type": "BKN"
    },
    {
      "altitude": 150,
      "modifier": null,
      "repr": "BKN150",
      "type": "BKN"
    },
    {
      "altitude": 250,
      "modifier": null,
      "repr": "OVC250",
      "type": "OVC"
    }
  ],
  "density_altitude": -394,
  "dewpoint": {
    "repr": "08",
    "spoken": "eight",
    "value": 8
  },
  "flight_rules": "VFR",
  "meta": {
    "cache-timestamp": "2023-11-07T05:40:05.361000Z",
    "stations_updated": "2023-10-28",
    "timestamp": "2023-11-07T05:40:31.866783Z"
  },
  "other": [],
  "pressure_altitude": 327,
  "raw": "KNUW 070453Z 10007KT 10SM FEW025 BKN075 BKN150 OVC250 09/08 A2964 RMK AO2 SLP042 T00890078 $",
  "relative_humidity": 0.9280975124584884,
  "remarks": "RMK AO2 SLP042 T00890078 $",
  "remarks_info": {
    "codes": [
      {
        "repr": "$",
        "value": "ASOS requires maintenance"
      },
      {
        "repr": "AO2",
        "value": "Automated with precipitation sensor"
      }
    ],
    "dewpoint_decimal": {
      "repr": "0078",
      "spoken": "seven point eight",
      "value": 7.8
    },
    "maximum_temperature_24": null,
    "maximum_temperature_6": null,
    "minimum_temperature_24": null,
    "minimum_temperature_6": null,
    "precip_24_hours": null,
    "precip_36_hours": null,
    "precip_hourly": null,
    "pressure_tendency": null,
    "sea_level_pressure": {
      "repr": "SLP042",
      "spoken": "one zero zero four point two",
      "value": 1004.2
    },
    "snow_depth": null,
    "sunshine_minutes": null,
    "temperature_decimal": {
      "repr": "0089",
      "spoken": "eight point nine",
      "value": 8.9
    }
  },
  "runway_visibility": [],
  "sanitized": "KNUW 070453Z 10007KT 10SM FEW025 BKN075 BKN150 OVC250 09/08 A2964 RMK AO2 SLP042 T00890078 $",
  "station": "KNUW",
  "temperature": {
    "repr": "09",
    "spoken": "nine",
    "value": 9
  },
  "time": {
    "dt": "2023-11-07T04:53:00Z",
    "repr": "070453Z"
  },
  "units": {
    "accumulation": "in",
    "altimeter": "inHg",
    "altitude": "ft",
    "temperature": "C",
    "visibility": "sm",
    "wind_speed": "kt"
  },
  "visibility": {
    "repr": "10",
    "spoken": "one zero",
    "value": 10
  },
  "wind_direction": {
    "repr": "100",
    "spoken": "one zero zero",
    "value": 100
  },
  "wind_gust": null,
  "wind_speed": {
    "repr": "07",
    "spoken": "seven",
    "value": 7
  },
  "wind_variable_direction": [],
  "wx_codes": []
}
