{
  "altimeter": {
    "repr": "A3011",
    "spoken": "three zero point one one",
    "value": 30.11
  },
  "clouds": [
    {
      "altitude": 240,
      "modifier": null,
      "repr": "SCT240",
      "type": "SCT"
    }
  ],
  "density_altitude": -996,
  "dewpoint": {
    "repr": "06",
    "spoken": "six",
    "value": 6
  },
  "flight_rules": "VFR",
  "meta": {
    "cache-timestamp": "2024-03-16T06:06:03.701000Z",
    "stations_updated": "2024-01-01",
    "timestamp": "2024-03-16T06:06:44.036002Z"
  },
  "other": [],
  "pressure_altitude": -143,
  "raw": "KNUW 160453Z 25003KT 10SM SCT240 08/06 A3011 RMK SLP200 T00780061",
  "relative_humidity": 0.8899294340036578,
  "remarks": "RMK SLP200 T00780061",
  "remarks_info": {
    "codes": [],
    "dewpoint_decimal": {
      "repr": "0061",
      "spoken": "six point one",
      "value": 6.1
    },
    "maximum_temperature_24": null,
    "maximum_temperature_6": null,
    "minimum_temperature_24": null,
    "minimum_temperature_6": null,
    "precip_24_hours": null,
    "precip_36_hours": null,
    "precip_hourly": null,
    "pressure_tendency": null,
    "sea_level_pressure": {
      "repr": "SLP200",
      "spoken": "one zero two zero point zero",
      "value": 1020
    },
    "snow_depth": null,
    "sunshine_minutes": null,
    "temperature_decimal": {
      "repr": "0078",
      "spoken": "seven point eight",
      "value": 7.8
    }
  },
  "runway_visibility": [],
  "sanitized": "KNUW 160453Z 25003KT 10SM SCT240 08/06 A3011 RMK SLP200 T00780061",
  "station": "KNUW",
  "temperature": {
    "repr": "08",
    "spoken": "eight",
    "value": 8
  },
  "time": {
    "dt": "2024-03-16T04:53:00Z",
    "repr": "160453Z"
  },
  "units": {
    "accumulation": "in",
    "altimeter": "inHg",
    "altitude": "ft",
    "temperature": "C",
    "visibility": "sm",
    "wind_speed": "kt"
  },
  "visibility": {
    "repr": "10",
    "spoken": "one zero",
    "value": 10
  },
  "wind_direction": {
    "repr": "250",
    "spoken": "two five zero",
    "value": 250
  },
  "wind_gust": null,
  "wind_speed": {
    "repr": "03",
    "spoken": "three",
    "value": 3
  },
  "wind_variable_direction": [],
  "wx_codes": []
}
