{
  "meta": {
    "timestamp": "2022-12-30T15:02:13.220875Z",
    "stations_updated": "2022-12-27"
  },
  "altimeter": {
    "repr": "A2947",
    "value": 29.47,
    "spoken": "two nine point four seven"
  },
  "clouds": [
    {
      "repr": "FEW015",
      "type": "FEW",
      "altitude": 15,
      "modifier": null
    },
    {
      "repr": "BKN050",
      "type": "BKN",
      "altitude": 50,
      "modifier": null
    },
    {
      "repr": "BKN080",
      "type": "BKN",
      "altitude": 80,
      "modifier": null
    }
  ],
  "flight_rules": "VFR",
  "other": [],
  "visibility": {
    "repr": "10",
    "value": 10,
    "spoken": "one zero"
  },
  "wind_direction": {
    "repr": "120",
    "value": 120,
    "spoken": "one two zero"
  },
  "wind_gust": null,
  "wind_speed": {
    "repr": "07",
    "value": 7,
    "spoken": "seven"
  },
  "wx_codes": [],
  "raw": "KNUW 301453Z 12007KT 10SM FEW015 BKN050 BKN080 08/06 A2947 RMK AO2 SLP978 T00780061 51028 VISNO $",
  "sanitized": "KNUW 301453Z 12007KT 10SM FEW015 BKN050 BKN080 08/06 A2947 RMK AO2 SLP978 T00780061 51028 VISNO $",
  "station": "KNUW",
  "time": {
    "repr": "301453Z",
    "dt": "2022-12-30T14:53:00Z"
  },
  "remarks": "RMK AO2 SLP978 T00780061 51028 VISNO $",
  "dewpoint": {
    "repr": "06",
    "value": 6,
    "spoken": "six"
  },
  "relative_humidity": 0.8899294340036578,
  "remarks_info": {
    "maximum_temperature_6": null,
    "minimum_temperature_6": null,
    "pressure_tendency": {
      "repr": "51028",
      "tendency": "Increasing, then steady",
      "change": 2.8
    },
    "precip_36_hours": null,
    "precip_24_hours": null,
    "sunshine_minutes": null,
    "codes": [
      {
        "repr": "$",
        "value": "ASOS requires maintenance"
      },
      {
        "repr": "AO2",
        "value": "Automated with precipitation sensor"
      }
    ],
    "dewpoint_decimal": {
      "repr": "0061",
      "value": 6.1,
      "spoken": "six point one"
    },
    "maximum_temperature_24": null,
    "minimum_temperature_24": null,
    "precip_hourly": null,
    "sea_level_pressure": {
      "repr": "SLP978",
      "value": 997.8,
      "spoken": "nine nine seven point eight"
    },
    "snow_depth": null,
    "temperature_decimal": {
      "repr": "0078",
      "value": 7.8,
      "spoken": "seven point eight"
    }
  },
  "runway_visibility": [],
  "temperature": {
    "repr": "08",
    "value": 8,
    "spoken": "eight"
  },
  "wind_variable_direction": [],
  "density_altitude": -356,
  "pressure_altitude": 497,
  "units": {
    "accumulation": "in",
    "altimeter": "inHg",
    "altitude": "ft",
    "temperature": "C",
    "visibility": "sm",
    "wind_speed": "kt"
  }
}
