{
  "meta": {
    "timestamp": "2023-07-06T23:26:03.015928Z",
    "stations_updated": "2023-06-06"
  },
  "altimeter": {
    "repr": "A2989",
    "value": 29.89,
    "spoken": "two nine point eight nine"
  },
  "clouds": [
    {
      "repr": "FEW040",
      "type": "FEW",
      "altitude": 40,
      "modifier": null
    },
    {
      "repr": "FEW060",
      "type": "FEW",
      "altitude": 60,
      "modifier": null
    },
    {
      "repr": "SCT100",
      "type": "SCT",
      "altitude": 100,
      "modifier": null
    },
    {
      "repr": "SCT220",
      "type": "SCT",
      "altitude": 220,
      "modifier": null
    }
  ],
  "flight_rules": "VFR",
  "other": [],
  "visibility": {
    "repr": "10",
    "value": 10,
    "spoken": "one zero"
  },
  "wind_direction": {
    "repr": "260",
    "value": 260,
    "spoken": "two six zero"
  },
  "wind_gust": null,
  "wind_speed": {
    "repr": "07",
    "value": 7,
    "spoken": "seven"
  },
  "wx_codes": [],
  "raw": "KNUW 062253Z 26007KT 10SM FEW040 FEW060 SCT100 SCT220 16/11 A2989 RMK AO2 SLP125 T01610111 VISNO $",
  "sanitized": "KNUW 062253Z 26007KT 10SM FEW040 FEW060 SCT100 SCT220 16/11 A2989 RMK AO2 SLP125 T01610111 VISNO $",
  "station": "KNUW",
  "time": {
    "repr": "062253Z",
    "dt": "2023-07-06T22:53:00Z"
  },
  "remarks": "RMK AO2 SLP125 T01610111 VISNO $",
  "dewpoint": {
    "repr": "11",
    "value": 11,
    "spoken": "one one"
  },
  "relative_humidity": 0.7221708139162972,
  "remarks_info": {
    "maximum_temperature_6": null,
    "minimum_temperature_6": null,
    "pressure_tendency": null,
    "precip_36_hours": null,
    "precip_24_hours": null,
    "sunshine_minutes": null,
    "codes": [
      {
        "repr": "$",
        "value": "ASOS requires maintenance"
      },
      {
        "repr": "AO2",
        "value": "Automated with precipitation sensor"
      }
    ],
    "dewpoint_decimal": {
      "repr": "0111",
      "value": 11.1,
      "spoken": "one one point one"
    },
    "maximum_temperature_24": null,
    "minimum_temperature_24": null,
    "precip_hourly": null,
    "sea_level_pressure": {
      "repr": "SLP125",
      "value": 1012.5,
      "spoken": "one zero one two point five"
    },
    "snow_depth": null,
    "temperature_decimal": {
      "repr": "0161",
      "value": 16.1,
      "spoken": "one six point one"
    }
  },
  "runway_visibility": [],
  "temperature": {
    "repr": "16",
    "value": 16,
    "spoken": "one six"
  },
  "wind_variable_direction": [],
  "density_altitude": 220,
  "pressure_altitude": 77,
  "units": {
    "accumulation": "in",
    "altimeter": "inHg",
    "altitude": "ft",
    "temperature": "C",
    "visibility": "sm",
    "wind_speed": "kt"
  }
}
