{
  "altimeter": {
    "repr": "A2985",
    "spoken": "two nine point eight five",
    "value": 29.85
  },
  "clouds": [
    {
      "altitude": 20,
      "modifier": null,
      "repr": "FEW020",
      "type": "FEW"
    },
    {
      "altitude": 85,
      "modifier": null,
      "repr": "BKN085",
      "type": "BKN"
    },
    {
      "altitude": 130,
      "modifier": null,
      "repr": "OVC130",
      "type": "OVC"
    }
  ],
  "density_altitude": -808,
  "dewpoint": {
    "repr": "04",
    "spoken": "four",
    "value": 4
  },
  "flight_rules": "VFR",
  "meta": {
    "cache-timestamp": "2023-12-03T08:26:05.284000Z",
    "stations_updated": "2023-10-28",
    "timestamp": "2023-12-03T08:26:14.177165Z"
  },
  "other": [],
  "pressure_altitude": 117,
  "raw": "KNUW 030753Z 09012KT 10SM FEW020 BKN085 OVC130 07/04 A2985 RMK AO2 SLP112 T00720044 400940050 $",
  "relative_humidity": 0.8237826093197136,
  "remarks": "RMK AO2 SLP112 T00720044 400940050 $",
  "remarks_info": {
    "codes": [
      {
        "repr": "$",
        "value": "ASOS requires maintenance"
      },
      {
        "repr": "AO2",
        "value": "Automated with precipitation sensor"
      }
    ],
    "dewpoint_decimal": {
      "repr": "0044",
      "spoken": "four point four",
      "value": 4.4
    },
    "maximum_temperature_24": {
      "repr": "0094",
      "spoken": "nine point four",
      "value": 9.4
    },
    "maximum_temperature_6": null,
    "minimum_temperature_24": {
      "repr": "0050",
      "spoken": "five point zero",
      "value": 5
    },
    "minimum_temperature_6": null,
    "precip_24_hours": null,
    "precip_36_hours": null,
    "precip_hourly": null,
    "pressure_tendency": null,
    "sea_level_pressure": {
      "repr": "SLP112",
      "spoken": "one zero one one point two",
      "value": 1011.2
    },
    "snow_depth": null,
    "sunshine_minutes": null,
    "temperature_decimal": {
      "repr": "0072",
      "spoken": "seven point two",
      "value": 7.2
    }
  },
  "runway_visibility": [],
  "sanitized": "KNUW 030753Z 09012KT 10SM FEW020 BKN085 OVC130 07/04 A2985 RMK AO2 SLP112 T00720044 400940050 $",
  "station": "KNUW",
  "temperature": {
    "repr": "07",
    "spoken": "seven",
    "value": 7
  },
  "time": {
    "dt": "2023-12-03T07:53:00Z",
    "repr": "030753Z"
  },
  "units": {
    "accumulation": "in",
    "altimeter": "inHg",
    "altitude": "ft",
    "temperature": "C",
    "visibility": "sm",
    "wind_speed": "kt"
  },
  "visibility": {
    "repr": "10",
    "spoken": "one zero",
    "value": 10
  },
  "wind_direction": {
    "repr": "090",
    "spoken": "zero nine zero",
    "value": 90
  },
  "wind_gust": null,
  "wind_speed": {
    "repr": "12",
    "spoken": "one two",
    "value": 12
  },
  "wind_variable_direction": [],
  "wx_codes": []
}
