{
  "altimeter": {
    "repr": "A3009",
    "spoken": "three zero point zero nine",
    "value": 30.09
  },
  "clouds": [
    {
      "altitude": 45,
      "modifier": null,
      "repr": "FEW045",
      "type": "FEW"
    },
    {
      "altitude": 100,
      "modifier": null,
      "repr": "SCT100",
      "type": "SCT"
    },
    {
      "altitude": 220,
      "modifier": null,
      "repr": "SCT220",
      "type": "SCT"
    }
  ],
  "density_altitude": 224,
  "dewpoint": {
    "repr": "12",
    "spoken": "one two",
    "value": 12
  },
  "flight_rules": "VFR",
  "meta": {
    "stations_updated": "2024-06-12",
    "timestamp": "2024-08-15T21:40:47.627395Z"
  },
  "other": [],
  "pressure_altitude": -123,
  "raw": "KNUW 152053Z 23011KT 10SM FEW045 SCT100 SCT220 18/12 A3009 RMK SLP194 T01780122 58007",
  "relative_humidity": 0.697241819285955,
  "remarks": "RMK SLP194 T01780122 58007",
  "remarks_info": {
    "codes": [],
    "dewpoint_decimal": {
      "repr": "0122",
      "spoken": "one two point two",
      "value": 12.2
    },
    "maximum_temperature_24": null,
    "maximum_temperature_6": null,
    "minimum_temperature_24": null,
    "minimum_temperature_6": null,
    "precip_24_hours": null,
    "precip_36_hours": null,
    "precip_hourly": null,
    "pressure_tendency": {
      "change": 0.7,
      "repr": "58007",
      "tendency": "Steady or increasing, then decreasing"
    },
    "sea_level_pressure": {
      "repr": "SLP194",
      "spoken": "one zero one nine point four",
      "value": 1019.4
    },
    "snow_depth": null,
    "sunshine_minutes": null,
    "temperature_decimal": {
      "repr": "0178",
      "spoken": "one seven point eight",
      "value": 17.8
    }
  },
  "runway_visibility": [],
  "sanitized": "KNUW 152053Z 23011KT 10SM FEW045 SCT100 SCT220 18/12 A3009 RMK SLP194 T01780122 58007",
  "station": "KNUW",
  "temperature": {
    "repr": "18",
    "spoken": "one eight",
    "value": 18
  },
  "time": {
    "dt": "2024-08-15T20:53:00Z",
    "repr": "152053Z"
  },
  "units": {
    "accumulation": "in",
    "altimeter": "inHg",
    "altitude": "ft",
    "temperature": "C",
    "visibility": "sm",
    "wind_speed": "kt"
  },
  "visibility": {
    "repr": "10",
    "spoken": "one zero",
    "value": 10
  },
  "wind_direction": {
    "repr": "230",
    "spoken": "two three zero",
    "value": 230
  },
  "wind_gust": null,
  "wind_speed": {
    "repr": "11",
    "spoken": "one one",
    "value": 11
  },
  "wind_variable_direction": [],
  "wx_codes": []
}
