{
  "meta": {
    "timestamp": "2023-10-15T21:20:48.855341Z",
    "stations_updated": "2023-10-01",
    "cache-timestamp": "2023-10-15T21:20:03.538000Z"
  },
  "altimeter": {
    "repr": "A3009",
    "value": 30.09,
    "spoken": "three zero point zero nine"
  },
  "clouds": [
    {
      "repr": "FEW050",
      "type": "FEW",
      "altitude": 50,
      "modifier": null
    },
    {
      "repr": "SCT080",
      "type": "SCT",
      "altitude": 80,
      "modifier": null
    },
    {
      "repr": "BKN130",
      "type": "BKN",
      "altitude": 130,
      "modifier": null
    },
    {
      "repr": "OVC220",
      "type": "OVC",
      "altitude": 220,
      "modifier": null
    }
  ],
  "flight_rules": "VFR",
  "other": [],
  "visibility": {
    "repr": "10",
    "value": 10,
    "spoken": "one zero"
  },
  "wind_direction": {
    "repr": "100",
    "value": 100,
    "spoken": "one zero zero"
  },
  "wind_gust": null,
  "wind_speed": {
    "repr": "05",
    "value": 5,
    "spoken": "five"
  },
  "wx_codes": [],
  "raw": "KNUW 152053Z 10005KT 10SM FEW050 SCT080 BKN130 OVC220 17/11 A3009 RMK AO2 SLP191 T01720111 56024 $",
  "sanitized": "KNUW 152053Z 10005KT 10SM FEW050 SCT080 BKN130 OVC220 17/11 A3009 RMK AO2 SLP191 T01720111 56024 $",
  "station": "KNUW",
  "time": {
    "repr": "152053Z",
    "dt": "2023-10-15T20:53:00Z"
  },
  "remarks": "RMK AO2 SLP191 T01720111 56024 $",
  "dewpoint": {
    "repr": "11",
    "value": 11,
    "spoken": "one one"
  },
  "relative_humidity": 0.6733926847158157,
  "remarks_info": {
    "maximum_temperature_6": null,
    "minimum_temperature_6": null,
    "pressure_tendency": {
      "repr": "56024",
      "tendency": "Decreasing, then steady",
      "change": 2.4
    },
    "precip_36_hours": null,
    "precip_24_hours": null,
    "sunshine_minutes": null,
    "codes": [
      {
        "repr": "$",
        "value": "ASOS requires maintenance"
      },
      {
        "repr": "AO2",
        "value": "Automated with precipitation sensor"
      }
    ],
    "dewpoint_decimal": {
      "repr": "0111",
      "value": 11.1,
      "spoken": "one one point one"
    },
    "maximum_temperature_24": null,
    "minimum_temperature_24": null,
    "precip_hourly": null,
    "sea_level_pressure": {
      "repr": "SLP191",
      "value": 1019.1,
      "spoken": "one zero one nine point one"
    },
    "snow_depth": null,
    "temperature_decimal": {
      "repr": "0172",
      "value": 17.2,
      "spoken": "one seven point two"
    }
  },
  "runway_visibility": [],
  "temperature": {
    "repr": "17",
    "value": 17,
    "spoken": "one seven"
  },
  "wind_variable_direction": [],
  "density_altitude": 152,
  "pressure_altitude": -123,
  "units": {
    "accumulation": "in",
    "altimeter": "inHg",
    "altitude": "ft",
    "temperature": "C",
    "visibility": "sm",
    "wind_speed": "kt"
  }
}
