{
  "meta": {
    "timestamp": "2022-10-10T21:04:55.388865Z",
    "stations_updated": "2022-09-05"
  },
  "altimeter": {
    "repr": "A3005",
    "value": 30.05,
    "spoken": "three zero point zero five"
  },
  "clouds": [
    {
      "repr": "SCT014",
      "type": "SCT",
      "altitude": 14,
      "modifier": null
    }
  ],
  "flight_rules": "VFR",
  "other": [],
  "visibility": {
    "repr": "10",
    "value": 10,
    "spoken": "one zero"
  },
  "wind_direction": {
    "repr": "240",
    "value": 240,
    "spoken": "two four zero"
  },
  "wind_gust": {
    "repr": "26",
    "value": 26,
    "spoken": "two six"
  },
  "wind_speed": {
    "repr": "15",
    "value": 15,
    "spoken": "one five"
  },
  "wx_codes": [],
  "raw": "KNUW 102053Z AUTO 24015G26KT 10SM SCT014 17/12 A3005 RMK AO2 PK WND 24026/2050 SLP174 T01670122 58014 $",
  "sanitized": "KNUW 102053Z 24015G26KT 10SM SCT014 17/12 A3005 RMK AO2 PK WND 24026/2050 SLP174 T01670122 58014 $",
  "station": "KNUW",
  "time": {
    "repr": "102053Z",
    "dt": "2022-10-10T20:53:00Z"
  },
  "remarks": "RMK AO2 PK WND 24026/2050 SLP174 T01670122 58014 $",
  "dewpoint": {
    "repr": "12",
    "value": 12,
    "spoken": "one two"
  },
  "relative_humidity": 0.7475071532173421,
  "remarks_info": {
    "maximum_temperature_6": null,
    "minimum_temperature_6": null,
    "pressure_tendency": {
      "repr": "58014",
      "tendency": "Steady or increasing, then decreasing",
      "change": 1.4
    },
    "precip_36_hours": null,
    "precip_24_hours": null,
    "sunshine_minutes": null,
    "codes": [
      {
        "repr": "$",
        "value": "ASOS requires maintenance"
      },
      {
        "repr": "AO2",
        "value": "Automated with precipitation sensor"
      }
    ],
    "dewpoint_decimal": {
      "repr": "0122",
      "value": 12.2,
      "spoken": "one two point two"
    },
    "maximum_temperature_24": null,
    "minimum_temperature_24": null,
    "precip_hourly": null,
    "sea_level_pressure": {
      "repr": "SLP174",
      "value": 1017.4,
      "spoken": "one zero one seven point four"
    },
    "snow_depth": null,
    "temperature_decimal": {
      "repr": "0167",
      "value": 16.7,
      "spoken": "one six point seven"
    }
  },
  "runway_visibility": [],
  "temperature": {
    "repr": "17",
    "value": 17,
    "spoken": "one seven"
  },
  "wind_variable_direction": [],
  "density_altitude": 132,
  "pressure_altitude": -83,
  "units": {
    "accumulation": "in",
    "altimeter": "inHg",
    "altitude": "ft",
    "temperature": "C",
    "visibility": "sm",
    "wind_speed": "kt"
  }
}
