{
  "altimeter": {
    "repr": "A3025",
    "spoken": "three zero point two five",
    "value": 30.25
  },
  "clouds": [
    {
      "altitude": 30,
      "modifier": null,
      "repr": "FEW030",
      "type": "FEW"
    },
    {
      "altitude": 50,
      "modifier": null,
      "repr": "FEW050",
      "type": "FEW"
    }
  ],
  "density_altitude": -800,
  "dewpoint": {
    "repr": "09",
    "spoken": "nine",
    "value": 9
  },
  "flight_rules": "VFR",
  "meta": {
    "stations_updated": "2024-06-12",
    "timestamp": "2024-10-02T11:04:20.647300Z"
  },
  "other": [],
  "pressure_altitude": -283,
  "raw": "KNUW 021053Z 27013KT 10SM FEW030 FEW050 11/09 A3025 RMK AO2 PK WND 26029/1004 SLP246 T01060089 $",
  "relative_humidity": 0.8922144848734106,
  "remarks": "RMK AO2 PK WND 26029/1004 SLP246 T01060089 $",
  "remarks_info": {
    "codes": [
      {
        "repr": "$",
        "value": "ASOS requires maintenance"
      },
      {
        "repr": "AO2",
        "value": "Automated with precipitation sensor"
      }
    ],
    "dewpoint_decimal": {
      "repr": "0089",
      "spoken": "eight point nine",
      "value": 8.9
    },
    "maximum_temperature_24": null,
    "maximum_temperature_6": null,
    "minimum_temperature_24": null,
    "minimum_temperature_6": null,
    "precip_24_hours": null,
    "precip_36_hours": null,
    "precip_hourly": null,
    "pressure_tendency": null,
    "sea_level_pressure": {
      "repr": "SLP246",
      "spoken": "one zero two four point six",
      "value": 1024.6
    },
    "snow_depth": null,
    "sunshine_minutes": null,
    "temperature_decimal": {
      "repr": "0106",
      "spoken": "one zero point six",
      "value": 10.6
    }
  },
  "runway_visibility": [],
  "sanitized": "KNUW 021053Z 27013KT 10SM FEW030 FEW050 11/09 A3025 RMK AO2 PK WND 26029/1004 SLP246 T01060089 $",
  "station": "KNUW",
  "temperature": {
    "repr": "11",
    "spoken": "one one",
    "value": 11
  },
  "time": {
    "dt": "2024-10-02T10:53:00Z",
    "repr": "021053Z"
  },
  "units": {
    "accumulation": "in",
    "altimeter": "inHg",
    "altitude": "ft",
    "temperature": "C",
    "visibility": "sm",
    "wind_speed": "kt"
  },
  "visibility": {
    "repr": "10",
    "spoken": "one zero",
    "value": 10
  },
  "wind_direction": {
    "repr": "270",
    "spoken": "two seven zero",
    "value": 270
  },
  "wind_gust": null,
  "wind_speed": {
    "repr": "13",
    "spoken": "one three",
    "value": 13
  },
  "wind_variable_direction": [],
  "wx_codes": []
}
