{
  "meta": {
    "timestamp": "2023-01-30T08:31:35.096132Z",
    "stations_updated": "2023-01-16"
  },
  "altimeter": {
    "repr": "A3052",
    "value": 30.52,
    "spoken": "three zero point five two"
  },
  "clouds": [
    {
      "repr": "FEW150",
      "type": "FEW",
      "altitude": 150,
      "modifier": null
    },
    {
      "repr": "FEW220",
      "type": "FEW",
      "altitude": 220,
      "modifier": null
    }
  ],
  "flight_rules": "VFR",
  "other": [],
  "visibility": {
    "repr": "10",
    "value": 10,
    "spoken": "one zero"
  },
  "wind_direction": {
    "repr": "110",
    "value": 110,
    "spoken": "one one zero"
  },
  "wind_gust": null,
  "wind_speed": {
    "repr": "06",
    "value": 6,
    "spoken": "six"
  },
  "wx_codes": [],
  "raw": "KNUW 300753Z 11006KT 10SM FEW150 FEW220 M04/M08 A3052 RMK SLP334 T10441083 400391056",
  "sanitized": "KNUW 300753Z 11006KT 10SM FEW150 FEW220 M04/M08 A3052 RMK SLP334 T10441083 400391056",
  "station": "KNUW",
  "time": {
    "repr": "300753Z",
    "dt": "2023-01-30T07:53:00Z"
  },
  "remarks": "RMK SLP334 T10441083 400391056",
  "dewpoint": {
    "repr": "M08",
    "value": -8,
    "spoken": "minus eight"
  },
  "relative_humidity": 0.742012426778626,
  "remarks_info": {
    "maximum_temperature_6": null,
    "minimum_temperature_6": null,
    "pressure_tendency": null,
    "precip_36_hours": null,
    "precip_24_hours": null,
    "sunshine_minutes": null,
    "codes": [],
    "dewpoint_decimal": {
      "repr": "1083",
      "value": -8.3,
      "spoken": "minus eight point three"
    },
    "maximum_temperature_24": {
      "repr": "0039",
      "value": 3.9,
      "spoken": "three point nine"
    },
    "minimum_temperature_24": {
      "repr": "1056",
      "value": -5.6,
      "spoken": "minus five point six"
    },
    "precip_hourly": null,
    "sea_level_pressure": {
      "repr": "SLP334",
      "value": 1033.4,
      "spoken": "one zero three three point four"
    },
    "snow_depth": null,
    "temperature_decimal": {
      "repr": "1044",
      "value": -4.4,
      "spoken": "minus four point four"
    }
  },
  "runway_visibility": [],
  "temperature": {
    "repr": "M04",
    "value": -4,
    "spoken": "minus four"
  },
  "wind_variable_direction": [],
  "density_altitude": -2870,
  "pressure_altitude": -553,
  "units": {
    "accumulation": "in",
    "altimeter": "inHg",
    "altitude": "ft",
    "temperature": "C",
    "visibility": "sm",
    "wind_speed": "kt"
  }
}
