{
  "meta": {
    "timestamp": "2022-11-14T23:30:32.691978Z",
    "stations_updated": "2022-09-05"
  },
  "altimeter": {
    "repr": "A3045",
    "value": 30.45,
    "spoken": "three zero point four five"
  },
  "clouds": [
    {
      "repr": "FEW020",
      "type": "FEW",
      "altitude": 20,
      "modifier": null
    },
    {
      "repr": "FEW200",
      "type": "FEW",
      "altitude": 200,
      "modifier": null
    }
  ],
  "flight_rules": "VFR",
  "other": [],
  "visibility": {
    "repr": "10",
    "value": 10,
    "spoken": "one zero"
  },
  "wind_direction": {
    "repr": "310",
    "value": 310,
    "spoken": "three one zero"
  },
  "wind_gust": null,
  "wind_speed": {
    "repr": "05",
    "value": 5,
    "spoken": "five"
  },
  "wx_codes": [],
  "raw": "KNUW 142253Z 31005KT 10SM FEW020 FEW200 09/04 A3045 RMK AO2 SLP309 T00890039 VISNO $",
  "sanitized": "KNUW 142253Z 31005KT 10SM FEW020 FEW200 09/04 A3045 RMK AO2 SLP309 T00890039 VISNO $",
  "station": "KNUW",
  "time": {
    "repr": "142253Z",
    "dt": "2022-11-14T22:53:00Z"
  },
  "remarks": "RMK AO2 SLP309 T00890039 VISNO $",
  "dewpoint": {
    "repr": "04",
    "value": 4,
    "spoken": "four"
  },
  "relative_humidity": 0.7085592369885465,
  "remarks_info": {
    "maximum_temperature_6": null,
    "minimum_temperature_6": null,
    "pressure_tendency": null,
    "precip_36_hours": null,
    "precip_24_hours": null,
    "sunshine_minutes": null,
    "codes": [
      {
        "repr": "$",
        "value": "ASOS requires maintenance"
      },
      {
        "repr": "AO2",
        "value": "Automated with precipitation sensor"
      }
    ],
    "dewpoint_decimal": {
      "repr": "0039",
      "value": 3.9,
      "spoken": "three point nine"
    },
    "maximum_temperature_24": null,
    "minimum_temperature_24": null,
    "precip_hourly": null,
    "sea_level_pressure": {
      "repr": "SLP309",
      "value": 1030.9,
      "spoken": "one zero three zero point nine"
    },
    "snow_depth": null,
    "temperature_decimal": {
      "repr": "0089",
      "value": 8.9,
      "spoken": "eight point nine"
    }
  },
  "runway_visibility": [],
  "temperature": {
    "repr": "09",
    "value": 9,
    "spoken": "nine"
  },
  "wind_variable_direction": [],
  "density_altitude": -1204,
  "pressure_altitude": -483,
  "units": {
    "accumulation": "in",
    "altimeter": "inHg",
    "altitude": "ft",
    "temperature": "C",
    "visibility": "sm",
    "wind_speed": "kt"
  }
}
