{
  "altimeter": {
    "repr": "A3049",
    "spoken": "three zero point four nine",
    "value": 30.49
  },
  "clouds": [
    {
      "altitude": 200,
      "modifier": null,
      "repr": "FEW200",
      "type": "FEW"
    }
  ],
  "density_altitude": -2780,
  "dewpoint": {
    "repr": "M05",
    "spoken": "minus five",
    "value": -5
  },
  "flight_rules": "VFR",
  "meta": {
    "stations_updated": "2024-12-02",
    "timestamp": "2025-01-19T16:42:10.718514Z"
  },
  "other": [],
  "pressure_altitude": -523,
  "raw": "KNUW 191553Z 12005KT 10SM FEW200 M04/M05 A3049 RMK AO2 SLP328 T10391050 $",
  "relative_humidity": 0.9205137046647162,
  "remarks": "RMK AO2 SLP328 T10391050 $",
  "remarks_info": {
    "codes": [
      {
        "repr": "$",
        "value": "ASOS requires maintenance"
      },
      {
        "repr": "AO2",
        "value": "Automated with precipitation sensor"
      }
    ],
    "dewpoint_decimal": {
      "repr": "1050",
      "spoken": "minus five point zero",
      "value": -5.0
    },
    "maximum_temperature_24": null,
    "maximum_temperature_6": null,
    "minimum_temperature_24": null,
    "minimum_temperature_6": null,
    "precip_24_hours": null,
    "precip_36_hours": null,
    "precip_hourly": null,
    "pressure_tendency": null,
    "sea_level_pressure": {
      "repr": "SLP328",
      "spoken": "one zero three two point eight",
      "value": 1032.8
    },
    "snow_depth": null,
    "sunshine_minutes": null,
    "temperature_decimal": {
      "repr": "1039",
      "spoken": "minus three point nine",
      "value": -3.9
    }
  },
  "runway_visibility": [],
  "sanitized": "KNUW 191553Z 12005KT 10SM FEW200 M04/M05 A3049 RMK AO2 SLP328 T10391050 $",
  "station": "KNUW",
  "temperature": {
    "repr": "M04",
    "spoken": "minus four",
    "value": -4
  },
  "time": {
    "dt": "2025-01-19T15:53:00Z",
    "repr": "191553Z"
  },
  "units": {
    "accumulation": "in",
    "altimeter": "inHg",
    "altitude": "ft",
    "temperature": "C",
    "visibility": "sm",
    "wind_speed": "kt"
  },
  "visibility": {
    "repr": "10",
    "spoken": "one zero",
    "value": 10
  },
  "wind_direction": {
    "repr": "120",
    "spoken": "one two zero",
    "value": 120
  },
  "wind_gust": null,
  "wind_speed": {
    "repr": "05",
    "spoken": "five",
    "value": 5
  },
  "wind_variable_direction": [],
  "wx_codes": []
}
