{
  "meta": {
    "timestamp": "2022-11-30T08:33:54.404165Z",
    "stations_updated": "2022-09-05"
  },
  "altimeter": {
    "repr": "A2945",
    "value": 29.45,
    "spoken": "two nine point four five"
  },
  "clouds": [
    {
      "repr": "SCT014",
      "type": "SCT",
      "altitude": 14,
      "modifier": null
    },
    {
      "repr": "OVC020",
      "type": "OVC",
      "altitude": 20,
      "modifier": null
    }
  ],
  "flight_rules": "MVFR",
  "other": [],
  "visibility": {
    "repr": "10",
    "value": 10,
    "spoken": "one zero"
  },
  "wind_direction": {
    "repr": "130",
    "value": 130,
    "spoken": "one three zero"
  },
  "wind_gust": {
    "repr": "33",
    "value": 33,
    "spoken": "three three"
  },
  "wind_speed": {
    "repr": "26",
    "value": 26,
    "spoken": "two six"
  },
  "wx_codes": [],
  "raw": "KNUW 300753Z 13026G33KT 10SM SCT014 OVC020 03/01 A2945 RMK AO2 PK WND 14042/0731 SNE0654B36E46 SLP971 P0000 T00280011 400331056 VISNO $",
  "sanitized": "KNUW 300753Z 13026G33KT 10SM SCT014 OVC020 03/01 A2945 RMK AO2 PK WND 14042/0731 SNE0654B36E46 SLP971 P0000 T00280011 400331056 VISNO $",
  "station": "KNUW",
  "time": {
    "repr": "300753Z",
    "dt": "2022-11-30T07:53:00Z"
  },
  "remarks": "RMK AO2 PK WND 14042/0731 SNE0654B36E46 SLP971 P0000 T00280011 400331056 VISNO $",
  "dewpoint": {
    "repr": "01",
    "value": 1,
    "spoken": "one"
  },
  "relative_humidity": 0.8856685038265605,
  "remarks_info": {
    "maximum_temperature_6": null,
    "minimum_temperature_6": null,
    "pressure_tendency": null,
    "precip_36_hours": null,
    "precip_24_hours": null,
    "sunshine_minutes": null,
    "codes": [
      {
        "repr": "$",
        "value": "ASOS requires maintenance"
      },
      {
        "repr": "AO2",
        "value": "Automated with precipitation sensor"
      },
      {
        "repr": "P0000",
        "value": "Trace amount of rain in the last hour"
      }
    ],
    "dewpoint_decimal": {
      "repr": "0011",
      "value": 1.1,
      "spoken": "one point one"
    },
    "maximum_temperature_24": {
      "repr": "0033",
      "value": 3.3,
      "spoken": "three point three"
    },
    "minimum_temperature_24": {
      "repr": "1056",
      "value": -5.6,
      "spoken": "minus five point six"
    },
    "precip_hourly": null,
    "sea_level_pressure": {
      "repr": "SLP971",
      "value": 997.1,
      "spoken": "nine nine seven point one"
    },
    "snow_depth": null,
    "temperature_decimal": {
      "repr": "0028",
      "value": 2.8,
      "spoken": "two point eight"
    }
  },
  "runway_visibility": [],
  "temperature": {
    "repr": "03",
    "value": 3,
    "spoken": "three"
  },
  "wind_variable_direction": [],
  "density_altitude": -936,
  "pressure_altitude": 517,
  "units": {
    "accumulation": "in",
    "altimeter": "inHg",
    "altitude": "ft",
    "temperature": "C",
    "visibility": "sm",
    "wind_speed": "kt"
  }
}
