{
  "altimeter": {
    "repr": "A2948",
    "spoken": "two nine point four eight",
    "value": 29.48
  },
  "clouds": [
    {
      "altitude": 15,
      "modifier": null,
      "repr": "FEW015",
      "type": "FEW"
    },
    {
      "altitude": 25,
      "modifier": null,
      "repr": "SCT025",
      "type": "SCT"
    },
    {
      "altitude": 50,
      "modifier": null,
      "repr": "BKN050",
      "type": "BKN"
    },
    {
      "altitude": 150,
      "modifier": null,
      "repr": "BKN150",
      "type": "BKN"
    }
  ],
  "density_altitude": 102,
  "dewpoint": {
    "repr": "09",
    "spoken": "nine",
    "value": 9
  },
  "flight_rules": "VFR",
  "meta": {
    "stations_updated": "2024-10-29",
    "timestamp": "2024-11-13T20:28:39.527968Z"
  },
  "other": [],
  "pressure_altitude": 487,
  "raw": "KNUW 131953Z 14024G37KT 10SM FEW015 SCT025 BKN050 BKN150 12/09 A2948 RMK AO2 PK WND 14038/1936 SLP988 T01170089 $",
  "relative_humidity": 0.8294144771177383,
  "remarks": "RMK AO2 PK WND 14038/1936 SLP988 T01170089 $",
  "remarks_info": {
    "codes": [
      {
        "repr": "$",
        "value": "ASOS requires maintenance"
      },
      {
        "repr": "AO2",
        "value": "Automated with precipitation sensor"
      }
    ],
    "dewpoint_decimal": {
      "repr": "0089",
      "spoken": "eight point nine",
      "value": 8.9
    },
    "maximum_temperature_24": null,
    "maximum_temperature_6": null,
    "minimum_temperature_24": null,
    "minimum_temperature_6": null,
    "precip_24_hours": null,
    "precip_36_hours": null,
    "precip_hourly": null,
    "pressure_tendency": null,
    "sea_level_pressure": {
      "repr": "SLP988",
      "spoken": "nine nine eight point eight",
      "value": 998.8
    },
    "snow_depth": null,
    "sunshine_minutes": null,
    "temperature_decimal": {
      "repr": "0117",
      "spoken": "one one point seven",
      "value": 11.7
    }
  },
  "runway_visibility": [],
  "sanitized": "KNUW 131953Z 14024G37KT 10SM FEW015 SCT025 BKN050 BKN150 12/09 A2948 RMK AO2 PK WND 14038/1936 SLP988 T01170089 $",
  "station": "KNUW",
  "temperature": {
    "repr": "12",
    "spoken": "one two",
    "value": 12
  },
  "time": {
    "dt": "2024-11-13T19:53:00Z",
    "repr": "131953Z"
  },
  "units": {
    "accumulation": "in",
    "altimeter": "inHg",
    "altitude": "ft",
    "temperature": "C",
    "visibility": "sm",
    "wind_speed": "kt"
  },
  "visibility": {
    "repr": "10",
    "spoken": "one zero",
    "value": 10
  },
  "wind_direction": {
    "repr": "140",
    "spoken": "one four zero",
    "value": 140
  },
  "wind_gust": {
    "repr": "37",
    "spoken": "three seven",
    "value": 37
  },
  "wind_speed": {
    "repr": "24",
    "spoken": "two four",
    "value": 24
  },
  "wind_variable_direction": [],
  "wx_codes": []
}
