{
  "meta": {
    "timestamp": "2022-12-27T09:24:48.763966Z",
    "stations_updated": "2022-09-05"
  },
  "altimeter": {
    "repr": "A2899",
    "value": 28.99,
    "spoken": "two eight point nine nine"
  },
  "clouds": [
    {
      "repr": "BKN026",
      "type": "BKN",
      "altitude": 26,
      "modifier": null
    },
    {
      "repr": "OVC090",
      "type": "OVC",
      "altitude": 90,
      "modifier": null
    }
  ],
  "flight_rules": "MVFR",
  "other": [],
  "visibility": {
    "repr": "10",
    "value": 10,
    "spoken": "one zero"
  },
  "wind_direction": {
    "repr": "130",
    "value": 130,
    "spoken": "one three zero"
  },
  "wind_gust": {
    "repr": "36",
    "value": 36,
    "spoken": "three six"
  },
  "wind_speed": {
    "repr": "25",
    "value": 25,
    "spoken": "two five"
  },
  "wx_codes": [],
  "raw": "KNUW 270853Z 13025G36KT 10SM BKN026 OVC090 12/09 A2899 RMK AO2 PK WND 14036/0819 SLP818 60004 T01170094 56055 VISNO $",
  "sanitized": "KNUW 270853Z 13025G36KT 10SM BKN026 OVC090 12/09 A2899 RMK AO2 PK WND 14036/0819 SLP818 60004 T01170094 56055 VISNO $",
  "station": "KNUW",
  "time": {
    "repr": "270853Z",
    "dt": "2022-12-27T08:53:00Z"
  },
  "remarks": "RMK AO2 PK WND 14036/0819 SLP818 60004 T01170094 56055 VISNO $",
  "dewpoint": {
    "repr": "09",
    "value": 9,
    "spoken": "nine"
  },
  "relative_humidity": 0.857844551650817,
  "remarks_info": {
    "maximum_temperature_6": null,
    "minimum_temperature_6": null,
    "pressure_tendency": {
      "repr": "56055",
      "tendency": "Decreasing, then steady",
      "change": 5.5
    },
    "precip_36_hours": {
      "repr": "60004",
      "value": 0.04,
      "spoken": "zero point zero four"
    },
    "precip_24_hours": null,
    "sunshine_minutes": null,
    "codes": [
      {
        "repr": "$",
        "value": "ASOS requires maintenance"
      },
      {
        "repr": "AO2",
        "value": "Automated with precipitation sensor"
      }
    ],
    "dewpoint_decimal": {
      "repr": "0094",
      "value": 9.4,
      "spoken": "nine point four"
    },
    "maximum_temperature_24": null,
    "minimum_temperature_24": null,
    "precip_hourly": null,
    "sea_level_pressure": {
      "repr": "SLP818",
      "value": 981.8,
      "spoken": "nine eight one point eight"
    },
    "snow_depth": null,
    "temperature_decimal": {
      "repr": "0117",
      "value": 11.7,
      "spoken": "one one point seven"
    }
  },
  "runway_visibility": [],
  "temperature": {
    "repr": "12",
    "value": 12,
    "spoken": "one two"
  },
  "wind_variable_direction": [],
  "density_altitude": 592,
  "pressure_altitude": 977,
  "units": {
    "accumulation": "in",
    "altimeter": "inHg",
    "altitude": "ft",
    "temperature": "C",
    "visibility": "sm",
    "wind_speed": "kt"
  }
}
