{
  "meta": {
    "timestamp": "2022-12-16T19:20:45.675628Z",
    "stations_updated": "2022-09-05"
  },
  "altimeter": {
    "repr": "A3045",
    "value": 30.45,
    "spoken": "three zero point four five"
  },
  "clouds": [
    {
      "repr": "SCT012",
      "type": "SCT",
      "altitude": 12,
      "modifier": null
    },
    {
      "repr": "SCT035",
      "type": "SCT",
      "altitude": 35,
      "modifier": null
    },
    {
      "repr": "BKN150",
      "type": "BKN",
      "altitude": 150,
      "modifier": null
    },
    {
      "repr": "BKN220",
      "type": "BKN",
      "altitude": 220,
      "modifier": null
    }
  ],
  "flight_rules": "VFR",
  "other": [],
  "visibility": {
    "repr": "7",
    "value": 7,
    "spoken": "seven"
  },
  "wind_direction": {
    "repr": "110",
    "value": 110,
    "spoken": "one one zero"
  },
  "wind_gust": null,
  "wind_speed": {
    "repr": "03",
    "value": 3,
    "spoken": "three"
  },
  "wx_codes": [],
  "raw": "KNUW 161853Z 11003KT 7SM SCT012 SCT035 BKN150 BKN220 03/02 A3045 RMK AO2 SLP309 T00330022 VISNO $",
  "sanitized": "KNUW 161853Z 11003KT 7SM SCT012 SCT035 BKN150 BKN220 03/02 A3045 RMK AO2 SLP309 T00330022 VISNO $",
  "station": "KNUW",
  "time": {
    "repr": "161853Z",
    "dt": "2022-12-16T18:53:00Z"
  },
  "remarks": "RMK AO2 SLP309 T00330022 VISNO $",
  "dewpoint": {
    "repr": "02",
    "value": 2,
    "spoken": "two"
  },
  "relative_humidity": 0.9249173515197439,
  "remarks_info": {
    "maximum_temperature_6": null,
    "minimum_temperature_6": null,
    "pressure_tendency": null,
    "precip_36_hours": null,
    "precip_24_hours": null,
    "sunshine_minutes": null,
    "codes": [
      {
        "repr": "$",
        "value": "ASOS requires maintenance"
      },
      {
        "repr": "AO2",
        "value": "Automated with precipitation sensor"
      }
    ],
    "dewpoint_decimal": {
      "repr": "0022",
      "value": 2.2,
      "spoken": "two point two"
    },
    "maximum_temperature_24": null,
    "minimum_temperature_24": null,
    "precip_hourly": null,
    "sea_level_pressure": {
      "repr": "SLP309",
      "value": 1030.9,
      "spoken": "one zero three zero point nine"
    },
    "snow_depth": null,
    "temperature_decimal": {
      "repr": "0033",
      "value": 3.3,
      "spoken": "three point three"
    }
  },
  "runway_visibility": [],
  "temperature": {
    "repr": "03",
    "value": 3,
    "spoken": "three"
  },
  "wind_variable_direction": [],
  "density_altitude": -1876,
  "pressure_altitude": -483,
  "units": {
    "accumulation": "in",
    "altimeter": "inHg",
    "altitude": "ft",
    "temperature": "C",
    "visibility": "sm",
    "wind_speed": "kt"
  }
}
