{
  "meta": {
    "timestamp": "2023-06-27T11:22:57.453877Z",
    "stations_updated": "2023-06-06",
    "cache-timestamp": "2023-06-27T11:22:03.506000Z"
  },
  "altimeter": {
    "repr": "A2997",
    "value": 29.97,
    "spoken": "two nine point nine seven"
  },
  "clouds": [
    {
      "repr": "OVC004",
      "type": "OVC",
      "altitude": 4,
      "modifier": null
    }
  ],
  "flight_rules": "LIFR",
  "other": [],
  "visibility": {
    "repr": "1",
    "value": 1,
    "spoken": "one"
  },
  "wind_direction": {
    "repr": "230",
    "value": 230,
    "spoken": "two three zero"
  },
  "wind_gust": null,
  "wind_speed": {
    "repr": "09",
    "value": 9,
    "spoken": "nine"
  },
  "wx_codes": [
    {
      "repr": "BR",
      "value": "Mist"
    }
  ],
  "raw": "KNUW 271053Z 23009KT 1SM BR OVC004 11/10 A2997 RMK AO2 SFC VIS 1 1/2 SLP151 T01060100 VISNO $",
  "sanitized": "KNUW 271053Z 23009KT 1SM BR OVC004 11/10 A2997 RMK AO2 SFC VIS 1 1/2 SLP151 T01060100 VISNO $",
  "station": "KNUW",
  "time": {
    "repr": "271053Z",
    "dt": "2023-06-27T10:53:00Z"
  },
  "remarks": "RMK AO2 SFC VIS 1 1/2 SLP151 T01060100 VISNO $",
  "dewpoint": {
    "repr": "10",
    "value": 10,
    "spoken": "one zero"
  },
  "relative_humidity": 0.9607146693216029,
  "remarks_info": {
    "maximum_temperature_6": null,
    "minimum_temperature_6": null,
    "pressure_tendency": null,
    "precip_36_hours": null,
    "precip_24_hours": null,
    "sunshine_minutes": null,
    "codes": [
      {
        "repr": "$",
        "value": "ASOS requires maintenance"
      },
      {
        "repr": "AO2",
        "value": "Automated with precipitation sensor"
      }
    ],
    "dewpoint_decimal": {
      "repr": "0100",
      "value": 10,
      "spoken": "one zero point zero"
    },
    "maximum_temperature_24": null,
    "minimum_temperature_24": null,
    "precip_hourly": null,
    "sea_level_pressure": {
      "repr": "SLP151",
      "value": 1015.1,
      "spoken": "one zero one five point one"
    },
    "snow_depth": null,
    "temperature_decimal": {
      "repr": "0106",
      "value": 10.6,
      "spoken": "one zero point six"
    }
  },
  "runway_visibility": [],
  "temperature": {
    "repr": "11",
    "value": 11,
    "spoken": "one one"
  },
  "wind_variable_direction": [],
  "density_altitude": -520,
  "pressure_altitude": -3,
  "units": {
    "accumulation": "in",
    "altimeter": "inHg",
    "altitude": "ft",
    "temperature": "C",
    "visibility": "sm",
    "wind_speed": "kt"
  }
}
