{
  "altimeter": {
    "repr": "A3038",
    "spoken": "three zero point three eight",
    "value": 30.38
  },
  "clouds": [
    {
      "altitude": 13,
      "modifier": null,
      "repr": "FEW013",
      "type": "FEW"
    },
    {
      "altitude": 36,
      "modifier": null,
      "repr": "SCT036",
      "type": "SCT"
    },
    {
      "altitude": 95,
      "modifier": null,
      "repr": "BKN095",
      "type": "BKN"
    }
  ],
  "density_altitude": -930,
  "dewpoint": {
    "repr": "06",
    "spoken": "six",
    "value": 6
  },
  "flight_rules": "VFR",
  "meta": {
    "stations_updated": "2024-01-01",
    "timestamp": "2024-04-21T17:25:58.905969Z"
  },
  "other": [],
  "pressure_altitude": -413,
  "raw": "KNUW 211653Z 18008KT 10SM FEW013 SCT036 BKN095 11/06 A3038 RMK AO2 SLP290 T01060056 $",
  "relative_humidity": 0.7118548950787184,
  "remarks": "RMK AO2 SLP290 T01060056 $",
  "remarks_info": {
    "codes": [
      {
        "repr": "$",
        "value": "ASOS requires maintenance"
      },
      {
        "repr": "AO2",
        "value": "Automated with precipitation sensor"
      }
    ],
    "dewpoint_decimal": {
      "repr": "0056",
      "spoken": "five point six",
      "value": 5.6
    },
    "maximum_temperature_24": null,
    "maximum_temperature_6": null,
    "minimum_temperature_24": null,
    "minimum_temperature_6": null,
    "precip_24_hours": null,
    "precip_36_hours": null,
    "precip_hourly": null,
    "pressure_tendency": null,
    "sea_level_pressure": {
      "repr": "SLP290",
      "spoken": "one zero two nine point zero",
      "value": 1029
    },
    "snow_depth": null,
    "sunshine_minutes": null,
    "temperature_decimal": {
      "repr": "0106",
      "spoken": "one zero point six",
      "value": 10.6
    }
  },
  "runway_visibility": [],
  "sanitized": "KNUW 211653Z 18008KT 10SM FEW013 SCT036 BKN095 11/06 A3038 RMK AO2 SLP290 T01060056 $",
  "station": "KNUW",
  "temperature": {
    "repr": "11",
    "spoken": "one one",
    "value": 11
  },
  "time": {
    "dt": "2024-04-21T16:53:00Z",
    "repr": "211653Z"
  },
  "units": {
    "accumulation": "in",
    "altimeter": "inHg",
    "altitude": "ft",
    "temperature": "C",
    "visibility": "sm",
    "wind_speed": "kt"
  },
  "visibility": {
    "repr": "10",
    "spoken": "one zero",
    "value": 10
  },
  "wind_direction": {
    "repr": "180",
    "spoken": "one eight zero",
    "value": 180
  },
  "wind_gust": null,
  "wind_speed": {
    "repr": "08",
    "spoken": "eight",
    "value": 8
  },
  "wind_variable_direction": [],
  "wx_codes": []
}
