{
  "altimeter": {
    "repr": "A2974",
    "spoken": "two nine point seven four",
    "value": 29.74
  },
  "clouds": [
    {
      "altitude": 50,
      "modifier": null,
      "repr": "FEW050",
      "type": "FEW"
    },
    {
      "altitude": 180,
      "modifier": null,
      "repr": "BKN180",
      "type": "BKN"
    }
  ],
  "density_altitude": -566,
  "dewpoint": {
    "repr": "04",
    "spoken": "four",
    "value": 4
  },
  "flight_rules": "VFR",
  "meta": {
    "stations_updated": "2024-10-29",
    "timestamp": "2024-11-22T09:30:09.783342Z"
  },
  "other": [],
  "pressure_altitude": 227,
  "raw": "KNUW 220853Z 04015G21KT 10SM FEW050 BKN180 08/04 A2974 RMK AO2 PK WND 06031/0813 SLP075 T00830039 58053",
  "relative_humidity": 0.7379335871249983,
  "remarks": "RMK AO2 PK WND 06031/0813 SLP075 T00830039 58053",
  "remarks_info": {
    "codes": [
      {
        "repr": "AO2",
        "value": "Automated with precipitation sensor"
      }
    ],
    "dewpoint_decimal": {
      "repr": "0039",
      "spoken": "three point nine",
      "value": 3.9
    },
    "maximum_temperature_24": null,
    "maximum_temperature_6": null,
    "minimum_temperature_24": null,
    "minimum_temperature_6": null,
    "precip_24_hours": null,
    "precip_36_hours": null,
    "precip_hourly": null,
    "pressure_tendency": {
      "change": 5.3,
      "repr": "58053",
      "tendency": "Steady or increasing, then decreasing"
    },
    "sea_level_pressure": {
      "repr": "SLP075",
      "spoken": "one zero zero seven point five",
      "value": 1007.5
    },
    "snow_depth": null,
    "sunshine_minutes": null,
    "temperature_decimal": {
      "repr": "0083",
      "spoken": "eight point three",
      "value": 8.3
    }
  },
  "runway_visibility": [],
  "sanitized": "KNUW 220853Z 04015G21KT 10SM FEW050 BKN180 08/04 A2974 RMK AO2 PK WND 06031/0813 SLP075 T00830039 58053",
  "station": "KNUW",
  "temperature": {
    "repr": "08",
    "spoken": "eight",
    "value": 8
  },
  "time": {
    "dt": "2024-11-22T08:53:00Z",
    "repr": "220853Z"
  },
  "units": {
    "accumulation": "in",
    "altimeter": "inHg",
    "altitude": "ft",
    "temperature": "C",
    "visibility": "sm",
    "wind_speed": "kt"
  },
  "visibility": {
    "repr": "10",
    "spoken": "one zero",
    "value": 10
  },
  "wind_direction": {
    "repr": "040",
    "spoken": "zero four zero",
    "value": 40
  },
  "wind_gust": {
    "repr": "21",
    "spoken": "two one",
    "value": 21
  },
  "wind_speed": {
    "repr": "15",
    "spoken": "one five",
    "value": 15
  },
  "wind_variable_direction": [],
  "wx_codes": []
}
