{
  "altimeter": {
    "repr": "A3006",
    "spoken": "three zero point zero six",
    "value": 30.06
  },
  "clouds": [
    {
      "altitude": 1,
      "modifier": null,
      "repr": "SCT001",
      "type": "SCT"
    },
    {
      "altitude": 5,
      "modifier": null,
      "repr": "BKN005",
      "type": "BKN"
    },
    {
      "altitude": 150,
      "modifier": null,
      "repr": "BKN150",
      "type": "BKN"
    }
  ],
  "density_altitude": -214,
  "dewpoint": {
    "repr": "13",
    "spoken": "one three",
    "value": 13
  },
  "flight_rules": "IFR",
  "meta": {
    "stations_updated": "2024-06-12",
    "timestamp": "2024-07-21T16:31:28.357733Z"
  },
  "other": [],
  "pressure_altitude": -93,
  "raw": "KNUW 211617Z 23008KT 1SM BR SCT001 BKN005 BKN150 14/13 A3006 RMK AO2 T01390133 $",
  "relative_humidity": 0.9616972468637218,
  "remarks": "RMK AO2 T01390133 $",
  "remarks_info": {
    "codes": [
      {
        "repr": "$",
        "value": "ASOS requires maintenance"
      },
      {
        "repr": "AO2",
        "value": "Automated with precipitation sensor"
      }
    ],
    "dewpoint_decimal": {
      "repr": "0133",
      "spoken": "one three point three",
      "value": 13.3
    },
    "maximum_temperature_24": null,
    "maximum_temperature_6": null,
    "minimum_temperature_24": null,
    "minimum_temperature_6": null,
    "precip_24_hours": null,
    "precip_36_hours": null,
    "precip_hourly": null,
    "pressure_tendency": null,
    "sea_level_pressure": null,
    "snow_depth": null,
    "sunshine_minutes": null,
    "temperature_decimal": {
      "repr": "0139",
      "spoken": "one three point nine",
      "value": 13.9
    }
  },
  "runway_visibility": [],
  "sanitized": "KNUW 211617Z 23008KT 1SM BR SCT001 BKN005 BKN150 14/13 A3006 RMK AO2 T01390133 $",
  "station": "KNUW",
  "temperature": {
    "repr": "14",
    "spoken": "one four",
    "value": 14
  },
  "time": {
    "dt": "2024-07-21T16:17:00Z",
    "repr": "211617Z"
  },
  "units": {
    "accumulation": "in",
    "altimeter": "inHg",
    "altitude": "ft",
    "temperature": "C",
    "visibility": "sm",
    "wind_speed": "kt"
  },
  "visibility": {
    "repr": "1",
    "spoken": "one",
    "value": 1
  },
  "wind_direction": {
    "repr": "230",
    "spoken": "two three zero",
    "value": 230
  },
  "wind_gust": null,
  "wind_speed": {
    "repr": "08",
    "spoken": "eight",
    "value": 8
  },
  "wind_variable_direction": [],
  "wx_codes": [
    {
      "repr": "BR",
      "value": "Mist"
    }
  ]
}
