{
  "altimeter": {
    "repr": "A3011",
    "spoken": "three zero point one one",
    "value": 30.11
  },
  "clouds": [
    {
      "altitude": 27,
      "modifier": null,
      "repr": "SCT027",
      "type": "SCT"
    },
    {
      "altitude": 50,
      "modifier": null,
      "repr": "BKN050",
      "type": "BKN"
    },
    {
      "altitude": 220,
      "modifier": null,
      "repr": "BKN220",
      "type": "BKN"
    }
  ],
  "density_altitude": -996,
  "dewpoint": {
    "repr": "08",
    "spoken": "eight",
    "value": 8
  },
  "flight_rules": "VFR",
  "meta": {
    "stations_updated": "2024-05-13",
    "timestamp": "2024-06-16T14:02:04.150589Z"
  },
  "other": [],
  "pressure_altitude": -143,
  "raw": "KNUW 161253Z 11004KT 10SM SCT027 BKN050 BKN220 08/08 A3011 RMK SLP200 T00780078",
  "relative_humidity": 1,
  "remarks": "RMK SLP200 T00780078",
  "remarks_info": {
    "codes": [],
    "dewpoint_decimal": {
      "repr": "0078",
      "spoken": "seven point eight",
      "value": 7.8
    },
    "maximum_temperature_24": null,
    "maximum_temperature_6": null,
    "minimum_temperature_24": null,
    "minimum_temperature_6": null,
    "precip_24_hours": null,
    "precip_36_hours": null,
    "precip_hourly": null,
    "pressure_tendency": null,
    "sea_level_pressure": {
      "repr": "SLP200",
      "spoken": "one zero two zero point zero",
      "value": 1020
    },
    "snow_depth": null,
    "sunshine_minutes": null,
    "temperature_decimal": {
      "repr": "0078",
      "spoken": "seven point eight",
      "value": 7.8
    }
  },
  "runway_visibility": [],
  "sanitized": "KNUW 161253Z 11004KT 10SM SCT027 BKN050 BKN220 08/08 A3011 RMK SLP200 T00780078",
  "station": "KNUW",
  "temperature": {
    "repr": "08",
    "spoken": "eight",
    "value": 8
  },
  "time": {
    "dt": "2024-06-16T12:53:00Z",
    "repr": "161253Z"
  },
  "units": {
    "accumulation": "in",
    "altimeter": "inHg",
    "altitude": "ft",
    "temperature": "C",
    "visibility": "sm",
    "wind_speed": "kt"
  },
  "visibility": {
    "repr": "10",
    "spoken": "one zero",
    "value": 10
  },
  "wind_direction": {
    "repr": "110",
    "spoken": "one one zero",
    "value": 110
  },
  "wind_gust": null,
  "wind_speed": {
    "repr": "04",
    "spoken": "four",
    "value": 4
  },
  "wind_variable_direction": [],
  "wx_codes": []
}
