{
  "meta": {
    "timestamp": "2022-12-21T10:29:12.805599Z",
    "stations_updated": "2022-09-05"
  },
  "altimeter": {
    "repr": "A3040",
    "value": 30.4,
    "spoken": "three zero point four zero"
  },
  "clouds": [
    {
      "repr": "OVC045",
      "type": "OVC",
      "altitude": 45,
      "modifier": null
    }
  ],
  "flight_rules": "VFR",
  "other": [],
  "visibility": {
    "repr": "10",
    "value": 10,
    "spoken": "one zero"
  },
  "wind_direction": {
    "repr": "010",
    "value": 10,
    "spoken": "zero one zero"
  },
  "wind_gust": null,
  "wind_speed": {
    "repr": "04",
    "value": 4,
    "spoken": "four"
  },
  "wx_codes": [],
  "raw": "KNUW 210953Z AUTO 01004KT 10SM OVC045 M04/M08 A3040 RMK AO2 SLP292 T10441083 VISNO $",
  "sanitized": "KNUW 210953Z 01004KT 10SM OVC045 M04/M08 A3040 RMK AO2 SLP292 T10441083 VISNO $",
  "station": "KNUW",
  "time": {
    "repr": "210953Z",
    "dt": "2022-12-21T09:53:00Z"
  },
  "remarks": "RMK AO2 SLP292 T10441083 VISNO $",
  "dewpoint": {
    "repr": "M08",
    "value": -8,
    "spoken": "minus eight"
  },
  "relative_humidity": 0.742012426778626,
  "remarks_info": {
    "maximum_temperature_6": null,
    "minimum_temperature_6": null,
    "pressure_tendency": null,
    "precip_36_hours": null,
    "precip_24_hours": null,
    "sunshine_minutes": null,
    "codes": [
      {
        "repr": "$",
        "value": "ASOS requires maintenance"
      },
      {
        "repr": "AO2",
        "value": "Automated with precipitation sensor"
      }
    ],
    "dewpoint_decimal": {
      "repr": "1083",
      "value": -8.3,
      "spoken": "minus eight point three"
    },
    "maximum_temperature_24": null,
    "minimum_temperature_24": null,
    "precip_hourly": null,
    "sea_level_pressure": {
      "repr": "SLP292",
      "value": 1029.2,
      "spoken": "one zero two nine point two"
    },
    "snow_depth": null,
    "temperature_decimal": {
      "repr": "1044",
      "value": -4.4,
      "spoken": "minus four point four"
    }
  },
  "runway_visibility": [],
  "temperature": {
    "repr": "M04",
    "value": -4,
    "spoken": "minus four"
  },
  "wind_variable_direction": [],
  "density_altitude": -2750,
  "pressure_altitude": -433,
  "units": {
    "accumulation": "in",
    "altimeter": "inHg",
    "altitude": "ft",
    "temperature": "C",
    "visibility": "sm",
    "wind_speed": "kt"
  }
}
