{
  "altimeter": {
    "repr": "A3008",
    "spoken": "three zero point zero eight",
    "value": 30.08
  },
  "clouds": [
    {
      "altitude": 150,
      "modifier": null,
      "repr": "FEW150",
      "type": "FEW"
    },
    {
      "altitude": 250,
      "modifier": null,
      "repr": "SCT250",
      "type": "SCT"
    }
  ],
  "density_altitude": -702,
  "dewpoint": {
    "repr": "08",
    "spoken": "eight",
    "value": 8
  },
  "flight_rules": "VFR",
  "meta": {
    "cache-timestamp": "2024-06-07T05:28:02.730000Z",
    "stations_updated": "2024-05-13",
    "timestamp": "2024-06-07T05:28:39.876975Z"
  },
  "other": [],
  "pressure_altitude": -113,
  "raw": "KNUW 070453Z 26004KT 10SM FEW150 SCT250 10/08 A3008 RMK AO2 SLP191 T01000083 $",
  "relative_humidity": 0.8917307313199454,
  "remarks": "RMK AO2 SLP191 T01000083 $",
  "remarks_info": {
    "codes": [
      {
        "repr": "$",
        "value": "ASOS requires maintenance"
      },
      {
        "repr": "AO2",
        "value": "Automated with precipitation sensor"
      }
    ],
    "dewpoint_decimal": {
      "repr": "0083",
      "spoken": "eight point three",
      "value": 8.3
    },
    "maximum_temperature_24": null,
    "maximum_temperature_6": null,
    "minimum_temperature_24": null,
    "minimum_temperature_6": null,
    "precip_24_hours": null,
    "precip_36_hours": null,
    "precip_hourly": null,
    "pressure_tendency": null,
    "sea_level_pressure": {
      "repr": "SLP191",
      "spoken": "one zero one nine point one",
      "value": 1019.1
    },
    "snow_depth": null,
    "sunshine_minutes": null,
    "temperature_decimal": {
      "repr": "0100",
      "spoken": "one zero point zero",
      "value": 10
    }
  },
  "runway_visibility": [],
  "sanitized": "KNUW 070453Z 26004KT 10SM FEW150 SCT250 10/08 A3008 RMK AO2 SLP191 T01000083 $",
  "station": "KNUW",
  "temperature": {
    "repr": "10",
    "spoken": "one zero",
    "value": 10
  },
  "time": {
    "dt": "2024-06-07T04:53:00Z",
    "repr": "070453Z"
  },
  "units": {
    "accumulation": "in",
    "altimeter": "inHg",
    "altitude": "ft",
    "temperature": "C",
    "visibility": "sm",
    "wind_speed": "kt"
  },
  "visibility": {
    "repr": "10",
    "spoken": "one zero",
    "value": 10
  },
  "wind_direction": {
    "repr": "260",
    "spoken": "two six zero",
    "value": 260
  },
  "wind_gust": null,
  "wind_speed": {
    "repr": "04",
    "spoken": "four",
    "value": 4
  },
  "wind_variable_direction": [],
  "wx_codes": []
}
