{
  "meta": {
    "timestamp": "2023-02-21T10:30:51.569126Z",
    "stations_updated": "2023-01-30",
    "cache-timestamp": "2023-02-21T10:30:08.083000Z"
  },
  "altimeter": {
    "repr": "A2968",
    "value": 29.68,
    "spoken": "two nine point six eight"
  },
  "clouds": [
    {
      "repr": "FEW023",
      "type": "FEW",
      "altitude": 23,
      "modifier": null
    },
    {
      "repr": "BKN100",
      "type": "BKN",
      "altitude": 100,
      "modifier": null
    }
  ],
  "flight_rules": "VFR",
  "other": [],
  "visibility": {
    "repr": "10",
    "value": 10,
    "spoken": "one zero"
  },
  "wind_direction": {
    "repr": "260",
    "value": 260,
    "spoken": "two six zero"
  },
  "wind_gust": {
    "repr": "52",
    "value": 52,
    "spoken": "five two"
  },
  "wind_speed": {
    "repr": "38",
    "value": 38,
    "spoken": "three eight"
  },
  "wx_codes": [],
  "raw": "KNUW 210953Z 26038G52KT 10SM FEW023 BKN100 07/03 A2968 RMK PK WND 25055/0943 SLP048 T00670028",
  "sanitized": "KNUW 210953Z 26038G52KT 10SM FEW023 BKN100 07/03 A2968 RMK PK WND 25055/0943 SLP048 T00670028",
  "station": "KNUW",
  "time": {
    "repr": "210953Z",
    "dt": "2023-02-21T09:53:00Z"
  },
  "remarks": "RMK PK WND 25055/0943 SLP048 T00670028",
  "dewpoint": {
    "repr": "03",
    "value": 3,
    "spoken": "three"
  },
  "relative_humidity": 0.7616253744708832,
  "remarks_info": {
    "maximum_temperature_6": null,
    "minimum_temperature_6": null,
    "pressure_tendency": null,
    "precip_36_hours": null,
    "precip_24_hours": null,
    "sunshine_minutes": null,
    "codes": [],
    "dewpoint_decimal": {
      "repr": "0028",
      "value": 2.8,
      "spoken": "two point eight"
    },
    "maximum_temperature_24": null,
    "minimum_temperature_24": null,
    "precip_hourly": null,
    "sea_level_pressure": {
      "repr": "SLP048",
      "value": 1004.8,
      "spoken": "one zero zero four point eight"
    },
    "snow_depth": null,
    "temperature_decimal": {
      "repr": "0067",
      "value": 6.7,
      "spoken": "six point seven"
    }
  },
  "runway_visibility": [],
  "temperature": {
    "repr": "07",
    "value": 7,
    "spoken": "seven"
  },
  "wind_variable_direction": [],
  "density_altitude": -698,
  "pressure_altitude": 287,
  "units": {
    "accumulation": "in",
    "altimeter": "inHg",
    "altitude": "ft",
    "temperature": "C",
    "visibility": "sm",
    "wind_speed": "kt"
  }
}
