{
  "meta": {
    "timestamp": "2022-12-16T22:40:46.355951Z",
    "stations_updated": "2022-09-05"
  },
  "altimeter": {
    "repr": "A3038",
    "value": 30.38,
    "spoken": "three zero point three eight"
  },
  "clouds": [
    {
      "repr": "SCT015",
      "type": "SCT",
      "altitude": 15,
      "modifier": null
    },
    {
      "repr": "BKN035",
      "type": "BKN",
      "altitude": 35,
      "modifier": null
    },
    {
      "repr": "BKN200",
      "type": "BKN",
      "altitude": 200,
      "modifier": null
    }
  ],
  "flight_rules": "VFR",
  "other": [],
  "visibility": {
    "repr": "10",
    "value": 10,
    "spoken": "one zero"
  },
  "wind_direction": {
    "repr": "290",
    "value": 290,
    "spoken": "two nine zero"
  },
  "wind_gust": null,
  "wind_speed": {
    "repr": "04",
    "value": 4,
    "spoken": "four"
  },
  "wx_codes": [],
  "raw": "KNUW 162153Z 29004KT 10SM SCT015 BKN035 BKN200 06/02 A3038 RMK AO2 SLP286 T00560022 VISNO $",
  "sanitized": "KNUW 162153Z 29004KT 10SM SCT015 BKN035 BKN200 06/02 A3038 RMK AO2 SLP286 T00560022 VISNO $",
  "station": "KNUW",
  "time": {
    "repr": "162153Z",
    "dt": "2022-12-16T21:53:00Z"
  },
  "remarks": "RMK AO2 SLP286 T00560022 VISNO $",
  "dewpoint": {
    "repr": "02",
    "value": 2,
    "spoken": "two"
  },
  "relative_humidity": 0.787398568259771,
  "remarks_info": {
    "maximum_temperature_6": null,
    "minimum_temperature_6": null,
    "pressure_tendency": null,
    "precip_36_hours": null,
    "precip_24_hours": null,
    "sunshine_minutes": null,
    "codes": [
      {
        "repr": "$",
        "value": "ASOS requires maintenance"
      },
      {
        "repr": "AO2",
        "value": "Automated with precipitation sensor"
      }
    ],
    "dewpoint_decimal": {
      "repr": "0022",
      "value": 2.2,
      "spoken": "two point two"
    },
    "maximum_temperature_24": null,
    "minimum_temperature_24": null,
    "precip_hourly": null,
    "sea_level_pressure": {
      "repr": "SLP286",
      "value": 1028.6,
      "spoken": "one zero two eight point six"
    },
    "snow_depth": null,
    "temperature_decimal": {
      "repr": "0056",
      "value": 5.6,
      "spoken": "five point six"
    }
  },
  "runway_visibility": [],
  "temperature": {
    "repr": "06",
    "value": 6,
    "spoken": "six"
  },
  "wind_variable_direction": [],
  "density_altitude": -1530,
  "pressure_altitude": -413,
  "units": {
    "accumulation": "in",
    "altimeter": "inHg",
    "altitude": "ft",
    "temperature": "C",
    "visibility": "sm",
    "wind_speed": "kt"
  }
}
