{
  "altimeter": {
    "repr": "A2990",
    "spoken": "two nine point nine zero",
    "value": 29.9
  },
  "clouds": [
    {
      "altitude": 55,
      "modifier": null,
      "repr": "BKN055",
      "type": "BKN"
    }
  ],
  "density_altitude": -726,
  "dewpoint": {
    "repr": "07",
    "spoken": "seven",
    "value": 7
  },
  "flight_rules": "VFR",
  "meta": {
    "stations_updated": "2024-10-29",
    "timestamp": "2024-11-12T14:07:08.482136Z"
  },
  "other": [],
  "pressure_altitude": 67,
  "raw": "KNUW 121353Z 17005KT 10SM BKN055 08/07 A2990 RMK AO2 SLP128 T00830067 $",
  "relative_humidity": 0.8964857337002037,
  "remarks": "RMK AO2 SLP128 T00830067 $",
  "remarks_info": {
    "codes": [
      {
        "repr": "$",
        "value": "ASOS requires maintenance"
      },
      {
        "repr": "AO2",
        "value": "Automated with precipitation sensor"
      }
    ],
    "dewpoint_decimal": {
      "repr": "0067",
      "spoken": "six point seven",
      "value": 6.7
    },
    "maximum_temperature_24": null,
    "maximum_temperature_6": null,
    "minimum_temperature_24": null,
    "minimum_temperature_6": null,
    "precip_24_hours": null,
    "precip_36_hours": null,
    "precip_hourly": null,
    "pressure_tendency": null,
    "sea_level_pressure": {
      "repr": "SLP128",
      "spoken": "one zero one two point eight",
      "value": 1012.8
    },
    "snow_depth": null,
    "sunshine_minutes": null,
    "temperature_decimal": {
      "repr": "0083",
      "spoken": "eight point three",
      "value": 8.3
    }
  },
  "runway_visibility": [],
  "sanitized": "KNUW 121353Z 17005KT 10SM BKN055 08/07 A2990 RMK AO2 SLP128 T00830067 $",
  "station": "KNUW",
  "temperature": {
    "repr": "08",
    "spoken": "eight",
    "value": 8
  },
  "time": {
    "dt": "2024-11-12T13:53:00Z",
    "repr": "121353Z"
  },
  "units": {
    "accumulation": "in",
    "altimeter": "inHg",
    "altitude": "ft",
    "temperature": "C",
    "visibility": "sm",
    "wind_speed": "kt"
  },
  "visibility": {
    "repr": "10",
    "spoken": "one zero",
    "value": 10
  },
  "wind_direction": {
    "repr": "170",
    "spoken": "one seven zero",
    "value": 170
  },
  "wind_gust": null,
  "wind_speed": {
    "repr": "05",
    "spoken": "five",
    "value": 5
  },
  "wind_variable_direction": [],
  "wx_codes": []
}
