{
  "altimeter": {
    "repr": "A3018",
    "spoken": "three zero point one eight",
    "value": 30.18
  },
  "clouds": [
    {
      "altitude": 18,
      "modifier": null,
      "repr": "FEW018",
      "type": "FEW"
    },
    {
      "altitude": 42,
      "modifier": null,
      "repr": "OVC042",
      "type": "OVC"
    }
  ],
  "density_altitude": -1066,
  "dewpoint": {
    "repr": "06",
    "spoken": "six",
    "value": 6
  },
  "flight_rules": "VFR",
  "meta": {
    "cache-timestamp": "2024-02-24T11:40:05.325000Z",
    "stations_updated": "2024-01-01",
    "timestamp": "2024-02-24T11:40:45.620627Z"
  },
  "other": [],
  "pressure_altitude": -213,
  "raw": "KNUW 241053Z 27012KT 8SM -RA FEW018 OVC042 08/06 A3018 RMK AO2 SLP224 P0001 T00780061 $",
  "relative_humidity": 0.8899294340036578,
  "remarks": "RMK AO2 SLP224 P0001 T00780061 $",
  "remarks_info": {
    "codes": [
      {
        "repr": "$",
        "value": "ASOS requires maintenance"
      },
      {
        "repr": "AO2",
        "value": "Automated with precipitation sensor"
      }
    ],
    "dewpoint_decimal": {
      "repr": "0061",
      "spoken": "six point one",
      "value": 6.1
    },
    "maximum_temperature_24": null,
    "maximum_temperature_6": null,
    "minimum_temperature_24": null,
    "minimum_temperature_6": null,
    "precip_24_hours": null,
    "precip_36_hours": null,
    "precip_hourly": {
      "repr": "P0001",
      "spoken": "zero point zero one",
      "value": 0.01
    },
    "pressure_tendency": null,
    "sea_level_pressure": {
      "repr": "SLP224",
      "spoken": "one zero two two point four",
      "value": 1022.4
    },
    "snow_depth": null,
    "sunshine_minutes": null,
    "temperature_decimal": {
      "repr": "0078",
      "spoken": "seven point eight",
      "value": 7.8
    }
  },
  "runway_visibility": [],
  "sanitized": "KNUW 241053Z 27012KT 8SM -RA FEW018 OVC042 08/06 A3018 RMK AO2 SLP224 P0001 T00780061 $",
  "station": "KNUW",
  "temperature": {
    "repr": "08",
    "spoken": "eight",
    "value": 8
  },
  "time": {
    "dt": "2024-02-24T10:53:00Z",
    "repr": "241053Z"
  },
  "units": {
    "accumulation": "in",
    "altimeter": "inHg",
    "altitude": "ft",
    "temperature": "C",
    "visibility": "sm",
    "wind_speed": "kt"
  },
  "visibility": {
    "repr": "8",
    "spoken": "eight",
    "value": 8
  },
  "wind_direction": {
    "repr": "270",
    "spoken": "two seven zero",
    "value": 270
  },
  "wind_gust": null,
  "wind_speed": {
    "repr": "12",
    "spoken": "one two",
    "value": 12
  },
  "wind_variable_direction": [],
  "wx_codes": [
    {
      "repr": "-RA",
      "value": "Light Rain"
    }
  ]
}
