{
  "altimeter": {
    "repr": "A2999",
    "spoken": "two nine point nine nine",
    "value": 29.99
  },
  "clouds": [],
  "density_altitude": 792,
  "dewpoint": {
    "repr": "13",
    "spoken": "one three",
    "value": 13
  },
  "flight_rules": "VFR",
  "meta": {
    "stations_updated": "2024-06-12",
    "timestamp": "2024-07-07T00:33:24.191472Z"
  },
  "other": [],
  "pressure_altitude": -23,
  "raw": "KNUW 062353Z 31005KT 10SM SKC 22/13 A2999 RMK SLP158 T02170128 10233 20200 56012",
  "relative_humidity": 0.5692801813356402,
  "remarks": "RMK SLP158 T02170128 10233 20200 56012",
  "remarks_info": {
    "codes": [],
    "dewpoint_decimal": {
      "repr": "0128",
      "spoken": "one two point eight",
      "value": 12.8
    },
    "maximum_temperature_24": null,
    "maximum_temperature_6": {
      "repr": "10233",
      "spoken": "two three point three",
      "value": 23.3
    },
    "minimum_temperature_24": null,
    "minimum_temperature_6": {
      "repr": "20200",
      "spoken": "two zero point zero",
      "value": 20
    },
    "precip_24_hours": null,
    "precip_36_hours": null,
    "precip_hourly": null,
    "pressure_tendency": {
      "change": 1.2,
      "repr": "56012",
      "tendency": "Decreasing, then steady"
    },
    "sea_level_pressure": {
      "repr": "SLP158",
      "spoken": "one zero one five point eight",
      "value": 1015.8
    },
    "snow_depth": null,
    "sunshine_minutes": null,
    "temperature_decimal": {
      "repr": "0217",
      "spoken": "two one point seven",
      "value": 21.7
    }
  },
  "runway_visibility": [],
  "sanitized": "KNUW 062353Z 31005KT 10SM 22/13 A2999 RMK SLP158 T02170128 10233 20200 56012",
  "station": "KNUW",
  "temperature": {
    "repr": "22",
    "spoken": "two two",
    "value": 22
  },
  "time": {
    "dt": "2024-07-06T23:53:00Z",
    "repr": "062353Z"
  },
  "units": {
    "accumulation": "in",
    "altimeter": "inHg",
    "altitude": "ft",
    "temperature": "C",
    "visibility": "sm",
    "wind_speed": "kt"
  },
  "visibility": {
    "repr": "10",
    "spoken": "one zero",
    "value": 10
  },
  "wind_direction": {
    "repr": "310",
    "spoken": "three one zero",
    "value": 310
  },
  "wind_gust": null,
  "wind_speed": {
    "repr": "05",
    "spoken": "five",
    "value": 5
  },
  "wind_variable_direction": [],
  "wx_codes": []
}
