{
  "altimeter": {
    "repr": "A3042",
    "spoken": "three zero point four two",
    "value": 30.42
  },
  "clouds": [],
  "density_altitude": -3238,
  "dewpoint": {
    "repr": "M10",
    "spoken": "minus one zero",
    "value": -10
  },
  "flight_rules": "VFR",
  "meta": {
    "cache-timestamp": "2024-01-15T16:32:02.877000Z",
    "stations_updated": "2023-10-28",
    "timestamp": "2024-01-15T16:32:33.276865Z"
  },
  "other": [],
  "pressure_altitude": -453,
  "raw": "KNUW 151553Z AUTO 11004KT 10SM CLR M08/M10 A3042 RMK AO2 SLP306 T10831100 $",
  "relative_humidity": 0.875301825615363,
  "remarks": "RMK AO2 SLP306 T10831100 $",
  "remarks_info": {
    "codes": [
      {
        "repr": "$",
        "value": "ASOS requires maintenance"
      },
      {
        "repr": "AO2",
        "value": "Automated with precipitation sensor"
      }
    ],
    "dewpoint_decimal": {
      "repr": "1100",
      "spoken": "minus one zero point zero",
      "value": -10
    },
    "maximum_temperature_24": null,
    "maximum_temperature_6": null,
    "minimum_temperature_24": null,
    "minimum_temperature_6": null,
    "precip_24_hours": null,
    "precip_36_hours": null,
    "precip_hourly": null,
    "pressure_tendency": null,
    "sea_level_pressure": {
      "repr": "SLP306",
      "spoken": "one zero three zero point six",
      "value": 1030.6
    },
    "snow_depth": null,
    "sunshine_minutes": null,
    "temperature_decimal": {
      "repr": "1083",
      "spoken": "minus eight point three",
      "value": -8.3
    }
  },
  "runway_visibility": [],
  "sanitized": "KNUW 151553Z 11004KT 10SM M08/M10 A3042 RMK AO2 SLP306 T10831100 $",
  "station": "KNUW",
  "temperature": {
    "repr": "M08",
    "spoken": "minus eight",
    "value": -8
  },
  "time": {
    "dt": "2024-01-15T15:53:00Z",
    "repr": "151553Z"
  },
  "units": {
    "accumulation": "in",
    "altimeter": "inHg",
    "altitude": "ft",
    "temperature": "C",
    "visibility": "sm",
    "wind_speed": "kt"
  },
  "visibility": {
    "repr": "10",
    "spoken": "one zero",
    "value": 10
  },
  "wind_direction": {
    "repr": "110",
    "spoken": "one one zero",
    "value": 110
  },
  "wind_gust": null,
  "wind_speed": {
    "repr": "04",
    "spoken": "four",
    "value": 4
  },
  "wind_variable_direction": [],
  "wx_codes": []
}
