{
  "meta": {
    "timestamp": "2023-06-17T21:01:21.556015Z",
    "stations_updated": "2023-06-06"
  },
  "altimeter": {
    "repr": "A3002",
    "value": 30.02,
    "spoken": "three zero point zero two"
  },
  "clouds": [
    {
      "repr": "BKN038",
      "type": "BKN",
      "altitude": 38,
      "modifier": null
    },
    {
      "repr": "BKN220",
      "type": "BKN",
      "altitude": 220,
      "modifier": null
    }
  ],
  "flight_rules": "VFR",
  "other": [],
  "visibility": {
    "repr": "10",
    "value": 10,
    "spoken": "one zero"
  },
  "wind_direction": {
    "repr": "250",
    "value": 250,
    "spoken": "two five zero"
  },
  "wind_gust": null,
  "wind_speed": {
    "repr": "14",
    "value": 14,
    "spoken": "one four"
  },
  "wx_codes": [],
  "raw": "KNUW 172053Z 25014KT 10SM BKN038 BKN220 15/07 A3002 RMK AO2 SLP169 T01500072 58007 VISNO $",
  "sanitized": "KNUW 172053Z 25014KT 10SM BKN038 BKN220 15/07 A3002 RMK AO2 SLP169 T01500072 58007 VISNO $",
  "station": "KNUW",
  "time": {
    "repr": "172053Z",
    "dt": "2023-06-17T20:53:00Z"
  },
  "remarks": "RMK AO2 SLP169 T01500072 58007 VISNO $",
  "dewpoint": {
    "repr": "07",
    "value": 7,
    "spoken": "seven"
  },
  "relative_humidity": 0.5957921457464206,
  "remarks_info": {
    "maximum_temperature_6": null,
    "minimum_temperature_6": null,
    "pressure_tendency": {
      "repr": "58007",
      "tendency": "Steady or increasing, then decreasing",
      "change": 0.7
    },
    "precip_36_hours": null,
    "precip_24_hours": null,
    "sunshine_minutes": null,
    "codes": [
      {
        "repr": "$",
        "value": "ASOS requires maintenance"
      },
      {
        "repr": "AO2",
        "value": "Automated with precipitation sensor"
      }
    ],
    "dewpoint_decimal": {
      "repr": "0072",
      "value": 7.2,
      "spoken": "seven point two"
    },
    "maximum_temperature_24": null,
    "minimum_temperature_24": null,
    "precip_hourly": null,
    "sea_level_pressure": {
      "repr": "SLP169",
      "value": 1016.9,
      "spoken": "one zero one six point nine"
    },
    "snow_depth": null,
    "temperature_decimal": {
      "repr": "0150",
      "value": 15,
      "spoken": "one five point zero"
    }
  },
  "runway_visibility": [],
  "temperature": {
    "repr": "15",
    "value": 15,
    "spoken": "one five"
  },
  "wind_variable_direction": [],
  "density_altitude": -42,
  "pressure_altitude": -53,
  "units": {
    "accumulation": "in",
    "altimeter": "inHg",
    "altitude": "ft",
    "temperature": "C",
    "visibility": "sm",
    "wind_speed": "kt"
  }
}
