{
  "meta": {
    "timestamp": "2022-11-18T15:02:49.444666Z",
    "stations_updated": "2022-09-05"
  },
  "altimeter": {
    "repr": "A3056",
    "value": 30.56,
    "spoken": "three zero point five six"
  },
  "clouds": [],
  "flight_rules": "VFR",
  "other": [],
  "visibility": {
    "repr": "10",
    "value": 10,
    "spoken": "one zero"
  },
  "wind_direction": {
    "repr": "110",
    "value": 110,
    "spoken": "one one zero"
  },
  "wind_gust": null,
  "wind_speed": {
    "repr": "03",
    "value": 3,
    "spoken": "three"
  },
  "wx_codes": [],
  "raw": "KNUW 181453Z 11003KT 10SM CLR M01/M06 A3056 RMK AO2 SLP347 T10061056 52002 VISNO $",
  "sanitized": "KNUW 181453Z 11003KT 10SM M01/M06 A3056 RMK AO2 SLP347 T10061056 52002 VISNO $",
  "station": "KNUW",
  "time": {
    "repr": "181453Z",
    "dt": "2022-11-18T14:53:00Z"
  },
  "remarks": "RMK AO2 SLP347 T10061056 52002 VISNO $",
  "dewpoint": {
    "repr": "M06",
    "value": -6,
    "spoken": "minus six"
  },
  "relative_humidity": 0.6891530640211009,
  "remarks_info": {
    "maximum_temperature_6": null,
    "minimum_temperature_6": null,
    "pressure_tendency": {
      "repr": "52002",
      "tendency": "Increasing steadily or unsteadily",
      "change": 0.2
    },
    "precip_36_hours": null,
    "precip_24_hours": null,
    "sunshine_minutes": null,
    "codes": [
      {
        "repr": "$",
        "value": "ASOS requires maintenance"
      },
      {
        "repr": "AO2",
        "value": "Automated with precipitation sensor"
      }
    ],
    "dewpoint_decimal": {
      "repr": "1056",
      "value": -5.6,
      "spoken": "minus five point six"
    },
    "maximum_temperature_24": null,
    "minimum_temperature_24": null,
    "precip_hourly": null,
    "sea_level_pressure": {
      "repr": "SLP347",
      "value": 1034.7,
      "spoken": "one zero three four point seven"
    },
    "snow_depth": null,
    "temperature_decimal": {
      "repr": "1006",
      "value": -0.6,
      "spoken": "minus zero point six"
    }
  },
  "runway_visibility": [],
  "temperature": {
    "repr": "M01",
    "value": -1,
    "spoken": "minus one"
  },
  "wind_variable_direction": [],
  "density_altitude": -2454,
  "pressure_altitude": -593,
  "units": {
    "accumulation": "in",
    "altimeter": "inHg",
    "altitude": "ft",
    "temperature": "C",
    "visibility": "sm",
    "wind_speed": "kt"
  }
}
