{
  "meta": {
    "timestamp": "2023-03-31T18:40:53.083396Z",
    "stations_updated": "2023-03-11",
    "cache-timestamp": "2023-03-31T18:40:06.556000Z"
  },
  "altimeter": {
    "repr": "A2989",
    "value": 29.89,
    "spoken": "two nine point eight nine"
  },
  "clouds": [
    {
      "repr": "SCT022",
      "type": "SCT",
      "altitude": 22,
      "modifier": null
    },
    {
      "repr": "BKN028",
      "type": "BKN",
      "altitude": 28,
      "modifier": null
    },
    {
      "repr": "OVC040",
      "type": "OVC",
      "altitude": 40,
      "modifier": null
    }
  ],
  "flight_rules": "MVFR",
  "other": [],
  "visibility": {
    "repr": "10",
    "value": 10,
    "spoken": "one zero"
  },
  "wind_direction": {
    "repr": "160",
    "value": 160,
    "spoken": "one six zero"
  },
  "wind_gust": {
    "repr": "29",
    "value": 29,
    "spoken": "two nine"
  },
  "wind_speed": {
    "repr": "18",
    "value": 18,
    "spoken": "one eight"
  },
  "wx_codes": [],
  "raw": "KNUW 311819Z 16018G29KT 10SM SCT022 BKN028 OVC040 08/04 A2989 RMK AO2 PK WND 14029/1812 T00780039 VISNO $",
  "sanitized": "KNUW 311819Z 16018G29KT 10SM SCT022 BKN028 OVC040 08/04 A2989 RMK AO2 PK WND 14029/1812 T00780039 VISNO $",
  "station": "KNUW",
  "time": {
    "repr": "311819Z",
    "dt": "2023-03-31T18:19:00Z"
  },
  "remarks": "RMK AO2 PK WND 14029/1812 T00780039 VISNO $",
  "dewpoint": {
    "repr": "04",
    "value": 4,
    "spoken": "four"
  },
  "relative_humidity": 0.7634534383263296,
  "remarks_info": {
    "maximum_temperature_6": null,
    "minimum_temperature_6": null,
    "pressure_tendency": null,
    "precip_36_hours": null,
    "precip_24_hours": null,
    "sunshine_minutes": null,
    "codes": [
      {
        "repr": "$",
        "value": "ASOS requires maintenance"
      },
      {
        "repr": "AO2",
        "value": "Automated with precipitation sensor"
      }
    ],
    "dewpoint_decimal": {
      "repr": "0039",
      "value": 3.9,
      "spoken": "three point nine"
    },
    "maximum_temperature_24": null,
    "minimum_temperature_24": null,
    "precip_hourly": null,
    "sea_level_pressure": null,
    "snow_depth": null,
    "temperature_decimal": {
      "repr": "0078",
      "value": 7.8,
      "spoken": "seven point eight"
    }
  },
  "runway_visibility": [],
  "temperature": {
    "repr": "08",
    "value": 8,
    "spoken": "eight"
  },
  "wind_variable_direction": [],
  "density_altitude": -776,
  "pressure_altitude": 77,
  "units": {
    "accumulation": "in",
    "altimeter": "inHg",
    "altitude": "ft",
    "temperature": "C",
    "visibility": "sm",
    "wind_speed": "kt"
  }
}
