{
  "meta": {
    "timestamp": "2022-12-02T07:24:35.131568Z",
    "stations_updated": "2022-09-05"
  },
  "altimeter": {
    "repr": "A2999",
    "value": 29.99,
    "spoken": "two nine point nine nine"
  },
  "clouds": [
    {
      "repr": "FEW032",
      "type": "FEW",
      "altitude": 32,
      "modifier": null
    },
    {
      "repr": "SCT055",
      "type": "SCT",
      "altitude": 55,
      "modifier": null
    },
    {
      "repr": "SCT200",
      "type": "SCT",
      "altitude": 200,
      "modifier": null
    }
  ],
  "flight_rules": "VFR",
  "other": [],
  "visibility": {
    "repr": "10",
    "value": 10,
    "spoken": "one zero"
  },
  "wind_direction": {
    "repr": "090",
    "value": 90,
    "spoken": "zero nine zero"
  },
  "wind_gust": null,
  "wind_speed": {
    "repr": "06",
    "value": 6,
    "spoken": "six"
  },
  "wx_codes": [],
  "raw": "KNUW 020653Z 09006KT 10SM FEW032 SCT055 SCT200 M03/M07 A2999 RMK AO2 SLP155 T10281067 VISNO $",
  "sanitized": "KNUW 020653Z 09006KT 10SM FEW032 SCT055 SCT200 M03/M07 A2999 RMK AO2 SLP155 T10281067 VISNO $",
  "station": "KNUW",
  "time": {
    "repr": "020653Z",
    "dt": "2022-12-02T06:53:00Z"
  },
  "remarks": "RMK AO2 SLP155 T10281067 VISNO $",
  "dewpoint": {
    "repr": "M07",
    "value": -7,
    "spoken": "minus seven"
  },
  "relative_humidity": 0.7449761537350877,
  "remarks_info": {
    "maximum_temperature_6": null,
    "minimum_temperature_6": null,
    "pressure_tendency": null,
    "precip_36_hours": null,
    "precip_24_hours": null,
    "sunshine_minutes": null,
    "codes": [
      {
        "repr": "$",
        "value": "ASOS requires maintenance"
      },
      {
        "repr": "AO2",
        "value": "Automated with precipitation sensor"
      }
    ],
    "dewpoint_decimal": {
      "repr": "1067",
      "value": -6.7,
      "spoken": "minus six point seven"
    },
    "maximum_temperature_24": null,
    "minimum_temperature_24": null,
    "precip_hourly": null,
    "sea_level_pressure": {
      "repr": "SLP155",
      "value": 1015.5,
      "spoken": "one zero one five point five"
    },
    "snow_depth": null,
    "temperature_decimal": {
      "repr": "1028",
      "value": -2.8,
      "spoken": "minus two point eight"
    }
  },
  "runway_visibility": [],
  "temperature": {
    "repr": "M03",
    "value": -3,
    "spoken": "minus three"
  },
  "wind_variable_direction": [],
  "density_altitude": -2148,
  "pressure_altitude": -23,
  "units": {
    "accumulation": "in",
    "altimeter": "inHg",
    "altitude": "ft",
    "temperature": "C",
    "visibility": "sm",
    "wind_speed": "kt"
  }
}
