{
  "altimeter": {
    "repr": "A2948",
    "spoken": "two nine point four eight",
    "value": 29.48
  },
  "clouds": [
    {
      "altitude": 26,
      "modifier": null,
      "repr": "BKN026",
      "type": "BKN"
    },
    {
      "altitude": 33,
      "modifier": null,
      "repr": "OVC033",
      "type": "OVC"
    }
  ],
  "density_altitude": -366,
  "dewpoint": {
    "repr": "04",
    "spoken": "four",
    "value": 4
  },
  "flight_rules": "MVFR",
  "meta": {
    "stations_updated": "2023-10-28",
    "timestamp": "2024-01-09T18:23:59.638972Z"
  },
  "other": [],
  "pressure_altitude": 487,
  "raw": "KNUW 091807Z 24027G35KT 10SM BKN026 OVC033 08/04 A2948 RMK AO2 PK WND 25035/1807 WSHFT 1747 RAE02 P0000 T00780044",
  "relative_humidity": 0.790708747439943,
  "remarks": "RMK AO2 PK WND 25035/1807 WSHFT 1747 RAE02 P0000 T00780044",
  "remarks_info": {
    "codes": [
      {
        "repr": "AO2",
        "value": "Automated with precipitation sensor"
      },
      {
        "repr": "P0000",
        "value": "Trace amount of rain in the last hour"
      },
      {
        "repr": "RAE02",
        "value": "Rain ended at :02"
      }
    ],
    "dewpoint_decimal": {
      "repr": "0044",
      "spoken": "four point four",
      "value": 4.4
    },
    "maximum_temperature_24": null,
    "maximum_temperature_6": null,
    "minimum_temperature_24": null,
    "minimum_temperature_6": null,
    "precip_24_hours": null,
    "precip_36_hours": null,
    "precip_hourly": null,
    "pressure_tendency": null,
    "sea_level_pressure": null,
    "snow_depth": null,
    "sunshine_minutes": null,
    "temperature_decimal": {
      "repr": "0078",
      "spoken": "seven point eight",
      "value": 7.8
    }
  },
  "runway_visibility": [],
  "sanitized": "KNUW 091807Z 24027G35KT 10SM BKN026 OVC033 08/04 A2948 RMK AO2 PK WND 25035/1807 WSHFT 1747 RAE02 P0000 T00780044",
  "station": "KNUW",
  "temperature": {
    "repr": "08",
    "spoken": "eight",
    "value": 8
  },
  "time": {
    "dt": "2024-01-09T18:07:00Z",
    "repr": "091807Z"
  },
  "units": {
    "accumulation": "in",
    "altimeter": "inHg",
    "altitude": "ft",
    "temperature": "C",
    "visibility": "sm",
    "wind_speed": "kt"
  },
  "visibility": {
    "repr": "10",
    "spoken": "one zero",
    "value": 10
  },
  "wind_direction": {
    "repr": "240",
    "spoken": "two four zero",
    "value": 240
  },
  "wind_gust": {
    "repr": "35",
    "spoken": "three five",
    "value": 35
  },
  "wind_speed": {
    "repr": "27",
    "spoken": "two seven",
    "value": 27
  },
  "wind_variable_direction": [],
  "wx_codes": []
}
