{
  "meta": {
    "timestamp": "2022-11-19T02:25:05.562238Z",
    "stations_updated": "2022-09-05"
  },
  "altimeter": {
    "repr": "A3046",
    "value": 30.46,
    "spoken": "three zero point four six"
  },
  "clouds": [
    {
      "repr": "FEW220",
      "type": "FEW",
      "altitude": 220,
      "modifier": null
    }
  ],
  "flight_rules": "VFR",
  "other": [],
  "visibility": {
    "repr": "10",
    "value": 10,
    "spoken": "one zero"
  },
  "wind_direction": {
    "repr": "230",
    "value": 230,
    "spoken": "two three zero"
  },
  "wind_gust": null,
  "wind_speed": {
    "repr": "03",
    "value": 3,
    "spoken": "three"
  },
  "wx_codes": [],
  "raw": "KNUW 190153Z 23003KT 10SM FEW220 02/M04 A3046 RMK AO2 SLP313 T00221044 VISNO $",
  "sanitized": "KNUW 190153Z 23003KT 10SM FEW220 02/M04 A3046 RMK AO2 SLP313 T00221044 VISNO $",
  "station": "KNUW",
  "time": {
    "repr": "190153Z",
    "dt": "2022-11-19T01:53:00Z"
  },
  "remarks": "RMK AO2 SLP313 T00221044 VISNO $",
  "dewpoint": {
    "repr": "M04",
    "value": -4,
    "spoken": "minus four"
  },
  "relative_humidity": 0.6166912882939231,
  "remarks_info": {
    "maximum_temperature_6": null,
    "minimum_temperature_6": null,
    "pressure_tendency": null,
    "precip_36_hours": null,
    "precip_24_hours": null,
    "sunshine_minutes": null,
    "codes": [
      {
        "repr": "$",
        "value": "ASOS requires maintenance"
      },
      {
        "repr": "AO2",
        "value": "Automated with precipitation sensor"
      }
    ],
    "dewpoint_decimal": {
      "repr": "1044",
      "value": -4.4,
      "spoken": "minus four point four"
    },
    "maximum_temperature_24": null,
    "minimum_temperature_24": null,
    "precip_hourly": null,
    "sea_level_pressure": {
      "repr": "SLP313",
      "value": 1031.3,
      "spoken": "one zero three one point three"
    },
    "snow_depth": null,
    "temperature_decimal": {
      "repr": "0022",
      "value": 2.2,
      "spoken": "two point two"
    }
  },
  "runway_visibility": [],
  "temperature": {
    "repr": "02",
    "value": 2,
    "spoken": "two"
  },
  "wind_variable_direction": [],
  "density_altitude": -2018,
  "pressure_altitude": -493,
  "units": {
    "accumulation": "in",
    "altimeter": "inHg",
    "altitude": "ft",
    "temperature": "C",
    "visibility": "sm",
    "wind_speed": "kt"
  }
}
