{
  "meta": {
    "timestamp": "2023-10-17T14:01:41.074635Z",
    "stations_updated": "2023-10-01"
  },
  "altimeter": {
    "repr": "A3017",
    "value": 30.17,
    "spoken": "three zero point one seven"
  },
  "clouds": [
    {
      "repr": "FEW030",
      "type": "FEW",
      "altitude": 30,
      "modifier": null
    },
    {
      "repr": "SCT120",
      "type": "SCT",
      "altitude": 120,
      "modifier": null
    },
    {
      "repr": "BKN210",
      "type": "BKN",
      "altitude": 210,
      "modifier": null
    }
  ],
  "flight_rules": "VFR",
  "other": [],
  "visibility": {
    "repr": "10",
    "value": 10,
    "spoken": "one zero"
  },
  "wind_direction": {
    "repr": "100",
    "value": 100,
    "spoken": "one zero zero"
  },
  "wind_gust": null,
  "wind_speed": {
    "repr": "06",
    "value": 6,
    "spoken": "six"
  },
  "wx_codes": [],
  "raw": "KNUW 171353Z 10006KT 10SM FEW030 SCT120 BKN210 10/09 A3017 RMK AO2 SLP221 T01000094 $ KNUW 171253Z 11008KT 10SM FEW031 SCT075 SCT120 BKN210 10/09 A3017 RMK AO2 SLP219 T01000094 $",
  "sanitized": "KNUW 171353Z 10006KT 10SM FEW030 SCT120 BKN210 10/09 A3017 RMK AO2 SLP221 T01000094 $ KNUW 171253Z 11008KT 10SM FEW031 SCT075 SCT120 BKN210 10/09 A3017 RMK AO2 SLP219 T01000094 $",
  "station": "KNUW",
  "time": {
    "repr": "171353Z",
    "dt": "2023-10-17T13:53:00Z"
  },
  "remarks": "RMK AO2 SLP221 T01000094 $ KNUW 171253Z 11008KT 10SM FEW031 SCT075 SCT120 BKN210 10/09 A3017 RMK AO2 SLP219 T01000094 $",
  "dewpoint": {
    "repr": "09",
    "value": 9,
    "spoken": "nine"
  },
  "relative_humidity": 0.9605319898773285,
  "remarks_info": {
    "maximum_temperature_6": null,
    "minimum_temperature_6": null,
    "pressure_tendency": null,
    "precip_36_hours": null,
    "precip_24_hours": null,
    "sunshine_minutes": null,
    "codes": [
      {
        "repr": "$",
        "value": "ASOS requires maintenance"
      },
      {
        "repr": "$",
        "value": "ASOS requires maintenance"
      },
      {
        "repr": "AO2",
        "value": "Automated with precipitation sensor"
      },
      {
        "repr": "AO2",
        "value": "Automated with precipitation sensor"
      }
    ],
    "dewpoint_decimal": {
      "repr": "0094",
      "value": 9.4,
      "spoken": "nine point four"
    },
    "maximum_temperature_24": null,
    "minimum_temperature_24": null,
    "precip_hourly": null,
    "sea_level_pressure": {
      "repr": "SLP221",
      "value": 1022.1,
      "spoken": "one zero two two point one"
    },
    "snow_depth": null,
    "temperature_decimal": {
      "repr": "0100",
      "value": 10,
      "spoken": "one zero point zero"
    }
  },
  "runway_visibility": [],
  "temperature": {
    "repr": "10",
    "value": 10,
    "spoken": "one zero"
  },
  "wind_variable_direction": [],
  "density_altitude": -792,
  "pressure_altitude": -203,
  "units": {
    "accumulation": "in",
    "altimeter": "inHg",
    "altitude": "ft",
    "temperature": "C",
    "visibility": "sm",
    "wind_speed": "kt"
  }
}
