{
  "meta": {
    "timestamp": "2023-05-08T13:07:35.314357Z",
    "stations_updated": "2023-03-11"
  },
  "altimeter": {
    "repr": "A2999",
    "value": 29.99,
    "spoken": "two nine point nine nine"
  },
  "clouds": [
    {
      "repr": "SCT090",
      "type": "SCT",
      "altitude": 90,
      "modifier": null
    },
    {
      "repr": "SCT110",
      "type": "SCT",
      "altitude": 110,
      "modifier": null
    }
  ],
  "flight_rules": "IFR",
  "other": [],
  "visibility": {
    "repr": "5/4",
    "value": 1.25,
    "spoken": "one and one quarter",
    "numerator": 5,
    "denominator": 4,
    "normalized": "1 1/4"
  },
  "wind_direction": {
    "repr": "120",
    "value": 120,
    "spoken": "one two zero"
  },
  "wind_gust": null,
  "wind_speed": {
    "repr": "03",
    "value": 3,
    "spoken": "three"
  },
  "wx_codes": [
    {
      "repr": "BCFG",
      "value": "Patchy Fog"
    }
  ],
  "raw": "KNUW 081305Z 12003KT 1 1/4SM BCFG SCT090 SCT110 06/05 A2999 RMK AO2 T00610050 VISNO",
  "sanitized": "KNUW 081305Z 12003KT 1 1/4SM BCFG SCT090 SCT110 06/05 A2999 RMK AO2 T00610050 VISNO",
  "station": "KNUW",
  "time": {
    "repr": "081305Z",
    "dt": "2023-05-08T13:05:00Z"
  },
  "remarks": "RMK AO2 T00610050 VISNO",
  "dewpoint": {
    "repr": "05",
    "value": 5,
    "spoken": "five"
  },
  "relative_humidity": 0.9265328822020961,
  "remarks_info": {
    "maximum_temperature_6": null,
    "minimum_temperature_6": null,
    "pressure_tendency": null,
    "precip_36_hours": null,
    "precip_24_hours": null,
    "sunshine_minutes": null,
    "codes": [
      {
        "repr": "AO2",
        "value": "Automated with precipitation sensor"
      }
    ],
    "dewpoint_decimal": {
      "repr": "0050",
      "value": 5,
      "spoken": "five point zero"
    },
    "maximum_temperature_24": null,
    "minimum_temperature_24": null,
    "precip_hourly": null,
    "sea_level_pressure": null,
    "snow_depth": null,
    "temperature_decimal": {
      "repr": "0061",
      "value": 6.1,
      "spoken": "six point one"
    }
  },
  "runway_visibility": [],
  "temperature": {
    "repr": "06",
    "value": 6,
    "spoken": "six"
  },
  "wind_variable_direction": [],
  "density_altitude": -1080,
  "pressure_altitude": -23,
  "units": {
    "accumulation": "in",
    "altimeter": "inHg",
    "altitude": "ft",
    "temperature": "C",
    "visibility": "sm",
    "wind_speed": "kt"
  }
}
