{
  "meta": {
    "timestamp": "2022-11-24T05:40:40.735267Z",
    "stations_updated": "2022-09-05"
  },
  "altimeter": {
    "repr": "A3039",
    "value": 30.39,
    "spoken": "three zero point three nine"
  },
  "clouds": [],
  "flight_rules": "VFR",
  "other": [],
  "visibility": {
    "repr": "10",
    "value": 10,
    "spoken": "one zero"
  },
  "wind_direction": {
    "repr": "100",
    "value": 100,
    "spoken": "one zero zero"
  },
  "wind_gust": null,
  "wind_speed": {
    "repr": "07",
    "value": 7,
    "spoken": "seven"
  },
  "wx_codes": [],
  "raw": "KNUW 240453Z AUTO 10007KT 10SM CLR 06/04 A3039 RMK AO2 SLP289 T00610039 VISNO $",
  "sanitized": "KNUW 240453Z 10007KT 10SM 06/04 A3039 RMK AO2 SLP289 T00610039 VISNO $",
  "station": "KNUW",
  "time": {
    "repr": "240453Z",
    "dt": "2022-11-24T04:53:00Z"
  },
  "remarks": "RMK AO2 SLP289 T00610039 VISNO $",
  "dewpoint": {
    "repr": "04",
    "value": 4,
    "spoken": "four"
  },
  "relative_humidity": 0.8578808713986099,
  "remarks_info": {
    "maximum_temperature_6": null,
    "minimum_temperature_6": null,
    "pressure_tendency": null,
    "precip_36_hours": null,
    "precip_24_hours": null,
    "sunshine_minutes": null,
    "codes": [
      {
        "repr": "$",
        "value": "ASOS requires maintenance"
      },
      {
        "repr": "AO2",
        "value": "Automated with precipitation sensor"
      }
    ],
    "dewpoint_decimal": {
      "repr": "0039",
      "value": 3.9,
      "spoken": "three point nine"
    },
    "maximum_temperature_24": null,
    "minimum_temperature_24": null,
    "precip_hourly": null,
    "sea_level_pressure": {
      "repr": "SLP289",
      "value": 1028.9,
      "spoken": "one zero two eight point nine"
    },
    "snow_depth": null,
    "temperature_decimal": {
      "repr": "0061",
      "value": 6.1,
      "spoken": "six point one"
    }
  },
  "runway_visibility": [],
  "temperature": {
    "repr": "06",
    "value": 6,
    "spoken": "six"
  },
  "wind_variable_direction": [],
  "density_altitude": -1480,
  "pressure_altitude": -423,
  "units": {
    "accumulation": "in",
    "altimeter": "inHg",
    "altitude": "ft",
    "temperature": "C",
    "visibility": "sm",
    "wind_speed": "kt"
  }
}
