{
  "meta": {
    "timestamp": "2022-11-15T09:04:15.393993Z",
    "stations_updated": "2022-09-05"
  },
  "altimeter": {
    "repr": "A3052",
    "value": 30.52,
    "spoken": "three zero point five two"
  },
  "clouds": [
    {
      "repr": "SCT001",
      "type": "SCT",
      "altitude": 1,
      "modifier": null
    },
    {
      "repr": "SCT004",
      "type": "SCT",
      "altitude": 4,
      "modifier": null
    }
  ],
  "flight_rules": "MVFR",
  "other": [],
  "visibility": {
    "repr": "4",
    "value": 4,
    "spoken": "four"
  },
  "wind_direction": {
    "repr": "130",
    "value": 130,
    "spoken": "one three zero"
  },
  "wind_gust": null,
  "wind_speed": {
    "repr": "03",
    "value": 3,
    "spoken": "three"
  },
  "wx_codes": [
    {
      "repr": "BR",
      "value": "Mist"
    },
    {
      "repr": "BCFG",
      "value": "Patchy Fog"
    }
  ],
  "raw": "KNUW 150853Z 13003KT 4SM BR BCFG SCT001 SCT004 02/01 A3052 RMK AO2 SLP333 VIS E 3/4 T00170011 51005 VISNO $",
  "sanitized": "KNUW 150853Z 13003KT 4SM BR BCFG SCT001 SCT004 02/01 A3052 RMK AO2 SLP333 VIS E 3/4 T00170011 51005 VISNO $",
  "station": "KNUW",
  "time": {
    "repr": "150853Z",
    "dt": "2022-11-15T08:53:00Z"
  },
  "remarks": "RMK AO2 SLP333 VIS E 3/4 T00170011 51005 VISNO $",
  "dewpoint": {
    "repr": "01",
    "value": 1,
    "spoken": "one"
  },
  "relative_humidity": 0.9578695064206159,
  "remarks_info": {
    "maximum_temperature_6": null,
    "minimum_temperature_6": null,
    "pressure_tendency": {
      "repr": "51005",
      "tendency": "Increasing, then steady",
      "change": 0.5
    },
    "precip_36_hours": null,
    "precip_24_hours": null,
    "sunshine_minutes": null,
    "codes": [
      {
        "repr": "$",
        "value": "ASOS requires maintenance"
      },
      {
        "repr": "AO2",
        "value": "Automated with precipitation sensor"
      }
    ],
    "dewpoint_decimal": {
      "repr": "0011",
      "value": 1.1,
      "spoken": "one point one"
    },
    "maximum_temperature_24": null,
    "minimum_temperature_24": null,
    "precip_hourly": null,
    "sea_level_pressure": {
      "repr": "SLP333",
      "value": 1033.3,
      "spoken": "one zero three three point three"
    },
    "snow_depth": null,
    "temperature_decimal": {
      "repr": "0017",
      "value": 1.7,
      "spoken": "one point seven"
    }
  },
  "runway_visibility": [],
  "temperature": {
    "repr": "02",
    "value": 2,
    "spoken": "two"
  },
  "wind_variable_direction": [],
  "density_altitude": -2138,
  "pressure_altitude": -553,
  "units": {
    "accumulation": "in",
    "altimeter": "inHg",
    "altitude": "ft",
    "temperature": "C",
    "visibility": "sm",
    "wind_speed": "kt"
  }
}
