{
  "meta": {
    "timestamp": "2023-03-04T02:52:07.412396Z",
    "stations_updated": "2023-01-30"
  },
  "altimeter": {
    "repr": "A2977",
    "value": 29.77,
    "spoken": "two nine point seven seven"
  },
  "clouds": [
    {
      "repr": "SCT019",
      "type": "SCT",
      "altitude": 19,
      "modifier": null
    },
    {
      "repr": "BKN025",
      "type": "BKN",
      "altitude": 25,
      "modifier": null
    },
    {
      "repr": "BKN031",
      "type": "BKN",
      "altitude": 31,
      "modifier": null
    },
    {
      "repr": "OVC130",
      "type": "OVC",
      "altitude": 130,
      "modifier": null
    }
  ],
  "flight_rules": "MVFR",
  "other": [],
  "visibility": {
    "repr": "10",
    "value": 10,
    "spoken": "one zero"
  },
  "wind_direction": {
    "repr": "140",
    "value": 140,
    "spoken": "one four zero"
  },
  "wind_gust": {
    "repr": "32",
    "value": 32,
    "spoken": "three two"
  },
  "wind_speed": {
    "repr": "22",
    "value": 22,
    "spoken": "two two"
  },
  "wx_codes": [],
  "raw": "KNUW 040153Z 14022G32KT 10SM SCT019 BKN025 BKN031 OVC130 05/02 A2977 RMK PK WND 14032/0153 SLP084 T00500017",
  "sanitized": "KNUW 040153Z 14022G32KT 10SM SCT019 BKN025 BKN031 OVC130 05/02 A2977 RMK PK WND 14032/0153 SLP084 T00500017",
  "station": "KNUW",
  "time": {
    "repr": "040153Z",
    "dt": "2023-03-04T01:53:00Z"
  },
  "remarks": "RMK PK WND 14032/0153 SLP084 T00500017",
  "dewpoint": {
    "repr": "02",
    "value": 2,
    "spoken": "two"
  },
  "relative_humidity": 0.7921337361968764,
  "remarks_info": {
    "maximum_temperature_6": null,
    "minimum_temperature_6": null,
    "pressure_tendency": null,
    "precip_36_hours": null,
    "precip_24_hours": null,
    "sunshine_minutes": null,
    "codes": [],
    "dewpoint_decimal": {
      "repr": "0017",
      "value": 1.7,
      "spoken": "one point seven"
    },
    "maximum_temperature_24": null,
    "minimum_temperature_24": null,
    "precip_hourly": null,
    "sea_level_pressure": {
      "repr": "SLP084",
      "value": 1008.4,
      "spoken": "one zero zero eight point four"
    },
    "snow_depth": null,
    "temperature_decimal": {
      "repr": "0050",
      "value": 5,
      "spoken": "five point zero"
    }
  },
  "runway_visibility": [],
  "temperature": {
    "repr": "05",
    "value": 5,
    "spoken": "five"
  },
  "wind_variable_direction": [],
  "density_altitude": -992,
  "pressure_altitude": 197,
  "units": {
    "accumulation": "in",
    "altimeter": "inHg",
    "altitude": "ft",
    "temperature": "C",
    "visibility": "sm",
    "wind_speed": "kt"
  }
}
