{
  "meta": {
    "timestamp": "2023-01-31T15:02:30.237936Z",
    "stations_updated": "2023-01-30"
  },
  "altimeter": {
    "repr": "A3033",
    "value": 30.33,
    "spoken": "three zero point three three"
  },
  "clouds": [
    {
      "repr": "OVC040",
      "type": "OVC",
      "altitude": 40,
      "modifier": null
    }
  ],
  "flight_rules": "VFR",
  "other": [],
  "visibility": {
    "repr": "8",
    "value": 8,
    "spoken": "eight"
  },
  "wind_direction": {
    "repr": "120",
    "value": 120,
    "spoken": "one two zero"
  },
  "wind_gust": null,
  "wind_speed": {
    "repr": "06",
    "value": 6,
    "spoken": "six"
  },
  "wx_codes": [
    {
      "repr": "-RA",
      "value": "Light Rain"
    }
  ],
  "raw": "KNUW 311353Z 12006KT 8SM -RA OVC040 02/M03 A3033 RMK RAB38SNB38E47 SLP271 P0000 T00171033",
  "sanitized": "KNUW 311353Z 12006KT 8SM -RA OVC040 02/M03 A3033 RMK RAB38SNB38E47 SLP271 P0000 T00171033",
  "station": "KNUW",
  "time": {
    "repr": "311353Z",
    "dt": "2023-01-31T13:53:00Z"
  },
  "remarks": "RMK RAB38SNB38E47 SLP271 P0000 T00171033",
  "dewpoint": {
    "repr": "M03",
    "value": -3,
    "spoken": "minus three"
  },
  "relative_humidity": 0.6940103837299768,
  "remarks_info": {
    "maximum_temperature_6": null,
    "minimum_temperature_6": null,
    "pressure_tendency": null,
    "precip_36_hours": null,
    "precip_24_hours": null,
    "sunshine_minutes": null,
    "codes": [
      {
        "repr": "P0000",
        "value": "Trace amount of rain in the last hour"
      }
    ],
    "dewpoint_decimal": {
      "repr": "1033",
      "value": -3.3,
      "spoken": "minus three point three"
    },
    "maximum_temperature_24": null,
    "minimum_temperature_24": null,
    "precip_hourly": null,
    "sea_level_pressure": {
      "repr": "SLP271",
      "value": 1027.1,
      "spoken": "one zero two seven point one"
    },
    "snow_depth": null,
    "temperature_decimal": {
      "repr": "0017",
      "value": 1.7,
      "spoken": "one point seven"
    }
  },
  "runway_visibility": [],
  "temperature": {
    "repr": "02",
    "value": 2,
    "spoken": "two"
  },
  "wind_variable_direction": [],
  "density_altitude": -1948,
  "pressure_altitude": -363,
  "units": {
    "accumulation": "in",
    "altimeter": "inHg",
    "altitude": "ft",
    "temperature": "C",
    "visibility": "sm",
    "wind_speed": "kt"
  }
}
