{
  "altimeter": {
    "repr": "A2964",
    "spoken": "two nine point six four",
    "value": 29.64
  },
  "clouds": [
    {
      "altitude": 15,
      "modifier": null,
      "repr": "BKN015",
      "type": "BKN"
    },
    {
      "altitude": 50,
      "modifier": null,
      "repr": "BKN050",
      "type": "BKN"
    },
    {
      "altitude": 120,
      "modifier": null,
      "repr": "OVC120",
      "type": "OVC"
    }
  ],
  "density_altitude": -262,
  "dewpoint": {
    "repr": "08",
    "spoken": "eight",
    "value": 8
  },
  "flight_rules": "MVFR",
  "meta": {
    "stations_updated": "2024-10-29",
    "timestamp": "2024-11-02T05:41:34.279372Z"
  },
  "other": [],
  "pressure_altitude": 327,
  "raw": "KNUW 020453Z 09011KT 10SM BKN015 BKN050 OVC120 10/08 A2964 RMK AO2 SLP041 T01000083 $",
  "relative_humidity": 0.8917307313199454,
  "remarks": "RMK AO2 SLP041 T01000083 $",
  "remarks_info": {
    "codes": [
      {
        "repr": "$",
        "value": "ASOS requires maintenance"
      },
      {
        "repr": "AO2",
        "value": "Automated with precipitation sensor"
      }
    ],
    "dewpoint_decimal": {
      "repr": "0083",
      "spoken": "eight point three",
      "value": 8.3
    },
    "maximum_temperature_24": null,
    "maximum_temperature_6": null,
    "minimum_temperature_24": null,
    "minimum_temperature_6": null,
    "precip_24_hours": null,
    "precip_36_hours": null,
    "precip_hourly": null,
    "pressure_tendency": null,
    "sea_level_pressure": {
      "repr": "SLP041",
      "spoken": "one zero zero four point one",
      "value": 1004.1
    },
    "snow_depth": null,
    "sunshine_minutes": null,
    "temperature_decimal": {
      "repr": "0100",
      "spoken": "one zero point zero",
      "value": 10
    }
  },
  "runway_visibility": [],
  "sanitized": "KNUW 020453Z 09011KT 10SM BKN015 BKN050 OVC120 10/08 A2964 RMK AO2 SLP041 T01000083 $",
  "station": "KNUW",
  "temperature": {
    "repr": "10",
    "spoken": "one zero",
    "value": 10
  },
  "time": {
    "dt": "2024-11-02T04:53:00Z",
    "repr": "020453Z"
  },
  "units": {
    "accumulation": "in",
    "altimeter": "inHg",
    "altitude": "ft",
    "temperature": "C",
    "visibility": "sm",
    "wind_speed": "kt"
  },
  "visibility": {
    "repr": "10",
    "spoken": "one zero",
    "value": 10
  },
  "wind_direction": {
    "repr": "090",
    "spoken": "zero nine zero",
    "value": 90
  },
  "wind_gust": null,
  "wind_speed": {
    "repr": "11",
    "spoken": "one one",
    "value": 11
  },
  "wind_variable_direction": [],
  "wx_codes": []
}
