{
  "meta": {
    "timestamp": "2023-01-14T05:01:20.219846Z",
    "stations_updated": "2022-12-27"
  },
  "altimeter": {
    "repr": "A2964",
    "value": 29.64,
    "spoken": "two nine point six four"
  },
  "clouds": [
    {
      "repr": "FEW021",
      "type": "FEW",
      "altitude": 21,
      "modifier": null
    },
    {
      "repr": "SCT040",
      "type": "SCT",
      "altitude": 40,
      "modifier": null
    },
    {
      "repr": "BKN130",
      "type": "BKN",
      "altitude": 130,
      "modifier": null
    },
    {
      "repr": "BKN190",
      "type": "BKN",
      "altitude": 190,
      "modifier": null
    }
  ],
  "flight_rules": "VFR",
  "other": [],
  "visibility": {
    "repr": "10",
    "value": 10,
    "spoken": "one zero"
  },
  "wind_direction": {
    "repr": "140",
    "value": 140,
    "spoken": "one four zero"
  },
  "wind_gust": null,
  "wind_speed": {
    "repr": "19",
    "value": 19,
    "spoken": "one nine"
  },
  "wx_codes": [],
  "raw": "KNUW 140453Z 14019KT 10SM FEW021 SCT040 BKN130 BKN190 12/08 A2964 RMK AO2 PK WND 15029/0415 SLP037 T01170078 VISNO $",
  "sanitized": "KNUW 140453Z 14019KT 10SM FEW021 SCT040 BKN130 BKN190 12/08 A2964 RMK AO2 PK WND 15029/0415 SLP037 T01170078 VISNO $",
  "station": "KNUW",
  "time": {
    "repr": "140453Z",
    "dt": "2023-01-14T04:53:00Z"
  },
  "remarks": "RMK AO2 PK WND 15029/0415 SLP037 T01170078 VISNO $",
  "dewpoint": {
    "repr": "08",
    "value": 8,
    "spoken": "eight"
  },
  "relative_humidity": 0.7697775130100308,
  "remarks_info": {
    "maximum_temperature_6": null,
    "minimum_temperature_6": null,
    "pressure_tendency": null,
    "precip_36_hours": null,
    "precip_24_hours": null,
    "sunshine_minutes": null,
    "codes": [
      {
        "repr": "$",
        "value": "ASOS requires maintenance"
      },
      {
        "repr": "AO2",
        "value": "Automated with precipitation sensor"
      }
    ],
    "dewpoint_decimal": {
      "repr": "0078",
      "value": 7.8,
      "spoken": "seven point eight"
    },
    "maximum_temperature_24": null,
    "minimum_temperature_24": null,
    "precip_hourly": null,
    "sea_level_pressure": {
      "repr": "SLP037",
      "value": 1003.7,
      "spoken": "one zero zero three point seven"
    },
    "snow_depth": null,
    "temperature_decimal": {
      "repr": "0117",
      "value": 11.7,
      "spoken": "one one point seven"
    }
  },
  "runway_visibility": [],
  "temperature": {
    "repr": "12",
    "value": 12,
    "spoken": "one two"
  },
  "wind_variable_direction": [],
  "density_altitude": -58,
  "pressure_altitude": 327,
  "units": {
    "accumulation": "in",
    "altimeter": "inHg",
    "altitude": "ft",
    "temperature": "C",
    "visibility": "sm",
    "wind_speed": "kt"
  }
}
