{
  "meta": {
    "timestamp": "2022-07-29T10:48:25.907945Z",
    "stations_updated": "2022-07-17"
  },
  "altimeter": {
    "repr": "A2995",
    "value": 29.95,
    "spoken": "two nine point nine five"
  },
  "clouds": [
    {
      "repr": "SCT006",
      "type": "SCT",
      "altitude": 6,
      "modifier": null
    }
  ],
  "flight_rules": "VFR",
  "other": [],
  "visibility": {
    "repr": "10",
    "value": 10,
    "spoken": "one zero"
  },
  "wind_direction": {
    "repr": "230",
    "value": 230,
    "spoken": "two three zero"
  },
  "wind_gust": null,
  "wind_speed": {
    "repr": "03",
    "value": 3,
    "spoken": "three"
  },
  "wx_codes": [],
  "raw": "KNUW 291038Z 23003KT 10SM SCT006 12/11 A2995 RMK T01220111",
  "sanitized": "KNUW 291038Z 23003KT 10SM SCT006 12/11 A2995 RMK T01220111",
  "station": "KNUW",
  "time": {
    "repr": "291038Z",
    "dt": "2022-07-29T10:38:00Z"
  },
  "remarks": "RMK T01220111",
  "dewpoint": {
    "repr": "11",
    "value": 11,
    "spoken": "one one"
  },
  "relative_humidity": 0.9298790264187491,
  "remarks_info": {
    "maximum_temperature_6": null,
    "minimum_temperature_6": null,
    "pressure_tendency": null,
    "precip_36_hours": null,
    "precip_24_hours": null,
    "sunshine_minutes": null,
    "codes": [],
    "dewpoint_decimal": {
      "repr": "0111",
      "value": 11.1,
      "spoken": "one one point one"
    },
    "maximum_temperature_24": null,
    "minimum_temperature_24": null,
    "precip_hourly": null,
    "sea_level_pressure": null,
    "snow_depth": null,
    "temperature_decimal": {
      "repr": "0122",
      "value": 12.2,
      "spoken": "one two point two"
    }
  },
  "runway_visibility": [],
  "temperature": {
    "repr": "12",
    "value": 12,
    "spoken": "one two"
  },
  "wind_variable_direction": [],
  "density_altitude": -308,
  "pressure_altitude": 17,
  "units": {
    "accumulation": "in",
    "altimeter": "inHg",
    "altitude": "ft",
    "temperature": "C",
    "visibility": "sm",
    "wind_speed": "kt"
  }
}
