{
  "meta": {
    "timestamp": "2022-07-30T23:02:10.109635Z",
    "stations_updated": "2022-07-17"
  },
  "altimeter": {
    "repr": "A2993",
    "value": 29.93,
    "spoken": "two nine point nine three"
  },
  "clouds": [],
  "flight_rules": "VFR",
  "other": [],
  "visibility": {
    "repr": "10",
    "value": 10,
    "spoken": "one zero"
  },
  "wind_direction": {
    "repr": "270",
    "value": 270,
    "spoken": "two seven zero"
  },
  "wind_gust": null,
  "wind_speed": {
    "repr": "05",
    "value": 5,
    "spoken": "five"
  },
  "wx_codes": [],
  "raw": "KNUW 302253Z 27005KT 10SM SKC 22/13 A2993 RMK SLP135 T02170128",
  "sanitized": "KNUW 302253Z 27005KT 10SM 22/13 A2993 RMK SLP135 T02170128",
  "station": "KNUW",
  "time": {
    "repr": "302253Z",
    "dt": "2022-07-30T22:53:00Z"
  },
  "remarks": "RMK SLP135 T02170128",
  "dewpoint": {
    "repr": "13",
    "value": 13,
    "spoken": "one three"
  },
  "relative_humidity": 0.5692801813356402,
  "remarks_info": {
    "maximum_temperature_6": null,
    "minimum_temperature_6": null,
    "pressure_tendency": null,
    "precip_36_hours": null,
    "precip_24_hours": null,
    "sunshine_minutes": null,
    "codes": [],
    "dewpoint_decimal": {
      "repr": "0128",
      "value": 12.8,
      "spoken": "one two point eight"
    },
    "maximum_temperature_24": null,
    "minimum_temperature_24": null,
    "precip_hourly": null,
    "sea_level_pressure": {
      "repr": "SLP135",
      "value": 1013.5,
      "spoken": "one zero one three point five"
    },
    "snow_depth": null,
    "temperature_decimal": {
      "repr": "0217",
      "value": 21.7,
      "spoken": "two one point seven"
    }
  },
  "runway_visibility": [],
  "temperature": {
    "repr": "22",
    "value": 22,
    "spoken": "two two"
  },
  "wind_variable_direction": [],
  "density_altitude": 852,
  "pressure_altitude": 37,
  "units": {
    "accumulation": "in",
    "altimeter": "inHg",
    "altitude": "ft",
    "temperature": "C",
    "visibility": "sm",
    "wind_speed": "kt"
  }
}
