{
  "meta": {
    "timestamp": "2023-02-20T21:02:03.975649Z",
    "stations_updated": "2023-01-30"
  },
  "altimeter": {
    "repr": "A3001",
    "value": 30.01,
    "spoken": "three zero point zero one"
  },
  "clouds": [
    {
      "repr": "FEW008",
      "type": "FEW",
      "altitude": 8,
      "modifier": null
    },
    {
      "repr": "BKN013",
      "type": "BKN",
      "altitude": 13,
      "modifier": null
    },
    {
      "repr": "OVC021",
      "type": "OVC",
      "altitude": 21,
      "modifier": null
    }
  ],
  "flight_rules": "MVFR",
  "other": [],
  "visibility": {
    "repr": "10",
    "value": 10,
    "spoken": "one zero"
  },
  "wind_direction": {
    "repr": "180",
    "value": 180,
    "spoken": "one eight zero"
  },
  "wind_gust": {
    "repr": "13",
    "value": 13,
    "spoken": "one three"
  },
  "wind_speed": {
    "repr": "07",
    "value": 7,
    "spoken": "seven"
  },
  "wx_codes": [],
  "raw": "KORS 202055Z AUTO 18007G13KT 150V210 10SM FEW008 BKN013 OVC021 08/08 A3001 RMK AO2",
  "sanitized": "KORS 202055Z 18007G13KT 150V210 10SM FEW008 BKN013 OVC021 08/08 A3001 RMK AO2",
  "station": "KORS",
  "time": {
    "repr": "202055Z",
    "dt": "2023-02-20T20:55:00Z"
  },
  "remarks": "RMK AO2",
  "dewpoint": {
    "repr": "08",
    "value": 8,
    "spoken": "eight"
  },
  "relative_humidity": 1,
  "remarks_info": {
    "maximum_temperature_6": null,
    "minimum_temperature_6": null,
    "pressure_tendency": null,
    "precip_36_hours": null,
    "precip_24_hours": null,
    "sunshine_minutes": null,
    "codes": [
      {
        "repr": "AO2",
        "value": "Automated with precipitation sensor"
      }
    ],
    "dewpoint_decimal": null,
    "maximum_temperature_24": null,
    "minimum_temperature_24": null,
    "precip_hourly": null,
    "sea_level_pressure": null,
    "snow_depth": null,
    "temperature_decimal": null
  },
  "runway_visibility": [],
  "temperature": {
    "repr": "08",
    "value": 8,
    "spoken": "eight"
  },
  "wind_variable_direction": [
    {
      "repr": "150",
      "value": 150,
      "spoken": "one five zero"
    },
    {
      "repr": "210",
      "value": 210,
      "spoken": "two one zero"
    }
  ],
  "density_altitude": -892,
  "pressure_altitude": -59,
  "units": {
    "accumulation": "in",
    "altimeter": "inHg",
    "altitude": "ft",
    "temperature": "C",
    "visibility": "sm",
    "wind_speed": "kt"
  }
}
