{
  "meta": {
    "timestamp": "2023-01-01T17:24:26.111432Z",
    "stations_updated": "2022-12-27",
    "cache-timestamp": "2023-01-01T17:24:07.442000Z"
  },
  "altimeter": {
    "repr": "A3017",
    "value": 30.17,
    "spoken": "three zero point one seven"
  },
  "clouds": [
    {
      "repr": "OVC013",
      "type": "OVC",
      "altitude": 13,
      "modifier": null
    }
  ],
  "flight_rules": "MVFR",
  "other": [],
  "visibility": {
    "repr": "7",
    "value": 7,
    "spoken": "seven"
  },
  "wind_direction": {
    "repr": "000",
    "value": 0,
    "spoken": "zero zero zero"
  },
  "wind_gust": null,
  "wind_speed": {
    "repr": "00",
    "value": 0,
    "spoken": "zero"
  },
  "wx_codes": [],
  "raw": "KORS 011715Z AUTO 00000KT 7SM OVC013 06/06 A3017 RMK AO2",
  "sanitized": "KORS 011715Z 00000KT 7SM OVC013 06/06 A3017 RMK AO2",
  "station": "KORS",
  "time": {
    "repr": "011715Z",
    "dt": "2023-01-01T17:15:00Z"
  },
  "remarks": "RMK AO2",
  "dewpoint": {
    "repr": "06",
    "value": 6,
    "spoken": "six"
  },
  "relative_humidity": 1,
  "remarks_info": {
    "maximum_temperature_6": null,
    "minimum_temperature_6": null,
    "pressure_tendency": null,
    "precip_36_hours": null,
    "precip_24_hours": null,
    "sunshine_minutes": null,
    "codes": [
      {
        "repr": "AO2",
        "value": "Automated with precipitation sensor"
      }
    ],
    "dewpoint_decimal": null,
    "maximum_temperature_24": null,
    "minimum_temperature_24": null,
    "precip_hourly": null,
    "sea_level_pressure": null,
    "snow_depth": null,
    "temperature_decimal": null
  },
  "runway_visibility": [],
  "temperature": {
    "repr": "06",
    "value": 6,
    "spoken": "six"
  },
  "wind_variable_direction": [],
  "density_altitude": -1292,
  "pressure_altitude": -219,
  "units": {
    "accumulation": "in",
    "altimeter": "inHg",
    "altitude": "ft",
    "temperature": "C",
    "visibility": "sm",
    "wind_speed": "kt"
  }
}
