{
  "meta": {
    "timestamp": "2023-09-24T22:40:32.210082Z",
    "stations_updated": "2023-08-05",
    "cache-timestamp": "2023-09-24T22:40:03.234000Z"
  },
  "altimeter": {
    "repr": "A2983",
    "value": 29.83,
    "spoken": "two nine point eight three"
  },
  "clouds": [],
  "flight_rules": "VFR",
  "other": [],
  "visibility": {
    "repr": "10",
    "value": 10,
    "spoken": "one zero"
  },
  "wind_direction": {
    "repr": "VRB",
    "value": null,
    "spoken": "variable"
  },
  "wind_gust": {
    "repr": "11",
    "value": 11,
    "spoken": "one one"
  },
  "wind_speed": {
    "repr": "03",
    "value": 3,
    "spoken": "three"
  },
  "wx_codes": [],
  "raw": "KORS 242215Z AUTO VRB03G11KT 10SM CLR 18/M39 A2983 RMK AO2",
  "sanitized": "KORS 242215Z VRB03G11KT 10SM 18/M39 A2983 RMK AO2",
  "station": "KORS",
  "time": {
    "repr": "242215Z",
    "dt": "2023-09-24T22:15:00Z"
  },
  "remarks": "RMK AO2",
  "dewpoint": {
    "repr": "M39",
    "value": -39,
    "spoken": "minus three nine"
  },
  "relative_humidity": 0.010192333266740714,
  "remarks_info": {
    "maximum_temperature_6": null,
    "minimum_temperature_6": null,
    "pressure_tendency": null,
    "precip_36_hours": null,
    "precip_24_hours": null,
    "sunshine_minutes": null,
    "codes": [
      {
        "repr": "AO2",
        "value": "Automated with precipitation sensor"
      }
    ],
    "dewpoint_decimal": null,
    "maximum_temperature_24": null,
    "minimum_temperature_24": null,
    "precip_hourly": null,
    "sea_level_pressure": null,
    "snow_depth": null,
    "temperature_decimal": null
  },
  "runway_visibility": [],
  "temperature": {
    "repr": "18",
    "value": 18,
    "spoken": "one eight"
  },
  "wind_variable_direction": [],
  "density_altitude": 488,
  "pressure_altitude": 121,
  "units": {
    "accumulation": "in",
    "altimeter": "inHg",
    "altitude": "ft",
    "temperature": "C",
    "visibility": "sm",
    "wind_speed": "kt"
  }
}
