{
  "meta": {
    "timestamp": "2023-01-05T11:01:42.074496Z",
    "stations_updated": "2022-12-27"
  },
  "altimeter": {
    "repr": "A2947",
    "value": 29.47,
    "spoken": "two nine point four seven"
  },
  "clouds": [
    {
      "repr": "FEW048",
      "type": "FEW",
      "altitude": 48,
      "modifier": null
    },
    {
      "repr": "BKN070",
      "type": "BKN",
      "altitude": 70,
      "modifier": null
    },
    {
      "repr": "OVC075",
      "type": "OVC",
      "altitude": 75,
      "modifier": null
    }
  ],
  "flight_rules": "VFR",
  "other": [],
  "visibility": {
    "repr": "10",
    "value": 10,
    "spoken": "one zero"
  },
  "wind_direction": {
    "repr": "000",
    "value": 0,
    "spoken": "zero zero zero"
  },
  "wind_gust": {
    "repr": "12",
    "value": 12,
    "spoken": "one two"
  },
  "wind_speed": {
    "repr": "00",
    "value": 0,
    "spoken": "zero"
  },
  "wx_codes": [],
  "raw": "KORS 051055Z AUTO 00000G12KT 10SM FEW048 BKN070 OVC075 09/01 A2947 RMK AO2",
  "sanitized": "KORS 051055Z 00000G12KT 10SM FEW048 BKN070 OVC075 09/01 A2947 RMK AO2",
  "station": "KORS",
  "time": {
    "repr": "051055Z",
    "dt": "2023-01-05T10:55:00Z"
  },
  "remarks": "RMK AO2",
  "dewpoint": {
    "repr": "01",
    "value": 1,
    "spoken": "one"
  },
  "relative_humidity": 0.5726091861753606,
  "remarks_info": {
    "maximum_temperature_6": null,
    "minimum_temperature_6": null,
    "pressure_tendency": null,
    "precip_36_hours": null,
    "precip_24_hours": null,
    "sunshine_minutes": null,
    "codes": [
      {
        "repr": "AO2",
        "value": "Automated with precipitation sensor"
      }
    ],
    "dewpoint_decimal": null,
    "maximum_temperature_24": null,
    "minimum_temperature_24": null,
    "precip_hourly": null,
    "sea_level_pressure": null,
    "snow_depth": null,
    "temperature_decimal": null
  },
  "runway_visibility": [],
  "temperature": {
    "repr": "09",
    "value": 9,
    "spoken": "nine"
  },
  "wind_variable_direction": [],
  "density_altitude": -232,
  "pressure_altitude": 481,
  "units": {
    "accumulation": "in",
    "altimeter": "inHg",
    "altitude": "ft",
    "temperature": "C",
    "visibility": "sm",
    "wind_speed": "kt"
  }
}
