{
  "meta": {
    "timestamp": "2023-04-24T17:24:44.299322Z",
    "stations_updated": "2023-03-11",
    "cache-timestamp": "2023-04-24T17:24:05.448000Z"
  },
  "altimeter": {
    "repr": "A3009",
    "value": 30.09,
    "spoken": "three zero point zero nine"
  },
  "clouds": [
    {
      "repr": "BKN019",
      "type": "BKN",
      "altitude": 19,
      "modifier": null
    },
    {
      "repr": "BKN023",
      "type": "BKN",
      "altitude": 23,
      "modifier": null
    },
    {
      "repr": "BKN050",
      "type": "BKN",
      "altitude": 50,
      "modifier": null
    }
  ],
  "flight_rules": "MVFR",
  "other": [],
  "visibility": {
    "repr": "10",
    "value": 10,
    "spoken": "one zero"
  },
  "wind_direction": {
    "repr": "000",
    "value": 0,
    "spoken": "zero zero zero"
  },
  "wind_gust": null,
  "wind_speed": {
    "repr": "00",
    "value": 0,
    "spoken": "zero"
  },
  "wx_codes": [],
  "raw": "KORS 241655Z AUTO 00000KT 10SM BKN019 BKN023 BKN050 10/06 A3009 RMK AO2",
  "sanitized": "KORS 241655Z 00000KT 10SM BKN019 BKN023 BKN050 10/06 A3009 RMK AO2",
  "station": "KORS",
  "time": {
    "repr": "241655Z",
    "dt": "2023-04-24T16:55:00Z"
  },
  "remarks": "RMK AO2",
  "dewpoint": {
    "repr": "06",
    "value": 6,
    "spoken": "six"
  },
  "relative_humidity": 0.7617692730653005,
  "remarks_info": {
    "maximum_temperature_6": null,
    "minimum_temperature_6": null,
    "pressure_tendency": null,
    "precip_36_hours": null,
    "precip_24_hours": null,
    "sunshine_minutes": null,
    "codes": [
      {
        "repr": "AO2",
        "value": "Automated with precipitation sensor"
      }
    ],
    "dewpoint_decimal": null,
    "maximum_temperature_24": null,
    "minimum_temperature_24": null,
    "precip_hourly": null,
    "sea_level_pressure": null,
    "snow_depth": null,
    "temperature_decimal": null
  },
  "runway_visibility": [],
  "temperature": {
    "repr": "10",
    "value": 10,
    "spoken": "one zero"
  },
  "wind_variable_direction": [],
  "density_altitude": -732,
  "pressure_altitude": -139,
  "units": {
    "accumulation": "in",
    "altimeter": "inHg",
    "altitude": "ft",
    "temperature": "C",
    "visibility": "sm",
    "wind_speed": "kt"
  }
}
