{
  "altimeter": {
    "repr": "A2991",
    "spoken": "two nine point nine one",
    "value": 29.91
  },
  "clouds": [],
  "density_altitude": -1392,
  "dewpoint": {
    "repr": "M07",
    "spoken": "minus seven",
    "value": -7
  },
  "flight_rules": "VFR",
  "meta": {
    "stations_updated": "2024-01-01",
    "timestamp": "2024-02-27T08:26:01.813026Z"
  },
  "other": [],
  "pressure_altitude": 41,
  "raw": "KORS 270815Z AUTO 32008G19KT 290V350 10SM CLR 03/M07 A2991 RMK AO2",
  "relative_humidity": 0.47804384531157584,
  "remarks": "RMK AO2",
  "remarks_info": {
    "codes": [
      {
        "repr": "AO2",
        "value": "Automated with precipitation sensor"
      }
    ],
    "dewpoint_decimal": null,
    "maximum_temperature_24": null,
    "maximum_temperature_6": null,
    "minimum_temperature_24": null,
    "minimum_temperature_6": null,
    "precip_24_hours": null,
    "precip_36_hours": null,
    "precip_hourly": null,
    "pressure_tendency": null,
    "sea_level_pressure": null,
    "snow_depth": null,
    "sunshine_minutes": null,
    "temperature_decimal": null
  },
  "runway_visibility": [],
  "sanitized": "KORS 270815Z 32008G19KT 290V350 10SM 03/M07 A2991 RMK AO2",
  "station": "KORS",
  "temperature": {
    "repr": "03",
    "spoken": "three",
    "value": 3
  },
  "time": {
    "dt": "2024-02-27T08:15:00Z",
    "repr": "270815Z"
  },
  "units": {
    "accumulation": "in",
    "altimeter": "inHg",
    "altitude": "ft",
    "temperature": "C",
    "visibility": "sm",
    "wind_speed": "kt"
  },
  "visibility": {
    "repr": "10",
    "spoken": "one zero",
    "value": 10
  },
  "wind_direction": {
    "repr": "320",
    "spoken": "three two zero",
    "value": 320
  },
  "wind_gust": {
    "repr": "19",
    "spoken": "one nine",
    "value": 19
  },
  "wind_speed": {
    "repr": "08",
    "spoken": "eight",
    "value": 8
  },
  "wind_variable_direction": [
    {
      "repr": "290",
      "spoken": "two nine zero",
      "value": 290
    },
    {
      "repr": "350",
      "spoken": "three five zero",
      "value": 350
    }
  ],
  "wx_codes": []
}
