{
  "altimeter": {
    "repr": "A2993",
    "spoken": "two nine point nine three",
    "value": 29.93
  },
  "clouds": [],
  "density_altitude": -2372,
  "dewpoint": {
    "repr": "M15",
    "spoken": "minus one five",
    "value": -15
  },
  "flight_rules": "VFR",
  "meta": {
    "cache-timestamp": "2024-01-14T04:28:03.480000Z",
    "stations_updated": "2023-10-28",
    "timestamp": "2024-01-14T04:28:10.517392Z"
  },
  "other": [],
  "pressure_altitude": 21,
  "raw": "KORS 140415Z AUTO 05010G21KT 010V080 10SM CLR M05/M15 A2993 RMK AO2",
  "relative_humidity": 0.4540645162535745,
  "remarks": "RMK AO2",
  "remarks_info": {
    "codes": [
      {
        "repr": "AO2",
        "value": "Automated with precipitation sensor"
      }
    ],
    "dewpoint_decimal": null,
    "maximum_temperature_24": null,
    "maximum_temperature_6": null,
    "minimum_temperature_24": null,
    "minimum_temperature_6": null,
    "precip_24_hours": null,
    "precip_36_hours": null,
    "precip_hourly": null,
    "pressure_tendency": null,
    "sea_level_pressure": null,
    "snow_depth": null,
    "sunshine_minutes": null,
    "temperature_decimal": null
  },
  "runway_visibility": [],
  "sanitized": "KORS 140415Z 05010G21KT 010V080 10SM M05/M15 A2993 RMK AO2",
  "station": "KORS",
  "temperature": {
    "repr": "M05",
    "spoken": "minus five",
    "value": -5
  },
  "time": {
    "dt": "2024-01-14T04:15:00Z",
    "repr": "140415Z"
  },
  "units": {
    "accumulation": "in",
    "altimeter": "inHg",
    "altitude": "ft",
    "temperature": "C",
    "visibility": "sm",
    "wind_speed": "kt"
  },
  "visibility": {
    "repr": "10",
    "spoken": "one zero",
    "value": 10
  },
  "wind_direction": {
    "repr": "050",
    "spoken": "zero five zero",
    "value": 50
  },
  "wind_gust": {
    "repr": "21",
    "spoken": "two one",
    "value": 21
  },
  "wind_speed": {
    "repr": "10",
    "spoken": "one zero",
    "value": 10
  },
  "wind_variable_direction": [
    {
      "repr": "010",
      "spoken": "zero one zero",
      "value": 10
    },
    {
      "repr": "080",
      "spoken": "zero eight zero",
      "value": 80
    }
  ],
  "wx_codes": []
}
