{
  "meta": {
    "timestamp": "2023-09-05T03:02:16.242641Z",
    "stations_updated": "2023-08-05"
  },
  "altimeter": {
    "repr": "A3002",
    "value": 30.02,
    "spoken": "three zero point zero two"
  },
  "clouds": [
    {
      "repr": "BKN046",
      "type": "BKN",
      "altitude": 46,
      "modifier": null
    },
    {
      "repr": "OVC055",
      "type": "OVC",
      "altitude": 55,
      "modifier": null
    }
  ],
  "flight_rules": "VFR",
  "other": [],
  "visibility": {
    "repr": "10",
    "value": 10,
    "spoken": "one zero"
  },
  "wind_direction": {
    "repr": "190",
    "value": 190,
    "spoken": "one nine zero"
  },
  "wind_gust": null,
  "wind_speed": {
    "repr": "05",
    "value": 5,
    "spoken": "five"
  },
  "wx_codes": [],
  "raw": "KORS 050255Z AUTO 19005KT 10SM BKN046 OVC055 17/M40 A3002 RMK AO2",
  "sanitized": "KORS 050255Z 19005KT 10SM BKN046 OVC055 17/M40 A3002 RMK AO2",
  "station": "KORS",
  "time": {
    "repr": "050255Z",
    "dt": "2023-09-05T02:55:00Z"
  },
  "remarks": "RMK AO2",
  "dewpoint": {
    "repr": "M40",
    "value": -40,
    "spoken": "minus four zero"
  },
  "relative_humidity": 0.00979045573875582,
  "remarks_info": {
    "maximum_temperature_6": null,
    "minimum_temperature_6": null,
    "pressure_tendency": null,
    "precip_36_hours": null,
    "precip_24_hours": null,
    "sunshine_minutes": null,
    "codes": [
      {
        "repr": "AO2",
        "value": "Automated with precipitation sensor"
      }
    ],
    "dewpoint_decimal": null,
    "maximum_temperature_24": null,
    "minimum_temperature_24": null,
    "precip_hourly": null,
    "sea_level_pressure": null,
    "snow_depth": null,
    "temperature_decimal": null
  },
  "runway_visibility": [],
  "temperature": {
    "repr": "17",
    "value": 17,
    "spoken": "one seven"
  },
  "wind_variable_direction": [],
  "density_altitude": 178,
  "pressure_altitude": -69,
  "units": {
    "accumulation": "in",
    "altimeter": "inHg",
    "altitude": "ft",
    "temperature": "C",
    "visibility": "sm",
    "wind_speed": "kt"
  }
}
