{
  "meta": {
    "timestamp": "2022-12-29T22:01:24.648763Z",
    "stations_updated": "2022-12-27"
  },
  "altimeter": {
    "repr": "A2956",
    "value": 29.56,
    "spoken": "two nine point five six"
  },
  "clouds": [
    {
      "repr": "FEW028",
      "type": "FEW",
      "altitude": 28,
      "modifier": null
    },
    {
      "repr": "SCT042",
      "type": "SCT",
      "altitude": 42,
      "modifier": null
    },
    {
      "repr": "BKN060",
      "type": "BKN",
      "altitude": 60,
      "modifier": null
    }
  ],
  "flight_rules": "VFR",
  "other": [],
  "visibility": {
    "repr": "9",
    "value": 9,
    "spoken": "nine"
  },
  "wind_direction": {
    "repr": "130",
    "value": 130,
    "spoken": "one three zero"
  },
  "wind_gust": null,
  "wind_speed": {
    "repr": "08",
    "value": 8,
    "spoken": "eight"
  },
  "wx_codes": [
    {
      "repr": "-RA",
      "value": "Light Rain"
    }
  ],
  "raw": "KORS 292155Z AUTO 13008KT 090V170 9SM -RA FEW028 SCT042 BKN060 08/06 A2956 RMK AO2 P0001",
  "sanitized": "KORS 292155Z 13008KT 090V170 9SM -RA FEW028 SCT042 BKN060 08/06 A2956 RMK AO2 P0001",
  "station": "KORS",
  "time": {
    "repr": "292155Z",
    "dt": "2022-12-29T21:55:00Z"
  },
  "remarks": "RMK AO2 P0001",
  "dewpoint": {
    "repr": "06",
    "value": 6,
    "spoken": "six"
  },
  "relative_humidity": 0.87185013383306,
  "remarks_info": {
    "maximum_temperature_6": null,
    "minimum_temperature_6": null,
    "pressure_tendency": null,
    "precip_36_hours": null,
    "precip_24_hours": null,
    "sunshine_minutes": null,
    "codes": [
      {
        "repr": "AO2",
        "value": "Automated with precipitation sensor"
      }
    ],
    "dewpoint_decimal": null,
    "maximum_temperature_24": null,
    "minimum_temperature_24": null,
    "precip_hourly": {
      "repr": "P0001",
      "value": 0.01,
      "spoken": "zero point zero one"
    },
    "sea_level_pressure": null,
    "snow_depth": null,
    "temperature_decimal": null
  },
  "runway_visibility": [],
  "temperature": {
    "repr": "08",
    "value": 8,
    "spoken": "eight"
  },
  "wind_variable_direction": [
    {
      "repr": "090",
      "value": 90,
      "spoken": "zero nine zero"
    },
    {
      "repr": "170",
      "value": 170,
      "spoken": "one seven zero"
    }
  ],
  "density_altitude": -442,
  "pressure_altitude": 391,
  "units": {
    "accumulation": "in",
    "altimeter": "inHg",
    "altitude": "ft",
    "temperature": "C",
    "visibility": "sm",
    "wind_speed": "kt"
  }
}
