{
  "meta": {
    "timestamp": "2022-12-03T06:04:19.974836Z",
    "stations_updated": "2022-09-05"
  },
  "altimeter": {
    "repr": "A3003",
    "value": 30.03,
    "spoken": "three zero point zero three"
  },
  "clouds": [
    {
      "repr": "OVC003",
      "type": "OVC",
      "altitude": 3,
      "modifier": null
    }
  ],
  "flight_rules": "LIFR",
  "other": [],
  "visibility": {
    "repr": "7/4",
    "value": 1.75,
    "spoken": "one and three quarters",
    "numerator": 7,
    "denominator": 4,
    "normalized": "1 3/4"
  },
  "wind_direction": {
    "repr": "030",
    "value": 30,
    "spoken": "zero three zero"
  },
  "wind_gust": null,
  "wind_speed": {
    "repr": "08",
    "value": 8,
    "spoken": "eight"
  },
  "wx_codes": [
    {
      "repr": "-SN",
      "value": "Light Snow"
    },
    {
      "repr": "BR",
      "value": "Mist"
    }
  ],
  "raw": "KORS 030555Z AUTO 03008KT 350V060 1 3/4SM -SN BR OVC003 00/M01 A3003 RMK AO2",
  "sanitized": "KORS 030555Z 03008KT 350V060 1 3/4SM -SN BR OVC003 00/M01 A3003 RMK AO2",
  "station": "KORS",
  "time": {
    "repr": "030555Z",
    "dt": "2022-12-03T05:55:00Z"
  },
  "remarks": "RMK AO2",
  "dewpoint": {
    "repr": "M01",
    "value": -1,
    "spoken": "minus one"
  },
  "relative_humidity": 0.9297254240529413,
  "remarks_info": {
    "maximum_temperature_6": null,
    "minimum_temperature_6": null,
    "pressure_tendency": null,
    "precip_36_hours": null,
    "precip_24_hours": null,
    "sunshine_minutes": null,
    "codes": [
      {
        "repr": "AO2",
        "value": "Automated with precipitation sensor"
      }
    ],
    "dewpoint_decimal": null,
    "maximum_temperature_24": null,
    "minimum_temperature_24": null,
    "precip_hourly": null,
    "sea_level_pressure": null,
    "snow_depth": null,
    "temperature_decimal": null
  },
  "runway_visibility": [],
  "temperature": {
    "repr": "00",
    "value": 0,
    "spoken": "zero"
  },
  "wind_variable_direction": [
    {
      "repr": "350",
      "value": 350,
      "spoken": "three five zero"
    },
    {
      "repr": "060",
      "value": 60,
      "spoken": "zero six zero"
    }
  ],
  "density_altitude": -1872,
  "pressure_altitude": -79,
  "units": {
    "accumulation": "in",
    "altimeter": "inHg",
    "altitude": "ft",
    "temperature": "C",
    "visibility": "sm",
    "wind_speed": "kt"
  }
}
