{
  "meta": {
    "timestamp": "2022-12-27T06:06:56.573038Z",
    "stations_updated": "2022-09-05"
  },
  "altimeter": {
    "repr": "A2914",
    "value": 29.14,
    "spoken": "two nine point one four"
  },
  "clouds": [
    {
      "repr": "SCT009",
      "type": "SCT",
      "altitude": 9,
      "modifier": null
    },
    {
      "repr": "OVC047",
      "type": "OVC",
      "altitude": 47,
      "modifier": null
    }
  ],
  "flight_rules": "VFR",
  "other": [],
  "visibility": {
    "repr": "6",
    "value": 6,
    "spoken": "six"
  },
  "wind_direction": {
    "repr": "030",
    "value": 30,
    "spoken": "zero three zero"
  },
  "wind_gust": {
    "repr": "16",
    "value": 16,
    "spoken": "one six"
  },
  "wind_speed": {
    "repr": "09",
    "value": 9,
    "spoken": "nine"
  },
  "wx_codes": [
    {
      "repr": "-RA",
      "value": "Light Rain"
    },
    {
      "repr": "BR",
      "value": "Mist"
    }
  ],
  "raw": "KORS 270555Z AUTO 03009G16KT 350V050 6SM -RA BR SCT009 OVC047 07/07 A2914 RMK AO2 P0004",
  "sanitized": "KORS 270555Z 03009G16KT 350V050 6SM -RA BR SCT009 OVC047 07/07 A2914 RMK AO2 P0004",
  "station": "KORS",
  "time": {
    "repr": "270555Z",
    "dt": "2022-12-27T05:55:00Z"
  },
  "remarks": "RMK AO2 P0004",
  "dewpoint": {
    "repr": "07",
    "value": 7,
    "spoken": "seven"
  },
  "relative_humidity": 1,
  "remarks_info": {
    "maximum_temperature_6": null,
    "minimum_temperature_6": null,
    "pressure_tendency": null,
    "precip_36_hours": null,
    "precip_24_hours": null,
    "sunshine_minutes": null,
    "codes": [
      {
        "repr": "AO2",
        "value": "Automated with precipitation sensor"
      }
    ],
    "dewpoint_decimal": null,
    "maximum_temperature_24": null,
    "minimum_temperature_24": null,
    "precip_hourly": {
      "repr": "P0004",
      "value": 0.04,
      "spoken": "zero point zero four"
    },
    "sea_level_pressure": null,
    "snow_depth": null,
    "temperature_decimal": null
  },
  "runway_visibility": [],
  "temperature": {
    "repr": "07",
    "value": 7,
    "spoken": "seven"
  },
  "wind_variable_direction": [
    {
      "repr": "350",
      "value": 350,
      "spoken": "three five zero"
    },
    {
      "repr": "050",
      "value": 50,
      "spoken": "zero five zero"
    }
  ],
  "density_altitude": -142,
  "pressure_altitude": 811,
  "units": {
    "accumulation": "in",
    "altimeter": "inHg",
    "altitude": "ft",
    "temperature": "C",
    "visibility": "sm",
    "wind_speed": "kt"
  }
}
