{
  "altimeter": {
    "repr": "A2969",
    "spoken": "two nine point six nine",
    "value": 29.69
  },
  "clouds": [
    {
      "altitude": 34,
      "modifier": null,
      "repr": "FEW034",
      "type": "FEW"
    },
    {
      "altitude": 47,
      "modifier": null,
      "repr": "SCT047",
      "type": "SCT"
    },
    {
      "altitude": 55,
      "modifier": null,
      "repr": "BKN055",
      "type": "BKN"
    }
  ],
  "density_altitude": -452,
  "dewpoint": {
    "repr": "09",
    "spoken": "nine",
    "value": 9
  },
  "flight_rules": "VFR",
  "meta": {
    "stations_updated": "2024-10-29",
    "timestamp": "2024-11-14T13:33:48.481946Z"
  },
  "other": [],
  "pressure_altitude": 261,
  "raw": "KORS 141315Z AUTO 20007KT 9SM -RA FEW034 SCT047 BKN055 09/09 A2969 RMK AO2",
  "relative_humidity": 1,
  "remarks": "RMK AO2",
  "remarks_info": {
    "codes": [
      {
        "repr": "AO2",
        "value": "Automated with precipitation sensor"
      }
    ],
    "dewpoint_decimal": null,
    "maximum_temperature_24": null,
    "maximum_temperature_6": null,
    "minimum_temperature_24": null,
    "minimum_temperature_6": null,
    "precip_24_hours": null,
    "precip_36_hours": null,
    "precip_hourly": null,
    "pressure_tendency": null,
    "sea_level_pressure": null,
    "snow_depth": null,
    "sunshine_minutes": null,
    "temperature_decimal": null
  },
  "runway_visibility": [],
  "sanitized": "KORS 141315Z 20007KT 9SM -RA FEW034 SCT047 BKN055 09/09 A2969 RMK AO2",
  "station": "KORS",
  "temperature": {
    "repr": "09",
    "spoken": "nine",
    "value": 9
  },
  "time": {
    "dt": "2024-11-14T13:15:00Z",
    "repr": "141315Z"
  },
  "units": {
    "accumulation": "in",
    "altimeter": "inHg",
    "altitude": "ft",
    "temperature": "C",
    "visibility": "sm",
    "wind_speed": "kt"
  },
  "visibility": {
    "repr": "9",
    "spoken": "nine",
    "value": 9
  },
  "wind_direction": {
    "repr": "200",
    "spoken": "two zero zero",
    "value": 200
  },
  "wind_gust": null,
  "wind_speed": {
    "repr": "07",
    "spoken": "seven",
    "value": 7
  },
  "wind_variable_direction": [],
  "wx_codes": [
    {
      "repr": "-RA",
      "value": "Light Rain"
    }
  ]
}
