{
  "meta": {
    "timestamp": "2023-01-03T11:40:44.411169Z",
    "stations_updated": "2022-12-27",
    "cache-timestamp": "2023-01-03T11:40:08.429000Z"
  },
  "altimeter": {
    "repr": "A2973",
    "value": 29.73,
    "spoken": "two nine point seven three"
  },
  "clouds": [
    {
      "repr": "OVC070",
      "type": "OVC",
      "altitude": 70,
      "modifier": null
    }
  ],
  "flight_rules": "VFR",
  "other": [],
  "visibility": {
    "repr": "10",
    "value": 10,
    "spoken": "one zero"
  },
  "wind_direction": {
    "repr": "160",
    "value": 160,
    "spoken": "one six zero"
  },
  "wind_gust": {
    "repr": "16",
    "value": 16,
    "spoken": "one six"
  },
  "wind_speed": {
    "repr": "09",
    "value": 9,
    "spoken": "nine"
  },
  "wx_codes": [],
  "raw": "KORS 031115Z AUTO 16009G16KT 10SM OVC070 06/02 A2973 RMK AO2",
  "sanitized": "KORS 031115Z 16009G16KT 10SM OVC070 06/02 A2973 RMK AO2",
  "station": "KORS",
  "time": {
    "repr": "031115Z",
    "dt": "2023-01-03T11:15:00Z"
  },
  "remarks": "RMK AO2",
  "dewpoint": {
    "repr": "02",
    "value": 2,
    "spoken": "two"
  },
  "relative_humidity": 0.7550443878881108,
  "remarks_info": {
    "maximum_temperature_6": null,
    "minimum_temperature_6": null,
    "pressure_tendency": null,
    "precip_36_hours": null,
    "precip_24_hours": null,
    "sunshine_minutes": null,
    "codes": [
      {
        "repr": "AO2",
        "value": "Automated with precipitation sensor"
      }
    ],
    "dewpoint_decimal": null,
    "maximum_temperature_24": null,
    "minimum_temperature_24": null,
    "precip_hourly": null,
    "sea_level_pressure": null,
    "snow_depth": null,
    "temperature_decimal": null
  },
  "runway_visibility": [],
  "temperature": {
    "repr": "06",
    "value": 6,
    "spoken": "six"
  },
  "wind_variable_direction": [],
  "density_altitude": -852,
  "pressure_altitude": 221,
  "units": {
    "accumulation": "in",
    "altimeter": "inHg",
    "altitude": "ft",
    "temperature": "C",
    "visibility": "sm",
    "wind_speed": "kt"
  }
}
