{
  "altimeter": {
    "repr": "A2954",
    "spoken": "two nine point five four",
    "value": 29.54
  },
  "clouds": [],
  "density_altitude": -422,
  "dewpoint": {
    "repr": "05",
    "spoken": "five",
    "value": 5
  },
  "flight_rules": "VFR",
  "meta": {
    "stations_updated": "2024-12-02",
    "timestamp": "2024-12-26T02:56:11.757246Z"
  },
  "other": [],
  "pressure_altitude": 411,
  "raw": "KORS 260235Z AUTO 17016G28KT 140V200 9SM -RA 08/05 A2954 RMK AO2",
  "relative_humidity": 0.8133982839480661,
  "remarks": "RMK AO2",
  "remarks_info": {
    "codes": [
      {
        "repr": "AO2",
        "value": "Automated with precipitation sensor"
      }
    ],
    "dewpoint_decimal": null,
    "maximum_temperature_24": null,
    "maximum_temperature_6": null,
    "minimum_temperature_24": null,
    "minimum_temperature_6": null,
    "precip_24_hours": null,
    "precip_36_hours": null,
    "precip_hourly": null,
    "pressure_tendency": null,
    "sea_level_pressure": null,
    "snow_depth": null,
    "sunshine_minutes": null,
    "temperature_decimal": null
  },
  "runway_visibility": [],
  "sanitized": "KORS 260235Z 17016G28KT 140V200 9SM -RA 08/05 A2954 RMK AO2",
  "station": "KORS",
  "temperature": {
    "repr": "08",
    "spoken": "eight",
    "value": 8
  },
  "time": {
    "dt": "2024-12-26T02:35:00Z",
    "repr": "260235Z"
  },
  "units": {
    "accumulation": "in",
    "altimeter": "inHg",
    "altitude": "ft",
    "temperature": "C",
    "visibility": "sm",
    "wind_speed": "kt"
  },
  "visibility": {
    "repr": "9",
    "spoken": "nine",
    "value": 9
  },
  "wind_direction": {
    "repr": "170",
    "spoken": "one seven zero",
    "value": 170
  },
  "wind_gust": {
    "repr": "28",
    "spoken": "two eight",
    "value": 28
  },
  "wind_speed": {
    "repr": "16",
    "spoken": "one six",
    "value": 16
  },
  "wind_variable_direction": [
    {
      "repr": "140",
      "spoken": "one four zero",
      "value": 140
    },
    {
      "repr": "200",
      "spoken": "two zero zero",
      "value": 200
    }
  ],
  "wx_codes": [
    {
      "repr": "-RA",
      "value": "Light Rain"
    }
  ]
}
