{
  "meta": {
    "timestamp": "2023-05-03T23:40:31.697738Z",
    "stations_updated": "2023-03-11",
    "cache-timestamp": "2023-05-03T23:40:07.945000Z"
  },
  "altimeter": {
    "repr": "A2970",
    "value": 29.7,
    "spoken": "two nine point seven zero"
  },
  "clouds": [],
  "flight_rules": "VFR",
  "other": [],
  "visibility": {
    "repr": "10",
    "value": 10,
    "spoken": "one zero"
  },
  "wind_direction": {
    "repr": "350",
    "value": 350,
    "spoken": "three five zero"
  },
  "wind_gust": null,
  "wind_speed": {
    "repr": "06",
    "value": 6,
    "spoken": "six"
  },
  "wx_codes": [],
  "raw": "KORS 032315Z AUTO 35006KT 10SM CLR 16/11 A2970 RMK AO2",
  "sanitized": "KORS 032315Z 35006KT 10SM 16/11 A2970 RMK AO2",
  "station": "KORS",
  "time": {
    "repr": "032315Z",
    "dt": "2023-05-03T23:15:00Z"
  },
  "remarks": "RMK AO2",
  "dewpoint": {
    "repr": "11",
    "value": 11,
    "spoken": "one one"
  },
  "relative_humidity": 0.7219878565916649,
  "remarks_info": {
    "maximum_temperature_6": null,
    "minimum_temperature_6": null,
    "pressure_tendency": null,
    "precip_36_hours": null,
    "precip_24_hours": null,
    "sunshine_minutes": null,
    "codes": [
      {
        "repr": "AO2",
        "value": "Automated with precipitation sensor"
      }
    ],
    "dewpoint_decimal": null,
    "maximum_temperature_24": null,
    "minimum_temperature_24": null,
    "precip_hourly": null,
    "sea_level_pressure": null,
    "snow_depth": null,
    "temperature_decimal": null
  },
  "runway_visibility": [],
  "temperature": {
    "repr": "16",
    "value": 16,
    "spoken": "one six"
  },
  "wind_variable_direction": [],
  "density_altitude": 378,
  "pressure_altitude": 251,
  "units": {
    "accumulation": "in",
    "altimeter": "inHg",
    "altitude": "ft",
    "temperature": "C",
    "visibility": "sm",
    "wind_speed": "kt"
  }
}
