{
  "meta": {
    "timestamp": "2023-04-17T18:04:44.915635Z",
    "stations_updated": "2023-03-11",
    "cache-timestamp": "2023-04-17T18:04:06.281000Z"
  },
  "altimeter": {
    "repr": "A2970",
    "value": 29.7,
    "spoken": "two nine point seven zero"
  },
  "clouds": [],
  "flight_rules": "VFR",
  "other": [],
  "visibility": {
    "repr": "10",
    "value": 10,
    "spoken": "one zero"
  },
  "wind_direction": {
    "repr": "130",
    "value": 130,
    "spoken": "one three zero"
  },
  "wind_gust": {
    "repr": "20",
    "value": 20,
    "spoken": "two zero"
  },
  "wind_speed": {
    "repr": "09",
    "value": 9,
    "spoken": "nine"
  },
  "wx_codes": [],
  "raw": "KORS 171755Z AUTO 13009G20KT 090V160 10SM CLR 09/M01 A2970 RMK AO2",
  "sanitized": "KORS 171755Z 13009G20KT 090V160 10SM 09/M01 A2970 RMK AO2",
  "station": "KORS",
  "time": {
    "repr": "171755Z",
    "dt": "2023-04-17T17:55:00Z"
  },
  "remarks": "RMK AO2",
  "dewpoint": {
    "repr": "M01",
    "value": -1,
    "spoken": "minus one"
  },
  "relative_humidity": 0.4952523929764308,
  "remarks_info": {
    "maximum_temperature_6": null,
    "minimum_temperature_6": null,
    "pressure_tendency": null,
    "precip_36_hours": null,
    "precip_24_hours": null,
    "sunshine_minutes": null,
    "codes": [
      {
        "repr": "AO2",
        "value": "Automated with precipitation sensor"
      }
    ],
    "dewpoint_decimal": null,
    "maximum_temperature_24": null,
    "minimum_temperature_24": null,
    "precip_hourly": null,
    "sea_level_pressure": null,
    "snow_depth": null,
    "temperature_decimal": null
  },
  "runway_visibility": [],
  "temperature": {
    "repr": "09",
    "value": 9,
    "spoken": "nine"
  },
  "wind_variable_direction": [
    {
      "repr": "090",
      "value": 90,
      "spoken": "zero nine zero"
    },
    {
      "repr": "160",
      "value": 160,
      "spoken": "one six zero"
    }
  ],
  "density_altitude": -462,
  "pressure_altitude": 251,
  "units": {
    "accumulation": "in",
    "altimeter": "inHg",
    "altitude": "ft",
    "temperature": "C",
    "visibility": "sm",
    "wind_speed": "kt"
  }
}
