{
  "altimeter": {
    "repr": "A2973",
    "spoken": "two nine point seven three",
    "value": 29.73
  },
  "clouds": [
    {
      "altitude": 45,
      "modifier": null,
      "repr": "FEW045",
      "type": "FEW"
    },
    {
      "altitude": 55,
      "modifier": null,
      "repr": "FEW055",
      "type": "FEW"
    }
  ],
  "density_altitude": -492,
  "dewpoint": {
    "repr": "07",
    "spoken": "seven",
    "value": 7
  },
  "flight_rules": "VFR",
  "meta": {
    "stations_updated": "2024-10-29",
    "timestamp": "2024-10-30T21:06:39.253363Z"
  },
  "other": [],
  "pressure_altitude": 221,
  "raw": "KORS 302055Z AUTO 15013G18KT 10SM FEW045 FEW055 09/07 A2973 RMK AO2 P0001",
  "relative_humidity": 0.8727995787648956,
  "remarks": "RMK AO2 P0001",
  "remarks_info": {
    "codes": [
      {
        "repr": "AO2",
        "value": "Automated with precipitation sensor"
      }
    ],
    "dewpoint_decimal": null,
    "maximum_temperature_24": null,
    "maximum_temperature_6": null,
    "minimum_temperature_24": null,
    "minimum_temperature_6": null,
    "precip_24_hours": null,
    "precip_36_hours": null,
    "precip_hourly": {
      "repr": "P0001",
      "spoken": "zero point zero one",
      "value": 0.01
    },
    "pressure_tendency": null,
    "sea_level_pressure": null,
    "snow_depth": null,
    "sunshine_minutes": null,
    "temperature_decimal": null
  },
  "runway_visibility": [],
  "sanitized": "KORS 302055Z 15013G18KT 10SM FEW045 FEW055 09/07 A2973 RMK AO2 P0001",
  "station": "KORS",
  "temperature": {
    "repr": "09",
    "spoken": "nine",
    "value": 9
  },
  "time": {
    "dt": "2024-10-30T20:55:00Z",
    "repr": "302055Z"
  },
  "units": {
    "accumulation": "in",
    "altimeter": "inHg",
    "altitude": "ft",
    "temperature": "C",
    "visibility": "sm",
    "wind_speed": "kt"
  },
  "visibility": {
    "repr": "10",
    "spoken": "one zero",
    "value": 10
  },
  "wind_direction": {
    "repr": "150",
    "spoken": "one five zero",
    "value": 150
  },
  "wind_gust": {
    "repr": "18",
    "spoken": "one eight",
    "value": 18
  },
  "wind_speed": {
    "repr": "13",
    "spoken": "one three",
    "value": 13
  },
  "wind_variable_direction": [],
  "wx_codes": []
}
