{
  "altimeter": {
    "repr": "A2977",
    "spoken": "two nine point seven seven",
    "value": 29.77
  },
  "clouds": [],
  "density_altitude": -532,
  "dewpoint": {
    "repr": "09",
    "spoken": "nine",
    "value": 9
  },
  "flight_rules": "IFR",
  "meta": {
    "cache-timestamp": "2024-01-23T14:28:03.338000Z",
    "stations_updated": "2023-10-28",
    "timestamp": "2024-01-23T14:28:22.413821Z"
  },
  "other": [],
  "pressure_altitude": 181,
  "raw": "KORS 231355Z AUTO 19008KT -RA 09/09 A2977 RMK AO2 P0008",
  "relative_humidity": 1,
  "remarks": "RMK AO2 P0008",
  "remarks_info": {
    "codes": [
      {
        "repr": "AO2",
        "value": "Automated with precipitation sensor"
      }
    ],
    "dewpoint_decimal": null,
    "maximum_temperature_24": null,
    "maximum_temperature_6": null,
    "minimum_temperature_24": null,
    "minimum_temperature_6": null,
    "precip_24_hours": null,
    "precip_36_hours": null,
    "precip_hourly": {
      "repr": "P0008",
      "spoken": "zero point zero eight",
      "value": 0.08
    },
    "pressure_tendency": null,
    "sea_level_pressure": null,
    "snow_depth": null,
    "sunshine_minutes": null,
    "temperature_decimal": null
  },
  "runway_visibility": [],
  "sanitized": "KORS 231355Z 19008KT -RA 09/09 A2977 RMK AO2 P0008",
  "station": "KORS",
  "temperature": {
    "repr": "09",
    "spoken": "nine",
    "value": 9
  },
  "time": {
    "dt": "2024-01-23T13:55:00Z",
    "repr": "231355Z"
  },
  "units": {
    "accumulation": "in",
    "altimeter": "inHg",
    "altitude": "ft",
    "temperature": "C",
    "visibility": "sm",
    "wind_speed": "kt"
  },
  "visibility": null,
  "wind_direction": {
    "repr": "190",
    "spoken": "one nine zero",
    "value": 190
  },
  "wind_gust": null,
  "wind_speed": {
    "repr": "08",
    "spoken": "eight",
    "value": 8
  },
  "wind_variable_direction": [],
  "wx_codes": [
    {
      "repr": "-RA",
      "value": "Light Rain"
    }
  ]
}
