{
  "altimeter": {
    "repr": "A2977",
    "spoken": "two nine point seven seven",
    "value": 29.77
  },
  "clouds": [
    {
      "altitude": 41,
      "modifier": null,
      "repr": "FEW041",
      "type": "FEW"
    },
    {
      "altitude": 60,
      "modifier": null,
      "repr": "BKN060",
      "type": "BKN"
    },
    {
      "altitude": 70,
      "modifier": null,
      "repr": "BKN070",
      "type": "BKN"
    }
  ],
  "density_altitude": 188,
  "dewpoint": {
    "repr": "07",
    "spoken": "seven",
    "value": 7
  },
  "flight_rules": "VFR",
  "meta": {
    "cache-timestamp": "2024-06-03T21:40:02.946000Z",
    "stations_updated": "2024-05-13",
    "timestamp": "2024-06-03T21:40:34.088380Z"
  },
  "other": [],
  "pressure_altitude": 181,
  "raw": "KORS 032115Z AUTO 21009G20KT 180V270 10SM FEW041 BKN060 BKN070 15/07 A2977 RMK AO2",
  "relative_humidity": 0.587683914375952,
  "remarks": "RMK AO2",
  "remarks_info": {
    "codes": [
      {
        "repr": "AO2",
        "value": "Automated with precipitation sensor"
      }
    ],
    "dewpoint_decimal": null,
    "maximum_temperature_24": null,
    "maximum_temperature_6": null,
    "minimum_temperature_24": null,
    "minimum_temperature_6": null,
    "precip_24_hours": null,
    "precip_36_hours": null,
    "precip_hourly": null,
    "pressure_tendency": null,
    "sea_level_pressure": null,
    "snow_depth": null,
    "sunshine_minutes": null,
    "temperature_decimal": null
  },
  "runway_visibility": [],
  "sanitized": "KORS 032115Z 21009G20KT 180V270 10SM FEW041 BKN060 BKN070 15/07 A2977 RMK AO2",
  "station": "KORS",
  "temperature": {
    "repr": "15",
    "spoken": "one five",
    "value": 15
  },
  "time": {
    "dt": "2024-06-03T21:15:00Z",
    "repr": "032115Z"
  },
  "units": {
    "accumulation": "in",
    "altimeter": "inHg",
    "altitude": "ft",
    "temperature": "C",
    "visibility": "sm",
    "wind_speed": "kt"
  },
  "visibility": {
    "repr": "10",
    "spoken": "one zero",
    "value": 10
  },
  "wind_direction": {
    "repr": "210",
    "spoken": "two one zero",
    "value": 210
  },
  "wind_gust": {
    "repr": "20",
    "spoken": "two zero",
    "value": 20
  },
  "wind_speed": {
    "repr": "09",
    "spoken": "nine",
    "value": 9
  },
  "wind_variable_direction": [
    {
      "repr": "180",
      "spoken": "one eight zero",
      "value": 180
    },
    {
      "repr": "270",
      "spoken": "two seven zero",
      "value": 270
    }
  ],
  "wx_codes": []
}
