{
  "meta": {
    "timestamp": "2023-03-28T22:26:09.263902Z",
    "stations_updated": "2023-03-11",
    "cache-timestamp": "2023-03-28T22:26:06.748000Z"
  },
  "altimeter": {
    "repr": "A2980",
    "value": 29.8,
    "spoken": "two nine point eight zero"
  },
  "clouds": [],
  "flight_rules": "VFR",
  "other": [],
  "visibility": {
    "repr": "9",
    "value": 9,
    "spoken": "nine"
  },
  "wind_direction": {
    "repr": "020",
    "value": 20,
    "spoken": "zero two zero"
  },
  "wind_gust": {
    "repr": "13",
    "value": 13,
    "spoken": "one three"
  },
  "wind_speed": {
    "repr": "07",
    "value": 7,
    "spoken": "seven"
  },
  "wx_codes": [],
  "raw": "KORS 282155Z AUTO 02007G13KT 310V050 9SM CLR 15/M01 A2980 RMK AO2",
  "sanitized": "KORS 282155Z 02007G13KT 310V050 9SM 15/M01 A2980 RMK AO2",
  "station": "KORS",
  "time": {
    "repr": "282155Z",
    "dt": "2023-03-28T21:55:00Z"
  },
  "remarks": "RMK AO2",
  "dewpoint": {
    "repr": "M01",
    "value": -1,
    "spoken": "minus one"
  },
  "relative_humidity": 0.3334693003865968,
  "remarks_info": {
    "maximum_temperature_6": null,
    "minimum_temperature_6": null,
    "pressure_tendency": null,
    "precip_36_hours": null,
    "precip_24_hours": null,
    "sunshine_minutes": null,
    "codes": [
      {
        "repr": "AO2",
        "value": "Automated with precipitation sensor"
      }
    ],
    "dewpoint_decimal": null,
    "maximum_temperature_24": null,
    "minimum_temperature_24": null,
    "precip_hourly": null,
    "sea_level_pressure": null,
    "snow_depth": null,
    "temperature_decimal": null
  },
  "runway_visibility": [],
  "temperature": {
    "repr": "15",
    "value": 15,
    "spoken": "one five"
  },
  "wind_variable_direction": [
    {
      "repr": "310",
      "value": 310,
      "spoken": "three one zero"
    },
    {
      "repr": "050",
      "value": 50,
      "spoken": "zero five zero"
    }
  ],
  "density_altitude": 158,
  "pressure_altitude": 151,
  "units": {
    "accumulation": "in",
    "altimeter": "inHg",
    "altitude": "ft",
    "temperature": "C",
    "visibility": "sm",
    "wind_speed": "kt"
  }
}
