{
  "meta": {
    "timestamp": "2023-01-13T06:43:54.523366Z",
    "stations_updated": "2022-12-27"
  },
  "altimeter": {
    "repr": "A2976",
    "value": 29.76,
    "spoken": "two nine point seven six"
  },
  "clouds": [
    {
      "repr": "OVC075",
      "type": "OVC",
      "altitude": 75,
      "modifier": null
    }
  ],
  "flight_rules": "VFR",
  "other": [],
  "visibility": {
    "repr": "8",
    "value": 8,
    "spoken": "eight"
  },
  "wind_direction": {
    "repr": "170",
    "value": 170,
    "spoken": "one seven zero"
  },
  "wind_gust": {
    "repr": "19",
    "value": 19,
    "spoken": "one nine"
  },
  "wind_speed": {
    "repr": "10",
    "value": 10,
    "spoken": "one zero"
  },
  "wx_codes": [
    {
      "repr": "-RA",
      "value": "Light Rain"
    }
  ],
  "raw": "KORS 130635Z AUTO 17010G19KT 8SM -RA OVC075 15/09 A2976 RMK AO2",
  "sanitized": "KORS 130635Z 17010G19KT 8SM -RA OVC075 15/09 A2976 RMK AO2",
  "station": "KORS",
  "time": {
    "repr": "130635Z",
    "dt": "2023-01-13T06:35:00Z"
  },
  "remarks": "RMK AO2",
  "dewpoint": {
    "repr": "09",
    "value": 9,
    "spoken": "nine"
  },
  "relative_humidity": 0.6733320325470223,
  "remarks_info": {
    "maximum_temperature_6": null,
    "minimum_temperature_6": null,
    "pressure_tendency": null,
    "precip_36_hours": null,
    "precip_24_hours": null,
    "sunshine_minutes": null,
    "codes": [
      {
        "repr": "AO2",
        "value": "Automated with precipitation sensor"
      }
    ],
    "dewpoint_decimal": null,
    "maximum_temperature_24": null,
    "minimum_temperature_24": null,
    "precip_hourly": null,
    "sea_level_pressure": null,
    "snow_depth": null,
    "temperature_decimal": null
  },
  "runway_visibility": [],
  "temperature": {
    "repr": "15",
    "value": 15,
    "spoken": "one five"
  },
  "wind_variable_direction": [],
  "density_altitude": 198,
  "pressure_altitude": 191,
  "units": {
    "accumulation": "in",
    "altimeter": "inHg",
    "altitude": "ft",
    "temperature": "C",
    "visibility": "sm",
    "wind_speed": "kt"
  }
}
