{
  "altimeter": {
    "repr": "A2945",
    "spoken": "two nine point four five",
    "value": 29.45
  },
  "clouds": [
    {
      "altitude": 50,
      "modifier": null,
      "repr": "FEW050",
      "type": "FEW"
    },
    {
      "altitude": 75,
      "modifier": null,
      "repr": "BKN075",
      "type": "BKN"
    },
    {
      "altitude": 90,
      "modifier": null,
      "repr": "BKN090",
      "type": "BKN"
    }
  ],
  "density_altitude": 388,
  "dewpoint": {
    "repr": "09",
    "spoken": "nine",
    "value": 9
  },
  "flight_rules": "VFR",
  "meta": {
    "cache-timestamp": "2024-01-31T12:08:05.275000Z",
    "stations_updated": "2023-10-28",
    "timestamp": "2024-01-31T12:09:03.924091Z"
  },
  "other": [],
  "pressure_altitude": 501,
  "raw": "KORS 311155Z AUTO 13009G17KT 050V190 10SM FEW050 BKN075 BKN090 14/09 A2945 RMK AO2 P0001",
  "relative_humidity": 0.7182933363283265,
  "remarks": "RMK AO2 P0001",
  "remarks_info": {
    "codes": [
      {
        "repr": "AO2",
        "value": "Automated with precipitation sensor"
      }
    ],
    "dewpoint_decimal": null,
    "maximum_temperature_24": null,
    "maximum_temperature_6": null,
    "minimum_temperature_24": null,
    "minimum_temperature_6": null,
    "precip_24_hours": null,
    "precip_36_hours": null,
    "precip_hourly": {
      "repr": "P0001",
      "spoken": "zero point zero one",
      "value": 0.01
    },
    "pressure_tendency": null,
    "sea_level_pressure": null,
    "snow_depth": null,
    "sunshine_minutes": null,
    "temperature_decimal": null
  },
  "runway_visibility": [],
  "sanitized": "KORS 311155Z 13009G17KT 050V190 10SM FEW050 BKN075 BKN090 14/09 A2945 RMK AO2 P0001",
  "station": "KORS",
  "temperature": {
    "repr": "14",
    "spoken": "one four",
    "value": 14
  },
  "time": {
    "dt": "2024-01-31T11:55:00Z",
    "repr": "311155Z"
  },
  "units": {
    "accumulation": "in",
    "altimeter": "inHg",
    "altitude": "ft",
    "temperature": "C",
    "visibility": "sm",
    "wind_speed": "kt"
  },
  "visibility": {
    "repr": "10",
    "spoken": "one zero",
    "value": 10
  },
  "wind_direction": {
    "repr": "130",
    "spoken": "one three zero",
    "value": 130
  },
  "wind_gust": {
    "repr": "17",
    "spoken": "one seven",
    "value": 17
  },
  "wind_speed": {
    "repr": "09",
    "spoken": "nine",
    "value": 9
  },
  "wind_variable_direction": [
    {
      "repr": "050",
      "spoken": "zero five zero",
      "value": 50
    },
    {
      "repr": "190",
      "spoken": "one nine zero",
      "value": 190
    }
  ],
  "wx_codes": []
}
