{
  "meta": {
    "timestamp": "2023-01-13T14:40:47.162333Z",
    "stations_updated": "2022-12-27",
    "cache-timestamp": "2023-01-13T14:40:10.768000Z"
  },
  "altimeter": {
    "repr": "A2964",
    "value": 29.64,
    "spoken": "two nine point six four"
  },
  "clouds": [
    {
      "repr": "BKN075",
      "type": "BKN",
      "altitude": 75,
      "modifier": null
    },
    {
      "repr": "OVC085",
      "type": "OVC",
      "altitude": 85,
      "modifier": null
    }
  ],
  "flight_rules": "VFR",
  "other": [],
  "visibility": {
    "repr": "10",
    "value": 10,
    "spoken": "one zero"
  },
  "wind_direction": {
    "repr": "150",
    "value": 150,
    "spoken": "one five zero"
  },
  "wind_gust": {
    "repr": "23",
    "value": 23,
    "spoken": "two three"
  },
  "wind_speed": {
    "repr": "11",
    "value": 11,
    "spoken": "one one"
  },
  "wx_codes": [],
  "raw": "KORS 131415Z AUTO 15011G23KT 110V170 10SM BKN075 OVC085 15/08 A2964 RMK AO2",
  "sanitized": "KORS 131415Z 15011G23KT 110V170 10SM BKN075 OVC085 15/08 A2964 RMK AO2",
  "station": "KORS",
  "time": {
    "repr": "131415Z",
    "dt": "2023-01-13T14:15:00Z"
  },
  "remarks": "RMK AO2",
  "dewpoint": {
    "repr": "08",
    "value": 8,
    "spoken": "eight"
  },
  "relative_humidity": 0.62922215511065,
  "remarks_info": {
    "maximum_temperature_6": null,
    "minimum_temperature_6": null,
    "pressure_tendency": null,
    "precip_36_hours": null,
    "precip_24_hours": null,
    "sunshine_minutes": null,
    "codes": [
      {
        "repr": "AO2",
        "value": "Automated with precipitation sensor"
      }
    ],
    "dewpoint_decimal": null,
    "maximum_temperature_24": null,
    "minimum_temperature_24": null,
    "precip_hourly": null,
    "sea_level_pressure": null,
    "snow_depth": null,
    "temperature_decimal": null
  },
  "runway_visibility": [],
  "temperature": {
    "repr": "15",
    "value": 15,
    "spoken": "one five"
  },
  "wind_variable_direction": [
    {
      "repr": "110",
      "value": 110,
      "spoken": "one one zero"
    },
    {
      "repr": "170",
      "value": 170,
      "spoken": "one seven zero"
    }
  ],
  "density_altitude": 318,
  "pressure_altitude": 311,
  "units": {
    "accumulation": "in",
    "altimeter": "inHg",
    "altitude": "ft",
    "temperature": "C",
    "visibility": "sm",
    "wind_speed": "kt"
  }
}
