{
  "meta": {
    "timestamp": "2023-03-24T06:41:28.995180Z",
    "stations_updated": "2023-03-11"
  },
  "altimeter": {
    "repr": "A3000",
    "value": 30,
    "spoken": "three zero point zero zero"
  },
  "clouds": [
    {
      "repr": "FEW037",
      "type": "FEW",
      "altitude": 37,
      "modifier": null
    },
    {
      "repr": "OVC120",
      "type": "OVC",
      "altitude": 120,
      "modifier": null
    }
  ],
  "flight_rules": "VFR",
  "other": [],
  "visibility": {
    "repr": "9",
    "value": 9,
    "spoken": "nine"
  },
  "wind_direction": {
    "repr": "200",
    "value": 200,
    "spoken": "two zero zero"
  },
  "wind_gust": null,
  "wind_speed": {
    "repr": "08",
    "value": 8,
    "spoken": "eight"
  },
  "wx_codes": [],
  "raw": "KORS 240635Z AUTO 20008KT 170V230 9SM FEW037 OVC120 06/01 A3000 RMK AO2",
  "sanitized": "KORS 240635Z 20008KT 170V230 9SM FEW037 OVC120 06/01 A3000 RMK AO2",
  "station": "KORS",
  "time": {
    "repr": "240635Z",
    "dt": "2023-03-24T06:35:00Z"
  },
  "remarks": "RMK AO2",
  "dewpoint": {
    "repr": "01",
    "value": 1,
    "spoken": "one"
  },
  "relative_humidity": 0.702816165710442,
  "remarks_info": {
    "maximum_temperature_6": null,
    "minimum_temperature_6": null,
    "pressure_tendency": null,
    "precip_36_hours": null,
    "precip_24_hours": null,
    "sunshine_minutes": null,
    "codes": [
      {
        "repr": "AO2",
        "value": "Automated with precipitation sensor"
      }
    ],
    "dewpoint_decimal": null,
    "maximum_temperature_24": null,
    "minimum_temperature_24": null,
    "precip_hourly": null,
    "sea_level_pressure": null,
    "snow_depth": null,
    "temperature_decimal": null
  },
  "runway_visibility": [],
  "temperature": {
    "repr": "06",
    "value": 6,
    "spoken": "six"
  },
  "wind_variable_direction": [
    {
      "repr": "170",
      "value": 170,
      "spoken": "one seven zero"
    },
    {
      "repr": "230",
      "value": 230,
      "spoken": "two three zero"
    }
  ],
  "density_altitude": -1122,
  "pressure_altitude": -49,
  "units": {
    "accumulation": "in",
    "altimeter": "inHg",
    "altitude": "ft",
    "temperature": "C",
    "visibility": "sm",
    "wind_speed": "kt"
  }
}
