{
  "meta": {
    "timestamp": "2022-12-22T07:40:47.930152Z",
    "stations_updated": "2022-09-05"
  },
  "altimeter": {
    "repr": "A3067",
    "value": 30.67,
    "spoken": "three zero point six seven"
  },
  "clouds": [],
  "flight_rules": "MVFR",
  "other": [],
  "visibility": {
    "repr": "5",
    "value": 5,
    "spoken": "five"
  },
  "wind_direction": {
    "repr": "040",
    "value": 40,
    "spoken": "zero four zero"
  },
  "wind_gust": {
    "repr": "25",
    "value": 25,
    "spoken": "two five"
  },
  "wind_speed": {
    "repr": "14",
    "value": 14,
    "spoken": "one four"
  },
  "wx_codes": [
    {
      "repr": "HZ",
      "value": "Haze"
    }
  ],
  "raw": "KORS 220735Z AUTO 04014G25KT 300V090 5SM HZ CLR M09/M18 A3067 RMK AO2",
  "sanitized": "KORS 220735Z 04014G25KT 300V090 5SM HZ M09/M18 A3067 RMK AO2",
  "station": "KORS",
  "time": {
    "repr": "220735Z",
    "dt": "2022-12-22T07:35:00Z"
  },
  "remarks": "RMK AO2",
  "dewpoint": {
    "repr": "M18",
    "value": -18,
    "spoken": "minus one eight"
  },
  "relative_humidity": 0.48080219972884974,
  "remarks_info": {
    "maximum_temperature_6": null,
    "minimum_temperature_6": null,
    "pressure_tendency": null,
    "precip_36_hours": null,
    "precip_24_hours": null,
    "sunshine_minutes": null,
    "codes": [
      {
        "repr": "AO2",
        "value": "Automated with precipitation sensor"
      }
    ],
    "dewpoint_decimal": null,
    "maximum_temperature_24": null,
    "minimum_temperature_24": null,
    "precip_hourly": null,
    "sea_level_pressure": null,
    "snow_depth": null,
    "temperature_decimal": null
  },
  "runway_visibility": [],
  "temperature": {
    "repr": "M09",
    "value": -9,
    "spoken": "minus nine"
  },
  "wind_variable_direction": [
    {
      "repr": "300",
      "value": 300,
      "spoken": "three zero zero"
    },
    {
      "repr": "090",
      "value": 90,
      "spoken": "zero nine zero"
    }
  ],
  "density_altitude": -3592,
  "pressure_altitude": -719,
  "units": {
    "accumulation": "in",
    "altimeter": "inHg",
    "altitude": "ft",
    "temperature": "C",
    "visibility": "sm",
    "wind_speed": "kt"
  }
}
