{
  "meta": {
    "timestamp": "2022-11-15T14:28:40.711327Z",
    "stations_updated": "2022-09-05"
  },
  "altimeter": {
    "repr": "A3052",
    "value": 30.52,
    "spoken": "three zero point five two"
  },
  "clouds": [
    {
      "repr": "OVC008",
      "type": "OVC",
      "altitude": 8,
      "modifier": null
    }
  ],
  "flight_rules": "IFR",
  "other": [],
  "visibility": {
    "repr": "10",
    "value": 10,
    "spoken": "one zero"
  },
  "wind_direction": {
    "repr": "340",
    "value": 340,
    "spoken": "three four zero"
  },
  "wind_gust": null,
  "wind_speed": {
    "repr": "07",
    "value": 7,
    "spoken": "seven"
  },
  "wx_codes": [],
  "raw": "KORS 151415Z AUTO 34007KT 10SM OVC008 07/06 A3052 RMK AO2",
  "sanitized": "KORS 151415Z 34007KT 10SM OVC008 07/06 A3052 RMK AO2",
  "station": "KORS",
  "time": {
    "repr": "151415Z",
    "dt": "2022-11-15T14:15:00Z"
  },
  "remarks": "RMK AO2",
  "dewpoint": {
    "repr": "06",
    "value": 6,
    "spoken": "six"
  },
  "relative_humidity": 0.9334736015813517,
  "remarks_info": {
    "maximum_temperature_6": null,
    "minimum_temperature_6": null,
    "pressure_tendency": null,
    "precip_36_hours": null,
    "precip_24_hours": null,
    "sunshine_minutes": null,
    "codes": [
      {
        "repr": "AO2",
        "value": "Automated with precipitation sensor"
      }
    ],
    "dewpoint_decimal": null,
    "maximum_temperature_24": null,
    "minimum_temperature_24": null,
    "precip_hourly": null,
    "sea_level_pressure": null,
    "snow_depth": null,
    "temperature_decimal": null
  },
  "runway_visibility": [],
  "temperature": {
    "repr": "07",
    "value": 7,
    "spoken": "seven"
  },
  "wind_variable_direction": [],
  "density_altitude": -1522,
  "pressure_altitude": -569,
  "units": {
    "accumulation": "in",
    "altimeter": "inHg",
    "altitude": "ft",
    "temperature": "C",
    "visibility": "sm",
    "wind_speed": "kt"
  }
}
