{
  "altimeter": {
    "repr": "A2985",
    "spoken": "two nine point eight five",
    "value": 29.85
  },
  "clouds": [],
  "density_altitude": -732,
  "dewpoint": {
    "repr": "04",
    "spoken": "four",
    "value": 4
  },
  "flight_rules": "VFR",
  "meta": {
    "stations_updated": "2024-01-01",
    "timestamp": "2024-04-04T17:01:14.435790Z"
  },
  "other": [],
  "pressure_altitude": 101,
  "raw": "KORS 041655Z AUTO 33017G24KT 9SM CLR 08/04 A2985 RMK AO2",
  "relative_humidity": 0.7584398103585424,
  "remarks": "RMK AO2",
  "remarks_info": {
    "codes": [
      {
        "repr": "AO2",
        "value": "Automated with precipitation sensor"
      }
    ],
    "dewpoint_decimal": null,
    "maximum_temperature_24": null,
    "maximum_temperature_6": null,
    "minimum_temperature_24": null,
    "minimum_temperature_6": null,
    "precip_24_hours": null,
    "precip_36_hours": null,
    "precip_hourly": null,
    "pressure_tendency": null,
    "sea_level_pressure": null,
    "snow_depth": null,
    "sunshine_minutes": null,
    "temperature_decimal": null
  },
  "runway_visibility": [],
  "sanitized": "KORS 041655Z 33017G24KT 9SM 08/04 A2985 RMK AO2",
  "station": "KORS",
  "temperature": {
    "repr": "08",
    "spoken": "eight",
    "value": 8
  },
  "time": {
    "dt": "2024-04-04T16:55:00Z",
    "repr": "041655Z"
  },
  "units": {
    "accumulation": "in",
    "altimeter": "inHg",
    "altitude": "ft",
    "temperature": "C",
    "visibility": "sm",
    "wind_speed": "kt"
  },
  "visibility": {
    "repr": "9",
    "spoken": "nine",
    "value": 9
  },
  "wind_direction": {
    "repr": "330",
    "spoken": "three three zero",
    "value": 330
  },
  "wind_gust": {
    "repr": "24",
    "spoken": "two four",
    "value": 24
  },
  "wind_speed": {
    "repr": "17",
    "spoken": "one seven",
    "value": 17
  },
  "wind_variable_direction": [],
  "wx_codes": []
}
