{
  "meta": {
    "timestamp": "2023-01-09T21:02:14.575640Z",
    "stations_updated": "2022-12-27"
  },
  "altimeter": {
    "repr": "A2937",
    "value": 29.37,
    "spoken": "two nine point three seven"
  },
  "clouds": [
    {
      "repr": "BKN050",
      "type": "BKN",
      "altitude": 50,
      "modifier": null
    },
    {
      "repr": "BKN070",
      "type": "BKN",
      "altitude": 70,
      "modifier": null
    }
  ],
  "flight_rules": "VFR",
  "other": [],
  "visibility": {
    "repr": "10",
    "value": 10,
    "spoken": "one zero"
  },
  "wind_direction": {
    "repr": "130",
    "value": 130,
    "spoken": "one three zero"
  },
  "wind_gust": {
    "repr": "20",
    "value": 20,
    "spoken": "two zero"
  },
  "wind_speed": {
    "repr": "10",
    "value": 10,
    "spoken": "one zero"
  },
  "wx_codes": [],
  "raw": "KORS 092055Z AUTO 13010G20KT 050V170 10SM BKN050 BKN070 13/02 A2937 RMK AO2",
  "sanitized": "KORS 092055Z 13010G20KT 050V170 10SM BKN050 BKN070 13/02 A2937 RMK AO2",
  "station": "KORS",
  "time": {
    "repr": "092055Z",
    "dt": "2023-01-09T20:55:00Z"
  },
  "remarks": "RMK AO2",
  "dewpoint": {
    "repr": "02",
    "value": 2,
    "spoken": "two"
  },
  "relative_humidity": 0.4716092787865217,
  "remarks_info": {
    "maximum_temperature_6": null,
    "minimum_temperature_6": null,
    "pressure_tendency": null,
    "precip_36_hours": null,
    "precip_24_hours": null,
    "sunshine_minutes": null,
    "codes": [
      {
        "repr": "AO2",
        "value": "Automated with precipitation sensor"
      }
    ],
    "dewpoint_decimal": null,
    "maximum_temperature_24": null,
    "minimum_temperature_24": null,
    "precip_hourly": null,
    "sea_level_pressure": null,
    "snow_depth": null,
    "temperature_decimal": null
  },
  "runway_visibility": [],
  "temperature": {
    "repr": "13",
    "value": 13,
    "spoken": "one three"
  },
  "wind_variable_direction": [
    {
      "repr": "050",
      "value": 50,
      "spoken": "zero five zero"
    },
    {
      "repr": "170",
      "value": 170,
      "spoken": "one seven zero"
    }
  ],
  "density_altitude": 348,
  "pressure_altitude": 581,
  "units": {
    "accumulation": "in",
    "altimeter": "inHg",
    "altitude": "ft",
    "temperature": "C",
    "visibility": "sm",
    "wind_speed": "kt"
  }
}
