{
  "meta": {
    "timestamp": "2022-12-27T12:08:25.445441Z",
    "stations_updated": "2022-09-05"
  },
  "altimeter": {
    "repr": "A2884",
    "value": 28.84,
    "spoken": "two eight point eight four"
  },
  "clouds": [
    {
      "repr": "BKN023",
      "type": "BKN",
      "altitude": 23,
      "modifier": null
    },
    {
      "repr": "BKN030",
      "type": "BKN",
      "altitude": 30,
      "modifier": null
    },
    {
      "repr": "OVC100",
      "type": "OVC",
      "altitude": 100,
      "modifier": null
    }
  ],
  "flight_rules": "MVFR",
  "other": [],
  "visibility": {
    "repr": "10",
    "value": 10,
    "spoken": "one zero"
  },
  "wind_direction": {
    "repr": "150",
    "value": 150,
    "spoken": "one five zero"
  },
  "wind_gust": {
    "repr": "26",
    "value": 26,
    "spoken": "two six"
  },
  "wind_speed": {
    "repr": "17",
    "value": 17,
    "spoken": "one seven"
  },
  "wx_codes": [],
  "raw": "KORS 271155Z AUTO 15017G26KT 10SM BKN023 BKN030 OVC100 13/12 A2884 RMK AO2",
  "sanitized": "KORS 271155Z 15017G26KT 10SM BKN023 BKN030 OVC100 13/12 A2884 RMK AO2",
  "station": "KORS",
  "time": {
    "repr": "271155Z",
    "dt": "2022-12-27T11:55:00Z"
  },
  "remarks": "RMK AO2",
  "dewpoint": {
    "repr": "12",
    "value": 12,
    "spoken": "one two"
  },
  "relative_humidity": 0.9364553807565813,
  "remarks_info": {
    "maximum_temperature_6": null,
    "minimum_temperature_6": null,
    "pressure_tendency": null,
    "precip_36_hours": null,
    "precip_24_hours": null,
    "sunshine_minutes": null,
    "codes": [
      {
        "repr": "AO2",
        "value": "Automated with precipitation sensor"
      }
    ],
    "dewpoint_decimal": null,
    "maximum_temperature_24": null,
    "minimum_temperature_24": null,
    "precip_hourly": null,
    "sea_level_pressure": null,
    "snow_depth": null,
    "temperature_decimal": null
  },
  "runway_visibility": [],
  "temperature": {
    "repr": "13",
    "value": 13,
    "spoken": "one three"
  },
  "wind_variable_direction": [],
  "density_altitude": 878,
  "pressure_altitude": 1111,
  "units": {
    "accumulation": "in",
    "altimeter": "inHg",
    "altitude": "ft",
    "temperature": "C",
    "visibility": "sm",
    "wind_speed": "kt"
  }
}
