{
  "meta": {
    "timestamp": "2022-12-01T11:25:25.076223Z",
    "stations_updated": "2022-09-05"
  },
  "altimeter": {
    "repr": "A2961",
    "value": 29.61,
    "spoken": "two nine point six one"
  },
  "clouds": [
    {
      "repr": "SCT041",
      "type": "SCT",
      "altitude": 41,
      "modifier": null
    },
    {
      "repr": "OVC110",
      "type": "OVC",
      "altitude": 110,
      "modifier": null
    }
  ],
  "flight_rules": "VFR",
  "other": [],
  "visibility": {
    "repr": "10",
    "value": 10,
    "spoken": "one zero"
  },
  "wind_direction": {
    "repr": "030",
    "value": 30,
    "spoken": "zero three zero"
  },
  "wind_gust": {
    "repr": "14",
    "value": 14,
    "spoken": "one four"
  },
  "wind_speed": {
    "repr": "07",
    "value": 7,
    "spoken": "seven"
  },
  "wx_codes": [],
  "raw": "KORS 011115Z AUTO 03007G14KT 330V070 10SM SCT041 OVC110 01/M05 A2961 RMK AO2",
  "sanitized": "KORS 011115Z 03007G14KT 330V070 10SM SCT041 OVC110 01/M05 A2961 RMK AO2",
  "station": "KORS",
  "time": {
    "repr": "011115Z",
    "dt": "2022-12-01T11:15:00Z"
  },
  "remarks": "RMK AO2",
  "dewpoint": {
    "repr": "M05",
    "value": -5,
    "spoken": "minus five"
  },
  "relative_humidity": 0.6422933230023298,
  "remarks_info": {
    "maximum_temperature_6": null,
    "minimum_temperature_6": null,
    "pressure_tendency": null,
    "precip_36_hours": null,
    "precip_24_hours": null,
    "sunshine_minutes": null,
    "codes": [
      {
        "repr": "AO2",
        "value": "Automated with precipitation sensor"
      }
    ],
    "dewpoint_decimal": null,
    "maximum_temperature_24": null,
    "minimum_temperature_24": null,
    "precip_hourly": null,
    "sea_level_pressure": null,
    "snow_depth": null,
    "temperature_decimal": null
  },
  "runway_visibility": [],
  "temperature": {
    "repr": "01",
    "value": 1,
    "spoken": "one"
  },
  "wind_variable_direction": [
    {
      "repr": "330",
      "value": 330,
      "spoken": "three three zero"
    },
    {
      "repr": "070",
      "value": 70,
      "spoken": "zero seven zero"
    }
  ],
  "density_altitude": -1332,
  "pressure_altitude": 341,
  "units": {
    "accumulation": "in",
    "altimeter": "inHg",
    "altitude": "ft",
    "temperature": "C",
    "visibility": "sm",
    "wind_speed": "kt"
  }
}
