{
  "meta": {
    "timestamp": "2023-03-25T03:02:15.803224Z",
    "stations_updated": "2023-03-11"
  },
  "altimeter": {
    "repr": "A3013",
    "value": 30.13,
    "spoken": "three zero point one three"
  },
  "clouds": [
    {
      "repr": "FEW024",
      "type": "FEW",
      "altitude": 24,
      "modifier": null
    },
    {
      "repr": "BKN036",
      "type": "BKN",
      "altitude": 36,
      "modifier": null
    },
    {
      "repr": "OVC049",
      "type": "OVC",
      "altitude": 49,
      "modifier": null
    }
  ],
  "flight_rules": "MVFR",
  "other": [],
  "visibility": {
    "repr": "3",
    "value": 3,
    "spoken": "three"
  },
  "wind_direction": {
    "repr": "240",
    "value": 240,
    "spoken": "two four zero"
  },
  "wind_gust": {
    "repr": "12",
    "value": 12,
    "spoken": "one two"
  },
  "wind_speed": {
    "repr": "07",
    "value": 7,
    "spoken": "seven"
  },
  "wx_codes": [
    {
      "repr": "-RA",
      "value": "Light Rain"
    },
    {
      "repr": "BR",
      "value": "Mist"
    }
  ],
  "raw": "KORS 250255Z AUTO 24007G12KT 190V270 3SM -RA BR FEW024 BKN036 OVC049 05/04 A3013 RMK AO2",
  "sanitized": "KORS 250255Z 24007G12KT 190V270 3SM -RA BR FEW024 BKN036 OVC049 05/04 A3013 RMK AO2",
  "station": "KORS",
  "time": {
    "repr": "250255Z",
    "dt": "2023-03-25T02:55:00Z"
  },
  "remarks": "RMK AO2",
  "dewpoint": {
    "repr": "04",
    "value": 4,
    "spoken": "four"
  },
  "relative_humidity": 0.9324335019213874,
  "remarks_info": {
    "maximum_temperature_6": null,
    "minimum_temperature_6": null,
    "pressure_tendency": null,
    "precip_36_hours": null,
    "precip_24_hours": null,
    "sunshine_minutes": null,
    "codes": [
      {
        "repr": "AO2",
        "value": "Automated with precipitation sensor"
      }
    ],
    "dewpoint_decimal": null,
    "maximum_temperature_24": null,
    "minimum_temperature_24": null,
    "precip_hourly": null,
    "sea_level_pressure": null,
    "snow_depth": null,
    "temperature_decimal": null
  },
  "runway_visibility": [],
  "temperature": {
    "repr": "05",
    "value": 5,
    "spoken": "five"
  },
  "wind_variable_direction": [
    {
      "repr": "190",
      "value": 190,
      "spoken": "one nine zero"
    },
    {
      "repr": "270",
      "value": 270,
      "spoken": "two seven zero"
    }
  ],
  "density_altitude": -1372,
  "pressure_altitude": -179,
  "units": {
    "accumulation": "in",
    "altimeter": "inHg",
    "altitude": "ft",
    "temperature": "C",
    "visibility": "sm",
    "wind_speed": "kt"
  }
}
