{
  "meta": {
    "timestamp": "2023-01-05T16:07:21.512913Z",
    "stations_updated": "2022-12-27"
  },
  "altimeter": {
    "repr": "A2941",
    "value": 29.41,
    "spoken": "two nine point four one"
  },
  "clouds": [
    {
      "repr": "SCT070",
      "type": "SCT",
      "altitude": 70,
      "modifier": null
    }
  ],
  "flight_rules": "VFR",
  "other": [],
  "visibility": {
    "repr": "10",
    "value": 10,
    "spoken": "one zero"
  },
  "wind_direction": {
    "repr": "030",
    "value": 30,
    "spoken": "zero three zero"
  },
  "wind_gust": {
    "repr": "13",
    "value": 13,
    "spoken": "one three"
  },
  "wind_speed": {
    "repr": "07",
    "value": 7,
    "spoken": "seven"
  },
  "wx_codes": [],
  "raw": "KORS 051555Z AUTO 03007G13KT 350V070 10SM SCT070 09/02 A2941 RMK AO2",
  "sanitized": "KORS 051555Z 03007G13KT 350V070 10SM SCT070 09/02 A2941 RMK AO2",
  "station": "KORS",
  "time": {
    "repr": "051555Z",
    "dt": "2023-01-05T15:55:00Z"
  },
  "remarks": "RMK AO2",
  "dewpoint": {
    "repr": "02",
    "value": 2,
    "spoken": "two"
  },
  "relative_humidity": 0.6151613658997841,
  "remarks_info": {
    "maximum_temperature_6": null,
    "minimum_temperature_6": null,
    "pressure_tendency": null,
    "precip_36_hours": null,
    "precip_24_hours": null,
    "sunshine_minutes": null,
    "codes": [
      {
        "repr": "AO2",
        "value": "Automated with precipitation sensor"
      }
    ],
    "dewpoint_decimal": null,
    "maximum_temperature_24": null,
    "minimum_temperature_24": null,
    "precip_hourly": null,
    "sea_level_pressure": null,
    "snow_depth": null,
    "temperature_decimal": null
  },
  "runway_visibility": [],
  "temperature": {
    "repr": "09",
    "value": 9,
    "spoken": "nine"
  },
  "wind_variable_direction": [
    {
      "repr": "350",
      "value": 350,
      "spoken": "three five zero"
    },
    {
      "repr": "070",
      "value": 70,
      "spoken": "zero seven zero"
    }
  ],
  "density_altitude": -172,
  "pressure_altitude": 541,
  "units": {
    "accumulation": "in",
    "altimeter": "inHg",
    "altitude": "ft",
    "temperature": "C",
    "visibility": "sm",
    "wind_speed": "kt"
  }
}
