{
  "meta": {
    "timestamp": "2022-12-21T23:26:59.702902Z",
    "stations_updated": "2022-09-05"
  },
  "altimeter": {
    "repr": "A3061",
    "value": 30.61,
    "spoken": "three zero point six one"
  },
  "clouds": [],
  "flight_rules": "IFR",
  "other": [],
  "visibility": {
    "repr": "2",
    "value": 2,
    "spoken": "two"
  },
  "wind_direction": {
    "repr": "050",
    "value": 50,
    "spoken": "zero five zero"
  },
  "wind_gust": {
    "repr": "22",
    "value": 22,
    "spoken": "two two"
  },
  "wind_speed": {
    "repr": "11",
    "value": 11,
    "spoken": "one one"
  },
  "wx_codes": [
    {
      "repr": "-SN",
      "value": "Light Snow"
    },
    {
      "repr": "HZ",
      "value": "Haze"
    }
  ],
  "raw": "KORS 212315Z AUTO 05011G22KT 010V100 2SM -SN HZ CLR M08/M17 A3061 RMK AO2 VIS 1 1/2V5",
  "sanitized": "KORS 212315Z 05011G22KT 010V100 2SM -SN HZ M08/M17 A3061 RMK AO2 VIS 1 1/2V5",
  "station": "KORS",
  "time": {
    "repr": "212315Z",
    "dt": "2022-12-21T23:15:00Z"
  },
  "remarks": "RMK AO2 VIS 1 1/2V5",
  "dewpoint": {
    "repr": "M17",
    "value": -17,
    "spoken": "minus one seven"
  },
  "relative_humidity": 0.4838548139261432,
  "remarks_info": {
    "maximum_temperature_6": null,
    "minimum_temperature_6": null,
    "pressure_tendency": null,
    "precip_36_hours": null,
    "precip_24_hours": null,
    "sunshine_minutes": null,
    "codes": [
      {
        "repr": "AO2",
        "value": "Automated with precipitation sensor"
      }
    ],
    "dewpoint_decimal": null,
    "maximum_temperature_24": null,
    "minimum_temperature_24": null,
    "precip_hourly": null,
    "sea_level_pressure": null,
    "snow_depth": null,
    "temperature_decimal": null
  },
  "runway_visibility": [],
  "temperature": {
    "repr": "M08",
    "value": -8,
    "spoken": "minus eight"
  },
  "wind_variable_direction": [
    {
      "repr": "010",
      "value": 10,
      "spoken": "zero one zero"
    },
    {
      "repr": "100",
      "value": 100,
      "spoken": "one zero zero"
    }
  ],
  "density_altitude": -3412,
  "pressure_altitude": -659,
  "units": {
    "accumulation": "in",
    "altimeter": "inHg",
    "altitude": "ft",
    "temperature": "C",
    "visibility": "sm",
    "wind_speed": "kt"
  }
}
