{
  "altimeter": {
    "repr": "A2983",
    "spoken": "two nine point eight three",
    "value": 29.83
  },
  "clouds": [
    {
      "altitude": 60,
      "modifier": null,
      "repr": "BKN060",
      "type": "BKN"
    },
    {
      "altitude": 75,
      "modifier": null,
      "repr": "BKN075",
      "type": "BKN"
    },
    {
      "altitude": 110,
      "modifier": null,
      "repr": "OVC110",
      "type": "OVC"
    }
  ],
  "density_altitude": -592,
  "dewpoint": {
    "repr": "04",
    "spoken": "four",
    "value": 4
  },
  "flight_rules": "VFR",
  "meta": {
    "stations_updated": "2024-10-29",
    "timestamp": "2024-11-21T10:08:00.584557Z"
  },
  "other": [],
  "pressure_altitude": 121,
  "raw": "KORS 210955Z AUTO 16010G16KT 130V190 10SM BKN060 BKN075 OVC110 09/04 A2983 RMK AO2",
  "relative_humidity": 0.7087545355451176,
  "remarks": "RMK AO2",
  "remarks_info": {
    "codes": [
      {
        "repr": "AO2",
        "value": "Automated with precipitation sensor"
      }
    ],
    "dewpoint_decimal": null,
    "maximum_temperature_24": null,
    "maximum_temperature_6": null,
    "minimum_temperature_24": null,
    "minimum_temperature_6": null,
    "precip_24_hours": null,
    "precip_36_hours": null,
    "precip_hourly": null,
    "pressure_tendency": null,
    "sea_level_pressure": null,
    "snow_depth": null,
    "sunshine_minutes": null,
    "temperature_decimal": null
  },
  "runway_visibility": [],
  "sanitized": "KORS 210955Z 16010G16KT 130V190 10SM BKN060 BKN075 OVC110 09/04 A2983 RMK AO2",
  "station": "KORS",
  "temperature": {
    "repr": "09",
    "spoken": "nine",
    "value": 9
  },
  "time": {
    "dt": "2024-11-21T09:55:00Z",
    "repr": "210955Z"
  },
  "units": {
    "accumulation": "in",
    "altimeter": "inHg",
    "altitude": "ft",
    "temperature": "C",
    "visibility": "sm",
    "wind_speed": "kt"
  },
  "visibility": {
    "repr": "10",
    "spoken": "one zero",
    "value": 10
  },
  "wind_direction": {
    "repr": "160",
    "spoken": "one six zero",
    "value": 160
  },
  "wind_gust": {
    "repr": "16",
    "spoken": "one six",
    "value": 16
  },
  "wind_speed": {
    "repr": "10",
    "spoken": "one zero",
    "value": 10
  },
  "wind_variable_direction": [
    {
      "repr": "130",
      "spoken": "one three zero",
      "value": 130
    },
    {
      "repr": "190",
      "spoken": "one nine zero",
      "value": 190
    }
  ],
  "wx_codes": []
}
