{
  "meta": {
    "timestamp": "2022-12-20T02:53:35.264290Z",
    "stations_updated": "2022-09-05",
    "cache-timestamp": "2022-12-20T02:35:34.105000Z",
    "warning": "Unable to fetch report. This cached data might be out of date. To return an error instead, set ?onfail=error"
  },
  "altimeter": {
    "repr": "A3031",
    "value": 30.31,
    "spoken": "three zero point three one"
  },
  "clouds": [
    {
      "repr": "BKN004",
      "type": "BKN",
      "altitude": 4,
      "modifier": null
    },
    {
      "repr": "BKN010",
      "type": "BKN",
      "altitude": 10,
      "modifier": null
    },
    {
      "repr": "OVC024",
      "type": "OVC",
      "altitude": 24,
      "modifier": null
    }
  ],
  "flight_rules": "LIFR",
  "other": [],
  "visibility": {
    "repr": "5/4",
    "value": 1.25,
    "spoken": "one and one quarter",
    "numerator": 5,
    "denominator": 4,
    "normalized": "1 1/4"
  },
  "wind_direction": {
    "repr": "050",
    "value": 50,
    "spoken": "zero five zero"
  },
  "wind_gust": {
    "repr": "17",
    "value": 17,
    "spoken": "one seven"
  },
  "wind_speed": {
    "repr": "09",
    "value": 9,
    "spoken": "nine"
  },
  "wx_codes": [
    {
      "repr": "-SN",
      "value": "Light Snow"
    },
    {
      "repr": "BR",
      "value": "Mist"
    }
  ],
  "raw": "KORS 200215Z AUTO 05009G17KT 010V070 1 1/4SM -SN BR BKN004 BKN010 OVC024 M07/M09 A3031 RMK AO2",
  "sanitized": "KORS 200215Z 05009G17KT 010V070 1 1/4SM -SN BR BKN004 BKN010 OVC024 M07/M09 A3031 RMK AO2",
  "station": "KORS",
  "time": {
    "repr": "200215Z",
    "dt": "2022-12-20T02:15:00Z"
  },
  "remarks": "RMK AO2",
  "dewpoint": {
    "repr": "M09",
    "value": -9,
    "spoken": "minus nine"
  },
  "relative_humidity": 0.856274568108615,
  "remarks_info": {
    "maximum_temperature_6": null,
    "minimum_temperature_6": null,
    "pressure_tendency": null,
    "precip_36_hours": null,
    "precip_24_hours": null,
    "sunshine_minutes": null,
    "codes": [
      {
        "repr": "AO2",
        "value": "Automated with precipitation sensor"
      }
    ],
    "dewpoint_decimal": null,
    "maximum_temperature_24": null,
    "minimum_temperature_24": null,
    "precip_hourly": null,
    "sea_level_pressure": null,
    "snow_depth": null,
    "temperature_decimal": null
  },
  "runway_visibility": [],
  "temperature": {
    "repr": "M07",
    "value": -7,
    "spoken": "minus seven"
  },
  "wind_variable_direction": [
    {
      "repr": "010",
      "value": 10,
      "spoken": "zero one zero"
    },
    {
      "repr": "070",
      "value": 70,
      "spoken": "zero seven zero"
    }
  ],
  "density_altitude": -2992,
  "pressure_altitude": -359,
  "units": {
    "accumulation": "in",
    "altimeter": "inHg",
    "altitude": "ft",
    "temperature": "C",
    "visibility": "sm",
    "wind_speed": "kt"
  }
}
