{
  "altimeter": {
    "repr": "A2999",
    "spoken": "two nine point nine nine",
    "value": 29.99
  },
  "clouds": [
    {
      "altitude": 28,
      "modifier": null,
      "repr": "FEW028",
      "type": "FEW"
    },
    {
      "altitude": 32,
      "modifier": null,
      "repr": "SCT032",
      "type": "SCT"
    },
    {
      "altitude": 44,
      "modifier": null,
      "repr": "BKN044",
      "type": "BKN"
    }
  ],
  "density_altitude": -512,
  "dewpoint": {
    "repr": "09",
    "spoken": "nine",
    "value": 9
  },
  "flight_rules": "MVFR",
  "meta": {
    "stations_updated": "2024-05-13",
    "timestamp": "2024-06-15T10:02:42.284204Z"
  },
  "other": [],
  "pressure_altitude": -39,
  "raw": "KORS 150955Z AUTO 00000KT 5SM -RA BR FEW028 SCT032 BKN044 11/09 A2999 RMK AO2 P0002",
  "relative_humidity": 0.8746678827465182,
  "remarks": "RMK AO2 P0002",
  "remarks_info": {
    "codes": [
      {
        "repr": "AO2",
        "value": "Automated with precipitation sensor"
      }
    ],
    "dewpoint_decimal": null,
    "maximum_temperature_24": null,
    "maximum_temperature_6": null,
    "minimum_temperature_24": null,
    "minimum_temperature_6": null,
    "precip_24_hours": null,
    "precip_36_hours": null,
    "precip_hourly": {
      "repr": "P0002",
      "spoken": "zero point zero two",
      "value": 0.02
    },
    "pressure_tendency": null,
    "sea_level_pressure": null,
    "snow_depth": null,
    "sunshine_minutes": null,
    "temperature_decimal": null
  },
  "runway_visibility": [],
  "sanitized": "KORS 150955Z 00000KT 5SM -RA BR FEW028 SCT032 BKN044 11/09 A2999 RMK AO2 P0002",
  "station": "KORS",
  "temperature": {
    "repr": "11",
    "spoken": "one one",
    "value": 11
  },
  "time": {
    "dt": "2024-06-15T09:55:00Z",
    "repr": "150955Z"
  },
  "units": {
    "accumulation": "in",
    "altimeter": "inHg",
    "altitude": "ft",
    "temperature": "C",
    "visibility": "sm",
    "wind_speed": "kt"
  },
  "visibility": {
    "repr": "5",
    "spoken": "five",
    "value": 5
  },
  "wind_direction": {
    "repr": "000",
    "spoken": "zero zero zero",
    "value": 0
  },
  "wind_gust": null,
  "wind_speed": {
    "repr": "00",
    "spoken": "zero",
    "value": 0
  },
  "wind_variable_direction": [],
  "wx_codes": [
    {
      "repr": "-RA",
      "value": "Light Rain"
    },
    {
      "repr": "BR",
      "value": "Mist"
    }
  ]
}
