{
  "altimeter": {
    "repr": "A2947",
    "spoken": "two nine point four seven",
    "value": 29.47
  },
  "clouds": [
    {
      "altitude": 41,
      "modifier": null,
      "repr": "SCT041",
      "type": "SCT"
    },
    {
      "altitude": 55,
      "modifier": null,
      "repr": "BKN055",
      "type": "BKN"
    },
    {
      "altitude": 70,
      "modifier": null,
      "repr": "OVC070",
      "type": "OVC"
    }
  ],
  "density_altitude": -352,
  "dewpoint": {
    "repr": "03",
    "spoken": "three",
    "value": 3
  },
  "flight_rules": "VFR",
  "meta": {
    "stations_updated": "2024-10-29",
    "timestamp": "2024-11-20T08:48:27.821857Z"
  },
  "other": [],
  "pressure_altitude": 481,
  "raw": "KORS 200835Z AUTO 13007G16KT 090V200 10SM SCT041 BKN055 OVC070 08/03 A2947 RMK AO2",
  "relative_humidity": 0.7067933943079971,
  "remarks": "RMK AO2",
  "remarks_info": {
    "codes": [
      {
        "repr": "AO2",
        "value": "Automated with precipitation sensor"
      }
    ],
    "dewpoint_decimal": null,
    "maximum_temperature_24": null,
    "maximum_temperature_6": null,
    "minimum_temperature_24": null,
    "minimum_temperature_6": null,
    "precip_24_hours": null,
    "precip_36_hours": null,
    "precip_hourly": null,
    "pressure_tendency": null,
    "sea_level_pressure": null,
    "snow_depth": null,
    "sunshine_minutes": null,
    "temperature_decimal": null
  },
  "runway_visibility": [],
  "sanitized": "KORS 200835Z 13007G16KT 090V200 10SM SCT041 BKN055 OVC070 08/03 A2947 RMK AO2",
  "station": "KORS",
  "temperature": {
    "repr": "08",
    "spoken": "eight",
    "value": 8
  },
  "time": {
    "dt": "2024-11-20T08:35:00Z",
    "repr": "200835Z"
  },
  "units": {
    "accumulation": "in",
    "altimeter": "inHg",
    "altitude": "ft",
    "temperature": "C",
    "visibility": "sm",
    "wind_speed": "kt"
  },
  "visibility": {
    "repr": "10",
    "spoken": "one zero",
    "value": 10
  },
  "wind_direction": {
    "repr": "130",
    "spoken": "one three zero",
    "value": 130
  },
  "wind_gust": {
    "repr": "16",
    "spoken": "one six",
    "value": 16
  },
  "wind_speed": {
    "repr": "07",
    "spoken": "seven",
    "value": 7
  },
  "wind_variable_direction": [
    {
      "repr": "090",
      "spoken": "zero nine zero",
      "value": 90
    },
    {
      "repr": "200",
      "spoken": "two zero zero",
      "value": 200
    }
  ],
  "wx_codes": []
}
