{
  "meta": {
    "timestamp": "2023-02-22T07:24:41.885412Z",
    "stations_updated": "2023-01-30",
    "cache-timestamp": "2023-02-22T07:24:05.957000Z"
  },
  "altimeter": {
    "repr": "A2957",
    "value": 29.57,
    "spoken": "two nine point five seven"
  },
  "clouds": [
    {
      "repr": "OVC075",
      "type": "OVC",
      "altitude": 75,
      "modifier": null
    }
  ],
  "flight_rules": "VFR",
  "other": [],
  "visibility": {
    "repr": "10",
    "value": 10,
    "spoken": "one zero"
  },
  "wind_direction": {
    "repr": "030",
    "value": 30,
    "spoken": "zero three zero"
  },
  "wind_gust": {
    "repr": "22",
    "value": 22,
    "spoken": "two two"
  },
  "wind_speed": {
    "repr": "11",
    "value": 11,
    "spoken": "one one"
  },
  "wx_codes": [],
  "raw": "KORS 220715Z AUTO 03011G22KT 350V090 10SM OVC075 02/M09 A2957 RMK AO2",
  "sanitized": "KORS 220715Z 03011G22KT 350V090 10SM OVC075 02/M09 A2957 RMK AO2",
  "station": "KORS",
  "time": {
    "repr": "220715Z",
    "dt": "2023-02-22T07:15:00Z"
  },
  "remarks": "RMK AO2",
  "dewpoint": {
    "repr": "M09",
    "value": -9,
    "spoken": "minus nine"
  },
  "relative_humidity": 0.43950005730787345,
  "remarks_info": {
    "maximum_temperature_6": null,
    "minimum_temperature_6": null,
    "pressure_tendency": null,
    "precip_36_hours": null,
    "precip_24_hours": null,
    "sunshine_minutes": null,
    "codes": [
      {
        "repr": "AO2",
        "value": "Automated with precipitation sensor"
      }
    ],
    "dewpoint_decimal": null,
    "maximum_temperature_24": null,
    "minimum_temperature_24": null,
    "precip_hourly": null,
    "sea_level_pressure": null,
    "snow_depth": null,
    "temperature_decimal": null
  },
  "runway_visibility": [],
  "temperature": {
    "repr": "02",
    "value": 2,
    "spoken": "two"
  },
  "wind_variable_direction": [
    {
      "repr": "350",
      "value": 350,
      "spoken": "three five zero"
    },
    {
      "repr": "090",
      "value": 90,
      "spoken": "zero nine zero"
    }
  ],
  "density_altitude": -1172,
  "pressure_altitude": 381,
  "units": {
    "accumulation": "in",
    "altimeter": "inHg",
    "altitude": "ft",
    "temperature": "C",
    "visibility": "sm",
    "wind_speed": "kt"
  }
}
