{
  "altimeter": {
    "repr": "A2985",
    "spoken": "two nine point eight five",
    "value": 29.85
  },
  "clouds": [
    {
      "altitude": 34,
      "modifier": null,
      "repr": "FEW034",
      "type": "FEW"
    },
    {
      "altitude": 44,
      "modifier": null,
      "repr": "SCT044",
      "type": "SCT"
    },
    {
      "altitude": 55,
      "modifier": null,
      "repr": "BKN055",
      "type": "BKN"
    }
  ],
  "density_altitude": -972,
  "dewpoint": {
    "repr": "M08",
    "spoken": "minus eight",
    "value": -8
  },
  "flight_rules": "VFR",
  "meta": {
    "cache-timestamp": "2024-02-15T10:40:04.809000Z",
    "stations_updated": "2024-01-01",
    "timestamp": "2024-02-15T10:40:28.613884Z"
  },
  "other": [],
  "pressure_altitude": 101,
  "raw": "KORS 151015Z AUTO 03008G17KT 360V070 10SM FEW034 SCT044 BKN055 06/M08 A2985 RMK AO2",
  "relative_humidity": 0.35873022449393693,
  "remarks": "RMK AO2",
  "remarks_info": {
    "codes": [
      {
        "repr": "AO2",
        "value": "Automated with precipitation sensor"
      }
    ],
    "dewpoint_decimal": null,
    "maximum_temperature_24": null,
    "maximum_temperature_6": null,
    "minimum_temperature_24": null,
    "minimum_temperature_6": null,
    "precip_24_hours": null,
    "precip_36_hours": null,
    "precip_hourly": null,
    "pressure_tendency": null,
    "sea_level_pressure": null,
    "snow_depth": null,
    "sunshine_minutes": null,
    "temperature_decimal": null
  },
  "runway_visibility": [],
  "sanitized": "KORS 151015Z 03008G17KT 360V070 10SM FEW034 SCT044 BKN055 06/M08 A2985 RMK AO2",
  "station": "KORS",
  "temperature": {
    "repr": "06",
    "spoken": "six",
    "value": 6
  },
  "time": {
    "dt": "2024-02-15T10:15:00Z",
    "repr": "151015Z"
  },
  "units": {
    "accumulation": "in",
    "altimeter": "inHg",
    "altitude": "ft",
    "temperature": "C",
    "visibility": "sm",
    "wind_speed": "kt"
  },
  "visibility": {
    "repr": "10",
    "spoken": "one zero",
    "value": 10
  },
  "wind_direction": {
    "repr": "030",
    "spoken": "zero three zero",
    "value": 30
  },
  "wind_gust": {
    "repr": "17",
    "spoken": "one seven",
    "value": 17
  },
  "wind_speed": {
    "repr": "08",
    "spoken": "eight",
    "value": 8
  },
  "wind_variable_direction": [
    {
      "repr": "360",
      "spoken": "three six zero",
      "value": 360
    },
    {
      "repr": "070",
      "spoken": "zero seven zero",
      "value": 70
    }
  ],
  "wx_codes": []
}
