{
  "meta": {
    "timestamp": "2022-12-31T02:48:41.935939Z",
    "stations_updated": "2022-12-27",
    "cache-timestamp": "2022-12-31T02:48:33.433000Z"
  },
  "altimeter": {
    "repr": "A2948",
    "value": 29.48,
    "spoken": "two nine point four eight"
  },
  "clouds": [
    {
      "repr": "OVC050",
      "type": "OVC",
      "altitude": 50,
      "modifier": null
    }
  ],
  "flight_rules": "VFR",
  "other": [],
  "visibility": {
    "repr": "9",
    "value": 9,
    "spoken": "nine"
  },
  "wind_direction": {
    "repr": "130",
    "value": 130,
    "spoken": "one three zero"
  },
  "wind_gust": null,
  "wind_speed": {
    "repr": "03",
    "value": 3,
    "spoken": "three"
  },
  "wx_codes": [],
  "raw": "KORS 310235Z AUTO 13003KT 9SM OVC050 07/08 A2948 RMK AO2",
  "sanitized": "KORS 310235Z 13003KT 9SM OVC050 07/08 A2948 RMK AO2",
  "station": "KORS",
  "time": {
    "repr": "310235Z",
    "dt": "2022-12-31T02:35:00Z"
  },
  "remarks": "RMK AO2",
  "dewpoint": {
    "repr": "08",
    "value": 8,
    "spoken": "eight"
  },
  "relative_humidity": 1.0706812620161752,
  "remarks_info": {
    "maximum_temperature_6": null,
    "minimum_temperature_6": null,
    "pressure_tendency": null,
    "precip_36_hours": null,
    "precip_24_hours": null,
    "sunshine_minutes": null,
    "codes": [
      {
        "repr": "AO2",
        "value": "Automated with precipitation sensor"
      }
    ],
    "dewpoint_decimal": null,
    "maximum_temperature_24": null,
    "minimum_temperature_24": null,
    "precip_hourly": null,
    "sea_level_pressure": null,
    "snow_depth": null,
    "temperature_decimal": null
  },
  "runway_visibility": [],
  "temperature": {
    "repr": "07",
    "value": 7,
    "spoken": "seven"
  },
  "wind_variable_direction": [],
  "density_altitude": -482,
  "pressure_altitude": 471,
  "units": {
    "accumulation": "in",
    "altimeter": "inHg",
    "altitude": "ft",
    "temperature": "C",
    "visibility": "sm",
    "wind_speed": "kt"
  }
}
