{
  "altimeter": {
    "repr": "A2942",
    "spoken": "two nine point four two",
    "value": 29.42
  },
  "clouds": [
    {
      "altitude": 19,
      "modifier": null,
      "repr": "FEW019",
      "type": "FEW"
    },
    {
      "altitude": 29,
      "modifier": null,
      "repr": "BKN029",
      "type": "BKN"
    },
    {
      "altitude": 35,
      "modifier": null,
      "repr": "BKN035",
      "type": "BKN"
    }
  ],
  "density_altitude": -542,
  "dewpoint": {
    "repr": "03",
    "spoken": "three",
    "value": 3
  },
  "flight_rules": "MVFR",
  "meta": {
    "cache-timestamp": "2024-02-29T23:22:05.110000Z",
    "stations_updated": "2024-01-01",
    "timestamp": "2024-02-29T23:22:48.066266Z"
  },
  "other": [],
  "pressure_altitude": 531,
  "raw": "KORS 292255Z AUTO 16007KT 140V200 10SM FEW019 BKN029 BKN035 06/03 A2942 RMK AO2",
  "relative_humidity": 0.8106822111738443,
  "remarks": "RMK AO2",
  "remarks_info": {
    "codes": [
      {
        "repr": "AO2",
        "value": "Automated with precipitation sensor"
      }
    ],
    "dewpoint_decimal": null,
    "maximum_temperature_24": null,
    "maximum_temperature_6": null,
    "minimum_temperature_24": null,
    "minimum_temperature_6": null,
    "precip_24_hours": null,
    "precip_36_hours": null,
    "precip_hourly": null,
    "pressure_tendency": null,
    "sea_level_pressure": null,
    "snow_depth": null,
    "sunshine_minutes": null,
    "temperature_decimal": null
  },
  "runway_visibility": [],
  "sanitized": "KORS 292255Z 16007KT 140V200 10SM FEW019 BKN029 BKN035 06/03 A2942 RMK AO2",
  "station": "KORS",
  "temperature": {
    "repr": "06",
    "spoken": "six",
    "value": 6
  },
  "time": {
    "dt": "2024-02-29T22:55:00Z",
    "repr": "292255Z"
  },
  "units": {
    "accumulation": "in",
    "altimeter": "inHg",
    "altitude": "ft",
    "temperature": "C",
    "visibility": "sm",
    "wind_speed": "kt"
  },
  "visibility": {
    "repr": "10",
    "spoken": "one zero",
    "value": 10
  },
  "wind_direction": {
    "repr": "160",
    "spoken": "one six zero",
    "value": 160
  },
  "wind_gust": null,
  "wind_speed": {
    "repr": "07",
    "spoken": "seven",
    "value": 7
  },
  "wind_variable_direction": [
    {
      "repr": "140",
      "spoken": "one four zero",
      "value": 140
    },
    {
      "repr": "200",
      "spoken": "two zero zero",
      "value": 200
    }
  ],
  "wx_codes": []
}
