{
  "meta": {
    "timestamp": "2022-11-07T22:33:33.173667Z",
    "stations_updated": "2022-09-05"
  },
  "altimeter": {
    "repr": "A2971",
    "value": 29.71,
    "spoken": "two nine point seven one"
  },
  "clouds": [
    {
      "repr": "FEW028",
      "type": "FEW",
      "altitude": 28,
      "modifier": null
    },
    {
      "repr": "SCT034",
      "type": "SCT",
      "altitude": 34,
      "modifier": null
    },
    {
      "repr": "BKN042",
      "type": "BKN",
      "altitude": 42,
      "modifier": null
    }
  ],
  "flight_rules": "VFR",
  "other": [],
  "visibility": {
    "repr": "10",
    "value": 10,
    "spoken": "one zero"
  },
  "wind_direction": {
    "repr": "050",
    "value": 50,
    "spoken": "zero five zero"
  },
  "wind_gust": {
    "repr": "20",
    "value": 20,
    "spoken": "two zero"
  },
  "wind_speed": {
    "repr": "09",
    "value": 9,
    "spoken": "nine"
  },
  "wx_codes": [],
  "raw": "KORS 072215Z AUTO 05009G20KT 030V150 10SM FEW028 SCT034 BKN042 03/M05 A2971 RMK AO2",
  "sanitized": "KORS 072215Z 05009G20KT 030V150 10SM FEW028 SCT034 BKN042 03/M05 A2971 RMK AO2",
  "station": "KORS",
  "time": {
    "repr": "072215Z",
    "dt": "2022-11-07T22:15:00Z"
  },
  "remarks": "RMK AO2",
  "dewpoint": {
    "repr": "M05",
    "value": -5,
    "spoken": "minus five"
  },
  "relative_humidity": 0.5568324114085115,
  "remarks_info": {
    "maximum_temperature_6": null,
    "minimum_temperature_6": null,
    "pressure_tendency": null,
    "precip_36_hours": null,
    "precip_24_hours": null,
    "sunshine_minutes": null,
    "codes": [
      {
        "repr": "AO2",
        "value": "Automated with precipitation sensor"
      }
    ],
    "dewpoint_decimal": null,
    "maximum_temperature_24": null,
    "minimum_temperature_24": null,
    "precip_hourly": null,
    "sea_level_pressure": null,
    "snow_depth": null,
    "temperature_decimal": null
  },
  "runway_visibility": [],
  "temperature": {
    "repr": "03",
    "value": 3,
    "spoken": "three"
  },
  "wind_variable_direction": [
    {
      "repr": "030",
      "value": 30,
      "spoken": "zero three zero"
    },
    {
      "repr": "150",
      "value": 150,
      "spoken": "one five zero"
    }
  ],
  "density_altitude": -1192,
  "pressure_altitude": 241,
  "units": {
    "accumulation": "in",
    "altimeter": "inHg",
    "altitude": "ft",
    "temperature": "C",
    "visibility": "sm",
    "wind_speed": "kt"
  }
}
