{
  "altimeter": {
    "repr": "A2988",
    "spoken": "two nine point eight eight",
    "value": 29.88
  },
  "clouds": [
    {
      "altitude": 3,
      "modifier": null,
      "repr": "OVC003",
      "type": "OVC"
    }
  ],
  "density_altitude": 78,
  "dewpoint": {
    "repr": "15",
    "spoken": "one five",
    "value": 15
  },
  "flight_rules": "LIFR",
  "meta": {
    "stations_updated": "2024-06-12",
    "timestamp": "2024-09-24T17:31:22.582222Z"
  },
  "other": [],
  "pressure_altitude": 71,
  "raw": "KORS 241715Z AUTO 00000KT 6SM BR OVC003 15/15 A2988 RMK AO2",
  "relative_humidity": 1,
  "remarks": "RMK AO2",
  "remarks_info": {
    "codes": [
      {
        "repr": "AO2",
        "value": "Automated with precipitation sensor"
      }
    ],
    "dewpoint_decimal": null,
    "maximum_temperature_24": null,
    "maximum_temperature_6": null,
    "minimum_temperature_24": null,
    "minimum_temperature_6": null,
    "precip_24_hours": null,
    "precip_36_hours": null,
    "precip_hourly": null,
    "pressure_tendency": null,
    "sea_level_pressure": null,
    "snow_depth": null,
    "sunshine_minutes": null,
    "temperature_decimal": null
  },
  "runway_visibility": [],
  "sanitized": "KORS 241715Z 00000KT 6SM BR OVC003 15/15 A2988 RMK AO2",
  "station": "KORS",
  "temperature": {
    "repr": "15",
    "spoken": "one five",
    "value": 15
  },
  "time": {
    "dt": "2024-09-24T17:15:00Z",
    "repr": "241715Z"
  },
  "units": {
    "accumulation": "in",
    "altimeter": "inHg",
    "altitude": "ft",
    "temperature": "C",
    "visibility": "sm",
    "wind_speed": "kt"
  },
  "visibility": {
    "repr": "6",
    "spoken": "six",
    "value": 6
  },
  "wind_direction": {
    "repr": "000",
    "spoken": "zero zero zero",
    "value": 0
  },
  "wind_gust": null,
  "wind_speed": {
    "repr": "00",
    "spoken": "zero",
    "value": 0
  },
  "wind_variable_direction": [],
  "wx_codes": [
    {
      "repr": "BR",
      "value": "Mist"
    }
  ]
}
