{
  "altimeter": {
    "repr": "A2945",
    "spoken": "two nine point four five",
    "value": 29.45
  },
  "clouds": [
    {
      "altitude": 24,
      "modifier": null,
      "repr": "BKN024",
      "type": "BKN"
    },
    {
      "altitude": 30,
      "modifier": null,
      "repr": "BKN030",
      "type": "BKN"
    },
    {
      "altitude": 110,
      "modifier": null,
      "repr": "OVC110",
      "type": "OVC"
    }
  ],
  "density_altitude": -572,
  "dewpoint": {
    "repr": "04",
    "spoken": "four",
    "value": 4
  },
  "flight_rules": "MVFR",
  "meta": {
    "stations_updated": "2024-10-29",
    "timestamp": "2024-11-20T06:49:56.438971Z"
  },
  "other": [],
  "pressure_altitude": 501,
  "raw": "KORS 200635Z AUTO 11009G19KT 060V150 6SM -RA BR BKN024 BKN030 OVC110 06/04 A2945 RMK AO2",
  "relative_humidity": 0.8699199333996626,
  "remarks": "RMK AO2",
  "remarks_info": {
    "codes": [
      {
        "repr": "AO2",
        "value": "Automated with precipitation sensor"
      }
    ],
    "dewpoint_decimal": null,
    "maximum_temperature_24": null,
    "maximum_temperature_6": null,
    "minimum_temperature_24": null,
    "minimum_temperature_6": null,
    "precip_24_hours": null,
    "precip_36_hours": null,
    "precip_hourly": null,
    "pressure_tendency": null,
    "sea_level_pressure": null,
    "snow_depth": null,
    "sunshine_minutes": null,
    "temperature_decimal": null
  },
  "runway_visibility": [],
  "sanitized": "KORS 200635Z 11009G19KT 060V150 6SM -RA BR BKN024 BKN030 OVC110 06/04 A2945 RMK AO2",
  "station": "KORS",
  "temperature": {
    "repr": "06",
    "spoken": "six",
    "value": 6
  },
  "time": {
    "dt": "2024-11-20T06:35:00Z",
    "repr": "200635Z"
  },
  "units": {
    "accumulation": "in",
    "altimeter": "inHg",
    "altitude": "ft",
    "temperature": "C",
    "visibility": "sm",
    "wind_speed": "kt"
  },
  "visibility": {
    "repr": "6",
    "spoken": "six",
    "value": 6
  },
  "wind_direction": {
    "repr": "110",
    "spoken": "one one zero",
    "value": 110
  },
  "wind_gust": {
    "repr": "19",
    "spoken": "one nine",
    "value": 19
  },
  "wind_speed": {
    "repr": "09",
    "spoken": "nine",
    "value": 9
  },
  "wind_variable_direction": [
    {
      "repr": "060",
      "spoken": "zero six zero",
      "value": 60
    },
    {
      "repr": "150",
      "spoken": "one five zero",
      "value": 150
    }
  ],
  "wx_codes": [
    {
      "repr": "-RA",
      "value": "Light Rain"
    },
    {
      "repr": "BR",
      "value": "Mist"
    }
  ]
}
