{
  "meta": {
    "timestamp": "2022-08-27T23:44:58.376828Z",
    "stations_updated": "2022-07-17"
  },
  "altimeter": {
    "repr": "A2996",
    "value": 29.96,
    "spoken": "two nine point nine six"
  },
  "clouds": [
    {
      "repr": "OVC080",
      "type": "OVC",
      "altitude": 80,
      "modifier": null
    }
  ],
  "flight_rules": "VFR",
  "other": [],
  "visibility": {
    "repr": "10",
    "value": 10,
    "spoken": "one zero"
  },
  "wind_direction": {
    "repr": "160",
    "value": 160,
    "spoken": "one six zero"
  },
  "wind_gust": null,
  "wind_speed": {
    "repr": "09",
    "value": 9,
    "spoken": "nine"
  },
  "wx_codes": [],
  "raw": "KORS 272335Z AUTO 16009KT 10SM OVC080 20/18 A2996 RMK AO2",
  "sanitized": "KORS 272335Z 16009KT 10SM OVC080 20/18 A2996 RMK AO2",
  "station": "KORS",
  "time": {
    "repr": "272335Z",
    "dt": "2022-08-27T23:35:00Z"
  },
  "remarks": "RMK AO2",
  "dewpoint": {
    "repr": "18",
    "value": 18,
    "spoken": "one eight"
  },
  "relative_humidity": 0.8825976545232704,
  "remarks_info": {
    "maximum_temperature_6": null,
    "minimum_temperature_6": null,
    "pressure_tendency": null,
    "precip_36_hours": null,
    "precip_24_hours": null,
    "sunshine_minutes": null,
    "codes": [
      {
        "repr": "AO2",
        "value": "Automated with precipitation sensor"
      }
    ],
    "dewpoint_decimal": null,
    "maximum_temperature_24": null,
    "minimum_temperature_24": null,
    "precip_hourly": null,
    "sea_level_pressure": null,
    "snow_depth": null,
    "temperature_decimal": null
  },
  "runway_visibility": [],
  "temperature": {
    "repr": "20",
    "value": 20,
    "spoken": "two zero"
  },
  "wind_variable_direction": [],
  "density_altitude": 598,
  "pressure_altitude": -9,
  "units": {
    "accumulation": "in",
    "altimeter": "inHg",
    "altitude": "ft",
    "temperature": "C",
    "visibility": "sm",
    "wind_speed": "kt"
  }
}
