{
  "meta": {
    "timestamp": "2023-03-10T15:28:03.476611Z",
    "stations_updated": "2023-01-30"
  },
  "altimeter": {
    "repr": "A2939",
    "value": 29.39,
    "spoken": "two nine point three nine"
  },
  "clouds": [
    {
      "repr": "BKN022",
      "type": "BKN",
      "altitude": 22,
      "modifier": null
    },
    {
      "repr": "OVC028",
      "type": "OVC",
      "altitude": 28,
      "modifier": null
    }
  ],
  "flight_rules": "MVFR",
  "other": [],
  "visibility": {
    "repr": "9",
    "value": 9,
    "spoken": "nine"
  },
  "wind_direction": {
    "repr": "050",
    "value": 50,
    "spoken": "zero five zero"
  },
  "wind_gust": null,
  "wind_speed": {
    "repr": "07",
    "value": 7,
    "spoken": "seven"
  },
  "wx_codes": [
    {
      "repr": "-RA",
      "value": "Light Rain"
    }
  ],
  "raw": "KORS 101515Z AUTO 05007KT 020V090 9SM -RA BKN022 OVC028 05/02 A2939 RMK AO2",
  "sanitized": "KORS 101515Z 05007KT 020V090 9SM -RA BKN022 OVC028 05/02 A2939 RMK AO2",
  "station": "KORS",
  "time": {
    "repr": "101515Z",
    "dt": "2023-03-10T15:15:00Z"
  },
  "remarks": "RMK AO2",
  "dewpoint": {
    "repr": "02",
    "value": 2,
    "spoken": "two"
  },
  "relative_humidity": 0.8093028515316864,
  "remarks_info": {
    "maximum_temperature_6": null,
    "minimum_temperature_6": null,
    "pressure_tendency": null,
    "precip_36_hours": null,
    "precip_24_hours": null,
    "sunshine_minutes": null,
    "codes": [
      {
        "repr": "AO2",
        "value": "Automated with precipitation sensor"
      }
    ],
    "dewpoint_decimal": null,
    "maximum_temperature_24": null,
    "minimum_temperature_24": null,
    "precip_hourly": null,
    "sea_level_pressure": null,
    "snow_depth": null,
    "temperature_decimal": null
  },
  "runway_visibility": [],
  "temperature": {
    "repr": "05",
    "value": 5,
    "spoken": "five"
  },
  "wind_variable_direction": [
    {
      "repr": "020",
      "value": 20,
      "spoken": "zero two zero"
    },
    {
      "repr": "090",
      "value": 90,
      "spoken": "zero nine zero"
    }
  ],
  "density_altitude": -632,
  "pressure_altitude": 561,
  "units": {
    "accumulation": "in",
    "altimeter": "inHg",
    "altitude": "ft",
    "temperature": "C",
    "visibility": "sm",
    "wind_speed": "kt"
  }
}
