{
  "meta": {
    "timestamp": "2023-01-06T03:27:36.732504Z",
    "stations_updated": "2022-12-27"
  },
  "altimeter": {
    "repr": "A2954",
    "value": 29.54,
    "spoken": "two nine point five four"
  },
  "clouds": [
    {
      "repr": "FEW110",
      "type": "FEW",
      "altitude": 110,
      "modifier": null
    }
  ],
  "flight_rules": "VFR",
  "other": [],
  "visibility": {
    "repr": "10",
    "value": 10,
    "spoken": "one zero"
  },
  "wind_direction": {
    "repr": "150",
    "value": 150,
    "spoken": "one five zero"
  },
  "wind_gust": {
    "repr": "30",
    "value": 30,
    "spoken": "three zero"
  },
  "wind_speed": {
    "repr": "18",
    "value": 18,
    "spoken": "one eight"
  },
  "wx_codes": [],
  "raw": "KORS 060315Z AUTO 15018G30KT 10SM FEW110 13/07 A2954 RMK AO2",
  "sanitized": "KORS 060315Z 15018G30KT 10SM FEW110 13/07 A2954 RMK AO2",
  "station": "KORS",
  "time": {
    "repr": "060315Z",
    "dt": "2023-01-06T03:15:00Z"
  },
  "remarks": "RMK AO2",
  "dewpoint": {
    "repr": "07",
    "value": 7,
    "spoken": "seven"
  },
  "relative_humidity": 0.6691258630398929,
  "remarks_info": {
    "maximum_temperature_6": null,
    "minimum_temperature_6": null,
    "pressure_tendency": null,
    "precip_36_hours": null,
    "precip_24_hours": null,
    "sunshine_minutes": null,
    "codes": [
      {
        "repr": "AO2",
        "value": "Automated with precipitation sensor"
      }
    ],
    "dewpoint_decimal": null,
    "maximum_temperature_24": null,
    "minimum_temperature_24": null,
    "precip_hourly": null,
    "sea_level_pressure": null,
    "snow_depth": null,
    "temperature_decimal": null
  },
  "runway_visibility": [],
  "temperature": {
    "repr": "13",
    "value": 13,
    "spoken": "one three"
  },
  "wind_variable_direction": [],
  "density_altitude": 178,
  "pressure_altitude": 411,
  "units": {
    "accumulation": "in",
    "altimeter": "inHg",
    "altitude": "ft",
    "temperature": "C",
    "visibility": "sm",
    "wind_speed": "kt"
  }
}
