{
  "meta": {
    "timestamp": "2023-02-21T21:02:00.459573Z",
    "stations_updated": "2023-01-30"
  },
  "altimeter": {
    "repr": "A2948",
    "value": 29.48,
    "spoken": "two nine point four eight"
  },
  "clouds": [
    {
      "repr": "FEW050",
      "type": "FEW",
      "altitude": 50,
      "modifier": null
    },
    {
      "repr": "SCT070",
      "type": "SCT",
      "altitude": 70,
      "modifier": null
    },
    {
      "repr": "SCT080",
      "type": "SCT",
      "altitude": 80,
      "modifier": null
    }
  ],
  "flight_rules": "VFR",
  "other": [],
  "visibility": {
    "repr": "9",
    "value": 9,
    "spoken": "nine"
  },
  "wind_direction": {
    "repr": "210",
    "value": 210,
    "spoken": "two one zero"
  },
  "wind_gust": null,
  "wind_speed": {
    "repr": "04",
    "value": 4,
    "spoken": "four"
  },
  "wx_codes": [],
  "raw": "KORS 212055Z AUTO 21004KT 9SM FEW050 SCT070 SCT080 08/01 A2948 RMK AO2",
  "sanitized": "KORS 212055Z 21004KT 9SM FEW050 SCT070 SCT080 08/01 A2948 RMK AO2",
  "station": "KORS",
  "time": {
    "repr": "212055Z",
    "dt": "2023-02-21T20:55:00Z"
  },
  "remarks": "RMK AO2",
  "dewpoint": {
    "repr": "01",
    "value": 1,
    "spoken": "one"
  },
  "relative_humidity": 0.6127503681346869,
  "remarks_info": {
    "maximum_temperature_6": null,
    "minimum_temperature_6": null,
    "pressure_tendency": null,
    "precip_36_hours": null,
    "precip_24_hours": null,
    "sunshine_minutes": null,
    "codes": [
      {
        "repr": "AO2",
        "value": "Automated with precipitation sensor"
      }
    ],
    "dewpoint_decimal": null,
    "maximum_temperature_24": null,
    "minimum_temperature_24": null,
    "precip_hourly": null,
    "sea_level_pressure": null,
    "snow_depth": null,
    "temperature_decimal": null
  },
  "runway_visibility": [],
  "temperature": {
    "repr": "08",
    "value": 8,
    "spoken": "eight"
  },
  "wind_variable_direction": [],
  "density_altitude": -362,
  "pressure_altitude": 471,
  "units": {
    "accumulation": "in",
    "altimeter": "inHg",
    "altitude": "ft",
    "temperature": "C",
    "visibility": "sm",
    "wind_speed": "kt"
  }
}
