{
  "meta": {
    "timestamp": "2022-12-22T19:01:25.735994Z",
    "stations_updated": "2022-09-05"
  },
  "altimeter": {
    "repr": "A3046",
    "value": 30.46,
    "spoken": "three zero point four six"
  },
  "clouds": [],
  "flight_rules": "VFR",
  "other": [],
  "visibility": {
    "repr": "9",
    "value": 9,
    "spoken": "nine"
  },
  "wind_direction": {
    "repr": "050",
    "value": 50,
    "spoken": "zero five zero"
  },
  "wind_gust": null,
  "wind_speed": {
    "repr": "08",
    "value": 8,
    "spoken": "eight"
  },
  "wx_codes": [],
  "raw": "KORS 221855Z AUTO 05008KT 010V080 9SM CLR M07/M15 A3046 RMK AO2",
  "sanitized": "KORS 221855Z 05008KT 010V080 9SM M07/M15 A3046 RMK AO2",
  "station": "KORS",
  "time": {
    "repr": "221855Z",
    "dt": "2022-12-22T18:55:00Z"
  },
  "remarks": "RMK AO2",
  "dewpoint": {
    "repr": "M15",
    "value": -15,
    "spoken": "minus one five"
  },
  "relative_humidity": 0.5289009407823761,
  "remarks_info": {
    "maximum_temperature_6": null,
    "minimum_temperature_6": null,
    "pressure_tendency": null,
    "precip_36_hours": null,
    "precip_24_hours": null,
    "sunshine_minutes": null,
    "codes": [
      {
        "repr": "AO2",
        "value": "Automated with precipitation sensor"
      }
    ],
    "dewpoint_decimal": null,
    "maximum_temperature_24": null,
    "minimum_temperature_24": null,
    "precip_hourly": null,
    "sea_level_pressure": null,
    "snow_depth": null,
    "temperature_decimal": null
  },
  "runway_visibility": [],
  "temperature": {
    "repr": "M07",
    "value": -7,
    "spoken": "minus seven"
  },
  "wind_variable_direction": [
    {
      "repr": "010",
      "value": 10,
      "spoken": "zero one zero"
    },
    {
      "repr": "080",
      "value": 80,
      "spoken": "zero eight zero"
    }
  ],
  "density_altitude": -3142,
  "pressure_altitude": -509,
  "units": {
    "accumulation": "in",
    "altimeter": "inHg",
    "altitude": "ft",
    "temperature": "C",
    "visibility": "sm",
    "wind_speed": "kt"
  }
}
