{
  "meta": {
    "timestamp": "2022-12-23T16:46:49.109269Z",
    "stations_updated": "2022-09-05"
  },
  "altimeter": {
    "repr": "A2993",
    "value": 29.93,
    "spoken": "two nine point nine three"
  },
  "clouds": [
    {
      "repr": "SCT006",
      "type": "SCT",
      "altitude": 6,
      "modifier": null
    },
    {
      "repr": "OVC011",
      "type": "OVC",
      "altitude": 11,
      "modifier": null
    }
  ],
  "flight_rules": "MVFR",
  "other": [],
  "visibility": {
    "repr": "3",
    "value": 3,
    "spoken": "three"
  },
  "wind_direction": {
    "repr": "040",
    "value": 40,
    "spoken": "zero four zero"
  },
  "wind_gust": null,
  "wind_speed": {
    "repr": "07",
    "value": 7,
    "spoken": "seven"
  },
  "wx_codes": [
    {
      "repr": "-SN",
      "value": "Light Snow"
    },
    {
      "repr": "BR",
      "value": "Mist"
    }
  ],
  "raw": "KORS 231635Z AUTO 04007KT 010V080 3SM -SN BR SCT006 OVC011 M02/M02 A2993 RMK AO2",
  "sanitized": "KORS 231635Z 04007KT 010V080 3SM -SN BR SCT006 OVC011 M02/M02 A2993 RMK AO2",
  "station": "KORS",
  "time": {
    "repr": "231635Z",
    "dt": "2022-12-23T16:35:00Z"
  },
  "remarks": "RMK AO2",
  "dewpoint": {
    "repr": "M02",
    "value": -2,
    "spoken": "minus two"
  },
  "relative_humidity": 1,
  "remarks_info": {
    "maximum_temperature_6": null,
    "minimum_temperature_6": null,
    "pressure_tendency": null,
    "precip_36_hours": null,
    "precip_24_hours": null,
    "sunshine_minutes": null,
    "codes": [
      {
        "repr": "AO2",
        "value": "Automated with precipitation sensor"
      }
    ],
    "dewpoint_decimal": null,
    "maximum_temperature_24": null,
    "minimum_temperature_24": null,
    "precip_hourly": null,
    "sea_level_pressure": null,
    "snow_depth": null,
    "temperature_decimal": null
  },
  "runway_visibility": [],
  "temperature": {
    "repr": "M02",
    "value": -2,
    "spoken": "minus two"
  },
  "wind_variable_direction": [
    {
      "repr": "010",
      "value": 10,
      "spoken": "zero one zero"
    },
    {
      "repr": "080",
      "value": 80,
      "spoken": "zero eight zero"
    }
  ],
  "density_altitude": -2012,
  "pressure_altitude": 21,
  "units": {
    "accumulation": "in",
    "altimeter": "inHg",
    "altitude": "ft",
    "temperature": "C",
    "visibility": "sm",
    "wind_speed": "kt"
  }
}
