{
  "meta": {
    "timestamp": "2022-12-21T01:54:08.767502Z",
    "stations_updated": "2022-09-05"
  },
  "altimeter": {
    "repr": "A3018",
    "value": 30.18,
    "spoken": "three zero point one eight"
  },
  "clouds": [
    {
      "repr": "OVC017",
      "type": "OVC",
      "altitude": 17,
      "modifier": null
    }
  ],
  "flight_rules": "MVFR",
  "other": [],
  "visibility": {
    "repr": "8",
    "value": 8,
    "spoken": "eight"
  },
  "wind_direction": {
    "repr": "070",
    "value": 70,
    "spoken": "zero seven zero"
  },
  "wind_gust": null,
  "wind_speed": {
    "repr": "10",
    "value": 10,
    "spoken": "one zero"
  },
  "wx_codes": [],
  "raw": "KORS 210135Z AUTO 07010KT 030V110 8SM OVC017 M05/M07 A3018 RMK AO2",
  "sanitized": "KORS 210135Z 07010KT 030V110 8SM OVC017 M05/M07 A3018 RMK AO2",
  "station": "KORS",
  "time": {
    "repr": "210135Z",
    "dt": "2022-12-21T01:35:00Z"
  },
  "remarks": "RMK AO2",
  "dewpoint": {
    "repr": "M07",
    "value": -7,
    "spoken": "minus seven"
  },
  "relative_humidity": 0.8585057829201439,
  "remarks_info": {
    "maximum_temperature_6": null,
    "minimum_temperature_6": null,
    "pressure_tendency": null,
    "precip_36_hours": null,
    "precip_24_hours": null,
    "sunshine_minutes": null,
    "codes": [
      {
        "repr": "AO2",
        "value": "Automated with precipitation sensor"
      }
    ],
    "dewpoint_decimal": null,
    "maximum_temperature_24": null,
    "minimum_temperature_24": null,
    "precip_hourly": null,
    "sea_level_pressure": null,
    "snow_depth": null,
    "temperature_decimal": null
  },
  "runway_visibility": [],
  "temperature": {
    "repr": "M05",
    "value": -5,
    "spoken": "minus five"
  },
  "wind_variable_direction": [
    {
      "repr": "030",
      "value": 30,
      "spoken": "zero three zero"
    },
    {
      "repr": "110",
      "value": 110,
      "spoken": "one one zero"
    }
  ],
  "density_altitude": -2622,
  "pressure_altitude": -229,
  "units": {
    "accumulation": "in",
    "altimeter": "inHg",
    "altitude": "ft",
    "temperature": "C",
    "visibility": "sm",
    "wind_speed": "kt"
  }
}
