{
  "meta": {
    "timestamp": "2023-06-06T18:03:32.127326Z",
    "stations_updated": "2023-06-06"
  },
  "altimeter": {
    "repr": "A2995",
    "value": 29.95,
    "spoken": "two nine point nine five"
  },
  "clouds": [],
  "flight_rules": "VFR",
  "other": [],
  "visibility": {
    "repr": "9",
    "value": 9,
    "spoken": "nine"
  },
  "wind_direction": {
    "repr": "320",
    "value": 320,
    "spoken": "three two zero"
  },
  "wind_gust": null,
  "wind_speed": {
    "repr": "07",
    "value": 7,
    "spoken": "seven"
  },
  "wx_codes": [],
  "raw": "KORS 061755Z AUTO 32007KT 9SM CLR 17/12 A2995 RMK AO2",
  "sanitized": "KORS 061755Z 32007KT 9SM 17/12 A2995 RMK AO2",
  "station": "KORS",
  "time": {
    "repr": "061755Z",
    "dt": "2023-06-06T17:55:00Z"
  },
  "remarks": "RMK AO2",
  "dewpoint": {
    "repr": "12",
    "value": 12,
    "spoken": "one two"
  },
  "relative_humidity": 0.7238099317955186,
  "remarks_info": {
    "maximum_temperature_6": null,
    "minimum_temperature_6": null,
    "pressure_tendency": null,
    "precip_36_hours": null,
    "precip_24_hours": null,
    "sunshine_minutes": null,
    "codes": [
      {
        "repr": "AO2",
        "value": "Automated with precipitation sensor"
      }
    ],
    "dewpoint_decimal": null,
    "maximum_temperature_24": null,
    "minimum_temperature_24": null,
    "precip_hourly": null,
    "sea_level_pressure": null,
    "snow_depth": null,
    "temperature_decimal": null
  },
  "runway_visibility": [],
  "temperature": {
    "repr": "17",
    "value": 17,
    "spoken": "one seven"
  },
  "wind_variable_direction": [],
  "density_altitude": 248,
  "pressure_altitude": 1,
  "units": {
    "accumulation": "in",
    "altimeter": "inHg",
    "altitude": "ft",
    "temperature": "C",
    "visibility": "sm",
    "wind_speed": "kt"
  }
}
