{
  "altimeter": {
    "repr": "A2953",
    "spoken": "two nine point five three",
    "value": 29.53
  },
  "clouds": [],
  "density_altitude": -412,
  "dewpoint": {
    "repr": "08",
    "spoken": "eight",
    "value": 8
  },
  "flight_rules": "IFR",
  "meta": {
    "stations_updated": "2024-10-29",
    "timestamp": "2024-11-17T08:09:14.730776Z"
  },
  "other": [],
  "pressure_altitude": 421,
  "raw": "KORS 170755Z AUTO 18012G22KT 1 1/4SM -RA BR 08/08 A2953 RMK AO2 P0002",
  "relative_humidity": 1,
  "remarks": "RMK AO2 P0002",
  "remarks_info": {
    "codes": [
      {
        "repr": "AO2",
        "value": "Automated with precipitation sensor"
      }
    ],
    "dewpoint_decimal": null,
    "maximum_temperature_24": null,
    "maximum_temperature_6": null,
    "minimum_temperature_24": null,
    "minimum_temperature_6": null,
    "precip_24_hours": null,
    "precip_36_hours": null,
    "precip_hourly": {
      "repr": "P0002",
      "spoken": "zero point zero two",
      "value": 0.02
    },
    "pressure_tendency": null,
    "sea_level_pressure": null,
    "snow_depth": null,
    "sunshine_minutes": null,
    "temperature_decimal": null
  },
  "runway_visibility": [],
  "sanitized": "KORS 170755Z 18012G22KT 1 1/4SM -RA BR 08/08 A2953 RMK AO2 P0002",
  "station": "KORS",
  "temperature": {
    "repr": "08",
    "spoken": "eight",
    "value": 8
  },
  "time": {
    "dt": "2024-11-17T07:55:00Z",
    "repr": "170755Z"
  },
  "units": {
    "accumulation": "in",
    "altimeter": "inHg",
    "altitude": "ft",
    "temperature": "C",
    "visibility": "sm",
    "wind_speed": "kt"
  },
  "visibility": {
    "denominator": 4,
    "normalized": "1 1/4",
    "numerator": 5,
    "repr": "5/4",
    "spoken": "one and one quarter",
    "value": 1.25
  },
  "wind_direction": {
    "repr": "180",
    "spoken": "one eight zero",
    "value": 180
  },
  "wind_gust": {
    "repr": "22",
    "spoken": "two two",
    "value": 22
  },
  "wind_speed": {
    "repr": "12",
    "spoken": "one two",
    "value": 12
  },
  "wind_variable_direction": [],
  "wx_codes": [
    {
      "repr": "-RA",
      "value": "Light Rain"
    },
    {
      "repr": "BR",
      "value": "Mist"
    }
  ]
}
