{
  "meta": {
    "timestamp": "2023-02-14T00:29:55.007051Z",
    "stations_updated": "2023-01-30"
  },
  "altimeter": {
    "repr": "A2976",
    "value": 29.76,
    "spoken": "two nine point seven six"
  },
  "clouds": [
    {
      "repr": "SCT024",
      "type": "SCT",
      "altitude": 24,
      "modifier": null
    },
    {
      "repr": "BKN037",
      "type": "BKN",
      "altitude": 37,
      "modifier": null
    },
    {
      "repr": "OVC060",
      "type": "OVC",
      "altitude": 60,
      "modifier": null
    }
  ],
  "flight_rules": "MVFR",
  "other": [],
  "visibility": {
    "repr": "4",
    "value": 4,
    "spoken": "four"
  },
  "wind_direction": {
    "repr": "VRB",
    "value": null,
    "spoken": "variable"
  },
  "wind_gust": {
    "repr": "17",
    "value": 17,
    "spoken": "one seven"
  },
  "wind_speed": {
    "repr": "03",
    "value": 3,
    "spoken": "three"
  },
  "wx_codes": [
    {
      "repr": "-RA",
      "value": "Light Rain"
    },
    {
      "repr": "HZ",
      "value": "Haze"
    }
  ],
  "raw": "KORS 140015Z AUTO VRB03G17KT 4SM -RA HZ SCT024 BKN037 OVC060 06/01 A2976 RMK AO2",
  "sanitized": "KORS 140015Z VRB03G17KT 4SM -RA HZ SCT024 BKN037 OVC060 06/01 A2976 RMK AO2",
  "station": "KORS",
  "time": {
    "repr": "140015Z",
    "dt": "2023-02-14T00:15:00Z"
  },
  "remarks": "RMK AO2",
  "dewpoint": {
    "repr": "01",
    "value": 1,
    "spoken": "one"
  },
  "relative_humidity": 0.702816165710442,
  "remarks_info": {
    "maximum_temperature_6": null,
    "minimum_temperature_6": null,
    "pressure_tendency": null,
    "precip_36_hours": null,
    "precip_24_hours": null,
    "sunshine_minutes": null,
    "codes": [
      {
        "repr": "AO2",
        "value": "Automated with precipitation sensor"
      }
    ],
    "dewpoint_decimal": null,
    "maximum_temperature_24": null,
    "minimum_temperature_24": null,
    "precip_hourly": null,
    "sea_level_pressure": null,
    "snow_depth": null,
    "temperature_decimal": null
  },
  "runway_visibility": [],
  "temperature": {
    "repr": "06",
    "value": 6,
    "spoken": "six"
  },
  "wind_variable_direction": [],
  "density_altitude": -882,
  "pressure_altitude": 191,
  "units": {
    "accumulation": "in",
    "altimeter": "inHg",
    "altitude": "ft",
    "temperature": "C",
    "visibility": "sm",
    "wind_speed": "kt"
  }
}
