{
  "meta": {
    "timestamp": "2023-06-08T19:40:35.216608Z",
    "stations_updated": "2023-06-06",
    "cache-timestamp": "2023-06-08T19:40:05.545000Z"
  },
  "altimeter": {
    "repr": "A2994",
    "value": 29.94,
    "spoken": "two nine point nine four"
  },
  "clouds": [],
  "flight_rules": "VFR",
  "other": [],
  "visibility": {
    "repr": "9",
    "value": 9,
    "spoken": "nine"
  },
  "wind_direction": {
    "repr": "190",
    "value": 190,
    "spoken": "one nine zero"
  },
  "wind_gust": null,
  "wind_speed": {
    "repr": "09",
    "value": 9,
    "spoken": "nine"
  },
  "wx_codes": [],
  "raw": "KORS 081935Z AUTO 19009KT 9SM CLR 18/11 A2994 RMK AO2",
  "sanitized": "KORS 081935Z 19009KT 9SM 18/11 A2994 RMK AO2",
  "station": "KORS",
  "time": {
    "repr": "081935Z",
    "dt": "2023-06-08T19:35:00Z"
  },
  "remarks": "RMK AO2",
  "dewpoint": {
    "repr": "11",
    "value": 11,
    "spoken": "one one"
  },
  "relative_humidity": 0.6359992966461616,
  "remarks_info": {
    "maximum_temperature_6": null,
    "minimum_temperature_6": null,
    "pressure_tendency": null,
    "precip_36_hours": null,
    "precip_24_hours": null,
    "sunshine_minutes": null,
    "codes": [
      {
        "repr": "AO2",
        "value": "Automated with precipitation sensor"
      }
    ],
    "dewpoint_decimal": null,
    "maximum_temperature_24": null,
    "minimum_temperature_24": null,
    "precip_hourly": null,
    "sea_level_pressure": null,
    "snow_depth": null,
    "temperature_decimal": null
  },
  "runway_visibility": [],
  "temperature": {
    "repr": "18",
    "value": 18,
    "spoken": "one eight"
  },
  "wind_variable_direction": [],
  "density_altitude": 378,
  "pressure_altitude": 11,
  "units": {
    "accumulation": "in",
    "altimeter": "inHg",
    "altitude": "ft",
    "temperature": "C",
    "visibility": "sm",
    "wind_speed": "kt"
  }
}
