{
  "meta": {
    "timestamp": "2022-11-06T19:24:44.597733Z",
    "stations_updated": "2022-09-05"
  },
  "altimeter": {
    "repr": "A2950",
    "value": 29.5,
    "spoken": "two nine point five zero"
  },
  "clouds": [
    {
      "repr": "FEW013",
      "type": "FEW",
      "altitude": 13,
      "modifier": null
    },
    {
      "repr": "BKN022",
      "type": "BKN",
      "altitude": 22,
      "modifier": null
    },
    {
      "repr": "OVC027",
      "type": "OVC",
      "altitude": 27,
      "modifier": null
    }
  ],
  "flight_rules": "IFR",
  "other": [],
  "visibility": {
    "repr": "5/2",
    "value": 2.5,
    "spoken": "two and one half",
    "numerator": 5,
    "denominator": 2,
    "normalized": "2 1/2"
  },
  "wind_direction": {
    "repr": "180",
    "value": 180,
    "spoken": "one eight zero"
  },
  "wind_gust": {
    "repr": "11",
    "value": 11,
    "spoken": "one one"
  },
  "wind_speed": {
    "repr": "05",
    "value": 5,
    "spoken": "five"
  },
  "wx_codes": [
    {
      "repr": "-RA",
      "value": "Light Rain"
    },
    {
      "repr": "BR",
      "value": "Mist"
    }
  ],
  "raw": "KORS 061915Z AUTO 18005G11KT 2 1/2SM -RA BR FEW013 BKN022 OVC027 04/03 A2950 RMK AO2",
  "sanitized": "KORS 061915Z 18005G11KT 2 1/2SM -RA BR FEW013 BKN022 OVC027 04/03 A2950 RMK AO2",
  "station": "KORS",
  "time": {
    "repr": "061915Z",
    "dt": "2022-11-06T19:15:00Z"
  },
  "remarks": "RMK AO2",
  "dewpoint": {
    "repr": "03",
    "value": 3,
    "spoken": "three"
  },
  "relative_humidity": 0.9319043972307702,
  "remarks_info": {
    "maximum_temperature_6": null,
    "minimum_temperature_6": null,
    "pressure_tendency": null,
    "precip_36_hours": null,
    "precip_24_hours": null,
    "sunshine_minutes": null,
    "codes": [
      {
        "repr": "AO2",
        "value": "Automated with precipitation sensor"
      }
    ],
    "dewpoint_decimal": null,
    "maximum_temperature_24": null,
    "minimum_temperature_24": null,
    "precip_hourly": null,
    "sea_level_pressure": null,
    "snow_depth": null,
    "temperature_decimal": null
  },
  "runway_visibility": [],
  "temperature": {
    "repr": "04",
    "value": 4,
    "spoken": "four"
  },
  "wind_variable_direction": [],
  "density_altitude": -862,
  "pressure_altitude": 451,
  "units": {
    "accumulation": "in",
    "altimeter": "inHg",
    "altitude": "ft",
    "temperature": "C",
    "visibility": "sm",
    "wind_speed": "kt"
  }
}
