{
  "altimeter": {
    "repr": "A2987",
    "spoken": "two nine point eight seven",
    "value": 29.87
  },
  "clouds": [
    {
      "altitude": 65,
      "modifier": null,
      "repr": "SCT065",
      "type": "SCT"
    },
    {
      "altitude": 75,
      "modifier": null,
      "repr": "SCT075",
      "type": "SCT"
    },
    {
      "altitude": 85,
      "modifier": null,
      "repr": "BKN085",
      "type": "BKN"
    }
  ],
  "density_altitude": -752,
  "dewpoint": {
    "repr": "M08",
    "spoken": "minus eight",
    "value": -8
  },
  "flight_rules": "VFR",
  "meta": {
    "cache-timestamp": "2024-02-15T00:26:02.923000Z",
    "stations_updated": "2024-01-01",
    "timestamp": "2024-02-15T00:26:06.716109Z"
  },
  "other": [],
  "pressure_altitude": 81,
  "raw": "KORS 142355Z AUTO 05009G18KT 320V080 10SM SCT065 SCT075 BKN085 08/M08 A2987 RMK AO2",
  "relative_humidity": 0.3127589942350026,
  "remarks": "RMK AO2",
  "remarks_info": {
    "codes": [
      {
        "repr": "AO2",
        "value": "Automated with precipitation sensor"
      }
    ],
    "dewpoint_decimal": null,
    "maximum_temperature_24": null,
    "maximum_temperature_6": null,
    "minimum_temperature_24": null,
    "minimum_temperature_6": null,
    "precip_24_hours": null,
    "precip_36_hours": null,
    "precip_hourly": null,
    "pressure_tendency": null,
    "sea_level_pressure": null,
    "snow_depth": null,
    "sunshine_minutes": null,
    "temperature_decimal": null
  },
  "runway_visibility": [],
  "sanitized": "KORS 142355Z 05009G18KT 320V080 10SM SCT065 SCT075 BKN085 08/M08 A2987 RMK AO2",
  "station": "KORS",
  "temperature": {
    "repr": "08",
    "spoken": "eight",
    "value": 8
  },
  "time": {
    "dt": "2024-02-14T23:55:00Z",
    "repr": "142355Z"
  },
  "units": {
    "accumulation": "in",
    "altimeter": "inHg",
    "altitude": "ft",
    "temperature": "C",
    "visibility": "sm",
    "wind_speed": "kt"
  },
  "visibility": {
    "repr": "10",
    "spoken": "one zero",
    "value": 10
  },
  "wind_direction": {
    "repr": "050",
    "spoken": "zero five zero",
    "value": 50
  },
  "wind_gust": {
    "repr": "18",
    "spoken": "one eight",
    "value": 18
  },
  "wind_speed": {
    "repr": "09",
    "spoken": "nine",
    "value": 9
  },
  "wind_variable_direction": [
    {
      "repr": "320",
      "spoken": "three two zero",
      "value": 320
    },
    {
      "repr": "080",
      "spoken": "zero eight zero",
      "value": 80
    }
  ],
  "wx_codes": []
}
