{
  "meta": {
    "timestamp": "2022-12-27T05:25:09.643825Z",
    "stations_updated": "2022-09-05"
  },
  "altimeter": {
    "repr": "A2920",
    "value": 29.2,
    "spoken": "two nine point two zero"
  },
  "clouds": [
    {
      "repr": "FEW008",
      "type": "FEW",
      "altitude": 8,
      "modifier": null
    },
    {
      "repr": "SCT038",
      "type": "SCT",
      "altitude": 38,
      "modifier": null
    },
    {
      "repr": "OVC047",
      "type": "OVC",
      "altitude": 47,
      "modifier": null
    }
  ],
  "flight_rules": "MVFR",
  "other": [],
  "visibility": {
    "repr": "4",
    "value": 4,
    "spoken": "four"
  },
  "wind_direction": {
    "repr": "030",
    "value": 30,
    "spoken": "zero three zero"
  },
  "wind_gust": {
    "repr": "16",
    "value": 16,
    "spoken": "one six"
  },
  "wind_speed": {
    "repr": "10",
    "value": 10,
    "spoken": "one zero"
  },
  "wx_codes": [
    {
      "repr": "-RA",
      "value": "Light Rain"
    },
    {
      "repr": "BR",
      "value": "Mist"
    }
  ],
  "raw": "KORS 270515Z AUTO 03010G16KT 350V070 4SM -RA BR FEW008 SCT038 OVC047 07/07 A2920 RMK AO2",
  "sanitized": "KORS 270515Z 03010G16KT 350V070 4SM -RA BR FEW008 SCT038 OVC047 07/07 A2920 RMK AO2",
  "station": "KORS",
  "time": {
    "repr": "270515Z",
    "dt": "2022-12-27T05:15:00Z"
  },
  "remarks": "RMK AO2",
  "dewpoint": {
    "repr": "07",
    "value": 7,
    "spoken": "seven"
  },
  "relative_humidity": 1,
  "remarks_info": {
    "maximum_temperature_6": null,
    "minimum_temperature_6": null,
    "pressure_tendency": null,
    "precip_36_hours": null,
    "precip_24_hours": null,
    "sunshine_minutes": null,
    "codes": [
      {
        "repr": "AO2",
        "value": "Automated with precipitation sensor"
      }
    ],
    "dewpoint_decimal": null,
    "maximum_temperature_24": null,
    "minimum_temperature_24": null,
    "precip_hourly": null,
    "sea_level_pressure": null,
    "snow_depth": null,
    "temperature_decimal": null
  },
  "runway_visibility": [],
  "temperature": {
    "repr": "07",
    "value": 7,
    "spoken": "seven"
  },
  "wind_variable_direction": [
    {
      "repr": "350",
      "value": 350,
      "spoken": "three five zero"
    },
    {
      "repr": "070",
      "value": 70,
      "spoken": "zero seven zero"
    }
  ],
  "density_altitude": -202,
  "pressure_altitude": 751,
  "units": {
    "accumulation": "in",
    "altimeter": "inHg",
    "altitude": "ft",
    "temperature": "C",
    "visibility": "sm",
    "wind_speed": "kt"
  }
}
