{
  "meta": {
    "timestamp": "2023-04-16T12:07:39.569464Z",
    "stations_updated": "2023-03-11"
  },
  "altimeter": {
    "repr": "A2989",
    "value": 29.89,
    "spoken": "two nine point eight nine"
  },
  "clouds": [
    {
      "repr": "SCT040",
      "type": "SCT",
      "altitude": 40,
      "modifier": null
    },
    {
      "repr": "BKN048",
      "type": "BKN",
      "altitude": 48,
      "modifier": null
    },
    {
      "repr": "OVC065",
      "type": "OVC",
      "altitude": 65,
      "modifier": null
    }
  ],
  "flight_rules": "VFR",
  "other": [],
  "visibility": {
    "repr": "10",
    "value": 10,
    "spoken": "one zero"
  },
  "wind_direction": {
    "repr": "VRB",
    "value": null,
    "spoken": "variable"
  },
  "wind_gust": {
    "repr": "13",
    "value": 13,
    "spoken": "one three"
  },
  "wind_speed": {
    "repr": "04",
    "value": 4,
    "spoken": "four"
  },
  "wx_codes": [],
  "raw": "KORS 161155Z AUTO VRB04G13KT 10SM SCT040 BKN048 OVC065 10/05 A2989 RMK AO2 P0001",
  "sanitized": "KORS 161155Z VRB04G13KT 10SM SCT040 BKN048 OVC065 10/05 A2989 RMK AO2 P0001",
  "station": "KORS",
  "time": {
    "repr": "161155Z",
    "dt": "2023-04-16T11:55:00Z"
  },
  "remarks": "RMK AO2 P0001",
  "dewpoint": {
    "repr": "05",
    "value": 5,
    "spoken": "five"
  },
  "relative_humidity": 0.7106976250052686,
  "remarks_info": {
    "maximum_temperature_6": null,
    "minimum_temperature_6": null,
    "pressure_tendency": null,
    "precip_36_hours": null,
    "precip_24_hours": null,
    "sunshine_minutes": null,
    "codes": [
      {
        "repr": "AO2",
        "value": "Automated with precipitation sensor"
      }
    ],
    "dewpoint_decimal": null,
    "maximum_temperature_24": null,
    "minimum_temperature_24": null,
    "precip_hourly": {
      "repr": "P0001",
      "value": 0.01,
      "spoken": "zero point zero one"
    },
    "sea_level_pressure": null,
    "snow_depth": null,
    "temperature_decimal": null
  },
  "runway_visibility": [],
  "temperature": {
    "repr": "10",
    "value": 10,
    "spoken": "one zero"
  },
  "wind_variable_direction": [],
  "density_altitude": -532,
  "pressure_altitude": 61,
  "units": {
    "accumulation": "in",
    "altimeter": "inHg",
    "altitude": "ft",
    "temperature": "C",
    "visibility": "sm",
    "wind_speed": "kt"
  }
}
