{
  "meta": {
    "timestamp": "2022-12-22T02:51:39.187285Z",
    "stations_updated": "2022-09-05"
  },
  "altimeter": {
    "repr": "A3064",
    "value": 30.64,
    "spoken": "three zero point six four"
  },
  "clouds": [],
  "flight_rules": "IFR",
  "other": [],
  "visibility": {
    "repr": "5/2",
    "value": 2.5,
    "spoken": "two and one half",
    "numerator": 5,
    "denominator": 2,
    "normalized": "2 1/2"
  },
  "wind_direction": {
    "repr": "050",
    "value": 50,
    "spoken": "zero five zero"
  },
  "wind_gust": {
    "repr": "27",
    "value": 27,
    "spoken": "two seven"
  },
  "wind_speed": {
    "repr": "11",
    "value": 11,
    "spoken": "one one"
  },
  "wx_codes": [
    {
      "repr": "-SN",
      "value": "Light Snow"
    },
    {
      "repr": "HZ",
      "value": "Haze"
    }
  ],
  "raw": "KORS 220235Z AUTO 05011G27KT 330V090 2 1/2SM -SN HZ CLR M08/M18 A3064 RMK AO2 VIS 1 3/4V4",
  "sanitized": "KORS 220235Z 05011G27KT 330V090 2 1/2SM -SN HZ M08/M18 A3064 RMK AO2 VIS 1 3/4V4",
  "station": "KORS",
  "time": {
    "repr": "220235Z",
    "dt": "2022-12-22T02:35:00Z"
  },
  "remarks": "RMK AO2 VIS 1 3/4V4",
  "dewpoint": {
    "repr": "M18",
    "value": -18,
    "spoken": "minus one eight"
  },
  "relative_humidity": 0.4447642756265693,
  "remarks_info": {
    "maximum_temperature_6": null,
    "minimum_temperature_6": null,
    "pressure_tendency": null,
    "precip_36_hours": null,
    "precip_24_hours": null,
    "sunshine_minutes": null,
    "codes": [
      {
        "repr": "AO2",
        "value": "Automated with precipitation sensor"
      }
    ],
    "dewpoint_decimal": null,
    "maximum_temperature_24": null,
    "minimum_temperature_24": null,
    "precip_hourly": null,
    "sea_level_pressure": null,
    "snow_depth": null,
    "temperature_decimal": null
  },
  "runway_visibility": [],
  "temperature": {
    "repr": "M08",
    "value": -8,
    "spoken": "minus eight"
  },
  "wind_variable_direction": [
    {
      "repr": "330",
      "value": 330,
      "spoken": "three three zero"
    },
    {
      "repr": "090",
      "value": 90,
      "spoken": "zero nine zero"
    }
  ],
  "density_altitude": -3442,
  "pressure_altitude": -689,
  "units": {
    "accumulation": "in",
    "altimeter": "inHg",
    "altitude": "ft",
    "temperature": "C",
    "visibility": "sm",
    "wind_speed": "kt"
  }
}
