{
  "meta": {
    "timestamp": "2023-09-25T17:25:40.864960Z",
    "stations_updated": "2023-08-05"
  },
  "altimeter": {
    "repr": "A2965",
    "value": 29.65,
    "spoken": "two nine point six five"
  },
  "clouds": [
    {
      "repr": "FEW055",
      "type": "FEW",
      "altitude": 55,
      "modifier": null
    },
    {
      "repr": "SCT065",
      "type": "SCT",
      "altitude": 65,
      "modifier": null
    },
    {
      "repr": "BKN080",
      "type": "BKN",
      "altitude": 80,
      "modifier": null
    }
  ],
  "flight_rules": "VFR",
  "other": [],
  "visibility": {
    "repr": "10",
    "value": 10,
    "spoken": "one zero"
  },
  "wind_direction": {
    "repr": "150",
    "value": 150,
    "spoken": "one five zero"
  },
  "wind_gust": {
    "repr": "24",
    "value": 24,
    "spoken": "two four"
  },
  "wind_speed": {
    "repr": "11",
    "value": 11,
    "spoken": "one one"
  },
  "wx_codes": [
    {
      "repr": "-RA",
      "value": "Light Rain"
    }
  ],
  "raw": "KORS 251715Z AUTO 15011G24KT 120V180 10SM -RA FEW055 SCT065 BKN080 18/M07 A2965 RMK AO2",
  "sanitized": "KORS 251715Z 15011G24KT 120V180 10SM -RA FEW055 SCT065 BKN080 18/M07 A2965 RMK AO2",
  "station": "KORS",
  "time": {
    "repr": "251715Z",
    "dt": "2023-09-25T17:15:00Z"
  },
  "remarks": "RMK AO2",
  "dewpoint": {
    "repr": "M07",
    "value": -7,
    "spoken": "minus seven"
  },
  "relative_humidity": 0.17564458218218523,
  "remarks_info": {
    "maximum_temperature_6": null,
    "minimum_temperature_6": null,
    "pressure_tendency": null,
    "precip_36_hours": null,
    "precip_24_hours": null,
    "sunshine_minutes": null,
    "codes": [
      {
        "repr": "AO2",
        "value": "Automated with precipitation sensor"
      }
    ],
    "dewpoint_decimal": null,
    "maximum_temperature_24": null,
    "minimum_temperature_24": null,
    "precip_hourly": null,
    "sea_level_pressure": null,
    "snow_depth": null,
    "temperature_decimal": null
  },
  "runway_visibility": [],
  "temperature": {
    "repr": "18",
    "value": 18,
    "spoken": "one eight"
  },
  "wind_variable_direction": [
    {
      "repr": "120",
      "value": 120,
      "spoken": "one two zero"
    },
    {
      "repr": "180",
      "value": 180,
      "spoken": "one eight zero"
    }
  ],
  "density_altitude": 668,
  "pressure_altitude": 301,
  "units": {
    "accumulation": "in",
    "altimeter": "inHg",
    "altitude": "ft",
    "temperature": "C",
    "visibility": "sm",
    "wind_speed": "kt"
  }
}
