{
  "meta": {
    "timestamp": "2022-11-10T03:44:08.110246Z",
    "stations_updated": "2022-09-05"
  },
  "altimeter": {
    "repr": "A3023",
    "value": 30.23,
    "spoken": "three zero point two three"
  },
  "clouds": [
    {
      "repr": "OVC040",
      "type": "OVC",
      "altitude": 40,
      "modifier": null
    }
  ],
  "flight_rules": "VFR",
  "other": [],
  "visibility": {
    "repr": "10",
    "value": 10,
    "spoken": "one zero"
  },
  "wind_direction": {
    "repr": "170",
    "value": 170,
    "spoken": "one seven zero"
  },
  "wind_gust": null,
  "wind_speed": {
    "repr": "03",
    "value": 3,
    "spoken": "three"
  },
  "wx_codes": [],
  "raw": "KORS 100335Z AUTO 17003KT 10SM OVC040 02/M00 A3023 RMK AO2",
  "sanitized": "KORS 100335Z 17003KT 10SM OVC040 02/M00 A3023 RMK AO2",
  "station": "KORS",
  "time": {
    "repr": "100335Z",
    "dt": "2022-11-10T03:35:00Z"
  },
  "remarks": "RMK AO2",
  "dewpoint": {
    "repr": "M00",
    "value": 0,
    "spoken": "zero"
  },
  "relative_humidity": 0.8659300735456716,
  "remarks_info": {
    "maximum_temperature_6": null,
    "minimum_temperature_6": null,
    "pressure_tendency": null,
    "precip_36_hours": null,
    "precip_24_hours": null,
    "sunshine_minutes": null,
    "codes": [
      {
        "repr": "AO2",
        "value": "Automated with precipitation sensor"
      }
    ],
    "dewpoint_decimal": null,
    "maximum_temperature_24": null,
    "minimum_temperature_24": null,
    "precip_hourly": null,
    "sea_level_pressure": null,
    "snow_depth": null,
    "temperature_decimal": null
  },
  "runway_visibility": [],
  "temperature": {
    "repr": "02",
    "value": 2,
    "spoken": "two"
  },
  "wind_variable_direction": [],
  "density_altitude": -1832,
  "pressure_altitude": -279,
  "units": {
    "accumulation": "in",
    "altimeter": "inHg",
    "altitude": "ft",
    "temperature": "C",
    "visibility": "sm",
    "wind_speed": "kt"
  }
}
