{
  "altimeter": {
    "repr": "A2957",
    "spoken": "two nine point five seven",
    "value": 29.57
  },
  "clouds": [
    {
      "altitude": 42,
      "modifier": null,
      "repr": "FEW042",
      "type": "FEW"
    },
    {
      "altitude": 48,
      "modifier": null,
      "repr": "BKN048",
      "type": "BKN"
    },
    {
      "altitude": 90,
      "modifier": null,
      "repr": "OVC090",
      "type": "OVC"
    }
  ],
  "density_altitude": -692,
  "dewpoint": {
    "repr": "06",
    "spoken": "six",
    "value": 6
  },
  "flight_rules": "VFR",
  "meta": {
    "stations_updated": "2024-12-02",
    "timestamp": "2024-12-27T15:27:24.770811Z"
  },
  "other": [],
  "pressure_altitude": 381,
  "raw": "KORS 271515Z AUTO 00000KT 10SM FEW042 BKN048 OVC090 06/06 A2957 RMK AO2",
  "relative_humidity": 1,
  "remarks": "RMK AO2",
  "remarks_info": {
    "codes": [
      {
        "repr": "AO2",
        "value": "Automated with precipitation sensor"
      }
    ],
    "dewpoint_decimal": null,
    "maximum_temperature_24": null,
    "maximum_temperature_6": null,
    "minimum_temperature_24": null,
    "minimum_temperature_6": null,
    "precip_24_hours": null,
    "precip_36_hours": null,
    "precip_hourly": null,
    "pressure_tendency": null,
    "sea_level_pressure": null,
    "snow_depth": null,
    "sunshine_minutes": null,
    "temperature_decimal": null
  },
  "runway_visibility": [],
  "sanitized": "KORS 271515Z 00000KT 10SM FEW042 BKN048 OVC090 06/06 A2957 RMK AO2",
  "station": "KORS",
  "temperature": {
    "repr": "06",
    "spoken": "six",
    "value": 6
  },
  "time": {
    "dt": "2024-12-27T15:15:00Z",
    "repr": "271515Z"
  },
  "units": {
    "accumulation": "in",
    "altimeter": "inHg",
    "altitude": "ft",
    "temperature": "C",
    "visibility": "sm",
    "wind_speed": "kt"
  },
  "visibility": {
    "repr": "10",
    "spoken": "one zero",
    "value": 10
  },
  "wind_direction": {
    "repr": "000",
    "spoken": "zero zero zero",
    "value": 0
  },
  "wind_gust": null,
  "wind_speed": {
    "repr": "00",
    "spoken": "zero",
    "value": 0
  },
  "wind_variable_direction": [],
  "wx_codes": []
}
