{
  "meta": {
    "timestamp": "2022-12-03T14:40:56.997099Z",
    "stations_updated": "2022-09-05"
  },
  "altimeter": {
    "repr": "A3012",
    "value": 30.12,
    "spoken": "three zero point one two"
  },
  "clouds": [
    {
      "repr": "BKN029",
      "type": "BKN",
      "altitude": 29,
      "modifier": null
    },
    {
      "repr": "OVC035",
      "type": "OVC",
      "altitude": 35,
      "modifier": null
    }
  ],
  "flight_rules": "MVFR",
  "other": [],
  "visibility": {
    "repr": "10",
    "value": 10,
    "spoken": "one zero"
  },
  "wind_direction": {
    "repr": "030",
    "value": 30,
    "spoken": "zero three zero"
  },
  "wind_gust": {
    "repr": "13",
    "value": 13,
    "spoken": "one three"
  },
  "wind_speed": {
    "repr": "08",
    "value": 8,
    "spoken": "eight"
  },
  "wx_codes": [],
  "raw": "KORS 031435Z AUTO 03008G13KT 360V080 10SM BKN029 OVC035 01/M04 A3012 RMK AO2 PWINO",
  "sanitized": "KORS 031435Z 03008G13KT 360V080 10SM BKN029 OVC035 01/M04 A3012 RMK AO2 PWINO",
  "station": "KORS",
  "time": {
    "repr": "031435Z",
    "dt": "2022-12-03T14:35:00Z"
  },
  "remarks": "RMK AO2 PWINO",
  "dewpoint": {
    "repr": "M04",
    "value": -4,
    "spoken": "minus four"
  },
  "relative_humidity": 0.6925431300514794,
  "remarks_info": {
    "maximum_temperature_6": null,
    "minimum_temperature_6": null,
    "pressure_tendency": null,
    "precip_36_hours": null,
    "precip_24_hours": null,
    "sunshine_minutes": null,
    "codes": [
      {
        "repr": "AO2",
        "value": "Automated with precipitation sensor"
      },
      {
        "repr": "PWINO",
        "value": "Precipitation identifier information not available"
      }
    ],
    "dewpoint_decimal": null,
    "maximum_temperature_24": null,
    "minimum_temperature_24": null,
    "precip_hourly": null,
    "sea_level_pressure": null,
    "snow_depth": null,
    "temperature_decimal": null
  },
  "runway_visibility": [],
  "temperature": {
    "repr": "01",
    "value": 1,
    "spoken": "one"
  },
  "wind_variable_direction": [
    {
      "repr": "360",
      "value": 360,
      "spoken": "three six zero"
    },
    {
      "repr": "080",
      "value": 80,
      "spoken": "zero eight zero"
    }
  ],
  "density_altitude": -1842,
  "pressure_altitude": -169,
  "units": {
    "accumulation": "in",
    "altimeter": "inHg",
    "altitude": "ft",
    "temperature": "C",
    "visibility": "sm",
    "wind_speed": "kt"
  }
}
