{
  "meta": {
    "timestamp": "2023-04-20T20:02:15.676807Z",
    "stations_updated": "2023-03-11"
  },
  "altimeter": {
    "repr": "A3017",
    "value": 30.17,
    "spoken": "three zero point one seven"
  },
  "clouds": [
    {
      "repr": "FEW023",
      "type": "FEW",
      "altitude": 23,
      "modifier": null
    },
    {
      "repr": "BKN030",
      "type": "BKN",
      "altitude": 30,
      "modifier": null
    },
    {
      "repr": "BKN037",
      "type": "BKN",
      "altitude": 37,
      "modifier": null
    }
  ],
  "flight_rules": "MVFR",
  "other": [],
  "visibility": {
    "repr": "9",
    "value": 9,
    "spoken": "nine"
  },
  "wind_direction": {
    "repr": "150",
    "value": 150,
    "spoken": "one five zero"
  },
  "wind_gust": {
    "repr": "31",
    "value": 31,
    "spoken": "three one"
  },
  "wind_speed": {
    "repr": "13",
    "value": 13,
    "spoken": "one three"
  },
  "wx_codes": [
    {
      "repr": "-RA",
      "value": "Light Rain"
    }
  ],
  "raw": "KORS 201955Z AUTO 15013G31KT 9SM -RA FEW023 BKN030 BKN037 09/01 A3017 RMK AO2",
  "sanitized": "KORS 201955Z 15013G31KT 9SM -RA FEW023 BKN030 BKN037 09/01 A3017 RMK AO2",
  "station": "KORS",
  "time": {
    "repr": "201955Z",
    "dt": "2023-04-20T19:55:00Z"
  },
  "remarks": "RMK AO2",
  "dewpoint": {
    "repr": "01",
    "value": 1,
    "spoken": "one"
  },
  "relative_humidity": 0.5726091861753606,
  "remarks_info": {
    "maximum_temperature_6": null,
    "minimum_temperature_6": null,
    "pressure_tendency": null,
    "precip_36_hours": null,
    "precip_24_hours": null,
    "sunshine_minutes": null,
    "codes": [
      {
        "repr": "AO2",
        "value": "Automated with precipitation sensor"
      }
    ],
    "dewpoint_decimal": null,
    "maximum_temperature_24": null,
    "minimum_temperature_24": null,
    "precip_hourly": null,
    "sea_level_pressure": null,
    "snow_depth": null,
    "temperature_decimal": null
  },
  "runway_visibility": [],
  "temperature": {
    "repr": "09",
    "value": 9,
    "spoken": "nine"
  },
  "wind_variable_direction": [],
  "density_altitude": -932,
  "pressure_altitude": -219,
  "units": {
    "accumulation": "in",
    "altimeter": "inHg",
    "altitude": "ft",
    "temperature": "C",
    "visibility": "sm",
    "wind_speed": "kt"
  }
}
