{
  "altimeter": {
    "repr": "A3017",
    "spoken": "three zero point one seven",
    "value": 30.17
  },
  "clouds": [
    {
      "altitude": 27,
      "modifier": null,
      "repr": "SCT027",
      "type": "SCT"
    }
  ],
  "density_altitude": -2012,
  "dewpoint": {
    "repr": "M07",
    "spoken": "minus seven",
    "value": -7
  },
  "flight_rules": "MVFR",
  "meta": {
    "cache-timestamp": "2024-01-18T18:06:01.491000Z",
    "stations_updated": "2023-10-28",
    "timestamp": "2024-01-18T18:06:58.009434Z"
  },
  "other": [],
  "pressure_altitude": -219,
  "raw": "KORS 181755Z AUTO 07008G19KT 030V110 3SM HZ SCT027 00/M07 A3017 RMK AO2 PWINO",
  "relative_humidity": 0.5927384058473524,
  "remarks": "RMK AO2 PWINO",
  "remarks_info": {
    "codes": [
      {
        "repr": "AO2",
        "value": "Automated with precipitation sensor"
      },
      {
        "repr": "PWINO",
        "value": "Precipitation identifier information not available"
      }
    ],
    "dewpoint_decimal": null,
    "maximum_temperature_24": null,
    "maximum_temperature_6": null,
    "minimum_temperature_24": null,
    "minimum_temperature_6": null,
    "precip_24_hours": null,
    "precip_36_hours": null,
    "precip_hourly": null,
    "pressure_tendency": null,
    "sea_level_pressure": null,
    "snow_depth": null,
    "sunshine_minutes": null,
    "temperature_decimal": null
  },
  "runway_visibility": [],
  "sanitized": "KORS 181755Z 07008G19KT 030V110 3SM HZ SCT027 00/M07 A3017 RMK AO2 PWINO",
  "station": "KORS",
  "temperature": {
    "repr": "00",
    "spoken": "zero",
    "value": 0
  },
  "time": {
    "dt": "2024-01-18T17:55:00Z",
    "repr": "181755Z"
  },
  "units": {
    "accumulation": "in",
    "altimeter": "inHg",
    "altitude": "ft",
    "temperature": "C",
    "visibility": "sm",
    "wind_speed": "kt"
  },
  "visibility": {
    "repr": "3",
    "spoken": "three",
    "value": 3
  },
  "wind_direction": {
    "repr": "070",
    "spoken": "zero seven zero",
    "value": 70
  },
  "wind_gust": {
    "repr": "19",
    "spoken": "one nine",
    "value": 19
  },
  "wind_speed": {
    "repr": "08",
    "spoken": "eight",
    "value": 8
  },
  "wind_variable_direction": [
    {
      "repr": "030",
      "spoken": "zero three zero",
      "value": 30
    },
    {
      "repr": "110",
      "spoken": "one one zero",
      "value": 110
    }
  ],
  "wx_codes": [
    {
      "repr": "HZ",
      "value": "Haze"
    }
  ]
}
