{
  "meta": {
    "timestamp": "2022-10-29T17:45:06.226565Z",
    "stations_updated": "2022-09-05"
  },
  "altimeter": {
    "repr": "A3027",
    "value": 30.27,
    "spoken": "three zero point two seven"
  },
  "clouds": [
    {
      "repr": "FEW012",
      "type": "FEW",
      "altitude": 12,
      "modifier": null
    },
    {
      "repr": "BKN070",
      "type": "BKN",
      "altitude": 70,
      "modifier": null
    }
  ],
  "flight_rules": "VFR",
  "other": [],
  "visibility": {
    "repr": "10",
    "value": 10,
    "spoken": "one zero"
  },
  "wind_direction": {
    "repr": "180",
    "value": 180,
    "spoken": "one eight zero"
  },
  "wind_gust": null,
  "wind_speed": {
    "repr": "12",
    "value": 12,
    "spoken": "one two"
  },
  "wx_codes": [],
  "raw": "KORS 291735Z AUTO 18012KT 10SM FEW012 BKN070 11/09 A3027 RMK AO2",
  "sanitized": "KORS 291735Z 18012KT 10SM FEW012 BKN070 11/09 A3027 RMK AO2",
  "station": "KORS",
  "time": {
    "repr": "291735Z",
    "dt": "2022-10-29T17:35:00Z"
  },
  "remarks": "RMK AO2",
  "dewpoint": {
    "repr": "09",
    "value": 9,
    "spoken": "nine"
  },
  "relative_humidity": 0.8746678827465182,
  "remarks_info": {
    "maximum_temperature_6": null,
    "minimum_temperature_6": null,
    "pressure_tendency": null,
    "precip_36_hours": null,
    "precip_24_hours": null,
    "sunshine_minutes": null,
    "codes": [
      {
        "repr": "AO2",
        "value": "Automated with precipitation sensor"
      }
    ],
    "dewpoint_decimal": null,
    "maximum_temperature_24": null,
    "minimum_temperature_24": null,
    "precip_hourly": null,
    "sea_level_pressure": null,
    "snow_depth": null,
    "temperature_decimal": null
  },
  "runway_visibility": [],
  "temperature": {
    "repr": "11",
    "value": 11,
    "spoken": "one one"
  },
  "wind_variable_direction": [],
  "density_altitude": -792,
  "pressure_altitude": -319,
  "units": {
    "accumulation": "in",
    "altimeter": "inHg",
    "altitude": "ft",
    "temperature": "C",
    "visibility": "sm",
    "wind_speed": "kt"
  }
}
