{
  "meta": {
    "timestamp": "2022-12-19T03:40:37.352514Z",
    "stations_updated": "2022-09-05"
  },
  "altimeter": {
    "repr": "A3009",
    "value": 30.09,
    "spoken": "three zero point zero nine"
  },
  "clouds": [
    {
      "repr": "OVC070",
      "type": "OVC",
      "altitude": 70,
      "modifier": null
    }
  ],
  "flight_rules": "VFR",
  "other": [],
  "visibility": {
    "repr": "10",
    "value": 10,
    "spoken": "one zero"
  },
  "wind_direction": {
    "repr": "040",
    "value": 40,
    "spoken": "zero four zero"
  },
  "wind_gust": {
    "repr": "25",
    "value": 25,
    "spoken": "two five"
  },
  "wind_speed": {
    "repr": "13",
    "value": 13,
    "spoken": "one three"
  },
  "wx_codes": [],
  "raw": "KORS 190335Z AUTO 04013G25KT 360V070 10SM OVC070 M06/M12 A3009 RMK AO2",
  "sanitized": "KORS 190335Z 04013G25KT 360V070 10SM OVC070 M06/M12 A3009 RMK AO2",
  "station": "KORS",
  "time": {
    "repr": "190335Z",
    "dt": "2022-12-19T03:35:00Z"
  },
  "remarks": "RMK AO2",
  "dewpoint": {
    "repr": "M12",
    "value": -12,
    "spoken": "minus one two"
  },
  "relative_humidity": 0.6252901325755226,
  "remarks_info": {
    "maximum_temperature_6": null,
    "minimum_temperature_6": null,
    "pressure_tendency": null,
    "precip_36_hours": null,
    "precip_24_hours": null,
    "sunshine_minutes": null,
    "codes": [
      {
        "repr": "AO2",
        "value": "Automated with precipitation sensor"
      }
    ],
    "dewpoint_decimal": null,
    "maximum_temperature_24": null,
    "minimum_temperature_24": null,
    "precip_hourly": null,
    "sea_level_pressure": null,
    "snow_depth": null,
    "temperature_decimal": null
  },
  "runway_visibility": [],
  "temperature": {
    "repr": "M06",
    "value": -6,
    "spoken": "minus six"
  },
  "wind_variable_direction": [
    {
      "repr": "360",
      "value": 360,
      "spoken": "three six zero"
    },
    {
      "repr": "070",
      "value": 70,
      "spoken": "zero seven zero"
    }
  ],
  "density_altitude": -2652,
  "pressure_altitude": -139,
  "units": {
    "accumulation": "in",
    "altimeter": "inHg",
    "altitude": "ft",
    "temperature": "C",
    "visibility": "sm",
    "wind_speed": "kt"
  }
}
