{
  "altimeter": {
    "repr": "A2946",
    "spoken": "two nine point four six",
    "value": 29.46
  },
  "clouds": [
    {
      "altitude": 23,
      "modifier": null,
      "repr": "BKN023",
      "type": "BKN"
    },
    {
      "altitude": 27,
      "modifier": null,
      "repr": "BKN027",
      "type": "BKN"
    },
    {
      "altitude": 90,
      "modifier": null,
      "repr": "BKN090",
      "type": "BKN"
    }
  ],
  "density_altitude": -102,
  "dewpoint": {
    "repr": "07",
    "spoken": "seven",
    "value": 7
  },
  "flight_rules": "MVFR",
  "meta": {
    "stations_updated": "2024-12-02",
    "timestamp": "2024-12-14T20:29:22.471032Z"
  },
  "other": [],
  "pressure_altitude": 491,
  "raw": "KORS 142015Z AUTO 16021G36KT 10SM BKN023 BKN027 BKN090 10/07 A2946 RMK AO2",
  "relative_humidity": 0.8160587206481518,
  "remarks": "RMK AO2",
  "remarks_info": {
    "codes": [
      {
        "repr": "AO2",
        "value": "Automated with precipitation sensor"
      }
    ],
    "dewpoint_decimal": null,
    "maximum_temperature_24": null,
    "maximum_temperature_6": null,
    "minimum_temperature_24": null,
    "minimum_temperature_6": null,
    "precip_24_hours": null,
    "precip_36_hours": null,
    "precip_hourly": null,
    "pressure_tendency": null,
    "sea_level_pressure": null,
    "snow_depth": null,
    "sunshine_minutes": null,
    "temperature_decimal": null
  },
  "runway_visibility": [],
  "sanitized": "KORS 142015Z 16021G36KT 10SM BKN023 BKN027 BKN090 10/07 A2946 RMK AO2",
  "station": "KORS",
  "temperature": {
    "repr": "10",
    "spoken": "one zero",
    "value": 10
  },
  "time": {
    "dt": "2024-12-14T20:15:00Z",
    "repr": "142015Z"
  },
  "units": {
    "accumulation": "in",
    "altimeter": "inHg",
    "altitude": "ft",
    "temperature": "C",
    "visibility": "sm",
    "wind_speed": "kt"
  },
  "visibility": {
    "repr": "10",
    "spoken": "one zero",
    "value": 10
  },
  "wind_direction": {
    "repr": "160",
    "spoken": "one six zero",
    "value": 160
  },
  "wind_gust": {
    "repr": "36",
    "spoken": "three six",
    "value": 36
  },
  "wind_speed": {
    "repr": "21",
    "spoken": "two one",
    "value": 21
  },
  "wind_variable_direction": [],
  "wx_codes": []
}
