{
  "meta": {
    "timestamp": "2023-02-22T05:03:00.328882Z",
    "stations_updated": "2023-01-30"
  },
  "altimeter": {
    "repr": "A2952",
    "value": 29.52,
    "spoken": "two nine point five two"
  },
  "clouds": [
    {
      "repr": "FEW047",
      "type": "FEW",
      "altitude": 47,
      "modifier": null
    },
    {
      "repr": "FEW060",
      "type": "FEW",
      "altitude": 60,
      "modifier": null
    }
  ],
  "flight_rules": "VFR",
  "other": [],
  "visibility": {
    "repr": "10",
    "value": 10,
    "spoken": "one zero"
  },
  "wind_direction": {
    "repr": "060",
    "value": 60,
    "spoken": "zero six zero"
  },
  "wind_gust": {
    "repr": "18",
    "value": 18,
    "spoken": "one eight"
  },
  "wind_speed": {
    "repr": "09",
    "value": 9,
    "spoken": "nine"
  },
  "wx_codes": [],
  "raw": "KORS 220455Z AUTO 06009G18KT 030V120 10SM FEW047 FEW060 03/M06 A2952 RMK AO2",
  "sanitized": "KORS 220455Z 06009G18KT 030V120 10SM FEW047 FEW060 03/M06 A2952 RMK AO2",
  "station": "KORS",
  "time": {
    "repr": "220455Z",
    "dt": "2023-02-22T04:55:00Z"
  },
  "remarks": "RMK AO2",
  "dewpoint": {
    "repr": "M06",
    "value": -6,
    "spoken": "minus six"
  },
  "relative_humidity": 0.5161020767329337,
  "remarks_info": {
    "maximum_temperature_6": null,
    "minimum_temperature_6": null,
    "pressure_tendency": null,
    "precip_36_hours": null,
    "precip_24_hours": null,
    "sunshine_minutes": null,
    "codes": [
      {
        "repr": "AO2",
        "value": "Automated with precipitation sensor"
      }
    ],
    "dewpoint_decimal": null,
    "maximum_temperature_24": null,
    "minimum_temperature_24": null,
    "precip_hourly": null,
    "sea_level_pressure": null,
    "snow_depth": null,
    "temperature_decimal": null
  },
  "runway_visibility": [],
  "temperature": {
    "repr": "03",
    "value": 3,
    "spoken": "three"
  },
  "wind_variable_direction": [
    {
      "repr": "030",
      "value": 30,
      "spoken": "zero three zero"
    },
    {
      "repr": "120",
      "value": 120,
      "spoken": "one two zero"
    }
  ],
  "density_altitude": -1002,
  "pressure_altitude": 431,
  "units": {
    "accumulation": "in",
    "altimeter": "inHg",
    "altitude": "ft",
    "temperature": "C",
    "visibility": "sm",
    "wind_speed": "kt"
  }
}
