{
  "meta": {
    "timestamp": "2023-02-23T03:41:00.350497Z",
    "stations_updated": "2023-01-30",
    "cache-timestamp": "2023-02-23T03:40:04.731000Z"
  },
  "altimeter": {
    "repr": "A2967",
    "value": 29.67,
    "spoken": "two nine point six seven"
  },
  "clouds": [
    {
      "repr": "FEW016",
      "type": "FEW",
      "altitude": 16,
      "modifier": null
    },
    {
      "repr": "OVC023",
      "type": "OVC",
      "altitude": 23,
      "modifier": null
    }
  ],
  "flight_rules": "MVFR",
  "other": [],
  "visibility": {
    "repr": "9",
    "value": 9,
    "spoken": "nine"
  },
  "wind_direction": {
    "repr": "040",
    "value": 40,
    "spoken": "zero four zero"
  },
  "wind_gust": {
    "repr": "19",
    "value": 19,
    "spoken": "one nine"
  },
  "wind_speed": {
    "repr": "13",
    "value": 13,
    "spoken": "one three"
  },
  "wx_codes": [
    {
      "repr": "UP",
      "value": "Unknown Precip"
    }
  ],
  "raw": "KORS 230315Z AUTO 04013G19KT 360V060 9SM UP FEW016 OVC023 M01/M11 A2967 RMK AO2",
  "sanitized": "KORS 230315Z 04013G19KT 360V060 9SM UP FEW016 OVC023 M01/M11 A2967 RMK AO2",
  "station": "KORS",
  "time": {
    "repr": "230315Z",
    "dt": "2023-02-23T03:15:00Z"
  },
  "remarks": "RMK AO2",
  "dewpoint": {
    "repr": "M11",
    "value": -11,
    "spoken": "minus one one"
  },
  "relative_humidity": 0.4662030451173538,
  "remarks_info": {
    "maximum_temperature_6": null,
    "minimum_temperature_6": null,
    "pressure_tendency": null,
    "precip_36_hours": null,
    "precip_24_hours": null,
    "sunshine_minutes": null,
    "codes": [
      {
        "repr": "AO2",
        "value": "Automated with precipitation sensor"
      }
    ],
    "dewpoint_decimal": null,
    "maximum_temperature_24": null,
    "minimum_temperature_24": null,
    "precip_hourly": null,
    "sea_level_pressure": null,
    "snow_depth": null,
    "temperature_decimal": null
  },
  "runway_visibility": [],
  "temperature": {
    "repr": "M01",
    "value": -1,
    "spoken": "minus one"
  },
  "wind_variable_direction": [
    {
      "repr": "360",
      "value": 360,
      "spoken": "three six zero"
    },
    {
      "repr": "060",
      "value": 60,
      "spoken": "zero six zero"
    }
  ],
  "density_altitude": -1632,
  "pressure_altitude": 281,
  "units": {
    "accumulation": "in",
    "altimeter": "inHg",
    "altitude": "ft",
    "temperature": "C",
    "visibility": "sm",
    "wind_speed": "kt"
  }
}
