{
  "meta": {
    "timestamp": "2022-12-30T08:29:29.254005Z",
    "stations_updated": "2022-12-27"
  },
  "altimeter": {
    "repr": "A2938",
    "value": 29.38,
    "spoken": "two nine point three eight"
  },
  "clouds": [
    {
      "repr": "FEW034",
      "type": "FEW",
      "altitude": 34,
      "modifier": null
    },
    {
      "repr": "OVC041",
      "type": "OVC",
      "altitude": 41,
      "modifier": null
    }
  ],
  "flight_rules": "MVFR",
  "other": [],
  "visibility": {
    "repr": "4",
    "value": 4,
    "spoken": "four"
  },
  "wind_direction": {
    "repr": "VRB",
    "value": null,
    "spoken": "variable"
  },
  "wind_gust": null,
  "wind_speed": {
    "repr": "04",
    "value": 4,
    "spoken": "four"
  },
  "wx_codes": [
    {
      "repr": "-RA",
      "value": "Light Rain"
    },
    {
      "repr": "BR",
      "value": "Mist"
    }
  ],
  "raw": "KORS 300815Z AUTO VRB04KT 4SM -RA BR FEW034 OVC041 06/06 A2938 RMK AO2",
  "sanitized": "KORS 300815Z VRB04KT 4SM -RA BR FEW034 OVC041 06/06 A2938 RMK AO2",
  "station": "KORS",
  "time": {
    "repr": "300815Z",
    "dt": "2022-12-30T08:15:00Z"
  },
  "remarks": "RMK AO2",
  "dewpoint": {
    "repr": "06",
    "value": 6,
    "spoken": "six"
  },
  "relative_humidity": 1,
  "remarks_info": {
    "maximum_temperature_6": null,
    "minimum_temperature_6": null,
    "pressure_tendency": null,
    "precip_36_hours": null,
    "precip_24_hours": null,
    "sunshine_minutes": null,
    "codes": [
      {
        "repr": "AO2",
        "value": "Automated with precipitation sensor"
      }
    ],
    "dewpoint_decimal": null,
    "maximum_temperature_24": null,
    "minimum_temperature_24": null,
    "precip_hourly": null,
    "sea_level_pressure": null,
    "snow_depth": null,
    "temperature_decimal": null
  },
  "runway_visibility": [],
  "temperature": {
    "repr": "06",
    "value": 6,
    "spoken": "six"
  },
  "wind_variable_direction": [],
  "density_altitude": -502,
  "pressure_altitude": 571,
  "units": {
    "accumulation": "in",
    "altimeter": "inHg",
    "altitude": "ft",
    "temperature": "C",
    "visibility": "sm",
    "wind_speed": "kt"
  }
}
