{
  "meta": {
    "timestamp": "2022-12-29T16:46:55.189576Z",
    "stations_updated": "2022-12-27"
  },
  "altimeter": {
    "repr": "A2959",
    "value": 29.59,
    "spoken": "two nine point five nine"
  },
  "clouds": [
    {
      "repr": "FEW042",
      "type": "FEW",
      "altitude": 42,
      "modifier": null
    },
    {
      "repr": "SCT075",
      "type": "SCT",
      "altitude": 75,
      "modifier": null
    },
    {
      "repr": "BKN090",
      "type": "BKN",
      "altitude": 90,
      "modifier": null
    }
  ],
  "flight_rules": "VFR",
  "other": [],
  "visibility": {
    "repr": "10",
    "value": 10,
    "spoken": "one zero"
  },
  "wind_direction": {
    "repr": "020",
    "value": 20,
    "spoken": "zero two zero"
  },
  "wind_gust": null,
  "wind_speed": {
    "repr": "07",
    "value": 7,
    "spoken": "seven"
  },
  "wx_codes": [],
  "raw": "KORS 291635Z AUTO 02007KT 340V080 10SM FEW042 SCT075 BKN090 06/04 A2959 RMK AO2",
  "sanitized": "KORS 291635Z 02007KT 340V080 10SM FEW042 SCT075 BKN090 06/04 A2959 RMK AO2",
  "station": "KORS",
  "time": {
    "repr": "291635Z",
    "dt": "2022-12-29T16:35:00Z"
  },
  "remarks": "RMK AO2",
  "dewpoint": {
    "repr": "04",
    "value": 4,
    "spoken": "four"
  },
  "relative_humidity": 0.8699199333996626,
  "remarks_info": {
    "maximum_temperature_6": null,
    "minimum_temperature_6": null,
    "pressure_tendency": null,
    "precip_36_hours": null,
    "precip_24_hours": null,
    "sunshine_minutes": null,
    "codes": [
      {
        "repr": "AO2",
        "value": "Automated with precipitation sensor"
      }
    ],
    "dewpoint_decimal": null,
    "maximum_temperature_24": null,
    "minimum_temperature_24": null,
    "precip_hourly": null,
    "sea_level_pressure": null,
    "snow_depth": null,
    "temperature_decimal": null
  },
  "runway_visibility": [],
  "temperature": {
    "repr": "06",
    "value": 6,
    "spoken": "six"
  },
  "wind_variable_direction": [
    {
      "repr": "340",
      "value": 340,
      "spoken": "three four zero"
    },
    {
      "repr": "080",
      "value": 80,
      "spoken": "zero eight zero"
    }
  ],
  "density_altitude": -712,
  "pressure_altitude": 361,
  "units": {
    "accumulation": "in",
    "altimeter": "inHg",
    "altitude": "ft",
    "temperature": "C",
    "visibility": "sm",
    "wind_speed": "kt"
  }
}
