{
  "altimeter": {
    "repr": "A3038",
    "spoken": "three zero point three eight",
    "value": 30.38
  },
  "clouds": [],
  "density_altitude": -2582,
  "dewpoint": {
    "repr": "M11",
    "spoken": "minus one one",
    "value": -11
  },
  "flight_rules": "VFR",
  "meta": {
    "cache-timestamp": "2024-01-15T07:02:35.251000Z",
    "stations_updated": "2023-10-28",
    "timestamp": "2024-01-15T07:03:13.792291Z"
  },
  "other": [],
  "pressure_altitude": -429,
  "raw": "KORS 150635Z AUTO VRB03G15KT 10SM CLR M03/M11 A3038 RMK AO2",
  "relative_humidity": 0.5403251453625496,
  "remarks": "RMK AO2",
  "remarks_info": {
    "codes": [
      {
        "repr": "AO2",
        "value": "Automated with precipitation sensor"
      }
    ],
    "dewpoint_decimal": null,
    "maximum_temperature_24": null,
    "maximum_temperature_6": null,
    "minimum_temperature_24": null,
    "minimum_temperature_6": null,
    "precip_24_hours": null,
    "precip_36_hours": null,
    "precip_hourly": null,
    "pressure_tendency": null,
    "sea_level_pressure": null,
    "snow_depth": null,
    "sunshine_minutes": null,
    "temperature_decimal": null
  },
  "runway_visibility": [],
  "sanitized": "KORS 150635Z VRB03G15KT 10SM M03/M11 A3038 RMK AO2",
  "station": "KORS",
  "temperature": {
    "repr": "M03",
    "spoken": "minus three",
    "value": -3
  },
  "time": {
    "dt": "2024-01-15T06:35:00Z",
    "repr": "150635Z"
  },
  "units": {
    "accumulation": "in",
    "altimeter": "inHg",
    "altitude": "ft",
    "temperature": "C",
    "visibility": "sm",
    "wind_speed": "kt"
  },
  "visibility": {
    "repr": "10",
    "spoken": "one zero",
    "value": 10
  },
  "wind_direction": {
    "repr": "VRB",
    "spoken": "variable",
    "value": null
  },
  "wind_gust": {
    "repr": "15",
    "spoken": "one five",
    "value": 15
  },
  "wind_speed": {
    "repr": "03",
    "spoken": "three",
    "value": 3
  },
  "wind_variable_direction": [],
  "wx_codes": []
}
