{
  "meta": {
    "timestamp": "2022-12-30T17:40:38.661627Z",
    "stations_updated": "2022-12-27",
    "cache-timestamp": "2022-12-30T17:40:07.661000Z"
  },
  "altimeter": {
    "repr": "A2945",
    "value": 29.45,
    "spoken": "two nine point four five"
  },
  "clouds": [
    {
      "repr": "FEW003",
      "type": "FEW",
      "altitude": 3,
      "modifier": null
    },
    {
      "repr": "SCT014",
      "type": "SCT",
      "altitude": 14,
      "modifier": null
    },
    {
      "repr": "OVC030",
      "type": "OVC",
      "altitude": 30,
      "modifier": null
    }
  ],
  "flight_rules": "IFR",
  "other": [],
  "visibility": {
    "repr": "3/2",
    "value": 1.5,
    "spoken": "one and one half",
    "numerator": 3,
    "denominator": 2,
    "normalized": "1 1/2"
  },
  "wind_direction": {
    "repr": "170",
    "value": 170,
    "spoken": "one seven zero"
  },
  "wind_gust": null,
  "wind_speed": {
    "repr": "10",
    "value": 10,
    "spoken": "one zero"
  },
  "wx_codes": [
    {
      "repr": "+RA",
      "value": "Heavy Rain"
    },
    {
      "repr": "BR",
      "value": "Mist"
    }
  ],
  "raw": "KORS 301715Z AUTO 17010KT 1 1/2SM +RA BR FEW003 SCT014 OVC030 08/08 A2945 RMK AO2",
  "sanitized": "KORS 301715Z 17010KT 1 1/2SM +RA BR FEW003 SCT014 OVC030 08/08 A2945 RMK AO2",
  "station": "KORS",
  "time": {
    "repr": "301715Z",
    "dt": "2022-12-30T17:15:00Z"
  },
  "remarks": "RMK AO2",
  "dewpoint": {
    "repr": "08",
    "value": 8,
    "spoken": "eight"
  },
  "relative_humidity": 1,
  "remarks_info": {
    "maximum_temperature_6": null,
    "minimum_temperature_6": null,
    "pressure_tendency": null,
    "precip_36_hours": null,
    "precip_24_hours": null,
    "sunshine_minutes": null,
    "codes": [
      {
        "repr": "AO2",
        "value": "Automated with precipitation sensor"
      }
    ],
    "dewpoint_decimal": null,
    "maximum_temperature_24": null,
    "minimum_temperature_24": null,
    "precip_hourly": null,
    "sea_level_pressure": null,
    "snow_depth": null,
    "temperature_decimal": null
  },
  "runway_visibility": [],
  "temperature": {
    "repr": "08",
    "value": 8,
    "spoken": "eight"
  },
  "wind_variable_direction": [],
  "density_altitude": -332,
  "pressure_altitude": 501,
  "units": {
    "accumulation": "in",
    "altimeter": "inHg",
    "altitude": "ft",
    "temperature": "C",
    "visibility": "sm",
    "wind_speed": "kt"
  }
}
