{
  "altimeter": {
    "repr": "A2972",
    "spoken": "two nine point seven two",
    "value": 29.72
  },
  "clouds": [
    {
      "altitude": 23,
      "modifier": null,
      "repr": "OVC023",
      "type": "OVC"
    }
  ],
  "density_altitude": 238,
  "dewpoint": {
    "repr": "15",
    "spoken": "one five",
    "value": 15
  },
  "flight_rules": "MVFR",
  "meta": {
    "stations_updated": "2024-06-12",
    "timestamp": "2024-10-20T21:25:54.222888Z"
  },
  "other": [],
  "pressure_altitude": 231,
  "raw": "KORS 202115Z AUTO 18010G18KT 4SM -RA BR OVC023 15/15 A2972 RMK AO2",
  "relative_humidity": 1,
  "remarks": "RMK AO2",
  "remarks_info": {
    "codes": [
      {
        "repr": "AO2",
        "value": "Automated with precipitation sensor"
      }
    ],
    "dewpoint_decimal": null,
    "maximum_temperature_24": null,
    "maximum_temperature_6": null,
    "minimum_temperature_24": null,
    "minimum_temperature_6": null,
    "precip_24_hours": null,
    "precip_36_hours": null,
    "precip_hourly": null,
    "pressure_tendency": null,
    "sea_level_pressure": null,
    "snow_depth": null,
    "sunshine_minutes": null,
    "temperature_decimal": null
  },
  "runway_visibility": [],
  "sanitized": "KORS 202115Z 18010G18KT 4SM -RA BR OVC023 15/15 A2972 RMK AO2",
  "station": "KORS",
  "temperature": {
    "repr": "15",
    "spoken": "one five",
    "value": 15
  },
  "time": {
    "dt": "2024-10-20T21:15:00Z",
    "repr": "202115Z"
  },
  "units": {
    "accumulation": "in",
    "altimeter": "inHg",
    "altitude": "ft",
    "temperature": "C",
    "visibility": "sm",
    "wind_speed": "kt"
  },
  "visibility": {
    "repr": "4",
    "spoken": "four",
    "value": 4
  },
  "wind_direction": {
    "repr": "180",
    "spoken": "one eight zero",
    "value": 180
  },
  "wind_gust": {
    "repr": "18",
    "spoken": "one eight",
    "value": 18
  },
  "wind_speed": {
    "repr": "10",
    "spoken": "one zero",
    "value": 10
  },
  "wind_variable_direction": [],
  "wx_codes": [
    {
      "repr": "-RA",
      "value": "Light Rain"
    },
    {
      "repr": "BR",
      "value": "Mist"
    }
  ]
}
