{
  "meta": {
    "timestamp": "2023-01-01T07:40:36.587586Z",
    "stations_updated": "2022-12-27",
    "cache-timestamp": "2023-01-01T07:40:05.923000Z"
  },
  "altimeter": {
    "repr": "A3002",
    "value": 30.02,
    "spoken": "three zero point zero two"
  },
  "clouds": [
    {
      "repr": "SCT038",
      "type": "SCT",
      "altitude": 38,
      "modifier": null
    },
    {
      "repr": "BKN046",
      "type": "BKN",
      "altitude": 46,
      "modifier": null
    }
  ],
  "flight_rules": "MVFR",
  "other": [],
  "visibility": {
    "repr": "3",
    "value": 3,
    "spoken": "three"
  },
  "wind_direction": {
    "repr": "000",
    "value": 0,
    "spoken": "zero zero zero"
  },
  "wind_gust": null,
  "wind_speed": {
    "repr": "00",
    "value": 0,
    "spoken": "zero"
  },
  "wx_codes": [
    {
      "repr": "BR",
      "value": "Mist"
    }
  ],
  "raw": "KORS 010735Z AUTO 00000KT 3SM BR SCT038 BKN046 04/04 A3002 RMK AO2",
  "sanitized": "KORS 010735Z 00000KT 3SM BR SCT038 BKN046 04/04 A3002 RMK AO2",
  "station": "KORS",
  "time": {
    "repr": "010735Z",
    "dt": "2023-01-01T07:35:00Z"
  },
  "remarks": "RMK AO2",
  "dewpoint": {
    "repr": "04",
    "value": 4,
    "spoken": "four"
  },
  "relative_humidity": 1,
  "remarks_info": {
    "maximum_temperature_6": null,
    "minimum_temperature_6": null,
    "pressure_tendency": null,
    "precip_36_hours": null,
    "precip_24_hours": null,
    "sunshine_minutes": null,
    "codes": [
      {
        "repr": "AO2",
        "value": "Automated with precipitation sensor"
      }
    ],
    "dewpoint_decimal": null,
    "maximum_temperature_24": null,
    "minimum_temperature_24": null,
    "precip_hourly": null,
    "sea_level_pressure": null,
    "snow_depth": null,
    "temperature_decimal": null
  },
  "runway_visibility": [],
  "temperature": {
    "repr": "04",
    "value": 4,
    "spoken": "four"
  },
  "wind_variable_direction": [],
  "density_altitude": -1382,
  "pressure_altitude": -69,
  "units": {
    "accumulation": "in",
    "altimeter": "inHg",
    "altitude": "ft",
    "temperature": "C",
    "visibility": "sm",
    "wind_speed": "kt"
  }
}
