{
  "meta": {
    "timestamp": "2022-11-25T17:27:27.223772Z",
    "stations_updated": "2022-09-05"
  },
  "altimeter": {
    "repr": "A3017",
    "value": 30.17,
    "spoken": "three zero point one seven"
  },
  "clouds": [
    {
      "repr": "SCT008",
      "type": "SCT",
      "altitude": 8,
      "modifier": null
    },
    {
      "repr": "BKN026",
      "type": "BKN",
      "altitude": 26,
      "modifier": null
    },
    {
      "repr": "OVC036",
      "type": "OVC",
      "altitude": 36,
      "modifier": null
    }
  ],
  "flight_rules": "MVFR",
  "other": [],
  "visibility": {
    "repr": "3",
    "value": 3,
    "spoken": "three"
  },
  "wind_direction": {
    "repr": "190",
    "value": 190,
    "spoken": "one nine zero"
  },
  "wind_gust": null,
  "wind_speed": {
    "repr": "04",
    "value": 4,
    "spoken": "four"
  },
  "wx_codes": [
    {
      "repr": "-RA",
      "value": "Light Rain"
    },
    {
      "repr": "BR",
      "value": "Mist"
    }
  ],
  "raw": "KORS 251715Z AUTO 19004KT 3SM -RA BR SCT008 BKN026 OVC036 09/08 A3017 RMK AO2",
  "sanitized": "KORS 251715Z 19004KT 3SM -RA BR SCT008 BKN026 OVC036 09/08 A3017 RMK AO2",
  "station": "KORS",
  "time": {
    "repr": "251715Z",
    "dt": "2022-11-25T17:15:00Z"
  },
  "remarks": "RMK AO2",
  "dewpoint": {
    "repr": "08",
    "value": 8,
    "spoken": "eight"
  },
  "relative_humidity": 0.9344901544791844,
  "remarks_info": {
    "maximum_temperature_6": null,
    "minimum_temperature_6": null,
    "pressure_tendency": null,
    "precip_36_hours": null,
    "precip_24_hours": null,
    "sunshine_minutes": null,
    "codes": [
      {
        "repr": "AO2",
        "value": "Automated with precipitation sensor"
      }
    ],
    "dewpoint_decimal": null,
    "maximum_temperature_24": null,
    "minimum_temperature_24": null,
    "precip_hourly": null,
    "sea_level_pressure": null,
    "snow_depth": null,
    "temperature_decimal": null
  },
  "runway_visibility": [],
  "temperature": {
    "repr": "09",
    "value": 9,
    "spoken": "nine"
  },
  "wind_variable_direction": [],
  "density_altitude": -932,
  "pressure_altitude": -219,
  "units": {
    "accumulation": "in",
    "altimeter": "inHg",
    "altitude": "ft",
    "temperature": "C",
    "visibility": "sm",
    "wind_speed": "kt"
  }
}
