{
  "meta": {
    "timestamp": "2022-12-24T20:01:46.639797Z",
    "stations_updated": "2022-09-05"
  },
  "altimeter": {
    "repr": "A2984",
    "value": 29.84,
    "spoken": "two nine point eight four"
  },
  "clouds": [
    {
      "repr": "OVC013",
      "type": "OVC",
      "altitude": 13,
      "modifier": null
    }
  ],
  "flight_rules": "MVFR",
  "other": [],
  "visibility": {
    "repr": "9",
    "value": 9,
    "spoken": "nine"
  },
  "wind_direction": {
    "repr": "170",
    "value": 170,
    "spoken": "one seven zero"
  },
  "wind_gust": {
    "repr": "21",
    "value": 21,
    "spoken": "two one"
  },
  "wind_speed": {
    "repr": "13",
    "value": 13,
    "spoken": "one three"
  },
  "wx_codes": [],
  "raw": "KORS 241955Z AUTO 17013G21KT 9SM OVC013 10/09 A2984 RMK AO2 P0004",
  "sanitized": "KORS 241955Z 17013G21KT 9SM OVC013 10/09 A2984 RMK AO2 P0004",
  "station": "KORS",
  "time": {
    "repr": "241955Z",
    "dt": "2022-12-24T19:55:00Z"
  },
  "remarks": "RMK AO2 P0004",
  "dewpoint": {
    "repr": "09",
    "value": 9,
    "spoken": "nine"
  },
  "relative_humidity": 0.9349898195447824,
  "remarks_info": {
    "maximum_temperature_6": null,
    "minimum_temperature_6": null,
    "pressure_tendency": null,
    "precip_36_hours": null,
    "precip_24_hours": null,
    "sunshine_minutes": null,
    "codes": [
      {
        "repr": "AO2",
        "value": "Automated with precipitation sensor"
      }
    ],
    "dewpoint_decimal": null,
    "maximum_temperature_24": null,
    "minimum_temperature_24": null,
    "precip_hourly": {
      "repr": "P0004",
      "value": 0.04,
      "spoken": "zero point zero four"
    },
    "sea_level_pressure": null,
    "snow_depth": null,
    "temperature_decimal": null
  },
  "runway_visibility": [],
  "temperature": {
    "repr": "10",
    "value": 10,
    "spoken": "one zero"
  },
  "wind_variable_direction": [],
  "density_altitude": -482,
  "pressure_altitude": 111,
  "units": {
    "accumulation": "in",
    "altimeter": "inHg",
    "altitude": "ft",
    "temperature": "C",
    "visibility": "sm",
    "wind_speed": "kt"
  }
}
