{
  "altimeter": {
    "repr": "A2963",
    "spoken": "two nine point six three",
    "value": 29.63
  },
  "clouds": [
    {
      "altitude": 5,
      "modifier": null,
      "repr": "BKN005",
      "type": "BKN"
    },
    {
      "altitude": 30,
      "modifier": null,
      "repr": "BKN030",
      "type": "BKN"
    },
    {
      "altitude": 43,
      "modifier": null,
      "repr": "OVC043",
      "type": "OVC"
    }
  ],
  "density_altitude": 208,
  "dewpoint": {
    "repr": "14",
    "spoken": "one four",
    "value": 14
  },
  "flight_rules": "IFR",
  "meta": {
    "stations_updated": "2024-06-12",
    "timestamp": "2024-09-25T10:44:33.246548Z"
  },
  "other": [],
  "pressure_altitude": 321,
  "raw": "KORS 251035Z AUTO 00000KT 6SM -RA BR BKN005 BKN030 OVC043 14/14 A2963 RMK AO2",
  "relative_humidity": 1,
  "remarks": "RMK AO2",
  "remarks_info": {
    "codes": [
      {
        "repr": "AO2",
        "value": "Automated with precipitation sensor"
      }
    ],
    "dewpoint_decimal": null,
    "maximum_temperature_24": null,
    "maximum_temperature_6": null,
    "minimum_temperature_24": null,
    "minimum_temperature_6": null,
    "precip_24_hours": null,
    "precip_36_hours": null,
    "precip_hourly": null,
    "pressure_tendency": null,
    "sea_level_pressure": null,
    "snow_depth": null,
    "sunshine_minutes": null,
    "temperature_decimal": null
  },
  "runway_visibility": [],
  "sanitized": "KORS 251035Z 00000KT 6SM -RA BR BKN005 BKN030 OVC043 14/14 A2963 RMK AO2",
  "station": "KORS",
  "temperature": {
    "repr": "14",
    "spoken": "one four",
    "value": 14
  },
  "time": {
    "dt": "2024-09-25T10:35:00Z",
    "repr": "251035Z"
  },
  "units": {
    "accumulation": "in",
    "altimeter": "inHg",
    "altitude": "ft",
    "temperature": "C",
    "visibility": "sm",
    "wind_speed": "kt"
  },
  "visibility": {
    "repr": "6",
    "spoken": "six",
    "value": 6
  },
  "wind_direction": {
    "repr": "000",
    "spoken": "zero zero zero",
    "value": 0
  },
  "wind_gust": null,
  "wind_speed": {
    "repr": "00",
    "spoken": "zero",
    "value": 0
  },
  "wind_variable_direction": [],
  "wx_codes": [
    {
      "repr": "-RA",
      "value": "Light Rain"
    },
    {
      "repr": "BR",
      "value": "Mist"
    }
  ]
}
