{
  "meta": {
    "timestamp": "2023-03-23T09:02:23.702643Z",
    "stations_updated": "2023-03-11"
  },
  "altimeter": {
    "repr": "A2985",
    "value": 29.85,
    "spoken": "two nine point eight five"
  },
  "clouds": [
    {
      "repr": "SCT049",
      "type": "SCT",
      "altitude": 49,
      "modifier": null
    },
    {
      "repr": "SCT060",
      "type": "SCT",
      "altitude": 60,
      "modifier": null
    },
    {
      "repr": "OVC075",
      "type": "OVC",
      "altitude": 75,
      "modifier": null
    }
  ],
  "flight_rules": "VFR",
  "other": [],
  "visibility": {
    "repr": "10",
    "value": 10,
    "spoken": "one zero"
  },
  "wind_direction": {
    "repr": "190",
    "value": 190,
    "spoken": "one nine zero"
  },
  "wind_gust": null,
  "wind_speed": {
    "repr": "09",
    "value": 9,
    "spoken": "nine"
  },
  "wx_codes": [],
  "raw": "KORS 230855Z AUTO 19009KT 10SM SCT049 SCT060 OVC075 08/04 A2985 RMK AO2",
  "sanitized": "KORS 230855Z 19009KT 10SM SCT049 SCT060 OVC075 08/04 A2985 RMK AO2",
  "station": "KORS",
  "time": {
    "repr": "230855Z",
    "dt": "2023-03-23T08:55:00Z"
  },
  "remarks": "RMK AO2",
  "dewpoint": {
    "repr": "04",
    "value": 4,
    "spoken": "four"
  },
  "relative_humidity": 0.7584398103585424,
  "remarks_info": {
    "maximum_temperature_6": null,
    "minimum_temperature_6": null,
    "pressure_tendency": null,
    "precip_36_hours": null,
    "precip_24_hours": null,
    "sunshine_minutes": null,
    "codes": [
      {
        "repr": "AO2",
        "value": "Automated with precipitation sensor"
      }
    ],
    "dewpoint_decimal": null,
    "maximum_temperature_24": null,
    "minimum_temperature_24": null,
    "precip_hourly": null,
    "sea_level_pressure": null,
    "snow_depth": null,
    "temperature_decimal": null
  },
  "runway_visibility": [],
  "temperature": {
    "repr": "08",
    "value": 8,
    "spoken": "eight"
  },
  "wind_variable_direction": [],
  "density_altitude": -732,
  "pressure_altitude": 101,
  "units": {
    "accumulation": "in",
    "altimeter": "inHg",
    "altitude": "ft",
    "temperature": "C",
    "visibility": "sm",
    "wind_speed": "kt"
  }
}
