{
  "altimeter": {
    "repr": "A2983",
    "spoken": "two nine point eight three",
    "value": 29.83
  },
  "clouds": [
    {
      "altitude": 11,
      "modifier": null,
      "repr": "FEW011",
      "type": "FEW"
    },
    {
      "altitude": 21,
      "modifier": null,
      "repr": "OVC021",
      "type": "OVC"
    }
  ],
  "density_altitude": -472,
  "dewpoint": {
    "repr": "09",
    "spoken": "nine",
    "value": 9
  },
  "flight_rules": "MVFR",
  "meta": {
    "cache-timestamp": "2024-05-25T14:40:06.388000Z",
    "stations_updated": "2024-05-13",
    "timestamp": "2024-05-25T14:40:35.822332Z"
  },
  "other": [],
  "pressure_altitude": 121,
  "raw": "KORS 251435Z AUTO 00000KT 9SM FEW011 OVC021 10/09 A2983 RMK AO2",
  "relative_humidity": 0.9349898195447824,
  "remarks": "RMK AO2",
  "remarks_info": {
    "codes": [
      {
        "repr": "AO2",
        "value": "Automated with precipitation sensor"
      }
    ],
    "dewpoint_decimal": null,
    "maximum_temperature_24": null,
    "maximum_temperature_6": null,
    "minimum_temperature_24": null,
    "minimum_temperature_6": null,
    "precip_24_hours": null,
    "precip_36_hours": null,
    "precip_hourly": null,
    "pressure_tendency": null,
    "sea_level_pressure": null,
    "snow_depth": null,
    "sunshine_minutes": null,
    "temperature_decimal": null
  },
  "runway_visibility": [],
  "sanitized": "KORS 251435Z 00000KT 9SM FEW011 OVC021 10/09 A2983 RMK AO2",
  "station": "KORS",
  "temperature": {
    "repr": "10",
    "spoken": "one zero",
    "value": 10
  },
  "time": {
    "dt": "2024-05-25T14:35:00Z",
    "repr": "251435Z"
  },
  "units": {
    "accumulation": "in",
    "altimeter": "inHg",
    "altitude": "ft",
    "temperature": "C",
    "visibility": "sm",
    "wind_speed": "kt"
  },
  "visibility": {
    "repr": "9",
    "spoken": "nine",
    "value": 9
  },
  "wind_direction": {
    "repr": "000",
    "spoken": "zero zero zero",
    "value": 0
  },
  "wind_gust": null,
  "wind_speed": {
    "repr": "00",
    "spoken": "zero",
    "value": 0
  },
  "wind_variable_direction": [],
  "wx_codes": []
}
