{
  "meta": {
    "timestamp": "2023-01-18T04:43:22.317704Z",
    "stations_updated": "2023-01-16"
  },
  "altimeter": {
    "repr": "A2982",
    "value": 29.82,
    "spoken": "two nine point eight two"
  },
  "clouds": [
    {
      "repr": "BKN021",
      "type": "BKN",
      "altitude": 21,
      "modifier": null
    },
    {
      "repr": "BKN039",
      "type": "BKN",
      "altitude": 39,
      "modifier": null
    },
    {
      "repr": "OVC065",
      "type": "OVC",
      "altitude": 65,
      "modifier": null
    }
  ],
  "flight_rules": "MVFR",
  "other": [],
  "visibility": {
    "repr": "10",
    "value": 10,
    "spoken": "one zero"
  },
  "wind_direction": {
    "repr": "160",
    "value": 160,
    "spoken": "one six zero"
  },
  "wind_gust": {
    "repr": "20",
    "value": 20,
    "spoken": "two zero"
  },
  "wind_speed": {
    "repr": "14",
    "value": 14,
    "spoken": "one four"
  },
  "wx_codes": [],
  "raw": "KORS 180435Z AUTO 16014G20KT 130V190 10SM BKN021 BKN039 OVC065 08/07 A2982 RMK AO2",
  "sanitized": "KORS 180435Z 16014G20KT 130V190 10SM BKN021 BKN039 OVC065 08/07 A2982 RMK AO2",
  "station": "KORS",
  "time": {
    "repr": "180435Z",
    "dt": "2023-01-18T04:35:00Z"
  },
  "remarks": "RMK AO2",
  "dewpoint": {
    "repr": "07",
    "value": 7,
    "spoken": "seven"
  },
  "relative_humidity": 0.933984777240729,
  "remarks_info": {
    "maximum_temperature_6": null,
    "minimum_temperature_6": null,
    "pressure_tendency": null,
    "precip_36_hours": null,
    "precip_24_hours": null,
    "sunshine_minutes": null,
    "codes": [
      {
        "repr": "AO2",
        "value": "Automated with precipitation sensor"
      }
    ],
    "dewpoint_decimal": null,
    "maximum_temperature_24": null,
    "minimum_temperature_24": null,
    "precip_hourly": null,
    "sea_level_pressure": null,
    "snow_depth": null,
    "temperature_decimal": null
  },
  "runway_visibility": [],
  "temperature": {
    "repr": "08",
    "value": 8,
    "spoken": "eight"
  },
  "wind_variable_direction": [
    {
      "repr": "130",
      "value": 130,
      "spoken": "one three zero"
    },
    {
      "repr": "190",
      "value": 190,
      "spoken": "one nine zero"
    }
  ],
  "density_altitude": -702,
  "pressure_altitude": 131,
  "units": {
    "accumulation": "in",
    "altimeter": "inHg",
    "altitude": "ft",
    "temperature": "C",
    "visibility": "sm",
    "wind_speed": "kt"
  }
}
