{
  "meta": {
    "timestamp": "2023-02-23T15:42:30.619114Z",
    "stations_updated": "2023-01-30",
    "cache-timestamp": "2023-02-23T15:42:09.393000Z"
  },
  "altimeter": {
    "repr": "A2980",
    "value": 29.8,
    "spoken": "two nine point eight zero"
  },
  "clouds": [
    {
      "repr": "FEW041",
      "type": "FEW",
      "altitude": 41,
      "modifier": null
    },
    {
      "repr": "SCT050",
      "type": "SCT",
      "altitude": 50,
      "modifier": null
    },
    {
      "repr": "BKN065",
      "type": "BKN",
      "altitude": 65,
      "modifier": null
    }
  ],
  "flight_rules": "VFR",
  "other": [],
  "visibility": {
    "repr": "9",
    "value": 9,
    "spoken": "nine"
  },
  "wind_direction": {
    "repr": "060",
    "value": 60,
    "spoken": "zero six zero"
  },
  "wind_gust": {
    "repr": "27",
    "value": 27,
    "spoken": "two seven"
  },
  "wind_speed": {
    "repr": "18",
    "value": 18,
    "spoken": "one eight"
  },
  "wx_codes": [],
  "raw": "KORS 231535Z AUTO 06018G27KT 030V090 9SM FEW041 SCT050 BKN065 M04/M14 A2980 RMK AO2",
  "sanitized": "KORS 231535Z 06018G27KT 030V090 9SM FEW041 SCT050 BKN065 M04/M14 A2980 RMK AO2",
  "station": "KORS",
  "time": {
    "repr": "231535Z",
    "dt": "2023-02-23T15:35:00Z"
  },
  "remarks": "RMK AO2",
  "dewpoint": {
    "repr": "M14",
    "value": -14,
    "spoken": "minus one four"
  },
  "relative_humidity": 0.45712716144183596,
  "remarks_info": {
    "maximum_temperature_6": null,
    "minimum_temperature_6": null,
    "pressure_tendency": null,
    "precip_36_hours": null,
    "precip_24_hours": null,
    "sunshine_minutes": null,
    "codes": [
      {
        "repr": "AO2",
        "value": "Automated with precipitation sensor"
      }
    ],
    "dewpoint_decimal": null,
    "maximum_temperature_24": null,
    "minimum_temperature_24": null,
    "precip_hourly": null,
    "sea_level_pressure": null,
    "snow_depth": null,
    "temperature_decimal": null
  },
  "runway_visibility": [],
  "temperature": {
    "repr": "M04",
    "value": -4,
    "spoken": "minus four"
  },
  "wind_variable_direction": [
    {
      "repr": "030",
      "value": 30,
      "spoken": "zero three zero"
    },
    {
      "repr": "090",
      "value": 90,
      "spoken": "zero nine zero"
    }
  ],
  "density_altitude": -2122,
  "pressure_altitude": 151,
  "units": {
    "accumulation": "in",
    "altimeter": "inHg",
    "altitude": "ft",
    "temperature": "C",
    "visibility": "sm",
    "wind_speed": "kt"
  }
}
