{
  "altimeter": {
    "repr": "A2945",
    "spoken": "two nine point four five",
    "value": 29.45
  },
  "clouds": [
    {
      "altitude": 75,
      "modifier": null,
      "repr": "OVC075",
      "type": "OVC"
    }
  ],
  "density_altitude": -212,
  "dewpoint": {
    "repr": "06",
    "spoken": "six",
    "value": 6
  },
  "flight_rules": "VFR",
  "meta": {
    "stations_updated": "2024-12-02",
    "timestamp": "2024-12-14T07:26:53.423209Z"
  },
  "other": [],
  "pressure_altitude": 501,
  "raw": "KORS 140715Z AUTO 15016G25KT 110V170 10SM OVC075 09/06 A2945 RMK AO2",
  "relative_humidity": 0.8147353662483537,
  "remarks": "RMK AO2",
  "remarks_info": {
    "codes": [
      {
        "repr": "AO2",
        "value": "Automated with precipitation sensor"
      }
    ],
    "dewpoint_decimal": null,
    "maximum_temperature_24": null,
    "maximum_temperature_6": null,
    "minimum_temperature_24": null,
    "minimum_temperature_6": null,
    "precip_24_hours": null,
    "precip_36_hours": null,
    "precip_hourly": null,
    "pressure_tendency": null,
    "sea_level_pressure": null,
    "snow_depth": null,
    "sunshine_minutes": null,
    "temperature_decimal": null
  },
  "runway_visibility": [],
  "sanitized": "KORS 140715Z 15016G25KT 110V170 10SM OVC075 09/06 A2945 RMK AO2",
  "station": "KORS",
  "temperature": {
    "repr": "09",
    "spoken": "nine",
    "value": 9
  },
  "time": {
    "dt": "2024-12-14T07:15:00Z",
    "repr": "140715Z"
  },
  "units": {
    "accumulation": "in",
    "altimeter": "inHg",
    "altitude": "ft",
    "temperature": "C",
    "visibility": "sm",
    "wind_speed": "kt"
  },
  "visibility": {
    "repr": "10",
    "spoken": "one zero",
    "value": 10
  },
  "wind_direction": {
    "repr": "150",
    "spoken": "one five zero",
    "value": 150
  },
  "wind_gust": {
    "repr": "25",
    "spoken": "two five",
    "value": 25
  },
  "wind_speed": {
    "repr": "16",
    "spoken": "one six",
    "value": 16
  },
  "wind_variable_direction": [
    {
      "repr": "110",
      "spoken": "one one zero",
      "value": 110
    },
    {
      "repr": "170",
      "spoken": "one seven zero",
      "value": 170
    }
  ],
  "wx_codes": []
}
