{
  "meta": {
    "timestamp": "2023-01-29T19:40:42.961274Z",
    "stations_updated": "2023-01-16",
    "cache-timestamp": "2023-01-29T19:40:05.925000Z"
  },
  "altimeter": {
    "repr": "A3055",
    "value": 30.55,
    "spoken": "three zero point five five"
  },
  "clouds": [],
  "flight_rules": "VFR",
  "other": [],
  "visibility": {
    "repr": "10",
    "value": 10,
    "spoken": "one zero"
  },
  "wind_direction": {
    "repr": "030",
    "value": 30,
    "spoken": "zero three zero"
  },
  "wind_gust": {
    "repr": "16",
    "value": 16,
    "spoken": "one six"
  },
  "wind_speed": {
    "repr": "11",
    "value": 11,
    "spoken": "one one"
  },
  "wx_codes": [],
  "raw": "KORS 291915Z AUTO 03011G16KT 360V060 10SM CLR 02/M12 A3055 RMK AO2",
  "sanitized": "KORS 291915Z 03011G16KT 360V060 10SM 02/M12 A3055 RMK AO2",
  "station": "KORS",
  "time": {
    "repr": "291915Z",
    "dt": "2023-01-29T19:15:00Z"
  },
  "remarks": "RMK AO2",
  "dewpoint": {
    "repr": "M12",
    "value": -12,
    "spoken": "minus one two"
  },
  "relative_humidity": 0.3464936990764926,
  "remarks_info": {
    "maximum_temperature_6": null,
    "minimum_temperature_6": null,
    "pressure_tendency": null,
    "precip_36_hours": null,
    "precip_24_hours": null,
    "sunshine_minutes": null,
    "codes": [
      {
        "repr": "AO2",
        "value": "Automated with precipitation sensor"
      }
    ],
    "dewpoint_decimal": null,
    "maximum_temperature_24": null,
    "minimum_temperature_24": null,
    "precip_hourly": null,
    "sea_level_pressure": null,
    "snow_depth": null,
    "temperature_decimal": null
  },
  "runway_visibility": [],
  "temperature": {
    "repr": "02",
    "value": 2,
    "spoken": "two"
  },
  "wind_variable_direction": [
    {
      "repr": "360",
      "value": 360,
      "spoken": "three six zero"
    },
    {
      "repr": "060",
      "value": 60,
      "spoken": "zero six zero"
    }
  ],
  "density_altitude": -2152,
  "pressure_altitude": -599,
  "units": {
    "accumulation": "in",
    "altimeter": "inHg",
    "altitude": "ft",
    "temperature": "C",
    "visibility": "sm",
    "wind_speed": "kt"
  }
}
