{
  "meta": {
    "timestamp": "2023-02-22T15:28:48.715927Z",
    "stations_updated": "2023-01-30",
    "cache-timestamp": "2023-02-22T15:28:06.445000Z"
  },
  "altimeter": {
    "repr": "A2965",
    "value": 29.65,
    "spoken": "two nine point six five"
  },
  "clouds": [
    {
      "repr": "FEW080",
      "type": "FEW",
      "altitude": 80,
      "modifier": null
    },
    {
      "repr": "OVC095",
      "type": "OVC",
      "altitude": 95,
      "modifier": null
    }
  ],
  "flight_rules": "VFR",
  "other": [],
  "visibility": {
    "repr": "10",
    "value": 10,
    "spoken": "one zero"
  },
  "wind_direction": {
    "repr": "040",
    "value": 40,
    "spoken": "zero four zero"
  },
  "wind_gust": {
    "repr": "27",
    "value": 27,
    "spoken": "two seven"
  },
  "wind_speed": {
    "repr": "12",
    "value": 12,
    "spoken": "one two"
  },
  "wx_codes": [],
  "raw": "KORS 221515Z AUTO 04012G27KT 350V080 10SM FEW080 OVC095 M00/M11 A2965 RMK AO2",
  "sanitized": "KORS 221515Z 04012G27KT 350V080 10SM FEW080 OVC095 M00/M11 A2965 RMK AO2",
  "station": "KORS",
  "time": {
    "repr": "221515Z",
    "dt": "2023-02-22T15:15:00Z"
  },
  "remarks": "RMK AO2",
  "dewpoint": {
    "repr": "M11",
    "value": -11,
    "spoken": "minus one one"
  },
  "relative_humidity": 0.4334408238165043,
  "remarks_info": {
    "maximum_temperature_6": null,
    "minimum_temperature_6": null,
    "pressure_tendency": null,
    "precip_36_hours": null,
    "precip_24_hours": null,
    "sunshine_minutes": null,
    "codes": [
      {
        "repr": "AO2",
        "value": "Automated with precipitation sensor"
      }
    ],
    "dewpoint_decimal": null,
    "maximum_temperature_24": null,
    "minimum_temperature_24": null,
    "precip_hourly": null,
    "sea_level_pressure": null,
    "snow_depth": null,
    "temperature_decimal": null
  },
  "runway_visibility": [],
  "temperature": {
    "repr": "M00",
    "value": 0,
    "spoken": "zero"
  },
  "wind_variable_direction": [
    {
      "repr": "350",
      "value": 350,
      "spoken": "three five zero"
    },
    {
      "repr": "080",
      "value": 80,
      "spoken": "zero eight zero"
    }
  ],
  "density_altitude": -1492,
  "pressure_altitude": 301,
  "units": {
    "accumulation": "in",
    "altimeter": "inHg",
    "altitude": "ft",
    "temperature": "C",
    "visibility": "sm",
    "wind_speed": "kt"
  }
}
