{
  "meta": {
    "timestamp": "2023-01-05T08:43:04.318133Z",
    "stations_updated": "2022-12-27",
    "cache-timestamp": "2023-01-05T08:42:40.385000Z"
  },
  "altimeter": {
    "repr": "A2950",
    "value": 29.5,
    "spoken": "two nine point five zero"
  },
  "clouds": [
    {
      "repr": "OVC070",
      "type": "OVC",
      "altitude": 70,
      "modifier": null
    }
  ],
  "flight_rules": "VFR",
  "other": [],
  "visibility": {
    "repr": "10",
    "value": 10,
    "spoken": "one zero"
  },
  "wind_direction": {
    "repr": "070",
    "value": 70,
    "spoken": "zero seven zero"
  },
  "wind_gust": null,
  "wind_speed": {
    "repr": "08",
    "value": 8,
    "spoken": "eight"
  },
  "wx_codes": [],
  "raw": "KORS 050835Z AUTO 07008KT 020V110 10SM OVC070 09/M00 A2950 RMK AO2",
  "sanitized": "KORS 050835Z 07008KT 020V110 10SM OVC070 09/M00 A2950 RMK AO2",
  "station": "KORS",
  "time": {
    "repr": "050835Z",
    "dt": "2023-01-05T08:35:00Z"
  },
  "remarks": "RMK AO2",
  "dewpoint": {
    "repr": "M00",
    "value": 0,
    "spoken": "zero"
  },
  "relative_humidity": 0.5326867268160558,
  "remarks_info": {
    "maximum_temperature_6": null,
    "minimum_temperature_6": null,
    "pressure_tendency": null,
    "precip_36_hours": null,
    "precip_24_hours": null,
    "sunshine_minutes": null,
    "codes": [
      {
        "repr": "AO2",
        "value": "Automated with precipitation sensor"
      }
    ],
    "dewpoint_decimal": null,
    "maximum_temperature_24": null,
    "minimum_temperature_24": null,
    "precip_hourly": null,
    "sea_level_pressure": null,
    "snow_depth": null,
    "temperature_decimal": null
  },
  "runway_visibility": [],
  "temperature": {
    "repr": "09",
    "value": 9,
    "spoken": "nine"
  },
  "wind_variable_direction": [
    {
      "repr": "020",
      "value": 20,
      "spoken": "zero two zero"
    },
    {
      "repr": "110",
      "value": 110,
      "spoken": "one one zero"
    }
  ],
  "density_altitude": -262,
  "pressure_altitude": 451,
  "units": {
    "accumulation": "in",
    "altimeter": "inHg",
    "altitude": "ft",
    "temperature": "C",
    "visibility": "sm",
    "wind_speed": "kt"
  }
}
