{
  "altimeter": {
    "repr": "A2972",
    "spoken": "two nine point seven two",
    "value": 29.72
  },
  "clouds": [
    {
      "altitude": 12,
      "modifier": null,
      "repr": "OVC012",
      "type": "OVC"
    }
  ],
  "density_altitude": -722,
  "dewpoint": {
    "repr": "06",
    "spoken": "six",
    "value": 6
  },
  "flight_rules": "MVFR",
  "meta": {
    "cache-timestamp": "2024-02-28T10:40:05.671000Z",
    "stations_updated": "2024-01-01",
    "timestamp": "2024-02-28T10:40:39.683110Z"
  },
  "other": [],
  "pressure_altitude": 231,
  "raw": "KORS 281015Z AUTO 17008G13KT 7SM -RA OVC012 07/06 A2972 RMK AO2",
  "relative_humidity": 0.9334736015813517,
  "remarks": "RMK AO2",
  "remarks_info": {
    "codes": [
      {
        "repr": "AO2",
        "value": "Automated with precipitation sensor"
      }
    ],
    "dewpoint_decimal": null,
    "maximum_temperature_24": null,
    "maximum_temperature_6": null,
    "minimum_temperature_24": null,
    "minimum_temperature_6": null,
    "precip_24_hours": null,
    "precip_36_hours": null,
    "precip_hourly": null,
    "pressure_tendency": null,
    "sea_level_pressure": null,
    "snow_depth": null,
    "sunshine_minutes": null,
    "temperature_decimal": null
  },
  "runway_visibility": [],
  "sanitized": "KORS 281015Z 17008G13KT 7SM -RA OVC012 07/06 A2972 RMK AO2",
  "station": "KORS",
  "temperature": {
    "repr": "07",
    "spoken": "seven",
    "value": 7
  },
  "time": {
    "dt": "2024-02-28T10:15:00Z",
    "repr": "281015Z"
  },
  "units": {
    "accumulation": "in",
    "altimeter": "inHg",
    "altitude": "ft",
    "temperature": "C",
    "visibility": "sm",
    "wind_speed": "kt"
  },
  "visibility": {
    "repr": "7",
    "spoken": "seven",
    "value": 7
  },
  "wind_direction": {
    "repr": "170",
    "spoken": "one seven zero",
    "value": 170
  },
  "wind_gust": {
    "repr": "13",
    "spoken": "one three",
    "value": 13
  },
  "wind_speed": {
    "repr": "08",
    "spoken": "eight",
    "value": 8
  },
  "wind_variable_direction": [],
  "wx_codes": [
    {
      "repr": "-RA",
      "value": "Light Rain"
    }
  ]
}
