{
  "meta": {
    "timestamp": "2022-12-22T16:36:27.662953Z",
    "stations_updated": "2022-09-05"
  },
  "altimeter": {
    "repr": "A3049",
    "value": 30.49,
    "spoken": "three zero point four nine"
  },
  "clouds": [],
  "flight_rules": "VFR",
  "other": [],
  "visibility": {
    "repr": "10",
    "value": 10,
    "spoken": "one zero"
  },
  "wind_direction": {
    "repr": "060",
    "value": 60,
    "spoken": "zero six zero"
  },
  "wind_gust": {
    "repr": "14",
    "value": 14,
    "spoken": "one four"
  },
  "wind_speed": {
    "repr": "08",
    "value": 8,
    "spoken": "eight"
  },
  "wx_codes": [],
  "raw": "KORS 221635Z AUTO 06008G14KT 030V120 10SM CLR M08/M15 A3049 RMK AO2",
  "sanitized": "KORS 221635Z 06008G14KT 030V120 10SM M08/M15 A3049 RMK AO2",
  "station": "KORS",
  "time": {
    "repr": "221635Z",
    "dt": "2022-12-22T16:35:00Z"
  },
  "remarks": "RMK AO2",
  "dewpoint": {
    "repr": "M15",
    "value": -15,
    "spoken": "minus one five"
  },
  "relative_humidity": 0.5713796184864672,
  "remarks_info": {
    "maximum_temperature_6": null,
    "minimum_temperature_6": null,
    "pressure_tendency": null,
    "precip_36_hours": null,
    "precip_24_hours": null,
    "sunshine_minutes": null,
    "codes": [
      {
        "repr": "AO2",
        "value": "Automated with precipitation sensor"
      }
    ],
    "dewpoint_decimal": null,
    "maximum_temperature_24": null,
    "minimum_temperature_24": null,
    "precip_hourly": null,
    "sea_level_pressure": null,
    "snow_depth": null,
    "temperature_decimal": null
  },
  "runway_visibility": [],
  "temperature": {
    "repr": "M08",
    "value": -8,
    "spoken": "minus eight"
  },
  "wind_variable_direction": [
    {
      "repr": "030",
      "value": 30,
      "spoken": "zero three zero"
    },
    {
      "repr": "120",
      "value": 120,
      "spoken": "one two zero"
    }
  ],
  "density_altitude": -3292,
  "pressure_altitude": -539,
  "units": {
    "accumulation": "in",
    "altimeter": "inHg",
    "altitude": "ft",
    "temperature": "C",
    "visibility": "sm",
    "wind_speed": "kt"
  }
}
