{
  "meta": {
    "timestamp": "2023-03-31T23:22:29.834168Z",
    "stations_updated": "2023-03-11",
    "cache-timestamp": "2023-03-31T23:22:05.934000Z"
  },
  "altimeter": {
    "repr": "A2983",
    "value": 29.83,
    "spoken": "two nine point eight three"
  },
  "clouds": [
    {
      "repr": "BKN023",
      "type": "BKN",
      "altitude": 23,
      "modifier": null
    },
    {
      "repr": "BKN028",
      "type": "BKN",
      "altitude": 28,
      "modifier": null
    },
    {
      "repr": "OVC033",
      "type": "OVC",
      "altitude": 33,
      "modifier": null
    }
  ],
  "flight_rules": "MVFR",
  "other": [],
  "visibility": {
    "repr": "10",
    "value": 10,
    "spoken": "one zero"
  },
  "wind_direction": {
    "repr": "170",
    "value": 170,
    "spoken": "one seven zero"
  },
  "wind_gust": null,
  "wind_speed": {
    "repr": "11",
    "value": 11,
    "spoken": "one one"
  },
  "wx_codes": [],
  "raw": "KORS 312255Z AUTO 17011KT 10SM BKN023 BKN028 OVC033 08/05 A2983 RMK AO2",
  "sanitized": "KORS 312255Z 17011KT 10SM BKN023 BKN028 OVC033 08/05 A2983 RMK AO2",
  "station": "KORS",
  "time": {
    "repr": "312255Z",
    "dt": "2023-03-31T22:55:00Z"
  },
  "remarks": "RMK AO2",
  "dewpoint": {
    "repr": "05",
    "value": 5,
    "spoken": "five"
  },
  "relative_humidity": 0.8133982839480661,
  "remarks_info": {
    "maximum_temperature_6": null,
    "minimum_temperature_6": null,
    "pressure_tendency": null,
    "precip_36_hours": null,
    "precip_24_hours": null,
    "sunshine_minutes": null,
    "codes": [
      {
        "repr": "AO2",
        "value": "Automated with precipitation sensor"
      }
    ],
    "dewpoint_decimal": null,
    "maximum_temperature_24": null,
    "minimum_temperature_24": null,
    "precip_hourly": null,
    "sea_level_pressure": null,
    "snow_depth": null,
    "temperature_decimal": null
  },
  "runway_visibility": [],
  "temperature": {
    "repr": "08",
    "value": 8,
    "spoken": "eight"
  },
  "wind_variable_direction": [],
  "density_altitude": -712,
  "pressure_altitude": 121,
  "units": {
    "accumulation": "in",
    "altimeter": "inHg",
    "altitude": "ft",
    "temperature": "C",
    "visibility": "sm",
    "wind_speed": "kt"
  }
}
