{
  "meta": {
    "timestamp": "2023-03-23T19:20:49.419278Z",
    "stations_updated": "2023-03-11",
    "cache-timestamp": "2023-03-23T19:20:05.608000Z"
  },
  "altimeter": {
    "repr": "A2985",
    "value": 29.85,
    "spoken": "two nine point eight five"
  },
  "clouds": [
    {
      "repr": "BKN024",
      "type": "BKN",
      "altitude": 24,
      "modifier": null
    },
    {
      "repr": "OVC028",
      "type": "OVC",
      "altitude": 28,
      "modifier": null
    }
  ],
  "flight_rules": "MVFR",
  "other": [],
  "visibility": {
    "repr": "9",
    "value": 9,
    "spoken": "nine"
  },
  "wind_direction": {
    "repr": "150",
    "value": 150,
    "spoken": "one five zero"
  },
  "wind_gust": {
    "repr": "13",
    "value": 13,
    "spoken": "one three"
  },
  "wind_speed": {
    "repr": "08",
    "value": 8,
    "spoken": "eight"
  },
  "wx_codes": [],
  "raw": "KORS 231855Z AUTO 15008G13KT 120V180 9SM BKN024 OVC028 09/04 A2985 RMK AO2",
  "sanitized": "KORS 231855Z 15008G13KT 120V180 9SM BKN024 OVC028 09/04 A2985 RMK AO2",
  "station": "KORS",
  "time": {
    "repr": "231855Z",
    "dt": "2023-03-23T18:55:00Z"
  },
  "remarks": "RMK AO2",
  "dewpoint": {
    "repr": "04",
    "value": 4,
    "spoken": "four"
  },
  "relative_humidity": 0.7087545355451176,
  "remarks_info": {
    "maximum_temperature_6": null,
    "minimum_temperature_6": null,
    "pressure_tendency": null,
    "precip_36_hours": null,
    "precip_24_hours": null,
    "sunshine_minutes": null,
    "codes": [
      {
        "repr": "AO2",
        "value": "Automated with precipitation sensor"
      }
    ],
    "dewpoint_decimal": null,
    "maximum_temperature_24": null,
    "minimum_temperature_24": null,
    "precip_hourly": null,
    "sea_level_pressure": null,
    "snow_depth": null,
    "temperature_decimal": null
  },
  "runway_visibility": [],
  "temperature": {
    "repr": "09",
    "value": 9,
    "spoken": "nine"
  },
  "wind_variable_direction": [
    {
      "repr": "120",
      "value": 120,
      "spoken": "one two zero"
    },
    {
      "repr": "180",
      "value": 180,
      "spoken": "one eight zero"
    }
  ],
  "density_altitude": -612,
  "pressure_altitude": 101,
  "units": {
    "accumulation": "in",
    "altimeter": "inHg",
    "altitude": "ft",
    "temperature": "C",
    "visibility": "sm",
    "wind_speed": "kt"
  }
}
