{
  "meta": {
    "timestamp": "2022-12-28T02:51:00.963793Z",
    "stations_updated": "2022-09-05"
  },
  "altimeter": {
    "repr": "A2915",
    "value": 29.15,
    "spoken": "two nine point one five"
  },
  "clouds": [
    {
      "repr": "OVC009",
      "type": "OVC",
      "altitude": 9,
      "modifier": null
    }
  ],
  "flight_rules": "IFR",
  "other": [],
  "visibility": {
    "repr": "8",
    "value": 8,
    "spoken": "eight"
  },
  "wind_direction": {
    "repr": "320",
    "value": 320,
    "spoken": "three two zero"
  },
  "wind_gust": {
    "repr": "16",
    "value": 16,
    "spoken": "one six"
  },
  "wind_speed": {
    "repr": "10",
    "value": 10,
    "spoken": "one zero"
  },
  "wx_codes": [
    {
      "repr": "-RA",
      "value": "Light Rain"
    }
  ],
  "raw": "KORS 280235Z AUTO 32010G16KT 280V350 8SM -RA OVC009 08/08 A2915 RMK AO2",
  "sanitized": "KORS 280235Z 32010G16KT 280V350 8SM -RA OVC009 08/08 A2915 RMK AO2",
  "station": "KORS",
  "time": {
    "repr": "280235Z",
    "dt": "2022-12-28T02:35:00Z"
  },
  "remarks": "RMK AO2",
  "dewpoint": {
    "repr": "08",
    "value": 8,
    "spoken": "eight"
  },
  "relative_humidity": 1,
  "remarks_info": {
    "maximum_temperature_6": null,
    "minimum_temperature_6": null,
    "pressure_tendency": null,
    "precip_36_hours": null,
    "precip_24_hours": null,
    "sunshine_minutes": null,
    "codes": [
      {
        "repr": "AO2",
        "value": "Automated with precipitation sensor"
      }
    ],
    "dewpoint_decimal": null,
    "maximum_temperature_24": null,
    "minimum_temperature_24": null,
    "precip_hourly": null,
    "sea_level_pressure": null,
    "snow_depth": null,
    "temperature_decimal": null
  },
  "runway_visibility": [],
  "temperature": {
    "repr": "08",
    "value": 8,
    "spoken": "eight"
  },
  "wind_variable_direction": [
    {
      "repr": "280",
      "value": 280,
      "spoken": "two eight zero"
    },
    {
      "repr": "350",
      "value": 350,
      "spoken": "three five zero"
    }
  ],
  "density_altitude": -32,
  "pressure_altitude": 801,
  "units": {
    "accumulation": "in",
    "altimeter": "inHg",
    "altitude": "ft",
    "temperature": "C",
    "visibility": "sm",
    "wind_speed": "kt"
  }
}
