{
  "meta": {
    "timestamp": "2022-12-21T19:20:50.058484Z",
    "stations_updated": "2022-09-05"
  },
  "altimeter": {
    "repr": "A3059",
    "value": 30.59,
    "spoken": "three zero point five nine"
  },
  "clouds": [],
  "flight_rules": "IFR",
  "other": [],
  "visibility": {
    "repr": "2",
    "value": 2,
    "spoken": "two"
  },
  "wind_direction": {
    "repr": "040",
    "value": 40,
    "spoken": "zero four zero"
  },
  "wind_gust": {
    "repr": "27",
    "value": 27,
    "spoken": "two seven"
  },
  "wind_speed": {
    "repr": "16",
    "value": 16,
    "spoken": "one six"
  },
  "wx_codes": [
    {
      "repr": "-SN",
      "value": "Light Snow"
    },
    {
      "repr": "HZ",
      "value": "Haze"
    }
  ],
  "raw": "KORS 211915Z AUTO 04016G27KT 010V070 2SM -SN HZ CLR M08/M17 A3059 RMK AO2 VIS 1 1/2V4",
  "sanitized": "KORS 211915Z 04016G27KT 010V070 2SM -SN HZ M08/M17 A3059 RMK AO2 VIS 1 1/2V4",
  "station": "KORS",
  "time": {
    "repr": "211915Z",
    "dt": "2022-12-21T19:15:00Z"
  },
  "remarks": "RMK AO2 VIS 1 1/2V4",
  "dewpoint": {
    "repr": "M17",
    "value": -17,
    "spoken": "minus one seven"
  },
  "relative_humidity": 0.4838548139261432,
  "remarks_info": {
    "maximum_temperature_6": null,
    "minimum_temperature_6": null,
    "pressure_tendency": null,
    "precip_36_hours": null,
    "precip_24_hours": null,
    "sunshine_minutes": null,
    "codes": [
      {
        "repr": "AO2",
        "value": "Automated with precipitation sensor"
      }
    ],
    "dewpoint_decimal": null,
    "maximum_temperature_24": null,
    "minimum_temperature_24": null,
    "precip_hourly": null,
    "sea_level_pressure": null,
    "snow_depth": null,
    "temperature_decimal": null
  },
  "runway_visibility": [],
  "temperature": {
    "repr": "M08",
    "value": -8,
    "spoken": "minus eight"
  },
  "wind_variable_direction": [
    {
      "repr": "010",
      "value": 10,
      "spoken": "zero one zero"
    },
    {
      "repr": "070",
      "value": 70,
      "spoken": "zero seven zero"
    }
  ],
  "density_altitude": -3392,
  "pressure_altitude": -639,
  "units": {
    "accumulation": "in",
    "altimeter": "inHg",
    "altitude": "ft",
    "temperature": "C",
    "visibility": "sm",
    "wind_speed": "kt"
  }
}
