{
  "meta": {
    "timestamp": "2023-01-07T14:24:11.183622Z",
    "stations_updated": "2022-12-27",
    "cache-timestamp": "2023-01-07T14:24:07.134000Z"
  },
  "altimeter": {
    "repr": "A2986",
    "value": 29.86,
    "spoken": "two nine point eight six"
  },
  "clouds": [],
  "flight_rules": "VFR",
  "other": [],
  "visibility": {
    "repr": "10",
    "value": 10,
    "spoken": "one zero"
  },
  "wind_direction": {
    "repr": "170",
    "value": 170,
    "spoken": "one seven zero"
  },
  "wind_gust": {
    "repr": "19",
    "value": 19,
    "spoken": "one nine"
  },
  "wind_speed": {
    "repr": "11",
    "value": 11,
    "spoken": "one one"
  },
  "wx_codes": [],
  "raw": "KORS 071415Z AUTO 17011G19KT 140V210 10SM CLR 11/05 A2986 RMK AO2",
  "sanitized": "KORS 071415Z 17011G19KT 140V210 10SM 11/05 A2986 RMK AO2",
  "station": "KORS",
  "time": {
    "repr": "071415Z",
    "dt": "2023-01-07T14:15:00Z"
  },
  "remarks": "RMK AO2",
  "dewpoint": {
    "repr": "05",
    "value": 5,
    "spoken": "five"
  },
  "relative_humidity": 0.6648461554789835,
  "remarks_info": {
    "maximum_temperature_6": null,
    "minimum_temperature_6": null,
    "pressure_tendency": null,
    "precip_36_hours": null,
    "precip_24_hours": null,
    "sunshine_minutes": null,
    "codes": [
      {
        "repr": "AO2",
        "value": "Automated with precipitation sensor"
      }
    ],
    "dewpoint_decimal": null,
    "maximum_temperature_24": null,
    "minimum_temperature_24": null,
    "precip_hourly": null,
    "sea_level_pressure": null,
    "snow_depth": null,
    "temperature_decimal": null
  },
  "runway_visibility": [],
  "temperature": {
    "repr": "11",
    "value": 11,
    "spoken": "one one"
  },
  "wind_variable_direction": [
    {
      "repr": "140",
      "value": 140,
      "spoken": "one four zero"
    },
    {
      "repr": "210",
      "value": 210,
      "spoken": "two one zero"
    }
  ],
  "density_altitude": -382,
  "pressure_altitude": 91,
  "units": {
    "accumulation": "in",
    "altimeter": "inHg",
    "altitude": "ft",
    "temperature": "C",
    "visibility": "sm",
    "wind_speed": "kt"
  }
}
