{
  "altimeter": {
    "repr": "A3008",
    "spoken": "three zero point zero eight",
    "value": 30.08
  },
  "clouds": [
    {
      "altitude": 50,
      "modifier": null,
      "repr": "BKN050",
      "type": "BKN"
    },
    {
      "altitude": 60,
      "modifier": null,
      "repr": "OVC060",
      "type": "OVC"
    }
  ],
  "density_altitude": -2882,
  "dewpoint": {
    "repr": "M20",
    "spoken": "minus two zero",
    "value": -20
  },
  "flight_rules": "VFR",
  "meta": {
    "cache-timestamp": "2024-01-12T07:22:05.191000Z",
    "stations_updated": "2023-10-28",
    "timestamp": "2024-01-12T07:22:20.448533Z"
  },
  "other": [],
  "pressure_altitude": -129,
  "raw": "KORS 120655Z AUTO 03011G22KT 360V070 10SM BKN050 OVC060 M08/M20 A3008 RMK AO2",
  "relative_humidity": 0.3749534940304217,
  "remarks": "RMK AO2",
  "remarks_info": {
    "codes": [
      {
        "repr": "AO2",
        "value": "Automated with precipitation sensor"
      }
    ],
    "dewpoint_decimal": null,
    "maximum_temperature_24": null,
    "maximum_temperature_6": null,
    "minimum_temperature_24": null,
    "minimum_temperature_6": null,
    "precip_24_hours": null,
    "precip_36_hours": null,
    "precip_hourly": null,
    "pressure_tendency": null,
    "sea_level_pressure": null,
    "snow_depth": null,
    "sunshine_minutes": null,
    "temperature_decimal": null
  },
  "runway_visibility": [],
  "sanitized": "KORS 120655Z 03011G22KT 360V070 10SM BKN050 OVC060 M08/M20 A3008 RMK AO2",
  "station": "KORS",
  "temperature": {
    "repr": "M08",
    "spoken": "minus eight",
    "value": -8
  },
  "time": {
    "dt": "2024-01-12T06:55:00Z",
    "repr": "120655Z"
  },
  "units": {
    "accumulation": "in",
    "altimeter": "inHg",
    "altitude": "ft",
    "temperature": "C",
    "visibility": "sm",
    "wind_speed": "kt"
  },
  "visibility": {
    "repr": "10",
    "spoken": "one zero",
    "value": 10
  },
  "wind_direction": {
    "repr": "030",
    "spoken": "zero three zero",
    "value": 30
  },
  "wind_gust": {
    "repr": "22",
    "spoken": "two two",
    "value": 22
  },
  "wind_speed": {
    "repr": "11",
    "spoken": "one one",
    "value": 11
  },
  "wind_variable_direction": [
    {
      "repr": "360",
      "spoken": "three six zero",
      "value": 360
    },
    {
      "repr": "070",
      "spoken": "zero seven zero",
      "value": 70
    }
  ],
  "wx_codes": []
}
