{
  "altimeter": {
    "repr": "A2978",
    "spoken": "two nine point seven eight",
    "value": 29.78
  },
  "clouds": [],
  "density_altitude": 658,
  "dewpoint": {
    "repr": "18",
    "spoken": "one eight",
    "value": 18
  },
  "flight_rules": "VFR",
  "meta": {
    "stations_updated": "2024-06-12",
    "timestamp": "2024-09-24T21:26:36.179216Z"
  },
  "other": [],
  "pressure_altitude": 171,
  "raw": "KORS 242115Z AUTO 33006KT 10SM CLR 19/18 A2978 RMK AO2",
  "relative_humidity": 0.9392432345425344,
  "remarks": "RMK AO2",
  "remarks_info": {
    "codes": [
      {
        "repr": "AO2",
        "value": "Automated with precipitation sensor"
      }
    ],
    "dewpoint_decimal": null,
    "maximum_temperature_24": null,
    "maximum_temperature_6": null,
    "minimum_temperature_24": null,
    "minimum_temperature_6": null,
    "precip_24_hours": null,
    "precip_36_hours": null,
    "precip_hourly": null,
    "pressure_tendency": null,
    "sea_level_pressure": null,
    "snow_depth": null,
    "sunshine_minutes": null,
    "temperature_decimal": null
  },
  "runway_visibility": [],
  "sanitized": "KORS 242115Z 33006KT 10SM 19/18 A2978 RMK AO2",
  "station": "KORS",
  "temperature": {
    "repr": "19",
    "spoken": "one nine",
    "value": 19
  },
  "time": {
    "dt": "2024-09-24T21:15:00Z",
    "repr": "242115Z"
  },
  "units": {
    "accumulation": "in",
    "altimeter": "inHg",
    "altitude": "ft",
    "temperature": "C",
    "visibility": "sm",
    "wind_speed": "kt"
  },
  "visibility": {
    "repr": "10",
    "spoken": "one zero",
    "value": 10
  },
  "wind_direction": {
    "repr": "330",
    "spoken": "three three zero",
    "value": 330
  },
  "wind_gust": null,
  "wind_speed": {
    "repr": "06",
    "spoken": "six",
    "value": 6
  },
  "wind_variable_direction": [],
  "wx_codes": []
}
