{
  "meta": {
    "timestamp": "2022-12-10T02:47:24.098011Z",
    "stations_updated": "2022-09-05"
  },
  "altimeter": {
    "repr": "A2946",
    "value": 29.46,
    "spoken": "two nine point four six"
  },
  "clouds": [
    {
      "repr": "OVC025",
      "type": "OVC",
      "altitude": 25,
      "modifier": null
    }
  ],
  "flight_rules": "MVFR",
  "other": [],
  "visibility": {
    "repr": "4",
    "value": 4,
    "spoken": "four"
  },
  "wind_direction": {
    "repr": "120",
    "value": 120,
    "spoken": "one two zero"
  },
  "wind_gust": {
    "repr": "16",
    "value": 16,
    "spoken": "one six"
  },
  "wind_speed": {
    "repr": "07",
    "value": 7,
    "spoken": "seven"
  },
  "wx_codes": [
    {
      "repr": "-RA",
      "value": "Light Rain"
    },
    {
      "repr": "HZ",
      "value": "Haze"
    }
  ],
  "raw": "KORS 100235Z AUTO 12007G16KT 040V150 4SM -RA HZ OVC025 05/03 A2946 RMK AO2",
  "sanitized": "KORS 100235Z 12007G16KT 040V150 4SM -RA HZ OVC025 05/03 A2946 RMK AO2",
  "station": "KORS",
  "time": {
    "repr": "100235Z",
    "dt": "2022-12-10T02:35:00Z"
  },
  "remarks": "RMK AO2",
  "dewpoint": {
    "repr": "03",
    "value": 3,
    "spoken": "three"
  },
  "relative_humidity": 0.8689388805658268,
  "remarks_info": {
    "maximum_temperature_6": null,
    "minimum_temperature_6": null,
    "pressure_tendency": null,
    "precip_36_hours": null,
    "precip_24_hours": null,
    "sunshine_minutes": null,
    "codes": [
      {
        "repr": "AO2",
        "value": "Automated with precipitation sensor"
      }
    ],
    "dewpoint_decimal": null,
    "maximum_temperature_24": null,
    "minimum_temperature_24": null,
    "precip_hourly": null,
    "sea_level_pressure": null,
    "snow_depth": null,
    "temperature_decimal": null
  },
  "runway_visibility": [],
  "temperature": {
    "repr": "05",
    "value": 5,
    "spoken": "five"
  },
  "wind_variable_direction": [
    {
      "repr": "040",
      "value": 40,
      "spoken": "zero four zero"
    },
    {
      "repr": "150",
      "value": 150,
      "spoken": "one five zero"
    }
  ],
  "density_altitude": -702,
  "pressure_altitude": 491,
  "units": {
    "accumulation": "in",
    "altimeter": "inHg",
    "altitude": "ft",
    "temperature": "C",
    "visibility": "sm",
    "wind_speed": "kt"
  }
}
