{
  "meta": {
    "timestamp": "2022-11-28T19:01:04.927391Z",
    "stations_updated": "2022-09-05"
  },
  "altimeter": {
    "repr": "A2994",
    "value": 29.94,
    "spoken": "two nine point nine four"
  },
  "clouds": [
    {
      "repr": "FEW055",
      "type": "FEW",
      "altitude": 55,
      "modifier": null
    },
    {
      "repr": "BKN065",
      "type": "BKN",
      "altitude": 65,
      "modifier": null
    }
  ],
  "flight_rules": "VFR",
  "other": [],
  "visibility": {
    "repr": "10",
    "value": 10,
    "spoken": "one zero"
  },
  "wind_direction": {
    "repr": "030",
    "value": 30,
    "spoken": "zero three zero"
  },
  "wind_gust": {
    "repr": "14",
    "value": 14,
    "spoken": "one four"
  },
  "wind_speed": {
    "repr": "08",
    "value": 8,
    "spoken": "eight"
  },
  "wx_codes": [],
  "raw": "KORS 281855Z AUTO 03008G14KT 350V070 10SM FEW055 BKN065 03/M09 A2994 RMK AO2",
  "sanitized": "KORS 281855Z 03008G14KT 350V070 10SM FEW055 BKN065 03/M09 A2994 RMK AO2",
  "station": "KORS",
  "time": {
    "repr": "281855Z",
    "dt": "2022-11-28T18:55:00Z"
  },
  "remarks": "RMK AO2",
  "dewpoint": {
    "repr": "M09",
    "value": -9,
    "spoken": "minus nine"
  },
  "relative_humidity": 0.40933678718115113,
  "remarks_info": {
    "maximum_temperature_6": null,
    "minimum_temperature_6": null,
    "pressure_tendency": null,
    "precip_36_hours": null,
    "precip_24_hours": null,
    "sunshine_minutes": null,
    "codes": [
      {
        "repr": "AO2",
        "value": "Automated with precipitation sensor"
      }
    ],
    "dewpoint_decimal": null,
    "maximum_temperature_24": null,
    "minimum_temperature_24": null,
    "precip_hourly": null,
    "sea_level_pressure": null,
    "snow_depth": null,
    "temperature_decimal": null
  },
  "runway_visibility": [],
  "temperature": {
    "repr": "03",
    "value": 3,
    "spoken": "three"
  },
  "wind_variable_direction": [
    {
      "repr": "350",
      "value": 350,
      "spoken": "three five zero"
    },
    {
      "repr": "070",
      "value": 70,
      "spoken": "zero seven zero"
    }
  ],
  "density_altitude": -1422,
  "pressure_altitude": 11,
  "units": {
    "accumulation": "in",
    "altimeter": "inHg",
    "altitude": "ft",
    "temperature": "C",
    "visibility": "sm",
    "wind_speed": "kt"
  }
}
