{
  "altimeter": {
    "repr": "A2966",
    "spoken": "two nine point six six",
    "value": 29.66
  },
  "clouds": [
    {
      "altitude": 29,
      "modifier": null,
      "repr": "FEW029",
      "type": "FEW"
    },
    {
      "altitude": 75,
      "modifier": null,
      "repr": "FEW075",
      "type": "FEW"
    }
  ],
  "density_altitude": 538,
  "dewpoint": {
    "repr": "M39",
    "spoken": "minus three nine",
    "value": -39
  },
  "flight_rules": "VFR",
  "meta": {
    "stations_updated": "2023-10-28",
    "timestamp": "2023-11-04T20:21:55.364733Z"
  },
  "other": [],
  "pressure_altitude": 291,
  "raw": "KORS 042015Z AUTO 18005KT 10SM FEW029 FEW075 17/M39 A2966 RMK AO2",
  "relative_humidity": 0.01085686750228783,
  "remarks": "RMK AO2",
  "remarks_info": {
    "codes": [
      {
        "repr": "AO2",
        "value": "Automated with precipitation sensor"
      }
    ],
    "dewpoint_decimal": null,
    "maximum_temperature_24": null,
    "maximum_temperature_6": null,
    "minimum_temperature_24": null,
    "minimum_temperature_6": null,
    "precip_24_hours": null,
    "precip_36_hours": null,
    "precip_hourly": null,
    "pressure_tendency": null,
    "sea_level_pressure": null,
    "snow_depth": null,
    "sunshine_minutes": null,
    "temperature_decimal": null
  },
  "runway_visibility": [],
  "sanitized": "KORS 042015Z 18005KT 10SM FEW029 FEW075 17/M39 A2966 RMK AO2",
  "station": "KORS",
  "temperature": {
    "repr": "17",
    "spoken": "one seven",
    "value": 17
  },
  "time": {
    "dt": "2023-11-04T20:15:00Z",
    "repr": "042015Z"
  },
  "units": {
    "accumulation": "in",
    "altimeter": "inHg",
    "altitude": "ft",
    "temperature": "C",
    "visibility": "sm",
    "wind_speed": "kt"
  },
  "visibility": {
    "repr": "10",
    "spoken": "one zero",
    "value": 10
  },
  "wind_direction": {
    "repr": "180",
    "spoken": "one eight zero",
    "value": 180
  },
  "wind_gust": null,
  "wind_speed": {
    "repr": "05",
    "spoken": "five",
    "value": 5
  },
  "wind_variable_direction": [],
  "wx_codes": []
}
