{
  "meta": {
    "timestamp": "2023-01-09T20:28:32.340776Z",
    "stations_updated": "2022-12-27",
    "cache-timestamp": "2023-01-09T20:28:06.939000Z"
  },
  "altimeter": {
    "repr": "A2938",
    "value": 29.38,
    "spoken": "two nine point three eight"
  },
  "clouds": [
    {
      "repr": "FEW055",
      "type": "FEW",
      "altitude": 55,
      "modifier": null
    },
    {
      "repr": "BKN065",
      "type": "BKN",
      "altitude": 65,
      "modifier": null
    },
    {
      "repr": "BKN095",
      "type": "BKN",
      "altitude": 95,
      "modifier": null
    }
  ],
  "flight_rules": "VFR",
  "other": [],
  "visibility": {
    "repr": "10",
    "value": 10,
    "spoken": "one zero"
  },
  "wind_direction": {
    "repr": "130",
    "value": 130,
    "spoken": "one three zero"
  },
  "wind_gust": {
    "repr": "17",
    "value": 17,
    "spoken": "one seven"
  },
  "wind_speed": {
    "repr": "11",
    "value": 11,
    "spoken": "one one"
  },
  "wx_codes": [],
  "raw": "KORS 092015Z AUTO 13011G17KT 10SM FEW055 BKN065 BKN095 12/03 A2938 RMK AO2",
  "sanitized": "KORS 092015Z 13011G17KT 10SM FEW055 BKN065 BKN095 12/03 A2938 RMK AO2",
  "station": "KORS",
  "time": {
    "repr": "092015Z",
    "dt": "2023-01-09T20:15:00Z"
  },
  "remarks": "RMK AO2",
  "dewpoint": {
    "repr": "03",
    "value": 3,
    "spoken": "three"
  },
  "relative_humidity": 0.5407212174255875,
  "remarks_info": {
    "maximum_temperature_6": null,
    "minimum_temperature_6": null,
    "pressure_tendency": null,
    "precip_36_hours": null,
    "precip_24_hours": null,
    "sunshine_minutes": null,
    "codes": [
      {
        "repr": "AO2",
        "value": "Automated with precipitation sensor"
      }
    ],
    "dewpoint_decimal": null,
    "maximum_temperature_24": null,
    "minimum_temperature_24": null,
    "precip_hourly": null,
    "sea_level_pressure": null,
    "snow_depth": null,
    "temperature_decimal": null
  },
  "runway_visibility": [],
  "temperature": {
    "repr": "12",
    "value": 12,
    "spoken": "one two"
  },
  "wind_variable_direction": [],
  "density_altitude": 218,
  "pressure_altitude": 571,
  "units": {
    "accumulation": "in",
    "altimeter": "inHg",
    "altitude": "ft",
    "temperature": "C",
    "visibility": "sm",
    "wind_speed": "kt"
  }
}
