{
  "meta": {
    "timestamp": "2023-01-05T06:03:31.404524Z",
    "stations_updated": "2022-12-27"
  },
  "altimeter": {
    "repr": "A2956",
    "value": 29.56,
    "spoken": "two nine point five six"
  },
  "clouds": [
    {
      "repr": "OVC060",
      "type": "OVC",
      "altitude": 60,
      "modifier": null
    }
  ],
  "flight_rules": "VFR",
  "other": [],
  "visibility": {
    "repr": "10",
    "value": 10,
    "spoken": "one zero"
  },
  "wind_direction": {
    "repr": "VRB",
    "value": null,
    "spoken": "variable"
  },
  "wind_gust": null,
  "wind_speed": {
    "repr": "06",
    "value": 6,
    "spoken": "six"
  },
  "wx_codes": [
    {
      "repr": "-RA",
      "value": "Light Rain"
    }
  ],
  "raw": "KORS 050555Z AUTO VRB06KT 360V090 10SM -RA OVC060 09/M00 A2956 RMK AO2",
  "sanitized": "KORS 050555Z VRB06KT 360V090 10SM -RA OVC060 09/M00 A2956 RMK AO2",
  "station": "KORS",
  "time": {
    "repr": "050555Z",
    "dt": "2023-01-05T05:55:00Z"
  },
  "remarks": "RMK AO2",
  "dewpoint": {
    "repr": "M00",
    "value": 0,
    "spoken": "zero"
  },
  "relative_humidity": 0.5326867268160558,
  "remarks_info": {
    "maximum_temperature_6": null,
    "minimum_temperature_6": null,
    "pressure_tendency": null,
    "precip_36_hours": null,
    "precip_24_hours": null,
    "sunshine_minutes": null,
    "codes": [
      {
        "repr": "AO2",
        "value": "Automated with precipitation sensor"
      }
    ],
    "dewpoint_decimal": null,
    "maximum_temperature_24": null,
    "minimum_temperature_24": null,
    "precip_hourly": null,
    "sea_level_pressure": null,
    "snow_depth": null,
    "temperature_decimal": null
  },
  "runway_visibility": [],
  "temperature": {
    "repr": "09",
    "value": 9,
    "spoken": "nine"
  },
  "wind_variable_direction": [
    {
      "repr": "360",
      "value": 360,
      "spoken": "three six zero"
    },
    {
      "repr": "090",
      "value": 90,
      "spoken": "zero nine zero"
    }
  ],
  "density_altitude": -322,
  "pressure_altitude": 391,
  "units": {
    "accumulation": "in",
    "altimeter": "inHg",
    "altitude": "ft",
    "temperature": "C",
    "visibility": "sm",
    "wind_speed": "kt"
  }
}
