{
  "meta": {
    "timestamp": "2022-12-22T13:40:49.584527Z",
    "stations_updated": "2022-09-05"
  },
  "altimeter": {
    "repr": "A3056",
    "value": 30.56,
    "spoken": "three zero point five six"
  },
  "clouds": [],
  "flight_rules": "VFR",
  "other": [],
  "visibility": {
    "repr": "10",
    "value": 10,
    "spoken": "one zero"
  },
  "wind_direction": {
    "repr": "VRB",
    "value": null,
    "spoken": "variable"
  },
  "wind_gust": {
    "repr": "14",
    "value": 14,
    "spoken": "one four"
  },
  "wind_speed": {
    "repr": "06",
    "value": 6,
    "spoken": "six"
  },
  "wx_codes": [],
  "raw": "KORS 221335Z AUTO VRB06G14KT 010V100 10SM CLR M08/M16 A3056 RMK AO2",
  "sanitized": "KORS 221335Z VRB06G14KT 010V100 10SM M08/M16 A3056 RMK AO2",
  "station": "KORS",
  "time": {
    "repr": "221335Z",
    "dt": "2022-12-22T13:35:00Z"
  },
  "remarks": "RMK AO2",
  "dewpoint": {
    "repr": "M16",
    "value": -16,
    "spoken": "minus one six"
  },
  "relative_humidity": 0.5259913571489351,
  "remarks_info": {
    "maximum_temperature_6": null,
    "minimum_temperature_6": null,
    "pressure_tendency": null,
    "precip_36_hours": null,
    "precip_24_hours": null,
    "sunshine_minutes": null,
    "codes": [
      {
        "repr": "AO2",
        "value": "Automated with precipitation sensor"
      }
    ],
    "dewpoint_decimal": null,
    "maximum_temperature_24": null,
    "minimum_temperature_24": null,
    "precip_hourly": null,
    "sea_level_pressure": null,
    "snow_depth": null,
    "temperature_decimal": null
  },
  "runway_visibility": [],
  "temperature": {
    "repr": "M08",
    "value": -8,
    "spoken": "minus eight"
  },
  "wind_variable_direction": [
    {
      "repr": "010",
      "value": 10,
      "spoken": "zero one zero"
    },
    {
      "repr": "100",
      "value": 100,
      "spoken": "one zero zero"
    }
  ],
  "density_altitude": -3362,
  "pressure_altitude": -609,
  "units": {
    "accumulation": "in",
    "altimeter": "inHg",
    "altitude": "ft",
    "temperature": "C",
    "visibility": "sm",
    "wind_speed": "kt"
  }
}
