{
  "altimeter": {
    "repr": "A2951",
    "spoken": "two nine point five one",
    "value": 29.51
  },
  "clouds": [
    {
      "altitude": 26,
      "modifier": null,
      "repr": "FEW026",
      "type": "FEW"
    },
    {
      "altitude": 37,
      "modifier": null,
      "repr": "SCT037",
      "type": "SCT"
    },
    {
      "altitude": 49,
      "modifier": null,
      "repr": "BKN049",
      "type": "BKN"
    }
  ],
  "density_altitude": -152,
  "dewpoint": {
    "repr": "09",
    "spoken": "nine",
    "value": 9
  },
  "flight_rules": "MVFR",
  "meta": {
    "stations_updated": "2024-10-29",
    "timestamp": "2024-11-13T09:41:17.926884Z"
  },
  "other": [],
  "pressure_altitude": 441,
  "raw": "KORS 130935Z AUTO 15014G31KT 120V180 5SM -RA BR FEW026 SCT037 BKN049 10/09 A2951 RMK AO2",
  "relative_humidity": 0.9349898195447824,
  "remarks": "RMK AO2",
  "remarks_info": {
    "codes": [
      {
        "repr": "AO2",
        "value": "Automated with precipitation sensor"
      }
    ],
    "dewpoint_decimal": null,
    "maximum_temperature_24": null,
    "maximum_temperature_6": null,
    "minimum_temperature_24": null,
    "minimum_temperature_6": null,
    "precip_24_hours": null,
    "precip_36_hours": null,
    "precip_hourly": null,
    "pressure_tendency": null,
    "sea_level_pressure": null,
    "snow_depth": null,
    "sunshine_minutes": null,
    "temperature_decimal": null
  },
  "runway_visibility": [],
  "sanitized": "KORS 130935Z 15014G31KT 120V180 5SM -RA BR FEW026 SCT037 BKN049 10/09 A2951 RMK AO2",
  "station": "KORS",
  "temperature": {
    "repr": "10",
    "spoken": "one zero",
    "value": 10
  },
  "time": {
    "dt": "2024-11-13T09:35:00Z",
    "repr": "130935Z"
  },
  "units": {
    "accumulation": "in",
    "altimeter": "inHg",
    "altitude": "ft",
    "temperature": "C",
    "visibility": "sm",
    "wind_speed": "kt"
  },
  "visibility": {
    "repr": "5",
    "spoken": "five",
    "value": 5
  },
  "wind_direction": {
    "repr": "150",
    "spoken": "one five zero",
    "value": 150
  },
  "wind_gust": {
    "repr": "31",
    "spoken": "three one",
    "value": 31
  },
  "wind_speed": {
    "repr": "14",
    "spoken": "one four",
    "value": 14
  },
  "wind_variable_direction": [
    {
      "repr": "120",
      "spoken": "one two zero",
      "value": 120
    },
    {
      "repr": "180",
      "spoken": "one eight zero",
      "value": 180
    }
  ],
  "wx_codes": [
    {
      "repr": "-RA",
      "value": "Light Rain"
    },
    {
      "repr": "BR",
      "value": "Mist"
    }
  ]
}
