{
  "altimeter": {
    "repr": "A3010",
    "spoken": "three zero point one zero",
    "value": 30.1
  },
  "clouds": [
    {
      "altitude": 90,
      "modifier": null,
      "repr": "BKN090",
      "type": "BKN"
    }
  ],
  "density_altitude": -142,
  "dewpoint": {
    "repr": "13",
    "spoken": "one three",
    "value": 13
  },
  "flight_rules": "VFR",
  "meta": {
    "stations_updated": "2024-06-12",
    "timestamp": "2024-09-22T19:40:30.178582Z"
  },
  "other": [],
  "pressure_altitude": -149,
  "raw": "KORS 221935Z AUTO 17010G15KT 8SM -RA BKN090 15/13 A3010 RMK AO2",
  "relative_humidity": 0.8782860547432085,
  "remarks": "RMK AO2",
  "remarks_info": {
    "codes": [
      {
        "repr": "AO2",
        "value": "Automated with precipitation sensor"
      }
    ],
    "dewpoint_decimal": null,
    "maximum_temperature_24": null,
    "maximum_temperature_6": null,
    "minimum_temperature_24": null,
    "minimum_temperature_6": null,
    "precip_24_hours": null,
    "precip_36_hours": null,
    "precip_hourly": null,
    "pressure_tendency": null,
    "sea_level_pressure": null,
    "snow_depth": null,
    "sunshine_minutes": null,
    "temperature_decimal": null
  },
  "runway_visibility": [],
  "sanitized": "KORS 221935Z 17010G15KT 8SM -RA BKN090 15/13 A3010 RMK AO2",
  "station": "KORS",
  "temperature": {
    "repr": "15",
    "spoken": "one five",
    "value": 15
  },
  "time": {
    "dt": "2024-09-22T19:35:00Z",
    "repr": "221935Z"
  },
  "units": {
    "accumulation": "in",
    "altimeter": "inHg",
    "altitude": "ft",
    "temperature": "C",
    "visibility": "sm",
    "wind_speed": "kt"
  },
  "visibility": {
    "repr": "8",
    "spoken": "eight",
    "value": 8
  },
  "wind_direction": {
    "repr": "170",
    "spoken": "one seven zero",
    "value": 170
  },
  "wind_gust": {
    "repr": "15",
    "spoken": "one five",
    "value": 15
  },
  "wind_speed": {
    "repr": "10",
    "spoken": "one zero",
    "value": 10
  },
  "wind_variable_direction": [],
  "wx_codes": [
    {
      "repr": "-RA",
      "value": "Light Rain"
    }
  ]
}
