{
  "meta": {
    "timestamp": "2022-12-31T15:01:36.606864Z",
    "stations_updated": "2022-12-27"
  },
  "altimeter": {
    "repr": "A2972",
    "value": 29.72,
    "spoken": "two nine point seven two"
  },
  "clouds": [
    {
      "repr": "FEW016",
      "type": "FEW",
      "altitude": 16,
      "modifier": null
    },
    {
      "repr": "SCT027",
      "type": "SCT",
      "altitude": 27,
      "modifier": null
    },
    {
      "repr": "OVC035",
      "type": "OVC",
      "altitude": 35,
      "modifier": null
    }
  ],
  "flight_rules": "MVFR",
  "other": [],
  "visibility": {
    "repr": "4",
    "value": 4,
    "spoken": "four"
  },
  "wind_direction": {
    "repr": "180",
    "value": 180,
    "spoken": "one eight zero"
  },
  "wind_gust": null,
  "wind_speed": {
    "repr": "11",
    "value": 11,
    "spoken": "one one"
  },
  "wx_codes": [
    {
      "repr": "-RA",
      "value": "Light Rain"
    },
    {
      "repr": "BR",
      "value": "Mist"
    }
  ],
  "raw": "KORS 311455Z AUTO 18011KT 4SM -RA BR FEW016 SCT027 OVC035 08/08 A2972 RMK AO2 P0004",
  "sanitized": "KORS 311455Z 18011KT 4SM -RA BR FEW016 SCT027 OVC035 08/08 A2972 RMK AO2 P0004",
  "station": "KORS",
  "time": {
    "repr": "311455Z",
    "dt": "2022-12-31T14:55:00Z"
  },
  "remarks": "RMK AO2 P0004",
  "dewpoint": {
    "repr": "08",
    "value": 8,
    "spoken": "eight"
  },
  "relative_humidity": 1,
  "remarks_info": {
    "maximum_temperature_6": null,
    "minimum_temperature_6": null,
    "pressure_tendency": null,
    "precip_36_hours": null,
    "precip_24_hours": null,
    "sunshine_minutes": null,
    "codes": [
      {
        "repr": "AO2",
        "value": "Automated with precipitation sensor"
      }
    ],
    "dewpoint_decimal": null,
    "maximum_temperature_24": null,
    "minimum_temperature_24": null,
    "precip_hourly": {
      "repr": "P0004",
      "value": 0.04,
      "spoken": "zero point zero four"
    },
    "sea_level_pressure": null,
    "snow_depth": null,
    "temperature_decimal": null
  },
  "runway_visibility": [],
  "temperature": {
    "repr": "08",
    "value": 8,
    "spoken": "eight"
  },
  "wind_variable_direction": [],
  "density_altitude": -602,
  "pressure_altitude": 231,
  "units": {
    "accumulation": "in",
    "altimeter": "inHg",
    "altitude": "ft",
    "temperature": "C",
    "visibility": "sm",
    "wind_speed": "kt"
  }
}
