{
  "meta": {
    "timestamp": "2023-02-19T12:08:26.574052Z",
    "stations_updated": "2023-01-30",
    "cache-timestamp": "2023-02-19T12:08:04.147000Z"
  },
  "altimeter": {
    "repr": "A3020",
    "value": 30.2,
    "spoken": "three zero point two zero"
  },
  "clouds": [
    {
      "repr": "BKN010",
      "type": "BKN",
      "altitude": 10,
      "modifier": null
    },
    {
      "repr": "BKN014",
      "type": "BKN",
      "altitude": 14,
      "modifier": null
    },
    {
      "repr": "OVC030",
      "type": "OVC",
      "altitude": 30,
      "modifier": null
    }
  ],
  "flight_rules": "MVFR",
  "other": [],
  "visibility": {
    "repr": "9",
    "value": 9,
    "spoken": "nine"
  },
  "wind_direction": {
    "repr": "180",
    "value": 180,
    "spoken": "one eight zero"
  },
  "wind_gust": null,
  "wind_speed": {
    "repr": "06",
    "value": 6,
    "spoken": "six"
  },
  "wx_codes": [],
  "raw": "KORS 191155Z AUTO 18006KT 9SM BKN010 BKN014 OVC030 07/06 A3020 RMK AO2",
  "sanitized": "KORS 191155Z 18006KT 9SM BKN010 BKN014 OVC030 07/06 A3020 RMK AO2",
  "station": "KORS",
  "time": {
    "repr": "191155Z",
    "dt": "2023-02-19T11:55:00Z"
  },
  "remarks": "RMK AO2",
  "dewpoint": {
    "repr": "06",
    "value": 6,
    "spoken": "six"
  },
  "relative_humidity": 0.9334736015813517,
  "remarks_info": {
    "maximum_temperature_6": null,
    "minimum_temperature_6": null,
    "pressure_tendency": null,
    "precip_36_hours": null,
    "precip_24_hours": null,
    "sunshine_minutes": null,
    "codes": [
      {
        "repr": "AO2",
        "value": "Automated with precipitation sensor"
      }
    ],
    "dewpoint_decimal": null,
    "maximum_temperature_24": null,
    "minimum_temperature_24": null,
    "precip_hourly": null,
    "sea_level_pressure": null,
    "snow_depth": null,
    "temperature_decimal": null
  },
  "runway_visibility": [],
  "temperature": {
    "repr": "07",
    "value": 7,
    "spoken": "seven"
  },
  "wind_variable_direction": [],
  "density_altitude": -1202,
  "pressure_altitude": -249,
  "units": {
    "accumulation": "in",
    "altimeter": "inHg",
    "altitude": "ft",
    "temperature": "C",
    "visibility": "sm",
    "wind_speed": "kt"
  }
}
