{
  "meta": {
    "timestamp": "2022-12-19T15:41:31.557849Z",
    "stations_updated": "2022-09-05"
  },
  "altimeter": {
    "repr": "A3030",
    "value": 30.3,
    "spoken": "three zero point three zero"
  },
  "clouds": [
    {
      "repr": "BKN033",
      "type": "BKN",
      "altitude": 33,
      "modifier": null
    },
    {
      "repr": "BKN055",
      "type": "BKN",
      "altitude": 55,
      "modifier": null
    },
    {
      "repr": "OVC065",
      "type": "OVC",
      "altitude": 65,
      "modifier": null
    }
  ],
  "flight_rules": "VFR",
  "other": [],
  "visibility": {
    "repr": "9",
    "value": 9,
    "spoken": "nine"
  },
  "wind_direction": {
    "repr": "050",
    "value": 50,
    "spoken": "zero five zero"
  },
  "wind_gust": {
    "repr": "18",
    "value": 18,
    "spoken": "one eight"
  },
  "wind_speed": {
    "repr": "10",
    "value": 10,
    "spoken": "one zero"
  },
  "wx_codes": [
    {
      "repr": "-SN",
      "value": "Light Snow"
    }
  ],
  "raw": "KORS 191535Z AUTO 05010G18KT 350V090 9SM -SN BKN033 BKN055 OVC065 M07/M10 A3030 RMK AO2",
  "sanitized": "KORS 191535Z 05010G18KT 350V090 9SM -SN BKN033 BKN055 OVC065 M07/M10 A3030 RMK AO2",
  "station": "KORS",
  "time": {
    "repr": "191535Z",
    "dt": "2022-12-19T15:35:00Z"
  },
  "remarks": "RMK AO2",
  "dewpoint": {
    "repr": "M10",
    "value": -10,
    "spoken": "minus one zero"
  },
  "relative_humidity": 0.7915651683127659,
  "remarks_info": {
    "maximum_temperature_6": null,
    "minimum_temperature_6": null,
    "pressure_tendency": null,
    "precip_36_hours": null,
    "precip_24_hours": null,
    "sunshine_minutes": null,
    "codes": [
      {
        "repr": "AO2",
        "value": "Automated with precipitation sensor"
      }
    ],
    "dewpoint_decimal": null,
    "maximum_temperature_24": null,
    "minimum_temperature_24": null,
    "precip_hourly": null,
    "sea_level_pressure": null,
    "snow_depth": null,
    "temperature_decimal": null
  },
  "runway_visibility": [],
  "temperature": {
    "repr": "M07",
    "value": -7,
    "spoken": "minus seven"
  },
  "wind_variable_direction": [
    {
      "repr": "350",
      "value": 350,
      "spoken": "three five zero"
    },
    {
      "repr": "090",
      "value": 90,
      "spoken": "zero nine zero"
    }
  ],
  "density_altitude": -2982,
  "pressure_altitude": -349,
  "units": {
    "accumulation": "in",
    "altimeter": "inHg",
    "altitude": "ft",
    "temperature": "C",
    "visibility": "sm",
    "wind_speed": "kt"
  }
}
