{
  "altimeter": {
    "repr": "A3004",
    "spoken": "three zero point zero four",
    "value": 30.04
  },
  "clouds": [],
  "density_altitude": 38,
  "dewpoint": {
    "repr": "06",
    "spoken": "six",
    "value": 6
  },
  "flight_rules": "VFR",
  "meta": {
    "stations_updated": "2024-05-13",
    "timestamp": "2024-06-15T23:24:01.644476Z"
  },
  "other": [],
  "pressure_altitude": -89,
  "raw": "KORS 152315Z AUTO 26009G14KT 220V290 10SM CLR 16/06 A3004 RMK AO2",
  "relative_humidity": 0.5145050496577519,
  "remarks": "RMK AO2",
  "remarks_info": {
    "codes": [
      {
        "repr": "AO2",
        "value": "Automated with precipitation sensor"
      }
    ],
    "dewpoint_decimal": null,
    "maximum_temperature_24": null,
    "maximum_temperature_6": null,
    "minimum_temperature_24": null,
    "minimum_temperature_6": null,
    "precip_24_hours": null,
    "precip_36_hours": null,
    "precip_hourly": null,
    "pressure_tendency": null,
    "sea_level_pressure": null,
    "snow_depth": null,
    "sunshine_minutes": null,
    "temperature_decimal": null
  },
  "runway_visibility": [],
  "sanitized": "KORS 152315Z 26009G14KT 220V290 10SM 16/06 A3004 RMK AO2",
  "station": "KORS",
  "temperature": {
    "repr": "16",
    "spoken": "one six",
    "value": 16
  },
  "time": {
    "dt": "2024-06-15T23:15:00Z",
    "repr": "152315Z"
  },
  "units": {
    "accumulation": "in",
    "altimeter": "inHg",
    "altitude": "ft",
    "temperature": "C",
    "visibility": "sm",
    "wind_speed": "kt"
  },
  "visibility": {
    "repr": "10",
    "spoken": "one zero",
    "value": 10
  },
  "wind_direction": {
    "repr": "260",
    "spoken": "two six zero",
    "value": 260
  },
  "wind_gust": {
    "repr": "14",
    "spoken": "one four",
    "value": 14
  },
  "wind_speed": {
    "repr": "09",
    "spoken": "nine",
    "value": 9
  },
  "wind_variable_direction": [
    {
      "repr": "220",
      "spoken": "two two zero",
      "value": 220
    },
    {
      "repr": "290",
      "spoken": "two nine zero",
      "value": 290
    }
  ],
  "wx_codes": []
}
