{
  "meta": {
    "timestamp": "2022-11-06T13:19:37.238287Z",
    "stations_updated": "2022-09-05"
  },
  "altimeter": {
    "repr": "A2951",
    "value": 29.51,
    "spoken": "two nine point five one"
  },
  "clouds": [
    {
      "repr": "FEW016",
      "type": "FEW",
      "altitude": 16,
      "modifier": null
    },
    {
      "repr": "OVC024",
      "type": "OVC",
      "altitude": 24,
      "modifier": null
    }
  ],
  "flight_rules": "MVFR",
  "other": [],
  "visibility": {
    "repr": "4",
    "value": 4,
    "spoken": "four"
  },
  "wind_direction": {
    "repr": "160",
    "value": 160,
    "spoken": "one six zero"
  },
  "wind_gust": {
    "repr": "19",
    "value": 19,
    "spoken": "one nine"
  },
  "wind_speed": {
    "repr": "12",
    "value": 12,
    "spoken": "one two"
  },
  "wx_codes": [
    {
      "repr": "UP",
      "value": "Unknown Precip"
    },
    {
      "repr": "BR",
      "value": "Mist"
    }
  ],
  "raw": "KORS 061315Z AUTO 16012G19KT 4SM UP BR FEW016 OVC024 05/04 A2951 RMK AO2",
  "sanitized": "KORS 061315Z 16012G19KT 4SM UP BR FEW016 OVC024 05/04 A2951 RMK AO2",
  "station": "KORS",
  "time": {
    "repr": "061315Z",
    "dt": "2022-11-06T13:15:00Z"
  },
  "remarks": "RMK AO2",
  "dewpoint": {
    "repr": "04",
    "value": 4,
    "spoken": "four"
  },
  "relative_humidity": 0.9324335019213874,
  "remarks_info": {
    "maximum_temperature_6": null,
    "minimum_temperature_6": null,
    "pressure_tendency": null,
    "precip_36_hours": null,
    "precip_24_hours": null,
    "sunshine_minutes": null,
    "codes": [
      {
        "repr": "AO2",
        "value": "Automated with precipitation sensor"
      }
    ],
    "dewpoint_decimal": null,
    "maximum_temperature_24": null,
    "minimum_temperature_24": null,
    "precip_hourly": null,
    "sea_level_pressure": null,
    "snow_depth": null,
    "temperature_decimal": null
  },
  "runway_visibility": [],
  "temperature": {
    "repr": "05",
    "value": 5,
    "spoken": "five"
  },
  "wind_variable_direction": [],
  "density_altitude": -752,
  "pressure_altitude": 441,
  "units": {
    "accumulation": "in",
    "altimeter": "inHg",
    "altitude": "ft",
    "temperature": "C",
    "visibility": "sm",
    "wind_speed": "kt"
  }
}
