{
  "meta": {
    "timestamp": "2023-08-29T11:40:52.145439Z",
    "stations_updated": "2023-08-05",
    "cache-timestamp": "2023-08-29T11:40:03.516000Z"
  },
  "altimeter": {
    "repr": "A3005",
    "value": 30.05,
    "spoken": "three zero point zero five"
  },
  "clouds": [
    {
      "repr": "BKN014",
      "type": "BKN",
      "altitude": 14,
      "modifier": null
    },
    {
      "repr": "OVC019",
      "type": "OVC",
      "altitude": 19,
      "modifier": null
    }
  ],
  "flight_rules": "MVFR",
  "other": [],
  "visibility": {
    "repr": "7",
    "value": 7,
    "spoken": "seven"
  },
  "wind_direction": {
    "repr": "000",
    "value": 0,
    "spoken": "zero zero zero"
  },
  "wind_gust": null,
  "wind_speed": {
    "repr": "00",
    "value": 0,
    "spoken": "zero"
  },
  "wx_codes": [
    {
      "repr": "-RA",
      "value": "Light Rain"
    }
  ],
  "raw": "KORS 291135Z AUTO 00000KT 7SM -RA BKN014 OVC019 15/14 A3005 RMK AO2",
  "sanitized": "KORS 291135Z 00000KT 7SM -RA BKN014 OVC019 15/14 A3005 RMK AO2",
  "station": "KORS",
  "time": {
    "repr": "291135Z",
    "dt": "2023-08-29T11:35:00Z"
  },
  "remarks": "RMK AO2",
  "dewpoint": {
    "repr": "14",
    "value": 14,
    "spoken": "one four"
  },
  "relative_humidity": 0.9374053725583322,
  "remarks_info": {
    "maximum_temperature_6": null,
    "minimum_temperature_6": null,
    "pressure_tendency": null,
    "precip_36_hours": null,
    "precip_24_hours": null,
    "sunshine_minutes": null,
    "codes": [
      {
        "repr": "AO2",
        "value": "Automated with precipitation sensor"
      }
    ],
    "dewpoint_decimal": null,
    "maximum_temperature_24": null,
    "minimum_temperature_24": null,
    "precip_hourly": null,
    "sea_level_pressure": null,
    "snow_depth": null,
    "temperature_decimal": null
  },
  "runway_visibility": [],
  "temperature": {
    "repr": "15",
    "value": 15,
    "spoken": "one five"
  },
  "wind_variable_direction": [],
  "density_altitude": -92,
  "pressure_altitude": -99,
  "units": {
    "accumulation": "in",
    "altimeter": "inHg",
    "altitude": "ft",
    "temperature": "C",
    "visibility": "sm",
    "wind_speed": "kt"
  }
}
