{
  "altimeter": {
    "repr": "A2965",
    "spoken": "two nine point six five",
    "value": 29.65
  },
  "clouds": [
    {
      "altitude": 60,
      "modifier": null,
      "repr": "SCT060",
      "type": "SCT"
    },
    {
      "altitude": 75,
      "modifier": null,
      "repr": "SCT075",
      "type": "SCT"
    },
    {
      "altitude": 90,
      "modifier": null,
      "repr": "SCT090",
      "type": "SCT"
    }
  ],
  "density_altitude": -292,
  "dewpoint": {
    "repr": "03",
    "spoken": "three",
    "value": 3
  },
  "flight_rules": "VFR",
  "meta": {
    "stations_updated": "2024-10-29",
    "timestamp": "2024-11-20T17:06:45.944551Z"
  },
  "other": [],
  "pressure_altitude": 301,
  "raw": "KORS 201655Z AUTO 16012G22KT 120V180 10SM SCT060 SCT075 SCT090 10/03 A2965 RMK AO2",
  "relative_humidity": 0.6175527986928698,
  "remarks": "RMK AO2",
  "remarks_info": {
    "codes": [
      {
        "repr": "AO2",
        "value": "Automated with precipitation sensor"
      }
    ],
    "dewpoint_decimal": null,
    "maximum_temperature_24": null,
    "maximum_temperature_6": null,
    "minimum_temperature_24": null,
    "minimum_temperature_6": null,
    "precip_24_hours": null,
    "precip_36_hours": null,
    "precip_hourly": null,
    "pressure_tendency": null,
    "sea_level_pressure": null,
    "snow_depth": null,
    "sunshine_minutes": null,
    "temperature_decimal": null
  },
  "runway_visibility": [],
  "sanitized": "KORS 201655Z 16012G22KT 120V180 10SM SCT060 SCT075 SCT090 10/03 A2965 RMK AO2",
  "station": "KORS",
  "temperature": {
    "repr": "10",
    "spoken": "one zero",
    "value": 10
  },
  "time": {
    "dt": "2024-11-20T16:55:00Z",
    "repr": "201655Z"
  },
  "units": {
    "accumulation": "in",
    "altimeter": "inHg",
    "altitude": "ft",
    "temperature": "C",
    "visibility": "sm",
    "wind_speed": "kt"
  },
  "visibility": {
    "repr": "10",
    "spoken": "one zero",
    "value": 10
  },
  "wind_direction": {
    "repr": "160",
    "spoken": "one six zero",
    "value": 160
  },
  "wind_gust": {
    "repr": "22",
    "spoken": "two two",
    "value": 22
  },
  "wind_speed": {
    "repr": "12",
    "spoken": "one two",
    "value": 12
  },
  "wind_variable_direction": [
    {
      "repr": "120",
      "spoken": "one two zero",
      "value": 120
    },
    {
      "repr": "180",
      "spoken": "one eight zero",
      "value": 180
    }
  ],
  "wx_codes": []
}
