{
  "meta": {
    "timestamp": "2022-11-22T23:02:11.098879Z",
    "stations_updated": "2022-09-05"
  },
  "altimeter": {
    "repr": "A2978",
    "value": 29.78,
    "spoken": "two nine point seven eight"
  },
  "clouds": [
    {
      "repr": "OVC020",
      "type": "OVC",
      "altitude": 20,
      "modifier": null
    }
  ],
  "flight_rules": "MVFR",
  "other": [],
  "visibility": {
    "repr": "4",
    "value": 4,
    "spoken": "four"
  },
  "wind_direction": {
    "repr": "180",
    "value": 180,
    "spoken": "one eight zero"
  },
  "wind_gust": null,
  "wind_speed": {
    "repr": "09",
    "value": 9,
    "spoken": "nine"
  },
  "wx_codes": [
    {
      "repr": "-RA",
      "value": "Light Rain"
    },
    {
      "repr": "BR",
      "value": "Mist"
    }
  ],
  "raw": "KORS 222255Z AUTO 18009KT 4SM -RA BR OVC020 09/09 A2978 RMK AO2 P0001",
  "sanitized": "KORS 222255Z 18009KT 4SM -RA BR OVC020 09/09 A2978 RMK AO2 P0001",
  "station": "KORS",
  "time": {
    "repr": "222255Z",
    "dt": "2022-11-22T22:55:00Z"
  },
  "remarks": "RMK AO2 P0001",
  "dewpoint": {
    "repr": "09",
    "value": 9,
    "spoken": "nine"
  },
  "relative_humidity": 1,
  "remarks_info": {
    "maximum_temperature_6": null,
    "minimum_temperature_6": null,
    "pressure_tendency": null,
    "precip_36_hours": null,
    "precip_24_hours": null,
    "sunshine_minutes": null,
    "codes": [
      {
        "repr": "AO2",
        "value": "Automated with precipitation sensor"
      }
    ],
    "dewpoint_decimal": null,
    "maximum_temperature_24": null,
    "minimum_temperature_24": null,
    "precip_hourly": {
      "repr": "P0001",
      "value": 0.01,
      "spoken": "zero point zero one"
    },
    "sea_level_pressure": null,
    "snow_depth": null,
    "temperature_decimal": null
  },
  "runway_visibility": [],
  "temperature": {
    "repr": "09",
    "value": 9,
    "spoken": "nine"
  },
  "wind_variable_direction": [],
  "density_altitude": -542,
  "pressure_altitude": 171,
  "units": {
    "accumulation": "in",
    "altimeter": "inHg",
    "altitude": "ft",
    "temperature": "C",
    "visibility": "sm",
    "wind_speed": "kt"
  }
}
