{
  "altimeter": {
    "repr": "A3031",
    "spoken": "three zero point three one",
    "value": 30.31
  },
  "clouds": [
    {
      "altitude": 44,
      "modifier": null,
      "repr": "FEW044",
      "type": "FEW"
    },
    {
      "altitude": 49,
      "modifier": null,
      "repr": "FEW049",
      "type": "FEW"
    },
    {
      "altitude": 55,
      "modifier": null,
      "repr": "SCT055",
      "type": "SCT"
    }
  ],
  "density_altitude": -1192,
  "dewpoint": {
    "repr": "04",
    "spoken": "four",
    "value": 4
  },
  "flight_rules": "VFR",
  "meta": {
    "stations_updated": "2024-01-01",
    "timestamp": "2024-04-21T14:01:10.908294Z"
  },
  "other": [],
  "pressure_altitude": -359,
  "raw": "KORS 211355Z AUTO 20007KT 10SM FEW044 FEW049 SCT055 08/04 A3031 RMK AO2",
  "relative_humidity": 0.7584398103585424,
  "remarks": "RMK AO2",
  "remarks_info": {
    "codes": [
      {
        "repr": "AO2",
        "value": "Automated with precipitation sensor"
      }
    ],
    "dewpoint_decimal": null,
    "maximum_temperature_24": null,
    "maximum_temperature_6": null,
    "minimum_temperature_24": null,
    "minimum_temperature_6": null,
    "precip_24_hours": null,
    "precip_36_hours": null,
    "precip_hourly": null,
    "pressure_tendency": null,
    "sea_level_pressure": null,
    "snow_depth": null,
    "sunshine_minutes": null,
    "temperature_decimal": null
  },
  "runway_visibility": [],
  "sanitized": "KORS 211355Z 20007KT 10SM FEW044 FEW049 SCT055 08/04 A3031 RMK AO2",
  "station": "KORS",
  "temperature": {
    "repr": "08",
    "spoken": "eight",
    "value": 8
  },
  "time": {
    "dt": "2024-04-21T13:55:00Z",
    "repr": "211355Z"
  },
  "units": {
    "accumulation": "in",
    "altimeter": "inHg",
    "altitude": "ft",
    "temperature": "C",
    "visibility": "sm",
    "wind_speed": "kt"
  },
  "visibility": {
    "repr": "10",
    "spoken": "one zero",
    "value": 10
  },
  "wind_direction": {
    "repr": "200",
    "spoken": "two zero zero",
    "value": 200
  },
  "wind_gust": null,
  "wind_speed": {
    "repr": "07",
    "spoken": "seven",
    "value": 7
  },
  "wind_variable_direction": [],
  "wx_codes": []
}
