{
  "altimeter": {
    "repr": "A2937",
    "spoken": "two nine point three seven",
    "value": 29.37
  },
  "clouds": [
    {
      "altitude": 75,
      "modifier": null,
      "repr": "SCT075",
      "type": "SCT"
    },
    {
      "altitude": 110,
      "modifier": null,
      "repr": "BKN110",
      "type": "BKN"
    }
  ],
  "density_altitude": -492,
  "dewpoint": {
    "repr": "03",
    "spoken": "three",
    "value": 3
  },
  "flight_rules": "VFR",
  "meta": {
    "cache-timestamp": "2024-02-29T11:00:05.703000Z",
    "stations_updated": "2024-01-01",
    "timestamp": "2024-02-29T11:01:02.111611Z"
  },
  "other": [],
  "pressure_altitude": 581,
  "raw": "KORS 291035Z AUTO 19009KT 10SM SCT075 BKN110 06/03 A2937 RMK AO2",
  "relative_humidity": 0.8106822111738443,
  "remarks": "RMK AO2",
  "remarks_info": {
    "codes": [
      {
        "repr": "AO2",
        "value": "Automated with precipitation sensor"
      }
    ],
    "dewpoint_decimal": null,
    "maximum_temperature_24": null,
    "maximum_temperature_6": null,
    "minimum_temperature_24": null,
    "minimum_temperature_6": null,
    "precip_24_hours": null,
    "precip_36_hours": null,
    "precip_hourly": null,
    "pressure_tendency": null,
    "sea_level_pressure": null,
    "snow_depth": null,
    "sunshine_minutes": null,
    "temperature_decimal": null
  },
  "runway_visibility": [],
  "sanitized": "KORS 291035Z 19009KT 10SM SCT075 BKN110 06/03 A2937 RMK AO2",
  "station": "KORS",
  "temperature": {
    "repr": "06",
    "spoken": "six",
    "value": 6
  },
  "time": {
    "dt": "2024-02-29T10:35:00Z",
    "repr": "291035Z"
  },
  "units": {
    "accumulation": "in",
    "altimeter": "inHg",
    "altitude": "ft",
    "temperature": "C",
    "visibility": "sm",
    "wind_speed": "kt"
  },
  "visibility": {
    "repr": "10",
    "spoken": "one zero",
    "value": 10
  },
  "wind_direction": {
    "repr": "190",
    "spoken": "one nine zero",
    "value": 190
  },
  "wind_gust": null,
  "wind_speed": {
    "repr": "09",
    "spoken": "nine",
    "value": 9
  },
  "wind_variable_direction": [],
  "wx_codes": []
}
