{
  "altimeter": {
    "repr": "A3003",
    "spoken": "three zero point zero three",
    "value": 30.03
  },
  "clouds": [
    {
      "altitude": 30,
      "modifier": null,
      "repr": "SCT030",
      "type": "SCT"
    },
    {
      "altitude": 60,
      "modifier": null,
      "repr": "BKN060",
      "type": "BKN"
    },
    {
      "altitude": 70,
      "modifier": null,
      "repr": "OVC070",
      "type": "OVC"
    }
  ],
  "density_altitude": -192,
  "dewpoint": {
    "repr": "14",
    "spoken": "one four",
    "value": 14
  },
  "flight_rules": "MVFR",
  "meta": {
    "stations_updated": "2024-06-12",
    "timestamp": "2024-10-20T06:45:29.759691Z"
  },
  "other": [],
  "pressure_altitude": -79,
  "raw": "KORS 200635Z AUTO 00000KT 5SM -RA BR SCT030 BKN060 OVC070 14/14 A3003 RMK AO2",
  "relative_humidity": 1,
  "remarks": "RMK AO2",
  "remarks_info": {
    "codes": [
      {
        "repr": "AO2",
        "value": "Automated with precipitation sensor"
      }
    ],
    "dewpoint_decimal": null,
    "maximum_temperature_24": null,
    "maximum_temperature_6": null,
    "minimum_temperature_24": null,
    "minimum_temperature_6": null,
    "precip_24_hours": null,
    "precip_36_hours": null,
    "precip_hourly": null,
    "pressure_tendency": null,
    "sea_level_pressure": null,
    "snow_depth": null,
    "sunshine_minutes": null,
    "temperature_decimal": null
  },
  "runway_visibility": [],
  "sanitized": "KORS 200635Z 00000KT 5SM -RA BR SCT030 BKN060 OVC070 14/14 A3003 RMK AO2",
  "station": "KORS",
  "temperature": {
    "repr": "14",
    "spoken": "one four",
    "value": 14
  },
  "time": {
    "dt": "2024-10-20T06:35:00Z",
    "repr": "200635Z"
  },
  "units": {
    "accumulation": "in",
    "altimeter": "inHg",
    "altitude": "ft",
    "temperature": "C",
    "visibility": "sm",
    "wind_speed": "kt"
  },
  "visibility": {
    "repr": "5",
    "spoken": "five",
    "value": 5
  },
  "wind_direction": {
    "repr": "000",
    "spoken": "zero zero zero",
    "value": 0
  },
  "wind_gust": null,
  "wind_speed": {
    "repr": "00",
    "spoken": "zero",
    "value": 0
  },
  "wind_variable_direction": [],
  "wx_codes": [
    {
      "repr": "-RA",
      "value": "Light Rain"
    },
    {
      "repr": "BR",
      "value": "Mist"
    }
  ]
}
