{
  "altimeter": {
    "repr": "A3022",
    "spoken": "three zero point two two",
    "value": 30.22
  },
  "clouds": [
    {
      "altitude": 50,
      "modifier": null,
      "repr": "SCT050",
      "type": "SCT"
    }
  ],
  "density_altitude": -3382,
  "dewpoint": {
    "repr": "M20",
    "spoken": "minus two zero",
    "value": -20
  },
  "flight_rules": "VFR",
  "meta": {
    "stations_updated": "2023-10-28",
    "timestamp": "2024-01-12T12:09:29.743458Z"
  },
  "other": [],
  "pressure_altitude": -269,
  "raw": "KORS 121155Z AUTO 03011G22KT 350V140 10SM SCT050 M11/M20 A3022 RMK AO2",
  "relative_humidity": 0.4746355399904772,
  "remarks": "RMK AO2",
  "remarks_info": {
    "codes": [
      {
        "repr": "AO2",
        "value": "Automated with precipitation sensor"
      }
    ],
    "dewpoint_decimal": null,
    "maximum_temperature_24": null,
    "maximum_temperature_6": null,
    "minimum_temperature_24": null,
    "minimum_temperature_6": null,
    "precip_24_hours": null,
    "precip_36_hours": null,
    "precip_hourly": null,
    "pressure_tendency": null,
    "sea_level_pressure": null,
    "snow_depth": null,
    "sunshine_minutes": null,
    "temperature_decimal": null
  },
  "runway_visibility": [],
  "sanitized": "KORS 121155Z 03011G22KT 350V140 10SM SCT050 M11/M20 A3022 RMK AO2",
  "station": "KORS",
  "temperature": {
    "repr": "M11",
    "spoken": "minus one one",
    "value": -11
  },
  "time": {
    "dt": "2024-01-12T11:55:00Z",
    "repr": "121155Z"
  },
  "units": {
    "accumulation": "in",
    "altimeter": "inHg",
    "altitude": "ft",
    "temperature": "C",
    "visibility": "sm",
    "wind_speed": "kt"
  },
  "visibility": {
    "repr": "10",
    "spoken": "one zero",
    "value": 10
  },
  "wind_direction": {
    "repr": "030",
    "spoken": "zero three zero",
    "value": 30
  },
  "wind_gust": {
    "repr": "22",
    "spoken": "two two",
    "value": 22
  },
  "wind_speed": {
    "repr": "11",
    "spoken": "one one",
    "value": 11
  },
  "wind_variable_direction": [
    {
      "repr": "350",
      "spoken": "three five zero",
      "value": 350
    },
    {
      "repr": "140",
      "spoken": "one four zero",
      "value": 140
    }
  ],
  "wx_codes": []
}
