{
  "meta": {
    "timestamp": "2022-11-15T12:59:40.433946Z",
    "stations_updated": "2022-09-05"
  },
  "altimeter": {
    "repr": "A3051",
    "value": 30.51,
    "spoken": "three zero point five one"
  },
  "clouds": [
    {
      "repr": "OVC008",
      "type": "OVC",
      "altitude": 8,
      "modifier": null
    }
  ],
  "flight_rules": "IFR",
  "other": [],
  "visibility": {
    "repr": "10",
    "value": 10,
    "spoken": "one zero"
  },
  "wind_direction": {
    "repr": "330",
    "value": 330,
    "spoken": "three three zero"
  },
  "wind_gust": null,
  "wind_speed": {
    "repr": "07",
    "value": 7,
    "spoken": "seven"
  },
  "wx_codes": [],
  "raw": "KORS 151255Z AUTO 33007KT 10SM OVC008 06/06 A3051 RMK AO2",
  "sanitized": "KORS 151255Z 33007KT 10SM OVC008 06/06 A3051 RMK AO2",
  "station": "KORS",
  "time": {
    "repr": "151255Z",
    "dt": "2022-11-15T12:55:00Z"
  },
  "remarks": "RMK AO2",
  "dewpoint": {
    "repr": "06",
    "value": 6,
    "spoken": "six"
  },
  "relative_humidity": 1,
  "remarks_info": {
    "maximum_temperature_6": null,
    "minimum_temperature_6": null,
    "pressure_tendency": null,
    "precip_36_hours": null,
    "precip_24_hours": null,
    "sunshine_minutes": null,
    "codes": [
      {
        "repr": "AO2",
        "value": "Automated with precipitation sensor"
      }
    ],
    "dewpoint_decimal": null,
    "maximum_temperature_24": null,
    "minimum_temperature_24": null,
    "precip_hourly": null,
    "sea_level_pressure": null,
    "snow_depth": null,
    "temperature_decimal": null
  },
  "runway_visibility": [],
  "temperature": {
    "repr": "06",
    "value": 6,
    "spoken": "six"
  },
  "wind_variable_direction": [],
  "density_altitude": -1632,
  "pressure_altitude": -559,
  "units": {
    "accumulation": "in",
    "altimeter": "inHg",
    "altitude": "ft",
    "temperature": "C",
    "visibility": "sm",
    "wind_speed": "kt"
  }
}
