{
  "meta": {
    "timestamp": "2022-11-30T00:30:52.629659Z",
    "stations_updated": "2022-09-05"
  },
  "altimeter": {
    "repr": "A2962",
    "value": 29.62,
    "spoken": "two nine point six two"
  },
  "clouds": [
    {
      "repr": "BKN021",
      "type": "BKN",
      "altitude": 21,
      "modifier": null
    },
    {
      "repr": "OVC027",
      "type": "OVC",
      "altitude": 27,
      "modifier": null
    }
  ],
  "flight_rules": "MVFR",
  "other": [],
  "visibility": {
    "repr": "7",
    "value": 7,
    "spoken": "seven"
  },
  "wind_direction": {
    "repr": "150",
    "value": 150,
    "spoken": "one five zero"
  },
  "wind_gust": {
    "repr": "32",
    "value": 32,
    "spoken": "three two"
  },
  "wind_speed": {
    "repr": "21",
    "value": 21,
    "spoken": "two one"
  },
  "wx_codes": [
    {
      "repr": "-RA",
      "value": "Light Rain"
    }
  ],
  "raw": "KORS 300015Z AUTO 15021G32KT 7SM -RA BKN021 OVC027 03/00 A2962 RMK AO2",
  "sanitized": "KORS 300015Z 15021G32KT 7SM -RA BKN021 OVC027 03/00 A2962 RMK AO2",
  "station": "KORS",
  "time": {
    "repr": "300015Z",
    "dt": "2022-11-30T00:15:00Z"
  },
  "remarks": "RMK AO2",
  "dewpoint": {
    "repr": "00",
    "value": 0,
    "spoken": "zero"
  },
  "relative_humidity": 0.8065005415469674,
  "remarks_info": {
    "maximum_temperature_6": null,
    "minimum_temperature_6": null,
    "pressure_tendency": null,
    "precip_36_hours": null,
    "precip_24_hours": null,
    "sunshine_minutes": null,
    "codes": [
      {
        "repr": "AO2",
        "value": "Automated with precipitation sensor"
      }
    ],
    "dewpoint_decimal": null,
    "maximum_temperature_24": null,
    "minimum_temperature_24": null,
    "precip_hourly": null,
    "sea_level_pressure": null,
    "snow_depth": null,
    "temperature_decimal": null
  },
  "runway_visibility": [],
  "temperature": {
    "repr": "03",
    "value": 3,
    "spoken": "three"
  },
  "wind_variable_direction": [],
  "density_altitude": -1102,
  "pressure_altitude": 331,
  "units": {
    "accumulation": "in",
    "altimeter": "inHg",
    "altitude": "ft",
    "temperature": "C",
    "visibility": "sm",
    "wind_speed": "kt"
  }
}
