{
  "altimeter": {
    "repr": "A2998",
    "spoken": "two nine point nine eight",
    "value": 29.98
  },
  "clouds": [
    {
      "altitude": 6,
      "modifier": null,
      "repr": "BKN006",
      "type": "BKN"
    },
    {
      "altitude": 11,
      "modifier": null,
      "repr": "BKN011",
      "type": "BKN"
    },
    {
      "altitude": 15,
      "modifier": null,
      "repr": "OVC015",
      "type": "OVC"
    }
  ],
  "density_altitude": -622,
  "dewpoint": {
    "repr": "10",
    "spoken": "one zero",
    "value": 10
  },
  "flight_rules": "IFR",
  "meta": {
    "stations_updated": "2024-10-29",
    "timestamp": "2024-11-10T12:46:04.546050Z"
  },
  "other": [],
  "pressure_altitude": -29,
  "raw": "KORS 101235Z AUTO 00000KT 2 1/2SM BR BKN006 BKN011 OVC015 10/10 A2998 RMK AO2",
  "relative_humidity": 1,
  "remarks": "RMK AO2",
  "remarks_info": {
    "codes": [
      {
        "repr": "AO2",
        "value": "Automated with precipitation sensor"
      }
    ],
    "dewpoint_decimal": null,
    "maximum_temperature_24": null,
    "maximum_temperature_6": null,
    "minimum_temperature_24": null,
    "minimum_temperature_6": null,
    "precip_24_hours": null,
    "precip_36_hours": null,
    "precip_hourly": null,
    "pressure_tendency": null,
    "sea_level_pressure": null,
    "snow_depth": null,
    "sunshine_minutes": null,
    "temperature_decimal": null
  },
  "runway_visibility": [],
  "sanitized": "KORS 101235Z 00000KT 2 1/2SM BR BKN006 BKN011 OVC015 10/10 A2998 RMK AO2",
  "station": "KORS",
  "temperature": {
    "repr": "10",
    "spoken": "one zero",
    "value": 10
  },
  "time": {
    "dt": "2024-11-10T12:35:00Z",
    "repr": "101235Z"
  },
  "units": {
    "accumulation": "in",
    "altimeter": "inHg",
    "altitude": "ft",
    "temperature": "C",
    "visibility": "sm",
    "wind_speed": "kt"
  },
  "visibility": {
    "denominator": 2,
    "normalized": "2 1/2",
    "numerator": 5,
    "repr": "5/2",
    "spoken": "two and one half",
    "value": 2.5
  },
  "wind_direction": {
    "repr": "000",
    "spoken": "zero zero zero",
    "value": 0
  },
  "wind_gust": null,
  "wind_speed": {
    "repr": "00",
    "spoken": "zero",
    "value": 0
  },
  "wind_variable_direction": [],
  "wx_codes": [
    {
      "repr": "BR",
      "value": "Mist"
    }
  ]
}
