{
  "altimeter": {
    "repr": "A2970",
    "spoken": "two nine point seven zero",
    "value": 29.7
  },
  "clouds": [
    {
      "altitude": 65,
      "modifier": null,
      "repr": "FEW065",
      "type": "FEW"
    }
  ],
  "density_altitude": -702,
  "dewpoint": {
    "repr": "02",
    "spoken": "two",
    "value": 2
  },
  "flight_rules": "VFR",
  "meta": {
    "stations_updated": "2024-10-29",
    "timestamp": "2024-11-19T23:28:38.237254Z"
  },
  "other": [],
  "pressure_altitude": 251,
  "raw": "KORS 192315Z AUTO 08007G13KT 030V120 10SM FEW065 07/02 A2970 RMK AO2",
  "relative_humidity": 0.704814004115702,
  "remarks": "RMK AO2",
  "remarks_info": {
    "codes": [
      {
        "repr": "AO2",
        "value": "Automated with precipitation sensor"
      }
    ],
    "dewpoint_decimal": null,
    "maximum_temperature_24": null,
    "maximum_temperature_6": null,
    "minimum_temperature_24": null,
    "minimum_temperature_6": null,
    "precip_24_hours": null,
    "precip_36_hours": null,
    "precip_hourly": null,
    "pressure_tendency": null,
    "sea_level_pressure": null,
    "snow_depth": null,
    "sunshine_minutes": null,
    "temperature_decimal": null
  },
  "runway_visibility": [],
  "sanitized": "KORS 192315Z 08007G13KT 030V120 10SM FEW065 07/02 A2970 RMK AO2",
  "station": "KORS",
  "temperature": {
    "repr": "07",
    "spoken": "seven",
    "value": 7
  },
  "time": {
    "dt": "2024-11-19T23:15:00Z",
    "repr": "192315Z"
  },
  "units": {
    "accumulation": "in",
    "altimeter": "inHg",
    "altitude": "ft",
    "temperature": "C",
    "visibility": "sm",
    "wind_speed": "kt"
  },
  "visibility": {
    "repr": "10",
    "spoken": "one zero",
    "value": 10
  },
  "wind_direction": {
    "repr": "080",
    "spoken": "zero eight zero",
    "value": 80
  },
  "wind_gust": {
    "repr": "13",
    "spoken": "one three",
    "value": 13
  },
  "wind_speed": {
    "repr": "07",
    "spoken": "seven",
    "value": 7
  },
  "wind_variable_direction": [
    {
      "repr": "030",
      "spoken": "zero three zero",
      "value": 30
    },
    {
      "repr": "120",
      "spoken": "one two zero",
      "value": 120
    }
  ],
  "wx_codes": []
}
