{
  "altimeter": {
    "repr": "A2966",
    "spoken": "two nine point six six",
    "value": 29.66
  },
  "clouds": [
    {
      "altitude": 26,
      "modifier": null,
      "repr": "FEW026",
      "type": "FEW"
    },
    {
      "altitude": 31,
      "modifier": null,
      "repr": "FEW031",
      "type": "FEW"
    },
    {
      "altitude": 65,
      "modifier": null,
      "repr": "FEW065",
      "type": "FEW"
    }
  ],
  "density_altitude": -182,
  "dewpoint": {
    "repr": "09",
    "spoken": "nine",
    "value": 9
  },
  "flight_rules": "VFR",
  "meta": {
    "stations_updated": "2024-10-29",
    "timestamp": "2024-11-12T00:34:58.953747Z"
  },
  "other": [],
  "pressure_altitude": 291,
  "raw": "KORS 120015Z AUTO 17008KT 10SM FEW026 FEW031 FEW065 11/09 A2966 RMK AO2",
  "relative_humidity": 0.8746678827465182,
  "remarks": "RMK AO2",
  "remarks_info": {
    "codes": [
      {
        "repr": "AO2",
        "value": "Automated with precipitation sensor"
      }
    ],
    "dewpoint_decimal": null,
    "maximum_temperature_24": null,
    "maximum_temperature_6": null,
    "minimum_temperature_24": null,
    "minimum_temperature_6": null,
    "precip_24_hours": null,
    "precip_36_hours": null,
    "precip_hourly": null,
    "pressure_tendency": null,
    "sea_level_pressure": null,
    "snow_depth": null,
    "sunshine_minutes": null,
    "temperature_decimal": null
  },
  "runway_visibility": [],
  "sanitized": "KORS 120015Z 17008KT 10SM FEW026 FEW031 FEW065 11/09 A2966 RMK AO2",
  "station": "KORS",
  "temperature": {
    "repr": "11",
    "spoken": "one one",
    "value": 11
  },
  "time": {
    "dt": "2024-11-12T00:15:00Z",
    "repr": "120015Z"
  },
  "units": {
    "accumulation": "in",
    "altimeter": "inHg",
    "altitude": "ft",
    "temperature": "C",
    "visibility": "sm",
    "wind_speed": "kt"
  },
  "visibility": {
    "repr": "10",
    "spoken": "one zero",
    "value": 10
  },
  "wind_direction": {
    "repr": "170",
    "spoken": "one seven zero",
    "value": 170
  },
  "wind_gust": null,
  "wind_speed": {
    "repr": "08",
    "spoken": "eight",
    "value": 8
  },
  "wind_variable_direction": [],
  "wx_codes": []
}
