{
  "altimeter": {
    "repr": "A2999",
    "spoken": "two nine point nine nine",
    "value": 29.99
  },
  "clouds": [],
  "density_altitude": -392,
  "dewpoint": {
    "repr": "10",
    "spoken": "one zero",
    "value": 10
  },
  "flight_rules": "IFR",
  "meta": {
    "cache-timestamp": "2024-01-27T11:20:20.535000Z",
    "stations_updated": "2023-10-28",
    "timestamp": "2024-01-27T11:20:43.100770Z"
  },
  "other": [],
  "pressure_altitude": -39,
  "raw": "KORS 271055Z AUTO VRB04G12KT -RA 12/10 A2999 RMK AO2 P0011",
  "relative_humidity": 0.8755870244132871,
  "remarks": "RMK AO2 P0011",
  "remarks_info": {
    "codes": [
      {
        "repr": "AO2",
        "value": "Automated with precipitation sensor"
      }
    ],
    "dewpoint_decimal": null,
    "maximum_temperature_24": null,
    "maximum_temperature_6": null,
    "minimum_temperature_24": null,
    "minimum_temperature_6": null,
    "precip_24_hours": null,
    "precip_36_hours": null,
    "precip_hourly": {
      "repr": "P0011",
      "spoken": "zero point one one",
      "value": 0.11
    },
    "pressure_tendency": null,
    "sea_level_pressure": null,
    "snow_depth": null,
    "sunshine_minutes": null,
    "temperature_decimal": null
  },
  "runway_visibility": [],
  "sanitized": "KORS 271055Z VRB04G12KT -RA 12/10 A2999 RMK AO2 P0011",
  "station": "KORS",
  "temperature": {
    "repr": "12",
    "spoken": "one two",
    "value": 12
  },
  "time": {
    "dt": "2024-01-27T10:55:00Z",
    "repr": "271055Z"
  },
  "units": {
    "accumulation": "in",
    "altimeter": "inHg",
    "altitude": "ft",
    "temperature": "C",
    "visibility": "sm",
    "wind_speed": "kt"
  },
  "visibility": null,
  "wind_direction": {
    "repr": "VRB",
    "spoken": "variable",
    "value": null
  },
  "wind_gust": {
    "repr": "12",
    "spoken": "one two",
    "value": 12
  },
  "wind_speed": {
    "repr": "04",
    "spoken": "four",
    "value": 4
  },
  "wind_variable_direction": [],
  "wx_codes": [
    {
      "repr": "-RA",
      "value": "Light Rain"
    }
  ]
}
