{
  "meta": {
    "timestamp": "2022-11-17T13:31:05.872142Z",
    "stations_updated": "2022-09-05"
  },
  "altimeter": {
    "repr": "A3044",
    "value": 30.44,
    "spoken": "three zero point four four"
  },
  "clouds": [],
  "flight_rules": "VFR",
  "other": [],
  "visibility": {
    "repr": "10",
    "value": 10,
    "spoken": "one zero"
  },
  "wind_direction": {
    "repr": "VRB",
    "value": null,
    "spoken": "variable"
  },
  "wind_gust": {
    "repr": "17",
    "value": 17,
    "spoken": "one seven"
  },
  "wind_speed": {
    "repr": "06",
    "value": 6,
    "spoken": "six"
  },
  "wx_codes": [],
  "raw": "KORS 171315Z AUTO VRB06G17KT 10SM CLR 10/M03 A3044 RMK AO2",
  "sanitized": "KORS 171315Z VRB06G17KT 10SM 10/M03 A3044 RMK AO2",
  "station": "KORS",
  "time": {
    "repr": "171315Z",
    "dt": "2022-11-17T13:15:00Z"
  },
  "remarks": "RMK AO2",
  "dewpoint": {
    "repr": "M03",
    "value": -3,
    "spoken": "minus three"
  },
  "relative_humidity": 0.3995336765693784,
  "remarks_info": {
    "maximum_temperature_6": null,
    "minimum_temperature_6": null,
    "pressure_tendency": null,
    "precip_36_hours": null,
    "precip_24_hours": null,
    "sunshine_minutes": null,
    "codes": [
      {
        "repr": "AO2",
        "value": "Automated with precipitation sensor"
      }
    ],
    "dewpoint_decimal": null,
    "maximum_temperature_24": null,
    "minimum_temperature_24": null,
    "precip_hourly": null,
    "sea_level_pressure": null,
    "snow_depth": null,
    "temperature_decimal": null
  },
  "runway_visibility": [],
  "temperature": {
    "repr": "10",
    "value": 10,
    "spoken": "one zero"
  },
  "wind_variable_direction": [],
  "density_altitude": -1082,
  "pressure_altitude": -489,
  "units": {
    "accumulation": "in",
    "altimeter": "inHg",
    "altitude": "ft",
    "temperature": "C",
    "visibility": "sm",
    "wind_speed": "kt"
  }
}
