{
  "meta": {
    "timestamp": "2023-06-04T04:40:34.885995Z",
    "stations_updated": "2023-05-30",
    "cache-timestamp": "2023-06-04T04:40:06.194000Z"
  },
  "altimeter": {
    "repr": "A3008",
    "value": 30.08,
    "spoken": "three zero point zero eight"
  },
  "clouds": [],
  "flight_rules": "VFR",
  "other": [],
  "visibility": {
    "repr": "10",
    "value": 10,
    "spoken": "one zero"
  },
  "wind_direction": {
    "repr": "170",
    "value": 170,
    "spoken": "one seven zero"
  },
  "wind_gust": null,
  "wind_speed": {
    "repr": "09",
    "value": 9,
    "spoken": "nine"
  },
  "wx_codes": [],
  "raw": "KORS 040415Z AUTO 17009KT 10SM CLR 15/09 A3008 RMK AO2",
  "sanitized": "KORS 040415Z 17009KT 10SM 15/09 A3008 RMK AO2",
  "station": "KORS",
  "time": {
    "repr": "040415Z",
    "dt": "2023-06-04T04:15:00Z"
  },
  "remarks": "RMK AO2",
  "dewpoint": {
    "repr": "09",
    "value": 9,
    "spoken": "nine"
  },
  "relative_humidity": 0.6733320325470223,
  "remarks_info": {
    "maximum_temperature_6": null,
    "minimum_temperature_6": null,
    "pressure_tendency": null,
    "precip_36_hours": null,
    "precip_24_hours": null,
    "sunshine_minutes": null,
    "codes": [
      {
        "repr": "AO2",
        "value": "Automated with precipitation sensor"
      }
    ],
    "dewpoint_decimal": null,
    "maximum_temperature_24": null,
    "minimum_temperature_24": null,
    "precip_hourly": null,
    "sea_level_pressure": null,
    "snow_depth": null,
    "temperature_decimal": null
  },
  "runway_visibility": [],
  "temperature": {
    "repr": "15",
    "value": 15,
    "spoken": "one five"
  },
  "wind_variable_direction": [],
  "density_altitude": -122,
  "pressure_altitude": -129,
  "units": {
    "accumulation": "in",
    "altimeter": "inHg",
    "altitude": "ft",
    "temperature": "C",
    "visibility": "sm",
    "wind_speed": "kt"
  }
}
