{
  "altimeter": {
    "repr": "A3007",
    "spoken": "three zero point zero seven",
    "value": 30.07
  },
  "clouds": [
    {
      "altitude": 37,
      "modifier": null,
      "repr": "OVC037",
      "type": "OVC"
    }
  ],
  "density_altitude": -1672,
  "dewpoint": {
    "repr": "M02",
    "spoken": "minus two",
    "value": -2
  },
  "flight_rules": "MVFR",
  "meta": {
    "cache-timestamp": "2024-01-19T08:28:02.673000Z",
    "stations_updated": "2023-10-28",
    "timestamp": "2024-01-19T08:28:37.115616Z"
  },
  "other": [],
  "pressure_altitude": -119,
  "raw": "KORS 190815Z AUTO 04004G10KT 5SM -RA HZ OVC037 02/M02 A3007 RMK AO2",
  "relative_humidity": 0.748049202902473,
  "remarks": "RMK AO2",
  "remarks_info": {
    "codes": [
      {
        "repr": "AO2",
        "value": "Automated with precipitation sensor"
      }
    ],
    "dewpoint_decimal": null,
    "maximum_temperature_24": null,
    "maximum_temperature_6": null,
    "minimum_temperature_24": null,
    "minimum_temperature_6": null,
    "precip_24_hours": null,
    "precip_36_hours": null,
    "precip_hourly": null,
    "pressure_tendency": null,
    "sea_level_pressure": null,
    "snow_depth": null,
    "sunshine_minutes": null,
    "temperature_decimal": null
  },
  "runway_visibility": [],
  "sanitized": "KORS 190815Z 04004G10KT 5SM -RA HZ OVC037 02/M02 A3007 RMK AO2",
  "station": "KORS",
  "temperature": {
    "repr": "02",
    "spoken": "two",
    "value": 2
  },
  "time": {
    "dt": "2024-01-19T08:15:00Z",
    "repr": "190815Z"
  },
  "units": {
    "accumulation": "in",
    "altimeter": "inHg",
    "altitude": "ft",
    "temperature": "C",
    "visibility": "sm",
    "wind_speed": "kt"
  },
  "visibility": {
    "repr": "5",
    "spoken": "five",
    "value": 5
  },
  "wind_direction": {
    "repr": "040",
    "spoken": "zero four zero",
    "value": 40
  },
  "wind_gust": {
    "repr": "10",
    "spoken": "one zero",
    "value": 10
  },
  "wind_speed": {
    "repr": "04",
    "spoken": "four",
    "value": 4
  },
  "wind_variable_direction": [],
  "wx_codes": [
    {
      "repr": "-RA",
      "value": "Light Rain"
    },
    {
      "repr": "HZ",
      "value": "Haze"
    }
  ]
}
