{
  "meta": {
    "timestamp": "2023-03-04T15:40:46.451592Z",
    "stations_updated": "2023-01-30",
    "cache-timestamp": "2023-03-04T15:40:05.018000Z"
  },
  "altimeter": {
    "repr": "A2952",
    "value": 29.52,
    "spoken": "two nine point five two"
  },
  "clouds": [
    {
      "repr": "FEW037",
      "type": "FEW",
      "altitude": 37,
      "modifier": null
    },
    {
      "repr": "OVC048",
      "type": "OVC",
      "altitude": 48,
      "modifier": null
    }
  ],
  "flight_rules": "VFR",
  "other": [],
  "visibility": {
    "repr": "6",
    "value": 6,
    "spoken": "six"
  },
  "wind_direction": {
    "repr": "VRB",
    "value": null,
    "spoken": "variable"
  },
  "wind_gust": {
    "repr": "12",
    "value": 12,
    "spoken": "one two"
  },
  "wind_speed": {
    "repr": "04",
    "value": 4,
    "spoken": "four"
  },
  "wx_codes": [
    {
      "repr": "-RA",
      "value": "Light Rain"
    },
    {
      "repr": "HZ",
      "value": "Haze"
    }
  ],
  "raw": "KORS 041515Z AUTO VRB04G12KT 6SM -RA HZ FEW037 OVC048 04/02 A2952 RMK AO2",
  "sanitized": "KORS 041515Z VRB04G12KT 6SM -RA HZ FEW037 OVC048 04/02 A2952 RMK AO2",
  "station": "KORS",
  "time": {
    "repr": "041515Z",
    "dt": "2023-03-04T15:15:00Z"
  },
  "remarks": "RMK AO2",
  "dewpoint": {
    "repr": "02",
    "value": 2,
    "spoken": "two"
  },
  "relative_humidity": 0.8679469901757325,
  "remarks_info": {
    "maximum_temperature_6": null,
    "minimum_temperature_6": null,
    "pressure_tendency": null,
    "precip_36_hours": null,
    "precip_24_hours": null,
    "sunshine_minutes": null,
    "codes": [
      {
        "repr": "AO2",
        "value": "Automated with precipitation sensor"
      }
    ],
    "dewpoint_decimal": null,
    "maximum_temperature_24": null,
    "minimum_temperature_24": null,
    "precip_hourly": null,
    "sea_level_pressure": null,
    "snow_depth": null,
    "temperature_decimal": null
  },
  "runway_visibility": [],
  "temperature": {
    "repr": "04",
    "value": 4,
    "spoken": "four"
  },
  "wind_variable_direction": [],
  "density_altitude": -882,
  "pressure_altitude": 431,
  "units": {
    "accumulation": "in",
    "altimeter": "inHg",
    "altitude": "ft",
    "temperature": "C",
    "visibility": "sm",
    "wind_speed": "kt"
  }
}
