{
  "meta": {
    "timestamp": "2022-12-27T19:40:49.608184Z",
    "stations_updated": "2022-09-05"
  },
  "altimeter": {
    "repr": "A2887",
    "value": 28.87,
    "spoken": "two eight point eight seven"
  },
  "clouds": [
    {
      "repr": "OVC021",
      "type": "OVC",
      "altitude": 21,
      "modifier": null
    }
  ],
  "flight_rules": "MVFR",
  "other": [],
  "visibility": {
    "repr": "10",
    "value": 10,
    "spoken": "one zero"
  },
  "wind_direction": {
    "repr": "160",
    "value": 160,
    "spoken": "one six zero"
  },
  "wind_gust": {
    "repr": "22",
    "value": 22,
    "spoken": "two two"
  },
  "wind_speed": {
    "repr": "14",
    "value": 14,
    "spoken": "one four"
  },
  "wx_codes": [],
  "raw": "KORS 271935Z AUTO 16014G22KT 10SM OVC021 12/09 A2887 RMK AO2",
  "sanitized": "KORS 271935Z 16014G22KT 10SM OVC021 12/09 A2887 RMK AO2",
  "station": "KORS",
  "time": {
    "repr": "271935Z",
    "dt": "2022-12-27T19:35:00Z"
  },
  "remarks": "RMK AO2",
  "dewpoint": {
    "repr": "09",
    "value": 9,
    "spoken": "nine"
  },
  "relative_humidity": 0.8186649539519323,
  "remarks_info": {
    "maximum_temperature_6": null,
    "minimum_temperature_6": null,
    "pressure_tendency": null,
    "precip_36_hours": null,
    "precip_24_hours": null,
    "sunshine_minutes": null,
    "codes": [
      {
        "repr": "AO2",
        "value": "Automated with precipitation sensor"
      }
    ],
    "dewpoint_decimal": null,
    "maximum_temperature_24": null,
    "minimum_temperature_24": null,
    "precip_hourly": null,
    "sea_level_pressure": null,
    "snow_depth": null,
    "temperature_decimal": null
  },
  "runway_visibility": [],
  "temperature": {
    "repr": "12",
    "value": 12,
    "spoken": "one two"
  },
  "wind_variable_direction": [],
  "density_altitude": 728,
  "pressure_altitude": 1081,
  "units": {
    "accumulation": "in",
    "altimeter": "inHg",
    "altitude": "ft",
    "temperature": "C",
    "visibility": "sm",
    "wind_speed": "kt"
  }
}
