{
  "meta": {
    "timestamp": "2022-12-10T00:25:36.343931Z",
    "stations_updated": "2022-09-05"
  },
  "altimeter": {
    "repr": "A2958",
    "value": 29.58,
    "spoken": "two nine point five eight"
  },
  "clouds": [
    {
      "repr": "BKN060",
      "type": "BKN",
      "altitude": 60,
      "modifier": null
    },
    {
      "repr": "OVC065",
      "type": "OVC",
      "altitude": 65,
      "modifier": null
    }
  ],
  "flight_rules": "VFR",
  "other": [],
  "visibility": {
    "repr": "10",
    "value": 10,
    "spoken": "one zero"
  },
  "wind_direction": {
    "repr": "VRB",
    "value": null,
    "spoken": "variable"
  },
  "wind_gust": {
    "repr": "13",
    "value": 13,
    "spoken": "one three"
  },
  "wind_speed": {
    "repr": "05",
    "value": 5,
    "spoken": "five"
  },
  "wx_codes": [],
  "raw": "KORS 100015Z AUTO VRB05G13KT 10SM BKN060 OVC065 06/01 A2958 RMK AO2",
  "sanitized": "KORS 100015Z VRB05G13KT 10SM BKN060 OVC065 06/01 A2958 RMK AO2",
  "station": "KORS",
  "time": {
    "repr": "100015Z",
    "dt": "2022-12-10T00:15:00Z"
  },
  "remarks": "RMK AO2",
  "dewpoint": {
    "repr": "01",
    "value": 1,
    "spoken": "one"
  },
  "relative_humidity": 0.702816165710442,
  "remarks_info": {
    "maximum_temperature_6": null,
    "minimum_temperature_6": null,
    "pressure_tendency": null,
    "precip_36_hours": null,
    "precip_24_hours": null,
    "sunshine_minutes": null,
    "codes": [
      {
        "repr": "AO2",
        "value": "Automated with precipitation sensor"
      }
    ],
    "dewpoint_decimal": null,
    "maximum_temperature_24": null,
    "minimum_temperature_24": null,
    "precip_hourly": null,
    "sea_level_pressure": null,
    "snow_depth": null,
    "temperature_decimal": null
  },
  "runway_visibility": [],
  "temperature": {
    "repr": "06",
    "value": 6,
    "spoken": "six"
  },
  "wind_variable_direction": [],
  "density_altitude": -702,
  "pressure_altitude": 371,
  "units": {
    "accumulation": "in",
    "altimeter": "inHg",
    "altitude": "ft",
    "temperature": "C",
    "visibility": "sm",
    "wind_speed": "kt"
  }
}
