{
  "altimeter": {
    "repr": "A2932",
    "spoken": "two nine point three two",
    "value": 29.32
  },
  "clouds": [
    {
      "altitude": 14,
      "modifier": null,
      "repr": "FEW014",
      "type": "FEW"
    },
    {
      "altitude": 19,
      "modifier": null,
      "repr": "SCT019",
      "type": "SCT"
    },
    {
      "altitude": 25,
      "modifier": null,
      "repr": "BKN025",
      "type": "BKN"
    }
  ],
  "density_altitude": -202,
  "dewpoint": {
    "repr": "08",
    "spoken": "eight",
    "value": 8
  },
  "flight_rules": "MVFR",
  "meta": {
    "stations_updated": "2024-12-02",
    "timestamp": "2024-12-26T17:04:28.362096Z"
  },
  "other": [],
  "pressure_altitude": 631,
  "raw": "KORS 261655Z AUTO 18013G19KT 3SM -RA BR FEW014 SCT019 BKN025 08/08 A2932 RMK AO2 P0009",
  "relative_humidity": 1,
  "remarks": "RMK AO2 P0009",
  "remarks_info": {
    "codes": [
      {
        "repr": "AO2",
        "value": "Automated with precipitation sensor"
      }
    ],
    "dewpoint_decimal": null,
    "maximum_temperature_24": null,
    "maximum_temperature_6": null,
    "minimum_temperature_24": null,
    "minimum_temperature_6": null,
    "precip_24_hours": null,
    "precip_36_hours": null,
    "precip_hourly": {
      "repr": "P0009",
      "spoken": "zero point zero nine",
      "value": 0.09
    },
    "pressure_tendency": null,
    "sea_level_pressure": null,
    "snow_depth": null,
    "sunshine_minutes": null,
    "temperature_decimal": null
  },
  "runway_visibility": [],
  "sanitized": "KORS 261655Z 18013G19KT 3SM -RA BR FEW014 SCT019 BKN025 08/08 A2932 RMK AO2 P0009",
  "station": "KORS",
  "temperature": {
    "repr": "08",
    "spoken": "eight",
    "value": 8
  },
  "time": {
    "dt": "2024-12-26T16:55:00Z",
    "repr": "261655Z"
  },
  "units": {
    "accumulation": "in",
    "altimeter": "inHg",
    "altitude": "ft",
    "temperature": "C",
    "visibility": "sm",
    "wind_speed": "kt"
  },
  "visibility": {
    "repr": "3",
    "spoken": "three",
    "value": 3
  },
  "wind_direction": {
    "repr": "180",
    "spoken": "one eight zero",
    "value": 180
  },
  "wind_gust": {
    "repr": "19",
    "spoken": "one nine",
    "value": 19
  },
  "wind_speed": {
    "repr": "13",
    "spoken": "one three",
    "value": 13
  },
  "wind_variable_direction": [],
  "wx_codes": [
    {
      "repr": "-RA",
      "value": "Light Rain"
    },
    {
      "repr": "BR",
      "value": "Mist"
    }
  ]
}
