{
  "altimeter": {
    "repr": "A3003",
    "spoken": "three zero point zero three",
    "value": 30.03
  },
  "clouds": [],
  "density_altitude": -2592,
  "dewpoint": {
    "repr": "M15",
    "spoken": "minus one five",
    "value": -15
  },
  "flight_rules": "VFR",
  "meta": {
    "cache-timestamp": "2024-01-14T10:28:05.029000Z",
    "stations_updated": "2023-10-28",
    "timestamp": "2024-01-14T10:28:30.872537Z"
  },
  "other": [],
  "pressure_altitude": -79,
  "raw": "KORS 140955Z AUTO VRB03KT 10SM CLR M06/M15 A3003 RMK AO2",
  "relative_humidity": 0.48989889969257505,
  "remarks": "RMK AO2",
  "remarks_info": {
    "codes": [
      {
        "repr": "AO2",
        "value": "Automated with precipitation sensor"
      }
    ],
    "dewpoint_decimal": null,
    "maximum_temperature_24": null,
    "maximum_temperature_6": null,
    "minimum_temperature_24": null,
    "minimum_temperature_6": null,
    "precip_24_hours": null,
    "precip_36_hours": null,
    "precip_hourly": null,
    "pressure_tendency": null,
    "sea_level_pressure": null,
    "snow_depth": null,
    "sunshine_minutes": null,
    "temperature_decimal": null
  },
  "runway_visibility": [],
  "sanitized": "KORS 140955Z VRB03KT 10SM M06/M15 A3003 RMK AO2",
  "station": "KORS",
  "temperature": {
    "repr": "M06",
    "spoken": "minus six",
    "value": -6
  },
  "time": {
    "dt": "2024-01-14T09:55:00Z",
    "repr": "140955Z"
  },
  "units": {
    "accumulation": "in",
    "altimeter": "inHg",
    "altitude": "ft",
    "temperature": "C",
    "visibility": "sm",
    "wind_speed": "kt"
  },
  "visibility": {
    "repr": "10",
    "spoken": "one zero",
    "value": 10
  },
  "wind_direction": {
    "repr": "VRB",
    "spoken": "variable",
    "value": null
  },
  "wind_gust": null,
  "wind_speed": {
    "repr": "03",
    "spoken": "three",
    "value": 3
  },
  "wind_variable_direction": [],
  "wx_codes": []
}
