{
  "meta": {
    "timestamp": "2023-06-16T03:03:14.251036Z",
    "stations_updated": "2023-06-06"
  },
  "altimeter": {
    "repr": "A3015",
    "value": 30.15,
    "spoken": "three zero point one five"
  },
  "clouds": [
    {
      "repr": "SCT070",
      "type": "SCT",
      "altitude": 70,
      "modifier": null
    },
    {
      "repr": "OVC080",
      "type": "OVC",
      "altitude": 80,
      "modifier": null
    }
  ],
  "flight_rules": "VFR",
  "other": [],
  "visibility": {
    "repr": "10",
    "value": 10,
    "spoken": "one zero"
  },
  "wind_direction": {
    "repr": "160",
    "value": 160,
    "spoken": "one six zero"
  },
  "wind_gust": null,
  "wind_speed": {
    "repr": "10",
    "value": 10,
    "spoken": "one zero"
  },
  "wx_codes": [],
  "raw": "KORS 160255Z AUTO 16010KT 10SM SCT070 OVC080 18/06 A3015 RMK AO2",
  "sanitized": "KORS 160255Z 16010KT 10SM SCT070 OVC080 18/06 A3015 RMK AO2",
  "station": "KORS",
  "time": {
    "repr": "160255Z",
    "dt": "2023-06-16T02:55:00Z"
  },
  "remarks": "RMK AO2",
  "dewpoint": {
    "repr": "06",
    "value": 6,
    "spoken": "six"
  },
  "relative_humidity": 0.45322763633169727,
  "remarks_info": {
    "maximum_temperature_6": null,
    "minimum_temperature_6": null,
    "pressure_tendency": null,
    "precip_36_hours": null,
    "precip_24_hours": null,
    "sunshine_minutes": null,
    "codes": [
      {
        "repr": "AO2",
        "value": "Automated with precipitation sensor"
      }
    ],
    "dewpoint_decimal": null,
    "maximum_temperature_24": null,
    "minimum_temperature_24": null,
    "precip_hourly": null,
    "sea_level_pressure": null,
    "snow_depth": null,
    "temperature_decimal": null
  },
  "runway_visibility": [],
  "temperature": {
    "repr": "18",
    "value": 18,
    "spoken": "one eight"
  },
  "wind_variable_direction": [],
  "density_altitude": 168,
  "pressure_altitude": -199,
  "units": {
    "accumulation": "in",
    "altimeter": "inHg",
    "altitude": "ft",
    "temperature": "C",
    "visibility": "sm",
    "wind_speed": "kt"
  }
}
