{
  "altimeter": {
    "repr": "A3042",
    "spoken": "three zero point four two",
    "value": 30.42
  },
  "clouds": [],
  "density_altitude": -2262,
  "dewpoint": {
    "repr": "M10",
    "spoken": "minus one zero",
    "value": -10
  },
  "flight_rules": "VFR",
  "meta": {
    "cache-timestamp": "2024-01-15T20:40:03.668000Z",
    "stations_updated": "2023-10-28",
    "timestamp": "2024-01-15T20:40:29.184139Z"
  },
  "other": [],
  "pressure_altitude": -469,
  "raw": "KORS 152015Z AUTO VRB04G10KT 10SM CLR M00/M10 A3042 RMK AO2",
  "relative_humidity": 0.46919107599000004,
  "remarks": "RMK AO2",
  "remarks_info": {
    "codes": [
      {
        "repr": "AO2",
        "value": "Automated with precipitation sensor"
      }
    ],
    "dewpoint_decimal": null,
    "maximum_temperature_24": null,
    "maximum_temperature_6": null,
    "minimum_temperature_24": null,
    "minimum_temperature_6": null,
    "precip_24_hours": null,
    "precip_36_hours": null,
    "precip_hourly": null,
    "pressure_tendency": null,
    "sea_level_pressure": null,
    "snow_depth": null,
    "sunshine_minutes": null,
    "temperature_decimal": null
  },
  "runway_visibility": [],
  "sanitized": "KORS 152015Z VRB04G10KT 10SM M00/M10 A3042 RMK AO2",
  "station": "KORS",
  "temperature": {
    "repr": "M00",
    "spoken": "zero",
    "value": 0
  },
  "time": {
    "dt": "2024-01-15T20:15:00Z",
    "repr": "152015Z"
  },
  "units": {
    "accumulation": "in",
    "altimeter": "inHg",
    "altitude": "ft",
    "temperature": "C",
    "visibility": "sm",
    "wind_speed": "kt"
  },
  "visibility": {
    "repr": "10",
    "spoken": "one zero",
    "value": 10
  },
  "wind_direction": {
    "repr": "VRB",
    "spoken": "variable",
    "value": null
  },
  "wind_gust": {
    "repr": "10",
    "spoken": "one zero",
    "value": 10
  },
  "wind_speed": {
    "repr": "04",
    "spoken": "four",
    "value": 4
  },
  "wind_variable_direction": [],
  "wx_codes": []
}
