{
  "meta": {
    "timestamp": "2023-10-14T20:01:37.161170Z",
    "stations_updated": "2023-10-01"
  },
  "altimeter": {
    "repr": "A2998",
    "value": 29.98,
    "spoken": "two nine point nine eight"
  },
  "clouds": [],
  "flight_rules": "VFR",
  "other": [],
  "visibility": {
    "repr": "10",
    "value": 10,
    "spoken": "one zero"
  },
  "wind_direction": {
    "repr": "000",
    "value": 0,
    "spoken": "zero zero zero"
  },
  "wind_gust": null,
  "wind_speed": {
    "repr": "00",
    "value": 0,
    "spoken": "zero"
  },
  "wx_codes": [],
  "raw": "KORS 141955Z AUTO 00000KT 10SM CLR 17/M26 A2998 RMK AO2",
  "sanitized": "KORS 141955Z 00000KT 10SM 17/M26 A2998 RMK AO2",
  "station": "KORS",
  "time": {
    "repr": "141955Z",
    "dt": "2023-10-14T19:55:00Z"
  },
  "remarks": "RMK AO2",
  "dewpoint": {
    "repr": "M26",
    "value": -26,
    "spoken": "minus two six"
  },
  "relative_humidity": 0.038181489040147655,
  "remarks_info": {
    "maximum_temperature_6": null,
    "minimum_temperature_6": null,
    "pressure_tendency": null,
    "precip_36_hours": null,
    "precip_24_hours": null,
    "sunshine_minutes": null,
    "codes": [
      {
        "repr": "AO2",
        "value": "Automated with precipitation sensor"
      }
    ],
    "dewpoint_decimal": null,
    "maximum_temperature_24": null,
    "minimum_temperature_24": null,
    "precip_hourly": null,
    "sea_level_pressure": null,
    "snow_depth": null,
    "temperature_decimal": null
  },
  "runway_visibility": [],
  "temperature": {
    "repr": "17",
    "value": 17,
    "spoken": "one seven"
  },
  "wind_variable_direction": [],
  "density_altitude": 218,
  "pressure_altitude": -29,
  "units": {
    "accumulation": "in",
    "altimeter": "inHg",
    "altitude": "ft",
    "temperature": "C",
    "visibility": "sm",
    "wind_speed": "kt"
  }
}
