{
  "meta": {
    "timestamp": "2022-12-10T12:07:55.513031Z",
    "stations_updated": "2022-09-05"
  },
  "altimeter": {
    "repr": "A2922",
    "value": 29.22,
    "spoken": "two nine point two two"
  },
  "clouds": [
    {
      "repr": "FEW031",
      "type": "FEW",
      "altitude": 31,
      "modifier": null
    },
    {
      "repr": "BKN055",
      "type": "BKN",
      "altitude": 55,
      "modifier": null
    },
    {
      "repr": "OVC070",
      "type": "OVC",
      "altitude": 70,
      "modifier": null
    }
  ],
  "flight_rules": "VFR",
  "other": [],
  "visibility": {
    "repr": "10",
    "value": 10,
    "spoken": "one zero"
  },
  "wind_direction": {
    "repr": "160",
    "value": 160,
    "spoken": "one six zero"
  },
  "wind_gust": {
    "repr": "24",
    "value": 24,
    "spoken": "two four"
  },
  "wind_speed": {
    "repr": "13",
    "value": 13,
    "spoken": "one three"
  },
  "wx_codes": [],
  "raw": "KORS 101155Z AUTO 16013G24KT 120V200 10SM FEW031 BKN055 OVC070 09/04 A2922 RMK AO2",
  "sanitized": "KORS 101155Z 16013G24KT 120V200 10SM FEW031 BKN055 OVC070 09/04 A2922 RMK AO2",
  "station": "KORS",
  "time": {
    "repr": "101155Z",
    "dt": "2022-12-10T11:55:00Z"
  },
  "remarks": "RMK AO2",
  "dewpoint": {
    "repr": "04",
    "value": 4,
    "spoken": "four"
  },
  "relative_humidity": 0.7087545355451176,
  "remarks_info": {
    "maximum_temperature_6": null,
    "minimum_temperature_6": null,
    "pressure_tendency": null,
    "precip_36_hours": null,
    "precip_24_hours": null,
    "sunshine_minutes": null,
    "codes": [
      {
        "repr": "AO2",
        "value": "Automated with precipitation sensor"
      }
    ],
    "dewpoint_decimal": null,
    "maximum_temperature_24": null,
    "minimum_temperature_24": null,
    "precip_hourly": null,
    "sea_level_pressure": null,
    "snow_depth": null,
    "temperature_decimal": null
  },
  "runway_visibility": [],
  "temperature": {
    "repr": "09",
    "value": 9,
    "spoken": "nine"
  },
  "wind_variable_direction": [
    {
      "repr": "120",
      "value": 120,
      "spoken": "one two zero"
    },
    {
      "repr": "200",
      "value": 200,
      "spoken": "two zero zero"
    }
  ],
  "density_altitude": 18,
  "pressure_altitude": 731,
  "units": {
    "accumulation": "in",
    "altimeter": "inHg",
    "altitude": "ft",
    "temperature": "C",
    "visibility": "sm",
    "wind_speed": "kt"
  }
}
