{
  "meta": {
    "timestamp": "2023-01-04T08:07:02.609698Z",
    "stations_updated": "2022-12-27",
    "cache-timestamp": "2023-01-04T08:06:05.337000Z"
  },
  "altimeter": {
    "repr": "A2990",
    "value": 29.9,
    "spoken": "two nine point nine zero"
  },
  "clouds": [
    {
      "repr": "FEW050",
      "type": "FEW",
      "altitude": 50,
      "modifier": null
    },
    {
      "repr": "BKN060",
      "type": "BKN",
      "altitude": 60,
      "modifier": null
    },
    {
      "repr": "OVC080",
      "type": "OVC",
      "altitude": 80,
      "modifier": null
    }
  ],
  "flight_rules": "VFR",
  "other": [],
  "visibility": {
    "repr": "10",
    "value": 10,
    "spoken": "one zero"
  },
  "wind_direction": {
    "repr": "080",
    "value": 80,
    "spoken": "zero eight zero"
  },
  "wind_gust": {
    "repr": "10",
    "value": 10,
    "spoken": "one zero"
  },
  "wind_speed": {
    "repr": "05",
    "value": 5,
    "spoken": "five"
  },
  "wx_codes": [],
  "raw": "KORS 040755Z AUTO 08005G10KT 10SM FEW050 BKN060 OVC080 05/04 A2990 RMK AO2",
  "sanitized": "KORS 040755Z 08005G10KT 10SM FEW050 BKN060 OVC080 05/04 A2990 RMK AO2",
  "station": "KORS",
  "time": {
    "repr": "040755Z",
    "dt": "2023-01-04T07:55:00Z"
  },
  "remarks": "RMK AO2",
  "dewpoint": {
    "repr": "04",
    "value": 4,
    "spoken": "four"
  },
  "relative_humidity": 0.9324335019213874,
  "remarks_info": {
    "maximum_temperature_6": null,
    "minimum_temperature_6": null,
    "pressure_tendency": null,
    "precip_36_hours": null,
    "precip_24_hours": null,
    "sunshine_minutes": null,
    "codes": [
      {
        "repr": "AO2",
        "value": "Automated with precipitation sensor"
      }
    ],
    "dewpoint_decimal": null,
    "maximum_temperature_24": null,
    "minimum_temperature_24": null,
    "precip_hourly": null,
    "sea_level_pressure": null,
    "snow_depth": null,
    "temperature_decimal": null
  },
  "runway_visibility": [],
  "temperature": {
    "repr": "05",
    "value": 5,
    "spoken": "five"
  },
  "wind_variable_direction": [],
  "density_altitude": -1142,
  "pressure_altitude": 51,
  "units": {
    "accumulation": "in",
    "altimeter": "inHg",
    "altitude": "ft",
    "temperature": "C",
    "visibility": "sm",
    "wind_speed": "kt"
  }
}
