{
  "meta": {
    "timestamp": "2022-12-29T08:06:42.027029Z",
    "stations_updated": "2022-12-27",
    "cache-timestamp": "2022-12-29T08:06:08.507000Z"
  },
  "altimeter": {
    "repr": "A2975",
    "value": 29.75,
    "spoken": "two nine point seven five"
  },
  "clouds": [
    {
      "repr": "FEW039",
      "type": "FEW",
      "altitude": 39,
      "modifier": null
    },
    {
      "repr": "SCT046",
      "type": "SCT",
      "altitude": 46,
      "modifier": null
    },
    {
      "repr": "OVC055",
      "type": "OVC",
      "altitude": 55,
      "modifier": null
    }
  ],
  "flight_rules": "VFR",
  "other": [],
  "visibility": {
    "repr": "10",
    "value": 10,
    "spoken": "one zero"
  },
  "wind_direction": {
    "repr": "000",
    "value": 0,
    "spoken": "zero zero zero"
  },
  "wind_gust": null,
  "wind_speed": {
    "repr": "00",
    "value": 0,
    "spoken": "zero"
  },
  "wx_codes": [],
  "raw": "KORS 290755Z AUTO 00000KT 10SM FEW039 SCT046 OVC055 06/05 A2975 RMK AO2",
  "sanitized": "KORS 290755Z 00000KT 10SM FEW039 SCT046 OVC055 06/05 A2975 RMK AO2",
  "station": "KORS",
  "time": {
    "repr": "290755Z",
    "dt": "2022-12-29T07:55:00Z"
  },
  "remarks": "RMK AO2",
  "dewpoint": {
    "repr": "05",
    "value": 5,
    "spoken": "five"
  },
  "relative_humidity": 0.9329565396428716,
  "remarks_info": {
    "maximum_temperature_6": null,
    "minimum_temperature_6": null,
    "pressure_tendency": null,
    "precip_36_hours": null,
    "precip_24_hours": null,
    "sunshine_minutes": null,
    "codes": [
      {
        "repr": "AO2",
        "value": "Automated with precipitation sensor"
      }
    ],
    "dewpoint_decimal": null,
    "maximum_temperature_24": null,
    "minimum_temperature_24": null,
    "precip_hourly": null,
    "sea_level_pressure": null,
    "snow_depth": null,
    "temperature_decimal": null
  },
  "runway_visibility": [],
  "temperature": {
    "repr": "06",
    "value": 6,
    "spoken": "six"
  },
  "wind_variable_direction": [],
  "density_altitude": -872,
  "pressure_altitude": 201,
  "units": {
    "accumulation": "in",
    "altimeter": "inHg",
    "altitude": "ft",
    "temperature": "C",
    "visibility": "sm",
    "wind_speed": "kt"
  }
}
