{
  "altimeter": {
    "repr": "A2954",
    "spoken": "two nine point five four",
    "value": 29.54
  },
  "clouds": [
    {
      "altitude": 90,
      "modifier": null,
      "repr": "BKN090",
      "type": "BKN"
    }
  ],
  "density_altitude": -542,
  "dewpoint": {
    "repr": "06",
    "spoken": "six",
    "value": 6
  },
  "flight_rules": "VFR",
  "meta": {
    "stations_updated": "2024-10-29",
    "timestamp": "2024-11-17T23:06:47.049145Z"
  },
  "other": [],
  "pressure_altitude": 411,
  "raw": "KORS 172255Z AUTO 18006KT 10SM BKN090 07/06 A2954 RMK AO2",
  "relative_humidity": 0.9334736015813517,
  "remarks": "RMK AO2",
  "remarks_info": {
    "codes": [
      {
        "repr": "AO2",
        "value": "Automated with precipitation sensor"
      }
    ],
    "dewpoint_decimal": null,
    "maximum_temperature_24": null,
    "maximum_temperature_6": null,
    "minimum_temperature_24": null,
    "minimum_temperature_6": null,
    "precip_24_hours": null,
    "precip_36_hours": null,
    "precip_hourly": null,
    "pressure_tendency": null,
    "sea_level_pressure": null,
    "snow_depth": null,
    "sunshine_minutes": null,
    "temperature_decimal": null
  },
  "runway_visibility": [],
  "sanitized": "KORS 172255Z 18006KT 10SM BKN090 07/06 A2954 RMK AO2",
  "station": "KORS",
  "temperature": {
    "repr": "07",
    "spoken": "seven",
    "value": 7
  },
  "time": {
    "dt": "2024-11-17T22:55:00Z",
    "repr": "172255Z"
  },
  "units": {
    "accumulation": "in",
    "altimeter": "inHg",
    "altitude": "ft",
    "temperature": "C",
    "visibility": "sm",
    "wind_speed": "kt"
  },
  "visibility": {
    "repr": "10",
    "spoken": "one zero",
    "value": 10
  },
  "wind_direction": {
    "repr": "180",
    "spoken": "one eight zero",
    "value": 180
  },
  "wind_gust": null,
  "wind_speed": {
    "repr": "06",
    "spoken": "six",
    "value": 6
  },
  "wind_variable_direction": [],
  "wx_codes": []
}
