{
  "meta": {
    "timestamp": "2022-12-22T13:12:34.862365Z",
    "stations_updated": "2022-09-05"
  },
  "altimeter": {
    "repr": "A3057",
    "value": 30.57,
    "spoken": "three zero point five seven"
  },
  "clouds": [],
  "flight_rules": "VFR",
  "other": [],
  "visibility": {
    "repr": "10",
    "value": 10,
    "spoken": "one zero"
  },
  "wind_direction": {
    "repr": "050",
    "value": 50,
    "spoken": "zero five zero"
  },
  "wind_gust": {
    "repr": "17",
    "value": 17,
    "spoken": "one seven"
  },
  "wind_speed": {
    "repr": "09",
    "value": 9,
    "spoken": "nine"
  },
  "wx_codes": [
    {
      "repr": "-SN",
      "value": "Light Snow"
    }
  ],
  "raw": "KORS 221255Z AUTO 05009G17KT 330V080 10SM -SN CLR M09/M16 A3057 RMK AO2",
  "sanitized": "KORS 221255Z 05009G17KT 330V080 10SM -SN M09/M16 A3057 RMK AO2",
  "station": "KORS",
  "time": {
    "repr": "221255Z",
    "dt": "2022-12-22T12:55:00Z"
  },
  "remarks": "RMK AO2",
  "dewpoint": {
    "repr": "M16",
    "value": -16,
    "spoken": "minus one six"
  },
  "relative_humidity": 0.5686108696551604,
  "remarks_info": {
    "maximum_temperature_6": null,
    "minimum_temperature_6": null,
    "pressure_tendency": null,
    "precip_36_hours": null,
    "precip_24_hours": null,
    "sunshine_minutes": null,
    "codes": [
      {
        "repr": "AO2",
        "value": "Automated with precipitation sensor"
      }
    ],
    "dewpoint_decimal": null,
    "maximum_temperature_24": null,
    "minimum_temperature_24": null,
    "precip_hourly": null,
    "sea_level_pressure": null,
    "snow_depth": null,
    "temperature_decimal": null
  },
  "runway_visibility": [],
  "temperature": {
    "repr": "M09",
    "value": -9,
    "spoken": "minus nine"
  },
  "wind_variable_direction": [
    {
      "repr": "330",
      "value": 330,
      "spoken": "three three zero"
    },
    {
      "repr": "080",
      "value": 80,
      "spoken": "zero eight zero"
    }
  ],
  "density_altitude": -3492,
  "pressure_altitude": -619,
  "units": {
    "accumulation": "in",
    "altimeter": "inHg",
    "altitude": "ft",
    "temperature": "C",
    "visibility": "sm",
    "wind_speed": "kt"
  }
}
