{
  "meta": {
    "timestamp": "2023-04-05T18:31:45.024590Z",
    "stations_updated": "2023-03-11"
  },
  "altimeter": {
    "repr": "A3016",
    "value": 30.16,
    "spoken": "three zero point one six"
  },
  "clouds": [],
  "flight_rules": "VFR",
  "other": [],
  "visibility": {
    "repr": "10",
    "value": 10,
    "spoken": "one zero"
  },
  "wind_direction": {
    "repr": "170",
    "value": 170,
    "spoken": "one seven zero"
  },
  "wind_gust": null,
  "wind_speed": {
    "repr": "07",
    "value": 7,
    "spoken": "seven"
  },
  "wx_codes": [],
  "raw": "KORS 051815Z AUTO 17007KT 120V210 10SM CLR 09/03 A3016 RMK AO2",
  "sanitized": "KORS 051815Z 17007KT 120V210 10SM 09/03 A3016 RMK AO2",
  "station": "KORS",
  "time": {
    "repr": "051815Z",
    "dt": "2023-04-05T18:15:00Z"
  },
  "remarks": "RMK AO2",
  "dewpoint": {
    "repr": "03",
    "value": 3,
    "spoken": "three"
  },
  "relative_humidity": 0.6604914682317473,
  "remarks_info": {
    "maximum_temperature_6": null,
    "minimum_temperature_6": null,
    "pressure_tendency": null,
    "precip_36_hours": null,
    "precip_24_hours": null,
    "sunshine_minutes": null,
    "codes": [
      {
        "repr": "AO2",
        "value": "Automated with precipitation sensor"
      }
    ],
    "dewpoint_decimal": null,
    "maximum_temperature_24": null,
    "minimum_temperature_24": null,
    "precip_hourly": null,
    "sea_level_pressure": null,
    "snow_depth": null,
    "temperature_decimal": null
  },
  "runway_visibility": [],
  "temperature": {
    "repr": "09",
    "value": 9,
    "spoken": "nine"
  },
  "wind_variable_direction": [
    {
      "repr": "120",
      "value": 120,
      "spoken": "one two zero"
    },
    {
      "repr": "210",
      "value": 210,
      "spoken": "two one zero"
    }
  ],
  "density_altitude": -922,
  "pressure_altitude": -209,
  "units": {
    "accumulation": "in",
    "altimeter": "inHg",
    "altitude": "ft",
    "temperature": "C",
    "visibility": "sm",
    "wind_speed": "kt"
  }
}
