{
  "altimeter": {
    "repr": "A3019",
    "spoken": "three zero point one nine",
    "value": 30.19
  },
  "clouds": [
    {
      "altitude": 29,
      "modifier": null,
      "repr": "SCT029",
      "type": "SCT"
    }
  ],
  "density_altitude": -2152,
  "dewpoint": {
    "repr": "M03",
    "spoken": "minus three",
    "value": -3
  },
  "flight_rules": "IFR",
  "meta": {
    "cache-timestamp": "2024-01-18T20:02:00.570000Z",
    "stations_updated": "2023-10-28",
    "timestamp": "2024-01-18T20:02:54.697120Z"
  },
  "other": [],
  "pressure_altitude": -239,
  "raw": "KORS 181935Z AUTO VRB03G13KT 1 1/4SM BR SCT029 M01/M03 A3019 RMK AO2 PWINO",
  "relative_humidity": 0.8628194506930432,
  "remarks": "RMK AO2 PWINO",
  "remarks_info": {
    "codes": [
      {
        "repr": "AO2",
        "value": "Automated with precipitation sensor"
      },
      {
        "repr": "PWINO",
        "value": "Precipitation identifier information not available"
      }
    ],
    "dewpoint_decimal": null,
    "maximum_temperature_24": null,
    "maximum_temperature_6": null,
    "minimum_temperature_24": null,
    "minimum_temperature_6": null,
    "precip_24_hours": null,
    "precip_36_hours": null,
    "precip_hourly": null,
    "pressure_tendency": null,
    "sea_level_pressure": null,
    "snow_depth": null,
    "sunshine_minutes": null,
    "temperature_decimal": null
  },
  "runway_visibility": [],
  "sanitized": "KORS 181935Z VRB03G13KT 1 1/4SM BR SCT029 M01/M03 A3019 RMK AO2 PWINO",
  "station": "KORS",
  "temperature": {
    "repr": "M01",
    "spoken": "minus one",
    "value": -1
  },
  "time": {
    "dt": "2024-01-18T19:35:00Z",
    "repr": "181935Z"
  },
  "units": {
    "accumulation": "in",
    "altimeter": "inHg",
    "altitude": "ft",
    "temperature": "C",
    "visibility": "sm",
    "wind_speed": "kt"
  },
  "visibility": {
    "denominator": 4,
    "normalized": "1 1/4",
    "numerator": 5,
    "repr": "5/4",
    "spoken": "one and one quarter",
    "value": 1.25
  },
  "wind_direction": {
    "repr": "VRB",
    "spoken": "variable",
    "value": null
  },
  "wind_gust": {
    "repr": "13",
    "spoken": "one three",
    "value": 13
  },
  "wind_speed": {
    "repr": "03",
    "spoken": "three",
    "value": 3
  },
  "wind_variable_direction": [],
  "wx_codes": [
    {
      "repr": "BR",
      "value": "Mist"
    }
  ]
}
