{
  "altimeter": {
    "repr": "A2980",
    "spoken": "two nine point eight zero",
    "value": 29.8
  },
  "clouds": [
    {
      "altitude": 31,
      "modifier": null,
      "repr": "FEW031",
      "type": "FEW"
    },
    {
      "altitude": 42,
      "modifier": null,
      "repr": "BKN042",
      "type": "BKN"
    },
    {
      "altitude": 48,
      "modifier": null,
      "repr": "OVC048",
      "type": "OVC"
    }
  ],
  "density_altitude": -802,
  "dewpoint": {
    "repr": "06",
    "spoken": "six",
    "value": 6
  },
  "flight_rules": "VFR",
  "meta": {
    "stations_updated": "2024-10-29",
    "timestamp": "2024-11-24T14:02:51.463496Z"
  },
  "other": [],
  "pressure_altitude": 151,
  "raw": "KORS 241355Z AUTO 00000KT 8SM -RA FEW031 BKN042 OVC048 07/06 A2980 RMK AO2 P0001",
  "relative_humidity": 0.9334736015813517,
  "remarks": "RMK AO2 P0001",
  "remarks_info": {
    "codes": [
      {
        "repr": "AO2",
        "value": "Automated with precipitation sensor"
      }
    ],
    "dewpoint_decimal": null,
    "maximum_temperature_24": null,
    "maximum_temperature_6": null,
    "minimum_temperature_24": null,
    "minimum_temperature_6": null,
    "precip_24_hours": null,
    "precip_36_hours": null,
    "precip_hourly": {
      "repr": "P0001",
      "spoken": "zero point zero one",
      "value": 0.01
    },
    "pressure_tendency": null,
    "sea_level_pressure": null,
    "snow_depth": null,
    "sunshine_minutes": null,
    "temperature_decimal": null
  },
  "runway_visibility": [],
  "sanitized": "KORS 241355Z 00000KT 8SM -RA FEW031 BKN042 OVC048 07/06 A2980 RMK AO2 P0001",
  "station": "KORS",
  "temperature": {
    "repr": "07",
    "spoken": "seven",
    "value": 7
  },
  "time": {
    "dt": "2024-11-24T13:55:00Z",
    "repr": "241355Z"
  },
  "units": {
    "accumulation": "in",
    "altimeter": "inHg",
    "altitude": "ft",
    "temperature": "C",
    "visibility": "sm",
    "wind_speed": "kt"
  },
  "visibility": {
    "repr": "8",
    "spoken": "eight",
    "value": 8
  },
  "wind_direction": {
    "repr": "000",
    "spoken": "zero zero zero",
    "value": 0
  },
  "wind_gust": null,
  "wind_speed": {
    "repr": "00",
    "spoken": "zero",
    "value": 0
  },
  "wind_variable_direction": [],
  "wx_codes": [
    {
      "repr": "-RA",
      "value": "Light Rain"
    }
  ]
}
