{
  "meta": {
    "timestamp": "2022-11-17T12:58:47.481993Z",
    "stations_updated": "2022-09-05"
  },
  "altimeter": {
    "repr": "A3043",
    "value": 30.43,
    "spoken": "three zero point four three"
  },
  "clouds": [],
  "flight_rules": "VFR",
  "other": [],
  "visibility": {
    "repr": "10",
    "value": 10,
    "spoken": "one zero"
  },
  "wind_direction": {
    "repr": "030",
    "value": 30,
    "spoken": "zero three zero"
  },
  "wind_gust": {
    "repr": "18",
    "value": 18,
    "spoken": "one eight"
  },
  "wind_speed": {
    "repr": "11",
    "value": 11,
    "spoken": "one one"
  },
  "wx_codes": [],
  "raw": "KORS 171255Z AUTO 03011G18KT 360V060 10SM CLR 10/M03 A3043 RMK AO2",
  "sanitized": "KORS 171255Z 03011G18KT 360V060 10SM 10/M03 A3043 RMK AO2",
  "station": "KORS",
  "time": {
    "repr": "171255Z",
    "dt": "2022-11-17T12:55:00Z"
  },
  "remarks": "RMK AO2",
  "dewpoint": {
    "repr": "M03",
    "value": -3,
    "spoken": "minus three"
  },
  "relative_humidity": 0.3995336765693784,
  "remarks_info": {
    "maximum_temperature_6": null,
    "minimum_temperature_6": null,
    "pressure_tendency": null,
    "precip_36_hours": null,
    "precip_24_hours": null,
    "sunshine_minutes": null,
    "codes": [
      {
        "repr": "AO2",
        "value": "Automated with precipitation sensor"
      }
    ],
    "dewpoint_decimal": null,
    "maximum_temperature_24": null,
    "minimum_temperature_24": null,
    "precip_hourly": null,
    "sea_level_pressure": null,
    "snow_depth": null,
    "temperature_decimal": null
  },
  "runway_visibility": [],
  "temperature": {
    "repr": "10",
    "value": 10,
    "spoken": "one zero"
  },
  "wind_variable_direction": [
    {
      "repr": "360",
      "value": 360,
      "spoken": "three six zero"
    },
    {
      "repr": "060",
      "value": 60,
      "spoken": "zero six zero"
    }
  ],
  "density_altitude": -1072,
  "pressure_altitude": -479,
  "units": {
    "accumulation": "in",
    "altimeter": "inHg",
    "altitude": "ft",
    "temperature": "C",
    "visibility": "sm",
    "wind_speed": "kt"
  }
}
