{
  "meta": {
    "timestamp": "2022-12-25T07:40:33.964952Z",
    "stations_updated": "2022-09-05"
  },
  "altimeter": {
    "repr": "A3019",
    "value": 30.19,
    "spoken": "three zero point one nine"
  },
  "clouds": [
    {
      "repr": "FEW013",
      "type": "FEW",
      "altitude": 13,
      "modifier": null
    },
    {
      "repr": "FEW026",
      "type": "FEW",
      "altitude": 26,
      "modifier": null
    },
    {
      "repr": "SCT038",
      "type": "SCT",
      "altitude": 38,
      "modifier": null
    }
  ],
  "flight_rules": "VFR",
  "other": [],
  "visibility": {
    "repr": "9",
    "value": 9,
    "spoken": "nine"
  },
  "wind_direction": {
    "repr": "190",
    "value": 190,
    "spoken": "one nine zero"
  },
  "wind_gust": null,
  "wind_speed": {
    "repr": "07",
    "value": 7,
    "spoken": "seven"
  },
  "wx_codes": [],
  "raw": "KORS 250735Z AUTO 19007KT 9SM FEW013 FEW026 SCT038 10/10 A3019 RMK AO2",
  "sanitized": "KORS 250735Z 19007KT 9SM FEW013 FEW026 SCT038 10/10 A3019 RMK AO2",
  "station": "KORS",
  "time": {
    "repr": "250735Z",
    "dt": "2022-12-25T07:35:00Z"
  },
  "remarks": "RMK AO2",
  "dewpoint": {
    "repr": "10",
    "value": 10,
    "spoken": "one zero"
  },
  "relative_humidity": 1,
  "remarks_info": {
    "maximum_temperature_6": null,
    "minimum_temperature_6": null,
    "pressure_tendency": null,
    "precip_36_hours": null,
    "precip_24_hours": null,
    "sunshine_minutes": null,
    "codes": [
      {
        "repr": "AO2",
        "value": "Automated with precipitation sensor"
      }
    ],
    "dewpoint_decimal": null,
    "maximum_temperature_24": null,
    "minimum_temperature_24": null,
    "precip_hourly": null,
    "sea_level_pressure": null,
    "snow_depth": null,
    "temperature_decimal": null
  },
  "runway_visibility": [],
  "temperature": {
    "repr": "10",
    "value": 10,
    "spoken": "one zero"
  },
  "wind_variable_direction": [],
  "density_altitude": -832,
  "pressure_altitude": -239,
  "units": {
    "accumulation": "in",
    "altimeter": "inHg",
    "altitude": "ft",
    "temperature": "C",
    "visibility": "sm",
    "wind_speed": "kt"
  }
}
