{
  "meta": {
    "timestamp": "2023-01-18T16:36:36.472212Z",
    "stations_updated": "2023-01-16",
    "cache-timestamp": "2023-01-18T16:36:06.369000Z"
  },
  "altimeter": {
    "repr": "A2970",
    "value": 29.7,
    "spoken": "two nine point seven zero"
  },
  "clouds": [
    {
      "repr": "BKN023",
      "type": "BKN",
      "altitude": 23,
      "modifier": null
    },
    {
      "repr": "OVC029",
      "type": "OVC",
      "altitude": 29,
      "modifier": null
    }
  ],
  "flight_rules": "MVFR",
  "other": [],
  "visibility": {
    "repr": "6",
    "value": 6,
    "spoken": "six"
  },
  "wind_direction": {
    "repr": "170",
    "value": 170,
    "spoken": "one seven zero"
  },
  "wind_gust": {
    "repr": "26",
    "value": 26,
    "spoken": "two six"
  },
  "wind_speed": {
    "repr": "13",
    "value": 13,
    "spoken": "one three"
  },
  "wx_codes": [
    {
      "repr": "-RA",
      "value": "Light Rain"
    },
    {
      "repr": "BR",
      "value": "Mist"
    }
  ],
  "raw": "KORS 181615Z AUTO 17013G26KT 140V200 6SM -RA BR BKN023 OVC029 08/07 A2970 RMK AO2",
  "sanitized": "KORS 181615Z 17013G26KT 140V200 6SM -RA BR BKN023 OVC029 08/07 A2970 RMK AO2",
  "station": "KORS",
  "time": {
    "repr": "181615Z",
    "dt": "2023-01-18T16:15:00Z"
  },
  "remarks": "RMK AO2",
  "dewpoint": {
    "repr": "07",
    "value": 7,
    "spoken": "seven"
  },
  "relative_humidity": 0.933984777240729,
  "remarks_info": {
    "maximum_temperature_6": null,
    "minimum_temperature_6": null,
    "pressure_tendency": null,
    "precip_36_hours": null,
    "precip_24_hours": null,
    "sunshine_minutes": null,
    "codes": [
      {
        "repr": "AO2",
        "value": "Automated with precipitation sensor"
      }
    ],
    "dewpoint_decimal": null,
    "maximum_temperature_24": null,
    "minimum_temperature_24": null,
    "precip_hourly": null,
    "sea_level_pressure": null,
    "snow_depth": null,
    "temperature_decimal": null
  },
  "runway_visibility": [],
  "temperature": {
    "repr": "08",
    "value": 8,
    "spoken": "eight"
  },
  "wind_variable_direction": [
    {
      "repr": "140",
      "value": 140,
      "spoken": "one four zero"
    },
    {
      "repr": "200",
      "value": 200,
      "spoken": "two zero zero"
    }
  ],
  "density_altitude": -582,
  "pressure_altitude": 251,
  "units": {
    "accumulation": "in",
    "altimeter": "inHg",
    "altitude": "ft",
    "temperature": "C",
    "visibility": "sm",
    "wind_speed": "kt"
  }
}
