{
  "altimeter": {
    "repr": "A3001",
    "spoken": "three zero point zero one",
    "value": 30.01
  },
  "clouds": [
    {
      "altitude": 43,
      "modifier": null,
      "repr": "BKN043",
      "type": "BKN"
    },
    {
      "altitude": 50,
      "modifier": null,
      "repr": "BKN050",
      "type": "BKN"
    },
    {
      "altitude": 65,
      "modifier": null,
      "repr": "BKN065",
      "type": "BKN"
    }
  ],
  "density_altitude": 188,
  "dewpoint": {
    "repr": "09",
    "spoken": "nine",
    "value": 9
  },
  "flight_rules": "VFR",
  "meta": {
    "cache-timestamp": "2024-06-23T20:40:02.623000Z",
    "stations_updated": "2024-05-13",
    "timestamp": "2024-06-23T20:40:45.447563Z"
  },
  "other": [],
  "pressure_altitude": -59,
  "raw": "KORS 232015Z AUTO 18008KT 10SM BKN043 BKN050 BKN065 17/09 A3001 RMK AO2",
  "relative_humidity": 0.5925578244833295,
  "remarks": "RMK AO2",
  "remarks_info": {
    "codes": [
      {
        "repr": "AO2",
        "value": "Automated with precipitation sensor"
      }
    ],
    "dewpoint_decimal": null,
    "maximum_temperature_24": null,
    "maximum_temperature_6": null,
    "minimum_temperature_24": null,
    "minimum_temperature_6": null,
    "precip_24_hours": null,
    "precip_36_hours": null,
    "precip_hourly": null,
    "pressure_tendency": null,
    "sea_level_pressure": null,
    "snow_depth": null,
    "sunshine_minutes": null,
    "temperature_decimal": null
  },
  "runway_visibility": [],
  "sanitized": "KORS 232015Z 18008KT 10SM BKN043 BKN050 BKN065 17/09 A3001 RMK AO2",
  "station": "KORS",
  "temperature": {
    "repr": "17",
    "spoken": "one seven",
    "value": 17
  },
  "time": {
    "dt": "2024-06-23T20:15:00Z",
    "repr": "232015Z"
  },
  "units": {
    "accumulation": "in",
    "altimeter": "inHg",
    "altitude": "ft",
    "temperature": "C",
    "visibility": "sm",
    "wind_speed": "kt"
  },
  "visibility": {
    "repr": "10",
    "spoken": "one zero",
    "value": 10
  },
  "wind_direction": {
    "repr": "180",
    "spoken": "one eight zero",
    "value": 180
  },
  "wind_gust": null,
  "wind_speed": {
    "repr": "08",
    "spoken": "eight",
    "value": 8
  },
  "wind_variable_direction": [],
  "wx_codes": []
}
