{
  "altimeter": {
    "repr": "A2938",
    "spoken": "two nine point three eight",
    "value": 29.38
  },
  "clouds": [
    {
      "altitude": 80,
      "modifier": null,
      "repr": "FEW080",
      "type": "FEW"
    },
    {
      "altitude": 110,
      "modifier": null,
      "repr": "FEW110",
      "type": "FEW"
    }
  ],
  "density_altitude": 698,
  "dewpoint": {
    "repr": "06",
    "spoken": "six",
    "value": 6
  },
  "flight_rules": "VFR",
  "meta": {
    "stations_updated": "2024-01-01",
    "timestamp": "2024-02-01T05:02:03.445394Z"
  },
  "other": [],
  "pressure_altitude": 571,
  "raw": "KORS 010455Z AUTO VRB03G15KT 10SM FEW080 FEW110 16/06 A2938 RMK AO2",
  "relative_humidity": 0.5145050496577519,
  "remarks": "RMK AO2",
  "remarks_info": {
    "codes": [
      {
        "repr": "AO2",
        "value": "Automated with precipitation sensor"
      }
    ],
    "dewpoint_decimal": null,
    "maximum_temperature_24": null,
    "maximum_temperature_6": null,
    "minimum_temperature_24": null,
    "minimum_temperature_6": null,
    "precip_24_hours": null,
    "precip_36_hours": null,
    "precip_hourly": null,
    "pressure_tendency": null,
    "sea_level_pressure": null,
    "snow_depth": null,
    "sunshine_minutes": null,
    "temperature_decimal": null
  },
  "runway_visibility": [],
  "sanitized": "KORS 010455Z VRB03G15KT 10SM FEW080 FEW110 16/06 A2938 RMK AO2",
  "station": "KORS",
  "temperature": {
    "repr": "16",
    "spoken": "one six",
    "value": 16
  },
  "time": {
    "dt": "2024-02-01T04:55:00Z",
    "repr": "010455Z"
  },
  "units": {
    "accumulation": "in",
    "altimeter": "inHg",
    "altitude": "ft",
    "temperature": "C",
    "visibility": "sm",
    "wind_speed": "kt"
  },
  "visibility": {
    "repr": "10",
    "spoken": "one zero",
    "value": 10
  },
  "wind_direction": {
    "repr": "VRB",
    "spoken": "variable",
    "value": null
  },
  "wind_gust": {
    "repr": "15",
    "spoken": "one five",
    "value": 15
  },
  "wind_speed": {
    "repr": "03",
    "spoken": "three",
    "value": 3
  },
  "wind_variable_direction": [],
  "wx_codes": []
}
