{
  "meta": {
    "timestamp": "2023-02-23T12:10:04.020437Z",
    "stations_updated": "2023-01-30"
  },
  "altimeter": {
    "repr": "A2973",
    "value": 29.73,
    "spoken": "two nine point seven three"
  },
  "clouds": [
    {
      "repr": "BKN040",
      "type": "BKN",
      "altitude": 40,
      "modifier": null
    },
    {
      "repr": "OVC060",
      "type": "OVC",
      "altitude": 60,
      "modifier": null
    }
  ],
  "flight_rules": "VFR",
  "other": [],
  "visibility": {
    "repr": "10",
    "value": 10,
    "spoken": "one zero"
  },
  "wind_direction": {
    "repr": "040",
    "value": 40,
    "spoken": "zero four zero"
  },
  "wind_gust": {
    "repr": "23",
    "value": 23,
    "spoken": "two three"
  },
  "wind_speed": {
    "repr": "12",
    "value": 12,
    "spoken": "one two"
  },
  "wx_codes": [],
  "raw": "KORS 231155Z AUTO 04012G23KT 350V090 10SM BKN040 OVC060 M03/M13 A2973 RMK AO2",
  "sanitized": "KORS 231155Z 04012G23KT 350V090 10SM BKN040 OVC060 M03/M13 A2973 RMK AO2",
  "station": "KORS",
  "time": {
    "repr": "231155Z",
    "dt": "2023-02-23T11:55:00Z"
  },
  "remarks": "RMK AO2",
  "dewpoint": {
    "repr": "M13",
    "value": -13,
    "spoken": "minus one three"
  },
  "relative_humidity": 0.460171115847804,
  "remarks_info": {
    "maximum_temperature_6": null,
    "minimum_temperature_6": null,
    "pressure_tendency": null,
    "precip_36_hours": null,
    "precip_24_hours": null,
    "sunshine_minutes": null,
    "codes": [
      {
        "repr": "AO2",
        "value": "Automated with precipitation sensor"
      }
    ],
    "dewpoint_decimal": null,
    "maximum_temperature_24": null,
    "minimum_temperature_24": null,
    "precip_hourly": null,
    "sea_level_pressure": null,
    "snow_depth": null,
    "temperature_decimal": null
  },
  "runway_visibility": [],
  "temperature": {
    "repr": "M03",
    "value": -3,
    "spoken": "minus three"
  },
  "wind_variable_direction": [
    {
      "repr": "350",
      "value": 350,
      "spoken": "three five zero"
    },
    {
      "repr": "090",
      "value": 90,
      "spoken": "zero nine zero"
    }
  ],
  "density_altitude": -1932,
  "pressure_altitude": 221,
  "units": {
    "accumulation": "in",
    "altimeter": "inHg",
    "altitude": "ft",
    "temperature": "C",
    "visibility": "sm",
    "wind_speed": "kt"
  }
}
