{
  "meta": {
    "timestamp": "2023-02-23T23:40:39.758683Z",
    "stations_updated": "2023-01-30",
    "cache-timestamp": "2023-02-23T23:40:04.563000Z"
  },
  "altimeter": {
    "repr": "A2990",
    "value": 29.9,
    "spoken": "two nine point nine zero"
  },
  "clouds": [
    {
      "repr": "SCT075",
      "type": "SCT",
      "altitude": 75,
      "modifier": null
    },
    {
      "repr": "OVC085",
      "type": "OVC",
      "altitude": 85,
      "modifier": null
    }
  ],
  "flight_rules": "VFR",
  "other": [],
  "visibility": {
    "repr": "9",
    "value": 9,
    "spoken": "nine"
  },
  "wind_direction": {
    "repr": "020",
    "value": 20,
    "spoken": "zero two zero"
  },
  "wind_gust": {
    "repr": "20",
    "value": 20,
    "spoken": "two zero"
  },
  "wind_speed": {
    "repr": "12",
    "value": 12,
    "spoken": "one two"
  },
  "wx_codes": [],
  "raw": "KORS 232315Z AUTO 02012G20KT 310V070 9SM SCT075 OVC085 M00/M13 A2990 RMK AO2",
  "sanitized": "KORS 232315Z 02012G20KT 310V070 9SM SCT075 OVC085 M00/M13 A2990 RMK AO2",
  "station": "KORS",
  "time": {
    "repr": "232315Z",
    "dt": "2023-02-23T23:15:00Z"
  },
  "remarks": "RMK AO2",
  "dewpoint": {
    "repr": "M13",
    "value": -13,
    "spoken": "minus one three"
  },
  "relative_humidity": 0.36914244924840534,
  "remarks_info": {
    "maximum_temperature_6": null,
    "minimum_temperature_6": null,
    "pressure_tendency": null,
    "precip_36_hours": null,
    "precip_24_hours": null,
    "sunshine_minutes": null,
    "codes": [
      {
        "repr": "AO2",
        "value": "Automated with precipitation sensor"
      }
    ],
    "dewpoint_decimal": null,
    "maximum_temperature_24": null,
    "minimum_temperature_24": null,
    "precip_hourly": null,
    "sea_level_pressure": null,
    "snow_depth": null,
    "temperature_decimal": null
  },
  "runway_visibility": [],
  "temperature": {
    "repr": "M00",
    "value": 0,
    "spoken": "zero"
  },
  "wind_variable_direction": [
    {
      "repr": "310",
      "value": 310,
      "spoken": "three one zero"
    },
    {
      "repr": "070",
      "value": 70,
      "spoken": "zero seven zero"
    }
  ],
  "density_altitude": -1742,
  "pressure_altitude": 51,
  "units": {
    "accumulation": "in",
    "altimeter": "inHg",
    "altitude": "ft",
    "temperature": "C",
    "visibility": "sm",
    "wind_speed": "kt"
  }
}
