{
  "meta": {
    "timestamp": "2023-09-25T13:26:31.871408Z",
    "stations_updated": "2023-08-05",
    "cache-timestamp": "2023-09-25T13:26:04.952000Z"
  },
  "altimeter": {
    "repr": "A2965",
    "value": 29.65,
    "spoken": "two nine point six five"
  },
  "clouds": [
    {
      "repr": "FEW065",
      "type": "FEW",
      "altitude": 65,
      "modifier": null
    },
    {
      "repr": "FEW085",
      "type": "FEW",
      "altitude": 85,
      "modifier": null
    },
    {
      "repr": "SCT100",
      "type": "SCT",
      "altitude": 100,
      "modifier": null
    }
  ],
  "flight_rules": "VFR",
  "other": [],
  "visibility": {
    "repr": "10",
    "value": 10,
    "spoken": "one zero"
  },
  "wind_direction": {
    "repr": "150",
    "value": 150,
    "spoken": "one five zero"
  },
  "wind_gust": {
    "repr": "27",
    "value": 27,
    "spoken": "two seven"
  },
  "wind_speed": {
    "repr": "14",
    "value": 14,
    "spoken": "one four"
  },
  "wx_codes": [],
  "raw": "KORS 251315Z AUTO 15014G27KT 120V180 10SM FEW065 FEW085 SCT100 17/M40 A2965 RMK AO2",
  "sanitized": "KORS 251315Z 15014G27KT 120V180 10SM FEW065 FEW085 SCT100 17/M40 A2965 RMK AO2",
  "station": "KORS",
  "time": {
    "repr": "251315Z",
    "dt": "2023-09-25T13:15:00Z"
  },
  "remarks": "RMK AO2",
  "dewpoint": {
    "repr": "M40",
    "value": -40,
    "spoken": "minus four zero"
  },
  "relative_humidity": 0.00979045573875582,
  "remarks_info": {
    "maximum_temperature_6": null,
    "minimum_temperature_6": null,
    "pressure_tendency": null,
    "precip_36_hours": null,
    "precip_24_hours": null,
    "sunshine_minutes": null,
    "codes": [
      {
        "repr": "AO2",
        "value": "Automated with precipitation sensor"
      }
    ],
    "dewpoint_decimal": null,
    "maximum_temperature_24": null,
    "minimum_temperature_24": null,
    "precip_hourly": null,
    "sea_level_pressure": null,
    "snow_depth": null,
    "temperature_decimal": null
  },
  "runway_visibility": [],
  "temperature": {
    "repr": "17",
    "value": 17,
    "spoken": "one seven"
  },
  "wind_variable_direction": [
    {
      "repr": "120",
      "value": 120,
      "spoken": "one two zero"
    },
    {
      "repr": "180",
      "value": 180,
      "spoken": "one eight zero"
    }
  ],
  "density_altitude": 548,
  "pressure_altitude": 301,
  "units": {
    "accumulation": "in",
    "altimeter": "inHg",
    "altitude": "ft",
    "temperature": "C",
    "visibility": "sm",
    "wind_speed": "kt"
  }
}
