{
  "meta": {
    "timestamp": "2023-01-14T20:01:56.367539Z",
    "stations_updated": "2022-12-27"
  },
  "altimeter": {
    "repr": "A2945",
    "value": 29.45,
    "spoken": "two nine point four five"
  },
  "clouds": [],
  "flight_rules": "VFR",
  "other": [],
  "visibility": {
    "repr": "9",
    "value": 9,
    "spoken": "nine"
  },
  "wind_direction": {
    "repr": "060",
    "value": 60,
    "spoken": "zero six zero"
  },
  "wind_gust": {
    "repr": "13",
    "value": 13,
    "spoken": "one three"
  },
  "wind_speed": {
    "repr": "08",
    "value": 8,
    "spoken": "eight"
  },
  "wx_codes": [],
  "raw": "KORS 141955Z AUTO 06008G13KT 020V100 9SM CLR 11/07 A2945 RMK AO2",
  "sanitized": "KORS 141955Z 06008G13KT 020V100 9SM 11/07 A2945 RMK AO2",
  "station": "KORS",
  "time": {
    "repr": "141955Z",
    "dt": "2023-01-14T19:55:00Z"
  },
  "remarks": "RMK AO2",
  "dewpoint": {
    "repr": "07",
    "value": 7,
    "spoken": "seven"
  },
  "relative_humidity": 0.7634097596203441,
  "remarks_info": {
    "maximum_temperature_6": null,
    "minimum_temperature_6": null,
    "pressure_tendency": null,
    "precip_36_hours": null,
    "precip_24_hours": null,
    "sunshine_minutes": null,
    "codes": [
      {
        "repr": "AO2",
        "value": "Automated with precipitation sensor"
      }
    ],
    "dewpoint_decimal": null,
    "maximum_temperature_24": null,
    "minimum_temperature_24": null,
    "precip_hourly": null,
    "sea_level_pressure": null,
    "snow_depth": null,
    "temperature_decimal": null
  },
  "runway_visibility": [],
  "temperature": {
    "repr": "11",
    "value": 11,
    "spoken": "one one"
  },
  "wind_variable_direction": [
    {
      "repr": "020",
      "value": 20,
      "spoken": "zero two zero"
    },
    {
      "repr": "100",
      "value": 100,
      "spoken": "one zero zero"
    }
  ],
  "density_altitude": 28,
  "pressure_altitude": 501,
  "units": {
    "accumulation": "in",
    "altimeter": "inHg",
    "altitude": "ft",
    "temperature": "C",
    "visibility": "sm",
    "wind_speed": "kt"
  }
}
