{
  "meta": {
    "timestamp": "2022-12-27T06:42:34.426981Z",
    "stations_updated": "2022-09-05"
  },
  "altimeter": {
    "repr": "A2907",
    "value": 29.07,
    "spoken": "two nine point zero seven"
  },
  "clouds": [
    {
      "repr": "FEW011",
      "type": "FEW",
      "altitude": 11,
      "modifier": null
    },
    {
      "repr": "SCT029",
      "type": "SCT",
      "altitude": 29,
      "modifier": null
    },
    {
      "repr": "OVC042",
      "type": "OVC",
      "altitude": 42,
      "modifier": null
    }
  ],
  "flight_rules": "MVFR",
  "other": [],
  "visibility": {
    "repr": "5",
    "value": 5,
    "spoken": "five"
  },
  "wind_direction": {
    "repr": "030",
    "value": 30,
    "spoken": "zero three zero"
  },
  "wind_gust": {
    "repr": "17",
    "value": 17,
    "spoken": "one seven"
  },
  "wind_speed": {
    "repr": "07",
    "value": 7,
    "spoken": "seven"
  },
  "wx_codes": [
    {
      "repr": "-RA",
      "value": "Light Rain"
    },
    {
      "repr": "BR",
      "value": "Mist"
    }
  ],
  "raw": "KORS 270635Z AUTO 03007G17KT 010V070 5SM -RA BR FEW011 SCT029 OVC042 07/08 A2907 RMK AO2",
  "sanitized": "KORS 270635Z 03007G17KT 010V070 5SM -RA BR FEW011 SCT029 OVC042 07/08 A2907 RMK AO2",
  "station": "KORS",
  "time": {
    "repr": "270635Z",
    "dt": "2022-12-27T06:35:00Z"
  },
  "remarks": "RMK AO2",
  "dewpoint": {
    "repr": "08",
    "value": 8,
    "spoken": "eight"
  },
  "relative_humidity": 1.0706812620161752,
  "remarks_info": {
    "maximum_temperature_6": null,
    "minimum_temperature_6": null,
    "pressure_tendency": null,
    "precip_36_hours": null,
    "precip_24_hours": null,
    "sunshine_minutes": null,
    "codes": [
      {
        "repr": "AO2",
        "value": "Automated with precipitation sensor"
      }
    ],
    "dewpoint_decimal": null,
    "maximum_temperature_24": null,
    "minimum_temperature_24": null,
    "precip_hourly": null,
    "sea_level_pressure": null,
    "snow_depth": null,
    "temperature_decimal": null
  },
  "runway_visibility": [],
  "temperature": {
    "repr": "07",
    "value": 7,
    "spoken": "seven"
  },
  "wind_variable_direction": [
    {
      "repr": "010",
      "value": 10,
      "spoken": "zero one zero"
    },
    {
      "repr": "070",
      "value": 70,
      "spoken": "zero seven zero"
    }
  ],
  "density_altitude": -72,
  "pressure_altitude": 881,
  "units": {
    "accumulation": "in",
    "altimeter": "inHg",
    "altitude": "ft",
    "temperature": "C",
    "visibility": "sm",
    "wind_speed": "kt"
  }
}
