{
  "meta": {
    "timestamp": "2023-02-03T23:40:39.424928Z",
    "stations_updated": "2023-01-30",
    "cache-timestamp": "2023-02-03T23:40:05.094000Z"
  },
  "altimeter": {
    "repr": "A2972",
    "value": 29.72,
    "spoken": "two nine point seven two"
  },
  "clouds": [
    {
      "repr": "FEW027",
      "type": "FEW",
      "altitude": 27,
      "modifier": null
    }
  ],
  "flight_rules": "VFR",
  "other": [],
  "visibility": {
    "repr": "10",
    "value": 10,
    "spoken": "one zero"
  },
  "wind_direction": {
    "repr": "160",
    "value": 160,
    "spoken": "one six zero"
  },
  "wind_gust": {
    "repr": "38",
    "value": 38,
    "spoken": "three eight"
  },
  "wind_speed": {
    "repr": "21",
    "value": 21,
    "spoken": "two one"
  },
  "wx_codes": [],
  "raw": "KORS 032315Z AUTO 16021G38KT 140V200 10SM FEW027 10/05 A2972 RMK AO2",
  "sanitized": "KORS 032315Z 16021G38KT 140V200 10SM FEW027 10/05 A2972 RMK AO2",
  "station": "KORS",
  "time": {
    "repr": "032315Z",
    "dt": "2023-02-03T23:15:00Z"
  },
  "remarks": "RMK AO2",
  "dewpoint": {
    "repr": "05",
    "value": 5,
    "spoken": "five"
  },
  "relative_humidity": 0.7106976250052686,
  "remarks_info": {
    "maximum_temperature_6": null,
    "minimum_temperature_6": null,
    "pressure_tendency": null,
    "precip_36_hours": null,
    "precip_24_hours": null,
    "sunshine_minutes": null,
    "codes": [
      {
        "repr": "AO2",
        "value": "Automated with precipitation sensor"
      }
    ],
    "dewpoint_decimal": null,
    "maximum_temperature_24": null,
    "minimum_temperature_24": null,
    "precip_hourly": null,
    "sea_level_pressure": null,
    "snow_depth": null,
    "temperature_decimal": null
  },
  "runway_visibility": [],
  "temperature": {
    "repr": "10",
    "value": 10,
    "spoken": "one zero"
  },
  "wind_variable_direction": [
    {
      "repr": "140",
      "value": 140,
      "spoken": "one four zero"
    },
    {
      "repr": "200",
      "value": 200,
      "spoken": "two zero zero"
    }
  ],
  "density_altitude": -362,
  "pressure_altitude": 231,
  "units": {
    "accumulation": "in",
    "altimeter": "inHg",
    "altitude": "ft",
    "temperature": "C",
    "visibility": "sm",
    "wind_speed": "kt"
  }
}
