{
  "meta": {
    "timestamp": "2023-04-18T01:47:47.125810Z",
    "stations_updated": "2023-03-11",
    "cache-timestamp": "2023-04-18T01:47:43.283000Z"
  },
  "altimeter": {
    "repr": "A2960",
    "value": 29.6,
    "spoken": "two nine point six zero"
  },
  "clouds": [],
  "flight_rules": "VFR",
  "other": [],
  "visibility": {
    "repr": "10",
    "value": 10,
    "spoken": "one zero"
  },
  "wind_direction": {
    "repr": "150",
    "value": 150,
    "spoken": "one five zero"
  },
  "wind_gust": {
    "repr": "19",
    "value": 19,
    "spoken": "one nine"
  },
  "wind_speed": {
    "repr": "09",
    "value": 9,
    "spoken": "nine"
  },
  "wx_codes": [],
  "raw": "KORS 180135Z AUTO 15009G19KT 130V190 10SM CLR 09/03 A2960 RMK AO2",
  "sanitized": "KORS 180135Z 15009G19KT 130V190 10SM 09/03 A2960 RMK AO2",
  "station": "KORS",
  "time": {
    "repr": "180135Z",
    "dt": "2023-04-18T01:35:00Z"
  },
  "remarks": "RMK AO2",
  "dewpoint": {
    "repr": "03",
    "value": 3,
    "spoken": "three"
  },
  "relative_humidity": 0.6604914682317473,
  "remarks_info": {
    "maximum_temperature_6": null,
    "minimum_temperature_6": null,
    "pressure_tendency": null,
    "precip_36_hours": null,
    "precip_24_hours": null,
    "sunshine_minutes": null,
    "codes": [
      {
        "repr": "AO2",
        "value": "Automated with precipitation sensor"
      }
    ],
    "dewpoint_decimal": null,
    "maximum_temperature_24": null,
    "minimum_temperature_24": null,
    "precip_hourly": null,
    "sea_level_pressure": null,
    "snow_depth": null,
    "temperature_decimal": null
  },
  "runway_visibility": [],
  "temperature": {
    "repr": "09",
    "value": 9,
    "spoken": "nine"
  },
  "wind_variable_direction": [
    {
      "repr": "130",
      "value": 130,
      "spoken": "one three zero"
    },
    {
      "repr": "190",
      "value": 190,
      "spoken": "one nine zero"
    }
  ],
  "density_altitude": -362,
  "pressure_altitude": 351,
  "units": {
    "accumulation": "in",
    "altimeter": "inHg",
    "altitude": "ft",
    "temperature": "C",
    "visibility": "sm",
    "wind_speed": "kt"
  }
}
