{
  "meta": {
    "timestamp": "2023-01-14T20:25:13.840289Z",
    "stations_updated": "2022-12-27"
  },
  "altimeter": {
    "repr": "A2943",
    "value": 29.43,
    "spoken": "two nine point four three"
  },
  "clouds": [],
  "flight_rules": "VFR",
  "other": [],
  "visibility": {
    "repr": "10",
    "value": 10,
    "spoken": "one zero"
  },
  "wind_direction": {
    "repr": "060",
    "value": 60,
    "spoken": "zero six zero"
  },
  "wind_gust": null,
  "wind_speed": {
    "repr": "07",
    "value": 7,
    "spoken": "seven"
  },
  "wx_codes": [],
  "raw": "KORS 142015Z AUTO 06007KT 020V110 10SM CLR 11/07 A2943 RMK AO2",
  "sanitized": "KORS 142015Z 06007KT 020V110 10SM 11/07 A2943 RMK AO2",
  "station": "KORS",
  "time": {
    "repr": "142015Z",
    "dt": "2023-01-14T20:15:00Z"
  },
  "remarks": "RMK AO2",
  "dewpoint": {
    "repr": "07",
    "value": 7,
    "spoken": "seven"
  },
  "relative_humidity": 0.7634097596203441,
  "remarks_info": {
    "maximum_temperature_6": null,
    "minimum_temperature_6": null,
    "pressure_tendency": null,
    "precip_36_hours": null,
    "precip_24_hours": null,
    "sunshine_minutes": null,
    "codes": [
      {
        "repr": "AO2",
        "value": "Automated with precipitation sensor"
      }
    ],
    "dewpoint_decimal": null,
    "maximum_temperature_24": null,
    "minimum_temperature_24": null,
    "precip_hourly": null,
    "sea_level_pressure": null,
    "snow_depth": null,
    "temperature_decimal": null
  },
  "runway_visibility": [],
  "temperature": {
    "repr": "11",
    "value": 11,
    "spoken": "one one"
  },
  "wind_variable_direction": [
    {
      "repr": "020",
      "value": 20,
      "spoken": "zero two zero"
    },
    {
      "repr": "110",
      "value": 110,
      "spoken": "one one zero"
    }
  ],
  "density_altitude": 48,
  "pressure_altitude": 521,
  "units": {
    "accumulation": "in",
    "altimeter": "inHg",
    "altitude": "ft",
    "temperature": "C",
    "visibility": "sm",
    "wind_speed": "kt"
  }
}
