{
  "altimeter": {
    "repr": "A2971",
    "spoken": "two nine point seven one",
    "value": 29.71
  },
  "clouds": [
    {
      "altitude": 70,
      "modifier": null,
      "repr": "FEW070",
      "type": "FEW"
    },
    {
      "altitude": 100,
      "modifier": null,
      "repr": "SCT100",
      "type": "SCT"
    }
  ],
  "density_altitude": -712,
  "dewpoint": {
    "repr": "02",
    "spoken": "two",
    "value": 2
  },
  "flight_rules": "VFR",
  "meta": {
    "stations_updated": "2024-10-29",
    "timestamp": "2024-11-19T23:06:58.086658Z"
  },
  "other": [],
  "pressure_altitude": 241,
  "raw": "KORS 192255Z AUTO 09009G15KT 050V110 10SM FEW070 SCT100 07/02 A2971 RMK AO2",
  "relative_humidity": 0.704814004115702,
  "remarks": "RMK AO2",
  "remarks_info": {
    "codes": [
      {
        "repr": "AO2",
        "value": "Automated with precipitation sensor"
      }
    ],
    "dewpoint_decimal": null,
    "maximum_temperature_24": null,
    "maximum_temperature_6": null,
    "minimum_temperature_24": null,
    "minimum_temperature_6": null,
    "precip_24_hours": null,
    "precip_36_hours": null,
    "precip_hourly": null,
    "pressure_tendency": null,
    "sea_level_pressure": null,
    "snow_depth": null,
    "sunshine_minutes": null,
    "temperature_decimal": null
  },
  "runway_visibility": [],
  "sanitized": "KORS 192255Z 09009G15KT 050V110 10SM FEW070 SCT100 07/02 A2971 RMK AO2",
  "station": "KORS",
  "temperature": {
    "repr": "07",
    "spoken": "seven",
    "value": 7
  },
  "time": {
    "dt": "2024-11-19T22:55:00Z",
    "repr": "192255Z"
  },
  "units": {
    "accumulation": "in",
    "altimeter": "inHg",
    "altitude": "ft",
    "temperature": "C",
    "visibility": "sm",
    "wind_speed": "kt"
  },
  "visibility": {
    "repr": "10",
    "spoken": "one zero",
    "value": 10
  },
  "wind_direction": {
    "repr": "090",
    "spoken": "zero nine zero",
    "value": 90
  },
  "wind_gust": {
    "repr": "15",
    "spoken": "one five",
    "value": 15
  },
  "wind_speed": {
    "repr": "09",
    "spoken": "nine",
    "value": 9
  },
  "wind_variable_direction": [
    {
      "repr": "050",
      "spoken": "zero five zero",
      "value": 50
    },
    {
      "repr": "110",
      "spoken": "one one zero",
      "value": 110
    }
  ],
  "wx_codes": []
}
