{
  "meta": {
    "timestamp": "2022-12-07T07:02:08.627383Z",
    "stations_updated": "2022-09-05"
  },
  "altimeter": {
    "repr": "A3016",
    "value": 30.16,
    "spoken": "three zero point one six"
  },
  "clouds": [
    {
      "repr": "FEW014",
      "type": "FEW",
      "altitude": 14,
      "modifier": null
    },
    {
      "repr": "SCT024",
      "type": "SCT",
      "altitude": 24,
      "modifier": null
    },
    {
      "repr": "OVC031",
      "type": "OVC",
      "altitude": 31,
      "modifier": null
    }
  ],
  "flight_rules": "MVFR",
  "other": [],
  "visibility": {
    "repr": "4",
    "value": 4,
    "spoken": "four"
  },
  "wind_direction": {
    "repr": "000",
    "value": 0,
    "spoken": "zero zero zero"
  },
  "wind_gust": null,
  "wind_speed": {
    "repr": "00",
    "value": 0,
    "spoken": "zero"
  },
  "wx_codes": [
    {
      "repr": "BR",
      "value": "Mist"
    }
  ],
  "raw": "KORS 070655Z AUTO 00000KT 4SM BR FEW014 SCT024 OVC031 04/04 A3016 RMK AO2",
  "sanitized": "KORS 070655Z 00000KT 4SM BR FEW014 SCT024 OVC031 04/04 A3016 RMK AO2",
  "station": "KORS",
  "time": {
    "repr": "070655Z",
    "dt": "2022-12-07T06:55:00Z"
  },
  "remarks": "RMK AO2",
  "dewpoint": {
    "repr": "04",
    "value": 4,
    "spoken": "four"
  },
  "relative_humidity": 1,
  "remarks_info": {
    "maximum_temperature_6": null,
    "minimum_temperature_6": null,
    "pressure_tendency": null,
    "precip_36_hours": null,
    "precip_24_hours": null,
    "sunshine_minutes": null,
    "codes": [
      {
        "repr": "AO2",
        "value": "Automated with precipitation sensor"
      }
    ],
    "dewpoint_decimal": null,
    "maximum_temperature_24": null,
    "minimum_temperature_24": null,
    "precip_hourly": null,
    "sea_level_pressure": null,
    "snow_depth": null,
    "temperature_decimal": null
  },
  "runway_visibility": [],
  "temperature": {
    "repr": "04",
    "value": 4,
    "spoken": "four"
  },
  "wind_variable_direction": [],
  "density_altitude": -1522,
  "pressure_altitude": -209,
  "units": {
    "accumulation": "in",
    "altimeter": "inHg",
    "altitude": "ft",
    "temperature": "C",
    "visibility": "sm",
    "wind_speed": "kt"
  }
}
