{
  "meta": {
    "timestamp": "2023-04-06T18:03:17.503583Z",
    "stations_updated": "2023-03-11"
  },
  "altimeter": {
    "repr": "A2979",
    "value": 29.79,
    "spoken": "two nine point seven nine"
  },
  "clouds": [],
  "flight_rules": "VFR",
  "other": [],
  "visibility": {
    "repr": "8",
    "value": 8,
    "spoken": "eight"
  },
  "wind_direction": {
    "repr": "110",
    "value": 110,
    "spoken": "one one zero"
  },
  "wind_gust": {
    "repr": "26",
    "value": 26,
    "spoken": "two six"
  },
  "wind_speed": {
    "repr": "11",
    "value": 11,
    "spoken": "one one"
  },
  "wx_codes": [
    {
      "repr": "-RA",
      "value": "Light Rain"
    }
  ],
  "raw": "KORS 061755Z AUTO 11011G26KT 050V150 8SM -RA CLR 11/06 A2979 RMK AO2",
  "sanitized": "KORS 061755Z 11011G26KT 050V150 8SM -RA 11/06 A2979 RMK AO2",
  "station": "KORS",
  "time": {
    "repr": "061755Z",
    "dt": "2023-04-06T17:55:00Z"
  },
  "remarks": "RMK AO2",
  "dewpoint": {
    "repr": "06",
    "value": 6,
    "spoken": "six"
  },
  "relative_humidity": 0.7126228577951567,
  "remarks_info": {
    "maximum_temperature_6": null,
    "minimum_temperature_6": null,
    "pressure_tendency": null,
    "precip_36_hours": null,
    "precip_24_hours": null,
    "sunshine_minutes": null,
    "codes": [
      {
        "repr": "AO2",
        "value": "Automated with precipitation sensor"
      }
    ],
    "dewpoint_decimal": null,
    "maximum_temperature_24": null,
    "minimum_temperature_24": null,
    "precip_hourly": null,
    "sea_level_pressure": null,
    "snow_depth": null,
    "temperature_decimal": null
  },
  "runway_visibility": [],
  "temperature": {
    "repr": "11",
    "value": 11,
    "spoken": "one one"
  },
  "wind_variable_direction": [
    {
      "repr": "050",
      "value": 50,
      "spoken": "zero five zero"
    },
    {
      "repr": "150",
      "value": 150,
      "spoken": "one five zero"
    }
  ],
  "density_altitude": -312,
  "pressure_altitude": 161,
  "units": {
    "accumulation": "in",
    "altimeter": "inHg",
    "altitude": "ft",
    "temperature": "C",
    "visibility": "sm",
    "wind_speed": "kt"
  }
}
