{
  "altimeter": {
    "repr": "A3001",
    "spoken": "three zero point zero one",
    "value": 30.01
  },
  "clouds": [
    {
      "altitude": 16,
      "modifier": null,
      "repr": "SCT016",
      "type": "SCT"
    },
    {
      "altitude": 44,
      "modifier": null,
      "repr": "BKN044",
      "type": "BKN"
    }
  ],
  "density_altitude": -652,
  "dewpoint": {
    "repr": "09",
    "spoken": "nine",
    "value": 9
  },
  "flight_rules": "MVFR",
  "meta": {
    "stations_updated": "2024-05-13",
    "timestamp": "2024-05-21T18:07:29.522999Z"
  },
  "other": [],
  "pressure_altitude": -59,
  "raw": "KORS 211755Z AUTO 16009G15KT 3SM -RA BR SCT016 BKN044 10/09 A3001 RMK AO2 P0011",
  "relative_humidity": 0.9349898195447824,
  "remarks": "RMK AO2 P0011",
  "remarks_info": {
    "codes": [
      {
        "repr": "AO2",
        "value": "Automated with precipitation sensor"
      }
    ],
    "dewpoint_decimal": null,
    "maximum_temperature_24": null,
    "maximum_temperature_6": null,
    "minimum_temperature_24": null,
    "minimum_temperature_6": null,
    "precip_24_hours": null,
    "precip_36_hours": null,
    "precip_hourly": {
      "repr": "P0011",
      "spoken": "zero point one one",
      "value": 0.11
    },
    "pressure_tendency": null,
    "sea_level_pressure": null,
    "snow_depth": null,
    "sunshine_minutes": null,
    "temperature_decimal": null
  },
  "runway_visibility": [],
  "sanitized": "KORS 211755Z 16009G15KT 3SM -RA BR SCT016 BKN044 10/09 A3001 RMK AO2 P0011",
  "station": "KORS",
  "temperature": {
    "repr": "10",
    "spoken": "one zero",
    "value": 10
  },
  "time": {
    "dt": "2024-05-21T17:55:00Z",
    "repr": "211755Z"
  },
  "units": {
    "accumulation": "in",
    "altimeter": "inHg",
    "altitude": "ft",
    "temperature": "C",
    "visibility": "sm",
    "wind_speed": "kt"
  },
  "visibility": {
    "repr": "3",
    "spoken": "three",
    "value": 3
  },
  "wind_direction": {
    "repr": "160",
    "spoken": "one six zero",
    "value": 160
  },
  "wind_gust": {
    "repr": "15",
    "spoken": "one five",
    "value": 15
  },
  "wind_speed": {
    "repr": "09",
    "spoken": "nine",
    "value": 9
  },
  "wind_variable_direction": [],
  "wx_codes": [
    {
      "repr": "-RA",
      "value": "Light Rain"
    },
    {
      "repr": "BR",
      "value": "Mist"
    }
  ]
}
