{
  "meta": {
    "timestamp": "2022-12-23T19:01:26.643602Z",
    "stations_updated": "2022-09-05"
  },
  "altimeter": {
    "repr": "A2997",
    "value": 29.97,
    "spoken": "two nine point nine seven"
  },
  "clouds": [
    {
      "repr": "SCT006",
      "type": "SCT",
      "altitude": 6,
      "modifier": null
    },
    {
      "repr": "OVC011",
      "type": "OVC",
      "altitude": 11,
      "modifier": null
    }
  ],
  "flight_rules": "IFR",
  "other": [],
  "visibility": {
    "repr": "2",
    "value": 2,
    "spoken": "two"
  },
  "wind_direction": {
    "repr": "060",
    "value": 60,
    "spoken": "zero six zero"
  },
  "wind_gust": null,
  "wind_speed": {
    "repr": "07",
    "value": 7,
    "spoken": "seven"
  },
  "wx_codes": [
    {
      "repr": "-SN",
      "value": "Light Snow"
    },
    {
      "repr": "BR",
      "value": "Mist"
    }
  ],
  "raw": "KORS 231855Z AUTO 06007KT 010V080 2SM -SN BR SCT006 OVC011 M01/M02 A2997 RMK AO2 P0003",
  "sanitized": "KORS 231855Z 06007KT 010V080 2SM -SN BR SCT006 OVC011 M01/M02 A2997 RMK AO2 P0003",
  "station": "KORS",
  "time": {
    "repr": "231855Z",
    "dt": "2022-12-23T18:55:00Z"
  },
  "remarks": "RMK AO2 P0003",
  "dewpoint": {
    "repr": "M02",
    "value": -2,
    "spoken": "minus two"
  },
  "relative_humidity": 0.9291645551718306,
  "remarks_info": {
    "maximum_temperature_6": null,
    "minimum_temperature_6": null,
    "pressure_tendency": null,
    "precip_36_hours": null,
    "precip_24_hours": null,
    "sunshine_minutes": null,
    "codes": [
      {
        "repr": "AO2",
        "value": "Automated with precipitation sensor"
      }
    ],
    "dewpoint_decimal": null,
    "maximum_temperature_24": null,
    "minimum_temperature_24": null,
    "precip_hourly": {
      "repr": "P0003",
      "value": 0.03,
      "spoken": "zero point zero three"
    },
    "sea_level_pressure": null,
    "snow_depth": null,
    "temperature_decimal": null
  },
  "runway_visibility": [],
  "temperature": {
    "repr": "M01",
    "value": -1,
    "spoken": "minus one"
  },
  "wind_variable_direction": [
    {
      "repr": "010",
      "value": 10,
      "spoken": "zero one zero"
    },
    {
      "repr": "080",
      "value": 80,
      "spoken": "zero eight zero"
    }
  ],
  "density_altitude": -1932,
  "pressure_altitude": -19,
  "units": {
    "accumulation": "in",
    "altimeter": "inHg",
    "altitude": "ft",
    "temperature": "C",
    "visibility": "sm",
    "wind_speed": "kt"
  }
}
