{
  "altimeter": {
    "repr": "A3017",
    "spoken": "three zero point one seven",
    "value": 30.17
  },
  "clouds": [],
  "density_altitude": -3212,
  "dewpoint": {
    "repr": "M17",
    "spoken": "minus one seven",
    "value": -17
  },
  "flight_rules": "VFR",
  "meta": {
    "cache-timestamp": "2024-01-13T13:04:03.855000Z",
    "stations_updated": "2023-10-28",
    "timestamp": "2024-01-13T13:04:32.163014Z"
  },
  "other": [],
  "pressure_altitude": -219,
  "raw": "KORS 131255Z AUTO 04009G18KT 010V070 10SM CLR M10/M17 A3017 RMK AO2",
  "relative_humidity": 0.5658195977076498,
  "remarks": "RMK AO2",
  "remarks_info": {
    "codes": [
      {
        "repr": "AO2",
        "value": "Automated with precipitation sensor"
      }
    ],
    "dewpoint_decimal": null,
    "maximum_temperature_24": null,
    "maximum_temperature_6": null,
    "minimum_temperature_24": null,
    "minimum_temperature_6": null,
    "precip_24_hours": null,
    "precip_36_hours": null,
    "precip_hourly": null,
    "pressure_tendency": null,
    "sea_level_pressure": null,
    "snow_depth": null,
    "sunshine_minutes": null,
    "temperature_decimal": null
  },
  "runway_visibility": [],
  "sanitized": "KORS 131255Z 04009G18KT 010V070 10SM M10/M17 A3017 RMK AO2",
  "station": "KORS",
  "temperature": {
    "repr": "M10",
    "spoken": "minus one zero",
    "value": -10
  },
  "time": {
    "dt": "2024-01-13T12:55:00Z",
    "repr": "131255Z"
  },
  "units": {
    "accumulation": "in",
    "altimeter": "inHg",
    "altitude": "ft",
    "temperature": "C",
    "visibility": "sm",
    "wind_speed": "kt"
  },
  "visibility": {
    "repr": "10",
    "spoken": "one zero",
    "value": 10
  },
  "wind_direction": {
    "repr": "040",
    "spoken": "zero four zero",
    "value": 40
  },
  "wind_gust": {
    "repr": "18",
    "spoken": "one eight",
    "value": 18
  },
  "wind_speed": {
    "repr": "09",
    "spoken": "nine",
    "value": 9
  },
  "wind_variable_direction": [
    {
      "repr": "010",
      "spoken": "zero one zero",
      "value": 10
    },
    {
      "repr": "070",
      "spoken": "zero seven zero",
      "value": 70
    }
  ],
  "wx_codes": []
}
