{
  "meta": {
    "timestamp": "2023-04-05T20:30:56.314107Z",
    "stations_updated": "2023-03-11",
    "cache-timestamp": "2023-04-05T20:30:05.294000Z"
  },
  "altimeter": {
    "repr": "A3013",
    "value": 30.13,
    "spoken": "three zero point one three"
  },
  "clouds": [
    {
      "repr": "BKN035",
      "type": "BKN",
      "altitude": 35,
      "modifier": null
    },
    {
      "repr": "BKN044",
      "type": "BKN",
      "altitude": 44,
      "modifier": null
    }
  ],
  "flight_rules": "VFR",
  "other": [],
  "visibility": {
    "repr": "10",
    "value": 10,
    "spoken": "one zero"
  },
  "wind_direction": {
    "repr": "170",
    "value": 170,
    "spoken": "one seven zero"
  },
  "wind_gust": {
    "repr": "18",
    "value": 18,
    "spoken": "one eight"
  },
  "wind_speed": {
    "repr": "11",
    "value": 11,
    "spoken": "one one"
  },
  "wx_codes": [],
  "raw": "KORS 052015Z AUTO 17011G18KT 130V190 10SM BKN035 BKN044 10/01 A3013 RMK AO2",
  "sanitized": "KORS 052015Z 17011G18KT 130V190 10SM BKN035 BKN044 10/01 A3013 RMK AO2",
  "station": "KORS",
  "time": {
    "repr": "052015Z",
    "dt": "2023-04-05T20:15:00Z"
  },
  "remarks": "RMK AO2",
  "dewpoint": {
    "repr": "01",
    "value": 1,
    "spoken": "one"
  },
  "relative_humidity": 0.5353837596517852,
  "remarks_info": {
    "maximum_temperature_6": null,
    "minimum_temperature_6": null,
    "pressure_tendency": null,
    "precip_36_hours": null,
    "precip_24_hours": null,
    "sunshine_minutes": null,
    "codes": [
      {
        "repr": "AO2",
        "value": "Automated with precipitation sensor"
      }
    ],
    "dewpoint_decimal": null,
    "maximum_temperature_24": null,
    "minimum_temperature_24": null,
    "precip_hourly": null,
    "sea_level_pressure": null,
    "snow_depth": null,
    "temperature_decimal": null
  },
  "runway_visibility": [],
  "temperature": {
    "repr": "10",
    "value": 10,
    "spoken": "one zero"
  },
  "wind_variable_direction": [
    {
      "repr": "130",
      "value": 130,
      "spoken": "one three zero"
    },
    {
      "repr": "190",
      "value": 190,
      "spoken": "one nine zero"
    }
  ],
  "density_altitude": -772,
  "pressure_altitude": -179,
  "units": {
    "accumulation": "in",
    "altimeter": "inHg",
    "altitude": "ft",
    "temperature": "C",
    "visibility": "sm",
    "wind_speed": "kt"
  }
}
